Platform Id,Date,Time (UTC),Report Type,Wind Condition,Wind Direction,Wind Speed (Knots),Wind Gust Speed,Peak Wind (Knots),Visibility (M),Weather,Air Temp (C),Dew Point (C),Altimeter (inHg),SLP (Millibars),Present Automated 1,Present Automated 2,Present Automated 3,Present Manual 1,Present Manual 2,Present Manual 3,Present Manual 4,Present Manual 5,Present Manual 6,Present Manual 7,Precip Hr1,Precip Hr3,Precip Hr6,Precip Hr24,Cloud Cover,Cloud Ceiling (Feet),Lowest Cloud Base Height (Feet),Cloud Cover1,Cloudbase 1,Cloud Cover2,Cloudbase 2,Cloud Cover3,Cloudbase 3,Cloud Cover4,Cloudbase 4
KRDR,12-01-2006,23:09,SPECI,,300,7.0,,,6400.0,Light Snow,-7.0,-9.0,29.90,,,,,71,,,,,,,,,,,8/8 Overcast,2000.0,,FEW,800.0,BKN,2000.0,OVC,4500.0,,
KRDR,12-01-2006,23:00,METAR,,300,8.0,,,9999.0,Light Snow,-6.0,-10.0,29.89,1013.2,,,,71,,,,,,,,,,,8/8 Overcast,1400.0,,FEW,400.0,FEW,1000.0,BKN,1400.0,OVC,3400.0
KRDR,12-01-2006,22:04,SPECI,,280,11.0,21.0,,9999.0,,-5.0,-11.0,29.87,,,,,,,,,,,,,,,,8/8 Overcast,4700.0,,FEW,2000.0,OVC,4800.0,,,,
KRDR,12-01-2006,22:00,METAR,,270,15.0,,,9999.0,Light Snow,-5.0,-11.0,29.87,1012.4,,,,71,,,,,,,,,,,8/8 Overcast,4700.0,,FEW,2500.0,OVC,4800.0,,,,
KRDR,12-01-2006,21:00,METAR,,270,10.0,,,9999.0,,-4.0,-10.0,29.85,1011.7,,,,,,,,,,,,,,,7/8 Mostly Cloudy,5000.0,,BKN,5100.0,,,,,,
KRDR,12-01-2006,20:00,METAR,,270,10.0,,,9999.0,,-4.0,-10.0,29.85,1011.7,,,,,,,,,,,,,,,7/8 Mostly Cloudy,5000.0,,BKN,5200.0,,,,,,
KRDR,12-01-2006,19:00,METAR,,260,9.0,,,9999.0,,-4.0,-9.0,29.85,1011.8,,,,,,,,,,,,,,,2/8 Mostly Clear,72000.0,,FEW,3200.0,FEW,25000.0,,,,
KRDR,12-01-2006,18:00,METAR,,250,7.0,,,9999.0,,-5.0,-10.0,29.86,1012.1,,,,,,,,,,,,,TRACE,,2/8 Mostly Clear,72000.0,,FEW,12000.0,FEW,25000.0,,,,
KRDR,12-01-2006,17:00,METAR,,280,8.0,,,9999.0,,-5.0,-10.0,29.87,1012.3,,,,,,,,,,,,,,,4/8 Partly Cloudy,72000.0,,FEW,12000.0,SCT,25000.0,,,,
KRDR,12-01-2006,16:09,SPECI,,290,10.0,,,9999.0,,-6.0,-9.0,29.86,,,,,,,,,,,,,,,,7/8 Mostly Cloudy,25000.0,,SCT,2300.0,SCT,12000.0,BKN,25000.0,,
KRDR,12-01-2006,16:00,METAR,,220,8.0,,,9999.0,,-7.0,-9.0,29.85,1011.8,,,,,,,,,,,,,,,7/8 Mostly Cloudy,2300.0,,BKN,2300.0,BKN,25000.0,,,,
KRDR,12-01-2006,15:00,METAR,,180,11.0,,,9999.0,,-9.0,-11.0,29.84,1011.4,,,,,,,,,,,,TRACE,,,7/8 Mostly Cloudy,2400.0,,FEW,400.0,BKN,2400.0,,,,
KRDR,12-01-2006,14:00,METAR,,180,14.0,20.0,,4800.0,Light Snow/Mist,-9.0,-12.0,29.85,1011.8,,,,71,10,,,,,,TRACE,,,,8/8 Overcast,2700.0,,SCT,400.0,BKN,2700.0,BKN,4000.0,OVC,5000.0
KRDR,12-01-2006,13:43,SPECI,,180,15.0,,,2400.0,Light Snow,-9.0,-12.0,29.86,1012.0,,,,71,,,,,,,,,,,8/8 Overcast,2200.0,,SCT,400.0,BKN,2200.0,OVC,2700.0,,
KRDR,12-01-2006,13:00,METAR,,160,15.0,20.0,,9999.0,Light Snow,-10.0,-12.0,29.87,1012.3,,,,71,,,,,,,TRACE,,,,8/8 Overcast,2300.0,,FEW,700.0,OVC,2300.0,,,,
KRDR,12-01-2006,12:00,METAR,,160,14.0,,,9999.0,Light Snow,-10.0,-12.0,29.87,1012.5,,,,71,,,,,,,,,.01 IN,.01 IN,8/8 Overcast,2800.0,,FEW,1200.0,OVC,2800.0,,,,
KRDR,12-01-2006,11:00,METAR,,170,14.0,,,9999.0,Light Snow,-10.0,-13.0,29.90,1013.3,,,,71,,,,,,,TRACE,,,,8/8 Overcast,1100.0,,BKN,1100.0,OVC,3000.0,,,,
KRDR,12-01-2006,10:33,SPECI,,160,14.0,,,8000.0,Light Snow,-11.0,-13.0,29.90,,,,,71,,,,,,,,,,,8/8 Overcast,1800.0,,BKN,1800.0,OVC,3200.0,,,,
KRDR,12-01-2006,10:00,METAR,,150,13.0,,,4800.0,Light Snow,-11.0,-13.0,29.93,1014.3,,,,71,,,,,,,TRACE,,,,8/8 Overcast,3100.0,,SCT,1100.0,OVC,3200.0,,,,
KRDR,12-01-2006,09:08,SPECI,,160,13.0,,,9999.0,Light Snow,-11.0,-14.0,29.95,,,,,71,,,,,,,,,,,8/8 Overcast,4500.0,,FEW,2300.0,SCT,3200.0,BKN,4600.0,OVC,8900.0
KRDR,12-01-2006,09:00,METAR,,160,13.0,,,9999.0,,-11.0,-14.0,29.96,1015.3,,,,,,,,,,,,,,,8/8 Overcast,9000.0,,SCT,4700.0,OVC,8900.0,,,,
KRDR,12-01-2006,08:00,METAR,,150,13.0,,,9999.0,,-11.0,-14.0,29.96,1015.4,,,,,,,,,,,,,,,8/8 Overcast,9000.0,,OVC,8900.0,,,,,,
KRDR,12-01-2006,07:00,METAR,,160,13.0,,,9999.0,,-11.0,-15.0,30.01,1016.9,,,,,,,,,,,,,,,8/8 Overcast,11000.0,,OVC,11000.0,,,,,,
KRDR,12-01-2006,06:00,METAR,,180,14.0,,,9999.0,,-12.0,-15.0,30.04,1018.0,,,,,,,,,,,,,,,7/8 Mostly Cloudy,15000.0,,BKN,15000.0,,,,,,
KRDR,12-01-2006,05:00,METAR,,170,10.0,,,9999.0,,-12.0,-15.0,30.08,1019.3,,,,,,,,,,,,,,,4/8 Partly Cloudy,72000.0,,SCT,20000.0,,,,,,
KRDR,12-01-2006,04:00,METAR,,170,11.0,,,9999.0,,-13.0,-16.0,30.09,1019.5,,,,,,,,,,,,,,,7/8 Mostly Cloudy,20000.0,,BKN,20000.0,,,,,,
KRDR,12-01-2006,03:00,METAR,,170,8.0,,,9999.0,,-13.0,-16.0,30.12,1020.5,,,,,,,,,,,,,,,7/8 Mostly Cloudy,20000.0,,BKN,20000.0,,,,,,
KRDR,12-01-2006,02:00,METAR,,160,7.0,,,9999.0,,-14.0,-16.0,30.13,1021.1,,,,,,,,,,,,,,,4/8 Partly Cloudy,72000.0,,SCT,20000.0,,,,,,
KRDR,12-01-2006,01:00,METAR,,140,8.0,,,9999.0,,-15.0,-17.0,30.15,1021.7,,,,,,,,,,,,,,,4/8 Partly Cloudy,72000.0,,SCT,20000.0,,,,,,
KRDR,12-01-2006,00:00,METAR,,150,5.0,,,9999.0,,-15.0,-18.0,30.18,1022.7,,,,,,,,,,,,,,,Clear,72000.0,,,73000.0,,,,,,
KRDR,11-30-2006,23:00,METAR,,160,7.0,,,9999.0,,-14.0,-17.0,30.19,1023.1,,,,,,,,,,,,,,,4/8 Partly Cloudy,72000.0,,SCT,20000.0,,,,,,
KRDR,11-30-2006,22:00,METAR,,160,6.0,,,9999.0,,-12.0,-16.0,30.21,1023.6,,,,,,,,,,,,,,,2/8 Mostly Clear,72000.0,,FEW,12000.0,FEW,20000.0,,,,
KRDR,11-30-2006,21:00,METAR,,190,6.0,,,9999.0,,-12.0,-16.0,30.23,1024.3,,,,,,,,,,,,,,,2/8 Mostly Clear,72000.0,,FEW,20000.0,,,,,,
KRDR,11-30-2006,20:00,METAR,,190,5.0,,,9999.0,,-12.0,-16.0,30.26,1025.2,,,,,,,,,,,,,,,2/8 Mostly Clear,72000.0,,FEW,20000.0,,,,,,
KRDR,11-30-2006,19:00,METAR,,190,8.0,,,9999.0,,-13.0,-17.0,30.30,1026.6,,,,,,,,,,,,,,,2/8 Mostly Clear,72000.0,,FEW,20000.0,,,,,,
KRDR,11-30-2006,18:00,METAR,,210,5.0,,,9999.0,,-14.0,-18.0,30.33,1027.6,,,,,,,,,,,,,,,2/8 Mostly Clear,72000.0,,FEW,20000.0,,,,,,
KRDR,11-30-2006,17:00,METAR,,200,5.0,,,9999.0,,-15.0,-19.0,30.36,1028.5,,,,,,,,,,,,,,,Clear,72000.0,,,73000.0,,,,,,
KRDR,11-30-2006,16:00,METAR,,300,5.0,,,9999.0,,-17.0,-20.0,30.35,1028.3,,,,,,,,,,,,,,,Clear,72000.0,,,73000.0,,,,,,
KRDR,11-30-2006,15:00,METAR,,280,6.0,,,9999.0,,-18.0,-22.0,30.36,1028.7,,,,,,,,,,,,,,,Clear,72000.0,,,73000.0,,,,,,
KRDR,11-30-2006,14:00,METAR,,280,5.0,,,9999.0,,-20.0,-23.0,30.34,1028.0,,,,,,,,,,,,,,,Clear,72000.0,,,73000.0,,,,,,
KRDR,11-30-2006,13:00,METAR,,320,7.0,,,9999.0,,-19.0,-22.0,30.33,1027.5,,,,,,,,,,,,,,,Clear,72000.0,,,73000.0,,,,,,
KRDR,11-30-2006,12:00,METAR,,300,6.0,,,9999.0,,-18.0,-22.0,30.33,1027.7,,,,,,,,,,,,,,,Clear,72000.0,,,73000.0,,,,,,
KRDR,11-30-2006,11:00,METAR,,300,11.0,,,9999.0,,-18.0,-21.0,30.33,1027.7,,,,,,,,,,,,,,,Clear,72000.0,,,73000.0,,,,,,
KRDR,11-30-2006,10:00,METAR,,300,9.0,,,9999.0,,-17.0,-21.0,30.32,1027.4,,,,,,,,,,,,,,,Clear,72000.0,,,73000.0,,,,,,
KRDR,11-30-2006,09:00,METAR,,300,9.0,,,9999.0,,-18.0,-21.0,30.32,1027.2,,,,,,,,,,,,,,,Clear,72000.0,,,73000.0,,,,,,
KRDR,11-30-2006,08:00,METAR,,300,10.0,,,9999.0,,-17.0,-21.0,30.31,1026.8,,,,,,,,,,,,,,,Clear,72000.0,,,73000.0,,,,,,
KRDR,11-30-2006,07:00,METAR,,300,9.0,,,9999.0,,-18.0,-21.0,30.30,1026.5,,,,,,,,,,,,,,,Clear,72000.0,,,73000.0,,,,,,
KRDR,11-30-2006,06:00,METAR,,300,8.0,,,9999.0,,-18.0,-21.0,30.29,1026.3,,,,,,,,,,,,,,,Clear,72000.0,,,73000.0,,,,,,
KRDR,11-30-2006,05:00,METAR,,290,9.0,,,9999.0,,-17.0,-21.0,30.28,1026.0,,,,,,,,,,,,,,,Clear,72000.0,,,73000.0,,,,,,
KRDR,11-30-2006,04:00,METAR,,310,11.0,,,9999.0,,-16.0,-21.0,30.26,1025.1,,,,,,,,,,,,,,,Clear,72000.0,,,73000.0,,,,,,
KRDR,11-30-2006,03:00,METAR,,310,10.0,,,9999.0,,-16.0,-20.0,30.24,1024.6,,,,,,,,,,,,,,,Clear,72000.0,,,73000.0,,,,,,
KRDR,11-30-2006,02:00,METAR,,300,8.0,,,9999.0,,-16.0,-20.0,30.22,1023.8,,,,,,,,,,,,,,,Clear,72000.0,,,73000.0,,,,,,
KRDR,11-30-2006,01:00,METAR,,290,8.0,,,9999.0,,-16.0,-20.0,30.21,1023.5,,,,,,,,,,,,,,,Clear,72000.0,,,73000.0,,,,,,
KRDR,11-30-2006,00:00,METAR,,280,10.0,,,9999.0,,-15.0,-19.0,30.19,1023.0,,,,,,,,,,,,,TRACE,,Clear,72000.0,,,73000.0,,,,,,
KRDR,11-29-2006,23:00,METAR,,270,11.0,,,9999.0,,-15.0,-20.0,30.18,1022.5,,,,,,,,,,,,,,,2/8 Mostly Clear,72000.0,,FEW,1500.0,,,,,,
KRDR,11-29-2006,22:00,METAR,,270,11.0,18.0,,9999.0,,-15.0,-19.0,30.16,1021.8,,,,,,,,,,,,,,,2/8 Mostly Clear,72000.0,,FEW,1500.0,,,,,,
KRDR,11-29-2006,21:00,METAR,,280,17.0,22.0,,9999.0,,-15.0,-20.0,30.12,1020.8,,,,,,,,,,,,TRACE,,,4/8 Partly Cloudy,72000.0,,SCT,1400.0,SCT,20000.0,,,,
KRDR,11-29-2006,20:00,METAR,,270,12.0,24.0,260/26KTS,9999.0,,-15.0,-20.0,30.10,1021.9,,,,,,,,,,,TRACE,,,,7/8 Mostly Cloudy,20000.0,,SCT,1500.0,SCT,9900.0,BKN,20000.0,,
KRDR,11-29-2006,19:00,METAR,,270,12.0,20.0,,9999.0,,-15.0,-20.0,30.10,1020.0,,,,,,,,,,,TRACE,,,,7/8 Mostly Cloudy,20000.0,,SCT,1500.0,SCT,9900.0,BKN,20000.0,,
KRDR,11-29-2006,18:21,SPECI,,270,12.0,,,9999.0,,-16.0,-20.0,30.09,1019.8,,,,,,,,,,,,,,,7/8 Mostly Cloudy,10000.0,,FEW,800.0,SCT,1400.0,BKN,9900.0,,
KRDR,11-29-2006,18:00,METAR,,280,13.0,,,9999.0,,-16.0,-20.0,30.10,1019.9,,,,,,,,,,,TRACE,,TRACE,,7/8 Mostly Cloudy,1000.0,,FEW,500.0,SCT,1400.0,BKN,11000.0,BKN,20000.0
KRDR,11-29-2006,17:42,SPECI,,270,12.0,21.0,,9999.0,,-16.0,-21.0,30.10,1020.0,,,,,,,,,,,,,,,7/8 Mostly Cloudy,20000.0,,FEW,500.0,SCT,1200.0,BKN,20000.0,,
KRDR,11-29-2006,17:00,METAR,,270,14.0,,,9999.0,,-16.0,-21.0,30.10,1019.9,,,,,,,,,,,,,,,7/8 Mostly Cloudy,20000.0,,FEW,1400.0,SCT,11000.0,BKN,20000.0,,
KRDR,11-29-2006,16:00,METAR,,260,10.0,,,9999.0,,-17.0,-22.0,30.09,1019.5,,,,,,,,,,,,,,,4/8 Partly Cloudy,72000.0,,FEW,1200.0,SCT,11000.0,SCT,20000.0,,
KRDR,11-29-2006,15:00,METAR,,260,9.0,,,9999.0,,-18.0,-23.0,30.09,1019.5,,,,,,,,,,,,,,,4/8 Partly Cloudy,72000.0,,FEW,11000.0,SCT,20000.0,,,,
KRDR,11-29-2006,14:00,METAR,,270,9.0,,,9999.0,,-18.0,-23.0,30.06,1018.7,,,,,,,,,,,,,,,4/8 Partly Cloudy,72000.0,,SCT,12000.0,SCT,25000.0,,,,
KRDR,11-29-2006,13:00,METAR,,270,9.0,,,9999.0,,-18.0,-22.0,30.04,1018.2,,,,,,,,,,,,,,,4/8 Partly Cloudy,72000.0,,SCT,25000.0,,,,,,
KRDR,11-29-2006,12:00,METAR,,280,10.0,,,9999.0,,-18.0,-22.0,30.02,1017.5,,,,,,,,,,,,,,.21 IN,4/8 Partly Cloudy,72000.0,,SCT,25000.0,,,,,,
KRDR,11-29-2006,11:00,METAR,,270,8.0,,,9999.0,,-17.0,-21.0,29.99,1016.5,,,,,,,,,,,,,,,4/8 Partly Cloudy,72000.0,,SCT,25000.0,,,,,,
KRDR,11-29-2006,10:00,METAR,,270,9.0,,,9999.0,,-16.0,-19.0,29.97,1015.7,,,,,,,,,,,,,,,4/8 Partly Cloudy,72000.0,,SCT,1500.0,SCT,25000.0,,,,
KRDR,11-29-2006,09:00,METAR,,280,10.0,,,9999.0,,-15.0,-19.0,29.94,1014.9,,,,,,,,,,,,,,,4/8 Partly Cloudy,72000.0,,SCT,1000.0,SCT,9900.0,,,,
KRDR,11-29-2006,08:00,METAR,,280,12.0,,,9999.0,,-14.0,-17.0,29.92,1014.0,,,,,,,,,,,,,,,4/8 Partly Cloudy,72000.0,,SCT,9900.0,SCT,25000.0,,,,
KRDR,11-29-2006,07:00,METAR,,270,13.0,,,9999.0,,-13.0,-16.0,29.89,1013.1,,,,,,,,,,,,,,,7/8 Mostly Cloudy,10000.0,,SCT,4000.0,BKN,9900.0,,,,
KRDR,11-29-2006,06:26,SPECI,,270,12.0,,,9999.0,,-12.0,-16.0,29.87,,,,,,,,,,,,,,,,7/8 Mostly Cloudy,10000.0,,FEW,1500.0,SCT,4000.0,BKN,9900.0,,
KRDR,11-29-2006,06:00,METAR,,280,13.0,,,9999.0,,-11.0,-15.0,29.87,1012.3,,,,,,,,,,,,,TRACE,,7/8 Mostly Cloudy,1500.0,,BKN,1500.0,,,,,,
KRDR,11-29-2006,05:39,SPECI,,280,10.0,15.0,,9999.0,Drifting Snow,-11.0,-14.0,29.86,,,,,36,,,,,,,,,,,8/8 Overcast,1500.0,,FEW,800.0,BKN,1500.0,OVC,4000.0,,
KRDR,11-29-2006,05:00,METAR,,270,12.0,,,9999.0,,-9.0,-13.0,29.83,1011.1,,,,,,,,,,,,,,,8/8 Overcast,3800.0,,OVC,3900.0,,,,,,
KRDR,11-29-2006,04:34,SPECI,,290,10.0,,,9999.0,Drifting Snow,-9.0,-12.0,29.83,,,,,36,,,,,,,,,,,8/8 Overcast,3400.0,,SCT,1000.0,OVC,3500.0,,,,
KRDR,11-29-2006,04:09,SPECI,,280,9.0,,,9999.0,,-9.0,-12.0,29.81,,,,,,,,,,,,,,,,8/8 Overcast,2800.0,,FEW,900.0,OVC,2800.0,,,,
KRDR,11-29-2006,04:00,METAR,,280,12.0,,,9999.0,Drifting Snow,-8.0,-11.0,29.80,1010.3,,,,36,,,,,,,TRACE,,,,8/8 Overcast,1800.0,,OVC,1800.0,,,,,,
KRDR,11-29-2006,03:40,SPECI,,280,12.0,,,9999.0,,-8.0,-11.0,29.80,,,,,,,,,,,,,,,,8/8 Overcast,1200.0,,OVC,1200.0,,,,,,
KRDR,11-29-2006,03:18,SPECI,,270,10.0,,,9999.0,Light Snow,-7.0,-10.0,29.81,1010.4,,,,71,,,,,,,,,,,8/8 Overcast,1900.0,,FEW,600.0,OVC,1900.0,,,,
KRDR,11-29-2006,03:03,SPECI,,270,12.0,,,9999.0,Drifting Snow,-6.0,-10.0,29.79,,,,,36,,,,,,,,,,,8/8 Overcast,1600.0,,FEW,500.0,OVC,1600.0,,,,
KRDR,11-29-2006,03:00,METAR,,280,12.0,,,9999.0,,-6.0,-9.0,29.78,1009.5,,,,,,,,,,,,,,,8/8 Overcast,1600.0,,OVC,1600.0,,,,,,
KRDR,11-29-2006,02:00,METAR,,300,5.0,,,9999.0,,-5.0,-8.0,29.72,1007.5,,,,,,,,,,,,,,,8/8 Overcast,1500.0,,OVC,1500.0,,,,,,
KRDR,11-29-2006,01:00,METAR,,300,4.0,,,9999.0,,-5.0,-7.0,29.70,1006.8,,,,,,,,,,,,,,,8/8 Overcast,1800.0,,OVC,1800.0,,,,,,
KRDR,11-29-2006,00:02,SPECI,,300,6.0,,,9999.0,,-4.0,-7.0,29.66,1005.6,,,,,,,,,,,,,,,8/8 Overcast,1600.0,,BKN,1600.0,OVC,5000.0,,,,
KRDR,11-29-2006,00:00,METAR,,300,6.0,,,9999.0,,-4.0,-6.0,29.66,1005.4,,,,,,,,,,,,,.01 IN,,8/8 Overcast,3900.0,,SCT,2000.0,BKN,4000.0,OVC,5000.0,,
KRDR,11-28-2006,23:00,METAR,,300,5.0,,,9999.0,,-3.0,-5.0,29.62,1004.1,,,,,,,,,,,,,,,8/8 Overcast,3200.0,,SCT,2200.0,OVC,4100.0,,,,
KRDR,11-28-2006,22:26,SPECI,,300,5.0,,,9999.0,,-2.0,-4.0,29.61,1003.8,,,,,,,,,,,,,,,8/8 Overcast,1600.0,,BKN,1600.0,OVC,4000.0,,,,
KRDR,11-28-2006,22:06,SPECI,,290,4.0,,,9999.0,,-3.0,-4.0,29.62,,,,,,,,,,,,,,,,8/8 Overcast,1000.0,,OVC,1000.0,,,,,,
KRDR,11-28-2006,22:00,METAR,,290,4.0,,,9999.0,,-3.0,-4.0,29.60,1003.5,,,,,,,,,,,,,,,8/8 Overcast,900.0,,BKN,900.0,OVC,1200.0,,,,
KRDR,11-28-2006,21:10,SPECI,,320,5.0,,,9999.0,,-3.0,-4.0,29.54,1001.7,,,,,,,,,,,,,,,8/8 Overcast,800.0,,OVC,800.0,,,,,,
KRDR,11-28-2006,21:00,METAR,,330,5.0,,,9999.0,,-3.0,-4.0,29.53,1001.1,,,,,,,,,,,,.01 IN,,,8/8 Overcast,500.0,,OVC,500.0,,,,,,
KRDR,11-28-2006,20:52,SPECI,,330,5.0,,,9999.0,,-3.0,-4.0,29.53,,,,,,,,,,,,,,,,8/8 Overcast,600.0,,OVC,600.0,,,,,,
KRDR,11-28-2006,20:00,METAR,,320,5.0,,,9999.0,,-2.0,-3.0,29.52,1001.0,,,,,,,,,,,,,,,8/8 Overcast,400.0,,OVC,400.0,,,,,,
KRDR,11-28-2006,19:00,METAR,,330,5.0,,,9999.0,Light Snow,-2.0,-2.0,29.51,1000.7,,,,71,,,,,,,.01 IN,,,,8/8 Overcast,400.0,,OVC,400.0,,,,,,
KRDR,11-28-2006,18:01,SPECI,,340,5.0,,,6400.0,Light Snow/Mist,-1.0,-2.0,29.51,1000.7,,,,71,10,,,,,,,,,,8/8 Overcast,100.0,,OVC,400.0,,,,,,
KRDR,11-28-2006,18:00,METAR,,350,4.0,,,1600.0,Light Snow,-1.0,-1.0,29.52,1000.8,,,,71,,,,,,,.09 IN,,.2 IN,,8/8 Overcast,500.0,,BKN,500.0,OVC,1000.0,,,,
KRDR,11-28-2006,17:38,SPECI,,350,4.0,,,1200.0,Light Snow,-1.0,-1.0,29.52,,,,,71,,,,,,,,,,,8/8 Overcast,200.0,,OVC,200.0,,,,,,
KRDR,11-28-2006,17:34,SPECI,,350,4.0,,,800.0,Snow,-1.0,-1.0,29.52,,,,,73,,,,,,,,,,,8/8 Overcast,200.0,,OVC,200.0,,,,,,
KRDR,11-28-2006,17:28,SPECI,,360,4.0,,,400.0,Snow,0.0,-1.0,29.52,,,,,73,,,,,,,,,,,8/8 Overcast,200.0,,OVC,200.0,,,,,,
KRDR,11-28-2006,17:18,SPECI,,360,4.0,,,200.0,Snow,0.0,-1.0,29.52,,,,,73,,,,,,,,,,,Sky Obscured (Unable to Estimate),100.0,100.0,,100.0,,,,,,
KRDR,11-28-2006,17:15,SPECI,,360,4.0,,,1600.0,Light Snow,0.0,-1.0,29.53,,,,,71,,,,,,,,,,,8/8 Overcast,200.0,,OVC,200.0,,,,,,
KRDR,11-28-2006,17:05,SPECI,,10,4.0,,,2400.0,Light Snow/Mist,0.0,-1.0,29.54,,,,,71,10,,,,,,,,,,8/8 Overcast,300.0,,OVC,300.0,,,,,,
KRDR,11-28-2006,17:02,SPECI,,10,4.0,,,2400.0,Light Snow/Mist,0.0,-1.0,29.54,,,,,71,10,,,,,,,,,,8/8 Overcast,300.0,,OVC,300.0,,,,,,
KRDR,11-28-2006,17:00,METAR,,10,3.0,,,4000.0,Snow Pellets or Hail/Mist,0.0,-1.0,29.55,1002.0,,,,88,10,,,,,,.01 IN,,,,8/8 Overcast,300.0,,OVC,300.0,,,,,,
KRDR,11-28-2006,16:33,SPECI,,20,4.0,,,8000.0,Light Snow/Mist,0.0,-1.0,29.54,,,,,71,10,,,,,,,,,,8/8 Overcast,300.0,,OVC,300.0,,,,,,
KRDR,11-28-2006,16:00,METAR,,30,3.0,,,4800.0,Light Snow,0.0,0.0,29.56,1002.1,,,,71,,,,,,,.04 IN,,,,8/8 Overcast,300.0,,OVC,300.0,,,,,,
KRDR,11-28-2006,15:51,SPECI,,30,3.0,,,4000.0,Light Snow/Mist,0.0,0.0,29.56,,,,,71,10,,,,,,,,,,8/8 Overcast,300.0,,OVC,300.0,,,,,,
KRDR,11-28-2006,15:36,SPECI,,40,3.0,,,1200.0,Light Snow/Mist,0.0,0.0,29.56,1002.2,,,,71,10,,,,,,,,,,8/8 Overcast,200.0,,OVC,200.0,,,,,,
KRDR,11-28-2006,15:32,SPECI,,40,3.0,,,1200.0,Light Snow/Mist,0.0,0.0,29.56,1002.3,,,,71,10,,,,,,,,,,8/8 Overcast,200.0,,OVC,200.0,,,,,,
KRDR,11-28-2006,15:30,METAR,,40,6.0,,,1600.0,Light Snow/Mist,0.0,0.0,29.56,1002.4,,,,71,10,,,,,,,,,,8/8 Overcast,200.0,,OVC,200.0,,,,,,
KRDR,11-28-2006,15:24,SPECI,,30,3.0,,,1600.0,Light Snow/Mist,0.0,0.0,29.57,1002.4,,,,71,10,,,,,,,,,,8/8 Overcast,200.0,,OVC,200.0,,,,,,
KRDR,11-28-2006,15:15,SPECI,,40,3.0,,,6400.0,Light Snow/Mist,0.0,0.0,29.58,,,,,71,10,,,,,,,,,,8/8 Overcast,300.0,,OVC,300.0,,,,,,
KRDR,11-28-2006,15:02,SPECI,,30,3.0,,,4800.0,Snow/Light Freezing Rain/Mist,0.0,0.0,29.59,1003.1,,,,66,73,10,,,,,,,,,8/8 Overcast,200.0,,OVC,200.0,,,,,,
KRDR,11-28-2006,15:00,METAR,,30,3.0,,,4800.0,Light Snow/Mist,0.0,-1.0,29.59,1003.2,,,,71,10,,,,,,.04 IN,.06 IN,,,8/8 Overcast,200.0,,OVC,200.0,,,,,,
KRDR,11-28-2006,14:47,SPECI,,30,3.0,,,4000.0,Light Snow/Mist,0.0,-1.0,29.59,1003.4,,,,71,10,,,,,,,,,,8/8 Overcast,200.0,,OVC,200.0,,,,,,
KRDR,11-28-2006,14:34,SPECI,,30,3.0,,,4000.0,Freezing Drizzle/Mist,0.0,-1.0,29.61,,,,,56,10,,,,,,,,,,8/8 Overcast,300.0,,OVC,300.0,,,,,,
KRDR,11-28-2006,14:23,SPECI,,30,3.0,,,3200.0,Freezing Drizzle/Mist,0.0,-1.0,29.62,1004.2,,,,56,10,,,,,,,,,,8/8 Overcast,200.0,,OVC,200.0,,,,,,
KRDR,11-28-2006,14:06,SPECI,,40,4.0,,,3200.0,Snow/Light Freezing Rain/Mist,0.0,-1.0,29.63,1004.6,,,,66,73,10,,,,,,,,,8/8 Overcast,200.0,,OVC,200.0,,,,,,
KRDR,11-28-2006,14:00,METAR,,40,4.0,,,4000.0,Freezing Drizzle/Mist,0.0,-1.0,29.64,1004.7,,,,56,10,,,,,,.01 IN,,,,8/8 Overcast,300.0,,OVC,300.0,,,,,,
KRDR,11-28-2006,13:43,SPECI,,40,4.0,,,4000.0,Freezing Drizzle/Mist,0.0,-1.0,29.64,1004.8,,,,56,10,,,,,,,,,,8/8 Overcast,300.0,,OVC,300.0,,,,,,
KRDR,11-28-2006,13:13,SPECI,,50,5.0,,,6400.0,Light Freezing Rain/Mist,0.0,-1.0,29.65,1005.3,,,,66,10,,,,,,,,,,8/8 Overcast,300.0,,OVC,300.0,,,,,,
KRDR,11-28-2006,13:00,METAR,,50,5.0,,,4000.0,Light Freezing Rain/Mist,0.0,-1.0,29.66,1005.4,,,,66,10,,,,,,.01 IN,,,,8/8 Overcast,300.0,,OVC,300.0,,,,,,
KRDR,11-28-2006,12:56,SPECI,,50,6.0,,,4800.0,Light Freezing Rain/Mist,0.0,-1.0,29.66,1005.4,,,,66,10,,,,,,,,,,8/8 Overcast,300.0,,OVC,300.0,,,,,,
KRDR,11-28-2006,12:30,METAR,,60,7.0,,,4000.0,Light Freezing Rain,0.0,-1.0,29.66,,,,,66,,,,,,,,,,,8/8 Overcast,300.0,,OVC,300.0,,,,,,
KRDR,11-28-2006,12:20,METAR,,60,8.0,,,4000.0,Freezing Drizzle,0.0,-1.0,29.66,,,,,56,,,,,,,,,,,8/8 Overcast,300.0,,OVC,300.0,,,,,,
KRDR,11-28-2006,12:11,SPECI,,60,8.0,,,4800.0,Freezing Drizzle,-1.0,-1.0,29.67,,,,,56,,,,,,,,,,,8/8 Overcast,400.0,,OVC,400.0,,,,,,
KRDR,11-28-2006,12:00,METAR,,50,9.0,,,9999.0,,-1.0,-1.0,29.69,1006.5,,,,,,,,,,,.01 IN,,.05 IN,.05 IN,8/8 Overcast,400.0,,OVC,400.0,,,,,,
KRDR,11-28-2006,11:37,SPECI,,60,8.0,,,6400.0,Light Snow,-1.0,-2.0,29.70,,,,,71,,,,,,,,,,,8/8 Overcast,500.0,,OVC,500.0,,,,,,
KRDR,11-28-2006,11:02,SPECI,,70,9.0,,,9999.0,Snow/Light Freezing Rain,-1.0,-2.0,29.74,,,,,66,73,,,,,,,,,,8/8 Overcast,500.0,,OVC,500.0,,,,,,
KRDR,11-28-2006,11:00,METAR,,70,9.0,,,6400.0,Light Snow/Mist,-1.0,-2.0,29.74,1008.0,,,,71,10,,,,,,.01 IN,,,,8/8 Overcast,500.0,,OVC,500.0,,,,,,
KRDR,11-28-2006,10:45,METAR,,60,8.0,,,8000.0,Light Snow/Mist,-1.0,-2.0,29.75,,,,,71,10,,,,,,,,,,8/8 Overcast,500.0,,OVC,500.0,,,,,,
KRDR,11-28-2006,10:07,SPECI,,50,5.0,,,8000.0,Light Snow/Mist,-1.0,-2.0,29.77,1009.1,,,,71,10,,,,,,,,,,8/8 Overcast,800.0,,OVC,800.0,,,,,,
KRDR,11-28-2006,10:00,METAR,,50,6.0,,,9999.0,Snow Grains,-1.0,-2.0,29.78,1009.4,,,,77,,,,,,,.01 IN,,,,8/8 Overcast,1000.0,,OVC,1000.0,,,,,,
KRDR,11-28-2006,09:38,SPECI,,70,6.0,,,8000.0,Light Snow/Mist,-1.0,-2.0,29.79,,,,,71,10,,,,,,,,,,8/8 Overcast,900.0,,OVC,900.0,,,,,,
KRDR,11-28-2006,09:24,SPECI,,70,8.0,,,9999.0,Light Snow,-1.0,-2.0,29.80,,,,,71,,,,,,,,,,,8/8 Overcast,1000.0,,OVC,1000.0,,,,,,
KRDR,11-28-2006,09:01,SPECI,,70,9.0,,,9999.0,Freezing Drizzle,-1.0,-2.0,29.81,,,,,56,,,,,,,,,,,8/8 Overcast,800.0,,OVC,800.0,,,,,,
KRDR,11-28-2006,09:00,METAR,,80,7.0,,,9999.0,,-1.0,-2.0,29.81,1010.3,,,,,,,,,,,.01 IN,.02 IN,,,8/8 Overcast,800.0,,OVC,800.0,,,,,,
KRDR,11-28-2006,08:43,SPECI,,80,7.0,,,9999.0,,-1.0,-2.0,29.82,,,,,,,,,,,,,,,,8/8 Overcast,900.0,,OVC,900.0,,,,,,
KRDR,11-28-2006,08:00,METAR,,70,9.0,,,9999.0,Light Freezing Rain,-2.0,-3.0,29.85,1011.8,,,,66,,,,,,,TRACE,,,,8/8 Overcast,1400.0,,OVC,1400.0,,,,,,
KRDR,11-28-2006,07:20,METAR,,80,9.0,,,9999.0,,-2.0,-4.0,29.88,,,,,,,,,,,,,,,,8/8 Overcast,1400.0,,FEW,600.0,OVC,1400.0,,,,
KRDR,11-28-2006,07:00,METAR,,90,10.0,,,9999.0,Light Freezing Rain,-2.0,-4.0,29.89,1013.2,,,,66,,,,,,,,,,,8/8 Overcast,1600.0,,FEW,700.0,OVC,1600.0,,,,
KRDR,11-28-2006,06:37,SPECI,,90,11.0,,,9999.0,Light Freezing Rain,-2.0,-4.0,29.90,,,,,66,,,,,,,,,,,8/8 Overcast,1700.0,,FEW,700.0,OVC,1700.0,,,,
KRDR,11-28-2006,06:25,METAR,,90,10.0,,,9999.0,,-1.0,-4.0,29.91,,,,,,,,,,,,,,,,8/8 Overcast,1800.0,,FEW,700.0,OVC,1800.0,,,,
KRDR,11-28-2006,06:17,SPECI,,90,10.0,,,8000.0,Snow Grains,-1.0,-5.0,29.91,,,,,77,,,,,,,,,,,8/8 Overcast,1700.0,,OVC,1700.0,,,,,,
KRDR,11-28-2006,06:00,METAR,,90,11.0,,,9999.0,,-1.0,-5.0,29.92,1014.0,,,,,,,,,,,,,TRACE,,8/8 Overcast,1700.0,,OVC,1700.0,,,,,,
KRDR,11-28-2006,05:00,METAR,,90,13.0,20.0,,9999.0,,-1.0,-6.0,29.93,1014.5,,,,,,,,,,,,,,,8/8 Overcast,1700.0,,OVC,1700.0,,,,,,
KRDR,11-28-2006,04:00,METAR,,80,11.0,,,9999.0,,-2.0,-6.0,29.97,1015.8,,,,,,,,,,,,,,,8/8 Overcast,1600.0,,OVC,1600.0,,,,,,
KRDR,11-28-2006,03:00,METAR,,80,13.0,,,9999.0,,-2.0,-7.0,30.01,1017.0,,,,,,,,,,,TRACE,TRACE,,,8/8 Overcast,1900.0,,OVC,1900.0,,,,,,
KRDR,11-28-2006,02:13,SPECI,,90,13.0,,,9999.0,,-3.0,-6.0,30.03,,,,,,,,,,,,,,,,8/8 Overcast,1700.0,,OVC,1700.0,,,,,,
KRDR,11-28-2006,02:00,METAR,,90,12.0,,,8000.0,Light Snow,-3.0,-6.0,30.04,1018.0,,,,71,,,,,,,TRACE,,,,8/8 Overcast,1600.0,,OVC,1600.0,,,,,,
KRDR,11-28-2006,01:39,SPECI,,80,14.0,,,9999.0,Light Snow,-3.0,-6.0,30.04,,,,,71,,,,,,,,,,,8/8 Overcast,2100.0,,FEW,900.0,OVC,2100.0,,,,
KRDR,11-28-2006,01:19,SPECI,,110,15.0,,,9999.0,,-2.0,-7.0,30.05,,,,,,,,,,,,,,,,8/8 Overcast,2200.0,,OVC,2200.0,,,,,,
KRDR,11-28-2006,01:11,SPECI,,110,10.0,,,9999.0,Snow Grains,-2.0,-7.0,30.06,,,,,77,,,,,,,,,,,8/8 Overcast,2200.0,,FEW,800.0,OVC,2200.0,,,,
KRDR,11-28-2006,01:00,METAR,,110,13.0,,,9999.0,,-3.0,-7.0,30.06,1018.7,,,,,,,,,,,TRACE,,,,8/8 Overcast,2200.0,,OVC,2200.0,,,,,,
KRDR,11-28-2006,00:43,SPECI,,110,15.0,,,9999.0,Snow Grains,-2.0,-7.0,30.07,,,,,77,,,,,,,,,,,8/8 Overcast,2200.0,,OVC,2200.0,,,,,,
KRDR,11-28-2006,00:00,METAR,,100,15.0,20.0,,9999.0,,-3.0,-7.0,30.08,1019.2,,,,,,,,,,,,,,,8/8 Overcast,2200.0,,OVC,2200.0,,,,,,
KRDR,11-27-2006,23:00,METAR,,90,11.0,,,9999.0,,-3.0,-7.0,30.10,1020.0,,,,,,,,,,,,,,,8/8 Overcast,2200.0,,OVC,2200.0,,,,,,
KRDR,11-27-2006,22:00,METAR,,100,10.0,,,9999.0,,-3.0,-7.0,30.12,1020.7,,,,,,,,,,,,,,,8/8 Overcast,2100.0,,OVC,2100.0,,,,,,
KRDR,11-27-2006,21:00,METAR,,100,10.0,,,9999.0,,-4.0,-8.0,30.15,1021.8,,,,,,,,,,,,,,,8/8 Overcast,1700.0,,OVC,1700.0,,,,,,
KRDR,11-27-2006,20:00,METAR,,80,10.0,,,9999.0,,-4.0,-8.0,30.16,1022.0,,,,,,,,,,,,,,,8/8 Overcast,1700.0,,OVC,1700.0,,,,,,
KRDR,11-27-2006,19:00,METAR,,80,11.0,,,9999.0,,-4.0,-8.0,30.20,1023.2,,,,,,,,,,,,,,,8/8 Overcast,1500.0,,OVC,1500.0,,,,,,
KRDR,11-27-2006,18:10,SPECI,,30,7.0,,,9999.0,,-6.0,-9.0,30.22,,,,,,,,,,,,,,,,8/8 Overcast,1200.0,,OVC,1200.0,,,,,,
KRDR,11-27-2006,18:00,METAR,,30,9.0,,,9999.0,,-6.0,-9.0,30.24,1024.6,,,,,,,,,,,,,TRACE,,8/8 Overcast,900.0,,OVC,900.0,,,,,,
KRDR,11-27-2006,17:00,METAR,,30,8.0,,,9999.0,,-8.0,-10.0,30.27,1025.6,,,,,,,,,,,,,,,8/8 Overcast,800.0,,OVC,800.0,,,,,,
KRDR,11-27-2006,16:00,METAR,,20,11.0,,,9999.0,,-9.0,-11.0,30.28,1026.1,,,,,,,,,,,,,,,8/8 Overcast,700.0,,OVC,700.0,,,,,,
KRDR,11-27-2006,15:00,METAR,,20,9.0,,,9999.0,,-10.0,-11.0,30.30,1026.7,,,,,,,,,,,,TRACE,,,8/8 Overcast,700.0,,OVC,700.0,,,,,,
KRDR,11-27-2006,14:00,METAR,,30,7.0,,,9999.0,,-10.0,-12.0,30.31,1026.9,,,,,,,,,,,TRACE,,,,8/8 Overcast,600.0,,OVC,600.0,,,,,,
KRDR,11-27-2006,13:00,METAR,,20,7.0,,,9999.0,Light Snow,-10.0,-12.0,30.31,1027.1,,,,71,,,,,,,TRACE,,,,8/8 Overcast,600.0,,OVC,600.0,,,,,,
KRDR,11-27-2006,12:00,METAR,,10,10.0,,,9999.0,Light Snow,-11.0,-12.0,30.31,1027.0,,,,71,,,,,,,TRACE,,TRACE,,8/8 Overcast,500.0,,OVC,500.0,,,,,,
KRDR,11-27-2006,11:00,METAR,,20,10.0,,,9999.0,Light Snow,-11.0,-13.0,30.32,1027.3,,,,71,,,,,,,TRACE,,,,8/8 Overcast,500.0,,OVC,500.0,,,,,,
KRDR,11-27-2006,10:00,METAR,,20,8.0,,,9999.0,Light Snow,-11.0,-13.0,30.35,1028.1,,,,71,,,,,,,TRACE,,,,8/8 Overcast,600.0,,OVC,600.0,,,,,,
KRDR,11-27-2006,09:40,SPECI,,20,8.0,,,9999.0,Light Snow,-12.0,-13.0,30.35,,,,,71,,,,,,,,,,,8/8 Overcast,600.0,,OVC,600.0,,,,,,
KRDR,11-27-2006,09:28,SPECI,,20,9.0,,,9999.0,Light Snow,-12.0,-14.0,30.35,1028.2,,,,71,,,,,,,,,,,8/8 Overcast,900.0,,FEW,300.0,OVC,900.0,,,,
KRDR,11-27-2006,09:24,SPECI,,10,8.0,,,9999.0,,-13.0,-14.0,30.35,,,,,,,,,,,,,,,,7/8 Mostly Cloudy,1100.0,,BKN,1100.0,,,,,,
KRDR,11-27-2006,09:00,METAR,,10,7.0,,,9999.0,,-13.0,-14.0,30.36,1028.5,,,,,,,,,,,,TRACE,,,4/8 Partly Cloudy,72000.0,,SCT,1200.0,,,,,,
KRDR,11-27-2006,08:14,SPECI,,10,8.0,,,9999.0,,-13.0,-14.0,30.35,,,,,,,,,,,,,,,,4/8 Partly Cloudy,72000.0,,SCT,1000.0,,,,,,
KRDR,11-27-2006,08:00,METAR,,10,8.0,,,9999.0,,-12.0,-14.0,30.35,1028.4,,,,,,,,,,,,,,,7/8 Mostly Cloudy,1300.0,,FEW,400.0,BKN,1300.0,,,,
KRDR,11-27-2006,07:00,METAR,,360,9.0,,,9999.0,,-11.0,-13.0,30.35,1028.2,,,,,,,,,,,TRACE,,,,8/8 Overcast,1200.0,,SCT,800.0,OVC,1200.0,,,,
KRDR,11-27-2006,05:54,METAR,,10,9.0,,,9999.0,Light Snow,-10.0,-13.0,30.34,1028.0,,,,71,,,,,,,,,TRACE,,8/8 Overcast,1200.0,,SCT,700.0,OVC,1200.0,,,,
KRDR,11-27-2006,05:33,SPECI,,360,9.0,,,9999.0,Light Snow,-10.0,-13.0,30.34,,,,,71,,,,,,,,,,,8/8 Overcast,1100.0,,SCT,600.0,OVC,1100.0,,,,
KRDR,11-27-2006,05:00,METAR,,10,8.0,,,9999.0,,-10.0,-12.0,30.34,1027.9,,,,,,,,,,,,,,,8/8 Overcast,1200.0,,SCT,700.0,OVC,1200.0,,,,
KRDR,11-27-2006,04:42,SPECI,,10,8.0,,,9999.0,,-10.0,-12.0,30.34,,,,,,,,,,,,,,,,8/8 Overcast,1100.0,,SCT,600.0,OVC,1100.0,,,,
KRDR,11-27-2006,04:00,METAR,,10,11.0,,,9999.0,Light Snow,-10.0,-13.0,30.34,1028.0,,,,71,,,,,,,TRACE,,,,8/8 Overcast,1000.0,,SCT,600.0,OVC,1000.0,,,,
KRDR,11-27-2006,03:43,SPECI,,20,10.0,,,9999.0,,-10.0,-13.0,30.34,1028.1,,,,,,,,,,,,,,,8/8 Overcast,600.0,,OVC,600.0,,,,,,
KRDR,11-27-2006,03:39,SPECI,,10,10.0,,,9999.0,Light Snow,-10.0,-13.0,30.34,,,,,71,,,,,,,,,,,8/8 Overcast,1000.0,,SCT,600.0,OVC,1000.0,,,,
KRDR,11-27-2006,03:11,SPECI,,10,11.0,,,9999.0,,-10.0,-13.0,30.34,,,,,,,,,,,,,,,,8/8 Overcast,1100.0,,SCT,500.0,OVC,1100.0,,,,
KRDR,11-27-2006,03:00,METAR,,360,13.0,,,9999.0,Light Snow,-10.0,-13.0,30.34,1027.9,,,,71,,,,,,,TRACE,TRACE,,,8/8 Overcast,1000.0,,SCT,600.0,OVC,1000.0,,,,
KRDR,11-27-2006,02:46,SPECI,,10,14.0,,,9999.0,Light Snow,-10.0,-13.0,30.34,,,,,71,,,,,,,,,,,8/8 Overcast,1100.0,,SCT,800.0,OVC,1100.0,,,,
KRDR,11-27-2006,02:20,METAR,,10,11.0,,,9999.0,,-10.0,-13.0,30.35,,,,,,,,,,,,,,,,8/8 Overcast,1400.0,,BKN,1400.0,OVC,2500.0,,,,
KRDR,11-27-2006,02:00,METAR,,10,12.0,,,9999.0,,-9.0,-13.0,30.34,1028.0,,,,,,,,,,,,,,,8/8 Overcast,2500.0,,SCT,1800.0,OVC,2500.0,,,,
KRDR,11-27-2006,01:00,METAR,,10,9.0,,,9999.0,,-9.0,-13.0,30.34,1027.9,,,,,,,,,,,,,,,8/8 Overcast,2200.0,,OVC,2200.0,,,,,,
KRDR,11-27-2006,00:00,METAR,,360,13.0,,,9999.0,,-9.0,-13.0,30.33,1027.5,,,,,,,,,,,,,,,8/8 Overcast,2000.0,,OVC,2000.0,,,,,,
KRDR,11-26-2006,23:00,METAR,,10,11.0,,,9999.0,,-9.0,-13.0,30.32,1027.2,,,,,,,,,,,,,,,8/8 Overcast,2300.0,,OVC,2300.0,,,,,,
KRDR,11-26-2006,22:23,SPECI,,360,11.0,,,9999.0,,-8.0,-13.0,30.31,,,,,,,,,,,,,,,,8/8 Overcast,2500.0,,BKN,2500.0,OVC,25000.0,,,,
KRDR,11-26-2006,22:00,METAR,,360,12.0,,,9999.0,,-8.0,-14.0,30.30,1026.6,,,,,,,,,,,,,,,7/8 Mostly Cloudy,11000.0,,SCT,2500.0,BKN,11000.0,BKN,25000.0,,
KRDR,11-26-2006,21:00,METAR,,10,13.0,,,9999.0,,-8.0,-14.0,30.29,1026.3,,,,,,,,,,,,,,,7/8 Mostly Cloudy,25000.0,,FEW,5900.0,SCT,11000.0,BKN,25000.0,,
KRDR,11-26-2006,20:00,METAR,,360,13.0,,,9999.0,,-8.0,-14.0,30.28,1026.0,,,,,,,,,,,,,,,8/8 Overcast,14000.0,,FEW,5900.0,BKN,14000.0,OVC,25000.0,,
KRDR,11-26-2006,19:00,METAR,,360,13.0,,,9999.0,,-8.0,-15.0,30.27,1025.8,,,,,,,,,,,,,,,8/8 Overcast,12000.0,,FEW,4600.0,OVC,12000.0,,,,
KRDR,11-26-2006,18:00,METAR,,360,10.0,,,9999.0,,-8.0,-15.0,30.29,1026.1,,,,,,,,,,,,,,,8/8 Overcast,12000.0,,SCT,4600.0,OVC,12000.0,,,,
KRDR,11-26-2006,17:00,METAR,,10,11.0,,,9999.0,,-9.0,-15.0,30.29,1026.1,,,,,,,,,,,,,,,8/8 Overcast,4500.0,,BKN,4600.0,OVC,8900.0,,,,
KRDR,11-26-2006,16:00,METAR,,10,12.0,,,9999.0,,-10.0,-15.0,30.28,1025.9,,,,,,,,,,,,,,,8/8 Overcast,4500.0,,BKN,4600.0,OVC,8900.0,,,,
KRDR,11-26-2006,15:00,METAR,,20,14.0,,,9999.0,,-10.0,-15.0,30.27,1025.7,,,,,,,,,,,,,,,8/8 Overcast,4000.0,,OVC,4100.0,,,,,,
KRDR,11-26-2006,14:00,METAR,,20,14.0,18.0,,9999.0,,-10.0,-15.0,30.25,1024.9,,,,,,,,,,,,,,,8/8 Overcast,4300.0,,OVC,4400.0,,,,,,
KRDR,11-26-2006,13:00,METAR,,20,14.0,,,9999.0,,-10.0,-15.0,30.24,1024.5,,,,,,,,,,,,,,,8/8 Overcast,4200.0,,OVC,4300.0,,,,,,
KRDR,11-26-2006,12:00,METAR,,20,13.0,,,9999.0,,-10.0,-15.0,30.23,1024.4,,,,,,,,,,,,,,,8/8 Overcast,4000.0,,OVC,4100.0,,,,,,
KRDR,11-26-2006,11:00,METAR,,30,13.0,,,9999.0,,-10.0,-15.0,30.22,1024.0,,,,,,,,,,,,,,,8/8 Overcast,4100.0,,OVC,4200.0,,,,,,
KRDR,11-26-2006,10:00,METAR,,30,17.0,,,9999.0,,-10.0,-16.0,30.20,1023.2,,,,,,,,,,,,,,,8/8 Overcast,4200.0,,OVC,4300.0,,,,,,
KRDR,11-26-2006,09:00,METAR,,30,14.0,,,9999.0,,-10.0,-15.0,30.22,1023.9,,,,,,,,,,,,,,,8/8 Overcast,4600.0,,OVC,4700.0,,,,,,
KRDR,11-26-2006,08:00,METAR,,30,13.0,,,9999.0,,-10.0,-18.0,30.21,1023.7,,,,,,,,,,,,,,,8/8 Overcast,5500.0,,OVC,5400.0,,,,,,
KRDR,11-26-2006,07:00,METAR,,20,15.0,,,9999.0,,-10.0,-18.0,30.21,1023.6,,,,,,,,,,,,,,,8/8 Overcast,7000.0,,OVC,6900.0,,,,,,
KRDR,11-26-2006,06:00,METAR,,30,14.0,,,9999.0,,-9.0,-18.0,30.21,1023.6,,,,,,,,,,,,,,,8/8 Overcast,7500.0,,OVC,7400.0,,,,,,
KRDR,11-26-2006,05:00,METAR,,20,13.0,,,9999.0,,-9.0,-18.0,30.20,1023.4,,,,,,,,,,,,,,,8/8 Overcast,8000.0,,OVC,7900.0,,,,,,
KRDR,11-26-2006,04:00,METAR,,20,11.0,,,9999.0,,-9.0,-18.0,30.19,1022.9,,,,,,,,,,,,,,,8/8 Overcast,9000.0,,OVC,8900.0,,,,,,
KRDR,11-26-2006,03:00,METAR,,20,10.0,,,9999.0,,-9.0,-18.0,30.20,1023.3,,,,,,,,,,,,,,,8/8 Overcast,8500.0,,OVC,8400.0,,,,,,
KRDR,11-26-2006,02:00,METAR,,10,11.0,,,9999.0,,-9.0,-18.0,30.19,1022.9,,,,,,,,,,,,,,,7/8 Mostly Cloudy,9000.0,,BKN,8900.0,,,,,,
KRDR,11-26-2006,01:00,METAR,,30,6.0,,,9999.0,,-9.0,-18.0,30.18,1022.7,,,,,,,,,,,,,,,8/8 Overcast,8500.0,,BKN,8400.0,OVC,15000.0,,,,
KRDR,11-26-2006,00:00,METAR,,40,9.0,,,9999.0,,-9.0,-18.0,30.16,1022.1,,,,,,,,,,,,,,,8/8 Overcast,9000.0,,BKN,8900.0,BKN,15000.0,OVC,25000.0,,
KRDR,11-25-2006,23:00,METAR,,30,9.0,,,9999.0,,-8.0,-18.0,30.16,1022.0,,,,,,,,,,,,,,,8/8 Overcast,9000.0,,OVC,8900.0,,,,,,
KRDR,11-25-2006,22:00,METAR,,30,8.0,,,9999.0,,-7.0,-18.0,30.16,1021.9,,,,,,,,,,,,,,,8/8 Overcast,9000.0,,OVC,8900.0,,,,,,
KRDR,11-25-2006,21:00,METAR,,360,8.0,,,9999.0,,-7.0,-18.0,30.16,1022.1,,,,,,,,,,,,,,,8/8 Overcast,11000.0,,OVC,11000.0,,,,,,
KRDR,11-25-2006,20:00,METAR,,10,7.0,,,9999.0,,-7.0,-18.0,30.17,1022.2,,,,,,,,,,,,,,,8/8 Overcast,25000.0,,SCT,12000.0,OVC,25000.0,,,,
KRDR,11-25-2006,19:00,METAR,,350,7.0,,,9999.0,,-7.0,-19.0,30.18,1022.6,,,,,,,,,,,,,,,7/8 Mostly Cloudy,25000.0,,BKN,25000.0,,,,,,
KRDR,11-25-2006,18:00,METAR,,330,8.0,,,9999.0,,-8.0,-18.0,30.20,1023.2,,,,,,,,,,,,,,,7/8 Mostly Cloudy,25000.0,,BKN,25000.0,,,,,,
KRDR,11-25-2006,17:00,METAR,,350,8.0,,,9999.0,,-9.0,-18.0,30.20,1023.2,,,,,,,,,,,,,,,2/8 Mostly Clear,72000.0,,FEW,25000.0,,,,,,
KRDR,11-25-2006,16:00,METAR,,350,11.0,,,9999.0,,-10.0,-17.0,30.19,1022.9,,,,,,,,,,,,,,,2/8 Mostly Clear,72000.0,,FEW,25000.0,,,,,,
KRDR,11-25-2006,15:00,METAR,,330,5.0,,,9999.0,,-11.0,-16.0,30.17,1022.4,,,,,,,,,,,,,,,2/8 Mostly Clear,72000.0,,FEW,15000.0,,,,,,
KRDR,11-25-2006,14:00,METAR,,350,4.0,,,9999.0,,-12.0,-17.0,30.17,1022.2,,,,,,,,,,,,,,,2/8 Mostly Clear,72000.0,,FEW,15000.0,,,,,,
KRDR,11-25-2006,13:00,METAR,,350,6.0,,,9999.0,,-11.0,-17.0,30.15,1021.6,,,,,,,,,,,,,,,Clear,72000.0,,,73000.0,,,,,,
KRDR,11-25-2006,12:37,SPECI,,340,8.0,,,9999.0,,-11.0,-17.0,30.14,,,,,,,,,,,,,,,,Clear,72000.0,,,73000.0,,,,,,
KRDR,11-25-2006,10:00,METAR,,340,14.0,17.0,,9999.0,,-8.0,-15.0,30.07,1019.2,,,,,,,,,,,,,,,Clear,72000.0,,,73000.0,,,,,,
KRDR,11-25-2006,09:00,METAR,,330,12.0,20.0,,9999.0,,-6.0,-14.0,30.05,1018.3,,,,,,,,,,,,,,,Clear,72000.0,,,73000.0,,,,,,
KRDR,11-25-2006,08:00,METAR,,330,9.0,,,9999.0,,-5.0,-11.0,30.02,1017.5,,,,,,,,,,,,,,,Clear,72000.0,,,73000.0,,,,,,
KRDR,11-25-2006,07:00,METAR,,340,12.0,,,9999.0,,-2.0,-7.0,29.98,1016.0,,,,,,,,,,,,,,,Clear,72000.0,,,73000.0,,,,,,
KRDR,11-25-2006,06:00,METAR,,260,11.0,,,9999.0,,2.0,-8.0,29.93,1014.3,,,,,,,,,,,,,,,Clear,72000.0,,,73000.0,,,,,,
KRDR,11-25-2006,05:00,METAR,,210,7.0,,,9999.0,,0.0,-9.0,29.88,1012.8,,,,,,,,,,,,,,,Clear,72000.0,,,73000.0,,,,,,
KRDR,11-25-2006,04:00,METAR,,210,10.0,,,9999.0,,2.0,-9.0,29.88,1012.7,,,,,,,,,,,,,,,Clear,72000.0,,,73000.0,,,,,,
KRDR,11-25-2006,02:00,METAR,,210,11.0,,,9999.0,,4.0,-9.0,29.88,1012.8,,,,,,,,,,,,,,,Clear,72000.0,,,73000.0,,,,,,
KRDR,11-25-2006,01:00,METAR,,200,11.0,,,9999.0,,3.0,-8.0,29.88,1012.9,,,,,,,,,,,,,,,Clear,72000.0,,,73000.0,,,,,,
KRDR,11-25-2006,00:00,METAR,,190,9.0,,,9999.0,,2.0,-7.0,29.89,1013.0,,,,,,,,,,,,,,,2/8 Mostly Clear,72000.0,,FEW,25000.0,,,,,,
KRDR,11-24-2006,23:00,METAR,,200,10.0,,,9999.0,,7.0,-9.0,29.89,1013.2,,,,,,,,,,,,,,,2/8 Mostly Clear,72000.0,,FEW,25000.0,,,,,,
KRDR,11-24-2006,22:00,METAR,,200,11.0,,,9999.0,,9.0,-7.0,29.89,1013.2,,,,,,,,,,,,,,,2/8 Mostly Clear,72000.0,,FEW,25000.0,,,,,,
KRDR,11-24-2006,21:00,METAR,,220,13.0,,,9999.0,,10.0,-7.0,29.90,1013.5,,,,,,,,,,,,,,,2/8 Mostly Clear,72000.0,,FEW,25000.0,,,,,,
KRDR,11-24-2006,20:00,METAR,,220,10.0,,,9999.0,,9.0,-6.0,29.92,1014.0,,,,,,,,,,,,,,,2/8 Mostly Clear,72000.0,,FEW,25000.0,,,,,,
KRDR,11-24-2006,19:00,METAR,,250,10.0,,,9999.0,,8.0,-5.0,29.92,1014.1,,,,,,,,,,,,,,,2/8 Mostly Clear,72000.0,,FEW,25000.0,,,,,,
KRDR,11-24-2006,18:00,METAR,,250,11.0,,,9999.0,,7.0,-5.0,29.93,1014.4,,,,,,,,,,,,,,,Clear,72000.0,,,73000.0,,,,,,
KRDR,11-24-2006,17:00,METAR,,280,11.0,,,9999.0,,6.0,-5.0,29.94,1014.6,,,,,,,,,,,,,,,Clear,72000.0,,,73000.0,,,,,,
KRDR,11-24-2006,16:00,METAR,,260,8.0,,,9999.0,,4.0,-4.0,29.94,1014.7,,,,,,,,,,,,,,,Clear,72000.0,,,73000.0,,,,,,
KRDR,11-24-2006,15:00,METAR,,260,10.0,,,9999.0,,1.0,-4.0,29.92,1014.0,,,,,,,,,,,,,,,Clear,72000.0,,,73000.0,,,,,,
KRDR,11-24-2006,14:00,METAR,,260,9.0,,,9999.0,,0.0,-4.0,29.89,1013.2,,,,,,,,,,,,,,,Clear,72000.0,,,73000.0,,,,,,
KRDR,11-24-2006,13:00,METAR,,270,14.0,,,9999.0,,1.0,-4.0,29.88,1012.9,,,,,,,,,,,,,,,Clear,72000.0,,,73000.0,,,,,,
KRDR,11-24-2006,12:00,METAR,,270,4.0,,,9999.0,,0.0,-5.0,29.87,1012.4,,,,,,,,,,,,,,,Clear,72000.0,,,73000.0,,,,,,
KRDR,11-24-2006,11:00,METAR,,280,9.0,,,9999.0,,0.0,-4.0,29.85,1011.7,,,,,,,,,,,,,,,Clear,72000.0,,,73000.0,,,,,,
KRDR,11-24-2006,10:00,METAR,,300,13.0,,,9999.0,,2.0,-1.0,29.82,1010.7,,,,,,,,,,,,,,,8/8 Overcast,6500.0,,FEW,4900.0,OVC,6400.0,,,,
KRDR,11-24-2006,09:00,METAR,,300,14.0,21.0,300/26KTS,9999.0,,4.0,-3.0,29.78,1009.4,,,,,,,,,,,,,,,7/8 Mostly Cloudy,7000.0,,FEW,3000.0,BKN,6900.0,BKN,25000.0,,
KRDR,11-24-2006,08:00,METAR,,260,13.0,,,9999.0,,4.0,1.0,29.73,1007.9,,,,,,,,,,,,,,,7/8 Mostly Cloudy,25000.0,,FEW,3000.0,SCT,12000.0,BKN,25000.0,,
KRDR,11-24-2006,07:00,METAR,,190,8.0,,,9999.0,,1.0,-2.0,29.72,1007.4,,,,,,,,,,,,,,,7/8 Mostly Cloudy,12000.0,,SCT,3200.0,BKN,12000.0,BKN,25000.0,,
KRDR,11-24-2006,06:00,METAR,,160,6.0,,,9999.0,,1.0,-4.0,29.72,1007.5,,,,,,,,,,,,,,,8/8 Overcast,12000.0,,SCT,3700.0,BKN,12000.0,OVC,25000.0,,
KRDR,11-24-2006,05:00,METAR,,130,5.0,,,9999.0,,2.0,-5.0,29.74,1008.2,,,,,,,,,,,,,,,8/8 Overcast,25000.0,,SCT,12000.0,OVC,25000.0,,,,
KRDR,11-24-2006,04:00,METAR,,120,3.0,,,9999.0,,3.0,-5.0,29.78,1009.3,,,,,,,,,,,,,,,8/8 Overcast,12000.0,,BKN,12000.0,OVC,25000.0,,,,
KRDR,11-24-2006,03:00,METAR,,130,8.0,,,9999.0,,3.0,-5.0,29.80,1010.0,,,,,,,,,,,,,,,Clear,72000.0,,,73000.0,,,,,,
KRDR,11-24-2006,02:00,METAR,,110,10.0,,,9999.0,,2.0,-6.0,29.81,1010.5,,,,,,,,,,,,,,,Clear,72000.0,,,73000.0,,,,,,
KRDR,11-24-2006,01:00,METAR,,110,12.0,,,9999.0,,2.0,-6.0,29.86,1012.3,,,,,,,,,,,,,,,Clear,72000.0,,,73000.0,,,,,,
KRDR,11-24-2006,00:00,METAR,,90,9.0,,,9999.0,,1.0,-6.0,29.90,1013.5,,,,,,,,,,,,,,,Clear,72000.0,,,73000.0,,,,,,
KRDR,11-23-2006,23:00,METAR,,90,9.0,,,9999.0,,1.0,-6.0,29.96,1015.3,,,,,,,,,,,,,,,Clear,72000.0,,,73000.0,,,,,,
KRDR,11-23-2006,22:00,METAR,,70,8.0,,,9999.0,,0.0,-7.0,29.99,1016.4,,,,,,,,,,,,,,,Clear,72000.0,,,73000.0,,,,,,
KRDR,11-23-2006,20:00,METAR,,70,8.0,,,9999.0,,-2.0,-8.0,30.09,1019.7,,,,,,,,,,,,,,,8/8 Overcast,9500.0,,BKN,9400.0,OVC,20000.0,,,,
KRDR,11-23-2006,19:00,METAR,,50,9.0,,,9999.0,,-3.0,-9.0,30.16,1021.9,,,,,,,,,,,,,,,7/8 Mostly Cloudy,10000.0,,BKN,9900.0,,,,,,
KRDR,11-23-2006,18:00,METAR,,60,11.0,,,9999.0,,-5.0,-10.0,30.18,1022.6,,,,,,,,,,,,,,,7/8 Mostly Cloudy,10000.0,,BKN,9900.0,,,,,,
KRDR,11-23-2006,17:00,METAR,,60,13.0,,,9999.0,,-6.0,-10.0,30.23,1024.1,,,,,,,,,,,,,,,2/8 Mostly Clear,72000.0,,FEW,8400.0,,,,,,
KRDR,11-23-2006,16:00,METAR,,40,10.0,,,9999.0,,-6.0,-11.0,30.27,1025.5,,,,,,,,,,,,,,,7/8 Mostly Cloudy,11000.0,,BKN,11000.0,,,,,,
KRDR,11-23-2006,15:00,METAR,,30,9.0,,,9999.0,,-7.0,-11.0,30.28,1026.0,,,,,,,,,,,,,,,2/8 Mostly Clear,72000.0,,FEW,12000.0,,,,,,
KRDR,11-23-2006,14:00,METAR,,20,10.0,,,9999.0,,-8.0,-11.0,30.28,1025.8,,,,,,,,,,,,,,,7/8 Mostly Cloudy,20000.0,,FEW,9900.0,BKN,20000.0,,,,
KRDR,11-23-2006,13:00,METAR,,20,9.0,,,9999.0,,-8.0,-11.0,30.27,1025.8,,,,,,,,,,,,,,,7/8 Mostly Cloudy,25000.0,,FEW,9900.0,BKN,25000.0,,,,
KRDR,11-23-2006,12:00,METAR,,10,11.0,,,9999.0,,-7.0,-11.0,30.27,1025.8,,,,,,,,,,,,,,,7/8 Mostly Cloudy,25000.0,,FEW,15000.0,BKN,25000.0,,,,
KRDR,11-23-2006,11:00,METAR,,30,6.0,,,9999.0,,-7.0,-10.0,30.29,1026.3,,,,,,,,,,,,,,,7/8 Mostly Cloudy,25000.0,,BKN,25000.0,,,,,,
KRDR,11-23-2006,10:00,METAR,,10,6.0,,,9999.0,,-6.0,-9.0,30.28,1025.9,,,,,,,,,,,,,,,7/8 Mostly Cloudy,25000.0,,BKN,25000.0,,,,,,
KRDR,11-23-2006,09:00,METAR,,20,6.0,,,9999.0,,-6.0,-9.0,30.28,1025.8,,,,,,,,,,,,,,,Clear,72000.0,,,73000.0,,,,,,
KRDR,11-23-2006,08:00,METAR,,360,6.0,,,9999.0,,-5.0,-8.0,30.24,1024.7,,,,,,,,,,,,,,,Clear,72000.0,,,73000.0,,,,,,
KRDR,11-23-2006,07:00,METAR,,10,4.0,,,9999.0,,-3.0,-7.0,30.22,1023.9,,,,,,,,,,,,,,,Clear,72000.0,,,73000.0,,,,,,
KRDR,11-23-2006,06:00,METAR,,330,11.0,,,9999.0,,-2.0,-6.0,30.18,1022.8,,,,,,,,,,,,,,,Clear,72000.0,,,73000.0,,,,,,
KRDR,11-23-2006,05:00,METAR,,340,8.0,,,9999.0,,-1.0,-6.0,30.17,1022.3,,,,,,,,,,,,,,,Clear,72000.0,,,73000.0,,,,,,
KRDR,11-23-2006,04:00,METAR,,300,7.0,,,9999.0,,2.0,-5.0,30.14,1021.4,,,,,,,,,,,,,,,Clear,72000.0,,,73000.0,,,,,,
KRDR,11-23-2006,03:00,METAR,,300,6.0,,,9999.0,,3.0,-5.0,30.10,1020.1,,,,,,,,,,,,,,,Clear,72000.0,,,73000.0,,,,,,
KRDR,11-23-2006,02:00,METAR,,250,8.0,,,9999.0,,1.0,-6.0,30.07,1019.1,,,,,,,,,,,,,,,Clear,72000.0,,,73000.0,,,,,,
KRDR,11-23-2006,01:00,METAR,,240,7.0,,,9999.0,,2.0,-5.0,30.05,1018.3,,,,,,,,,,,,,,,Clear,72000.0,,,73000.0,,,,,,
KRDR,11-23-2006,00:00,METAR,,260,6.0,,,9999.0,,6.0,-5.0,30.02,1017.3,,,,,,,,,,,,,,,2/8 Mostly Clear,72000.0,,FEW,25000.0,,,,,,
KRDR,11-22-2006,23:00,METAR,,280,10.0,,,9999.0,,9.0,-2.0,29.98,1016.1,,,,,,,,,,,,,,,2/8 Mostly Clear,72000.0,,FEW,12000.0,FEW,25000.0,,,,
KRDR,11-22-2006,22:00,METAR,,290,10.0,,290/26KTS,9999.0,,13.0,0.0,29.93,1014.5,,,,,,,,,,,,,,,2/8 Mostly Clear,72000.0,,FEW,12000.0,FEW,25000.0,,,,
KRDR,11-22-2006,21:00,METAR,,290,15.0,20.0,,9999.0,,15.0,0.0,29.91,1013.7,,,,,,,,,,,,,,,4/8 Partly Cloudy,72000.0,,FEW,9900.0,SCT,25000.0,,,,
KRDR,11-22-2006,20:00,METAR,,310,18.0,24.0,320/31KTS,9999.0,,15.0,0.0,29.89,1013.2,,,,,,,,,,,,,,,4/8 Partly Cloudy,72000.0,,FEW,9900.0,SCT,20000.0,,,,
KRDR,11-22-2006,19:00,METAR,,290,22.0,27.0,290/27KTS,9999.0,,15.0,2.0,29.87,1012.3,,,,,,,,,,,,,,,2/8 Mostly Clear,72000.0,,FEW,12000.0,FEW,25000.0,,,,
KRDR,11-22-2006,18:00,METAR,,300,15.0,,300/26KTS,9999.0,,14.0,1.0,29.82,1010.9,,,,,,,,,,,,,,,2/8 Mostly Clear,72000.0,,FEW,25000.0,,,,,,
KRDR,11-22-2006,17:00,METAR,,240,8.0,,,9999.0,,11.0,0.0,29.81,1010.5,,,,,,,,,,,,,,,4/8 Partly Cloudy,72000.0,,SCT,25000.0,,,,,,
KRDR,11-22-2006,16:00,METAR,,190,11.0,,,9999.0,,5.0,-1.0,29.78,1009.5,,,,,,,,,,,,,,,2/8 Mostly Clear,72000.0,,FEW,25000.0,,,,,,
KRDR,11-22-2006,15:00,METAR,,180,8.0,,,9999.0,,1.0,-2.0,29.78,1009.5,,,,,,,,,,,,,,,2/8 Mostly Clear,72000.0,,FEW,25000.0,,,,,,
KRDR,11-22-2006,14:00,METAR,,180,9.0,,,9999.0,,0.0,-3.0,29.75,1008.5,,,,,,,,,,,,,,,2/8 Mostly Clear,72000.0,,FEW,25000.0,,,,,,
KRDR,11-22-2006,13:00,METAR,,170,10.0,,,9999.0,,-1.0,-3.0,29.75,1008.5,,,,,,,,,,,,,,,2/8 Mostly Clear,72000.0,,FEW,25000.0,,,,,,
KRDR,11-22-2006,12:00,METAR,,170,12.0,,,9999.0,,1.0,-3.0,29.74,1008.2,,,,,,,,,,,,,,,4/8 Partly Cloudy,72000.0,,SCT,25000.0,,,,,,
KRDR,11-22-2006,11:00,METAR,,160,11.0,,,9999.0,,1.0,-3.0,29.77,1009.0,,,,,,,,,,,,,,,2/8 Mostly Clear,72000.0,,FEW,25000.0,,,,,,
KRDR,11-22-2006,10:00,METAR,,150,11.0,,,9999.0,,3.0,-2.0,29.77,1009.3,,,,,,,,,,,,,,,4/8 Partly Cloudy,72000.0,,SCT,12000.0,SCT,25000.0,,,,
KRDR,11-22-2006,09:00,METAR,,160,12.0,,,9999.0,,4.0,-2.0,29.81,1010.5,,,,,,,,,,,,,,,7/8 Mostly Cloudy,25000.0,,SCT,12000.0,BKN,25000.0,,,,
KRDR,11-22-2006,08:00,METAR,,150,8.0,,,9999.0,,6.0,-1.0,29.83,1011.0,,,,,,,,,,,,,,,7/8 Mostly Cloudy,25000.0,,SCT,14000.0,BKN,25000.0,,,,
KRDR,11-22-2006,07:00,METAR,,150,9.0,,,9999.0,,6.0,-1.0,29.84,1011.5,,,,,,,,,,,,,,,7/8 Mostly Cloudy,25000.0,,SCT,12000.0,BKN,25000.0,,,,
KRDR,11-22-2006,06:00,METAR,,150,10.0,,,9999.0,,5.0,-1.0,29.87,1012.3,,,,,,,,,,,,,,,7/8 Mostly Cloudy,25000.0,,SCT,12000.0,BKN,25000.0,,,,
KRDR,11-22-2006,05:00,METAR,,150,8.0,,,9999.0,,6.0,0.0,29.89,1012.9,,,,,,,,,,,,,,,7/8 Mostly Cloudy,25000.0,,SCT,14000.0,BKN,25000.0,,,,
KRDR,11-22-2006,04:00,METAR,,160,10.0,,,9999.0,,7.0,0.0,29.89,1013.1,,,,,,,,,,,,,,,7/8 Mostly Cloudy,25000.0,,SCT,18000.0,BKN,25000.0,,,,
KRDR,11-22-2006,03:00,METAR,,160,10.0,,,9999.0,,8.0,0.0,29.89,1013.2,,,,,,,,,,,,,,,7/8 Mostly Cloudy,25000.0,,SCT,15000.0,BKN,25000.0,,,,
KRDR,11-22-2006,02:00,METAR,,150,10.0,,,9999.0,,8.0,0.0,29.91,1013.7,,,,,,,,,,,,,,,8/8 Overcast,12000.0,,BKN,12000.0,OVC,25000.0,,,,
KRDR,11-22-2006,01:00,METAR,,160,10.0,,,9999.0,,8.0,1.0,29.93,1014.4,,,,,,,,,,,,,,,8/8 Overcast,15000.0,,BKN,15000.0,OVC,25000.0,,,,
KRDR,11-22-2006,00:00,METAR,,150,10.0,,,9999.0,,9.0,1.0,29.93,1014.5,,,,,,,,,,,,,,,8/8 Overcast,15000.0,,BKN,15000.0,OVC,25000.0,,,,
KRDR,11-21-2006,23:00,METAR,,130,7.0,,,9999.0,,10.0,1.0,29.93,1014.5,,,,,,,,,,,,,,,8/8 Overcast,15000.0,,BKN,15000.0,OVC,25000.0,,,,
KRDR,11-21-2006,22:00,METAR,,180,7.0,,,9999.0,,12.0,2.0,29.93,1014.4,,,,,,,,,,,,,,,8/8 Overcast,25000.0,,SCT,15000.0,OVC,25000.0,,,,
KRDR,11-21-2006,21:00,METAR,,200,8.0,,,9999.0,,16.0,2.0,29.92,1014.2,,,,,,,,,,,,,,,7/8 Mostly Cloudy,25000.0,,FEW,9900.0,BKN,25000.0,,,,
KRDR,11-21-2006,20:00,METAR,,160,6.0,,,9999.0,,15.0,2.0,29.93,1014.3,,,,,,,,,,,,,,,7/8 Mostly Cloudy,25000.0,,FEW,9900.0,BKN,25000.0,,,,
KRDR,11-21-2006,19:00,METAR,,160,7.0,,,9999.0,Smoke or Ash,13.0,1.0,29.95,1015.1,,,,4,,,,,,,,,,,4/8 Partly Cloudy,72000.0,,FEW,9900.0,SCT,25000.0,,,,
KRDR,11-21-2006,18:00,METAR,,170,8.0,,,9999.0,,10.0,0.0,29.97,1015.7,,,,,,,,,,,,,,,2/8 Mostly Clear,72000.0,,FEW,9900.0,FEW,25000.0,,,,
KRDR,11-21-2006,17:00,METAR,,180,6.0,,,9999.0,,7.0,-1.0,29.98,1016.1,,,,,,,,,,,,,,,2/8 Mostly Clear,72000.0,,FEW,25000.0,,,,,,
KRDR,11-21-2006,16:00,METAR,,160,3.0,,,9999.0,,4.0,-1.0,29.98,1016.0,,,,,,,,,,,,,,,2/8 Mostly Clear,72000.0,,FEW,25000.0,,,,,,
KRDR,11-21-2006,15:00,METAR,,,0.0,,,9999.0,,-1.0,-4.0,29.96,1015.5,,,,,,,,,,,,,,,2/8 Mostly Clear,72000.0,,FEW,25000.0,,,,,,
KRDR,11-21-2006,14:00,METAR,,240,3.0,,,9999.0,,-4.0,-5.0,29.95,1015.1,,,,,,,,,,,,,,,2/8 Mostly Clear,72000.0,,FEW,25000.0,,,,,,
KRDR,11-21-2006,13:00,METAR,,240,4.0,,,9999.0,,-4.0,-5.0,29.94,1014.7,,,,,,,,,,,,,,,4/8 Partly Cloudy,72000.0,,SCT,25000.0,,,,,,
KRDR,11-21-2006,12:00,METAR,,240,4.0,,,9999.0,,-4.0,-5.0,29.94,1014.7,,,,,,,,,,,,,TRACE,,4/8 Partly Cloudy,72000.0,,SCT,25000.0,,,,,,
KRDR,11-21-2006,11:00,METAR,,270,2.0,,,9999.0,,-3.0,-5.0,29.93,1014.6,,,,,,,,,,,,,,,4/8 Partly Cloudy,72000.0,,SCT,25000.0,,,,,,
KRDR,11-21-2006,10:00,METAR,,330,4.0,,,9999.0,,1.0,-3.0,29.93,1014.4,,,,,,,,,,,,,,,4/8 Partly Cloudy,72000.0,,SCT,12000.0,,,,,,
KRDR,11-21-2006,09:00,METAR,,350,6.0,,,9999.0,,2.0,-2.0,29.92,1014.0,,,,,,,,,,,,TRACE,,,4/8 Partly Cloudy,72000.0,,SCT,12000.0,SCT,25000.0,,,,
KRDR,11-21-2006,08:00,METAR,,310,6.0,,,9999.0,,5.0,-2.0,29.89,1013.0,,,,,,,,,,,TRACE,,,,8/8 Overcast,12000.0,,OVC,12000.0,,,,,,
KRDR,11-21-2006,07:02,SPECI,,270,4.0,,,9999.0,,6.0,-2.0,29.87,,,,,,,,,,,,,,,,8/8 Overcast,12000.0,,BKN,12000.0,OVC,25000.0,,,,
KRDR,11-21-2006,07:00,METAR,,290,6.0,,,9999.0,Rain,6.0,-3.0,29.88,1012.7,,,,61,,,,,,,TRACE,,,,8/8 Overcast,12000.0,,BKN,12000.0,OVC,25000.0,,,,
KRDR,11-21-2006,06:48,SPECI,,280,7.0,,,9999.0,Rain,6.0,-3.0,29.88,,,,,61,,,,,,,,,,,8/8 Overcast,12000.0,,BKN,12000.0,OVC,25000.0,,,,
KRDR,11-21-2006,06:00,METAR,,240,5.0,,,9999.0,,4.0,-4.0,29.86,1012.0,,,,,,,,,,,,,,,8/8 Overcast,12000.0,,BKN,12000.0,OVC,25000.0,,,,
KRDR,11-21-2006,05:00,METAR,,190,8.0,,,9999.0,,2.0,-5.0,29.84,1011.6,,,,,,,,,,,,,,,8/8 Overcast,14000.0,,BKN,14000.0,OVC,25000.0,,,,
KRDR,11-21-2006,04:00,METAR,,200,6.0,,,9999.0,,4.0,-5.0,29.83,1011.3,,,,,,,,,,,,,,,8/8 Overcast,12000.0,,BKN,12000.0,OVC,25000.0,,,,
KRDR,11-21-2006,03:00,METAR,,210,6.0,,,9999.0,,4.0,-5.0,29.82,1010.7,,,,,,,,,,,,,,,8/8 Overcast,12000.0,,BKN,12000.0,OVC,25000.0,,,,
KRDR,11-21-2006,02:00,METAR,,180,10.0,,,9999.0,,4.0,-5.0,29.81,1010.6,,,,,,,,,,,,,,,8/8 Overcast,15000.0,,BKN,15000.0,OVC,25000.0,,,,
KRDR,11-21-2006,01:00,METAR,,170,10.0,,,9999.0,,4.0,-5.0,29.82,1010.8,,,,,,,,,,,,,,,8/8 Overcast,15000.0,,BKN,15000.0,OVC,25000.0,,,,
KRDR,11-21-2006,00:00,METAR,,180,9.0,,,9999.0,,6.0,-5.0,29.82,1010.7,,,,,,,,,,,,,,,8/8 Overcast,15000.0,,BKN,15000.0,OVC,25000.0,,,,
KRDR,11-20-2006,23:00,METAR,,180,12.0,,,9999.0,,8.0,-5.0,29.81,1010.3,,,,,,,,,,,,,,,8/8 Overcast,15000.0,,BKN,15000.0,OVC,25000.0,,,,
KRDR,11-20-2006,22:00,METAR,,180,10.0,,,9999.0,,9.0,-5.0,29.80,1010.3,,,,,,,,,,,,,,,8/8 Overcast,15000.0,,BKN,15000.0,OVC,25000.0,,,,
KRDR,11-20-2006,21:00,METAR,,190,12.0,,,9999.0,,9.0,-5.0,29.81,1010.4,,,,,,,,,,,,,,,8/8 Overcast,15000.0,,BKN,15000.0,OVC,25000.0,,,,
KRDR,11-20-2006,20:00,METAR,,200,16.0,24.0,,9999.0,,10.0,-6.0,29.80,1010.3,,,,,,,,,,,,,,,8/8 Overcast,15000.0,,BKN,15000.0,OVC,25000.0,,,,
KRDR,11-20-2006,19:00,METAR,,170,16.0,,,9999.0,,7.0,-5.0,29.84,1011.5,,,,,,,,,,,,,,,8/8 Overcast,15000.0,,BKN,15000.0,OVC,25000.0,,,,
KRDR,11-20-2006,18:00,METAR,,170,19.0,23.0,180/29KTS,9999.0,,5.0,-6.0,29.88,1012.8,,,,,,,,,,,,,,,8/8 Overcast,15000.0,,BKN,15000.0,OVC,25000.0,,,,
KRDR,11-20-2006,17:00,METAR,,170,21.0,28.0,160/34KTS,9999.0,,3.0,-6.0,29.91,1013.9,,,,,,,,,,,,,,,8/8 Overcast,16000.0,,BKN,16000.0,OVC,25000.0,,,,
KRDR,11-20-2006,16:00,METAR,,160,24.0,32.0,160/32KTS,9999.0,,2.0,-5.0,29.93,1014.5,,,,,,,,,,,,,,,8/8 Overcast,15000.0,,BKN,15000.0,OVC,25000.0,,,,
KRDR,11-20-2006,15:00,METAR,,160,19.0,24.0,160/27KTS,9999.0,,0.0,-5.0,29.99,1016.2,,,,,,,,,,,,,,,8/8 Overcast,15000.0,,BKN,15000.0,OVC,25000.0,,,,
KRDR,11-20-2006,14:00,METAR,,160,16.0,,,9999.0,,-1.0,-5.0,30.04,1018.0,,,,,,,,,,,,,,,7/8 Mostly Cloudy,20000.0,,BKN,20000.0,,,,,,
KRDR,11-20-2006,12:54,METAR,,170,17.0,21.0,,9999.0,,-2.0,-6.0,30.08,1019.5,,,,,,,,,,,,,,,8/8 Overcast,20000.0,,OVC,20000.0,,,,,,
KRDR,11-20-2006,12:00,METAR,,170,12.0,,,9999.0,,-3.0,-5.0,30.13,1021.0,,,,,,,,,,,,,,,8/8 Overcast,20000.0,,OVC,20000.0,,,,,,
KRDR,11-20-2006,11:00,METAR,,170,10.0,,,9999.0,,-3.0,-5.0,30.16,1022.1,,,,,,,,,,,,,,,8/8 Overcast,18000.0,,OVC,18000.0,,,,,,
KRDR,11-20-2006,10:00,METAR,,180,9.0,,,9999.0,,-4.0,-5.0,30.22,1024.0,,,,,,,,,,,,,,,7/8 Mostly Cloudy,18000.0,,BKN,18000.0,,,,,,
KRDR,11-20-2006,09:00,METAR,,180,7.0,,,9999.0,,-5.0,-6.0,30.28,1025.9,,,,,,,,,,,,,,,7/8 Mostly Cloudy,20000.0,,BKN,20000.0,,,,,,
KRDR,11-20-2006,08:00,METAR,,180,5.0,,,9999.0,,-8.0,-9.0,30.31,1026.8,,,,,,,,,,,,,,,7/8 Mostly Cloudy,20000.0,,BKN,20000.0,,,,,,
KRDR,11-20-2006,07:00,METAR,,180,3.0,,,9999.0,,-8.0,-9.0,30.33,1027.6,,,,,,,,,,,,,,,7/8 Mostly Cloudy,20000.0,,BKN,20000.0,,,,,,
KRDR,11-20-2006,06:00,METAR,,250,4.0,,,9999.0,,-8.0,-9.0,30.36,1028.6,,,,,,,,,,,,,,,7/8 Mostly Cloudy,20000.0,,BKN,20000.0,,,,,,
KRDR,11-20-2006,05:00,METAR,,230,2.0,,,9999.0,,-8.0,-9.0,30.37,1028.8,,,,,,,,,,,,,,,8/8 Overcast,23000.0,,OVC,23000.0,,,,,,
KRDR,11-20-2006,04:00,METAR,,,0.0,,,9999.0,,-7.0,-9.0,30.38,1029.2,,,,,,,,,,,,,,,7/8 Mostly Cloudy,25000.0,,BKN,25000.0,,,,,,
KRDR,11-20-2006,03:00,METAR,,310,3.0,,,9999.0,,-9.0,-10.0,30.40,1030.0,,,,,,,,,,,,,,,7/8 Mostly Cloudy,25000.0,,BKN,25000.0,,,,,,
KRDR,11-20-2006,02:00,METAR,,40,3.0,,,9999.0,,-6.0,-7.0,30.39,1029.6,,,,,,,,,,,,,,,2/8 Mostly Clear,72000.0,,FEW,25000.0,,,,,,
KRDR,11-20-2006,01:00,METAR,,20,6.0,,,9999.0,,-5.0,-6.0,30.42,1030.6,,,,,,,,,,,,,,,2/8 Mostly Clear,72000.0,,FEW,25000.0,,,,,,
KRDR,11-20-2006,00:00,METAR,,360,7.0,,,9999.0,,-4.0,-7.0,30.43,1030.9,,,,,,,,,,,,,,,4/8 Partly Cloudy,72000.0,,SCT,25000.0,,,,,,
KRDR,11-19-2006,23:00,METAR,,10,6.0,,,9999.0,,-2.0,-5.0,30.43,1030.8,,,,,,,,,,,,,,,2/8 Mostly Clear,72000.0,,FEW,25000.0,,,,,,
KRDR,11-19-2006,22:00,METAR,,10,8.0,,,9999.0,,2.0,-4.0,30.43,1030.9,,,,,,,,,,,,,,,2/8 Mostly Clear,72000.0,,FEW,25000.0,,,,,,
KRDR,11-19-2006,21:00,METAR,,350,8.0,,,9999.0,,3.0,-4.0,30.42,1030.7,,,,,,,,,,,,,,,2/8 Mostly Clear,72000.0,,FEW,25000.0,,,,,,
KRDR,11-19-2006,20:00,METAR,,10,12.0,17.0,,9999.0,,3.0,-4.0,30.42,1030.7,,,,,,,,,,,,,,,2/8 Mostly Clear,72000.0,,FEW,25000.0,,,,,,
KRDR,11-19-2006,19:00,METAR,,360,9.0,,,9999.0,,3.0,-4.0,30.41,1030.4,,,,,,,,,,,,,,,Clear,72000.0,,,73000.0,,,,,,
KRDR,11-19-2006,18:00,METAR,,10,13.0,,,9999.0,,3.0,-4.0,30.42,1030.6,,,,,,,,,,,,,,,Clear,72000.0,,,73000.0,,,,,,
KRDR,11-19-2006,17:00,METAR,,360,11.0,,,9999.0,,2.0,-5.0,30.41,1030.4,,,,,,,,,,,,,,,Clear,72000.0,,,73000.0,,,,,,
KRDR,11-19-2006,16:00,METAR,,340,8.0,,,9999.0,,0.0,-6.0,30.40,1029.8,,,,,,,,,,,,,,,Clear,72000.0,,,73000.0,,,,,,
KRDR,11-19-2006,15:00,METAR,,300,7.0,,,9999.0,,-3.0,-7.0,30.38,1029.2,,,,,,,,,,,,,,,Clear,72000.0,,,73000.0,,,,,,
KRDR,11-19-2006,14:00,METAR,,270,4.0,,,9999.0,,-6.0,-9.0,30.35,1028.2,,,,,,,,,,,,,,,2/8 Mostly Clear,72000.0,,FEW,8900.0,,,,,,
KRDR,11-19-2006,13:00,METAR,,270,4.0,,,9999.0,,-7.0,-9.0,30.34,1028.0,,,,,,,,,,,,,,,4/8 Partly Cloudy,72000.0,,FEW,8900.0,SCT,25000.0,,,,
KRDR,11-19-2006,12:00,METAR,,170,5.0,,,9999.0,,-5.0,-8.0,30.30,1026.7,,,,,,,,,,,,,,,7/8 Mostly Cloudy,25000.0,,SCT,8900.0,BKN,25000.0,,,,
KRDR,11-19-2006,11:00,METAR,,160,5.0,,,9999.0,,-4.0,-7.0,30.30,1026.4,,,,,,,,,,,,,,,8/8 Overcast,9000.0,,BKN,8900.0,OVC,25000.0,,,,
KRDR,11-19-2006,10:00,METAR,,160,5.0,,,9999.0,,-2.0,-7.0,30.29,1026.2,,,,,,,,,,,,,,,8/8 Overcast,9000.0,,BKN,8900.0,OVC,25000.0,,,,
KRDR,11-19-2006,09:00,METAR,,170,4.0,,,9999.0,,-3.0,-7.0,30.29,1026.3,,,,,,,,,,,,,,,8/8 Overcast,9000.0,,BKN,8900.0,OVC,25000.0,,,,
KRDR,11-19-2006,08:00,METAR,,150,5.0,,,9999.0,,-4.0,-8.0,30.28,1025.9,,,,,,,,,,,,,,,7/8 Mostly Cloudy,25000.0,,SCT,9900.0,BKN,25000.0,,,,
KRDR,11-19-2006,07:00,METAR,,170,4.0,,,9999.0,,-3.0,-7.0,30.28,1026.1,,,,,,,,,,,,,,,7/8 Mostly Cloudy,10000.0,,BKN,9900.0,BKN,25000.0,,,,
KRDR,11-19-2006,06:00,METAR,,180,7.0,,,9999.0,,-3.0,-7.0,30.30,1026.4,,,,,,,,,,,,,,,7/8 Mostly Cloudy,10000.0,,BKN,9900.0,BKN,25000.0,,,,
KRDR,11-19-2006,05:00,METAR,,180,8.0,,,9999.0,,-2.0,-7.0,30.29,1026.3,,,,,,,,,,,,,,,7/8 Mostly Cloudy,10000.0,,BKN,9900.0,BKN,25000.0,,,,
KRDR,11-19-2006,04:00,METAR,,170,7.0,,,9999.0,,-3.0,-7.0,30.30,1026.6,,,,,,,,,,,,,,,7/8 Mostly Cloudy,10000.0,,BKN,9900.0,BKN,25000.0,,,,
KRDR,11-19-2006,03:00,METAR,,170,5.0,,,9999.0,,-5.0,-8.0,30.29,1026.4,,,,,,,,,,,,,,,4/8 Partly Cloudy,72000.0,,SCT,25000.0,,,,,,
KRDR,11-19-2006,02:00,METAR,,170,4.0,,,9999.0,,-5.0,-8.0,30.29,1026.3,,,,,,,,,,,,,,,4/8 Partly Cloudy,72000.0,,SCT,25000.0,,,,,,
KRDR,11-19-2006,01:00,METAR,,150,6.0,,,9999.0,,-2.0,-7.0,30.28,1026.0,,,,,,,,,,,,,,,4/8 Partly Cloudy,72000.0,,SCT,25000.0,,,,,,
KRDR,11-19-2006,00:00,METAR,,150,7.0,,,9999.0,,-1.0,-6.0,30.28,1025.9,,,,,,,,,,,,,,,2/8 Mostly Clear,72000.0,,FEW,20000.0,,,,,,
KRDR,11-18-2006,23:00,METAR,,150,7.0,,,9999.0,,1.0,-6.0,30.28,1026.0,,,,,,,,,,,,,,,4/8 Partly Cloudy,72000.0,,FEW,12000.0,SCT,20000.0,,,,
KRDR,11-18-2006,22:00,METAR,,160,6.0,,,9999.0,,5.0,-5.0,30.28,1025.9,,,,,,,,,,,,,,,2/8 Mostly Clear,72000.0,,FEW,20000.0,,,,,,
KRDR,11-18-2006,21:00,METAR,,160,7.0,,,9999.0,,6.0,-5.0,30.28,1025.9,,,,,,,,,,,,,,,2/8 Mostly Clear,72000.0,,FEW,20000.0,,,,,,
KRDR,11-18-2006,20:00,METAR,,150,7.0,,,9999.0,,5.0,-5.0,30.28,1025.8,,,,,,,,,,,,,,,2/8 Mostly Clear,72000.0,,FEW,20000.0,,,,,,
KRDR,11-18-2006,19:00,METAR,,160,5.0,,,9999.0,,4.0,-5.0,30.28,1026.1,,,,,,,,,,,,,,,2/8 Mostly Clear,72000.0,,FEW,20000.0,,,,,,
KRDR,11-18-2006,18:00,METAR,,190,7.0,,,9999.0,,3.0,-4.0,30.29,1026.4,,,,,,,,,,,,,,,4/8 Partly Cloudy,72000.0,,SCT,20000.0,,,,,,
KRDR,11-18-2006,17:00,METAR,,190,6.0,,,9999.0,,1.0,-3.0,30.30,1026.6,,,,,,,,,,,,,,,2/8 Mostly Clear,72000.0,,FEW,20000.0,,,,,,
KRDR,11-18-2006,16:00,METAR,,190,4.0,,,9999.0,,-2.0,-5.0,30.29,1026.4,,,,,,,,,,,,,,,2/8 Mostly Clear,72000.0,,FEW,9900.0,FEW,20000.0,,,,
KRDR,11-18-2006,15:00,METAR,,220,4.0,,,9999.0,,-6.0,-9.0,30.28,1026.0,,,,,,,,,,,,,,,2/8 Mostly Clear,72000.0,,FEW,12000.0,,,,,,
KRDR,11-18-2006,14:00,METAR,,190,3.0,,,9999.0,,-10.0,-12.0,30.28,1025.8,,,,,,,,,,,,,,,Clear,72000.0,,,73000.0,,,,,,
KRDR,11-18-2006,13:00,METAR,,240,2.0,,,9999.0,,-10.0,-12.0,30.27,1025.7,,,,,,,,,,,,,,,Clear,72000.0,,,73000.0,,,,,,
KRDR,11-18-2006,12:00,METAR,,280,2.0,,,9999.0,,-9.0,-11.0,30.26,1025.3,,,,,,,,,,,,,,,Clear,72000.0,,,73000.0,,,,,,
KRDR,11-18-2006,11:00,METAR,,290,6.0,,,9999.0,,-9.0,-11.0,30.26,1025.2,,,,,,,,,,,,,,,Clear,72000.0,,,73000.0,,,,,,
KRDR,11-18-2006,10:00,METAR,,290,5.0,,,9999.0,,-9.0,-11.0,30.24,1024.8,,,,,,,,,,,,,,,Clear,72000.0,,,73000.0,,,,,,
KRDR,11-18-2006,09:00,METAR,,300,6.0,,,9999.0,,-9.0,-11.0,30.23,1024.2,,,,,,,,,,,,,,,Clear,72000.0,,,73000.0,,,,,,
KRDR,11-18-2006,08:00,METAR,,300,6.0,,,9999.0,,-8.0,-11.0,30.21,1023.6,,,,,,,,,,,,,,,Clear,72000.0,,,73000.0,,,,,,
KRDR,11-18-2006,07:00,METAR,,290,7.0,,,9999.0,,-7.0,-10.0,30.20,1023.4,,,,,,,,,,,,,,,Clear,72000.0,,,73000.0,,,,,,
KRDR,11-18-2006,06:00,METAR,,280,6.0,,,9999.0,,-6.0,-9.0,30.20,1023.3,,,,,,,,,,,,,,,Clear,72000.0,,,73000.0,,,,,,
KRDR,11-18-2006,05:00,METAR,,290,7.0,,,9999.0,,-6.0,-9.0,30.19,1022.9,,,,,,,,,,,,,,,Clear,72000.0,,,73000.0,,,,,,
KRDR,11-18-2006,04:00,METAR,,280,6.0,,,9999.0,,-6.0,-9.0,30.18,1022.6,,,,,,,,,,,,,,,Clear,72000.0,,,73000.0,,,,,,
KRDR,11-18-2006,03:00,METAR,,300,6.0,,,9999.0,,-4.0,-7.0,30.18,1022.5,,,,,,,,,,,,,,,Clear,72000.0,,,73000.0,,,,,,
KRDR,11-18-2006,02:00,METAR,,300,6.0,,,9999.0,,-4.0,-7.0,30.16,1022.1,,,,,,,,,,,,,,,2/8 Mostly Clear,72000.0,,FEW,3000.0,,,,,,
KRDR,11-18-2006,01:00,METAR,,300,3.0,,,9999.0,,-3.0,-6.0,30.15,1021.6,,,,,,,,,,,,,,,4/8 Partly Cloudy,72000.0,,SCT,3200.0,,,,,,
KRDR,11-18-2006,00:00,METAR,,350,5.0,,,9999.0,,-1.0,-4.0,30.13,1021.1,,,,,,,,,,,,,,,7/8 Mostly Cloudy,3100.0,,BKN,3100.0,BKN,20000.0,,,,
KRDR,11-17-2006,23:00,METAR,,330,4.0,,,9999.0,,2.0,-3.0,30.11,1021.0,,,,,,,,,,,,,,,7/8 Mostly Cloudy,3000.0,,BKN,3000.0,BKN,20000.0,,,,
KRDR,11-17-2006,22:19,SPECI,,350,6.0,,,9999.0,,2.0,-3.0,30.10,,,,,,,,,,,,,,,,7/8 Mostly Cloudy,3000.0,,BKN,3000.0,,,,,,
KRDR,11-17-2006,22:00,METAR,,350,9.0,,,9999.0,,3.0,-3.0,30.09,1019.8,,,,,,,,,,,,,,,7/8 Mostly Cloudy,2900.0,,BKN,2900.0,,,,,,
KRDR,11-17-2006,21:00,METAR,,320,10.0,,,9999.0,,3.0,-3.0,30.07,1018.9,,,,,,,,,,,,,,,8/8 Overcast,2700.0,,OVC,2700.0,,,,,,
KRDR,11-17-2006,20:00,METAR,,310,11.0,,,9999.0,,2.0,-3.0,30.04,1018.2,,,,,,,,,,,,,,,7/8 Mostly Cloudy,2600.0,,BKN,2600.0,,,,,,
KRDR,11-17-2006,19:00,METAR,,320,11.0,,,9999.0,,2.0,-2.0,30.02,1017.5,,,,,,,,,,,,,,,8/8 Overcast,2400.0,,OVC,2400.0,,,,,,
KRDR,11-17-2006,18:00,METAR,,340,13.0,,,9999.0,,2.0,-1.0,30.01,1017.0,,,,,,,,,,,,,TRACE,,8/8 Overcast,2200.0,,BKN,2200.0,OVC,3000.0,,,,
KRDR,11-17-2006,17:00,METAR,,330,9.0,,,9999.0,,2.0,0.0,29.99,1016.5,,,,,,,,,,,TRACE,,,,8/8 Overcast,1400.0,,SCT,1800.0,BKN,2400.0,OVC,3000.0,,
KRDR,11-17-2006,16:32,SPECI,,320,11.0,,,9999.0,,2.0,0.0,29.99,1016.4,,,,,,,,,,,,,,,8/8 Overcast,1000.0,,BKN,2700.0,OVC,3200.0,,,,
KRDR,11-17-2006,16:17,SPECI,,320,12.0,,,9999.0,Drizzle,2.0,0.0,29.98,1016.0,,,,51,,,,,,,,,,,8/8 Overcast,1500.0,,SCT,1200.0,OVC,1900.0,,,,
KRDR,11-17-2006,16:12,SPECI,,320,12.0,,,9999.0,,2.0,0.0,29.97,1015.9,,,,,,,,,,,,,,,8/8 Overcast,1500.0,,OVC,2100.0,,,,,,
KRDR,11-17-2006,16:10,SPECI,,320,13.0,,,9999.0,,2.0,0.0,29.97,1015.8,,,,,,,,,,,,,,,8/8 Overcast,1500.0,,OVC,2100.0,,,,,,
KRDR,11-17-2006,16:00,METAR,,130,15.0,,,9999.0,Drizzle,2.0,0.0,29.96,1015.5,,,,51,,,,,,,TRACE,,,,8/8 Overcast,1000.0,,FEW,900.0,OVC,1400.0,,,,
KRDR,11-17-2006,15:00,METAR,,340,14.0,,,9999.0,Rain,2.0,0.0,29.93,1014.5,,,,61,,,,,,,TRACE,TRACE,,,8/8 Overcast,600.0,,OVC,1000.0,,,,,,
KRDR,11-17-2006,14:45,METAR,,330,12.0,,,9999.0,Drizzle,2.0,0.0,29.92,1014.2,,,,51,,,,,,,,,,,8/8 Overcast,1100.0,,OVC,1100.0,,,,,,
KRDR,11-17-2006,14:36,SPECI,,330,12.0,,,9999.0,,2.0,0.0,29.92,1014.1,,,,,,,,,,,,,,,8/8 Overcast,800.0,,OVC,1200.0,,,,,,
KRDR,11-17-2006,14:14,SPECI,,330,14.0,,,9999.0,Rain,2.0,0.0,29.91,1013.7,,,,61,,,,,,,,,,,8/8 Overcast,1000.0,,OVC,1400.0,,,,,,
KRDR,11-17-2006,14:00,METAR,,320,14.0,,,9999.0,,3.0,-1.0,29.89,1013.1,,,,,,,,,,,,,,,8/8 Overcast,1400.0,,OVC,1400.0,,,,,,
KRDR,11-17-2006,13:00,METAR,,310,14.0,,,9999.0,,3.0,-1.0,29.86,1012.1,,,,,,,,,,,,,,,8/8 Overcast,1900.0,,OVC,1900.0,,,,,,
KRDR,11-17-2006,12:00,METAR,,300,11.0,,,9999.0,,2.0,-1.0,29.83,1011.2,,,,,,,,,,,,,,,8/8 Overcast,2100.0,,OVC,2100.0,,,,,,
KRDR,11-17-2006,11:00,METAR,,300,10.0,,,9999.0,,1.0,-2.0,29.81,1010.4,,,,,,,,,,,,,,,8/8 Overcast,2400.0,,OVC,2400.0,,,,,,
KRDR,11-17-2006,10:00,METAR,,260,4.0,,,9999.0,,0.0,-4.0,29.79,1009.8,,,,,,,,,,,,,,,8/8 Overcast,2100.0,,BKN,2100.0,OVC,3300.0,,,,
KRDR,11-17-2006,09:00,METAR,,180,4.0,,,9999.0,,-1.0,-4.0,29.78,1009.4,,,,,,,,,,,,,,,8/8 Overcast,3200.0,,OVC,3300.0,,,,,,
KRDR,11-17-2006,08:00,METAR,,210,3.0,,,9999.0,,-1.0,-4.0,29.76,1008.8,,,,,,,,,,,,,,,8/8 Overcast,7000.0,,BKN,6900.0,OVC,13000.0,,,,
KRDR,11-17-2006,07:00,METAR,,160,9.0,,,9999.0,,0.0,-4.0,29.72,1007.3,,,,,,,,,,,,,,,8/8 Overcast,13000.0,,SCT,6400.0,OVC,13000.0,,,,
KRDR,11-17-2006,06:00,METAR,,210,8.0,,,9999.0,,0.0,-4.0,29.77,1009.1,,,,,,,,,,,TRACE,,TRACE,,8/8 Overcast,5500.0,,OVC,5400.0,,,,,,
KRDR,11-17-2006,05:41,SPECI,,180,8.0,,,9999.0,,0.0,-4.0,29.75,,,,,,,,,,,,,,,,8/8 Overcast,5500.0,,OVC,5400.0,,,,,,
KRDR,11-17-2006,05:34,SPECI,,180,9.0,,,9999.0,Ice Pellets,0.0,-4.0,29.74,1008.3,,,,79,,,,,,,,,,,8/8 Overcast,5500.0,,OVC,5400.0,,,,,,
KRDR,11-17-2006,05:00,METAR,,180,10.0,,,9999.0,,0.0,-4.0,29.75,1008.5,,,,,,,,,,,,,,,8/8 Overcast,6000.0,,OVC,5900.0,,,,,,
KRDR,11-17-2006,04:00,METAR,,150,11.0,19.0,,9999.0,,0.0,-4.0,29.73,1007.7,,,,,,,,,,,,,,,8/8 Overcast,7000.0,,SCT,4000.0,OVC,6900.0,,,,
KRDR,11-17-2006,03:00,METAR,,160,9.0,,,9999.0,,0.0,-4.0,29.75,1008.4,,,,,,,,,,,,TRACE,,,8/8 Overcast,8500.0,,FEW,4000.0,OVC,8400.0,,,,
KRDR,11-17-2006,02:00,METAR,,180,12.0,,,9999.0,,0.0,-4.0,29.75,1008.3,,,,,,,,,,,TRACE,,,,8/8 Overcast,6500.0,,OVC,6400.0,,,,,,
KRDR,11-17-2006,01:28,SPECI,,160,14.0,,,9999.0,,0.0,-4.0,29.72,1007.6,,,,,,,,,,,,,,,8/8 Overcast,7500.0,,SCT,3200.0,OVC,7400.0,,,,
KRDR,11-17-2006,01:01,SPECI,,160,15.0,,,9999.0,Ice Pellets,0.0,-5.0,29.72,,,,,79,,,,,,,,,,,8/8 Overcast,3400.0,,BKN,3500.0,OVC,7900.0,,,,
KRDR,11-17-2006,01:00,METAR,,160,12.0,19.0,,9999.0,,0.0,-5.0,29.72,1007.5,,,,,,,,,,,TRACE,,,,8/8 Overcast,8000.0,,SCT,3100.0,OVC,7900.0,,,,
KRDR,11-17-2006,00:44,SPECI,,160,12.0,19.0,,9999.0,,0.0,-5.0,29.72,,,,,,,,,,,,,,,,8/8 Overcast,8000.0,,SCT,2800.0,OVC,7900.0,,,,
KRDR,11-17-2006,00:30,METAR,,160,14.0,20.0,,9999.0,Rain,0.0,-5.0,29.72,1007.6,,,,61,,,,,,,,,,,8/8 Overcast,8000.0,,SCT,2900.0,OVC,7900.0,,,,
KRDR,11-17-2006,00:00,METAR,,160,11.0,,,9999.0,,0.0,-5.0,29.73,1007.9,,,,,,,,,,,,,,,8/8 Overcast,12000.0,,FEW,6900.0,OVC,12000.0,,,,
KRDR,11-16-2006,23:00,METAR,,150,11.0,,,9999.0,,0.0,-5.0,29.75,1008.3,,,,,,,,,,,,,,,8/8 Overcast,7500.0,,OVC,7400.0,,,,,,
KRDR,11-16-2006,22:00,METAR,,140,11.0,,,9999.0,,-1.0,-6.0,29.74,1008.1,,,,,,,,,,,,,,,8/8 Overcast,9000.0,,BKN,8900.0,OVC,11000.0,,,,
KRDR,11-16-2006,21:00,METAR,,150,11.0,,,9999.0,,-1.0,-6.0,29.76,1008.9,,,,,,,,,,,,,,,8/8 Overcast,9000.0,,BKN,8900.0,OVC,18000.0,,,,
KRDR,11-16-2006,20:00,METAR,,160,12.0,,,9999.0,,-1.0,-6.0,29.79,1009.7,,,,,,,,,,,,,,,8/8 Overcast,12000.0,,BKN,12000.0,OVC,20000.0,,,,
KRDR,11-16-2006,19:00,METAR,,160,15.0,,,9999.0,,-1.0,-6.0,29.79,1009.9,,,,,,,,,,,,,,,8/8 Overcast,15000.0,,SCT,8400.0,BKN,15000.0,OVC,20000.0,,
KRDR,11-16-2006,18:06,SPECI,,160,13.0,,,9999.0,,-2.0,-6.0,29.81,1010.4,,,,,,,,,,,,,,,7/8 Mostly Cloudy,14000.0,,SCT,1400.0,BKN,14000.0,BKN,20000.0,,
KRDR,11-16-2006,18:03,SPECI,,150,14.0,,,9999.0,,-1.0,-6.0,29.81,1010.5,,,,,,,,,,,,,,,7/8 Mostly Cloudy,1700.0,,BKN,1700.0,BKN,12000.0,BKN,20000.0,,
KRDR,11-16-2006,18:00,METAR,,160,17.0,20.0,,9999.0,Mist,-1.0,-6.0,29.82,1010.7,,,,10,,,,,,,,,,,8/8 Overcast,11000.0,,SCT,1500.0,BKN,11000.0,OVC,20000.0,,
KRDR,11-16-2006,17:00,METAR,,140,15.0,,,9999.0,,-3.0,-7.0,29.84,1011.4,,,,,,,,,,,,,,,8/8 Overcast,10000.0,,SCT,1300.0,BKN,9900.0,OVC,20000.0,,
KRDR,11-16-2006,16:00,METAR,,150,14.0,,,9999.0,,-4.0,-7.0,29.85,1011.7,,,,,,,,,,,,,,,8/8 Overcast,3300.0,,SCT,1000.0,BKN,3400.0,OVC,12000.0,,
KRDR,11-16-2006,15:43,SPECI,,150,15.0,,,9999.0,,-5.0,-7.0,29.85,1011.8,,,,,,,,,,,,,,,8/8 Overcast,3400.0,,SCT,1100.0,OVC,3500.0,,,,
KRDR,11-16-2006,15:38,SPECI,,150,13.0,,,9999.0,,-5.0,-7.0,29.86,1012.0,,,,,,,,,,,,,,,8/8 Overcast,1800.0,,SCT,1200.0,OVC,1800.0,,,,
KRDR,11-16-2006,15:00,METAR,,150,11.0,,,9999.0,Mist,-5.0,-7.0,29.89,1013.1,,,,10,,,,,,,,,,,8/8 Overcast,1000.0,,OVC,1000.0,,,,,,
KRDR,11-16-2006,14:00,METAR,,130,8.0,,,9999.0,Mist,-5.0,-8.0,29.90,1013.6,,,,10,,,,,,,,,,,8/8 Overcast,1100.0,,OVC,1100.0,,,,,,
KRDR,11-16-2006,13:00,METAR,,150,7.0,,,9999.0,,-5.0,-7.0,29.93,1014.2,,,,,,,,,,,,,,,7/8 Mostly Cloudy,1100.0,,BKN,1100.0,,,,,,
KRDR,11-16-2006,12:00,METAR,,180,9.0,,,9999.0,,-5.0,-7.0,29.93,1014.3,,,,,,,,,,,,,,,8/8 Overcast,1100.0,,OVC,1100.0,,,,,,
KRDR,11-16-2006,11:00,METAR,,180,11.0,,,9999.0,,-5.0,-7.0,29.94,1014.8,,,,,,,,,,,,,,,8/8 Overcast,1100.0,,OVC,1100.0,,,,,,
KRDR,11-16-2006,10:00,METAR,,180,8.0,,,9999.0,,-5.0,-7.0,29.96,1015.4,,,,,,,,,,,,,,,8/8 Overcast,1200.0,,OVC,1200.0,,,,,,
KRDR,11-16-2006,09:00,METAR,,170,10.0,,,9999.0,,-4.0,-7.0,29.99,1016.2,,,,,,,,,,,,,,,8/8 Overcast,1200.0,,OVC,1200.0,,,,,,
KRDR,11-16-2006,08:00,METAR,,190,7.0,,,9999.0,,-4.0,-7.0,30.01,1017.1,,,,,,,,,,,,,,,8/8 Overcast,1300.0,,OVC,1300.0,,,,,,
KRDR,11-16-2006,07:00,METAR,,180,6.0,,,9999.0,,-4.0,-7.0,30.03,1017.6,,,,,,,,,,,,,,,8/8 Overcast,1500.0,,OVC,1500.0,,,,,,
KRDR,11-16-2006,06:00,METAR,,200,4.0,,,9999.0,,-4.0,-7.0,30.05,1018.2,,,,,,,,,,,,,,,8/8 Overcast,1500.0,,OVC,1500.0,,,,,,
KRDR,11-16-2006,05:00,METAR,,,0.0,,,9999.0,,-4.0,-7.0,30.06,1018.6,,,,,,,,,,,,,,,8/8 Overcast,1200.0,,OVC,1200.0,,,,,,
KRDR,11-16-2006,04:00,METAR,,240,3.0,,,9999.0,,-3.0,-7.0,30.08,1019.3,,,,,,,,,,,,,,,8/8 Overcast,1300.0,,OVC,1300.0,,,,,,
KRDR,11-16-2006,03:00,METAR,,260,3.0,,,9999.0,,-3.0,-7.0,30.09,1019.8,,,,,,,,,,,,,,,8/8 Overcast,1400.0,,OVC,1400.0,,,,,,
KRDR,11-16-2006,02:00,METAR,,,0.0,,,9999.0,,-3.0,-7.0,30.09,1019.7,,,,,,,,,,,,,,,8/8 Overcast,1800.0,,OVC,1800.0,,,,,,
KRDR,11-16-2006,01:00,METAR,,320,6.0,,,9999.0,,-3.0,-7.0,30.10,1019.9,,,,,,,,,,,,,,,8/8 Overcast,1900.0,,OVC,1900.0,,,,,,
KRDR,11-16-2006,00:00,METAR,,280,3.0,,,9999.0,,-3.0,-7.0,30.09,1019.8,,,,,,,,,,,,,,,8/8 Overcast,2000.0,,OVC,2000.0,,,,,,
KRDR,11-15-2006,23:00,METAR,,320,3.0,,,9999.0,,-2.0,-7.0,30.09,1019.8,,,,,,,,,,,,,,,8/8 Overcast,2100.0,,OVC,2100.0,,,,,,
KRDR,11-15-2006,22:00,METAR,,330,6.0,,,9999.0,,-2.0,-7.0,30.11,1020.4,,,,,,,,,,,,,,,8/8 Overcast,2100.0,,OVC,2100.0,,,,,,
KRDR,11-15-2006,21:00,METAR,,310,8.0,,,9999.0,,-2.0,-7.0,30.11,1020.4,,,,,,,,,,,,,,,8/8 Overcast,2000.0,,OVC,2000.0,,,,,,
KRDR,11-15-2006,20:00,METAR,,320,6.0,,,9999.0,,-2.0,-7.0,30.12,1020.5,,,,,,,,,,,,,,,8/8 Overcast,2000.0,,OVC,2000.0,,,,,,
KRDR,11-15-2006,19:00,METAR,,330,9.0,,,9999.0,,-3.0,-7.0,30.13,1020.9,,,,,,,,,,,,,,,8/8 Overcast,1900.0,,OVC,1900.0,,,,,,
KRDR,11-15-2006,18:00,METAR,,310,7.0,,,9999.0,,-3.0,-7.0,30.14,1021.3,,,,,,,,,,,,,,,8/8 Overcast,1900.0,,OVC,1900.0,,,,,,
KRDR,11-15-2006,17:00,METAR,,310,9.0,,,9999.0,,-3.0,-7.0,30.13,1021.1,,,,,,,,,,,,,,,8/8 Overcast,1800.0,,OVC,1800.0,,,,,,
KRDR,11-15-2006,16:00,METAR,,310,13.0,,,9999.0,,-3.0,-7.0,30.13,1020.9,,,,,,,,,,,,,,,7/8 Mostly Cloudy,2200.0,,BKN,2200.0,,,,,,
KRDR,11-15-2006,15:00,METAR,,280,7.0,,,9999.0,,-5.0,-9.0,30.10,1019.9,,,,,,,,,,,,,,,2/8 Mostly Clear,72000.0,,FEW,2000.0,,,,,,
KRDR,11-15-2006,14:00,METAR,,280,8.0,,,9999.0,,-8.0,-11.0,30.08,1019.3,,,,,,,,,,,,,,,2/8 Mostly Clear,72000.0,,FEW,2000.0,,,,,,
KRDR,11-15-2006,13:00,METAR,,290,6.0,,,9999.0,,-9.0,-11.0,30.05,1018.4,,,,,,,,,,,,,,,Clear,72000.0,,,73000.0,,,,,,
KRDR,11-15-2006,12:00,METAR,,290,8.0,,,9999.0,,-8.0,-10.0,30.04,1018.1,,,,,,,,,,,,,,,Clear,72000.0,,,73000.0,,,,,,
KRDR,11-15-2006,11:00,METAR,,290,6.0,,,9999.0,,-8.0,-10.0,30.03,1017.6,,,,,,,,,,,,,,,Clear,72000.0,,,73000.0,,,,,,
KRDR,11-15-2006,10:00,METAR,,280,7.0,,,9999.0,,-7.0,-10.0,30.00,1016.8,,,,,,,,,,,,,,,Clear,72000.0,,,73000.0,,,,,,
KRDR,11-15-2006,09:00,METAR,,280,5.0,,,9999.0,,-6.0,-10.0,30.00,1016.6,,,,,,,,,,,,,,,2/8 Mostly Clear,72000.0,,FEW,9400.0,,,,,,
KRDR,11-15-2006,08:00,METAR,,300,6.0,,,9999.0,,-4.0,-9.0,29.99,1016.2,,,,,,,,,,,,,,,8/8 Overcast,9500.0,,OVC,9400.0,,,,,,
KRDR,11-15-2006,07:00,METAR,,300,9.0,,,9999.0,,-3.0,-9.0,29.97,1015.8,,,,,,,,,,,,,,,8/8 Overcast,9000.0,,OVC,8900.0,,,,,,
KRDR,11-15-2006,06:00,METAR,,300,8.0,,,9999.0,,-3.0,-8.0,29.96,1015.3,,,,,,,,,,,,,,,8/8 Overcast,8500.0,,OVC,8400.0,,,,,,
KRDR,11-15-2006,05:00,METAR,,300,7.0,,,9999.0,,-1.0,-7.0,29.94,1014.6,,,,,,,,,,,,,,,8/8 Overcast,8500.0,,OVC,8400.0,,,,,,
KRDR,11-15-2006,04:00,METAR,,310,8.0,,,9999.0,,0.0,-7.0,29.91,1013.9,,,,,,,,,,,,,,,8/8 Overcast,8500.0,,OVC,8400.0,,,,,,
KRDR,11-15-2006,03:00,METAR,,300,13.0,,,9999.0,,1.0,-6.0,29.87,1012.6,,,,,,,,,,,,,,,8/8 Overcast,7500.0,,OVC,7400.0,,,,,,
KRDR,11-15-2006,02:00,METAR,,300,14.0,,,9999.0,,4.0,-3.0,29.82,1010.6,,,,,,,,,,,,,,,8/8 Overcast,6000.0,,OVC,7900.0,,,,,,
KRDR,11-15-2006,01:00,METAR,,290,8.0,,,9999.0,,6.0,-2.0,29.78,1009.4,,,,,,,,,,,,,,,8/8 Overcast,7000.0,,BKN,6900.0,OVC,25000.0,,,,
KRDR,11-15-2006,00:00,METAR,,260,5.0,,,9999.0,,6.0,-2.0,29.75,1008.3,,,,,,,,,,,,,,,8/8 Overcast,9000.0,,BKN,8900.0,OVC,25000.0,,,,
KRDR,11-14-2006,23:00,METAR,,240,5.0,,,9999.0,,6.0,-2.0,29.71,1007.3,,,,,,,,,,,,,,,8/8 Overcast,9000.0,,FEW,500.0,BKN,8900.0,OVC,25000.0,,
KRDR,11-14-2006,22:00,METAR,,,5.0,,,9999.0,,6.0,-1.0,29.69,1006.5,,,,,,,,,,,,,,,8/8 Overcast,10000.0,,FEW,500.0,BKN,9900.0,OVC,25000.0,,
KRDR,11-14-2006,21:00,METAR,,210,7.0,,,9999.0,,7.0,-1.0,29.65,1005.2,,,,,,,,,,,,,,,8/8 Overcast,10000.0,,BKN,9900.0,OVC,25000.0,,,,
KRDR,11-14-2006,20:00,METAR,,190,9.0,,,9999.0,,6.0,-1.0,29.62,1004.3,,,,,,,,,,,,,,,8/8 Overcast,10000.0,,BKN,9900.0,OVC,25000.0,,,,
KRDR,11-14-2006,19:00,METAR,,180,8.0,,,9999.0,,6.0,-1.0,29.60,1003.5,,,,,,,,,,,,,,,7/8 Mostly Cloudy,25000.0,,SCT,12000.0,BKN,25000.0,,,,
KRDR,11-14-2006,18:00,METAR,,190,8.0,,,9999.0,,7.0,-1.0,29.58,1002.9,,,,,,,,,,,,,,,7/8 Mostly Cloudy,25000.0,,SCT,14000.0,BKN,25000.0,,,,
KRDR,11-14-2006,17:00,METAR,,190,11.0,,,9999.0,,6.0,-1.0,29.58,1002.7,,,,,,,,,,,,,,,7/8 Mostly Cloudy,25000.0,,FEW,11000.0,BKN,25000.0,,,,
KRDR,11-14-2006,16:00,METAR,,180,16.0,,,9999.0,,4.0,-2.0,29.57,1002.4,,,,,,,,,,,,,,,7/8 Mostly Cloudy,25000.0,,FEW,11000.0,BKN,25000.0,,,,
KRDR,11-14-2006,15:00,METAR,,170,10.0,,,9999.0,,2.0,-2.0,29.55,1001.8,,,,,,,,,,,,,,,4/8 Partly Cloudy,72000.0,,FEW,11000.0,SCT,25000.0,,,,
KRDR,11-14-2006,14:00,METAR,,170,10.0,,,9999.0,,1.0,-3.0,29.52,1001.0,,,,,,,,,,,,,,,4/8 Partly Cloudy,72000.0,,FEW,11000.0,SCT,20000.0,,,,
KRDR,11-14-2006,13:00,METAR,,170,9.0,,,9999.0,,1.0,-3.0,29.50,1000.2,,,,,,,,,,,,,,,4/8 Partly Cloudy,72000.0,,SCT,20000.0,,,,,,
KRDR,11-14-2006,12:00,METAR,,180,11.0,,,9999.0,,3.0,-2.0,29.49,999.9,,,,,,,,,,,,,,,4/8 Partly Cloudy,72000.0,,SCT,20000.0,,,,,,
KRDR,11-14-2006,11:00,METAR,,170,12.0,,,9999.0,,4.0,-2.0,29.47,999.3,,,,,,,,,,,,,,,4/8 Partly Cloudy,72000.0,,SCT,20000.0,,,,,,
KRDR,11-14-2006,10:00,METAR,,170,11.0,,,9999.0,,4.0,-2.0,29.46,998.9,,,,,,,,,,,,,,,4/8 Partly Cloudy,72000.0,,SCT,9900.0,SCT,20000.0,,,,
KRDR,11-14-2006,09:00,METAR,,160,15.0,,,9999.0,,5.0,-2.0,29.46,999.0,,,,,,,,,,,,,,,7/8 Mostly Cloudy,20000.0,,SCT,9900.0,BKN,20000.0,,,,
KRDR,11-14-2006,08:00,METAR,,160,16.0,,,9999.0,,6.0,-2.0,29.46,999.1,,,,,,,,,,,,,,,8/8 Overcast,11000.0,,OVC,11000.0,,,,,,
KRDR,11-14-2006,07:00,METAR,,170,16.0,,160/27KTS,9999.0,,5.0,-3.0,29.49,999.9,,,,,,,,,,,,,,,7/8 Mostly Cloudy,10000.0,,BKN,9900.0,BKN,20000.0,,,,
KRDR,11-14-2006,06:00,METAR,,160,21.0,29.0,150/30KTS,9999.0,,5.0,-3.0,29.48,,,,,,,,,,,,,,,,8/8 Overcast,10000.0,,BKN,9900.0,OVC,20000.0,,,,
KRDR,11-14-2006,05:00,METAR,,160,17.0,26.0,,9999.0,,6.0,-3.0,29.52,1000.8,,,,,,,,,,,,,,,7/8 Mostly Cloudy,20000.0,,SCT,12000.0,BKN,20000.0,,,,
KRDR,11-14-2006,04:00,METAR,,160,19.0,25.0,,9999.0,,6.0,-3.0,29.54,1001.5,,,,,,,,,,,,,,,7/8 Mostly Cloudy,20000.0,,SCT,12000.0,BKN,20000.0,,,,
KRDR,11-14-2006,03:00,METAR,,150,16.0,22.0,,9999.0,,5.0,-2.0,29.56,1002.2,,,,,,,,,,,,,,,7/8 Mostly Cloudy,20000.0,,BKN,20000.0,,,,,,
KRDR,11-14-2006,02:00,METAR,,150,19.0,25.0,,9999.0,,5.0,-2.0,29.58,1003.0,,,,,,,,,,,,,,,7/8 Mostly Cloudy,20000.0,,BKN,20000.0,,,,,,
KRDR,11-14-2006,01:00,METAR,,150,20.0,24.0,,9999.0,,5.0,-2.0,29.59,1003.3,,,,,,,,,,,,,,,7/8 Mostly Cloudy,20000.0,,BKN,20000.0,,,,,,
KRDR,11-14-2006,00:00,METAR,,160,17.0,21.0,,9999.0,,5.0,-2.0,29.62,1004.2,,,,,,,,,,,,,,,7/8 Mostly Cloudy,20000.0,,BKN,20000.0,,,,,,
KRDR,11-13-2006,23:00,METAR,,160,12.0,15.0,,9999.0,,5.0,-2.0,29.64,1004.7,,,,,,,,,,,,,,,7/8 Mostly Cloudy,20000.0,,BKN,20000.0,,,,,,
KRDR,11-13-2006,22:00,METAR,,170,16.0,,,9999.0,,7.0,-2.0,29.65,1005.3,,,,,,,,,,,,,,,7/8 Mostly Cloudy,20000.0,,BKN,20000.0,,,,,,
KRDR,11-13-2006,21:00,METAR,,180,13.0,17.0,,9999.0,,8.0,-2.0,29.67,1005.8,,,,,,,,,,,,,,,7/8 Mostly Cloudy,20000.0,,BKN,20000.0,,,,,,
KRDR,11-13-2006,20:00,METAR,,170,14.0,20.0,,9999.0,,7.0,-3.0,29.69,1006.4,,,,,,,,,,,,,,,7/8 Mostly Cloudy,20000.0,,BKN,20000.0,,,,,,
KRDR,11-13-2006,19:00,METAR,,180,15.0,,,9999.0,,6.0,-3.0,29.71,1007.3,,,,,,,,,,,,,,,4/8 Partly Cloudy,72000.0,,FEW,9900.0,SCT,20000.0,,,,
KRDR,11-13-2006,18:00,METAR,,170,17.0,,,9999.0,,4.0,-2.0,29.75,1008.6,,,,,,,,,,,,,,,7/8 Mostly Cloudy,20000.0,,FEW,1200.0,BKN,20000.0,,,,
KRDR,11-13-2006,17:00,METAR,,180,16.0,,,9999.0,,1.0,-3.0,29.80,1010.0,,,,,,,,,,,,,,,7/8 Mostly Cloudy,20000.0,,SCT,800.0,BKN,20000.0,,,,
KRDR,11-13-2006,16:34,SPECI,,180,12.0,20.0,,9999.0,,-2.0,-4.0,29.81,,,,,,,,,,,,,,,,4/8 Partly Cloudy,72000.0,,SCT,900.0,,,,,,
KRDR,11-13-2006,16:26,SPECI,,190,14.0,20.0,,9999.0,,-1.0,-3.0,29.80,,,,,,,,,,,,,,,,7/8 Mostly Cloudy,900.0,,BKN,900.0,,,,,,
KRDR,11-13-2006,16:10,SPECI,,190,16.0,,,9999.0,,-1.0,-3.0,29.81,,,,,,,,,,,,,,,,7/8 Mostly Cloudy,800.0,,BKN,800.0,,,,,,
KRDR,11-13-2006,16:00,METAR,,190,14.0,,,9999.0,Mist,-2.0,-4.0,29.82,1010.7,,,,10,,,,,,,,,,,8/8 Overcast,600.0,,OVC,600.0,,,,,,
KRDR,11-13-2006,15:38,SPECI,,170,12.0,,,8000.0,Mist,-2.0,-4.0,29.81,1010.6,,,,10,,,,,,,,,,,8/8 Overcast,500.0,,OVC,500.0,,,,,,
KRDR,11-13-2006,15:00,METAR,,180,11.0,,,6400.0,Mist,-3.0,-4.0,29.84,1011.5,,,,10,,,,,,,,,,,8/8 Overcast,400.0,,OVC,400.0,,,,,,
KRDR,11-13-2006,14:00,METAR,,190,12.0,,,6400.0,Mist,-3.0,-4.0,29.85,1011.8,,,,10,,,,,,,,,,,8/8 Overcast,400.0,,OVC,400.0,,,,,,
KRDR,11-13-2006,13:00,METAR,,200,9.0,,,9999.0,,-3.0,-5.0,29.86,1012.2,,,,,,,,,,,,,,,8/8 Overcast,500.0,,OVC,500.0,,,,,,
KRDR,11-13-2006,12:27,SPECI,,200,8.0,,,9999.0,,-3.0,-4.0,29.87,,,,,,,,,,,,,,,,8/8 Overcast,600.0,,OVC,600.0,,,,,,
KRDR,11-13-2006,12:00,METAR,,200,6.0,,,9999.0,,-3.0,-4.0,29.88,1012.7,,,,,,,,,,,,,,,8/8 Overcast,700.0,,OVC,700.0,,,,,,
KRDR,11-13-2006,11:00,METAR,,190,4.0,,,9999.0,,-3.0,-5.0,29.89,1013.2,,,,,,,,,,,,,,,8/8 Overcast,700.0,,OVC,700.0,,,,,,
KRDR,11-13-2006,10:00,METAR,,230,4.0,,,9999.0,,-3.0,-5.0,29.89,1013.3,,,,,,,,,,,,,,,8/8 Overcast,900.0,,OVC,900.0,,,,,,
KRDR,11-13-2006,09:30,METAR,,260,5.0,,,9999.0,,-2.0,-5.0,29.92,,,,,,,,,,,,,,,,8/8 Overcast,900.0,,OVC,900.0,,,,,,
KRDR,11-13-2006,09:00,METAR,,270,6.0,,,9999.0,,-2.0,-5.0,29.93,1014.3,,,,,,,,,,,,,,,8/8 Overcast,1000.0,,OVC,1000.0,,,,,,
KRDR,11-13-2006,08:00,METAR,,290,3.0,,,9999.0,,-2.0,-5.0,29.93,1014.3,,,,,,,,,,,,,,,8/8 Overcast,1200.0,,OVC,1200.0,,,,,,
KRDR,11-13-2006,07:00,METAR,,300,6.0,,,9999.0,,-2.0,-5.0,29.94,1014.6,,,,,,,,,,,,,,,8/8 Overcast,1300.0,,OVC,1300.0,,,,,,
KRDR,11-13-2006,06:00,METAR,,300,8.0,,,9999.0,,-1.0,-4.0,29.95,1015.2,,,,,,,,,,,,,,,8/8 Overcast,1400.0,,OVC,1400.0,,,,,,
KRDR,11-13-2006,05:00,METAR,,300,7.0,,,9999.0,,-1.0,-4.0,29.96,1015.4,,,,,,,,,,,,,,,8/8 Overcast,1400.0,,OVC,1400.0,,,,,,
KRDR,11-13-2006,04:10,SPECI,,310,6.0,,,9999.0,,-1.0,-3.0,29.96,1015.5,,,,,,,,,,,,,,,8/8 Overcast,1000.0,,OVC,1000.0,,,,,,
KRDR,11-13-2006,04:00,METAR,,320,8.0,,,9999.0,,-1.0,-3.0,29.97,1015.7,,,,,,,,,,,,,,,8/8 Overcast,1300.0,,OVC,1300.0,,,,,,
KRDR,11-13-2006,03:00,METAR,,310,5.0,,,9999.0,,0.0,-3.0,29.96,1015.3,,,,,,,,,,,,,,,8/8 Overcast,1200.0,,OVC,1200.0,,,,,,
KRDR,11-13-2006,02:00,METAR,,300,7.0,,,9999.0,,0.0,-3.0,29.96,1015.4,,,,,,,,,,,,,,,8/8 Overcast,1500.0,,OVC,1500.0,,,,,,
KRDR,11-13-2006,01:00,METAR,,320,9.0,,,9999.0,,1.0,-3.0,29.96,1015.3,,,,,,,,,,,,,,,8/8 Overcast,1400.0,,OVC,1400.0,,,,,,
KRDR,11-13-2006,00:00,METAR,,300,7.0,,,9999.0,,1.0,-2.0,29.95,1015.1,,,,,,,,,,,,,,,8/8 Overcast,1700.0,,OVC,1700.0,,,,,,
KRDR,11-12-2006,23:00,METAR,,330,5.0,,,9999.0,,2.0,-1.0,29.93,1014.5,,,,,,,,,,,,,,,8/8 Overcast,1500.0,,OVC,1500.0,,,,,,
KRDR,11-12-2006,22:00,METAR,,330,6.0,,,9999.0,,2.0,-1.0,29.91,1013.8,,,,,,,,,,,,,,,8/8 Overcast,1200.0,,OVC,1200.0,,,,,,
KRDR,11-12-2006,21:00,METAR,,340,9.0,,,9999.0,,3.0,-1.0,29.89,1013.2,,,,,,,,,,,,,,,8/8 Overcast,1100.0,,OVC,1100.0,,,,,,
KRDR,11-12-2006,20:00,METAR,,310,11.0,,,9999.0,,2.0,-2.0,29.89,1013.1,,,,,,,,,,,,,,,7/8 Mostly Cloudy,1400.0,,BKN,1400.0,BKN,20000.0,,,,
KRDR,11-12-2006,19:52,SPECI,,310,10.0,,,9999.0,,2.0,-2.0,29.89,,,,,,,,,,,,,,,,7/8 Mostly Cloudy,1500.0,,BKN,1500.0,BKN,20000.0,,,,
KRDR,11-12-2006,19:00,METAR,,310,13.0,,,9999.0,,3.0,-2.0,29.89,1013.0,,,,,,,,,,,,,,,7/8 Mostly Cloudy,20000.0,,SCT,800.0,BKN,20000.0,,,,
KRDR,11-12-2006,18:00,METAR,,340,9.0,,,9999.0,,4.0,-2.0,29.87,1012.5,,,,,,,,,,,,,,,7/8 Mostly Cloudy,20000.0,,FEW,800.0,BKN,20000.0,,,,
KRDR,11-12-2006,17:00,METAR,,340,7.0,,,9999.0,,3.0,-3.0,29.86,1012.1,,,,,,,,,,,,,,,7/8 Mostly Cloudy,20000.0,,BKN,20000.0,,,,,,
KRDR,11-12-2006,16:00,METAR,,200,3.0,,,9999.0,,1.0,-4.0,29.84,1011.6,,,,,,,,,,,,,,,7/8 Mostly Cloudy,20000.0,,BKN,20000.0,,,,,,
KRDR,11-12-2006,15:00,METAR,,170,2.0,,,9999.0,,-1.0,-4.0,29.83,1011.0,,,,,,,,,,,,,,,7/8 Mostly Cloudy,20000.0,,BKN,20000.0,,,,,,
KRDR,11-12-2006,14:00,METAR,,180,4.0,,,9999.0,,-3.0,-5.0,29.81,1010.5,,,,,,,,,,,,,,,7/8 Mostly Cloudy,20000.0,,BKN,20000.0,,,,,,
KRDR,11-12-2006,13:00,METAR,,170,4.0,,,9999.0,,-2.0,-5.0,29.79,1010.0,,,,,,,,,,,,,,,8/8 Overcast,20000.0,,OVC,20000.0,,,,,,
KRDR,11-12-2006,12:00,METAR,,180,6.0,,,9999.0,,-1.0,-5.0,29.79,1009.7,,,,,,,,,,,,,,,8/8 Overcast,20000.0,,SCT,14000.0,OVC,20000.0,,,,
KRDR,11-12-2006,11:00,METAR,,190,4.0,,,9999.0,,-1.0,-6.0,29.77,1009.2,,,,,,,,,,,,,,,8/8 Overcast,20000.0,,FEW,13000.0,OVC,20000.0,,,,
KRDR,11-12-2006,10:00,METAR,,190,9.0,,,9999.0,,-1.0,-6.0,29.76,1008.9,,,,,,,,,,,,,,,8/8 Overcast,13000.0,,BKN,13000.0,OVC,20000.0,,,,
KRDR,11-12-2006,09:00,METAR,,180,11.0,,,9999.0,,-1.0,-6.0,29.76,1008.8,,,,,,,,,,,,,,,8/8 Overcast,20000.0,,SCT,12000.0,OVC,20000.0,,,,
KRDR,11-12-2006,08:00,METAR,,180,13.0,,,9999.0,,-1.0,-6.0,29.76,1008.9,,,,,,,,,,,,,,,8/8 Overcast,11000.0,,BKN,11000.0,OVC,20000.0,,,,
KRDR,11-12-2006,07:00,METAR,,170,15.0,22.0,,9999.0,,-1.0,-7.0,29.76,1008.9,,,,,,,,,,,,,,,8/8 Overcast,20000.0,,SCT,12000.0,OVC,20000.0,,,,
KRDR,11-12-2006,06:00,METAR,,170,15.0,,180/26KTS,9999.0,,-1.0,-7.0,29.78,1009.5,,,,,,,,,,,,,,,8/8 Overcast,20000.0,,SCT,12000.0,OVC,20000.0,,,,
KRDR,11-12-2006,05:00,METAR,,180,15.0,25.0,170/30KTS,9999.0,,0.0,-8.0,29.79,1009.9,,,,,,,,,,,,,,,8/8 Overcast,12000.0,,BKN,12000.0,OVC,20000.0,,,,
KRDR,11-12-2006,04:00,METAR,,170,21.0,25.0,180/28KTS,9999.0,,0.0,-8.0,29.79,1009.7,,,,,,,,,,,,,,,8/8 Overcast,20000.0,,SCT,12000.0,OVC,20000.0,,,,
KRDR,11-12-2006,03:00,METAR,,180,17.0,26.0,170/28KTS,9999.0,,1.0,-8.0,29.80,1010.1,,,,,,,,,,,,,,,8/8 Overcast,12000.0,,BKN,12000.0,OVC,20000.0,,,,
KRDR,11-12-2006,02:00,METAR,,170,17.0,23.0,180/26KTS,9999.0,,1.0,-9.0,29.81,1010.4,,,,,,,,,,,,,,,8/8 Overcast,20000.0,,SCT,14000.0,OVC,20000.0,,,,
KRDR,11-12-2006,01:00,METAR,,170,18.0,25.0,,9999.0,,1.0,-9.0,29.82,1010.8,,,,,,,,,,,,,,,8/8 Overcast,14000.0,,OVC,14000.0,,,,,,
KRDR,11-12-2006,00:00,METAR,,160,13.0,19.0,,9999.0,,0.0,-8.0,29.85,1011.6,,,,,,,,,,,,,,,8/8 Overcast,14000.0,,BKN,14000.0,OVC,20000.0,,,,
KRDR,11-11-2006,23:00,METAR,,160,15.0,18.0,,9999.0,,1.0,-8.0,29.86,1012.0,,,,,,,,,,,,,,,8/8 Overcast,16000.0,,SCT,9900.0,OVC,16000.0,,,,
KRDR,11-11-2006,22:00,METAR,,160,19.0,24.0,170/27KTS,9999.0,,1.0,-9.0,29.87,1012.5,,,,,,,,,,,,,,,8/8 Overcast,11000.0,,BKN,11000.0,OVC,16000.0,,,,
KRDR,11-11-2006,21:00,METAR,,160,17.0,26.0,160/26KTS,9999.0,,0.0,-9.0,29.89,1013.2,,,,,,,,,,,,,,,8/8 Overcast,11000.0,,OVC,11000.0,,,,,,
KRDR,11-11-2006,20:00,METAR,,160,19.0,25.0,160/27KTS,9999.0,,0.0,-9.0,29.92,1014.2,,,,,,,,,,,,,,,8/8 Overcast,9000.0,,BKN,8900.0,OVC,18000.0,,,,
KRDR,11-11-2006,19:00,METAR,,160,16.0,,170/26KTS,9999.0,,-1.0,-9.0,29.98,1016.0,,,,,,,,,,,,,,,8/8 Overcast,11000.0,,BKN,11000.0,OVC,18000.0,,,,
KRDR,11-11-2006,18:00,METAR,,160,15.0,23.0,,9999.0,,-2.0,-9.0,30.02,1017.5,,,,,,,,,,,,,,,8/8 Overcast,11000.0,,OVC,11000.0,,,,,,
KRDR,11-11-2006,17:00,METAR,,170,14.0,,,9999.0,,-4.0,-9.0,30.08,1019.3,,,,,,,,,,,,,,,8/8 Overcast,11000.0,,BKN,11000.0,OVC,20000.0,,,,
KRDR,11-11-2006,16:00,METAR,,170,14.0,,,9999.0,,-6.0,-9.0,30.11,1020.2,,,,,,,,,,,,,,,8/8 Overcast,12000.0,,BKN,12000.0,OVC,20000.0,,,,
KRDR,11-11-2006,15:00,METAR,,180,9.0,,,9999.0,,-8.0,-11.0,30.16,1021.9,,,,,,,,,,,,,,,8/8 Overcast,12000.0,,BKN,12000.0,OVC,20000.0,,,,
KRDR,11-11-2006,14:00,METAR,,160,8.0,,,9999.0,,-10.0,-12.0,30.15,1021.6,,,,,,,,,,,,,,,7/8 Mostly Cloudy,20000.0,,SCT,12000.0,BKN,20000.0,,,,
KRDR,11-11-2006,13:00,METAR,,160,7.0,,,9999.0,,-10.0,-12.0,30.18,1022.7,,,,,,,,,,,,,,,7/8 Mostly Cloudy,20000.0,,FEW,9900.0,BKN,20000.0,,,,
KRDR,11-11-2006,12:00,METAR,,160,8.0,,,9999.0,,-10.0,-12.0,30.21,1023.6,,,,,,,,,,,,,,,7/8 Mostly Cloudy,20000.0,,BKN,20000.0,,,,,,
KRDR,11-11-2006,11:00,METAR,,170,7.0,,,9999.0,,-10.0,-12.0,30.23,1024.2,,,,,,,,,,,,,,,7/8 Mostly Cloudy,20000.0,,BKN,20000.0,,,,,,
KRDR,11-11-2006,10:00,METAR,,180,5.0,,,9999.0,,-10.0,-12.0,30.25,1025.0,,,,,,,,,,,,,,,4/8 Partly Cloudy,72000.0,,SCT,20000.0,,,,,,
KRDR,11-11-2006,09:00,METAR,,190,4.0,,,9999.0,,-11.0,-13.0,30.27,1025.7,,,,,,,,,,,,,,,Clear,72000.0,,,73000.0,,,,,,
KRDR,11-11-2006,08:00,METAR,,160,5.0,,,9999.0,,-10.0,-12.0,30.27,1025.8,,,,,,,,,,,,,,,Clear,72000.0,,,73000.0,,,,,,
KRDR,11-11-2006,07:00,METAR,,150,4.0,,,9999.0,,-10.0,-12.0,30.31,1027.0,,,,,,,,,,,,,,,Clear,72000.0,,,73000.0,,,,,,
KRDR,11-11-2006,06:00,METAR,,,0.0,,,9999.0,,-11.0,-13.0,30.32,1027.4,,,,,,,,,,,,,,,Clear,72000.0,,,73000.0,,,,,,
KRDR,11-11-2006,05:00,METAR,,,0.0,,,9999.0,,-12.0,-14.0,30.35,1028.3,,,,,,,,,,,,,,,Clear,72000.0,,,73000.0,,,,,,
KRDR,11-11-2006,04:00,METAR,,,0.0,,,9999.0,,-11.0,-12.0,30.34,1028.0,,,,,,,,,,,,,,,Clear,72000.0,,,73000.0,,,,,,
KRDR,11-11-2006,03:00,METAR,,80,3.0,,,9999.0,,-8.0,-11.0,30.34,1027.9,,,,,,,,,,,,,,,Clear,72000.0,,,73000.0,,,,,,
KRDR,11-11-2006,02:00,METAR,,60,3.0,,,9999.0,,-9.0,-11.0,30.35,1028.2,,,,,,,,,,,,,,,Clear,72000.0,,,73000.0,,,,,,
KRDR,11-11-2006,01:00,METAR,,50,4.0,,,9999.0,,-8.0,-11.0,30.35,1028.3,,,,,,,,,,,,,,,Clear,72000.0,,,73000.0,,,,,,
KRDR,11-11-2006,00:00,METAR,,20,4.0,,,9999.0,,-7.0,-11.0,30.36,1028.6,,,,,,,,,,,,,,,Clear,72000.0,,,73000.0,,,,,,
KRDR,11-10-2006,23:00,METAR,,40,7.0,,,9999.0,,-6.0,-10.0,30.35,1028.4,,,,,,,,,,,,,,,Clear,72000.0,,,73000.0,,,,,,
KRDR,11-10-2006,22:00,METAR,,20,8.0,,,9999.0,,-4.0,-10.0,30.34,1028.0,,,,,,,,,,,,,,,2/8 Mostly Clear,72000.0,,FEW,2500.0,,,,,,
KRDR,11-10-2006,21:00,METAR,,340,8.0,,,9999.0,,-4.0,-10.0,30.34,1028.0,,,,,,,,,,,,,,,4/8 Partly Cloudy,72000.0,,SCT,2500.0,,,,,,
KRDR,11-10-2006,20:29,SPECI,,350,10.0,,,9999.0,,-4.0,-11.0,30.34,,,,,,,,,,,,,,,,4/8 Partly Cloudy,72000.0,,SCT,2200.0,,,,,,
KRDR,11-10-2006,20:00,METAR,,20,9.0,,,9999.0,,-4.0,-10.0,30.35,1028.3,,,,,,,,,,,,,,,7/8 Mostly Cloudy,2100.0,,BKN,2100.0,,,,,,
KRDR,11-10-2006,19:00,METAR,,10,8.0,,,9999.0,,-5.0,-10.0,30.36,1028.7,,,,,,,,,,,,,,,7/8 Mostly Cloudy,2300.0,,SCT,1800.0,BKN,2300.0,,,,
KRDR,11-10-2006,18:00,METAR,,20,8.0,,,9999.0,,-5.0,-10.0,30.36,1028.7,,,,,,,,,,,,,TRACE,,7/8 Mostly Cloudy,2500.0,,SCT,1900.0,BKN,2500.0,,,,
KRDR,11-10-2006,17:00,METAR,,30,8.0,,,9999.0,,-5.0,-10.0,30.38,1029.2,,,,,,,,,,,TRACE,,,,7/8 Mostly Cloudy,2200.0,,SCT,1700.0,BKN,2200.0,,,,
KRDR,11-10-2006,16:27,SPECI,,20,8.0,,,9999.0,,-5.0,-10.0,30.38,,,,,,,,,,,,,,,,7/8 Mostly Cloudy,2000.0,,SCT,1600.0,BKN,2000.0,,,,
KRDR,11-10-2006,16:18,SPECI,,20,11.0,,,9999.0,Light Snow,-5.0,-10.0,30.37,,,,,71,,,,,,,,,,,7/8 Mostly Cloudy,2100.0,,SCT,1600.0,BKN,2100.0,,,,
KRDR,11-10-2006,16:00,METAR,,340,9.0,,,9999.0,,-5.0,-9.0,30.37,1028.9,,,,,,,,,,,,,,,7/8 Mostly Cloudy,2100.0,,BKN,2100.0,,,,,,
KRDR,11-10-2006,15:36,SPECI,,340,9.0,,,9999.0,,-5.0,-9.0,30.37,,,,,,,,,,,,,,,,7/8 Mostly Cloudy,2200.0,,BKN,2200.0,BKN,18000.0,,,,
KRDR,11-10-2006,15:00,METAR,,340,6.0,,,9999.0,,-6.0,-9.0,30.36,1028.4,,,,,,,,,,,,,,,7/8 Mostly Cloudy,18000.0,,SCT,2900.0,BKN,18000.0,,,,
KRDR,11-10-2006,14:00,METAR,,360,9.0,,,9999.0,,-6.0,-10.0,30.33,1027.6,,,,,,,,,,,,,,,7/8 Mostly Cloudy,2700.0,,BKN,2700.0,,,,,,
KRDR,11-10-2006,13:00,METAR,,360,9.0,,,9999.0,,-5.0,-9.0,30.31,1026.8,,,,,,,,,,,,,,,8/8 Overcast,2100.0,,SCT,1500.0,OVC,2100.0,,,,
KRDR,11-10-2006,12:00,METAR,,350,7.0,,,9999.0,,-5.0,-8.0,30.28,1025.9,,,,,,,,,,,,,,,8/8 Overcast,1000.0,,BKN,1600.0,OVC,2600.0,,,,
KRDR,11-10-2006,11:35,SPECI,,350,6.0,,,9999.0,,-5.0,-8.0,30.27,,,,,,,,,,,,,,,,8/8 Overcast,1000.0,,OVC,1500.0,,,,,,
KRDR,11-10-2006,11:00,METAR,,350,7.0,,,9999.0,,-5.0,-8.0,30.26,1025.4,,,,,,,,,,,,,,,8/8 Overcast,1400.0,,BKN,1400.0,OVC,2300.0,,,,
KRDR,11-10-2006,10:00,METAR,,360,7.0,,,9999.0,,-5.0,-8.0,30.25,1025.0,,,,,,,,,,,,,,,8/8 Overcast,1800.0,,OVC,1800.0,,,,,,
KRDR,11-10-2006,09:00,METAR,,10,6.0,,,9999.0,,-4.0,-6.0,30.24,1024.6,,,,,,,,,,,,,,,7/8 Mostly Cloudy,3100.0,,SCT,1400.0,BKN,3200.0,,,,
KRDR,11-10-2006,08:00,METAR,,10,5.0,,,9999.0,,-4.0,-6.0,30.24,1024.5,,,,,,,,,,,,,,,7/8 Mostly Cloudy,3100.0,,BKN,3200.0,,,,,,
KRDR,11-10-2006,07:00,METAR,,10,6.0,,,9999.0,,-3.0,-6.0,30.24,1024.5,,,,,,,,,,,,,,,8/8 Overcast,3100.0,,FEW,2200.0,OVC,3200.0,,,,
KRDR,11-10-2006,06:00,METAR,,10,6.0,,,9999.0,,-3.0,-7.0,30.22,1024.0,,,,,,,,,,,,,,,8/8 Overcast,3100.0,,OVC,3200.0,,,,,,
KRDR,11-10-2006,05:00,METAR,,360,3.0,,,9999.0,,-4.0,-6.0,30.21,1023.5,,,,,,,,,,,,,,,8/8 Overcast,3000.0,,OVC,3000.0,,,,,,
KRDR,11-10-2006,04:25,METAR,,330,4.0,,,9999.0,,-5.0,-7.0,30.19,1022.9,,,,,,,,,,,,,,,8/8 Overcast,3000.0,,OVC,3000.0,,,,,,
KRDR,11-10-2006,04:00,METAR,,310,4.0,,,9999.0,,-6.0,-8.0,30.15,1021.7,,,,,,,,,,,,,,,7/8 Mostly Cloudy,3100.0,,BKN,3200.0,,,,,,
KRDR,11-10-2006,03:00,METAR,,,0.0,,,9999.0,,-4.0,-7.0,30.13,1021.1,,,,,,,,,,,,,,,7/8 Mostly Cloudy,3300.0,,BKN,3400.0,,,,,,
KRDR,11-10-2006,02:00,METAR,,360,3.0,,,9999.0,,-3.0,-6.0,30.14,1021.3,,,,,,,,,,,,,,,7/8 Mostly Cloudy,3200.0,,BKN,3300.0,,,,,,
KRDR,11-10-2006,01:00,METAR,,340,3.0,,,9999.0,,-2.0,-6.0,30.11,1020.3,,,,,,,,,,,,,,,7/8 Mostly Cloudy,2700.0,,BKN,2700.0,,,,,,
KRDR,11-10-2006,00:00,METAR,,340,6.0,,,9999.0,,-2.0,-6.0,30.09,1019.8,,,,,,,,,,,,,,,7/8 Mostly Cloudy,2600.0,,BKN,2600.0,,,,,,
KRDR,11-09-2006,23:00,METAR,,350,10.0,,,9999.0,,0.0,-6.0,30.06,1018.8,,,,,,,,,,,,,,,7/8 Mostly Cloudy,2500.0,,BKN,2500.0,,,,,,
KRDR,11-09-2006,22:00,METAR,,350,9.0,,,9999.0,,1.0,-5.0,30.04,1018.2,,,,,,,,,,,,,,,7/8 Mostly Cloudy,2600.0,,BKN,2600.0,,,,,,
KRDR,11-09-2006,21:00,METAR,,350,9.0,,,9999.0,,1.0,-5.0,30.03,1017.6,,,,,,,,,,,,,,,7/8 Mostly Cloudy,2600.0,,BKN,2600.0,,,,,,
KRDR,11-09-2006,20:00,METAR,,340,7.0,,,9999.0,,1.0,-5.0,30.02,1017.5,,,,,,,,,,,,,,,8/8 Overcast,2500.0,,OVC,2500.0,,,,,,
KRDR,11-09-2006,19:00,METAR,,360,7.0,,,9999.0,,1.0,-5.0,30.02,1017.4,,,,,,,,,,,,,,,8/8 Overcast,2400.0,,OVC,2400.0,,,,,,
KRDR,11-09-2006,18:00,METAR,,340,9.0,,,9999.0,,0.0,-5.0,30.02,1017.3,,,,,,,,,,,,,,,8/8 Overcast,2300.0,,OVC,2300.0,,,,,,
KRDR,11-09-2006,17:00,METAR,,360,9.0,,,9999.0,,0.0,-6.0,30.01,1017.1,,,,,,,,,,,,,,,8/8 Overcast,2300.0,,OVC,2300.0,,,,,,
KRDR,11-09-2006,16:00,METAR,,360,13.0,,,9999.0,,-1.0,-6.0,29.99,1016.5,,,,,,,,,,,,,,,8/8 Overcast,2000.0,,OVC,2000.0,,,,,,
KRDR,11-09-2006,15:00,METAR,,340,12.0,17.0,,9999.0,,-2.0,-7.0,29.98,1016.2,,,,,,,,,,,,,,,7/8 Mostly Cloudy,1800.0,,BKN,1800.0,,,,,,
KRDR,11-09-2006,14:00,METAR,,340,12.0,,,9999.0,,-2.0,-6.0,29.95,1015.2,,,,,,,,,,,,,,,8/8 Overcast,1700.0,,OVC,1700.0,,,,,,
KRDR,11-09-2006,13:00,METAR,,330,13.0,,,9999.0,,-2.0,-6.0,29.91,1013.7,,,,,,,,,,,,,,,8/8 Overcast,1700.0,,OVC,1700.0,,,,,,
KRDR,11-09-2006,12:00,METAR,,330,10.0,,,9999.0,,-1.0,-5.0,29.87,1012.6,,,,,,,,,,,,,,.05 IN,8/8 Overcast,1900.0,,OVC,1900.0,,,,,,
KRDR,11-09-2006,11:00,METAR,,10,6.0,,,9999.0,,-1.0,-4.0,29.85,1011.6,,,,,,,,,,,,,,,8/8 Overcast,1800.0,,OVC,1800.0,,,,,,
KRDR,11-09-2006,10:00,METAR,,340,11.0,,,9999.0,,0.0,-4.0,29.81,1010.4,,,,,,,,,,,,,,,8/8 Overcast,2200.0,,OVC,2200.0,,,,,,
KRDR,11-09-2006,09:00,METAR,,330,10.0,20.0,,9999.0,,0.0,-5.0,29.78,1009.4,,,,,,,,,,,,,,,8/8 Overcast,2500.0,,OVC,2500.0,,,,,,
KRDR,11-09-2006,08:00,METAR,,330,13.0,25.0,,9999.0,,0.0,-4.0,29.75,1008.4,,,,,,,,,,,,,,,8/8 Overcast,1800.0,,OVC,1800.0,,,,,,
KRDR,11-09-2006,07:00,METAR,,330,14.0,23.0,,9999.0,,1.0,-3.0,29.71,1007.3,,,,,,,,,,,TRACE,,,,8/8 Overcast,2100.0,,SCT,1600.0,OVC,2100.0,,,,
KRDR,11-09-2006,06:00,METAR,,330,12.0,,,9999.0,,2.0,-3.0,29.68,1006.2,,,,,,,,,,,,,,,8/8 Overcast,1800.0,,OVC,1800.0,,,,,,
KRDR,11-09-2006,05:11,SPECI,,340,16.0,,,9999.0,,1.0,-3.0,29.66,1005.4,,,,,,,,,,,,,,,7/8 Mostly Cloudy,2300.0,,BKN,2300.0,,,,,,
KRDR,11-09-2006,05:02,SPECI,,330,15.0,25.0,,9999.0,,1.0,-3.0,29.66,1005.5,,,,,,,,,,,,,,,4/8 Partly Cloudy,72000.0,,SCT,2100.0,,,,,,
KRDR,11-09-2006,05:00,METAR,,330,19.0,27.0,330/27KTS,9999.0,,2.0,-3.0,29.65,1005.1,,,,,,,,,,,,,,,7/8 Mostly Cloudy,2400.0,,BKN,2400.0,,,,,,
KRDR,11-09-2006,04:00,METAR,,340,16.0,27.0,330/30KTS,9999.0,,2.0,-2.0,29.60,1003.5,,,,,,,,,,,,,,,7/8 Mostly Cloudy,1900.0,,BKN,1900.0,,,,,,
KRDR,11-09-2006,03:43,SPECI,,340,20.0,27.0,,9999.0,,2.0,-2.0,29.59,,,,,,,,,,,,,,,,7/8 Mostly Cloudy,2000.0,,BKN,2000.0,,,,,,
KRDR,11-09-2006,03:00,METAR,,320,21.0,28.0,330/33KTS,9999.0,,3.0,-1.0,29.54,1001.6,,,,,,,,,,,,,,,4/8 Partly Cloudy,72000.0,,FEW,2800.0,SCT,20000.0,,,,
KRDR,11-09-2006,02:00,METAR,,320,21.0,27.0,310/38KTS,9999.0,,5.0,-1.0,29.49,1000.0,,,,,,,,,,,,,,,2/8 Mostly Clear,72000.0,,FEW,25000.0,,,,,,
KRDR,11-09-2006,01:00,METAR,,310,25.0,37.0,310/38KTS,9999.0,,7.0,1.0,29.44,998.4,,,,,,,,,,,.05 IN,,,,2/8 Mostly Clear,72000.0,,FEW,25000.0,,,,,,
KRDR,11-09-2006,00:00,METAR,,310,14.0,19.0,,9999.0,,10.0,4.0,29.37,996.0,,,,,,,,,,,,,,,4/8 Partly Cloudy,72000.0,,SCT,15000.0,SCT,20000.0,,,,
KRDR,11-08-2006,23:00,METAR,,300,13.0,,,9999.0,,13.0,2.0,29.33,994.7,,,,,,,,,,,,,,,4/8 Partly Cloudy,72000.0,,SCT,15000.0,SCT,20000.0,,,,
KRDR,11-08-2006,22:00,METAR,,290,18.0,26.0,280/33KTS,9999.0,,15.0,2.0,29.31,993.9,,,,,,,,,,,,,,,7/8 Mostly Cloudy,15000.0,,BKN,15000.0,BKN,20000.0,,,,
KRDR,11-08-2006,21:00,METAR,,290,19.0,23.0,280/27KTS,9999.0,,16.0,6.0,29.28,992.9,,,,,,,,,,,,,,,7/8 Mostly Cloudy,12000.0,,BKN,12000.0,BKN,20000.0,,,,
KRDR,11-08-2006,20:00,METAR,,300,20.0,27.0,310/30KTS,9999.0,,17.0,7.0,29.26,992.4,,,,,,,,,,,,,,,7/8 Mostly Cloudy,20000.0,,SCT,12000.0,BKN,20000.0,,,,
KRDR,11-08-2006,19:00,METAR,,300,23.0,30.0,300/30KTS,9999.0,,18.0,7.0,29.24,991.6,,,,,,,,,,,,,,,7/8 Mostly Cloudy,20000.0,,SCT,12000.0,BKN,20000.0,,,,
KRDR,11-08-2006,18:00,METAR,,250,6.0,,,9999.0,,13.0,9.0,29.25,991.9,,,,,,,,,,,,,TRACE,,7/8 Mostly Cloudy,20000.0,,SCT,12000.0,BKN,20000.0,,,,
KRDR,11-08-2006,17:00,METAR,,230,5.0,,,9999.0,,8.0,5.0,29.25,992.1,,,,,,,,,,,,,,,4/8 Partly Cloudy,72000.0,,SCT,12000.0,SCT,20000.0,,,,
KRDR,11-08-2006,16:00,METAR,,230,2.0,,,9999.0,,5.0,4.0,29.27,992.7,,,,,,,,,,,,,,,7/8 Mostly Cloudy,12000.0,,BKN,12000.0,BKN,20000.0,,,,
KRDR,11-08-2006,15:00,METAR,,160,4.0,,,9999.0,Mist,4.0,4.0,29.28,992.9,,,,10,,,,,,,,TRACE,,,7/8 Mostly Cloudy,10000.0,,SCT,400.0,BKN,9900.0,BKN,18000.0,,
KRDR,11-08-2006,14:31,SPECI,,90,4.0,,,4800.0,Mist,4.0,4.0,29.28,,,,,10,,,,,,,,,,,7/8 Mostly Cloudy,9000.0,,SCT,400.0,BKN,8900.0,,,,
KRDR,11-08-2006,14:00,METAR,,50,6.0,,,4800.0,Mist,4.0,4.0,29.30,993.6,,,,10,,,,,,,TRACE,,,,8/8 Overcast,400.0,,OVC,400.0,,,,,,
KRDR,11-08-2006,13:43,SPECI,,40,4.0,,,8000.0,Mist,4.0,4.0,29.30,,,,,10,,,,,,,,,,,8/8 Overcast,400.0,,BKN,400.0,OVC,11000.0,,,,
KRDR,11-08-2006,13:02,SPECI,,120,5.0,,,9999.0,,5.0,4.0,29.30,,,,,,,,,,,,,,,,7/8 Mostly Cloudy,10000.0,,BKN,9900.0,,,,,,
KRDR,11-08-2006,13:00,METAR,,120,5.0,,,9999.0,Rain,5.0,4.0,29.30,993.5,,,,61,,,,,,,TRACE,,,,7/8 Mostly Cloudy,10000.0,,BKN,9900.0,,,,,,
KRDR,11-08-2006,12:41,SPECI,,90,5.0,,,9999.0,Rain,5.0,4.0,29.30,993.6,,,,61,,,,,,,,,,,7/8 Mostly Cloudy,9500.0,,BKN,9400.0,,,,,,
KRDR,11-08-2006,12:00,METAR,,70,3.0,,,9999.0,Mist,5.0,4.0,29.31,994.0,,,,10,,,,,,,,,TRACE,.06 IN,8/8 Overcast,8000.0,,OVC,7900.0,,,,,,
KRDR,11-08-2006,11:00,METAR,,70,3.0,,,9999.0,Rain,6.0,5.0,29.32,994.3,,,,61,,,,,,,TRACE,,,,8/8 Overcast,8000.0,,OVC,7900.0,,,,,,
KRDR,11-08-2006,10:00,METAR,,360,3.0,,,9999.0,Light Rain Showers,5.0,4.0,29.35,995.2,,,,80,,,,,,,,,,,8/8 Overcast,9000.0,,OVC,8900.0,,,,,,
KRDR,11-08-2006,09:46,SPECI,,10,5.0,,,9999.0,Light Rain Showers,5.0,4.0,29.35,,,,,80,,,,,,,,,,,8/8 Overcast,9000.0,,OVC,8900.0,,,,,,
KRDR,11-08-2006,09:00,METAR,,30,4.0,,,9999.0,,5.0,4.0,29.35,995.4,,,,,,,,,,,,,,,8/8 Overcast,12000.0,,BKN,12000.0,OVC,20000.0,,,,
KRDR,11-08-2006,08:00,METAR,,,0.0,,,9999.0,,5.0,4.0,29.36,995.7,,,,,,,,,,,,,,,7/8 Mostly Cloudy,20000.0,,SCT,12000.0,BKN,20000.0,,,,
KRDR,11-08-2006,07:00,METAR,,,0.0,,,9999.0,,5.0,4.0,29.36,995.6,,,,,,,,,,,,,,,7/8 Mostly Cloudy,20000.0,,FEW,15000.0,BKN,20000.0,,,,
KRDR,11-08-2006,06:00,METAR,,270,5.0,,,9999.0,,5.0,4.0,29.38,996.2,,,,,,,,,,,,,,,7/8 Mostly Cloudy,15000.0,,BKN,15000.0,,,,,,
KRDR,11-08-2006,05:00,METAR,,,0.0,,,9999.0,,4.0,3.0,29.38,996.2,,,,,,,,,,,,,,,8/8 Overcast,14000.0,,BKN,14000.0,OVC,20000.0,,,,
KRDR,11-08-2006,04:00,METAR,,210,4.0,,,9999.0,,6.0,4.0,29.38,996.3,,,,,,,,,,,,,,,7/8 Mostly Cloudy,20000.0,,SCT,14000.0,BKN,20000.0,,,,
KRDR,11-08-2006,03:00,METAR,,220,5.0,,,9999.0,Mist,4.0,3.0,29.39,996.7,,,,10,,,,,,,,,,,2/8 Mostly Clear,72000.0,,FEW,9900.0,,,,,,
KRDR,11-08-2006,02:00,METAR,,190,5.0,,,9999.0,Mist,3.0,2.0,29.41,997.1,,,,10,,,,,,,,,,,2/8 Mostly Clear,72000.0,,FEW,9900.0,,,,,,
KRDR,11-08-2006,01:00,METAR,,190,5.0,,,9999.0,Mist,4.0,3.0,29.44,998.2,,,,10,,,,,,,,,,,4/8 Partly Cloudy,72000.0,,SCT,9900.0,,,,,,
KRDR,11-08-2006,00:00,METAR,,180,5.0,,,9999.0,Mist,5.0,4.0,29.46,998.8,,,,10,,,,,,,,,.05 IN,,4/8 Partly Cloudy,72000.0,,FEW,1500.0,SCT,12000.0,SCT,20000.0,,
KRDR,11-07-2006,23:00,METAR,,190,5.0,,,9999.0,,6.0,5.0,29.49,999.9,,,,,,,,,,,,,,,8/8 Overcast,14000.0,,FEW,700.0,FEW,1500.0,BKN,14000.0,OVC,20000.0
KRDR,11-07-2006,22:00,METAR,,,,,,4800.0,Mist,6.0,4.0,29.50,1000.2,,,,10,,,,,,,,,,,8/8 Overcast,7000.0,,SCT,700.0,SCT,1500.0,OVC,6900.0,,
KRDR,11-07-2006,21:48,SPECI,,,,,,4800.0,Mist,6.0,4.0,29.50,,,,,10,,,,,,,,,,,8/8 Overcast,7000.0,,FEW,700.0,SCT,1500.0,OVC,6900.0,,
KRDR,11-07-2006,21:00,METAR,,150,7.0,,,4800.0,Mist,6.0,5.0,29.50,1000.2,,,,10,,,,,,,,.05 IN,,,8/8 Overcast,7000.0,,SCT,400.0,OVC,6900.0,,,,
KRDR,11-07-2006,20:20,METAR,,140,7.0,,,6400.0,Mist,6.0,5.0,29.50,,,,,10,,,,,,,,,,,8/8 Overcast,7500.0,,SCT,600.0,OVC,7400.0,,,,
KRDR,11-07-2006,20:00,METAR,,110,5.0,,,4800.0,Mist,6.0,5.0,29.52,1001.1,,,,10,,,,,,,TRACE,,,,8/8 Overcast,600.0,,BKN,600.0,OVC,7900.0,,,,
KRDR,11-07-2006,19:00,METAR,,30,6.0,,,4000.0,Mist,5.0,4.0,29.57,1002.5,,,,10,,,,,,,.05 IN,,,,8/8 Overcast,400.0,,BKN,400.0,OVC,5000.0,,,,
KRDR,11-07-2006,18:31,SPECI,,10,7.0,,,3200.0,Rain/Mist,4.0,4.0,29.58,1002.8,,,,61,10,,,,,,,,,,7/8 Mostly Cloudy,100.0,,BKN,300.0,,,,,,
KRDR,11-07-2006,18:21,SPECI,,360,5.0,,,4000.0,Rain/Mist,4.0,3.0,29.58,,,,,61,10,,,,,,,,,,8/8 Overcast,400.0,,BKN,400.0,OVC,4400.0,,,,
KRDR,11-07-2006,18:12,SPECI,,340,6.0,,,4800.0,Rain/Mist,4.0,3.0,29.60,,,,,61,10,,,,,,,,,,8/8 Overcast,4300.0,,SCT,400.0,OVC,4400.0,,,,
KRDR,11-07-2006,18:00,METAR,,330,3.0,,,4800.0,Drizzle/Mist,4.0,3.0,29.59,1003.3,,,,51,10,,,,,,.01 IN,,.01 IN,,8/8 Overcast,4500.0,,FEW,500.0,OVC,4600.0,,,,
KRDR,11-07-2006,17:33,SPECI,,300,5.0,,,4800.0,Rain/Mist,5.0,3.0,29.61,,,,,61,10,,,,,,,,,,8/8 Overcast,4700.0,,FEW,500.0,OVC,4800.0,,,,
KRDR,11-07-2006,17:13,SPECI,,310,5.0,,,4800.0,Rain/Mist,5.0,3.0,29.60,,,,,61,10,,,,,,,,,,8/8 Overcast,4600.0,,FEW,500.0,OVC,4700.0,,,,
KRDR,11-07-2006,17:00,METAR,,340,3.0,,,4800.0,Mist,4.0,3.0,29.60,1003.6,,,,10,,,,,,,,,,,8/8 Overcast,4900.0,,FEW,500.0,OVC,5000.0,,,,
KRDR,11-07-2006,16:23,SPECI,,360,5.0,,,4800.0,Mist,4.0,3.0,29.61,,,,,10,,,,,,,,,,,8/8 Overcast,5500.0,,SCT,500.0,OVC,5400.0,,,,
KRDR,11-07-2006,16:00,METAR,,360,5.0,,,3200.0,,3.0,2.0,29.62,1004.1,,,,,,,,,,,,,,,8/8 Overcast,6000.0,,SCT,400.0,OVC,5900.0,,,,
KRDR,11-07-2006,15:21,SPECI,,10,4.0,,,2400.0,,3.0,2.0,29.64,,,,,,,,,,,,,,,,8/8 Overcast,7000.0,,SCT,400.0,OVC,6900.0,,,,
KRDR,11-07-2006,15:00,METAR,,10,7.0,,,1200.0,Mist,3.0,2.0,29.66,1005.4,,,,10,,,,,,,,,,,2/8 Mostly Clear,72000.0,,FEW,100.0,,,,,,
KRDR,11-07-2006,14:36,SPECI,,,6.0,,,2400.0,Mist,2.0,2.0,29.66,,,,,10,,,,,,,,,,,8/8 Overcast,300.0,,OVC,300.0,,,,,,
KRDR,11-07-2006,14:00,METAR,,10,8.0,,,1200.0,Mist,2.0,1.0,29.67,1006.0,,,,10,,,,,,,,,,,8/8 Overcast,300.0,,BKN,300.0,OVC,12000.0,,,,
KRDR,11-07-2006,13:49,SPECI,,10,8.0,,,1200.0,,2.0,1.0,29.67,,,,,,,,,,,,,,,,8/8 Overcast,300.0,,BKN,300.0,OVC,12000.0,,,,
KRDR,11-07-2006,13:00,METAR,,360,7.0,,,4000.0,Mist,2.0,1.0,29.69,1006.4,,,,10,,,,,,,,,,,8/8 Overcast,12000.0,,SCT,300.0,OVC,12000.0,,,,
KRDR,11-07-2006,12:25,METAR,,360,6.0,,,3200.0,Mist,2.0,1.0,29.69,,,,,10,,,,,,,,,,,8/8 Overcast,14000.0,,SCT,300.0,OVC,14000.0,,,,
KRDR,11-07-2006,12:15,SPECI,,360,6.0,,,2400.0,Mist,2.0,1.0,29.69,,,,,10,,,,,,,,,,,8/8 Overcast,300.0,,BKN,300.0,OVC,15000.0,,,,
KRDR,11-07-2006,12:00,METAR,,10,4.0,,,3200.0,Mist,1.0,1.0,29.71,1007.0,,,,10,,,,,,,,,,,8/8 Overcast,6000.0,,SCT,300.0,OVC,5900.0,,,,
KRDR,11-07-2006,11:00,METAR,,10,4.0,,,4000.0,Mist,1.0,1.0,29.67,1005.9,,,,10,,,,,,,,,,,8/8 Overcast,14000.0,,FEW,300.0,SCT,5900.0,OVC,14000.0,,
KRDR,11-07-2006,10:00,METAR,,40,7.0,,,3200.0,Mist,2.0,1.0,29.70,1006.7,,,,10,,,,,,,,,,,8/8 Overcast,7000.0,,SCT,300.0,OVC,6900.0,,,,
KRDR,11-07-2006,09:37,SPECI,,20,10.0,,,3200.0,Mist,2.0,1.0,29.72,,,,,10,,,,,,,,,,,8/8 Overcast,7000.0,,SCT,300.0,OVC,6900.0,,,,
KRDR,11-07-2006,09:28,SPECI,,360,8.0,,,9999.0,,2.0,1.0,29.73,1007.8,,,,,,,,,,,,,,,8/8 Overcast,6500.0,,OVC,6400.0,,,,,,
KRDR,11-07-2006,09:00,METAR,,10,6.0,,,3200.0,Mist,2.0,1.0,29.73,1007.7,,,,10,,,,,,,,,,,8/8 Overcast,6000.0,,OVC,5900.0,,,,,,
KRDR,11-07-2006,08:31,SPECI,,20,3.0,,,3200.0,Mist,2.0,1.0,29.72,,,,,10,,,,,,,,,,,8/8 Overcast,6500.0,,OVC,6400.0,,,,,,
KRDR,11-07-2006,08:00,METAR,,60,3.0,,,9999.0,Mist,1.0,1.0,29.73,1007.7,,,,10,,,,,,,,,,,7/8 Mostly Cloudy,300.0,,BKN,5900.0,,,,,,
KRDR,11-07-2006,07:00,METAR,,90,4.0,,,8000.0,Mist,1.0,1.0,29.75,1008.6,,,,10,,,,,,,,,,,7/8 Mostly Cloudy,1400.0,,FEW,300.0,BKN,1400.0,BKN,6900.0,,
KRDR,11-07-2006,06:00,METAR,,100,6.0,,,6400.0,Mist,2.0,1.0,29.78,1009.3,,,,10,,,,,,,,,,,8/8 Overcast,1400.0,,SCT,300.0,BKN,1400.0,OVC,7400.0,,
KRDR,11-07-2006,05:37,SPECI,,100,5.0,,,8000.0,Mist,2.0,1.0,29.78,,,,,10,,,,,,,,,,,8/8 Overcast,1300.0,,SCT,300.0,BKN,1300.0,OVC,7900.0,,
KRDR,11-07-2006,05:32,SPECI,,80,5.0,,,8000.0,Mist,2.0,1.0,29.79,,,,,10,,,,,,,,,,,8/8 Overcast,8000.0,,SCT,300.0,OVC,7900.0,,,,
KRDR,11-07-2006,05:00,METAR,,70,4.0,,,9999.0,Mist,2.0,1.0,29.81,1010.4,,,,10,,,,,,,,,,,8/8 Overcast,8000.0,,OVC,7900.0,,,,,,
KRDR,11-07-2006,04:00,METAR,,130,5.0,,,9999.0,,2.0,1.0,29.79,1009.9,,,,,,,,,,,,,,,8/8 Overcast,8500.0,,OVC,8400.0,,,,,,
KRDR,11-07-2006,03:00,METAR,,110,4.0,,,9999.0,,2.0,1.0,29.81,1010.5,,,,,,,,,,,,,,,8/8 Overcast,9000.0,,OVC,8900.0,,,,,,
KRDR,11-07-2006,02:00,METAR,,110,4.0,,,9999.0,,2.0,1.0,29.82,1010.8,,,,,,,,,,,,,,,7/8 Mostly Cloudy,9500.0,,BKN,9400.0,,,,,,
KRDR,11-07-2006,01:02,SPECI,,150,3.0,,,9999.0,,2.0,1.0,29.82,,,,,,,,,,,,,,,,7/8 Mostly Cloudy,10000.0,,SCT,200.0,BKN,9900.0,,,,
KRDR,11-07-2006,01:00,METAR,,150,5.0,,,9999.0,Mist,2.0,1.0,29.82,1010.7,,,,10,,,,,,,,,,,8/8 Overcast,800.0,,BKN,800.0,OVC,2000.0,,,,
KRDR,11-07-2006,00:00,METAR,,180,4.0,,,9999.0,Mist,2.0,1.0,29.84,1011.4,,,,10,,,,,,,,,,,8/8 Overcast,500.0,,OVC,500.0,,,,,,
KRDR,11-06-2006,23:00,METAR,,,0.0,,,6400.0,,2.0,1.0,29.86,1012.2,,,,,,,,,,,,,,,8/8 Overcast,500.0,,OVC,500.0,,,,,,
KRDR,11-06-2006,22:00,METAR,,,0.0,,,4800.0,Mist,3.0,1.0,29.87,1012.5,,,,10,,,,,,,,,,,8/8 Overcast,500.0,,OVC,500.0,,,,,,
KRDR,11-06-2006,21:00,METAR,,40,4.0,,,4800.0,,3.0,1.0,29.87,1012.4,,,,,,,,,,,,,,,8/8 Overcast,400.0,,OVC,400.0,,,,,,
KRDR,11-06-2006,20:00,METAR,,10,5.0,,,4800.0,,2.0,1.0,29.88,1012.6,,,,,,,,,,,,,,,8/8 Overcast,400.0,,OVC,400.0,,,,,,
KRDR,11-06-2006,19:00,METAR,,360,3.0,,,4800.0,Mist,2.0,1.0,29.90,1013.5,,,,10,,,,,,,,,,,8/8 Overcast,300.0,,OVC,300.0,,,,,,
KRDR,11-06-2006,18:00,METAR,,360,6.0,,,3200.0,Mist,2.0,1.0,29.92,1014.0,,,,10,,,,,,,,,TRACE,,8/8 Overcast,300.0,,OVC,300.0,,,,,,
KRDR,11-06-2006,17:00,METAR,,20,8.0,,,1600.0,Mist,2.0,1.0,29.91,1013.9,,,,10,,,,,,,,,,,8/8 Overcast,200.0,,OVC,200.0,,,,,,
KRDR,11-06-2006,16:28,SPECI,,360,9.0,,,1200.0,Mist,2.0,1.0,29.92,,,,,10,,,,,,,,,,,8/8 Overcast,200.0,,OVC,200.0,,,,,,
KRDR,11-06-2006,16:07,SPECI,,360,11.0,,,3200.0,Light Snow/Drizzle/Mist,2.0,1.0,29.92,,,,,51,71,10,,,,,,,,,8/8 Overcast,200.0,,OVC,200.0,,,,,,
KRDR,11-06-2006,16:00,METAR,,20,11.0,,,9999.0,,2.0,1.0,29.92,1014.0,,,,,,,,,,,,,,,8/8 Overcast,300.0,,OVC,300.0,,,,,,
KRDR,11-06-2006,15:30,METAR,,20,12.0,,,9999.0,,3.0,1.0,29.91,,,,,,,,,,,,,,,,7/8 Mostly Cloudy,700.0,,BKN,700.0,,,,,,
KRDR,11-06-2006,15:21,SPECI,,360,12.0,,,9999.0,,3.0,1.0,29.91,1013.7,,,,,,,,,,,,,,,8/8 Overcast,25000.0,,SCT,700.0,OVC,25000.0,,,,
KRDR,11-06-2006,15:00,METAR,,360,9.0,,,9999.0,,3.0,1.0,29.90,1013.6,,,,,,,,,,,,,,,8/8 Overcast,25000.0,,OVC,25000.0,,,,,,
KRDR,11-06-2006,14:00,METAR,,350,8.0,,,9999.0,,3.0,1.0,29.88,1012.9,,,,,,,,,,,,,,,7/8 Mostly Cloudy,25000.0,,BKN,25000.0,,,,,,
KRDR,11-06-2006,13:00,METAR,,320,7.0,,,9999.0,,3.0,1.0,29.87,1012.5,,,,,,,,,,,,,,,4/8 Partly Cloudy,72000.0,,FEW,9900.0,SCT,25000.0,,,,
KRDR,11-06-2006,12:00,METAR,,320,8.0,,,9999.0,,4.0,3.0,29.86,1012.2,,,,,,,,,,,,,,,4/8 Partly Cloudy,72000.0,,SCT,9900.0,,,,,,
KRDR,11-06-2006,11:00,METAR,,310,6.0,,,9999.0,,4.0,3.0,29.85,1011.7,,,,,,,,,,,,,,,4/8 Partly Cloudy,72000.0,,SCT,9900.0,,,,,,
KRDR,11-06-2006,10:00,METAR,,300,2.0,,,9999.0,,6.0,3.0,29.83,1011.2,,,,,,,,,,,,,,,7/8 Mostly Cloudy,10000.0,,BKN,9900.0,,,,,,
KRDR,11-06-2006,09:00,METAR,,220,5.0,,,9999.0,,4.0,2.0,29.82,1010.9,,,,,,,,,,,,,,,7/8 Mostly Cloudy,11000.0,,FEW,7900.0,BKN,11000.0,,,,
KRDR,11-06-2006,08:00,METAR,,210,5.0,,,9999.0,,4.0,1.0,29.81,1010.6,,,,,,,,,,,,,,,4/8 Partly Cloudy,72000.0,,SCT,12000.0,,,,,,
KRDR,11-06-2006,07:00,METAR,,220,7.0,,,9999.0,,5.0,1.0,29.81,1010.4,,,,,,,,,,,,,,,4/8 Partly Cloudy,72000.0,,SCT,9900.0,,,,,,
KRDR,11-06-2006,06:00,METAR,,210,6.0,,,9999.0,,5.0,1.0,29.79,1009.7,,,,,,,,,,,,,,,4/8 Partly Cloudy,72000.0,,SCT,9900.0,,,,,,
KRDR,11-06-2006,05:00,METAR,,240,5.0,,,9999.0,,7.0,1.0,29.79,1009.7,,,,,,,,,,,,,,,7/8 Mostly Cloudy,11000.0,,BKN,11000.0,,,,,,
KRDR,11-06-2006,04:00,METAR,,230,9.0,,,9999.0,,10.0,2.0,29.78,1009.5,,,,,,,,,,,,,,,8/8 Overcast,11000.0,,OVC,11000.0,,,,,,
KRDR,11-06-2006,03:00,METAR,,220,10.0,,,9999.0,,10.0,2.0,29.77,1009.0,,,,,,,,,,,,,,,7/8 Mostly Cloudy,11000.0,,BKN,11000.0,BKN,25000.0,,,,
KRDR,11-06-2006,02:00,METAR,,200,10.0,,,9999.0,,9.0,2.0,29.76,1008.9,,,,,,,,,,,,,,,4/8 Partly Cloudy,72000.0,,SCT,25000.0,,,,,,
KRDR,11-06-2006,01:00,METAR,,170,9.0,,,9999.0,,8.0,2.0,29.78,1009.4,,,,,,,,,,,,,,,7/8 Mostly Cloudy,25000.0,,BKN,25000.0,,,,,,
KRDR,11-06-2006,00:00,METAR,,170,9.0,,,9999.0,,9.0,3.0,29.79,1009.9,,,,,,,,,,,,,,,7/8 Mostly Cloudy,25000.0,,BKN,25000.0,,,,,,
KRDR,11-05-2006,23:00,METAR,,170,9.0,,,9999.0,,12.0,4.0,29.79,1009.9,,,,,,,,,,,,,,,7/8 Mostly Cloudy,25000.0,,BKN,25000.0,,,,,,
KRDR,11-05-2006,22:00,METAR,,170,9.0,,,9999.0,,16.0,4.0,29.80,1010.0,,,,,,,,,,,,,,,7/8 Mostly Cloudy,25000.0,,BKN,25000.0,,,,,,
KRDR,11-05-2006,21:00,METAR,,170,9.0,,,9999.0,,16.0,3.0,29.82,1010.6,,,,,,,,,,,,,,,7/8 Mostly Cloudy,25000.0,,BKN,25000.0,,,,,,
KRDR,11-05-2006,20:00,METAR,,210,9.0,,,9999.0,,14.0,3.0,29.84,1011.5,,,,,,,,,,,,,,,7/8 Mostly Cloudy,25000.0,,BKN,25000.0,,,,,,
KRDR,11-05-2006,19:00,METAR,,190,8.0,,,9999.0,,11.0,1.0,29.87,1012.4,,,,,,,,,,,,,,,4/8 Partly Cloudy,72000.0,,SCT,25000.0,,,,,,
KRDR,11-05-2006,18:00,METAR,,170,6.0,,,9999.0,,8.0,0.0,29.90,1013.4,,,,,,,,,,,,,,,2/8 Mostly Clear,72000.0,,FEW,25000.0,,,,,,
KRDR,11-05-2006,17:00,METAR,,200,6.0,,,9999.0,,6.0,-1.0,29.92,1014.2,,,,,,,,,,,,,,,2/8 Mostly Clear,72000.0,,FEW,25000.0,,,,,,
KRDR,11-05-2006,16:00,METAR,,210,4.0,,,9999.0,,3.0,-2.0,29.94,1014.7,,,,,,,,,,,,,,,2/8 Mostly Clear,72000.0,,FEW,25000.0,,,,,,
KRDR,11-05-2006,15:00,METAR,,,0.0,,,9999.0,,0.0,-2.0,29.95,1015.2,,,,,,,,,,,,,,,2/8 Mostly Clear,72000.0,,FEW,25000.0,,,,,,
KRDR,11-05-2006,14:00,METAR,,300,3.0,,,9999.0,,-3.0,-4.0,29.96,1015.4,,,,,,,,,,,,,,,2/8 Mostly Clear,72000.0,,FEW,9400.0,FEW,25000.0,,,,
KRDR,11-05-2006,13:00,METAR,,,0.0,,,9999.0,,-2.0,-4.0,29.96,1015.4,,,,,,,,,,,,,,,2/8 Mostly Clear,72000.0,,FEW,9400.0,,,,,,
KRDR,11-05-2006,12:00,METAR,,,0.0,,,9999.0,,0.0,-3.0,29.97,1015.7,,,,,,,,,,,,,,,7/8 Mostly Cloudy,9500.0,,BKN,9400.0,,,,,,
KRDR,11-05-2006,11:00,METAR,,130,3.0,,,9999.0,,0.0,-3.0,29.97,1015.8,,,,,,,,,,,,,,,7/8 Mostly Cloudy,10000.0,,BKN,9900.0,,,,,,
KRDR,11-05-2006,10:00,METAR,,110,4.0,,,9999.0,,1.0,-2.0,29.98,1016.0,,,,,,,,,,,,,,,8/8 Overcast,11000.0,,OVC,11000.0,,,,,,
KRDR,11-05-2006,09:00,METAR,,120,4.0,,,9999.0,,1.0,-2.0,29.99,1016.4,,,,,,,,,,,,,,,8/8 Overcast,11000.0,,OVC,11000.0,,,,,,
KRDR,11-05-2006,08:00,METAR,,110,3.0,,,9999.0,,1.0,-2.0,30.00,1016.8,,,,,,,,,,,,,,,8/8 Overcast,11000.0,,OVC,11000.0,,,,,,
KRDR,11-05-2006,07:00,METAR,,80,2.0,,,9999.0,,1.0,-3.0,30.02,1017.4,,,,,,,,,,,,,,,8/8 Overcast,8000.0,,OVC,7900.0,,,,,,
KRDR,11-05-2006,06:00,METAR,,120,3.0,,,9999.0,,1.0,-3.0,30.02,1017.5,,,,,,,,,,,,,,,8/8 Overcast,8000.0,,OVC,7900.0,,,,,,
KRDR,11-05-2006,05:00,METAR,,110,3.0,,,9999.0,,1.0,-3.0,30.04,1018.1,,,,,,,,,,,,,,,8/8 Overcast,7500.0,,OVC,7400.0,,,,,,
KRDR,11-05-2006,04:00,METAR,,130,3.0,,,9999.0,,1.0,-3.0,30.04,1018.1,,,,,,,,,,,,,,,8/8 Overcast,7500.0,,OVC,7400.0,,,,,,
KRDR,11-05-2006,03:00,METAR,,130,4.0,,,9999.0,,1.0,-3.0,30.04,1018.0,,,,,,,,,,,,,,,8/8 Overcast,10000.0,,OVC,9900.0,,,,,,
KRDR,11-05-2006,02:00,METAR,,110,5.0,,,9999.0,,1.0,-3.0,30.04,1018.2,,,,,,,,,,,,,,,8/8 Overcast,10000.0,,OVC,9900.0,,,,,,
KRDR,11-05-2006,01:00,METAR,,90,5.0,,,9999.0,,1.0,-3.0,30.04,1018.1,,,,,,,,,,,,,,,8/8 Overcast,10000.0,,OVC,9900.0,,,,,,
KRDR,11-05-2006,00:00,METAR,,80,4.0,,,9999.0,,1.0,-4.0,30.04,1018.1,,,,,,,,,,,,,,,7/8 Mostly Cloudy,12000.0,,BKN,12000.0,BKN,25000.0,,,,
KRDR,11-04-2006,23:00,METAR,,90,5.0,,,9999.0,,2.0,-4.0,30.03,1017.9,,,,,,,,,,,,,,,8/8 Overcast,10000.0,,BKN,9900.0,OVC,18000.0,,,,
KRDR,11-04-2006,22:00,METAR,,100,4.0,,,9999.0,,2.0,-4.0,30.04,1017.9,,,,,,,,,,,,,,,8/8 Overcast,9500.0,,BKN,9400.0,OVC,15000.0,,,,
KRDR,11-04-2006,21:00,METAR,,140,5.0,,,9999.0,,2.0,-5.0,30.02,1017.4,,,,,,,,,,,,,,,8/8 Overcast,9000.0,,OVC,8900.0,,,,,,
KRDR,11-04-2006,20:00,METAR,,160,4.0,,,9999.0,,1.0,-5.0,30.03,1017.7,,,,,,,,,,,,,,,8/8 Overcast,9500.0,,OVC,9400.0,,,,,,
KRDR,11-04-2006,19:00,METAR,,130,3.0,,,9999.0,,1.0,-5.0,30.04,1018.1,,,,,,,,,,,,,,,8/8 Overcast,9500.0,,OVC,9400.0,,,,,,
KRDR,11-04-2006,18:00,METAR,,170,5.0,,,9999.0,,0.0,-5.0,30.06,1018.7,,,,,,,,,,,,,,,8/8 Overcast,10000.0,,OVC,9900.0,,,,,,
KRDR,11-04-2006,17:00,METAR,,140,5.0,,,9999.0,,-1.0,-5.0,30.07,1019.0,,,,,,,,,,,,,,,7/8 Mostly Cloudy,10000.0,,BKN,9900.0,,,,,,
KRDR,11-04-2006,16:00,METAR,,130,6.0,,,9999.0,,-2.0,-6.0,30.07,1018.9,,,,,,,,,,,,,,,8/8 Overcast,10000.0,,OVC,9900.0,,,,,,
KRDR,11-04-2006,15:00,METAR,,100,5.0,,,9999.0,,-2.0,-6.0,30.07,1019.0,,,,,,,,,,,,,,,8/8 Overcast,10000.0,,OVC,9900.0,,,,,,
KRDR,11-04-2006,14:00,METAR,,70,3.0,,,9999.0,,-3.0,-6.0,30.07,1019.2,,,,,,,,,,,,,,,8/8 Overcast,10000.0,,OVC,9900.0,,,,,,
KRDR,11-04-2006,13:00,METAR,,100,2.0,,,9999.0,,-3.0,-6.0,30.07,1019.1,,,,,,,,,,,,,,,8/8 Overcast,7000.0,,OVC,6900.0,,,,,,
KRDR,11-04-2006,12:00,METAR,,110,4.0,,,9999.0,,-3.0,-6.0,30.06,1018.8,,,,,,,,,,,,,,,8/8 Overcast,6500.0,,OVC,6400.0,,,,,,
KRDR,11-04-2006,11:00,METAR,,110,6.0,,,9999.0,,-3.0,-7.0,30.07,1019.0,,,,,,,,,,,,,,,8/8 Overcast,6000.0,,OVC,5900.0,,,,,,
KRDR,11-04-2006,10:00,METAR,,100,4.0,,,9999.0,,-3.0,-6.0,30.09,1019.7,,,,,,,,,,,,,,,8/8 Overcast,6500.0,,OVC,6400.0,,,,,,
KRDR,11-04-2006,09:00,METAR,,110,7.0,,,9999.0,,-3.0,-7.0,30.09,1019.7,,,,,,,,,,,,,,,8/8 Overcast,8000.0,,BKN,7900.0,OVC,12000.0,,,,
KRDR,11-04-2006,08:00,METAR,,110,6.0,,,9999.0,,-3.0,-7.0,30.10,1020.1,,,,,,,,,,,,,,,8/8 Overcast,7500.0,,OVC,7400.0,,,,,,
KRDR,11-04-2006,07:00,METAR,,100,6.0,,,9999.0,,-4.0,-7.0,30.12,1020.7,,,,,,,,,,,,,,,7/8 Mostly Cloudy,9000.0,,BKN,8900.0,,,,,,
KRDR,11-04-2006,06:00,METAR,,90,4.0,,,9999.0,,-4.0,-7.0,30.14,1021.4,,,,,,,,,,,,,,,8/8 Overcast,9500.0,,OVC,9400.0,,,,,,
KRDR,11-04-2006,05:00,METAR,,80,6.0,,,9999.0,,-4.0,-7.0,30.15,1021.6,,,,,,,,,,,,,,,8/8 Overcast,11000.0,,FEW,7400.0,OVC,11000.0,,,,
KRDR,11-04-2006,04:00,METAR,,90,5.0,,,9999.0,,-3.0,-7.0,30.16,1022.1,,,,,,,,,,,,,,,8/8 Overcast,9000.0,,OVC,8900.0,,,,,,
KRDR,11-04-2006,03:00,METAR,,110,6.0,,,9999.0,,-3.0,-7.0,30.16,1022.1,,,,,,,,,,,,,,,8/8 Overcast,11000.0,,OVC,11000.0,,,,,,
KRDR,11-04-2006,02:00,METAR,,100,5.0,,,9999.0,,-3.0,-7.0,30.18,1022.7,,,,,,,,,,,,,,,8/8 Overcast,11000.0,,OVC,11000.0,,,,,,
KRDR,11-04-2006,01:00,METAR,,90,4.0,,,9999.0,,-3.0,-7.0,30.19,1022.9,,,,,,,,,,,,,,,8/8 Overcast,10000.0,,OVC,9900.0,,,,,,
KRDR,11-04-2006,00:00,METAR,,90,5.0,,,9999.0,,-3.0,-8.0,30.19,1022.9,,,,,,,,,,,,,,,8/8 Overcast,9500.0,,OVC,9400.0,,,,,,
KRDR,11-03-2006,23:00,METAR,,120,8.0,,,9999.0,,-3.0,-8.0,30.18,1022.6,,,,,,,,,,,,,,,8/8 Overcast,9500.0,,OVC,9400.0,,,,,,
KRDR,11-03-2006,22:00,METAR,,120,9.0,,,9999.0,,-3.0,-8.0,30.19,1022.9,,,,,,,,,,,,,,,8/8 Overcast,10000.0,,FEW,5400.0,BKN,9900.0,OVC,20000.0,,
KRDR,11-03-2006,21:00,METAR,,110,8.0,,,9999.0,,-3.0,-8.0,30.20,1023.2,,,,,,,,,,,,,,,8/8 Overcast,12000.0,,FEW,6900.0,BKN,12000.0,OVC,20000.0,,
KRDR,11-03-2006,20:00,METAR,,130,3.0,,,9999.0,,-3.0,-8.0,30.23,1024.2,,,,,,,,,,,,,,,8/8 Overcast,9000.0,,BKN,8900.0,OVC,25000.0,,,,
KRDR,11-03-2006,19:00,METAR,,170,7.0,,,9999.0,,-3.0,-8.0,30.26,1025.1,,,,,,,,,,,,,,,8/8 Overcast,10000.0,,FEW,5900.0,BKN,9900.0,OVC,20000.0,,
KRDR,11-03-2006,18:00,METAR,,170,5.0,,,9999.0,,-4.0,-9.0,30.27,1025.7,,,,,,,,,,,,,,,7/8 Mostly Cloudy,11000.0,,FEW,6900.0,BKN,11000.0,BKN,25000.0,,
KRDR,11-03-2006,17:00,METAR,,150,6.0,,,9999.0,,-4.0,-9.0,30.28,1025.9,,,,,,,,,,,,,,,7/8 Mostly Cloudy,12000.0,,FEW,6900.0,BKN,12000.0,BKN,20000.0,,
KRDR,11-03-2006,16:00,METAR,,,0.0,,,9999.0,,-7.0,-10.0,30.29,1026.2,,,,,,,,,,,,,,,4/8 Partly Cloudy,72000.0,,FEW,8900.0,SCT,20000.0,,,,
KRDR,11-03-2006,15:00,METAR,,190,2.0,,,9999.0,,-9.0,-12.0,30.29,1026.2,,,,,,,,,,,,,,,4/8 Partly Cloudy,72000.0,,FEW,8900.0,SCT,20000.0,,,,
KRDR,11-03-2006,14:00,METAR,,220,3.0,,,9999.0,,-12.0,-14.0,30.30,1026.5,,,,,,,,,,,,,,,2/8 Mostly Clear,72000.0,,FEW,25000.0,,,,,,
KRDR,11-03-2006,13:00,METAR,,,0.0,,,9999.0,,-12.0,-14.0,30.29,1026.2,,,,,,,,,,,,,,,2/8 Mostly Clear,72000.0,,FEW,25000.0,,,,,,
KRDR,11-03-2006,12:00,METAR,,270,4.0,,,9999.0,,-12.0,-14.0,30.29,1026.3,,,,,,,,,,,,,,,2/8 Mostly Clear,72000.0,,FEW,25000.0,,,,,,
KRDR,11-03-2006,11:00,METAR,,270,4.0,,,9999.0,,-12.0,-14.0,30.29,1026.3,,,,,,,,,,,,,,,Clear,72000.0,,,73000.0,,,,,,
KRDR,11-03-2006,10:00,METAR,,250,5.0,,,9999.0,,-11.0,-13.0,30.29,1026.3,,,,,,,,,,,,,,,2/8 Mostly Clear,72000.0,,FEW,2500.0,,,,,,
KRDR,11-03-2006,09:00,METAR,,250,5.0,,,9999.0,,-10.0,-12.0,30.30,1026.6,,,,,,,,,,,,,,,7/8 Mostly Cloudy,2500.0,,BKN,2500.0,,,,,,
KRDR,11-03-2006,08:00,METAR,,260,6.0,,,9999.0,,-7.0,-10.0,30.31,1026.8,,,,,,,,,,,,,,,8/8 Overcast,2800.0,,FEW,2000.0,OVC,2800.0,,,,
KRDR,11-03-2006,07:00,METAR,,260,6.0,,,9999.0,,-6.0,-9.0,30.31,1027.1,,,,,,,,,,,,,,,8/8 Overcast,2500.0,,OVC,2500.0,,,,,,
KRDR,11-03-2006,06:00,METAR,,280,6.0,,,9999.0,,-6.0,-9.0,30.31,1026.9,,,,,,,,,,,,,,,8/8 Overcast,2600.0,,OVC,2600.0,,,,,,
KRDR,11-03-2006,05:00,METAR,,290,4.0,,,9999.0,,-6.0,-9.0,30.31,1026.9,,,,,,,,,,,,,,,8/8 Overcast,2400.0,,OVC,2400.0,,,,,,
KRDR,11-03-2006,04:00,METAR,,290,5.0,,,9999.0,,-5.0,-9.0,30.30,1026.7,,,,,,,,,,,,,,,8/8 Overcast,2300.0,,OVC,2300.0,,,,,,
KRDR,11-03-2006,03:00,METAR,,320,4.0,,,9999.0,,-5.0,-9.0,30.30,1026.7,,,,,,,,,,,,,,,8/8 Overcast,2400.0,,OVC,2400.0,,,,,,
KRDR,11-03-2006,02:00,METAR,,330,6.0,,,9999.0,,-5.0,-10.0,30.30,1026.8,,,,,,,,,,,,,,,8/8 Overcast,2500.0,,OVC,2500.0,,,,,,
KRDR,11-03-2006,01:00,METAR,,320,8.0,,,9999.0,,-5.0,-9.0,30.31,1026.9,,,,,,,,,,,,,,,8/8 Overcast,2000.0,,OVC,2000.0,,,,,,
KRDR,11-03-2006,00:00,METAR,,310,10.0,,,9999.0,,-5.0,-9.0,30.30,1026.7,,,,,,,,,,,,,,,7/8 Mostly Cloudy,2500.0,,BKN,2500.0,,,,,,
KRDR,11-02-2006,23:00,METAR,,330,5.0,,,9999.0,,-4.0,-9.0,30.30,1026.7,,,,,,,,,,,,,,,7/8 Mostly Cloudy,2800.0,,FEW,2400.0,BKN,2800.0,,,,
KRDR,11-02-2006,22:00,METAR,,330,7.0,,,9999.0,,-3.0,-9.0,30.30,1026.7,,,,,,,,,,,,,,,7/8 Mostly Cloudy,2800.0,,FEW,2300.0,BKN,2800.0,,,,
KRDR,11-02-2006,21:00,METAR,,320,10.0,16.0,,9999.0,,-2.0,-8.0,30.30,1026.7,,,,,,,,,,,,,,,4/8 Partly Cloudy,72000.0,,SCT,2300.0,,,,,,
KRDR,11-02-2006,20:00,METAR,,310,9.0,,,9999.0,,-2.0,-8.0,30.29,1026.3,,,,,,,,,,,,,,,4/8 Partly Cloudy,72000.0,,SCT,2400.0,,,,,,
KRDR,11-02-2006,19:00,METAR,,330,10.0,,,9999.0,,-3.0,-9.0,30.30,1026.5,,,,,,,,,,,,,,,7/8 Mostly Cloudy,3100.0,,SCT,2400.0,BKN,3100.0,,,,
KRDR,11-02-2006,18:00,METAR,,300,10.0,,,9999.0,,-3.0,-9.0,30.31,,,,,,,,,,,,,,,,4/8 Partly Cloudy,72000.0,,SCT,2900.0,,,,,,
KRDR,11-02-2006,17:55,METAR,,310,11.0,,,9999.0,,-3.0,-9.0,30.31,1027.0,,,,,,,,,,,,,,,7/8 Mostly Cloudy,2800.0,,BKN,2800.0,,,,,,
KRDR,11-02-2006,17:00,METAR,,310,12.0,,,9999.0,,-3.0,-9.0,30.31,1026.9,,,,,,,,,,,,,,,7/8 Mostly Cloudy,3100.0,,BKN,3100.0,,,,,,
KRDR,11-02-2006,16:00,METAR,,310,14.0,18.0,,9999.0,,-4.0,-9.0,30.30,1026.7,,,,,,,,,,,,,,,7/8 Mostly Cloudy,3000.0,,BKN,3000.0,,,,,,
KRDR,11-02-2006,15:00,METAR,,310,13.0,,,9999.0,,-5.0,-9.0,30.29,1026.2,,,,,,,,,,,,,,,8/8 Overcast,3100.0,,OVC,3200.0,,,,,,
KRDR,11-02-2006,14:00,METAR,,300,13.0,19.0,,9999.0,,-5.0,-9.0,30.26,1025.4,,,,,,,,,,,,,,,7/8 Mostly Cloudy,3300.0,,BKN,3400.0,,,,,,
KRDR,11-02-2006,13:00,METAR,,300,13.0,17.0,,9999.0,,-5.0,-9.0,30.24,1024.8,,,,,,,,,,,,,,,8/8 Overcast,3300.0,,OVC,3400.0,,,,,,
KRDR,11-02-2006,12:00,METAR,,310,12.0,,,9999.0,,-5.0,-9.0,30.24,1024.5,,,,,,,,,,,,,TRACE,,8/8 Overcast,3100.0,,OVC,3100.0,,,,,,
KRDR,11-02-2006,11:00,METAR,,310,13.0,18.0,,9999.0,,-5.0,-9.0,30.23,1024.3,,,,,,,,,,,,,,,8/8 Overcast,3400.0,,OVC,3500.0,,,,,,
KRDR,11-02-2006,10:00,METAR,,310,12.0,,,9999.0,,-5.0,-9.0,30.21,1023.7,,,,,,,,,,,,,,,8/8 Overcast,3400.0,,OVC,3500.0,,,,,,
KRDR,11-02-2006,09:44,SPECI,,310,13.0,17.0,,9999.0,,-5.0,-9.0,30.21,,,,,,,,,,,,,,,,8/8 Overcast,3400.0,,OVC,3500.0,,,,,,
KRDR,11-02-2006,09:00,METAR,,300,14.0,17.0,,9999.0,Light Snow,-5.0,-9.0,30.20,,,,,71,,,,,,,,,,,8/8 Overcast,3700.0,,OVC,3800.0,,,,,,
KRDR,11-02-2006,08:00,METAR,,300,14.0,,,9999.0,,-5.0,-10.0,30.18,1022.7,,,,,,,,,,,,,,,8/8 Overcast,3700.0,,OVC,3800.0,,,,,,
KRDR,11-02-2006,07:00,METAR,,300,10.0,,,9999.0,,-5.0,-9.0,30.17,1022.5,,,,,,,,,,,,,,,8/8 Overcast,3700.0,,OVC,3800.0,,,,,,
KRDR,11-02-2006,06:00,METAR,,300,13.0,19.0,,9999.0,,-5.0,-10.0,30.16,1022.0,,,,,,,,,,,,,TRACE,,7/8 Mostly Cloudy,3400.0,,BKN,3500.0,,,,,,
KRDR,11-02-2006,05:00,METAR,,300,13.0,,,9999.0,,-6.0,-10.0,30.15,1021.7,,,,,,,,,,,,,,,7/8 Mostly Cloudy,3600.0,,BKN,3700.0,,,,,,
KRDR,11-02-2006,04:00,METAR,,310,11.0,,,9999.0,,-5.0,-9.0,30.15,1021.7,,,,,,,,,,,,,,,8/8 Overcast,4300.0,,OVC,4400.0,,,,,,
KRDR,11-02-2006,03:00,METAR,,310,7.0,,,9999.0,,-5.0,-9.0,30.14,1021.4,,,,,,,,,,,,TRACE,,,7/8 Mostly Cloudy,6000.0,,FEW,2700.0,SCT,3500.0,BKN,5900.0,,
KRDR,11-02-2006,02:00,METAR,,300,12.0,,,9999.0,,-4.0,-8.0,30.14,1021.3,,,,,,,,,,,TRACE,,,,7/8 Mostly Cloudy,4600.0,,SCT,2300.0,BKN,4700.0,,,,
KRDR,11-02-2006,01:40,SPECI,,300,12.0,,,9999.0,,-4.0,-8.0,30.14,,,,,,,,,,,,,,,,7/8 Mostly Cloudy,3700.0,,FEW,1700.0,BKN,3800.0,,,,
KRDR,11-02-2006,01:20,METAR,,310,12.0,18.0,,4800.0,Light Snow,-5.0,-9.0,30.14,,,,,71,,,,,,,,,,,7/8 Mostly Cloudy,3900.0,,SCT,2400.0,BKN,4000.0,,,,
KRDR,11-02-2006,01:00,METAR,,290,9.0,,,9999.0,,-6.0,-9.0,30.13,1021.1,,,,,,,,,,,,,,,4/8 Partly Cloudy,72000.0,,SCT,4000.0,,,,,,
KRDR,11-02-2006,00:00,METAR,,300,8.0,,,9999.0,,-5.0,-9.0,30.13,1021.0,,,,,,,,,,,,,TRACE,,4/8 Partly Cloudy,72000.0,,SCT,4000.0,,,,,,
KRDR,11-01-2006,23:00,METAR,,300,12.0,,,9999.0,,-3.0,-9.0,30.12,1020.7,,,,,,,,,,,,,,,7/8 Mostly Cloudy,3900.0,,FEW,2500.0,BKN,4000.0,,,,
KRDR,11-01-2006,22:19,SPECI,,300,13.0,,,9999.0,,-3.0,-8.0,30.12,,,,,,,,,,,,,,,,7/8 Mostly Cloudy,4000.0,,FEW,2600.0,BKN,4100.0,,,,
KRDR,11-01-2006,22:00,METAR,,310,14.0,22.0,,9999.0,Light Snow,-3.0,-8.0,30.12,1020.7,,,,71,,,,,,,TRACE,,,,7/8 Mostly Cloudy,3400.0,,FEW,2500.0,BKN,3500.0,,,,
KRDR,11-01-2006,21:44,SPECI,,310,13.0,18.0,,9999.0,Light Snow,-3.0,-9.0,30.12,,,,,71,,,,,,,,,,,7/8 Mostly Cloudy,3000.0,,FEW,2100.0,BKN,3000.0,,,,
KRDR,11-01-2006,21:12,SPECI,,300,13.0,,,9999.0,,-3.0,-9.0,30.11,,,,,,,,,,,,,,,,8/8 Overcast,3400.0,,OVC,3500.0,,,,,,
KRDR,11-01-2006,21:04,SPECI,,300,12.0,20.0,,9999.0,Light Snow,-3.0,-9.0,30.11,,,,,71,,,,,,,,,,,8/8 Overcast,3300.0,,OVC,3400.0,,,,,,
KRDR,11-01-2006,21:00,METAR,,300,15.0,20.0,,9999.0,,-3.0,-9.0,30.11,1020.3,,,,,,,,,,,,TRACE,,,8/8 Overcast,3400.0,,OVC,3500.0,,,,,,
KRDR,11-01-2006,20:33,SPECI,,300,15.0,19.0,,9999.0,,-3.0,-8.0,30.10,,,,,,,,,,,,,,,,8/8 Overcast,3500.0,,FEW,2500.0,OVC,3600.0,,,,
KRDR,11-01-2006,20:01,SPECI,,310,15.0,22.0,,9999.0,Light Snow,-3.0,-8.0,30.11,,,,,71,,,,,,,,,,,8/8 Overcast,3400.0,,FEW,2300.0,OVC,3500.0,,,,
KRDR,11-01-2006,20:00,METAR,,300,15.0,20.0,,9999.0,,-3.0,-9.0,30.10,1020.1,,,,,,,,,,,,,,,7/8 Mostly Cloudy,3700.0,,FEW,2600.0,BKN,3800.0,,,,
KRDR,11-01-2006,19:46,SPECI,,310,12.0,20.0,,9999.0,,-3.0,-9.0,30.10,,,,,,,,,,,,,,,,7/8 Mostly Cloudy,2900.0,,FEW,2400.0,BKN,3600.0,,,,
KRDR,11-01-2006,19:00,METAR,,310,16.0,21.0,,8000.0,Light Snow,-2.0,-9.0,30.10,1020.1,,,,71,,,,,,,TRACE,,,,7/8 Mostly Cloudy,2900.0,,BKN,3600.0,,,,,,
KRDR,11-01-2006,18:47,SPECI,,310,14.0,21.0,,8000.0,Light Snow,-2.0,-9.0,30.10,,,,,71,,,,,,,,,,,7/8 Mostly Cloudy,3000.0,,BKN,3600.0,,,,,,
KRDR,11-01-2006,18:38,SPECI,,300,12.0,18.0,,9999.0,,-3.0,-9.0,30.10,,,,,,,,,,,,,,,,8/8 Overcast,3000.0,,FEW,2000.0,OVC,3600.0,,,,
KRDR,11-01-2006,18:00,METAR,,300,15.0,21.0,,9999.0,,-3.0,-9.0,30.10,1020.0,,,,,,,,,,,,,,,8/8 Overcast,3900.0,,SCT,2500.0,OVC,4000.0,,,,
KRDR,11-01-2006,17:00,METAR,,310,14.0,22.0,,9999.0,,-3.0,-9.0,30.09,1019.8,,,,,,,,,,,,,,,8/8 Overcast,4400.0,,SCT,2800.0,OVC,4500.0,,,,
KRDR,11-01-2006,16:00,METAR,,300,16.0,21.0,,9999.0,,-3.0,-9.0,30.09,1019.6,,,,,,,,,,,,,,,8/8 Overcast,3800.0,,FEW,2500.0,OVC,3900.0,,,,
KRDR,11-01-2006,15:00,METAR,,290,14.0,18.0,,9999.0,,-4.0,-8.0,30.07,1019.1,,,,,,,,,,,TRACE,,,,8/8 Overcast,4000.0,,FEW,2800.0,OVC,4100.0,,,,
KRDR,11-01-2006,14:00,METAR,,300,14.0,,,9999.0,,-4.0,-8.0,30.06,1018.5,,,,,,,,,,,,,,,8/8 Overcast,4900.0,,FEW,3400.0,OVC,5000.0,,,,
KRDR,11-01-2006,13:00,METAR,,290,12.0,17.0,,9999.0,,-4.0,-8.0,30.05,1018.2,,,,,,,,,,,,,,,8/8 Overcast,4900.0,,OVC,5000.0,,,,,,
KRDR,11-01-2006,12:00,METAR,,280,11.0,,,9999.0,,-5.0,-9.0,30.03,1017.8,,,,,,,,,,,,,,,8/8 Overcast,5500.0,,OVC,5400.0,,,,,,
KRDR,11-01-2006,11:00,METAR,,290,10.0,,,9999.0,,-5.0,-9.0,30.03,1017.6,,,,,,,,,,,,,,,7/8 Mostly Cloudy,4800.0,,BKN,4900.0,,,,,,
KRDR,11-01-2006,10:00,METAR,,290,13.0,,,9999.0,,-5.0,-9.0,30.02,1017.3,,,,,,,,,,,,,,,8/8 Overcast,5500.0,,OVC,5400.0,,,,,,
KRDR,11-01-2006,09:00,METAR,,280,11.0,,,9999.0,,-6.0,-9.0,30.01,1017.2,,,,,,,,,,,,,,,8/8 Overcast,5500.0,,OVC,5400.0,,,,,,
KRDR,11-01-2006,08:00,METAR,,260,9.0,,,9999.0,,-6.0,-9.0,30.01,1017.1,,,,,,,,,,,,,,,8/8 Overcast,3300.0,,OVC,3400.0,,,,,,
KRDR,11-01-2006,07:00,METAR,,280,11.0,,,9999.0,,-6.0,-11.0,30.01,1017.1,,,,,,,,,,,,,,,7/8 Mostly Cloudy,6500.0,,BKN,6400.0,,,,,,
KRDR,11-01-2006,06:00,METAR,,290,11.0,,,9999.0,,-5.0,-9.0,30.02,1017.4,,,,,,,,,,,,,,,7/8 Mostly Cloudy,4500.0,,BKN,4600.0,,,,,,
KRDR,11-01-2006,05:00,METAR,,280,10.0,,,9999.0,,-5.0,-10.0,30.02,1017.4,,,,,,,,,,,,,,,8/8 Overcast,4200.0,,OVC,4300.0,,,,,,
KRDR,11-01-2006,04:00,METAR,,300,10.0,,,9999.0,,-6.0,-11.0,30.02,1017.3,,,,,,,,,,,,,,,8/8 Overcast,4300.0,,OVC,4400.0,,,,,,
KRDR,11-01-2006,03:00,METAR,,280,10.0,,,9999.0,,-6.0,-12.0,30.01,1017.0,,,,,,,,,,,,,,,2/8 Mostly Clear,72000.0,,FEW,2500.0,,,,,,
KRDR,11-01-2006,02:00,METAR,,280,10.0,,,9999.0,,-6.0,-12.0,30.01,1017.1,,,,,,,,,,,,,,,2/8 Mostly Clear,72000.0,,FEW,2500.0,,,,,,
KRDR,11-01-2006,01:00,METAR,,290,8.0,,,9999.0,,-6.0,-11.0,30.01,1017.1,,,,,,,,,,,,,,,4/8 Partly Cloudy,72000.0,,SCT,3500.0,,,,,,
KRDR,11-01-2006,00:00,METAR,,280,7.0,,,9999.0,,-5.0,-11.0,30.01,1017.0,,,,,,,,,,,,,TRACE,,4/8 Partly Cloudy,72000.0,,SCT,3600.0,,,,,,
KRDR,10-31-2006,23:00,METAR,,290,10.0,,,9999.0,,-3.0,-11.0,30.00,1016.7,,,,,,,,,,,,,,,4/8 Partly Cloudy,72000.0,,SCT,3600.0,,,,,,
KRDR,10-31-2006,22:00,METAR,,300,9.0,,,9999.0,,-3.0,-9.0,30.00,1016.7,,,,,,,,,,,TRACE,,,,7/8 Mostly Cloudy,4200.0,,FEW,2200.0,BKN,4300.0,,,,
KRDR,10-31-2006,21:00,METAR,,290,13.0,,,9999.0,,-3.0,-11.0,29.99,1016.4,,,,,,,,,,,,TRACE,,,7/8 Mostly Cloudy,3600.0,,BKN,3700.0,,,,,,
KRDR,10-31-2006,20:00,METAR,,290,15.0,21.0,,9999.0,,-2.0,-10.0,29.99,1016.2,,,,,,,,,,,TRACE,,,,7/8 Mostly Cloudy,3100.0,,BKN,3200.0,,,,,,
KRDR,10-31-2006,19:32,SPECI,,290,14.0,20.0,,9999.0,,-2.0,-9.0,29.98,,,,,,,,,,,,,,,,7/8 Mostly Cloudy,3200.0,,FEW,2100.0,BKN,3300.0,,,,
KRDR,10-31-2006,19:00,METAR,,290,15.0,20.0,,9999.0,Light Snow,-2.0,-9.0,29.98,1016.0,,,,71,,,,,,,TRACE,,,,7/8 Mostly Cloudy,3400.0,,FEW,2200.0,SCT,2900.0,BKN,3500.0,,
KRDR,10-31-2006,18:46,SPECI,,280,16.0,21.0,,9999.0,,-2.0,-8.0,29.98,,,,,,,,,,,,,,,,7/8 Mostly Cloudy,3400.0,,FEW,2500.0,BKN,3500.0,,,,
KRDR,10-31-2006,18:34,SPECI,,290,16.0,22.0,,9999.0,Light Snow,-2.0,-8.0,29.98,,,,,71,,,,,,,,,,,8/8 Overcast,3400.0,,OVC,3500.0,,,,,,
KRDR,10-31-2006,18:00,METAR,,300,15.0,18.0,,9999.0,,-2.0,-8.0,29.98,1016.1,,,,,,,,,,,,,,,8/8 Overcast,3800.0,,FEW,2900.0,OVC,3900.0,,,,
KRDR,10-31-2006,17:00,METAR,,290,12.0,,,9999.0,,-2.0,-7.0,29.98,1015.9,,,,,,,,,,,,,,,8/8 Overcast,3200.0,,OVC,3300.0,,,,,,
KRDR,10-31-2006,16:00,METAR,,300,14.0,,,9999.0,,-3.0,-8.0,29.97,1015.7,,,,,,,,,,,,,,,7/8 Mostly Cloudy,3900.0,,FEW,2300.0,BKN,4000.0,,,,
KRDR,10-31-2006,15:00,METAR,,300,13.0,17.0,,9999.0,,-3.0,-8.0,29.96,1015.4,,,,,,,,,,,,,,,8/8 Overcast,3700.0,,OVC,3800.0,,,,,,
KRDR,10-31-2006,14:00,METAR,,290,9.0,,,9999.0,,-4.0,-8.0,29.95,1015.0,,,,,,,,,,,,,,,8/8 Overcast,3600.0,,OVC,3700.0,,,,,,
KRDR,10-31-2006,13:00,METAR,,290,11.0,,,9999.0,,-5.0,-9.0,29.93,1014.4,,,,,,,,,,,,,,,8/8 Overcast,3600.0,,OVC,3700.0,,,,,,
KRDR,10-31-2006,12:00,METAR,,290,10.0,,,9999.0,,-6.0,-10.0,29.92,1014.2,,,,,,,,,,,,,,.03 IN,4/8 Partly Cloudy,72000.0,,SCT,4200.0,SCT,25000.0,,,,
KRDR,10-31-2006,11:00,METAR,,300,15.0,,,9999.0,,-6.0,-9.0,29.90,1013.4,,,,,,,,,,,,,,,2/8 Mostly Clear,72000.0,,FEW,25000.0,,,,,,
KRDR,10-31-2006,10:00,METAR,,300,15.0,22.0,,9999.0,,-6.0,-9.0,29.87,1012.4,,,,,,,,,,,,,,,Clear,72000.0,,,73000.0,,,,,,
KRDR,10-31-2006,09:00,METAR,,300,15.0,,,9999.0,,-6.0,-9.0,29.86,1012.1,,,,,,,,,,,,TRACE,,,Clear,72000.0,,,73000.0,,,,,,
KRDR,10-31-2006,08:00,METAR,,300,14.0,,,9999.0,,-5.0,-8.0,29.85,1011.8,,,,,,,,,,,,,,,2/8 Mostly Clear,72000.0,,FEW,4500.0,,,,,,
KRDR,10-31-2006,07:00,METAR,,310,16.0,22.0,310/26KTS,9999.0,Light Snow,-5.0,-7.0,29.84,1011.3,,,,71,,,,,,,TRACE,,,,2/8 Mostly Clear,72000.0,,FEW,5900.0,,,,,,
KRDR,10-31-2006,06:00,METAR,,310,15.0,,,9999.0,,-4.0,-7.0,29.82,1010.9,,,,,,,,,,,,,TRACE,,8/8 Overcast,2400.0,,BKN,2400.0,OVC,3800.0,,,,
KRDR,10-31-2006,05:00,METAR,,300,13.0,19.0,,9999.0,,-4.0,-7.0,29.82,1010.8,,,,,,,,,,,,,,,8/8 Overcast,2400.0,,OVC,2400.0,,,,,,
KRDR,10-31-2006,04:00,METAR,,310,12.0,,,9999.0,,-4.0,-6.0,29.81,1010.4,,,,,,,,,,,,,,,7/8 Mostly Cloudy,1200.0,,BKN,1600.0,,,,,,
KRDR,10-31-2006,03:00,METAR,,320,15.0,21.0,,8000.0,Light Snow/Drifting Snow,-3.0,-5.0,29.79,1009.9,,,,71,36,,,,,,,TRACE,,,8/8 Overcast,1600.0,,FEW,1000.0,OVC,1600.0,,,,
KRDR,10-31-2006,02:36,SPECI,,320,15.0,23.0,,4800.0,Light Snow/Drifting Snow,-3.0,-5.0,29.79,,,,,71,36,,,,,,,,,,8/8 Overcast,1800.0,,SCT,1000.0,OVC,1800.0,,,,
KRDR,10-31-2006,02:29,SPECI,,320,15.0,22.0,,4800.0,Light Snow/Drifting Snow,-3.0,-5.0,29.79,,,,,71,36,,,,,,,,,,8/8 Overcast,1800.0,,SCT,1000.0,OVC,1800.0,,,,
KRDR,10-31-2006,02:00,METAR,,320,17.0,23.0,,3200.0,Light Snow/Mist,-3.0,-5.0,29.78,1009.6,,,,71,10,,,,,,,,,,8/8 Overcast,1500.0,,SCT,800.0,BKN,1500.0,OVC,2100.0,,
KRDR,10-31-2006,01:10,SPECI,,320,18.0,25.0,,3200.0,Light Snow/Blowing Snow,-3.0,-4.0,29.78,,,,,71,38,,,,,,,,,,8/8 Overcast,700.0,,BKN,700.0,BKN,1100.0,OVC,2500.0,,
KRDR,10-31-2006,01:00,METAR,,320,16.0,24.0,,4000.0,Light Snow/Blowing Snow,-3.0,-4.0,29.78,1009.3,,,,71,38,,,,,,TRACE,,,,8/8 Overcast,600.0,,BKN,600.0,OVC,1300.0,,,,
KRDR,10-31-2006,00:41,SPECI,,320,17.0,22.0,,4000.0,Light Snow/Blowing Snow,-3.0,-4.0,29.77,,,,,71,38,,,,,,,,,,8/8 Overcast,600.0,,BKN,600.0,OVC,1400.0,,,,
KRDR,10-31-2006,00:30,METAR,,320,16.0,21.0,,3200.0,Light Snow/Blowing Snow,-2.0,-4.0,29.77,,,,,71,38,,,,,,,,,,8/8 Overcast,600.0,,BKN,600.0,OVC,1200.0,,,,
KRDR,10-31-2006,00:00,METAR,,330,16.0,19.0,,1200.0,Light Snow/Mist,-2.0,-3.0,29.75,1008.5,,,,71,10,,,,,,,,.03 IN,,Sky Obscured (Unable to Estimate),900.0,100.0,,900.0,,,,,,
KRDR,10-30-2006,23:09,SPECI,,340,15.0,25.0,,1200.0,Light Snow/Blowing Snow,-2.0,-4.0,29.73,,,,,71,38,,,,,,,,,,Sky Obscured (Unable to Estimate),600.0,100.0,,600.0,,,,,,
KRDR,10-30-2006,23:00,METAR,,340,17.0,,360/26KTS,1600.0,Light Snow/Blowing Snow,-2.0,-4.0,29.72,1007.6,,,,71,38,,,,,,TRACE,,,,8/8 Overcast,900.0,,OVC,900.0,,,,,,
KRDR,10-30-2006,22:46,SPECI,,340,17.0,23.0,,3200.0,Light Snow/Blowing Snow,-2.0,-4.0,29.72,,,,,71,38,,,,,,,,,,8/8 Overcast,700.0,,OVC,700.0,,,,,,
KRDR,10-30-2006,22:24,SPECI,,350,16.0,25.0,,4800.0,Light Snow/Blowing Snow,-2.0,-3.0,29.71,,,,,71,38,,,,,,,,,,8/8 Overcast,600.0,,BKN,600.0,OVC,1500.0,,,,
KRDR,10-30-2006,22:11,SPECI,,350,17.0,23.0,,3200.0,Light Snow/Blowing Snow,-2.0,-3.0,29.70,,,,,71,38,,,,,,,,,,8/8 Overcast,800.0,,OVC,800.0,,,,,,
KRDR,10-30-2006,22:07,SPECI,,350,19.0,25.0,,1600.0,Light Snow/Blowing Snow,-2.0,-3.0,29.70,,,,,71,38,,,,,,,,,,8/8 Overcast,900.0,,OVC,900.0,,,,,,
KRDR,10-30-2006,22:00,METAR,,340,17.0,23.0,350/28KTS,1200.0,Light Snow/Blowing Snow,-2.0,-3.0,29.69,1006.5,,,,71,38,,,,,,TRACE,,,,8/8 Overcast,900.0,,OVC,900.0,,,,,,
KRDR,10-30-2006,21:46,SPECI,,340,18.0,27.0,,1200.0,Light Snow/Blowing Snow,-2.0,-3.0,29.67,,,,,71,38,,,,,,,,,,Sky Obscured (Unable to Estimate),700.0,100.0,,700.0,,,,,,
KRDR,10-30-2006,21:36,SPECI,,340,18.0,27.0,,1200.0,Light Snow/Blowing Snow,-2.0,-3.0,29.67,,,,,71,38,,,,,,,,,,Sky Obscured (Unable to Estimate),700.0,100.0,,700.0,,,,,,
KRDR,10-30-2006,21:00,METAR,,340,20.0,27.0,340/31KTS,800.0,Snow/Blowing Snow,-2.0,-3.0,29.64,1004.7,,,,73,38,,,,,,TRACE,.01 IN,,,Sky Obscured (Unable to Estimate),500.0,100.0,,500.0,,,,,,
KRDR,10-30-2006,20:44,SPECI,,350,20.0,31.0,,800.0,Snow/Blowing Snow,-2.0,-3.0,29.63,,,,,73,38,,,,,,,,,,Sky Obscured (Unable to Estimate),500.0,100.0,,500.0,,,,,,
KRDR,10-30-2006,20:35,SPECI,,350,19.0,31.0,,800.0,Snow/Blowing Snow,-2.0,-3.0,29.62,,,,,73,38,,,,,,,,,,Sky Obscured (Unable to Estimate),500.0,100.0,,500.0,,,,,,
KRDR,10-30-2006,20:25,METAR,,350,24.0,30.0,,1200.0,Light Snow/Blowing Snow,-2.0,-3.0,29.61,,,,,71,38,,,,,,,,,,8/8 Overcast,500.0,,OVC,500.0,,,,,,
KRDR,10-30-2006,20:18,SPECI,,360,19.0,26.0,,1600.0,Light Snow/Blowing Snow,-2.0,-3.0,29.60,,,,,71,38,,,,,,,,,,8/8 Overcast,500.0,,OVC,500.0,,,,,,
KRDR,10-30-2006,20:00,METAR,,10,18.0,25.0,010/39KTS,3200.0,Light Snow/Blowing Snow,-1.0,-4.0,29.61,1003.7,,,,71,38,,,,,,TRACE,,,,8/8 Overcast,500.0,,BKN,500.0,OVC,1000.0,,,,
KRDR,10-30-2006,19:42,SPECI,,10,18.0,29.0,,4000.0,Light Snow,-1.0,-4.0,29.60,,,,,71,,,,,,,,,,,8/8 Overcast,600.0,,BKN,600.0,OVC,1200.0,,,,
KRDR,10-30-2006,19:29,SPECI,,10,20.0,32.0,,9999.0,Light Snow,-1.0,-4.0,29.59,,,,,71,,,,,,,,,,,8/8 Overcast,1600.0,,BKN,1600.0,OVC,3300.0,,,,
KRDR,10-30-2006,19:17,SPECI,,360,22.0,39.0,,9999.0,Light Snow,-1.0,-4.0,29.59,,,,,71,,,,,,,,,,,8/8 Overcast,3200.0,,FEW,1200.0,BKN,3300.0,OVC,12000.0,,
KRDR,10-30-2006,19:00,METAR,,360,25.0,37.0,340/38KTS,9999.0,,0.0,-5.0,29.58,1002.9,,,,,,,,,,,,,,,8/8 Overcast,4900.0,,BKN,5000.0,OVC,12000.0,,,,
KRDR,10-30-2006,18:00,METAR,,360,28.0,35.0,000/35KTS,9999.0,,0.0,-5.0,29.59,1003.3,,,,,,,,,,,,,,,8/8 Overcast,4600.0,,BKN,4700.0,OVC,12000.0,,,,
KRDR,10-30-2006,17:00,METAR,,10,25.0,32.0,020/32KTS,9999.0,,1.0,-5.0,29.63,1004.5,,,,,,,,,,,,,,,8/8 Overcast,5500.0,,BKN,5400.0,OVC,12000.0,,,,
KRDR,10-30-2006,15:00,METAR,,20,18.0,23.0,,9999.0,,0.0,-4.0,29.65,1005.2,,,,,,,,,,,,,,,8/8 Overcast,12000.0,,SCT,4800.0,BKN,12000.0,OVC,20000.0,,
KRDR,10-30-2006,14:00,METAR,,20,16.0,,,9999.0,,-1.0,-3.0,29.63,1004.5,,,,,,,,,,,,,,,8/8 Overcast,14000.0,,FEW,4000.0,BKN,14000.0,OVC,20000.0,,
KRDR,10-30-2006,13:00,METAR,,30,14.0,,,9999.0,,-1.0,-3.0,29.63,1004.4,,,,,,,,,,,,,,,7/8 Mostly Cloudy,20000.0,,FEW,4000.0,SCT,9900.0,BKN,20000.0,,
KRDR,10-30-2006,12:00,METAR,,40,15.0,19.0,,9999.0,,-1.0,-3.0,29.63,1004.4,,,,,,,,,,,,,,,7/8 Mostly Cloudy,20000.0,,FEW,4000.0,SCT,9900.0,BKN,20000.0,,
KRDR,10-30-2006,11:00,METAR,,30,15.0,,,9999.0,,-2.0,-3.0,29.62,1004.3,,,,,,,,,,,,,,,7/8 Mostly Cloudy,20000.0,,FEW,4000.0,SCT,9900.0,BKN,20000.0,,
KRDR,10-30-2006,10:00,METAR,,30,14.0,,,9999.0,,-1.0,-3.0,29.65,1005.1,,,,,,,,,,,,,,,8/8 Overcast,20000.0,,FEW,9900.0,OVC,20000.0,,,,
KRDR,10-30-2006,09:00,METAR,,30,14.0,,,9999.0,,-1.0,-3.0,29.64,1005.0,,,,,,,,,,,,,,,7/8 Mostly Cloudy,20000.0,,FEW,9900.0,BKN,20000.0,,,,
KRDR,10-30-2006,08:00,METAR,,20,12.0,,,9999.0,,-1.0,-3.0,29.67,1005.8,,,,,,,,,,,,,,,8/8 Overcast,20000.0,,OVC,20000.0,,,,,,
KRDR,10-30-2006,07:00,METAR,,10,12.0,,,9999.0,,-1.0,-3.0,29.67,1005.9,,,,,,,,,,,,,,,7/8 Mostly Cloudy,20000.0,,FEW,9900.0,BKN,20000.0,,,,
KRDR,10-30-2006,06:00,METAR,,20,10.0,,,9999.0,,-1.0,-3.0,29.68,1006.1,,,,,,,,,,,,,,,4/8 Partly Cloudy,72000.0,,FEW,12000.0,SCT,20000.0,,,,
KRDR,10-30-2006,05:00,METAR,,10,16.0,,,9999.0,,0.0,-3.0,29.67,1005.8,,,,,,,,,,,,,,,4/8 Partly Cloudy,72000.0,,FEW,12000.0,SCT,20000.0,,,,
KRDR,10-30-2006,04:00,METAR,,20,13.0,20.0,,9999.0,,0.0,-4.0,29.69,1006.4,,,,,,,,,,,,,,,4/8 Partly Cloudy,72000.0,,SCT,15000.0,,,,,,
KRDR,10-30-2006,03:00,METAR,,10,13.0,,,9999.0,,0.0,-5.0,29.68,1006.0,,,,,,,,,,,,,,,4/8 Partly Cloudy,72000.0,,SCT,15000.0,,,,,,
KRDR,10-30-2006,02:00,METAR,,10,12.0,,,9999.0,,1.0,-5.0,29.65,1005.2,,,,,,,,,,,,,,,2/8 Mostly Clear,72000.0,,FEW,15000.0,,,,,,
KRDR,10-30-2006,01:00,METAR,,10,12.0,,,9999.0,,3.0,-4.0,29.63,1004.5,,,,,,,,,,,,,,,2/8 Mostly Clear,72000.0,,FEW,15000.0,,,,,,
KRDR,10-30-2006,00:00,METAR,,30,15.0,,,9999.0,,5.0,-4.0,29.59,1003.3,,,,,,,,,,,,,,,Clear,72000.0,,,73000.0,,,,,,
KRDR,10-29-2006,23:00,METAR,,50,9.0,,,9999.0,,9.0,-2.0,29.58,1002.9,,,,,,,,,,,,,,,2/8 Mostly Clear,72000.0,,FEW,20000.0,,,,,,
KRDR,10-29-2006,22:00,METAR,,110,6.0,,,9999.0,,12.0,-1.0,29.57,1002.5,,,,,,,,,,,,,,,Clear,72000.0,,,73000.0,,,,,,
KRDR,10-29-2006,21:00,METAR,,150,8.0,,,9999.0,,12.0,-1.0,29.57,1002.5,,,,,,,,,,,,,,,2/8 Mostly Clear,72000.0,,FEW,20000.0,,,,,,
KRDR,10-29-2006,20:00,METAR,,160,9.0,,,9999.0,,11.0,-2.0,29.58,1002.8,,,,,,,,,,,,,,,2/8 Mostly Clear,72000.0,,FEW,20000.0,,,,,,
KRDR,10-29-2006,19:00,METAR,,120,14.0,,,9999.0,,9.0,-3.0,29.58,1002.7,,,,,,,,,,,,,,,2/8 Mostly Clear,72000.0,,FEW,20000.0,,,,,,
KRDR,10-29-2006,18:00,METAR,,140,14.0,,,9999.0,,8.0,-4.0,29.62,1004.3,,,,,,,,,,,,,,,2/8 Mostly Clear,72000.0,,FEW,20000.0,,,,,,
KRDR,10-29-2006,17:00,METAR,,150,10.0,,,9999.0,,6.0,-4.0,29.65,1005.1,,,,,,,,,,,,,,,2/8 Mostly Clear,72000.0,,FEW,20000.0,,,,,,
KRDR,10-29-2006,16:00,METAR,,150,8.0,,,9999.0,,3.0,-4.0,29.67,1005.9,,,,,,,,,,,,,,,2/8 Mostly Clear,72000.0,,FEW,20000.0,,,,,,
KRDR,10-29-2006,15:00,METAR,,140,5.0,,,9999.0,,0.0,-4.0,29.68,1006.1,,,,,,,,,,,,,,,4/8 Partly Cloudy,72000.0,,FEW,12000.0,SCT,20000.0,,,,
KRDR,10-29-2006,14:00,METAR,,170,4.0,,,9999.0,,-3.0,-5.0,29.70,1007.0,,,,,,,,,,,,,,,7/8 Mostly Cloudy,20000.0,,SCT,14000.0,BKN,20000.0,,,,
KRDR,10-29-2006,13:00,METAR,,,0.0,,,9999.0,,-4.0,-6.0,29.72,1007.6,,,,,,,,,,,,,,,7/8 Mostly Cloudy,14000.0,,BKN,14000.0,,,,,,
KRDR,10-29-2006,12:00,METAR,,230,3.0,,,9999.0,,-3.0,-6.0,29.73,1007.7,,,,,,,,,,,,,,,7/8 Mostly Cloudy,20000.0,,SCT,12000.0,BKN,20000.0,,,,
KRDR,10-29-2006,11:00,METAR,,220,3.0,,,9999.0,,-3.0,-6.0,29.73,1008.0,,,,,,,,,,,,,,,7/8 Mostly Cloudy,25000.0,,SCT,9900.0,BKN,25000.0,,,,
KRDR,10-29-2006,10:00,METAR,,240,3.0,,,9999.0,,-2.0,-5.0,29.73,1008.0,,,,,,,,,,,,,,,7/8 Mostly Cloudy,25000.0,,SCT,12000.0,BKN,25000.0,,,,
KRDR,10-29-2006,09:00,METAR,,230,3.0,,,9999.0,,-3.0,-5.0,29.73,1007.9,,,,,,,,,,,,,,,4/8 Partly Cloudy,72000.0,,SCT,12000.0,,,,,,
KRDR,10-29-2006,08:00,METAR,,,0.0,,,9999.0,,-5.0,-8.0,29.73,1007.8,,,,,,,,,,,,,,,4/8 Partly Cloudy,72000.0,,SCT,12000.0,,,,,,
KRDR,10-29-2006,07:00,METAR,,300,6.0,,,9999.0,,-4.0,-8.0,29.75,1008.4,,,,,,,,,,,,,,,4/8 Partly Cloudy,72000.0,,SCT,9900.0,,,,,,
KRDR,10-29-2006,06:00,METAR,,270,5.0,,,9999.0,,-4.0,-7.0,29.75,1008.6,,,,,,,,,,,,,,,7/8 Mostly Cloudy,25000.0,,SCT,9900.0,BKN,25000.0,,,,
KRDR,10-29-2006,05:00,METAR,,290,5.0,,,9999.0,,-3.0,-7.0,29.76,1008.8,,,,,,,,,,,,,,,7/8 Mostly Cloudy,10000.0,,BKN,9900.0,BKN,25000.0,,,,
KRDR,10-29-2006,04:00,METAR,,280,6.0,,,9999.0,,-3.0,-7.0,29.77,1009.2,,,,,,,,,,,,,,,4/8 Partly Cloudy,72000.0,,SCT,25000.0,,,,,,
KRDR,10-29-2006,03:00,METAR,,280,6.0,,,9999.0,,-2.0,-7.0,29.77,1009.3,,,,,,,,,,,,,,,4/8 Partly Cloudy,72000.0,,SCT,25000.0,,,,,,
KRDR,10-29-2006,02:00,METAR,,290,8.0,,,9999.0,,-1.0,-6.0,29.78,1009.5,,,,,,,,,,,,,,,4/8 Partly Cloudy,72000.0,,SCT,12000.0,SCT,25000.0,,,,
KRDR,10-29-2006,01:00,METAR,,290,7.0,,,9999.0,,1.0,-6.0,29.78,1009.4,,,,,,,,,,,,,,,4/8 Partly Cloudy,72000.0,,SCT,12000.0,SCT,20000.0,,,,
KRDR,10-29-2006,00:00,METAR,,290,8.0,,,9999.0,,1.0,-8.0,29.78,1009.6,,,,,,,,,,,,,,,7/8 Mostly Cloudy,20000.0,,SCT,12000.0,BKN,20000.0,,,,
KRDR,10-28-2006,23:00,METAR,,320,5.0,,,9999.0,,6.0,-6.0,29.79,1009.8,,,,,,,,,,,,,,,7/8 Mostly Cloudy,20000.0,,SCT,12000.0,BKN,20000.0,,,,
KRDR,10-28-2006,22:00,METAR,,320,9.0,,,9999.0,,7.0,-6.0,29.79,1009.8,,,,,,,,,,,,,,,7/8 Mostly Cloudy,20000.0,,SCT,9900.0,BKN,20000.0,,,,
KRDR,10-28-2006,21:00,METAR,,330,11.0,,,9999.0,,8.0,-6.0,29.79,1009.7,,,,,,,,,,,,,,,8/8 Overcast,10000.0,,OVC,9900.0,,,,,,
KRDR,10-28-2006,20:00,METAR,,320,12.0,,,9999.0,,8.0,-6.0,29.79,1009.9,,,,,,,,,,,,,,,8/8 Overcast,10000.0,,OVC,9900.0,,,,,,
KRDR,10-28-2006,19:00,METAR,,310,11.0,15.0,,9999.0,,7.0,-6.0,29.81,1010.5,,,,,,,,,,,,,,,7/8 Mostly Cloudy,10000.0,,BKN,9900.0,,,,,,
KRDR,10-28-2006,18:00,METAR,,320,8.0,,,9999.0,,7.0,-5.0,29.83,1011.2,,,,,,,,,,,,,,,8/8 Overcast,11000.0,,OVC,11000.0,,,,,,
KRDR,10-28-2006,17:00,METAR,,320,10.0,,,9999.0,,6.0,-4.0,29.84,1011.6,,,,,,,,,,,,,,,8/8 Overcast,11000.0,,OVC,11000.0,,,,,,
KRDR,10-28-2006,16:00,METAR,,320,8.0,,,9999.0,,4.0,-4.0,29.85,1011.6,,,,,,,,,,,,,,,8/8 Overcast,12000.0,,OVC,12000.0,,,,,,
KRDR,10-28-2006,15:00,METAR,,310,9.0,,,9999.0,,3.0,-4.0,29.85,1011.7,,,,,,,,,,,,,,,8/8 Overcast,12000.0,,OVC,12000.0,,,,,,
KRDR,10-28-2006,14:00,METAR,,310,10.0,,,9999.0,,3.0,-4.0,29.85,1011.7,,,,,,,,,,,,,,,7/8 Mostly Cloudy,11000.0,,BKN,11000.0,,,,,,
KRDR,10-28-2006,13:00,METAR,,310,8.0,,,9999.0,,2.0,-4.0,29.84,1011.5,,,,,,,,,,,,,,,7/8 Mostly Cloudy,11000.0,,BKN,11000.0,,,,,,
KRDR,10-28-2006,12:00,METAR,,310,9.0,,,9999.0,,3.0,-4.0,29.84,1011.6,,,,,,,,,,,,,,,7/8 Mostly Cloudy,11000.0,,BKN,11000.0,,,,,,
KRDR,10-28-2006,11:00,METAR,,300,9.0,,,9999.0,,3.0,-4.0,29.85,1011.8,,,,,,,,,,,,,,,7/8 Mostly Cloudy,12000.0,,BKN,12000.0,,,,,,
KRDR,10-28-2006,10:00,METAR,,300,9.0,,,9999.0,,3.0,-5.0,29.85,1011.7,,,,,,,,,,,,,,,7/8 Mostly Cloudy,12000.0,,BKN,12000.0,,,,,,
KRDR,10-28-2006,09:00,METAR,,300,9.0,,,9999.0,,3.0,-5.0,29.86,1012.1,,,,,,,,,,,,,,,7/8 Mostly Cloudy,12000.0,,BKN,12000.0,,,,,,
KRDR,10-28-2006,08:00,METAR,,310,9.0,,,9999.0,,3.0,-5.0,29.87,1012.3,,,,,,,,,,,,,,,7/8 Mostly Cloudy,15000.0,,BKN,15000.0,,,,,,
KRDR,10-28-2006,07:00,METAR,,300,10.0,,,9999.0,,3.0,-6.0,29.86,1012.1,,,,,,,,,,,,,,,7/8 Mostly Cloudy,15000.0,,BKN,15000.0,,,,,,
KRDR,10-28-2006,06:00,METAR,,290,10.0,,,9999.0,,2.0,-6.0,29.87,1012.5,,,,,,,,,,,,,,,7/8 Mostly Cloudy,20000.0,,SCT,12000.0,BKN,20000.0,,,,
KRDR,10-28-2006,05:00,METAR,,280,10.0,,,9999.0,,3.0,-6.0,29.89,1013.2,,,,,,,,,,,,,,,7/8 Mostly Cloudy,25000.0,,SCT,12000.0,BKN,25000.0,,,,
KRDR,10-28-2006,04:00,METAR,,290,8.0,,,9999.0,,3.0,-6.0,29.90,1013.4,,,,,,,,,,,,,,,7/8 Mostly Cloudy,25000.0,,SCT,12000.0,BKN,25000.0,,,,
KRDR,10-28-2006,03:00,METAR,,290,7.0,,,9999.0,,2.0,-6.0,29.91,1013.7,,,,,,,,,,,,,,,7/8 Mostly Cloudy,25000.0,,SCT,12000.0,BKN,25000.0,,,,
KRDR,10-28-2006,02:00,METAR,,290,7.0,,,9999.0,,3.0,-6.0,29.91,1013.9,,,,,,,,,,,,,,,7/8 Mostly Cloudy,25000.0,,SCT,12000.0,BKN,25000.0,,,,
KRDR,10-28-2006,01:00,METAR,,290,7.0,,,9999.0,,3.0,-7.0,29.92,1014.0,,,,,,,,,,,,,,,7/8 Mostly Cloudy,25000.0,,SCT,12000.0,BKN,25000.0,,,,
KRDR,10-28-2006,00:00,METAR,,320,7.0,,,9999.0,,6.0,-8.0,29.91,1013.7,,,,,,,,,,,,,,,4/8 Partly Cloudy,72000.0,,SCT,12000.0,SCT,25000.0,,,,
KRDR,10-27-2006,23:00,METAR,,330,12.0,,320/27KTS,9999.0,,9.0,-9.0,29.90,1013.6,,,,,,,,,,,,,,,4/8 Partly Cloudy,72000.0,,SCT,12000.0,,,,,,
KRDR,10-27-2006,22:00,METAR,,330,18.0,26.0,330/29KTS,9999.0,,11.0,-8.0,29.89,1013.1,,,,,,,,,,,,,,,4/8 Partly Cloudy,72000.0,,FEW,7900.0,SCT,14000.0,,,,
KRDR,10-27-2006,21:00,METAR,,330,21.0,26.0,320/30KTS,9999.0,,12.0,-6.0,29.88,1012.8,,,,,,,,,,,,,,,4/8 Partly Cloudy,72000.0,,FEW,12000.0,SCT,20000.0,,,,
KRDR,10-27-2006,20:00,METAR,,340,22.0,29.0,330/29KTS,9999.0,,12.0,-6.0,29.88,1012.8,,,,,,,,,,,,,,,4/8 Partly Cloudy,72000.0,,FEW,5900.0,SCT,12000.0,,,,
KRDR,10-27-2006,19:00,METAR,,330,15.0,26.0,330/32KTS,9999.0,,12.0,-4.0,29.88,1012.9,,,,,,,,,,,,,,,4/8 Partly Cloudy,72000.0,,FEW,5900.0,SCT,12000.0,,,,
KRDR,10-27-2006,18:00,METAR,,320,18.0,28.0,310/30KTS,9999.0,,11.0,-4.0,29.90,1013.4,,,,,,,,,,,,,,,7/8 Mostly Cloudy,12000.0,,FEW,5900.0,BKN,12000.0,,,,
KRDR,10-27-2006,17:00,METAR,,310,20.0,27.0,300/28KTS,9999.0,,10.0,-2.0,29.88,1012.9,,,,,,,,,,,,,,,4/8 Partly Cloudy,72000.0,,SCT,12000.0,,,,,,
KRDR,10-27-2006,16:00,METAR,,310,18.0,24.0,,9999.0,,8.0,0.0,29.88,1012.7,,,,,,,,,,,,,,,7/8 Mostly Cloudy,20000.0,,FEW,5900.0,SCT,14000.0,BKN,20000.0,,
KRDR,10-27-2006,15:00,METAR,,290,9.0,,,9999.0,,7.0,0.0,29.85,1011.9,,,,,,,,,,,,,,,7/8 Mostly Cloudy,12000.0,,BKN,12000.0,BKN,20000.0,,,,
KRDR,10-27-2006,14:00,METAR,,290,13.0,,,9999.0,,6.0,0.0,29.84,1011.5,,,,,,,,,,,,,,,7/8 Mostly Cloudy,12000.0,,BKN,12000.0,BKN,20000.0,,,,
KRDR,10-27-2006,13:00,METAR,,260,10.0,,,9999.0,,4.0,-1.0,29.82,1010.9,,,,,,,,,,,,,,,4/8 Partly Cloudy,72000.0,,FEW,16000.0,SCT,20000.0,,,,
KRDR,10-27-2006,12:00,METAR,,240,11.0,,,9999.0,,5.0,-1.0,29.83,1011.0,,,,,,,,,,,,,,,7/8 Mostly Cloudy,20000.0,,BKN,20000.0,,,,,,
KRDR,10-27-2006,11:00,METAR,,220,11.0,,,9999.0,,5.0,-1.0,29.84,1011.3,,,,,,,,,,,,,,,8/8 Overcast,16000.0,,OVC,16000.0,,,,,,
KRDR,10-27-2006,10:00,METAR,,220,9.0,,,9999.0,,5.0,0.0,29.85,1011.6,,,,,,,,,,,,,,,7/8 Mostly Cloudy,16000.0,,BKN,16000.0,,,,,,
KRDR,10-27-2006,09:00,METAR,,210,10.0,,,9999.0,,4.0,-1.0,29.87,1012.5,,,,,,,,,,,,,,,7/8 Mostly Cloudy,18000.0,,BKN,18000.0,,,,,,
KRDR,10-27-2006,08:00,METAR,,220,11.0,,,9999.0,,4.0,0.0,29.90,1013.4,,,,,,,,,,,,,,,7/8 Mostly Cloudy,20000.0,,BKN,20000.0,,,,,,
KRDR,10-27-2006,07:00,METAR,,200,8.0,,,9999.0,,3.0,0.0,29.93,1014.5,,,,,,,,,,,,,,,7/8 Mostly Cloudy,20000.0,,BKN,20000.0,,,,,,
KRDR,10-27-2006,06:00,METAR,,210,9.0,,,9999.0,,3.0,1.0,29.96,1015.3,,,,,,,,,,,,,,,4/8 Partly Cloudy,72000.0,,SCT,25000.0,,,,,,
KRDR,10-27-2006,05:00,METAR,,220,11.0,,,9999.0,,3.0,0.0,29.97,1015.8,,,,,,,,,,,,,,,Clear,72000.0,,,73000.0,,,,,,
KRDR,10-27-2006,04:00,METAR,,220,10.0,,,9999.0,,3.0,0.0,29.99,1016.4,,,,,,,,,,,,,,,Clear,72000.0,,,73000.0,,,,,,
KRDR,10-27-2006,03:00,METAR,,220,10.0,,,9999.0,,3.0,0.0,30.00,1016.6,,,,,,,,,,,,,,,Clear,72000.0,,,73000.0,,,,,,
KRDR,10-27-2006,02:00,METAR,,220,10.0,,,9999.0,,4.0,1.0,30.00,1016.6,,,,,,,,,,,,,,,Clear,72000.0,,,73000.0,,,,,,
KRDR,10-27-2006,01:00,METAR,,220,9.0,,,9999.0,,5.0,1.0,30.00,1016.8,,,,,,,,,,,,,,,2/8 Mostly Clear,72000.0,,FEW,25000.0,,,,,,
KRDR,10-27-2006,00:00,METAR,,210,6.0,,,9999.0,,7.0,1.0,30.01,1017.1,,,,,,,,,,,,,,,2/8 Mostly Clear,72000.0,,FEW,25000.0,,,,,,
KRDR,10-26-2006,23:00,METAR,,230,7.0,,,9999.0,,11.0,2.0,30.01,1017.0,,,,,,,,,,,,,,,2/8 Mostly Clear,72000.0,,FEW,7400.0,,,,,,
KRDR,10-26-2006,22:00,METAR,,220,6.0,,,9999.0,,13.0,2.0,30.01,1017.1,,,,,,,,,,,,,,,2/8 Mostly Clear,72000.0,,FEW,7400.0,FEW,25000.0,,,,
KRDR,10-26-2006,21:00,METAR,,250,6.0,,,9999.0,,13.0,3.0,30.02,1017.4,,,,,,,,,,,,,,,4/8 Partly Cloudy,72000.0,,SCT,7400.0,,,,,,
KRDR,10-26-2006,20:00,METAR,,200,7.0,,,9999.0,,12.0,3.0,30.03,1017.6,,,,,,,,,,,,,,,4/8 Partly Cloudy,72000.0,,SCT,7400.0,,,,,,
KRDR,10-26-2006,19:00,METAR,,190,6.0,,,9999.0,,11.0,3.0,30.04,1018.0,,,,,,,,,,,,,,,7/8 Mostly Cloudy,9500.0,,SCT,7400.0,BKN,9400.0,,,,
KRDR,10-26-2006,18:00,METAR,,180,4.0,,,9999.0,,10.0,3.0,30.05,1018.2,,,,,,,,,,,,,,,8/8 Overcast,12000.0,,SCT,7400.0,BKN,12000.0,OVC,25000.0,,
KRDR,10-26-2006,16:00,METAR,,180,6.0,,,9999.0,,6.0,0.0,30.05,1018.3,,,,,,,,,,,,,,,7/8 Mostly Cloudy,25000.0,,SCT,12000.0,BKN,25000.0,,,,
KRDR,10-26-2006,15:00,METAR,,170,7.0,,,9999.0,,5.0,0.0,30.03,1017.8,,,,,,,,,,,,,,,8/8 Overcast,25000.0,,SCT,11000.0,OVC,25000.0,,,,
KRDR,10-26-2006,14:00,METAR,,170,8.0,,,9999.0,,4.0,-1.0,30.02,1017.5,,,,,,,,,,,,,,,7/8 Mostly Cloudy,7500.0,,BKN,7400.0,,,,,,
KRDR,10-26-2006,13:00,METAR,,180,7.0,,,9999.0,,4.0,-2.0,30.03,1017.6,,,,,,,,,,,,,,,8/8 Overcast,10000.0,,OVC,9900.0,,,,,,
KRDR,10-26-2006,12:00,METAR,,170,8.0,,,9999.0,,4.0,-2.0,30.03,1017.6,,,,,,,,,,,,,,,8/8 Overcast,9500.0,,OVC,9400.0,,,,,,
KRDR,10-26-2006,11:00,METAR,,180,7.0,,,9999.0,,4.0,-1.0,30.02,1017.5,,,,,,,,,,,,,,,8/8 Overcast,10000.0,,OVC,9900.0,,,,,,
KRDR,10-26-2006,10:00,METAR,,180,6.0,,,9999.0,,4.0,-1.0,30.02,1017.5,,,,,,,,,,,,,,,8/8 Overcast,10000.0,,OVC,9900.0,,,,,,
KRDR,10-26-2006,09:00,METAR,,170,7.0,,,9999.0,,4.0,-1.0,30.03,1017.6,,,,,,,,,,,,,,,8/8 Overcast,11000.0,,OVC,11000.0,,,,,,
KRDR,10-26-2006,08:00,METAR,,180,8.0,,,9999.0,,5.0,-1.0,30.02,1017.5,,,,,,,,,,,,,,,8/8 Overcast,10000.0,,OVC,9900.0,,,,,,
KRDR,10-26-2006,07:00,METAR,,180,9.0,,,9999.0,,4.0,-1.0,30.01,1017.1,,,,,,,,,,,,,,,8/8 Overcast,11000.0,,OVC,11000.0,,,,,,
KRDR,10-26-2006,06:00,METAR,,170,7.0,,,9999.0,,4.0,-1.0,30.01,1017.1,,,,,,,,,,,,,,,8/8 Overcast,13000.0,,OVC,13000.0,,,,,,
KRDR,10-26-2006,05:00,METAR,,160,6.0,,,9999.0,,4.0,0.0,30.01,1016.9,,,,,,,,,,,,,,,8/8 Overcast,14000.0,,BKN,14000.0,OVC,20000.0,,,,
KRDR,10-26-2006,04:00,METAR,,170,5.0,,,9999.0,,4.0,0.0,30.01,1017.0,,,,,,,,,,,,,,,7/8 Mostly Cloudy,14000.0,,BKN,14000.0,,,,,,
KRDR,10-26-2006,03:00,METAR,,160,7.0,,,9999.0,,2.0,0.0,30.00,1016.6,,,,,,,,,,,,,,,7/8 Mostly Cloudy,15000.0,,BKN,15000.0,,,,,,
KRDR,10-26-2006,02:00,METAR,,150,5.0,,,9999.0,,2.0,0.0,29.99,1016.4,,,,,,,,,,,,,,,7/8 Mostly Cloudy,20000.0,,FEW,12000.0,BKN,20000.0,,,,
KRDR,10-26-2006,01:00,METAR,,,0.0,,,9999.0,,2.0,0.0,29.98,1016.1,,,,,,,,,,,,,,,7/8 Mostly Cloudy,20000.0,,SCT,12000.0,BKN,20000.0,,,,
KRDR,10-26-2006,00:00,METAR,,110,3.0,,,9999.0,,7.0,1.0,29.97,1015.8,,,,,,,,,,,,,,,7/8 Mostly Cloudy,20000.0,,SCT,12000.0,BKN,20000.0,,,,
KRDR,10-25-2006,23:00,METAR,,150,7.0,,,9999.0,,10.0,2.0,29.97,1015.7,,,,,,,,,,,,,,,7/8 Mostly Cloudy,20000.0,,SCT,12000.0,BKN,20000.0,,,,
KRDR,10-25-2006,22:00,METAR,,160,6.0,,,9999.0,,10.0,1.0,29.96,1015.5,,,,,,,,,,,,,,,7/8 Mostly Cloudy,20000.0,,SCT,12000.0,BKN,20000.0,,,,
KRDR,10-25-2006,21:00,METAR,,180,9.0,,,9999.0,,10.0,1.0,29.96,1015.5,,,,,,,,,,,,,,,7/8 Mostly Cloudy,25000.0,,SCT,9900.0,BKN,25000.0,,,,
KRDR,10-25-2006,20:00,METAR,,140,9.0,,,9999.0,,9.0,1.0,29.96,1015.5,,,,,,,,,,,,,,,7/8 Mostly Cloudy,25000.0,,SCT,9900.0,BKN,25000.0,,,,
KRDR,10-25-2006,19:00,METAR,,160,9.0,,,9999.0,,7.0,0.0,29.98,1016.1,,,,,,,,,,,,,,,7/8 Mostly Cloudy,25000.0,,BKN,25000.0,,,,,,
KRDR,10-25-2006,18:00,METAR,,140,10.0,,,9999.0,,6.0,0.0,29.99,1016.4,,,,,,,,,,,,,,,7/8 Mostly Cloudy,25000.0,,BKN,25000.0,,,,,,
KRDR,10-25-2006,17:00,METAR,,150,7.0,,,9999.0,,4.0,-1.0,30.00,1016.6,,,,,,,,,,,,,,,4/8 Partly Cloudy,72000.0,,SCT,25000.0,,,,,,
KRDR,10-25-2006,16:00,METAR,,170,8.0,,,9999.0,,2.0,-1.0,29.99,1016.5,,,,,,,,,,,,,,,4/8 Partly Cloudy,72000.0,,SCT,25000.0,,,,,,
KRDR,10-25-2006,15:00,METAR,,130,5.0,,,9999.0,,-1.0,-3.0,29.99,1016.4,,,,,,,,,,,,,,,4/8 Partly Cloudy,72000.0,,SCT,25000.0,,,,,,
KRDR,10-25-2006,14:00,METAR,,,0.0,,,9999.0,,-5.0,-8.0,29.98,1016.0,,,,,,,,,,,,,,,2/8 Mostly Clear,72000.0,,FEW,25000.0,,,,,,
KRDR,10-25-2006,13:00,METAR,,,0.0,,,9999.0,,-7.0,-9.0,29.98,1016.0,,,,,,,,,,,,,,,2/8 Mostly Clear,72000.0,,FEW,25000.0,,,,,,
KRDR,10-25-2006,12:00,METAR,,,0.0,,,9999.0,,-7.0,-9.0,29.99,1016.2,,,,,,,,,,,,,,.06 IN,2/8 Mostly Clear,72000.0,,FEW,25000.0,,,,,,
KRDR,10-25-2006,11:00,METAR,,,0.0,,,9999.0,,-7.0,-8.0,29.99,1016.3,,,,,,,,,,,,,,,Clear,72000.0,,,73000.0,,,,,,
KRDR,10-25-2006,10:00,METAR,,,0.0,,,9999.0,,-6.0,-7.0,29.99,1016.2,,,,,,,,,,,,,,,Clear,72000.0,,,73000.0,,,,,,
KRDR,10-25-2006,09:00,METAR,,80,3.0,,,9999.0,,-6.0,-7.0,29.99,1016.3,,,,,,,,,,,,,,,Clear,72000.0,,,73000.0,,,,,,
KRDR,10-25-2006,08:00,METAR,,70,3.0,,,9999.0,,-5.0,-6.0,30.00,1016.7,,,,,,,,,,,,,,,Clear,72000.0,,,73000.0,,,,,,
KRDR,10-25-2006,07:00,METAR,,40,3.0,,,9999.0,,-2.0,-5.0,30.00,1016.8,,,,,,,,,,,,,,,Clear,72000.0,,,73000.0,,,,,,
KRDR,10-25-2006,06:00,METAR,,,0.0,,,9999.0,,-4.0,-5.0,30.01,1016.9,,,,,,,,,,,,,,,Clear,72000.0,,,73000.0,,,,,,
KRDR,10-25-2006,05:00,METAR,,130,4.0,,,9999.0,,-3.0,-5.0,30.01,1017.0,,,,,,,,,,,,,,,Clear,72000.0,,,73000.0,,,,,,
KRDR,10-25-2006,04:00,METAR,,130,6.0,,,9999.0,,-1.0,-4.0,30.00,1016.8,,,,,,,,,,,,,,,Clear,72000.0,,,73000.0,,,,,,
KRDR,10-25-2006,03:00,METAR,,130,6.0,,,9999.0,,-1.0,-4.0,30.00,1016.8,,,,,,,,,,,,,,,Clear,72000.0,,,73000.0,,,,,,
KRDR,10-25-2006,02:00,METAR,,130,6.0,,,9999.0,,1.0,-3.0,30.01,1017.0,,,,,,,,,,,,,,,Clear,72000.0,,,73000.0,,,,,,
KRDR,10-25-2006,01:00,METAR,,110,6.0,,,9999.0,,2.0,-3.0,30.01,1017.0,,,,,,,,,,,,,,,Clear,72000.0,,,73000.0,,,,,,
KRDR,10-25-2006,00:00,METAR,,120,7.0,,,9999.0,,3.0,-3.0,30.01,1017.1,,,,,,,,,,,,,,,2/8 Mostly Clear,72000.0,,FEW,9900.0,,,,,,
KRDR,10-24-2006,23:00,METAR,,140,10.0,,,9999.0,,5.0,-2.0,30.01,1017.0,,,,,,,,,,,,,,,2/8 Mostly Clear,72000.0,,FEW,9900.0,,,,,,
KRDR,10-24-2006,22:00,METAR,,140,11.0,,,9999.0,,7.0,-2.0,30.01,1017.0,,,,,,,,,,,,,,,2/8 Mostly Clear,72000.0,,FEW,9900.0,,,,,,
KRDR,10-24-2006,21:00,METAR,,130,14.0,,,9999.0,,7.0,-3.0,30.00,1016.8,,,,,,,,,,,,,,,2/8 Mostly Clear,72000.0,,FEW,9900.0,,,,,,
KRDR,10-24-2006,20:00,METAR,,130,9.0,,,9999.0,,7.0,-2.0,30.02,1017.3,,,,,,,,,,,,,,,2/8 Mostly Clear,72000.0,,FEW,9900.0,,,,,,
KRDR,10-24-2006,19:00,METAR,,150,12.0,18.0,,9999.0,,6.0,-2.0,30.04,1018.1,,,,,,,,,,,,,,,2/8 Mostly Clear,72000.0,,FEW,9900.0,,,,,,
KRDR,10-24-2006,18:00,METAR,,150,11.0,,,9999.0,,5.0,-2.0,30.06,1018.7,,,,,,,,,,,,,,,2/8 Mostly Clear,72000.0,,FEW,9900.0,,,,,,
KRDR,10-24-2006,17:00,METAR,,160,12.0,,,9999.0,,3.0,-2.0,30.06,1018.8,,,,,,,,,,,,,,,2/8 Mostly Clear,72000.0,,FEW,9900.0,,,,,,
KRDR,10-24-2006,16:00,METAR,,140,12.0,,,9999.0,,1.0,-2.0,30.09,,,,,,,,,,,,,,,,2/8 Mostly Clear,72000.0,,FEW,9900.0,,,,,,
KRDR,10-24-2006,15:00,METAR,,160,9.0,,,9999.0,,0.0,-3.0,30.09,1019.6,,,,,,,,,,,,,,,7/8 Mostly Cloudy,10000.0,,BKN,9900.0,,,,,,
KRDR,10-24-2006,14:00,METAR,,140,6.0,,,9999.0,,-1.0,-3.0,30.08,1019.5,,,,,,,,,,,,,,,7/8 Mostly Cloudy,11000.0,,BKN,11000.0,,,,,,
KRDR,10-24-2006,13:00,METAR,,160,7.0,,,9999.0,,-1.0,-3.0,30.08,1019.5,,,,,,,,,,,,,,,7/8 Mostly Cloudy,11000.0,,BKN,11000.0,,,,,,
KRDR,10-24-2006,12:00,METAR,,160,7.0,,,9999.0,,-1.0,-3.0,30.09,1019.8,,,,,,,,,,,,,,,7/8 Mostly Cloudy,12000.0,,BKN,12000.0,,,,,,
KRDR,10-24-2006,11:00,METAR,,130,4.0,,,9999.0,,-1.0,-3.0,30.11,1020.3,,,,,,,,,,,,,,,4/8 Partly Cloudy,72000.0,,SCT,9900.0,,,,,,
KRDR,10-24-2006,10:00,METAR,,160,5.0,,,9999.0,,-1.0,-3.0,30.10,1020.2,,,,,,,,,,,,,,,8/8 Overcast,10000.0,,OVC,9900.0,,,,,,
KRDR,10-24-2006,09:00,METAR,,160,5.0,,,9999.0,,-1.0,-3.0,30.11,1020.5,,,,,,,,,,,,,,,7/8 Mostly Cloudy,11000.0,,BKN,11000.0,,,,,,
KRDR,10-24-2006,08:00,METAR,,180,5.0,,,9999.0,,0.0,-3.0,30.12,1020.6,,,,,,,,,,,,,,,8/8 Overcast,10000.0,,OVC,9900.0,,,,,,
KRDR,10-24-2006,07:00,METAR,,160,4.0,,,9999.0,,0.0,-3.0,30.13,1020.9,,,,,,,,,,,,,,,7/8 Mostly Cloudy,11000.0,,BKN,11000.0,,,,,,
KRDR,10-24-2006,06:44,SPECI,,170,4.0,,,9999.0,,0.0,-3.0,30.12,,,,,,,,,,,,,,,,7/8 Mostly Cloudy,10000.0,,BKN,9900.0,,,,,,
KRDR,10-24-2006,06:00,METAR,,160,5.0,,,9999.0,,0.0,-3.0,30.13,1021.1,,,,,,,,,,,,,,,7/8 Mostly Cloudy,2800.0,,BKN,2800.0,BKN,12000.0,,,,
KRDR,10-24-2006,05:00,METAR,,200,5.0,,,9999.0,,0.0,-3.0,30.16,1021.9,,,,,,,,,,,,,,,8/8 Overcast,2400.0,,FEW,1400.0,OVC,2400.0,,,,
KRDR,10-24-2006,04:40,SPECI,,190,3.0,,,9999.0,,0.0,-3.0,30.14,,,,,,,,,,,,,,,,7/8 Mostly Cloudy,2800.0,,SCT,2400.0,BKN,2800.0,,,,
KRDR,10-24-2006,04:00,METAR,,210,3.0,,,9999.0,,0.0,-3.0,30.16,1021.9,,,,,,,,,,,,,,,8/8 Overcast,3000.0,,SCT,2400.0,OVC,3000.0,,,,
KRDR,10-24-2006,03:00,METAR,,170,6.0,,,9999.0,,0.0,-3.0,30.15,1021.7,,,,,,,,,,,,,,,7/8 Mostly Cloudy,3100.0,,SCT,2600.0,BKN,3200.0,,,,
KRDR,10-24-2006,02:00,METAR,,160,6.0,,,9999.0,,1.0,-3.0,30.15,1021.7,,,,,,,,,,,,,,,7/8 Mostly Cloudy,3000.0,,BKN,3000.0,,,,,,
KRDR,10-24-2006,01:00,METAR,,160,5.0,,,9999.0,,0.0,-3.0,30.15,1021.7,,,,,,,,,,,,,,,7/8 Mostly Cloudy,3000.0,,SCT,2100.0,BKN,3000.0,,,,
KRDR,10-24-2006,00:48,SPECI,,160,5.0,,,9999.0,,0.0,-3.0,30.15,1021.7,,,,,,,,,,,,,,,7/8 Mostly Cloudy,3000.0,,BKN,3000.0,,,,,,
KRDR,10-24-2006,00:00,METAR,,110,5.0,,,9999.0,,2.0,-3.0,30.15,1021.5,,,,,,,,,,,,,,,7/8 Mostly Cloudy,2500.0,,BKN,2500.0,,,,,,
KRDR,10-23-2006,23:00,METAR,,130,2.0,,,9999.0,,3.0,-3.0,30.14,1021.4,,,,,,,,,,,,,,,7/8 Mostly Cloudy,2900.0,,BKN,2900.0,,,,,,
KRDR,10-23-2006,22:00,METAR,,,2.0,,,9999.0,,3.0,-3.0,30.14,1021.5,,,,,,,,,,,,,,,8/8 Overcast,2800.0,,OVC,2800.0,,,,,,
KRDR,10-23-2006,21:00,METAR,,,0.0,,,9999.0,,3.0,-3.0,30.14,1021.3,,,,,,,,,,,,,,,7/8 Mostly Cloudy,2700.0,,BKN,2700.0,,,,,,
KRDR,10-23-2006,20:00,METAR,,330,6.0,,,9999.0,,3.0,-3.0,30.14,1021.5,,,,,,,,,,,,,,,7/8 Mostly Cloudy,2500.0,,BKN,2500.0,,,,,,
KRDR,10-23-2006,19:00,METAR,,290,7.0,,,9999.0,,2.0,-3.0,30.16,1021.9,,,,,,,,,,,,,,,8/8 Overcast,2600.0,,OVC,2600.0,,,,,,
KRDR,10-23-2006,18:00,METAR,,,4.0,,,9999.0,,3.0,-3.0,30.15,1021.7,,,,,,,,,,,,,,,7/8 Mostly Cloudy,2300.0,,BKN,2300.0,,,,,,
KRDR,10-23-2006,17:00,METAR,,290,4.0,,,9999.0,,1.0,-4.0,30.15,1021.8,,,,,,,,,,,,,,,8/8 Overcast,1700.0,,OVC,1700.0,,,,,,
KRDR,10-23-2006,15:51,METAR,,360,8.0,,,9999.0,,1.0,-3.0,30.15,1021.7,,,,,,,,,,,,,,,8/8 Overcast,1700.0,,OVC,1700.0,,,,,,
KRDR,10-23-2006,15:00,METAR,,330,7.0,,,9999.0,,0.0,-3.0,30.15,1021.7,,,,,,,,,,,,,,,8/8 Overcast,1600.0,,BKN,1600.0,OVC,2300.0,,,,
KRDR,10-23-2006,14:05,SPECI,,320,6.0,,,9999.0,,0.0,-3.0,30.14,1021.4,,,,,,,,,,,,,,,8/8 Overcast,1600.0,,BKN,1600.0,OVC,2600.0,,,,
KRDR,10-23-2006,14:00,METAR,,320,4.0,,,9999.0,,0.0,-3.0,30.14,1021.2,,,,,,,,,,,,,,,8/8 Overcast,1200.0,,OVC,1200.0,,,,,,
KRDR,10-23-2006,13:00,METAR,,310,4.0,,,9999.0,,-1.0,-4.0,30.13,1021.0,,,,,,,,,,,,,,,8/8 Overcast,1600.0,,OVC,1600.0,,,,,,
KRDR,10-23-2006,12:00,METAR,,310,4.0,,,9999.0,,-1.0,-4.0,30.12,1020.6,,,,,,,,,,,,,,,8/8 Overcast,1600.0,,OVC,1600.0,,,,,,
KRDR,10-23-2006,11:00,METAR,,330,7.0,,,9999.0,,-1.0,-4.0,30.11,1020.4,,,,,,,,,,,,,,,8/8 Overcast,1600.0,,OVC,1600.0,,,,,,
KRDR,10-23-2006,10:00,METAR,,330,6.0,,,9999.0,,-1.0,-5.0,30.10,1020.1,,,,,,,,,,,,,,,8/8 Overcast,1700.0,,OVC,1700.0,,,,,,
KRDR,10-23-2006,09:00,METAR,,350,7.0,,,9999.0,,-1.0,-5.0,30.10,1019.9,,,,,,,,,,,,,,,8/8 Overcast,1800.0,,OVC,1800.0,,,,,,
KRDR,10-23-2006,08:00,METAR,,340,5.0,,,9999.0,,-1.0,-4.0,30.10,1019.9,,,,,,,,,,,,,,,8/8 Overcast,2300.0,,OVC,2300.0,,,,,,
KRDR,10-23-2006,07:00,METAR,,330,5.0,,,9999.0,,-1.0,-4.0,30.10,1019.9,,,,,,,,,,,,,,,8/8 Overcast,2300.0,,OVC,2300.0,,,,,,
KRDR,10-23-2006,06:00,METAR,,330,5.0,,,9999.0,,0.0,-4.0,30.10,1020.0,,,,,,,,,,,,,,,8/8 Overcast,2800.0,,FEW,1000.0,OVC,2800.0,,,,
KRDR,10-23-2006,05:00,METAR,,330,3.0,,,9999.0,,0.0,-4.0,30.10,1020.0,,,,,,,,,,,,,,,8/8 Overcast,2900.0,,OVC,2900.0,,,,,,
KRDR,10-23-2006,04:00,METAR,,340,5.0,,,9999.0,,0.0,-4.0,30.10,1020.1,,,,,,,,,,,,,,,8/8 Overcast,2200.0,,OVC,2200.0,,,,,,
KRDR,10-23-2006,03:00,METAR,,330,6.0,,,9999.0,,0.0,-4.0,30.11,1020.2,,,,,,,,,,,,,,,8/8 Overcast,2700.0,,OVC,2700.0,,,,,,
KRDR,10-23-2006,02:00,METAR,,330,6.0,,,9999.0,,0.0,-4.0,30.11,1020.2,,,,,,,,,,,,,,,8/8 Overcast,2700.0,,OVC,2700.0,,,,,,
KRDR,10-23-2006,01:00,METAR,,340,9.0,,,9999.0,,0.0,-4.0,30.11,1020.2,,,,,,,,,,,,,,,8/8 Overcast,2200.0,,OVC,2200.0,,,,,,
KRDR,10-23-2006,00:00,METAR,,340,6.0,,,9999.0,,1.0,-4.0,30.10,1020.1,,,,,,,,,,,,,TRACE,,8/8 Overcast,2100.0,,OVC,2100.0,,,,,,
KRDR,10-22-2006,23:00,METAR,,320,9.0,,,9999.0,,1.0,-4.0,30.10,1020.0,,,,,,,,,,,,,,,8/8 Overcast,2600.0,,OVC,2600.0,,,,,,
KRDR,10-22-2006,22:47,SPECI,,320,7.0,,,9999.0,,1.0,-4.0,30.10,,,,,,,,,,,,,,,,8/8 Overcast,2400.0,,OVC,2400.0,,,,,,
KRDR,10-22-2006,21:51,METAR,,330,9.0,,,9999.0,Light Snow,1.0,-3.0,30.10,1020.0,,,,71,,,,,,,,,,,8/8 Overcast,2200.0,,BKN,2200.0,OVC,8900.0,,,,
KRDR,10-22-2006,21:33,SPECI,,330,7.0,,,9999.0,Light Snow,1.0,-3.0,30.10,,,,,71,,,,,,,,,,,8/8 Overcast,2100.0,,BKN,2100.0,OVC,8900.0,,,,
KRDR,10-22-2006,21:00,METAR,,330,10.0,,,8000.0,Light Snow,0.0,-2.0,30.10,1020.0,,,,71,,,,,,,,TRACE,,,8/8 Overcast,2300.0,,FEW,800.0,BKN,2300.0,OVC,2800.0,,
KRDR,10-22-2006,20:00,METAR,,350,12.0,,,6400.0,Light Snow,1.0,-4.0,30.10,1019.8,,,,71,,,,,,,,,,,8/8 Overcast,2600.0,,OVC,2600.0,,,,,,
KRDR,10-22-2006,19:00,METAR,,330,12.0,,,9999.0,Light Snow,2.0,-5.0,30.10,1019.9,,,,71,,,,,,,TRACE,,,,8/8 Overcast,2400.0,,OVC,2400.0,,,,,,
KRDR,10-22-2006,18:28,SPECI,Normal,310,10.0,,,,,1.0,-5.0,30.10,1020.1,,,,,,,,,,,,,,,,2600.0,,FEW,2000.0,BKN,2600.0,OVC,3200.0,,
KRDR,10-22-2006,18:00,METAR,,330,11.0,,,8000.0,Light Snow,0.0,-4.0,30.11,1020.3,,,,71,,,,,,,,,TRACE,,8/8 Overcast,2100.0,,BKN,2100.0,OVC,5400.0,,,,
KRDR,10-22-2006,17:33,SPECI,,320,10.0,,,9999.0,Light Snow,1.0,-5.0,30.11,,,,,71,,,,,,,,,,,8/8 Overcast,2300.0,,SCT,1800.0,BKN,2300.0,OVC,5400.0,,
KRDR,10-22-2006,17:00,METAR,,320,11.0,,,9999.0,,1.0,-5.0,30.11,1020.5,,,,,,,,,,,,,,,7/8 Mostly Cloudy,4400.0,,SCT,1800.0,BKN,4500.0,BKN,12000.0,,
KRDR,10-22-2006,16:00,METAR,,320,13.0,,,9999.0,,-1.0,-5.0,30.12,1020.5,,,,,,,,,,,,,,,7/8 Mostly Cloudy,4900.0,,FEW,1500.0,BKN,5000.0,BKN,12000.0,,
KRDR,10-22-2006,15:00,METAR,,320,12.0,,,9999.0,,-1.0,-6.0,30.11,1020.3,,,,,,,,,,,,,,,8/8 Overcast,5500.0,,BKN,5400.0,OVC,12000.0,,,,
KRDR,10-22-2006,14:00,METAR,,310,9.0,,,9999.0,,-2.0,-6.0,30.10,1020.0,,,,,,,,,,,,,,,8/8 Overcast,4900.0,,BKN,5000.0,OVC,12000.0,,,,
KRDR,10-22-2006,13:00,METAR,,300,8.0,,,9999.0,,-4.0,-7.0,30.09,1019.7,,,,,,,,,,,,,,,8/8 Overcast,4300.0,,BKN,4400.0,OVC,12000.0,,,,
KRDR,10-22-2006,12:00,METAR,,290,7.0,,,9999.0,,-6.0,-8.0,30.09,1019.7,,,,,,,,,,,,,,,7/8 Mostly Cloudy,6000.0,,BKN,5900.0,,,,,,
KRDR,10-22-2006,11:00,METAR,,300,8.0,,,9999.0,,-5.0,-8.0,30.08,1019.4,,,,,,,,,,,,,,,7/8 Mostly Cloudy,6000.0,,BKN,5900.0,,,,,,
KRDR,10-22-2006,10:00,METAR,,300,7.0,,,9999.0,,-4.0,-7.0,30.07,1019.2,,,,,,,,,,,,,,,4/8 Partly Cloudy,72000.0,,SCT,6900.0,,,,,,
KRDR,10-22-2006,09:00,METAR,,300,7.0,,,9999.0,,-2.0,-6.0,30.07,1019.2,,,,,,,,,,,,,,,8/8 Overcast,7000.0,,OVC,6900.0,,,,,,
KRDR,10-22-2006,08:00,METAR,,320,6.0,,,9999.0,,-1.0,-6.0,30.07,1019.1,,,,,,,,,,,,,,,8/8 Overcast,7000.0,,OVC,6900.0,,,,,,
KRDR,10-22-2006,07:00,METAR,,310,5.0,,,9999.0,,-1.0,-6.0,30.07,1019.2,,,,,,,,,,,,,,,8/8 Overcast,5500.0,,OVC,5400.0,,,,,,
KRDR,10-22-2006,06:00,METAR,,310,6.0,,,9999.0,,-1.0,-6.0,30.07,1019.0,,,,,,,,,,,,,,,8/8 Overcast,5500.0,,OVC,5400.0,,,,,,
KRDR,10-22-2006,05:00,METAR,,310,5.0,,,9999.0,,-1.0,-6.0,30.07,1019.1,,,,,,,,,,,,,,,8/8 Overcast,4700.0,,OVC,4800.0,,,,,,
KRDR,10-22-2006,04:00,METAR,,300,6.0,,,9999.0,,-1.0,-6.0,30.07,1019.2,,,,,,,,,,,,,,,8/8 Overcast,4600.0,,OVC,4700.0,,,,,,
KRDR,10-22-2006,03:00,METAR,,290,6.0,,,9999.0,,-2.0,-6.0,30.07,1019.2,,,,,,,,,,,,,,,7/8 Mostly Cloudy,4900.0,,BKN,5000.0,,,,,,
KRDR,10-22-2006,02:00,METAR,,290,5.0,,,9999.0,,-4.0,-8.0,30.07,1019.2,,,,,,,,,,,,,,,7/8 Mostly Cloudy,8000.0,,SCT,5000.0,BKN,7900.0,,,,
KRDR,10-22-2006,01:00,METAR,,290,6.0,,,9999.0,,-3.0,-8.0,30.07,1019.2,,,,,,,,,,,,,,,2/8 Mostly Clear,72000.0,,FEW,5000.0,,,,,,
KRDR,10-22-2006,00:00,METAR,,320,5.0,,,9999.0,,-1.0,-8.0,30.07,1019.0,,,,,,,,,,,,,,,Clear,72000.0,,,73000.0,,,,,,
KRDR,10-21-2006,23:00,METAR,,340,11.0,,,9999.0,,1.0,-8.0,30.06,1018.8,,,,,,,,,,,,,,,4/8 Partly Cloudy,72000.0,,SCT,4700.0,SCT,25000.0,,,,
KRDR,10-21-2006,22:00,METAR,,320,8.0,,,9999.0,,2.0,-8.0,30.06,1018.8,,,,,,,,,,,,,,,4/8 Partly Cloudy,72000.0,,SCT,4300.0,SCT,25000.0,,,,
KRDR,10-21-2006,21:00,METAR,,310,8.0,,,9999.0,,2.0,-8.0,30.06,1018.6,,,,,,,,,,,,,,,4/8 Partly Cloudy,72000.0,,SCT,4000.0,SCT,25000.0,,,,
KRDR,10-21-2006,20:00,METAR,,340,11.0,,,9999.0,,1.0,-8.0,30.07,1018.9,,,,,,,,,,,,,,,7/8 Mostly Cloudy,3600.0,,BKN,3700.0,BKN,25000.0,,,,
KRDR,10-21-2006,19:00,METAR,,340,10.0,,,9999.0,,1.0,-8.0,30.08,1019.3,,,,,,,,,,,,,,,7/8 Mostly Cloudy,3400.0,,BKN,3500.0,BKN,25000.0,,,,
KRDR,10-21-2006,18:00,METAR,,340,8.0,15.0,,9999.0,,0.0,-8.0,30.10,1019.9,,,,,,,,,,,,,,,7/8 Mostly Cloudy,3300.0,,BKN,3400.0,BKN,25000.0,,,,
KRDR,10-21-2006,17:00,METAR,,350,12.0,,,9999.0,,0.0,-8.0,30.10,1020.1,,,,,,,,,,,,,,,7/8 Mostly Cloudy,25000.0,,SCT,3000.0,BKN,25000.0,,,,
KRDR,10-21-2006,16:00,METAR,,330,11.0,19.0,,9999.0,,-1.0,-8.0,30.11,1020.3,,,,,,,,,,,,,,,7/8 Mostly Cloudy,25000.0,,FEW,2500.0,SCT,3400.0,BKN,25000.0,,
KRDR,10-21-2006,15:00,METAR,,310,10.0,,,9999.0,,-2.0,-7.0,30.10,1019.9,,,,,,,,,,,,,,,7/8 Mostly Cloudy,25000.0,,SCT,3200.0,BKN,25000.0,,,,
KRDR,10-21-2006,14:00,METAR,,290,4.0,,,9999.0,,-4.0,-7.0,30.09,1019.5,,,,,,,,,,,,,,,4/8 Partly Cloudy,72000.0,,FEW,4000.0,SCT,25000.0,,,,
KRDR,10-21-2006,13:00,METAR,,310,6.0,,,9999.0,,-5.0,-8.0,30.08,1019.3,,,,,,,,,,,,,,,4/8 Partly Cloudy,72000.0,,SCT,4000.0,,,,,,
KRDR,10-21-2006,12:00,METAR,,310,6.0,,,9999.0,,-4.0,-8.0,30.07,1019.0,,,,,,,,,,,,,,.01 IN,4/8 Partly Cloudy,72000.0,,SCT,4000.0,,,,,,
KRDR,10-21-2006,11:00,METAR,,310,8.0,,,9999.0,,-2.0,-6.0,30.06,1018.7,,,,,,,,,,,,,,,7/8 Mostly Cloudy,3900.0,,BKN,4000.0,,,,,,
KRDR,10-21-2006,10:00,METAR,,310,8.0,,,9999.0,,-2.0,-7.0,30.05,1018.5,,,,,,,,,,,,,,,7/8 Mostly Cloudy,4000.0,,BKN,4100.0,,,,,,
KRDR,10-21-2006,09:00,METAR,,280,4.0,,,9999.0,,-1.0,-5.0,30.04,1018.2,,,,,,,,,,,,,,,8/8 Overcast,4000.0,,OVC,4100.0,,,,,,
KRDR,10-21-2006,08:00,METAR,,300,3.0,,,9999.0,,-1.0,-5.0,30.05,1018.2,,,,,,,,,,,,,,,8/8 Overcast,3800.0,,OVC,3900.0,,,,,,
KRDR,10-21-2006,07:00,METAR,,340,3.0,,,9999.0,,-1.0,-4.0,30.04,1017.9,,,,,,,,,,,,,,,8/8 Overcast,3300.0,,OVC,3400.0,,,,,,
KRDR,10-21-2006,06:00,METAR,,330,2.0,,,9999.0,,-1.0,-4.0,30.04,1017.9,,,,,,,,,,,,,,,8/8 Overcast,3700.0,,OVC,3800.0,,,,,,
KRDR,10-21-2006,05:00,METAR,,360,5.0,,,9999.0,,0.0,-4.0,30.03,1017.7,,,,,,,,,,,,,,,8/8 Overcast,3700.0,,FEW,2500.0,OVC,3800.0,,,,
KRDR,10-21-2006,04:00,METAR,,350,6.0,,,9999.0,,0.0,-4.0,30.02,1017.5,,,,,,,,,,,,,,,8/8 Overcast,4500.0,,OVC,4600.0,,,,,,
KRDR,10-21-2006,03:00,METAR,,360,8.0,,,9999.0,,0.0,-3.0,30.00,1016.8,,,,,,,,,,,,,,,8/8 Overcast,4300.0,,OVC,4400.0,,,,,,
KRDR,10-21-2006,02:00,METAR,,360,7.0,,,9999.0,,0.0,-4.0,29.99,1016.3,,,,,,,,,,,,,,,8/8 Overcast,4500.0,,OVC,4600.0,,,,,,
KRDR,10-21-2006,01:00,METAR,,10,9.0,,,9999.0,,1.0,-4.0,29.96,1015.2,,,,,,,,,,,,,,,8/8 Overcast,4500.0,,OVC,4600.0,,,,,,
KRDR,10-21-2006,00:00,METAR,,360,9.0,,,9999.0,,1.0,-3.0,29.93,1014.4,,,,,,,,,,,,,TRACE,,8/8 Overcast,4300.0,,OVC,4400.0,,,,,,
KRDR,10-20-2006,23:00,METAR,,10,14.0,,,9999.0,,2.0,-4.0,29.90,1013.6,,,,,,,,,,,,,,,8/8 Overcast,4100.0,,SCT,1500.0,OVC,4200.0,,,,
KRDR,10-20-2006,22:00,METAR,,10,15.0,21.0,,400.0,,2.0,-2.0,29.87,1012.6,,,,,,,,,,,,,,,,2500.0,,OVC,2500.0,,,,,,
KRDR,10-20-2006,21:00,METAR,,20,15.0,,,9999.0,,3.0,-1.0,29.85,1011.7,,,,,,,,,,,,TRACE,,,8/8 Overcast,2000.0,,BKN,2000.0,OVC,4000.0,,,,
KRDR,10-20-2006,20:21,SPECI,,10,16.0,,,9999.0,,2.0,-1.0,29.84,,,,,,,,,,,,,,,,8/8 Overcast,1600.0,,OVC,1600.0,,,,,,
KRDR,10-20-2006,20:00,METAR,,10,14.0,,,9999.0,Light Snow,2.0,0.0,29.83,1011.2,,,,71,,,,,,,,,,,8/8 Overcast,1500.0,,OVC,1500.0,,,,,,
KRDR,10-20-2006,19:28,SPECI,,10,16.0,20.0,,9999.0,,2.0,0.0,29.83,,,,,,,,,,,,,,,,8/8 Overcast,1200.0,,OVC,1200.0,,,,,,
KRDR,10-20-2006,19:00,METAR,,10,14.0,,,9999.0,Light Snow,1.0,0.0,29.82,1010.7,,,,71,,,,,,,,,,,8/8 Overcast,900.0,,OVC,900.0,,,,,,
KRDR,10-20-2006,18:00,METAR,,10,15.0,20.0,,9999.0,Light Snow,1.0,0.0,29.81,1010.4,,,,71,,,,,,,,,.01 IN,,8/8 Overcast,800.0,,OVC,800.0,,,,,,
KRDR,10-20-2006,17:16,SPECI,,360,15.0,19.0,,3200.0,Light Snow/Mist,1.0,0.0,29.80,,,,,71,10,,,,,,,,,,8/8 Overcast,600.0,,OVC,600.0,,,,,,
KRDR,10-20-2006,17:00,METAR,,360,12.0,18.0,,3200.0,Light Snow/Mist,1.0,0.0,29.79,1009.8,,,,71,10,,,,,,,,,,8/8 Overcast,400.0,,BKN,400.0,OVC,1000.0,,,,
KRDR,10-20-2006,16:00,METAR,,360,13.0,,,3200.0,Light Snow/Mist,0.0,-1.0,29.77,1009.1,,,,71,10,,,,,,,,,,8/8 Overcast,400.0,,OVC,400.0,,,,,,
KRDR,10-20-2006,15:39,SPECI,,350,14.0,,,3200.0,Light Snow,0.0,-1.0,29.77,,,,,71,,,,,,,,,,,8/8 Overcast,400.0,,OVC,400.0,,,,,,
KRDR,10-20-2006,15:00,METAR,,360,12.0,18.0,,4800.0,Light Snow/Mist,0.0,-1.0,29.75,1008.6,,,,71,10,,,,,,TRACE,TRACE,,,8/8 Overcast,400.0,,OVC,400.0,,,,,,
KRDR,10-20-2006,14:41,SPECI,,360,12.0,19.0,,4800.0,Light Snow/Mist,0.0,-1.0,29.75,,,,,71,10,,,,,,,,,,8/8 Overcast,400.0,,OVC,400.0,,,,,,
KRDR,10-20-2006,14:00,METAR,,360,11.0,,,6400.0,Mist,0.0,0.0,29.73,1007.7,,,,10,,,,,,,,,,,8/8 Overcast,300.0,,OVC,300.0,,,,,,
KRDR,10-20-2006,13:00,METAR,,360,13.0,19.0,,4800.0,Mist,0.0,0.0,29.71,1007.2,,,,10,,,,,,,,,,,8/8 Overcast,300.0,,OVC,300.0,,,,,,
KRDR,10-20-2006,12:42,SPECI,,360,14.0,19.0,,4800.0,Light Snow/Mist,0.0,0.0,29.71,,,,,71,10,,,,,,,,,,8/8 Overcast,300.0,,OVC,300.0,,,,,,
KRDR,10-20-2006,12:00,METAR,,350,11.0,,,4800.0,Light Snow/Drizzle,0.0,0.0,29.70,1006.9,,,,51,71,,,,,,,,TRACE,,8/8 Overcast,400.0,,OVC,400.0,,,,,,
KRDR,10-20-2006,11:00,METAR,,350,10.0,,,4800.0,Drizzle,0.0,0.0,29.69,1006.4,,,,51,,,,,,,TRACE,,,,8/8 Overcast,400.0,,OVC,400.0,,,,,,
KRDR,10-20-2006,10:27,SPECI,,340,11.0,,,6400.0,Drizzle/Mist,1.0,0.0,29.69,,,,,51,10,,,,,,,,,,8/8 Overcast,400.0,,OVC,400.0,,,,,,
KRDR,10-20-2006,10:00,METAR,,340,10.0,,,9999.0,Mist,1.0,0.0,29.69,1006.4,,,,10,,,,,,,,,,,8/8 Overcast,600.0,,OVC,600.0,,,,,,
KRDR,10-20-2006,09:00,METAR,,330,8.0,,,9999.0,Mist,2.0,0.0,29.68,1006.1,,,,10,,,,,,,,TRACE,,,8/8 Overcast,600.0,,BKN,600.0,OVC,1100.0,,,,
KRDR,10-20-2006,08:39,SPECI,Normal,320,6.0,,,,,2.0,0.0,29.68,1006.2,,,,,,,,,,,,,,,,300.0,,OVC,300.0,,,,,,
KRDR,10-20-2006,08:13,SPECI,,310,6.0,,,9999.0,Mist,2.0,0.0,29.68,,,,,10,,,,,,,,,,,8/8 Overcast,1100.0,,SCT,700.0,OVC,1100.0,,,,
KRDR,10-20-2006,08:00,METAR,,310,7.0,,,9999.0,Mist,2.0,0.0,29.67,1006.0,,,,10,,,,,,,,,,,8/8 Overcast,1800.0,,FEW,800.0,OVC,1800.0,,,,
KRDR,10-20-2006,07:13,SPECI,,310,7.0,,,9999.0,Mist,2.0,0.0,29.67,,,,,10,,,,,,,,,,,8/8 Overcast,1100.0,,SCT,800.0,OVC,1100.0,,,,
KRDR,10-20-2006,07:00,METAR,,300,5.0,,,9999.0,Drizzle,2.0,0.0,29.67,1005.9,,,,51,,,,,,,TRACE,,,,8/8 Overcast,1100.0,,SCT,800.0,OVC,1100.0,,,,
KRDR,10-20-2006,06:24,SPECI,,310,6.0,,,9999.0,Drizzle,2.0,0.0,29.68,,,,,51,,,,,,,,,,,8/8 Overcast,1400.0,,OVC,1400.0,,,,,,
KRDR,10-20-2006,06:00,METAR,,300,6.0,,,9999.0,,2.0,0.0,29.68,1006.2,,,,,,,,,,,,,,,8/8 Overcast,2000.0,,OVC,2000.0,,,,,,
KRDR,10-20-2006,05:00,METAR,,290,5.0,,,9999.0,,2.0,0.0,29.68,1006.3,,,,,,,,,,,,,,,8/8 Overcast,2000.0,,OVC,2000.0,,,,,,
KRDR,10-20-2006,04:00,METAR,,320,4.0,,,9999.0,,2.0,0.0,29.69,1006.5,,,,,,,,,,,,,,,8/8 Overcast,1500.0,,FEW,600.0,OVC,1500.0,,,,
KRDR,10-20-2006,03:43,SPECI,,310,5.0,,,9999.0,,2.0,0.0,29.69,,,,,,,,,,,,,,,,8/8 Overcast,1500.0,,FEW,600.0,OVC,1500.0,,,,
KRDR,10-20-2006,03:09,SPECI,,310,5.0,,,9999.0,,2.0,0.0,29.70,,,,,,,,,,,,,,,,8/8 Overcast,1400.0,,FEW,700.0,OVC,1400.0,,,,
KRDR,10-20-2006,03:00,METAR,,310,5.0,,,9999.0,,3.0,0.0,29.70,1006.8,,,,,,,,,,,,,,,8/8 Overcast,1700.0,,SCT,1000.0,OVC,1700.0,,,,
KRDR,10-20-2006,02:49,SPECI,Normal,320,6.0,,,,,3.0,0.0,29.70,1006.8,,,,,,,,,,,,,,,,1600.0,,SCT,1000.0,OVC,1600.0,,,,
KRDR,10-20-2006,02:00,METAR,,260,3.0,,,9999.0,,3.0,0.0,29.71,1007.2,,,,,,,,,,,,,,,8/8 Overcast,2000.0,,OVC,2000.0,,,,,,
KRDR,10-20-2006,01:00,METAR,,300,4.0,,,9999.0,,3.0,0.0,29.72,1007.4,,,,,,,,,,,,,,,8/8 Overcast,2000.0,,OVC,2000.0,,,,,,
KRDR,10-20-2006,00:00,METAR,,300,6.0,,,9999.0,,3.0,0.0,29.72,1007.5,,,,,,,,,,,,,,,8/8 Overcast,2100.0,,OVC,2100.0,,,,,,
KRDR,10-19-2006,23:00,METAR,,290,9.0,,,9999.0,,4.0,0.0,29.73,1007.7,,,,,,,,,,,,,,,8/8 Overcast,2200.0,,SCT,1600.0,OVC,2200.0,,,,
KRDR,10-19-2006,22:00,METAR,,230,6.0,,,9999.0,,5.0,0.0,29.71,1007.3,,,,,,,,,,,,,,,8/8 Overcast,2300.0,,OVC,2300.0,,,,,,
KRDR,10-19-2006,21:11,SPECI,,200,10.0,,,9999.0,,6.0,0.0,29.72,,,,,,,,,,,,,,,,8/8 Overcast,2700.0,,BKN,2700.0,BKN,5400.0,OVC,9900.0,,
KRDR,10-19-2006,21:00,METAR,,200,9.0,,,9999.0,,6.0,0.0,29.72,1007.5,,,,,,,,,,,,,,,8/8 Overcast,6000.0,,SCT,2600.0,OVC,5900.0,,,,
KRDR,10-19-2006,20:00,METAR,,200,10.0,,,9999.0,,5.0,-1.0,29.73,1008.0,,,,,,,,,,,,,,,7/8 Mostly Cloudy,6500.0,,SCT,2800.0,BKN,6400.0,BKN,20000.0,,
KRDR,10-19-2006,19:00,METAR,,210,11.0,,,9999.0,,5.0,-1.0,29.77,1009.0,,,,,,,,,,,,,,,7/8 Mostly Cloudy,8500.0,,FEW,2100.0,BKN,8400.0,BKN,20000.0,,
KRDR,10-19-2006,18:00,METAR,,200,13.0,,,9999.0,,4.0,-2.0,29.78,1009.4,,,,,,,,,,,,,,,7/8 Mostly Cloudy,20000.0,,SCT,7900.0,BKN,20000.0,,,,
KRDR,10-19-2006,17:00,METAR,,180,13.0,,,9999.0,,3.0,-3.0,29.80,1010.0,,,,,,,,,,,,,,,7/8 Mostly Cloudy,20000.0,,FEW,7900.0,BKN,20000.0,,,,
KRDR,10-19-2006,16:00,METAR,,180,14.0,,,9999.0,,0.0,-4.0,29.81,1010.5,,,,,,,,,,,,,,,7/8 Mostly Cloudy,20000.0,,BKN,20000.0,,,,,,
KRDR,10-19-2006,15:00,METAR,,190,12.0,,,9999.0,,-2.0,-4.0,29.83,1011.1,,,,,,,,,,,,,,,7/8 Mostly Cloudy,20000.0,,BKN,20000.0,,,,,,
KRDR,10-19-2006,14:00,METAR,,180,10.0,,,9999.0,,-3.0,-5.0,29.84,1011.5,,,,,,,,,,,,,,,7/8 Mostly Cloudy,25000.0,,BKN,25000.0,,,,,,
KRDR,10-19-2006,13:00,METAR,,190,7.0,,,9999.0,,-4.0,-6.0,29.86,1012.1,,,,,,,,,,,,,,,4/8 Partly Cloudy,72000.0,,SCT,20000.0,,,,,,
KRDR,10-19-2006,12:00,METAR,,190,7.0,,,9999.0,,-4.0,-6.0,29.87,1012.5,,,,,,,,,,,,,,,2/8 Mostly Clear,72000.0,,FEW,9900.0,,,,,,
KRDR,10-19-2006,11:00,METAR,,190,7.0,,,9999.0,,-4.0,-6.0,29.89,1013.0,,,,,,,,,,,,,,,Clear,72000.0,,,73000.0,,,,,,
KRDR,10-19-2006,10:00,METAR,,180,7.0,,,9999.0,,-4.0,-6.0,29.91,1013.6,,,,,,,,,,,,,,,Clear,72000.0,,,73000.0,,,,,,
KRDR,10-19-2006,09:00,METAR,,190,6.0,,,9999.0,,-4.0,-6.0,29.93,1014.3,,,,,,,,,,,,,,,Clear,72000.0,,,73000.0,,,,,,
KRDR,10-19-2006,08:00,METAR,,200,4.0,,,9999.0,,-3.0,-6.0,29.94,1014.8,,,,,,,,,,,,,,,7/8 Mostly Cloudy,3000.0,,BKN,3000.0,,,,,,
KRDR,10-19-2006,07:00,METAR,Normal,190,5.0,,,,,-4.0,-6.0,29.95,1015.1,,,,,,,,,,,,,,,,72000.0,,,,,,,,,
KRDR,10-19-2006,06:00,METAR,,210,6.0,,,9999.0,,-2.0,-6.0,29.97,1015.6,,,,,,,,,,,,,,,7/8 Mostly Cloudy,3000.0,,BKN,3000.0,,,,,,
KRDR,10-19-2006,05:00,METAR,,240,7.0,,,9999.0,,-1.0,-6.0,29.98,1016.0,,,,,,,,,,,,,,,7/8 Mostly Cloudy,3000.0,,BKN,3000.0,,,,,,
KRDR,10-19-2006,04:23,SPECI,,270,6.0,,,9999.0,,-1.0,-5.0,29.98,,,,,,,,,,,,,,,,8/8 Overcast,3000.0,,OVC,3000.0,,,,,,
KRDR,10-19-2006,04:00,METAR,,270,6.0,,,9999.0,,0.0,-5.0,29.99,1016.3,,,,,,,,,,,,,,,8/8 Overcast,2600.0,,OVC,2600.0,,,,,,
KRDR,10-19-2006,03:00,METAR,,280,5.0,,,9999.0,,0.0,-5.0,30.00,1016.6,,,,,,,,,,,,,,,8/8 Overcast,3000.0,,OVC,3000.0,,,,,,
KRDR,10-19-2006,02:00,METAR,,270,7.0,,,9999.0,,0.0,-5.0,30.00,1016.7,,,,,,,,,,,,,,,8/8 Overcast,3000.0,,OVC,3000.0,,,,,,
KRDR,10-19-2006,01:00,METAR,,,0.0,,,9999.0,,0.0,-5.0,30.00,1016.7,,,,,,,,,,,,,,,8/8 Overcast,3100.0,,OVC,3200.0,,,,,,
KRDR,10-19-2006,00:00,METAR,,320,4.0,,,9999.0,,1.0,-6.0,30.00,1016.8,,,,,,,,,,,,,,,8/8 Overcast,3200.0,,OVC,3300.0,,,,,,
KRDR,10-18-2006,23:46,SPECI,Normal,270,6.0,,,,,1.0,-6.0,30.00,1016.8,,,,,,,,,,,,,,,,2900.0,,OVC,2900.0,,,,,,
KRDR,10-18-2006,23:00,METAR,,300,6.0,,,9999.0,,1.0,-6.0,30.01,1017.0,,,,,,,,,,,,,,,8/8 Overcast,3100.0,,OVC,3100.0,,,,,,
KRDR,10-18-2006,22:00,METAR,,310,8.0,,,9999.0,,2.0,-5.0,30.01,1017.1,,,,,,,,,,,,,,,8/8 Overcast,3000.0,,OVC,3000.0,,,,,,
KRDR,10-18-2006,21:00,METAR,,310,9.0,,,9999.0,,2.0,-5.0,30.01,1017.1,,,,,,,,,,,,,,,7/8 Mostly Cloudy,3100.0,,BKN,3200.0,,,,,,
KRDR,10-18-2006,20:00,METAR,,320,9.0,,,9999.0,,2.0,-5.0,30.02,1017.4,,,,,,,,,,,,,,,8/8 Overcast,3000.0,,OVC,3000.0,,,,,,
KRDR,10-18-2006,19:00,METAR,,330,9.0,,,9999.0,,2.0,-4.0,30.03,1017.8,,,,,,,,,,,,,,,8/8 Overcast,3200.0,,BKN,3300.0,OVC,4000.0,,,,
KRDR,10-18-2006,18:00,METAR,,320,8.0,,,9999.0,,2.0,-4.0,30.05,1018.2,,,,,,,,,,,,,,,8/8 Overcast,3600.0,,FEW,2600.0,OVC,3700.0,,,,
KRDR,10-18-2006,17:00,METAR,,320,11.0,,,9999.0,,2.0,-4.0,30.04,1018.2,,,,,,,,,,,,,,,8/8 Overcast,3600.0,,OVC,3700.0,,,,,,
KRDR,10-18-2006,16:00,METAR,,330,13.0,,,9999.0,,1.0,-3.0,30.04,1018.1,,,,,,,,,,,,,,,8/8 Overcast,3600.0,,OVC,3700.0,,,,,,
KRDR,10-18-2006,15:00,METAR,,320,12.0,,,9999.0,,1.0,-4.0,30.04,1018.0,,,,,,,,,,,,,,,8/8 Overcast,3400.0,,OVC,3500.0,,,,,,
KRDR,10-18-2006,14:00,METAR,,310,11.0,,,9999.0,,0.0,-4.0,30.04,1018.0,,,,,,,,,,,,,,,8/8 Overcast,3300.0,,OVC,3400.0,,,,,,
KRDR,10-18-2006,13:00,METAR,,320,8.0,,,9999.0,,0.0,-4.0,30.02,1017.5,,,,,,,,,,,,,,,8/8 Overcast,3300.0,,OVC,3400.0,,,,,,
KRDR,10-18-2006,12:00,METAR,,320,10.0,,,9999.0,,0.0,-3.0,30.02,1017.3,,,,,,,,,,,,,,,8/8 Overcast,3300.0,,OVC,3400.0,,,,,,
KRDR,10-18-2006,11:23,SPECI,,320,9.0,,,9999.0,,1.0,-3.0,30.01,,,,,,,,,,,,,,,,8/8 Overcast,3100.0,,OVC,3100.0,,,,,,
KRDR,10-18-2006,11:19,SPECI,,320,10.0,,,2800.0,Haze,1.0,-3.0,30.00,1016.8,,,,5,,,,,,,,,,,8/8 Overcast,3100.0,,OVC,3100.0,,,,,,
KRDR,10-18-2006,11:00,METAR,,320,12.0,,,9999.0,,1.0,-3.0,29.99,1016.4,,,,,,,,,,,,,,,8/8 Overcast,3300.0,,OVC,3400.0,,,,,,
KRDR,10-18-2006,10:00,METAR,,330,12.0,,,9999.0,,1.0,-3.0,29.98,1016.1,,,,,,,,,,,,,,,8/8 Overcast,3100.0,,FEW,2400.0,BKN,3100.0,OVC,4000.0,,
KRDR,10-18-2006,09:15,SPECI,,330,12.0,,,9999.0,,1.0,-2.0,29.98,,,,,,,,,,,,,,,,8/8 Overcast,2400.0,,BKN,2400.0,OVC,3100.0,,,,
KRDR,10-18-2006,09:00,METAR,,330,11.0,,,9999.0,,1.0,-2.0,29.97,1015.7,,,,,,,,,,,,,,,8/8 Overcast,2400.0,,BKN,2400.0,OVC,3100.0,,,,
KRDR,10-18-2006,08:00,METAR,,330,12.0,,,9999.0,,1.0,-2.0,29.96,1015.3,,,,,,,,,,,,,,,8/8 Overcast,2400.0,,OVC,2400.0,,,,,,
KRDR,10-18-2006,07:00,METAR,,320,11.0,,,9999.0,,1.0,-2.0,29.96,1015.3,,,,,,,,,,,,,,,8/8 Overcast,2400.0,,BKN,2400.0,OVC,4800.0,,,,
KRDR,10-18-2006,06:00,METAR,,320,10.0,17.0,,9999.0,,1.0,-1.0,29.95,1015.0,,,,,,,,,,,,,TRACE,,8/8 Overcast,1500.0,,OVC,1500.0,,,,,,
KRDR,10-18-2006,05:00,METAR,,340,13.0,,,9999.0,,1.0,-1.0,29.93,1014.3,,,,,,,,,,,,,,,8/8 Overcast,1500.0,,OVC,1500.0,,,,,,
KRDR,10-18-2006,04:00,METAR,,340,12.0,,,9999.0,,2.0,-1.0,29.90,1013.4,,,,,,,,,,,,,,,8/8 Overcast,1500.0,,OVC,1500.0,,,,,,
KRDR,10-18-2006,03:00,METAR,,340,15.0,20.0,,9999.0,,1.0,0.0,29.88,1012.8,,,,,,,,,,,,TRACE,,,8/8 Overcast,1200.0,,BKN,1200.0,OVC,2600.0,,,,
KRDR,10-18-2006,02:00,METAR,,350,17.0,24.0,,9999.0,,2.0,0.0,29.86,1012.0,,,,,,,,,,,,,,,8/8 Overcast,1100.0,,OVC,1100.0,,,,,,
KRDR,10-18-2006,01:39,SPECI,,340,12.0,,,9999.0,,2.0,0.0,29.86,,,,,,,,,,,,,,,,8/8 Overcast,1500.0,,OVC,1500.0,,,,,,
KRDR,10-18-2006,01:00,METAR,,340,13.0,18.0,,9999.0,,2.0,0.0,29.84,1011.6,,,,,,,,,,,,,,,8/8 Overcast,500.0,,OVC,1500.0,,,,,,
KRDR,10-18-2006,00:08,SPECI,,330,15.0,,,9999.0,Rain,2.0,0.0,29.83,,,,,61,,,,,,,,,,,8/8 Overcast,1600.0,,FEW,500.0,FEW,1000.0,OVC,1600.0,,
KRDR,10-18-2006,00:03,SPECI,,340,11.0,,,9999.0,,2.0,0.0,29.82,,,,,,,,,,,,,,,,8/8 Overcast,1600.0,,FEW,500.0,FEW,1000.0,OVC,1600.0,,
KRDR,10-18-2006,00:00,METAR,,340,15.0,19.0,,9999.0,,2.0,0.0,29.81,1010.6,,,,,,,,,,,,,.03 IN,,8/8 Overcast,1400.0,,OVC,1400.0,,,,,,
KRDR,10-17-2006,23:38,SPECI,,340,12.0,20.0,,9999.0,,2.0,0.0,29.80,,,,,,,,,,,,,,,,8/8 Overcast,1400.0,,OVC,1400.0,,,,,,
KRDR,10-17-2006,23:04,SPECI,,340,11.0,20.0,,9999.0,Rain,2.0,0.0,29.78,1009.6,,,,61,,,,,,,,,,,8/8 Overcast,500.0,,BKN,1300.0,OVC,2200.0,,,,
KRDR,10-17-2006,23:00,METAR,,340,12.0,18.0,,9999.0,Light Snow/Rain,2.0,0.0,29.77,1009.3,,,,61,71,,,,,,,,,,8/8 Overcast,500.0,,FEW,600.0,BKN,1100.0,OVC,1500.0,,
KRDR,10-17-2006,22:20,METAR,,340,17.0,23.0,,9999.0,Snow Grains,2.0,1.0,29.76,1009.0,,,,77,,,,,,,,,,,8/8 Overcast,300.0,,BKN,1100.0,BKN,2500.0,OVC,5000.0,,
KRDR,10-17-2006,22:00,METAR,,340,14.0,20.0,,9999.0,Snow Grains,1.0,1.0,29.76,1008.7,,,,77,,,,,,,TRACE,,,,8/8 Overcast,900.0,,BKN,900.0,OVC,1600.0,,,,
KRDR,10-17-2006,21:06,SPECI,,340,16.0,22.0,,6400.0,Light Snow,1.0,0.0,29.74,1008.0,,,,71,,,,,,,,,,,8/8 Overcast,800.0,,BKN,800.0,OVC,1200.0,,,,
KRDR,10-17-2006,21:02,SPECI,,340,17.0,22.0,,4800.0,Light Snow,1.0,0.0,29.73,1007.9,,,,71,,,,,,,,,,,8/8 Overcast,600.0,,OVC,600.0,,,,,,
KRDR,10-17-2006,21:00,METAR,,340,14.0,19.0,,4000.0,Light Snow,1.0,0.0,29.73,1007.8,,,,71,,,,,,,TRACE,.03 IN,,,8/8 Overcast,100.0,,BKN,500.0,OVC,1000.0,,,,
KRDR,10-17-2006,20:19,SPECI,,340,18.0,23.0,,4800.0,Light Snow,1.0,0.0,29.72,,,,,71,,,,,,,,,,,8/8 Overcast,900.0,,OVC,900.0,,,,,,
KRDR,10-17-2006,20:13,SPECI,,340,18.0,23.0,,4000.0,Light Snow,1.0,0.0,29.72,,,,,71,,,,,,,,,,,8/8 Overcast,800.0,,BKN,800.0,OVC,1400.0,,,,
KRDR,10-17-2006,20:06,SPECI,,340,13.0,22.0,,3200.0,Light Snow,1.0,0.0,29.71,,,,,71,,,,,,,,,,,8/8 Overcast,500.0,,BKN,500.0,OVC,1000.0,,,,
KRDR,10-17-2006,20:00,METAR,,340,17.0,22.0,,2400.0,Light Snow,0.0,0.0,29.71,1007.2,,,,71,,,,,,,TRACE,,,,8/8 Overcast,500.0,,BKN,500.0,OVC,1000.0,,,,
KRDR,10-17-2006,19:46,SPECI,,340,15.0,19.0,,2400.0,Light Snow,0.0,0.0,29.70,,,,,71,,,,,,,,,,,7/8 Mostly Cloudy,500.0,,BKN,500.0,,,,,,
KRDR,10-17-2006,19:24,SPECI,,350,17.0,23.0,,2000.0,Light Snow,0.0,0.0,29.70,,,,,71,,,,,,,,,,,8/8 Overcast,400.0,,BKN,400.0,OVC,1100.0,,,,
KRDR,10-17-2006,19:18,SPECI,,340,16.0,24.0,,2400.0,Light Snow,1.0,0.0,29.70,,,,,71,,,,,,,,,,,8/8 Overcast,400.0,,BKN,400.0,OVC,1000.0,,,,
KRDR,10-17-2006,19:00,METAR,,340,14.0,23.0,340/26KTS,2800.0,Light Snow,1.0,0.0,29.68,1006.2,,,,71,,,,,,,,,,,8/8 Overcast,600.0,,BKN,600.0,OVC,1200.0,,,,
KRDR,10-17-2006,18:50,METAR,,340,15.0,22.0,340/26KTS,2800.0,Light Snow,1.0,0.0,29.68,1006.2,,,,71,,,,,,,,,,,8/8 Overcast,100.0,,BKN,600.0,OVC,1000.0,,,,
KRDR,10-17-2006,18:45,METAR,,340,13.0,22.0,340/26KTS,3200.0,Light Snow,1.0,0.0,29.68,1006.2,,,,71,,,,,,,,,,,8/8 Overcast,600.0,,SCT,200.0,OVC,600.0,,,,
KRDR,10-17-2006,18:34,SPECI,,350,16.0,26.0,340/26KTS,4000.0,Light Snow,1.0,0.0,29.67,1006.0,,,,71,,,,,,,,,,,8/8 Overcast,200.0,,OVC,600.0,,,,,,
KRDR,10-17-2006,18:15,SPECI,,350,18.0,22.0,,6400.0,Light Snow,1.0,0.0,29.66,1005.6,,,,71,,,,,,,,,,,8/8 Overcast,200.0,,OVC,400.0,,,,,,
KRDR,10-17-2006,18:00,METAR,,350,18.0,25.0,340/27KTS,6400.0,Light Snow,1.0,0.0,29.65,1005.3,,,,71,,,,,,,TRACE,,.23 IN,,8/8 Overcast,700.0,,OVC,700.0,,,,,,
KRDR,10-17-2006,17:35,SPECI,,350,18.0,25.0,340/27KTS,8000.0,Light Snow/Rain,1.0,0.0,29.65,1005.1,,,,61,71,,,,,,,,,,8/8 Overcast,1000.0,,OVC,1000.0,,,,,,
KRDR,10-17-2006,17:27,SPECI,,350,17.0,26.0,340/27KTS,9999.0,Snow Grains/Rain,1.0,0.0,29.64,1004.9,,,,61,77,,,,,,,,,,8/8 Overcast,800.0,,OVC,800.0,,,,,,
KRDR,10-17-2006,17:00,METAR,,350,18.0,23.0,350/28KTS,9999.0,Rain/Mist,1.0,0.0,29.63,1004.6,,,,61,10,,,,,,TRACE,,,,8/8 Overcast,900.0,,OVC,900.0,,,,,,
KRDR,10-17-2006,16:00,METAR,,350,20.0,25.0,000/29KTS,9999.0,Rain,1.0,0.0,29.61,1004.0,,,,61,,,,,,,TRACE,,,,8/8 Overcast,900.0,,OVC,900.0,,,,,,
KRDR,10-17-2006,15:29,SPECI,,350,17.0,27.0,000/29KTS,9999.0,Rain,1.0,0.0,29.60,1003.7,,,,61,,,,,,,,,,,8/8 Overcast,700.0,,OVC,700.0,,,,,,
KRDR,10-17-2006,15:00,METAR,,350,22.0,29.0,350/29KTS,9999.0,Rain,1.0,0.0,29.59,1003.3,,,,61,,,,,,,TRACE,.2 IN,,,8/8 Overcast,900.0,,BKN,900.0,OVC,1300.0,,,,
KRDR,10-17-2006,14:00,METAR,,360,19.0,24.0,010/29KTS,9999.0,Rain,1.0,1.0,29.57,1002.6,,,,61,,,,,,,TRACE,,,,8/8 Overcast,700.0,,OVC,700.0,,,,,,
KRDR,10-17-2006,13:00,METAR,,360,18.0,26.0,000/27KTS,8000.0,Rain/Mist,2.0,1.0,29.55,1001.8,,,,61,10,,,,,,TRACE,,,,8/8 Overcast,600.0,,BKN,600.0,OVC,1000.0,,,,
KRDR,10-17-2006,12:00,METAR,,360,18.0,27.0,010/32KTS,9999.0,Rain,2.0,1.0,29.54,1001.7,,,,61,,,,,,,TRACE,,.38 IN,.43 IN,8/8 Overcast,300.0,,OVC,300.0,,,,,,
KRDR,10-17-2006,11:54,SPECI,,360,19.0,26.0,,9999.0,Rain,2.0,1.0,29.55,1001.8,,,,61,,,,,,,,,,,8/8 Overcast,400.0,,OVC,400.0,,,,,,
KRDR,10-17-2006,11:00,METAR,,360,21.0,29.0,020/29KTS,9999.0,Rain,3.0,2.0,29.52,1000.8,,,,61,,,,,,,,,,,8/8 Overcast,600.0,,OVC,600.0,,,,,,
KRDR,10-17-2006,10:00,METAR,,10,20.0,29.0,020/29KTS,9999.0,Rain/Mist,3.0,3.0,29.49,999.8,,,,61,10,,,,,,,,,,8/8 Overcast,500.0,,OVC,500.0,,,,,,
KRDR,10-17-2006,09:00,METAR,,10,17.0,23.0,,9999.0,Fog or Ice Fog,4.0,3.0,29.51,1000.5,,,,40,,,,,,,TRACE,TRACE,,,8/8 Overcast,100.0,,OVC,100.0,,,,,,
KRDR,10-17-2006,08:00,METAR,,360,13.0,24.0,,8000.0,Rain,4.0,3.0,29.50,1000.3,,,,63,,,,,,,,,,,8/8 Overcast,300.0,,OVC,300.0,,,,,,
KRDR,10-17-2006,07:00,METAR,,360,13.0,21.0,,9999.0,Rain,4.0,4.0,29.49,1000.0,,,,61,,,,,,,,,,,8/8 Overcast,400.0,,OVC,400.0,,,,,,
KRDR,10-17-2006,06:00,METAR,,10,13.0,23.0,,9999.0,Rain,5.0,4.0,29.49,999.9,,,,61,,,,,,,,,.04 IN,,8/8 Overcast,400.0,,OVC,400.0,,,,,,
KRDR,10-17-2006,05:00,METAR,,10,11.0,,,8000.0,Mist,5.0,5.0,29.50,1000.3,,,,10,,,,,,,,,,,8/8 Overcast,300.0,,OVC,300.0,,,,,,
KRDR,10-17-2006,04:42,SPECI,,10,12.0,,,8000.0,Mist,6.0,5.0,29.49,,,,,10,,,,,,,,,,,8/8 Overcast,300.0,,OVC,300.0,,,,,,
KRDR,10-17-2006,04:00,METAR,,20,12.0,,,9999.0,Drizzle/Mist,6.0,5.0,29.48,999.4,,,,51,10,,,,,,,,,,8/8 Overcast,300.0,,OVC,300.0,,,,,,
KRDR,10-17-2006,03:00,METAR,,10,15.0,20.0,,4800.0,Mist,7.0,6.0,29.49,999.8,,,,,10,,,,,,,.03 IN,,,8/8 Overcast,300.0,,OVC,300.0,,,,,,
KRDR,10-17-2006,02:00,METAR,,10,13.0,,,4800.0,Rain/Mist,8.0,8.0,29.48,999.7,,,,61,10,,,,,,,,,,8/8 Overcast,300.0,,OVC,300.0,,,,,,
KRDR,10-17-2006,01:08,SPECI,,330,6.0,,,4800.0,Drizzle/Mist,10.0,10.0,29.47,,,,,51,10,,,,,,,,,,8/8 Overcast,300.0,,OVC,300.0,,,,,,
KRDR,10-17-2006,01:00,METAR,,70,4.0,,,1600.0,Drizzle/Mist,11.0,10.0,29.47,999.2,,,,51,10,,,,,,,,,,8/8 Overcast,300.0,,OVC,300.0,,,,,,
KRDR,10-17-2006,00:43,SPECI,,70,4.0,,,1600.0,Drizzle/Mist,11.0,10.0,29.47,,,,,51,10,,,,,,,,,,7/8 Mostly Cloudy,300.0,,BKN,300.0,,,,,,
KRDR,10-17-2006,00:00,METAR,,90,5.0,,,4800.0,Drizzle/Mist,11.0,10.0,29.45,998.6,,,,51,10,,,,,,,,.01 IN,,8/8 Overcast,300.0,,OVC,300.0,,,,,,
KRDR,10-16-2006,23:09,SPECI,,90,5.0,,,4800.0,Mist,11.0,11.0,29.44,,,,,10,,,,,,,,,,,8/8 Overcast,200.0,,OVC,200.0,,,,,,
KRDR,10-16-2006,23:00,METAR,,110,6.0,,,3200.0,Drizzle/Mist,11.0,11.0,29.43,998.0,,,,51,10,,,,,,,,,,8/8 Overcast,300.0,,OVC,300.0,,,,,,
KRDR,10-16-2006,22:40,SPECI,,120,6.0,,,2800.0,Drizzle/Mist,11.0,11.0,29.43,,,,,51,10,,,,,,,,,,8/8 Overcast,300.0,,OVC,300.0,,,,,,
KRDR,10-16-2006,22:27,SPECI,,120,6.0,,,2400.0,Drizzle/Mist,11.0,11.0,29.43,,,,,51,10,,,,,,,,,,8/8 Overcast,300.0,,OVC,300.0,,,,,,
KRDR,10-16-2006,22:03,SPECI,,120,5.0,,,2800.0,Drizzle/Mist,12.0,11.0,29.43,,,,,51,10,,,,,,,,,,8/8 Overcast,300.0,,OVC,300.0,,,,,,
KRDR,10-16-2006,22:00,METAR,,120,6.0,,,3200.0,Drizzle/Mist,12.0,11.0,29.43,997.9,,,,51,10,,,,,,,,,,8/8 Overcast,300.0,,OVC,300.0,,,,,,
KRDR,10-16-2006,21:49,SPECI,,120,5.0,,,4000.0,Drizzle/Mist,12.0,11.0,29.43,,,,,51,10,,,,,,,,,,8/8 Overcast,400.0,,OVC,400.0,,,,,,
KRDR,10-16-2006,21:18,SPECI,,140,8.0,,,4800.0,Mist,12.0,11.0,29.42,,,,,10,,,,,,,,,,,8/8 Overcast,400.0,,OVC,400.0,,,,,,
KRDR,10-16-2006,21:00,METAR,,160,10.0,,,4800.0,Mist,12.0,11.0,29.42,997.4,,,,10,,,,,,,,,,,8/8 Overcast,500.0,,OVC,500.0,,,,,,
KRDR,10-16-2006,20:00,METAR,,160,8.0,,,4800.0,Mist,12.0,11.0,29.43,997.8,,,,10,,,,,,,,,,,8/8 Overcast,500.0,,OVC,500.0,,,,,,
KRDR,10-16-2006,19:32,SPECI,,160,10.0,,,6400.0,Mist,12.0,11.0,29.43,,,,,10,,,,,,,,,,,8/8 Overcast,400.0,,OVC,400.0,,,,,,
KRDR,10-16-2006,19:00,METAR,,160,11.0,,,4800.0,Mist,12.0,11.0,29.43,997.9,,,,10,,,,,,,,,,,8/8 Overcast,300.0,,OVC,300.0,,,,,,
KRDR,10-16-2006,18:33,SPECI,,160,10.0,,,3200.0,Mist,12.0,11.0,29.43,,,,,10,,,,,,,,,,,8/8 Overcast,300.0,,OVC,300.0,,,,,,
KRDR,10-16-2006,18:11,SPECI,,150,10.0,,,2400.0,Mist,12.0,11.0,29.43,,,,,10,,,,,,,,,,,8/8 Overcast,200.0,,OVC,200.0,,,,,,
KRDR,10-16-2006,18:00,METAR,,140,8.0,,,1600.0,Mist,11.0,11.0,29.43,997.9,,,,10,,,,,,,,,,,8/8 Overcast,200.0,,OVC,200.0,,,,,,
KRDR,10-16-2006,17:20,METAR,,140,11.0,,,2400.0,Mist,10.0,10.0,29.43,,,,,10,,,,,,,,,,,8/8 Overcast,300.0,,OVC,300.0,,,,,,
KRDR,10-16-2006,17:00,METAR,,150,11.0,19.0,,3200.0,Mist,10.0,10.0,29.44,998.2,,,,10,,,,,,,,,,,8/8 Overcast,300.0,,OVC,300.0,,,,,,
KRDR,10-16-2006,16:40,SPECI,,150,11.0,,,3200.0,Mist,10.0,10.0,29.44,,,,,10,,,,,,,,,,,8/8 Overcast,300.0,,OVC,300.0,,,,,,
KRDR,10-16-2006,16:00,METAR,,130,16.0,,,4000.0,Mist,10.0,9.0,29.44,998.3,,,,10,,,,,,,,,,,8/8 Overcast,300.0,,OVC,300.0,,,,,,
KRDR,10-16-2006,15:24,SPECI,,130,17.0,23.0,,4000.0,Mist,9.0,9.0,29.45,,,,,10,,,,,,,,,,,8/8 Overcast,300.0,,OVC,300.0,,,,,,
KRDR,10-16-2006,15:00,METAR,,130,14.0,,,2400.0,Mist,9.0,9.0,29.45,998.5,,,,10,,,,,,,,,,,8/8 Overcast,200.0,,OVC,200.0,,,,,,
KRDR,10-16-2006,14:35,SPECI,,120,14.0,,,2000.0,Mist,9.0,8.0,29.45,,,,,10,,,,,,,,,,,8/8 Overcast,200.0,,OVC,200.0,,,,,,
KRDR,10-16-2006,14:18,SPECI,,120,12.0,,,1600.0,Mist,8.0,8.0,29.45,998.7,,,,10,,,,,,,,,,,8/8 Overcast,200.0,,OVC,200.0,,,,,,
KRDR,10-16-2006,14:09,SPECI,,120,11.0,,,2000.0,Mist,8.0,8.0,29.46,998.9,,,,10,,,,,,,,,,,8/8 Overcast,200.0,,OVC,200.0,,,,,,
KRDR,10-16-2006,14:00,METAR,,120,12.0,,,2400.0,,8.0,8.0,29.46,999.0,,,,,,,,,,,,,,,8/8 Overcast,300.0,,OVC,300.0,,,,,,
KRDR,10-16-2006,13:08,SPECI,,130,11.0,,,2400.0,Mist,7.0,7.0,29.48,,,,,10,,,,,,,,,,,8/8 Overcast,300.0,,OVC,300.0,,,,,,
KRDR,10-16-2006,13:00,METAR,,130,11.0,,,3200.0,Mist,7.0,7.0,29.48,999.5,,,,10,,,,,,,,,,,8/8 Overcast,300.0,,OVC,300.0,,,,,,
KRDR,10-16-2006,12:47,SPECI,,130,13.0,,,4000.0,Mist,7.0,6.0,29.48,,,,,10,,,,,,,,,,,8/8 Overcast,300.0,,OVC,300.0,,,,,,
KRDR,10-16-2006,12:30,METAR,,130,11.0,,,3200.0,Mist,7.0,6.0,29.48,,,,,10,,,,,,,,,,,8/8 Overcast,400.0,,OVC,400.0,,,,,,
KRDR,10-16-2006,12:18,SPECI,,130,9.0,,,9999.0,,7.0,5.0,29.48,,,,,,,,,,,,,,,,8/8 Overcast,800.0,,SCT,300.0,OVC,800.0,,,,
KRDR,10-16-2006,12:00,METAR,,150,9.0,,,9999.0,,7.0,5.0,29.49,999.8,,,,,,,,,,,,,,,8/8 Overcast,1000.0,,SCT,800.0,OVC,1000.0,,,,
KRDR,10-16-2006,11:41,SPECI,,140,8.0,,,9999.0,,7.0,4.0,29.49,,,,,,,,,,,,,,,,8/8 Overcast,1000.0,,BKN,1000.0,OVC,25000.0,,,,
KRDR,10-16-2006,11:00,METAR,,130,8.0,,,9999.0,,5.0,3.0,29.48,999.7,,,,,,,,,,,,,,,7/8 Mostly Cloudy,25000.0,,FEW,11000.0,BKN,25000.0,,,,
KRDR,10-16-2006,10:00,METAR,,130,7.0,,,9999.0,,6.0,4.0,29.50,1000.1,,,,,,,,,,,,,,,7/8 Mostly Cloudy,25000.0,,FEW,11000.0,BKN,25000.0,,,,
KRDR,10-16-2006,09:00,METAR,,130,8.0,,,9999.0,,5.0,2.0,29.51,1000.5,,,,,,,,,,,,,,,7/8 Mostly Cloudy,25000.0,,BKN,25000.0,,,,,,
KRDR,10-16-2006,08:00,METAR,,140,6.0,,,9999.0,,5.0,1.0,29.53,1001.3,,,,,,,,,,,,,,,7/8 Mostly Cloudy,25000.0,,BKN,25000.0,,,,,,
KRDR,10-16-2006,07:00,METAR,,140,6.0,,,9999.0,,5.0,0.0,29.55,1001.9,,,,,,,,,,,,,,,7/8 Mostly Cloudy,25000.0,,BKN,25000.0,,,,,,
KRDR,10-16-2006,06:00,METAR,,140,6.0,,,9999.0,,5.0,0.0,29.57,1002.5,,,,,,,,,,,,,,,7/8 Mostly Cloudy,25000.0,,BKN,25000.0,,,,,,
KRDR,10-16-2006,05:00,METAR,,150,6.0,,,9999.0,,5.0,0.0,29.58,1002.9,,,,,,,,,,,,,,,7/8 Mostly Cloudy,25000.0,,FEW,12000.0,BKN,25000.0,,,,
KRDR,10-16-2006,04:00,METAR,,140,7.0,,,9999.0,,7.0,0.0,29.58,1003.0,,,,,,,,,,,,,,,7/8 Mostly Cloudy,25000.0,,FEW,12000.0,BKN,25000.0,,,,
KRDR,10-16-2006,03:00,METAR,,130,5.0,,,9999.0,,7.0,-1.0,29.60,1003.6,,,,,,,,,,,,,,,7/8 Mostly Cloudy,25000.0,,FEW,12000.0,BKN,25000.0,,,,
KRDR,10-16-2006,02:00,METAR,,130,7.0,,,9999.0,,9.0,-1.0,29.62,1004.1,,,,,,,,,,,,,,,8/8 Overcast,25000.0,,FEW,12000.0,OVC,25000.0,,,,
KRDR,10-16-2006,01:00,METAR,,120,6.0,,,9999.0,,9.0,-1.0,29.63,1004.5,,,,,,,,,,,,,,,7/8 Mostly Cloudy,25000.0,,BKN,25000.0,,,,,,
KRDR,10-16-2006,00:00,METAR,,110,6.0,,,9999.0,,10.0,0.0,29.63,1004.5,,,,,,,,,,,,,,,7/8 Mostly Cloudy,25000.0,,FEW,12000.0,BKN,25000.0,,,,
KRDR,10-15-2006,23:00,METAR,,140,5.0,,,9999.0,,12.0,0.0,29.65,1005.1,,,,,,,,,,,,,,,7/8 Mostly Cloudy,25000.0,,FEW,12000.0,BKN,25000.0,,,,
KRDR,10-15-2006,22:00,METAR,,170,7.0,,,9999.0,,12.0,-1.0,29.66,1005.7,,,,,,,,,,,,,,,7/8 Mostly Cloudy,25000.0,,BKN,25000.0,,,,,,
KRDR,10-15-2006,21:00,METAR,,170,9.0,,,9999.0,,13.0,-2.0,29.67,1005.9,,,,,,,,,,,,,,,7/8 Mostly Cloudy,25000.0,,BKN,25000.0,,,,,,
KRDR,10-15-2006,20:00,METAR,,170,8.0,,,9999.0,,13.0,-3.0,29.69,1006.6,,,,,,,,,,,,,,,7/8 Mostly Cloudy,25000.0,,BKN,25000.0,,,,,,
KRDR,10-15-2006,19:00,METAR,,180,8.0,,,9999.0,,11.0,-3.0,29.72,1007.6,,,,,,,,,,,,,,,7/8 Mostly Cloudy,25000.0,,BKN,25000.0,,,,,,
KRDR,10-15-2006,18:00,METAR,,140,10.0,,,9999.0,,11.0,-5.0,29.74,1008.1,,,,,,,,,,,,,,,7/8 Mostly Cloudy,25000.0,,FEW,18000.0,BKN,25000.0,,,,
KRDR,10-15-2006,17:00,METAR,,160,6.0,,,9999.0,,8.0,-5.0,29.75,1008.6,,,,,,,,,,,,,,,7/8 Mostly Cloudy,25000.0,,FEW,18000.0,BKN,25000.0,,,,
KRDR,10-15-2006,16:00,METAR,,150,5.0,,,9999.0,,5.0,-5.0,29.77,1009.1,,,,,,,,,,,,,,,7/8 Mostly Cloudy,25000.0,,SCT,18000.0,BKN,25000.0,,,,
KRDR,10-15-2006,15:00,METAR,,140,7.0,,,9999.0,,2.0,-4.0,29.78,1009.4,,,,,,,,,,,,,,,7/8 Mostly Cloudy,18000.0,,BKN,18000.0,BKN,25000.0,,,,
KRDR,10-15-2006,14:00,METAR,,,0.0,,,9999.0,,1.0,-5.0,29.79,1009.7,,,,,,,,,,,,,,,8/8 Overcast,12000.0,,BKN,12000.0,OVC,25000.0,,,,
KRDR,10-15-2006,13:00,METAR,,200,4.0,,,9999.0,,0.0,-6.0,29.78,1009.4,,,,,,,,,,,,,,,7/8 Mostly Cloudy,12000.0,,BKN,12000.0,,,,,,
KRDR,10-15-2006,12:00,METAR,,220,4.0,,,9999.0,,-1.0,-7.0,29.79,1009.8,,,,,,,,,,,,,,,7/8 Mostly Cloudy,25000.0,,BKN,25000.0,,,,,,
KRDR,10-15-2006,11:00,METAR,,230,2.0,,,9999.0,,-3.0,-9.0,29.78,1009.5,,,,,,,,,,,,,,,7/8 Mostly Cloudy,25000.0,,BKN,25000.0,,,,,,
KRDR,10-15-2006,10:00,METAR,,190,5.0,,,9999.0,,-3.0,-9.0,29.79,1009.8,,,,,,,,,,,,,,,4/8 Partly Cloudy,72000.0,,FEW,6400.0,SCT,25000.0,,,,
KRDR,10-15-2006,09:00,METAR,,260,5.0,,,9999.0,,-3.0,-9.0,29.81,1010.4,,,,,,,,,,,,,,,7/8 Mostly Cloudy,25000.0,,SCT,6400.0,BKN,25000.0,,,,
KRDR,10-15-2006,08:00,METAR,,230,6.0,,,9999.0,,-3.0,-10.0,29.82,1010.7,,,,,,,,,,,,,,,7/8 Mostly Cloudy,25000.0,,BKN,25000.0,,,,,,
KRDR,10-15-2006,07:00,METAR,,230,4.0,,,9999.0,,-2.0,-10.0,29.82,1010.9,,,,,,,,,,,,,,,4/8 Partly Cloudy,72000.0,,SCT,25000.0,,,,,,
KRDR,10-15-2006,06:00,METAR,,230,5.0,,,9999.0,,-3.0,-10.0,29.83,1011.2,,,,,,,,,,,,,,,2/8 Mostly Clear,72000.0,,FEW,25000.0,,,,,,
KRDR,10-15-2006,05:00,METAR,,230,5.0,,,9999.0,,-3.0,-10.0,29.84,1011.5,,,,,,,,,,,,,,,2/8 Mostly Clear,72000.0,,FEW,25000.0,,,,,,
KRDR,10-15-2006,04:00,METAR,,230,6.0,,,9999.0,,-4.0,-10.0,29.86,1012.0,,,,,,,,,,,,,,,2/8 Mostly Clear,72000.0,,FEW,25000.0,,,,,,
KRDR,10-15-2006,03:00,METAR,,260,5.0,,,9999.0,,-3.0,-10.0,29.86,1012.2,,,,,,,,,,,,,,,2/8 Mostly Clear,72000.0,,FEW,25000.0,,,,,,
KRDR,10-15-2006,02:00,METAR,,270,7.0,,,9999.0,,-1.0,-10.0,29.87,1012.5,,,,,,,,,,,,,,,Clear,72000.0,,,73000.0,,,,,,
KRDR,10-15-2006,01:00,METAR,,260,7.0,,,9999.0,,0.0,-10.0,29.88,1012.7,,,,,,,,,,,,,,,2/8 Mostly Clear,72000.0,,FEW,25000.0,,,,,,
KRDR,10-15-2006,00:00,METAR,,250,8.0,,,9999.0,,3.0,-11.0,29.88,1012.6,,,,,,,,,,,,,,,4/8 Partly Cloudy,72000.0,,SCT,25000.0,,,,,,
KRDR,10-14-2006,23:00,METAR,,280,7.0,,,9999.0,,8.0,-11.0,29.88,1012.9,,,,,,,,,,,,,,,4/8 Partly Cloudy,72000.0,,SCT,25000.0,,,,,,
KRDR,10-14-2006,22:00,METAR,,310,7.0,,,9999.0,,9.0,-11.0,29.90,1013.5,,,,,,,,,,,,,,,7/8 Mostly Cloudy,25000.0,,BKN,25000.0,,,,,,
KRDR,10-14-2006,21:00,METAR,,280,10.0,,,9999.0,,9.0,-11.0,29.91,1013.9,,,,,,,,,,,,,,,4/8 Partly Cloudy,72000.0,,SCT,25000.0,,,,,,
KRDR,10-14-2006,20:00,METAR,,310,8.0,17.0,,9999.0,,9.0,-11.0,29.93,1014.4,,,,,,,,,,,,,,,4/8 Partly Cloudy,72000.0,,SCT,25000.0,,,,,,
KRDR,10-14-2006,19:00,METAR,,300,12.0,17.0,,9999.0,,8.0,-11.0,29.95,1015.1,,,,,,,,,,,,,,,2/8 Mostly Clear,72000.0,,FEW,25000.0,,,,,,
KRDR,10-14-2006,18:00,METAR,,310,15.0,18.0,,9999.0,,7.0,-11.0,29.97,1015.8,,,,,,,,,,,,,,,2/8 Mostly Clear,72000.0,,FEW,25000.0,,,,,,
KRDR,10-14-2006,17:00,METAR,,300,15.0,20.0,,9999.0,,6.0,-11.0,29.98,1016.1,,,,,,,,,,,,,,,Clear,72000.0,,,73000.0,,,,,,
KRDR,10-14-2006,16:00,METAR,,310,15.0,,,9999.0,,4.0,-9.0,29.99,1016.4,,,,,,,,,,,,,,,Clear,72000.0,,,73000.0,,,,,,
KRDR,10-14-2006,15:00,METAR,,320,12.0,,,9999.0,,1.0,-9.0,29.99,1016.3,,,,,,,,,,,,,,,Clear,72000.0,,,73000.0,,,,,,
KRDR,10-14-2006,14:00,METAR,,300,9.0,,,9999.0,,-2.0,-10.0,29.99,1016.3,,,,,,,,,,,,,,,Clear,72000.0,,,73000.0,,,,,,
KRDR,10-14-2006,13:00,METAR,,300,10.0,,,9999.0,,-4.0,-10.0,29.98,1015.9,,,,,,,,,,,,,,,Clear,72000.0,,,73000.0,,,,,,
KRDR,10-14-2006,12:00,METAR,,300,7.0,,,9999.0,,-4.0,-10.0,29.97,1015.6,,,,,,,,,,,,,,,Clear,72000.0,,,73000.0,,,,,,
KRDR,10-14-2006,11:00,METAR,,300,8.0,,,9999.0,,-3.0,-10.0,29.95,1015.0,,,,,,,,,,,,,,,Clear,72000.0,,,73000.0,,,,,,
KRDR,10-14-2006,10:00,METAR,,310,9.0,,,9999.0,,-2.0,-10.0,29.94,1014.8,,,,,,,,,,,,,,,Clear,72000.0,,,73000.0,,,,,,
KRDR,10-14-2006,09:00,METAR,,300,8.0,,,9999.0,,-2.0,-9.0,29.94,1014.6,,,,,,,,,,,,,,,Clear,72000.0,,,73000.0,,,,,,
KRDR,10-14-2006,08:00,METAR,,310,9.0,,,9999.0,,-1.0,-9.0,29.93,1014.4,,,,,,,,,,,,,,,Clear,72000.0,,,73000.0,,,,,,
KRDR,10-14-2006,07:00,METAR,,300,10.0,,,9999.0,,-1.0,-8.0,29.91,1013.9,,,,,,,,,,,,,,,2/8 Mostly Clear,72000.0,,FEW,5900.0,,,,,,
KRDR,10-14-2006,06:00,METAR,,310,6.0,,,9999.0,,0.0,-8.0,29.90,1013.6,,,,,,,,,,,,,,,2/8 Mostly Clear,72000.0,,FEW,5900.0,,,,,,
KRDR,10-14-2006,05:00,METAR,,340,12.0,,,9999.0,,2.0,-8.0,29.89,1013.1,,,,,,,,,,,,,,,7/8 Mostly Cloudy,4900.0,,BKN,5000.0,,,,,,
KRDR,10-14-2006,04:00,METAR,,360,13.0,,,9999.0,,3.0,-8.0,29.88,1012.6,,,,,,,,,,,,,,,7/8 Mostly Cloudy,7000.0,,BKN,6900.0,,,,,,
KRDR,10-14-2006,03:00,METAR,,360,11.0,17.0,,9999.0,,3.0,-8.0,29.87,1012.4,,,,,,,,,,,,,,,8/8 Overcast,4900.0,,OVC,5000.0,,,,,,
KRDR,10-14-2006,02:00,METAR,,360,15.0,22.0,,9999.0,,4.0,-8.0,29.85,1011.7,,,,,,,,,,,,,,,7/8 Mostly Cloudy,7000.0,,BKN,6900.0,,,,,,
KRDR,10-14-2006,01:00,METAR,,360,13.0,25.0,360/27KTS,9999.0,,5.0,-9.0,29.82,1010.7,,,,,,,,,,,,,,,8/8 Overcast,7000.0,,OVC,6900.0,,,,,,
KRDR,10-14-2006,00:00,METAR,,10,16.0,26.0,340/33KTS,9999.0,,6.0,-11.0,29.79,1009.7,,,,,,,,,,,,,,,7/8 Mostly Cloudy,7000.0,,BKN,6900.0,,,,,,
KRDR,10-13-2006,23:00,METAR,,330,18.0,30.0,330/33KTS,9999.0,,7.0,-10.0,29.75,1008.4,,,,,,,,,,,,,,,7/8 Mostly Cloudy,15000.0,,SCT,5900.0,BKN,15000.0,,,,
KRDR,10-13-2006,22:00,METAR,,330,24.0,31.0,330/38KTS,9999.0,,7.0,-10.0,29.72,1007.5,,,,,,,,,,,,,,,4/8 Partly Cloudy,72000.0,,SCT,15000.0,,,,,,
KRDR,10-13-2006,21:00,METAR,,330,26.0,34.0,330/36KTS,9999.0,,7.0,-9.0,29.69,1006.6,,,,,,,,,,,,,,,Clear,72000.0,,,73000.0,,,,,,
KRDR,10-13-2006,20:00,METAR,,330,24.0,33.0,320/36KTS,9999.0,,7.0,-10.0,29.68,1006.2,,,,,,,,,,,,,,,2/8 Mostly Clear,72000.0,,FEW,9900.0,,,,,,
KRDR,10-13-2006,19:00,METAR,,330,20.0,34.0,330/34KTS,9999.0,,7.0,-9.0,29.67,1006.0,,,,,,,,,,,,,,,2/8 Mostly Clear,72000.0,,FEW,9900.0,,,,,,
KRDR,10-13-2006,18:00,METAR,,320,23.0,34.0,340/35KTS,9999.0,,6.0,-8.0,29.67,1005.8,,,,,,,,,,,,,,,2/8 Mostly Clear,72000.0,,FEW,9900.0,,,,,,
KRDR,10-13-2006,17:00,METAR,,330,26.0,31.0,350/36KTS,9999.0,,5.0,-7.0,29.66,1005.4,,,,,,,,,,,,,,,2/8 Mostly Clear,72000.0,,FEW,12000.0,,,,,,
KRDR,10-13-2006,16:00,METAR,,330,21.0,31.0,330/33KTS,9999.0,,3.0,-7.0,29.65,1005.3,,,,,,,,,,,,,,,4/8 Partly Cloudy,72000.0,,SCT,12000.0,,,,,,
KRDR,10-13-2006,15:00,METAR,,320,19.0,32.0,330/32KTS,9999.0,,2.0,-6.0,29.64,1004.9,,,,,,,,,,,,,,,4/8 Partly Cloudy,72000.0,,FEW,4000.0,SCT,12000.0,,,,
KRDR,10-13-2006,14:00,METAR,,320,18.0,30.0,320/30KTS,9999.0,,0.0,-5.0,29.64,1004.7,,,,,,,,,,,,,,,4/8 Partly Cloudy,72000.0,,SCT,4000.0,SCT,9900.0,,,,
KRDR,10-13-2006,13:00,METAR,,320,17.0,26.0,320/34KTS,9999.0,,0.0,-6.0,29.63,1004.4,,,,,,,,,,,,,,,4/8 Partly Cloudy,72000.0,,SCT,4000.0,SCT,9900.0,,,,
KRDR,10-13-2006,12:00,METAR,,320,20.0,28.0,320/29KTS,9999.0,,0.0,-5.0,29.61,1004.0,,,,,,,,,,,,,,,2/8 Mostly Clear,72000.0,,FEW,4000.0,,,,,,
KRDR,10-13-2006,10:00,METAR,Normal,320,20.0,30.0,320/33KTS,,,1.0,-5.0,29.60,1003.5,,,,,,,,,,,,,,,,72000.0,,FEW,4000.0,,,,,,
KRDR,10-13-2006,09:00,METAR,,310,21.0,30.0,330/31KTS,9999.0,,1.0,-4.0,29.60,1003.5,,,,,,,,,,,,,,,4/8 Partly Cloudy,72000.0,,SCT,4000.0,,,,,,
KRDR,10-13-2006,08:00,METAR,,320,17.0,31.0,320/33KTS,9999.0,,1.0,-4.0,29.58,1002.9,,,,,,,,,,,,,,,4/8 Partly Cloudy,72000.0,,SCT,4500.0,,,,,,
KRDR,10-13-2006,07:00,METAR,,320,21.0,28.0,320/28KTS,9999.0,,2.0,-4.0,29.59,1003.1,,,,,,,,,,,,,,,8/8 Overcast,3200.0,,OVC,3300.0,,,,,,
KRDR,10-13-2006,06:00,METAR,,310,19.0,23.0,310/30KTS,9999.0,,1.0,-4.0,29.59,1003.3,,,,,,,,,,,,,,,7/8 Mostly Cloudy,3400.0,,BKN,3500.0,,,,,,
KRDR,10-13-2006,05:00,METAR,,320,20.0,27.0,320/34KTS,9999.0,,2.0,-4.0,29.60,1003.5,,,,,,,,,,,,,,,Clear,72000.0,,,73000.0,,,,,,
KRDR,10-13-2006,04:00,METAR,,320,19.0,33.0,310/33KTS,9999.0,,2.0,-4.0,29.61,1003.7,,,,,,,,,,,,,,,Clear,72000.0,,,73000.0,,,,,,
KRDR,10-13-2006,03:00,METAR,,320,22.0,31.0,320/31KTS,9999.0,,2.0,-4.0,29.62,1004.2,,,,,,,,,,,,,,,7/8 Mostly Cloudy,3900.0,,BKN,4000.0,,,,,,
KRDR,10-13-2006,02:00,METAR,,320,19.0,30.0,310/32KTS,9999.0,,2.0,-4.0,29.63,1004.4,,,,,,,,,,,,,,,2/8 Mostly Clear,72000.0,,FEW,4400.0,,,,,,
KRDR,10-13-2006,01:00,METAR,,320,18.0,26.0,330/36KTS,9999.0,,3.0,-4.0,29.64,1004.8,,,,,,,,,,,,,,,7/8 Mostly Cloudy,4100.0,,FEW,2700.0,BKN,4200.0,,,,
KRDR,10-13-2006,00:00,METAR,,330,23.0,33.0,330/34KTS,9999.0,,3.0,-3.0,29.65,1005.4,,,,,,,,,,,,,TRACE,,8/8 Overcast,3500.0,,SCT,2300.0,BKN,3600.0,OVC,7400.0,,
KRDR,10-12-2006,23:00,METAR,,330,26.0,34.0,330/35KTS,9999.0,,3.0,-3.0,29.65,1005.1,,,,,,,,,,,,,,,7/8 Mostly Cloudy,3200.0,,SCT,2700.0,BKN,3300.0,BKN,5900.0,,
KRDR,10-12-2006,22:16,SPECI,,330,22.0,31.0,,9999.0,,3.0,-3.0,29.64,,,,,,,,,,,,,,,,7/8 Mostly Cloudy,3500.0,,SCT,2700.0,BKN,3600.0,,,,
KRDR,10-12-2006,22:00,METAR,,320,19.0,34.0,320/38KTS,9999.0,Light Snow/Rain,3.0,-3.0,29.64,1005.0,,,,61,71,,,,,,,,,,8/8 Overcast,3100.0,,FEW,2600.0,OVC,3200.0,,,,
KRDR,10-12-2006,21:45,METAR,,330,26.0,37.0,320/38KTS,9999.0,Light Snow/Rain,3.0,-3.0,29.64,,,,,61,71,,,,,,,,,,8/8 Overcast,3100.0,,SCT,2800.0,OVC,3200.0,,,,
KRDR,10-12-2006,21:01,SPECI,,330,21.0,33.0,,9999.0,,4.0,-4.0,29.63,,,,,,,,,,,,,,,,8/8 Overcast,3300.0,,OVC,3400.0,,,,,,
KRDR,10-12-2006,21:00,METAR,,320,23.0,33.0,350/33KTS,9999.0,Rain,4.0,-4.0,29.63,1004.6,,,,61,,,,,,,,TRACE,,,7/8 Mostly Cloudy,3500.0,,BKN,3600.0,,,,,,
KRDR,10-12-2006,20:40,SPECI,,330,23.0,30.0,,9999.0,,4.0,-3.0,29.63,,,,,,,,,,,,,,,,7/8 Mostly Cloudy,3600.0,,BKN,3700.0,,,,,,
KRDR,10-12-2006,20:23,SPECI,,320,21.0,30.0,,9999.0,Light Snow/Rain,4.0,-4.0,29.63,,,,,61,71,,,,,,,,,,8/8 Overcast,4000.0,,OVC,4100.0,,,,,,
KRDR,10-12-2006,20:00,METAR,,340,24.0,36.0,340/37KTS,9999.0,,4.0,-6.0,29.63,1004.4,,,,,,,,,,,,,,,7/8 Mostly Cloudy,4100.0,,BKN,4200.0,,,,,,
KRDR,10-12-2006,19:00,METAR,,330,27.0,33.0,330/34KTS,9999.0,,4.0,-5.0,29.62,1004.3,,,,,,,,,,,,,,,7/8 Mostly Cloudy,3900.0,,SCT,2900.0,BKN,4000.0,,,,
KRDR,10-12-2006,18:39,SPECI,,350,23.0,33.0,330/34KTS,9999.0,,3.0,-5.0,29.63,,,,,,,,,,,,,,,,8/8 Overcast,2900.0,,BKN,2900.0,BKN,3700.0,OVC,3700.0,,
KRDR,10-12-2006,18:04,SPECI,,330,19.0,33.0,330/33KTS,9999.0,,3.0,-4.0,29.62,,,,,,,,,,,,,,,,8/8 Overcast,2900.0,,BKN,2900.0,OVC,3800.0,,,,
KRDR,10-12-2006,18:00,METAR,,340,22.0,34.0,340/35KTS,9999.0,Snow Grains,2.0,-4.0,29.62,1004.3,,,,77,,,,,,,,,TRACE,,8/8 Overcast,2400.0,,BKN,2400.0,OVC,3600.0,,,,
KRDR,10-12-2006,17:00,METAR,,350,19.0,26.0,340/28KTS,9999.0,Snow Grains,2.0,-2.0,29.61,1003.9,,,,77,,,,,,,,,,,7/8 Mostly Cloudy,1700.0,,FEW,600.0,BKN,2300.0,,,,
KRDR,10-12-2006,16:38,SPECI,,350,17.0,22.0,,8000.0,Light Snow,1.0,-2.0,29.61,,,,,71,,,,,,,,,,,7/8 Mostly Cloudy,2000.0,,BKN,2000.0,,,,,,
KRDR,10-12-2006,16:31,SPECI,,340,17.0,24.0,,4000.0,Light Snow,1.0,-2.0,29.61,,,,,71,,,,,,,,,,,7/8 Mostly Cloudy,1800.0,,FEW,400.0,BKN,1800.0,,,,
KRDR,10-12-2006,15:00,METAR,,320,20.0,29.0,320/30KTS,8000.0,Light Snow,0.0,-4.0,29.57,1002.6,,,,71,,,,,,,,TRACE,,,8/8 Overcast,2100.0,,SCT,2000.0,OVC,3000.0,,,,
KRDR,10-12-2006,14:00,METAR,,320,19.0,28.0,330/28KTS,9999.0,,-1.0,-5.0,29.55,1002.0,,,,,,,,,,,,,,,4/8 Partly Cloudy,72000.0,,FEW,2000.0,SCT,3000.0,,,,
KRDR,10-12-2006,13:00,METAR,,310,15.0,28.0,300/28KTS,9999.0,,-1.0,-5.0,29.56,1002.1,,,,,,,,,,,,,,,7/8 Mostly Cloudy,1800.0,,BKN,1800.0,BKN,3100.0,,,,
KRDR,10-12-2006,11:14,SPECI,,310,21.0,28.0,,8000.0,Light Snow/Mist,-2.0,-4.0,29.56,,,,,71,10,,,,,,,,,,8/8 Overcast,2400.0,,FEW,1600.0,OVC,2400.0,,,,
KRDR,10-12-2006,11:06,SPECI,,310,19.0,25.0,,4000.0,Light Snow,,,,,,,,71,,,,,,,,,,,8/8 Overcast,2000.0,,OVC,2000.0,,,,,,
KRDR,10-12-2006,11:00,METAR,,310,20.0,28.0,310/31KTS,2400.0,Light Snow/Blowing Snow,-2.0,-4.0,29.57,1002.5,,,,71,38,,,,,,,,,,8/8 Overcast,2000.0,,OVC,2000.0,,,,,,
KRDR,10-12-2006,10:00,METAR,,310,21.0,25.0,300/28KTS,4800.0,Light Snow/Mist,-2.0,-5.0,29.57,1002.5,,,,71,10,,,,,,,,,,8/8 Overcast,2700.0,,OVC,2700.0,,,,,,
KRDR,10-12-2006,09:00,METAR,,300,16.0,24.0,300/26KTS,6400.0,Light Snow/Mist,-3.0,-6.0,29.59,1003.3,,,,71,10,,,,,,,.01 IN,,,8/8 Overcast,2000.0,,OVC,2000.0,,,,,,
KRDR,10-12-2006,08:46,SPECI,,300,16.0,26.0,,6400.0,Light Snow/Mist,-3.0,-6.0,29.60,,,,,71,10,,,,,,,,,,8/8 Overcast,2000.0,,OVC,2000.0,,,,,,
KRDR,10-12-2006,08:00,METAR,,300,16.0,22.0,,3200.0,Light Snow/Mist,-3.0,-6.0,29.62,1004.1,,,,71,10,,,,,,,,,,8/8 Overcast,2000.0,,OVC,2000.0,,,,,,
KRDR,10-12-2006,07:07,SPECI,,300,15.0,24.0,,9999.0,Light Snow,-3.0,-9.0,29.64,,,,,71,,,,,,,,,,,7/8 Mostly Cloudy,2300.0,,BKN,2300.0,,,,,,
KRDR,10-12-2006,07:00,METAR,,310,14.0,20.0,,9999.0,,-3.0,-9.0,29.65,1005.0,,,,,,,,,,,,,,,7/8 Mostly Cloudy,2200.0,,BKN,2200.0,,,,,,
KRDR,10-12-2006,06:36,SPECI,,300,12.0,22.0,,9999.0,Light Snow,-3.0,-10.0,29.65,,,,,71,,,,,,,,,,,7/8 Mostly Cloudy,3000.0,,BKN,3000.0,,,,,,
KRDR,10-12-2006,06:00,METAR,,300,11.0,,,9999.0,,-3.0,-9.0,29.67,1006.0,,,,,,,,,,,,,TRACE,,8/8 Overcast,6000.0,,OVC,5900.0,,,,,,
KRDR,10-12-2006,05:00,METAR,,300,13.0,,,9999.0,,-4.0,-8.0,29.70,1007.0,,,,,,,,,,,,,,,8/8 Overcast,12000.0,,SCT,4500.0,OVC,12000.0,,,,
KRDR,10-12-2006,04:00,METAR,,300,10.0,,,9999.0,,-5.0,-8.0,29.73,1007.7,,,,,,,,,,,,,,,4/8 Partly Cloudy,72000.0,,SCT,20000.0,,,,,,
KRDR,10-12-2006,03:00,METAR,,310,8.0,,,9999.0,,-5.0,-8.0,29.74,1008.0,,,,,,,,,,,,TRACE,,,2/8 Mostly Clear,72000.0,,FEW,6900.0,,,,,,
KRDR,10-12-2006,02:00,METAR,,320,7.0,,,9999.0,,-5.0,-7.0,29.73,1007.8,,,,,,,,,,,,,,,2/8 Mostly Clear,72000.0,,FEW,5900.0,,,,,,
KRDR,10-12-2006,01:24,SPECI,,340,7.0,,,9999.0,,-3.0,-6.0,29.72,,,,,,,,,,,,,,,,7/8 Mostly Cloudy,3700.0,,SCT,2000.0,BKN,3800.0,BKN,25000.0,,
KRDR,10-12-2006,01:12,SPECI,,330,11.0,,,4800.0,Light Snow/Mist,-3.0,-6.0,29.72,,,,,71,10,,,,,,,,,,8/8 Overcast,3700.0,,FEW,300.0,SCT,2000.0,BKN,3800.0,OVC,25000.0
KRDR,10-12-2006,01:00,METAR,,300,8.0,,,9999.0,,-3.0,-6.0,29.71,1007.3,,,,,,,,,,,TRACE,,,,4/8 Partly Cloudy,72000.0,,FEW,5900.0,SCT,25000.0,,,,
KRDR,10-12-2006,00:39,SPECI,,310,7.0,,,9999.0,,-3.0,-5.0,29.71,,,,,,,,,,,,,,,,7/8 Mostly Cloudy,25000.0,,FEW,5900.0,BKN,25000.0,,,,
KRDR,10-12-2006,00:29,SPECI,Normal,310,7.0,,,,,-3.0,-6.0,29.71,,,,,,,,,,,,,,,,,72000.0,,FEW,3800.0,FEW,5900.0,SCT,25000.0,,
KRDR,10-12-2006,00:23,SPECI,,300,8.0,,,9999.0,,-3.0,-6.0,29.71,,,,,,,,,,,,,,,,4/8 Partly Cloudy,72000.0,,FEW,3800.0,FEW,5900.0,SCT,25000.0,,
KRDR,10-12-2006,00:00,METAR,,310,11.0,,,9999.0,Light Snow,-2.0,-5.0,29.71,,,,,71,,,,,,,,,,,8/8 Overcast,4300.0,,SCT,3800.0,BKN,4400.0,OVC,25000.0,,
KRDR,10-11-2006,23:00,METAR,,300,12.0,,,9999.0,,-1.0,-6.0,29.70,1006.8,,,,,,,,,,,,,,,7/8 Mostly Cloudy,4300.0,,FEW,3000.0,BKN,4400.0,BKN,20000.0,,
KRDR,10-11-2006,22:00,METAR,,310,10.0,,,9999.0,,0.0,-8.0,29.71,1007.0,,,,,,,,,,,,,,,8/8 Overcast,3900.0,,SCT,2500.0,BKN,4000.0,OVC,20000.0,,
KRDR,10-11-2006,20:00,METAR,,350,16.0,,330/26KTS,9999.0,,0.0,-9.0,29.72,1007.6,,,,,,,,,,,TRACE,,,,8/8 Overcast,3900.0,,SCT,2500.0,BKN,4000.0,OVC,20000.0,,
KRDR,10-11-2006,19:11,SPECI,,330,14.0,26.0,330/26KTS,9999.0,Fog or Ice Fog,-1.0,-7.0,29.75,1008.5,,,,40,,,,,,,,,,,7/8 Mostly Cloudy,4400.0,,FEW,700.0,SCT,3200.0,BKN,5400.0,,
KRDR,10-11-2006,19:00,METAR,,340,17.0,25.0,,9999.0,,-1.0,-8.0,29.75,1008.6,,,,,,,,,,,TRACE,,,,7/8 Mostly Cloudy,2700.0,,BKN,2700.0,BKN,3900.0,,,,
KRDR,10-11-2006,18:01,SPECI,,330,16.0,24.0,,9999.0,Light Snow,0.0,-8.0,29.76,,,,,71,,,,,,,,,,,7/8 Mostly Cloudy,2600.0,,BKN,2600.0,BKN,4300.0,,,,
KRDR,10-11-2006,18:00,METAR,,340,15.0,24.0,,9999.0,,-1.0,-7.0,29.76,1008.9,,,,,,,,,,,,,.01 IN,,7/8 Mostly Cloudy,2400.0,,FEW,300.0,BKN,2400.0,BKN,3600.0,,
KRDR,10-11-2006,17:36,SPECI,,330,18.0,24.0,,8000.0,Light Snow,0.0,-7.0,29.76,,,,,71,,,,,,,,,,,8/8 Overcast,2800.0,,FEW,400.0,BKN,2800.0,OVC,5000.0,,
KRDR,10-11-2006,17:19,SPECI,,340,13.0,21.0,,9999.0,,-1.0,-6.0,29.77,,,,,,,,,,,,,,,,7/8 Mostly Cloudy,2400.0,,FEW,1000.0,BKN,2400.0,BKN,3800.0,,
KRDR,10-11-2006,17:00,METAR,,340,17.0,22.0,,6400.0,Light Snow,-1.0,-6.0,29.78,1009.3,,,,71,,,,,,,,,,,8/8 Overcast,2200.0,,FEW,1600.0,BKN,2200.0,OVC,3100.0,,
KRDR,10-11-2006,16:47,SPECI,,340,17.0,21.0,,9999.0,Light Snow,-1.0,-6.0,29.78,,,,,71,,,,,,,,,,,7/8 Mostly Cloudy,2200.0,,FEW,1600.0,BKN,2200.0,BKN,3100.0,,
KRDR,10-11-2006,16:00,METAR,,340,15.0,22.0,,9999.0,,-2.0,-6.0,29.78,1009.6,,,,,,,,,,,,,,,7/8 Mostly Cloudy,2200.0,,BKN,2200.0,,,,,,
KRDR,10-11-2006,15:41,SPECI,,330,15.0,21.0,,9999.0,,-2.0,-6.0,29.79,,,,,,,,,,,,,,,,7/8 Mostly Cloudy,2100.0,,BKN,2100.0,,,,,,
KRDR,10-11-2006,15:00,METAR,,340,15.0,21.0,,9999.0,,-3.0,-6.0,29.79,1009.8,,,,,,,,,,,,TRACE,,,7/8 Mostly Cloudy,3700.0,,SCT,1600.0,BKN,3800.0,,,,
KRDR,10-11-2006,14:47,SPECI,Normal,330,14.0,22.0,,,,-2.0,-6.0,29.79,,,,,,,,,,,,,,,,,3700.0,,SCT,1700.0,BKN,3800.0,,,,
KRDR,10-11-2006,14:44,SPECI,,330,17.0,22.0,,9999.0,Light Snow,-2.0,-6.0,29.79,,,,,71,,,,,,,,,,,7/8 Mostly Cloudy,3900.0,,SCT,2600.0,BKN,4000.0,,,,
KRDR,10-11-2006,14:19,SPECI,,330,17.0,22.0,,9999.0,,-2.0,-5.0,29.79,,,,,,,,,,,,,,,,7/8 Mostly Cloudy,3900.0,,SCT,1500.0,BKN,4000.0,,,,
KRDR,10-11-2006,14:00,METAR,,330,18.0,21.0,,9999.0,Light Snow,-2.0,-5.0,29.78,1009.5,,,,71,,,,,,,,,,,8/8 Overcast,3700.0,,FEW,700.0,SCT,2300.0,OVC,3800.0,,
KRDR,10-11-2006,13:45,METAR,,330,15.0,21.0,,9999.0,Light Snow,-2.0,-5.0,29.78,,,,,71,,,,,,,,,,,8/8 Overcast,3100.0,,SCT,2100.0,OVC,3200.0,,,,
KRDR,10-11-2006,13:03,SPECI,,330,14.0,,,9999.0,,-2.0,-4.0,29.77,,,,,,,,,,,,,,,,7/8 Mostly Cloudy,3100.0,,SCT,1700.0,BKN,3200.0,,,,
KRDR,10-11-2006,13:00,METAR,,340,13.0,,,9999.0,,-2.0,-4.0,29.77,1009.1,,,,,,,,,,,,,,,7/8 Mostly Cloudy,3100.0,,SCT,1500.0,BKN,3100.0,,,,
KRDR,10-11-2006,12:15,SPECI,,340,16.0,20.0,,9999.0,,-2.0,-4.0,29.76,,,,,,,,,,,,,,,,8/8 Overcast,3000.0,,FEW,800.0,OVC,3000.0,,,,
KRDR,10-11-2006,12:00,METAR,,340,13.0,20.0,,9999.0,Light Snow,-2.0,-3.0,29.76,1008.7,,,,71,,,,,,,,,TRACE,.03 IN,8/8 Overcast,1000.0,,FEW,300.0,BKN,1000.0,OVC,1600.0,,
KRDR,10-11-2006,11:00,METAR,,350,14.0,23.0,,9999.0,Light Snow,-1.0,-3.0,29.75,1008.4,,,,71,,,,,,,,,,,8/8 Overcast,1300.0,,FEW,400.0,BKN,1300.0,OVC,1900.0,,
KRDR,10-11-2006,10:00,METAR,,340,12.0,,,9999.0,Light Snow,-1.0,-3.0,29.74,1008.1,,,,71,,,,,,,,,,,8/8 Overcast,1300.0,,SCT,700.0,BKN,1300.0,OVC,1700.0,,
KRDR,10-11-2006,09:00,METAR,,350,15.0,20.0,,9999.0,Light Snow,-2.0,-3.0,29.74,1008.1,,,,71,,,,,,,,TRACE,,,8/8 Overcast,500.0,,FEW,200.0,OVC,1200.0,,,,
KRDR,10-11-2006,08:16,SPECI,,340,15.0,19.0,,8000.0,Light Snow/Mist,-2.0,-4.0,29.73,,,,,71,10,,,,,,,,,,8/8 Overcast,1300.0,,FEW,300.0,OVC,1300.0,,,,
KRDR,10-11-2006,08:04,SPECI,,340,12.0,,,9999.0,,-2.0,-3.0,29.73,,,,,,,,,,,,,,,,8/8 Overcast,3000.0,,SCT,1600.0,OVC,3000.0,,,,
KRDR,10-11-2006,08:00,METAR,,340,12.0,,,9999.0,Light Snow,-2.0,-4.0,29.73,1007.8,,,,71,,,,,,,,,,,8/8 Overcast,1900.0,,SCT,1900.0,BKN,3000.0,OVC,5000.0,,
KRDR,10-11-2006,07:23,SPECI,,340,11.0,,,9999.0,Light Snow,-2.0,-4.0,29.73,,,,,71,,,,,,,,,,,8/8 Overcast,3100.0,,SCT,1400.0,SCT,2000.0,OVC,3200.0,,
KRDR,10-11-2006,07:00,METAR,,340,12.0,,,9999.0,Light Snow,-2.0,-4.0,29.73,1007.7,,,,71,,,,,,,,,,,8/8 Overcast,3800.0,,BKN,3900.0,OVC,4600.0,,,,
KRDR,10-11-2006,06:48,SPECI,,340,10.0,,,9999.0,Light Snow,-2.0,-4.0,29.73,,,,,71,,,,,,,,,,,8/8 Overcast,3600.0,,OVC,3700.0,,,,,,
KRDR,10-11-2006,06:00,METAR,Normal,350,11.0,,,,,-1.0,-4.0,29.73,1007.7,,,,,,,,,,,,,TRACE,,,4700.0,,FEW,2600.0,BKN,4800.0,,,,
KRDR,10-11-2006,05:02,SPECI,,10,15.0,,,9999.0,,-1.0,-3.0,29.72,,,,,,,,,,,,,,,,4/8 Partly Cloudy,72000.0,,FEW,800.0,SCT,2100.0,,,,
KRDR,10-11-2006,05:00,METAR,,10,15.0,,,9999.0,,-1.0,-2.0,29.72,1007.6,,,,,,,,,,,,,,,7/8 Mostly Cloudy,1300.0,,FEW,800.0,BKN,1700.0,,,,
KRDR,10-11-2006,04:00,METAR,,350,14.0,21.0,,9999.0,,0.0,-3.0,29.73,1007.9,,,,,,,,,,,,,,,8/8 Overcast,1700.0,,FEW,500.0,BKN,1700.0,BKN,4300.0,OVC,5000.0
KRDR,10-11-2006,03:36,SPECI,,350,12.0,24.0,,9999.0,,0.0,-1.0,29.73,,,,,,,,,,,,,,,,8/8 Overcast,2000.0,,FEW,300.0,BKN,2000.0,OVC,4100.0,,
KRDR,10-11-2006,03:23,SPECI,,340,17.0,25.0,,8000.0,Light Snow/Mist,0.0,0.0,29.74,,,,,71,10,,,,,,,,,,8/8 Overcast,1800.0,,FEW,300.0,SCT,1100.0,OVC,1800.0,,
KRDR,10-11-2006,03:03,SPECI,,360,8.0,,,9999.0,,0.0,0.0,29.74,,,,,,,,,,,,,,,,8/8 Overcast,1000.0,,SCT,400.0,BKN,1000.0,OVC,1700.0,,
KRDR,10-11-2006,03:00,METAR,,10,10.0,,,8000.0,Light Snow/Mist,0.0,0.0,29.74,1008.0,,,,71,10,,,,,,,TRACE,,,8/8 Overcast,600.0,,BKN,600.0,BKN,1000.0,OVC,2000.0,,
KRDR,10-11-2006,02:25,METAR,,10,9.0,,,6400.0,Light Snow/Mist,1.0,0.0,29.73,,,,,71,10,,,,,,,,,,8/8 Overcast,400.0,,BKN,400.0,OVC,1000.0,,,,
KRDR,10-11-2006,02:00,METAR,,360,12.0,17.0,,8000.0,Light Snow,1.0,0.0,29.73,1008.0,,,,71,,,,,,,,,,,8/8 Overcast,200.0,,OVC,600.0,,,,,,
KRDR,10-11-2006,01:28,SPECI,,360,13.0,19.0,,8000.0,Light Snow,1.0,0.0,29.73,,,,,71,,,,,,,,,,,8/8 Overcast,400.0,,BKN,400.0,OVC,1000.0,,,,
KRDR,10-11-2006,01:07,SPECI,,10,12.0,,,8000.0,Light Snow,1.0,0.0,29.72,,,,,71,,,,,,,,,,,8/8 Overcast,1000.0,,FEW,400.0,BKN,1000.0,OVC,2000.0,,
KRDR,10-11-2006,01:00,METAR,,10,17.0,24.0,340/27KTS,9999.0,Light Snow/Rain,1.0,0.0,29.72,1007.5,,,,61,71,,,,,,,,,,8/8 Overcast,1000.0,,FEW,300.0,BKN,1000.0,OVC,3000.0,,
KRDR,10-11-2006,00:08,SPECI,,320,17.0,23.0,,9999.0,Rain,4.0,2.0,29.70,,,,,61,,,,,,,,,,,8/8 Overcast,1000.0,,BKN,1000.0,OVC,4000.0,,,,
KRDR,10-11-2006,00:00,METAR,,310,15.0,,,9999.0,Drizzle,4.0,2.0,29.70,1006.8,,,,51,,,,,,,,,.03 IN,,8/8 Overcast,3900.0,,SCT,1000.0,OVC,4000.0,,,,
KRDR,10-10-2006,23:00,METAR,,310,21.0,26.0,320/32KTS,9999.0,Rain,5.0,3.0,29.69,1006.5,,,,61,,,,,,,,,,,8/8 Overcast,4500.0,,FEW,1600.0,BKN,4600.0,OVC,8900.0,,
KRDR,10-10-2006,22:08,SPECI,,290,16.0,21.0,,9999.0,Light Rain Showers,11.0,1.0,29.67,,,,,80,,,,,,,,,,,8/8 Overcast,5500.0,,BKN,5400.0,OVC,9900.0,,,,
KRDR,10-10-2006,22:00,METAR,,280,19.0,22.0,,9999.0,,11.0,2.0,29.67,1005.8,,,,,,,,,,,,,,,8/8 Overcast,5500.0,,BKN,5400.0,OVC,9900.0,,,,
KRDR,10-10-2006,21:00,METAR,,220,16.0,22.0,210/28KTS,9999.0,,11.0,1.0,29.70,1006.8,,,,,,,,,,,,,,,8/8 Overcast,4900.0,,BKN,5000.0,BKN,9900.0,OVC,20000.0,,
KRDR,10-10-2006,20:00,METAR,,220,23.0,28.0,240/30KTS,9999.0,,12.0,0.0,29.75,1008.4,,,,,,,,,,,,,,,8/8 Overcast,12000.0,,SCT,5900.0,BKN,12000.0,OVC,20000.0,,
KRDR,10-10-2006,19:00,METAR,,240,20.0,25.0,220/28KTS,9999.0,,12.0,0.0,29.80,1010.1,,,,,,,,,,,,,,,8/8 Overcast,20000.0,,FEW,5000.0,SCT,9900.0,OVC,20000.0,,
KRDR,10-10-2006,18:00,METAR,,230,22.0,28.0,230/28KTS,9999.0,,12.0,0.0,29.85,1011.9,,,,,,,,,,,,,,,8/8 Overcast,20000.0,,SCT,5000.0,SCT,12000.0,OVC,20000.0,,
KRDR,10-10-2006,17:00,METAR,,230,19.0,28.0,220/28KTS,9999.0,,13.0,0.0,29.90,1013.6,,,,,,,,,,,,,,,7/8 Mostly Cloudy,20000.0,,FEW,5000.0,FEW,12000.0,BKN,20000.0,,
KRDR,10-10-2006,16:00,METAR,,230,11.0,19.0,,9999.0,,11.0,0.0,29.97,1015.7,,,,,,,,,,,,,,,7/8 Mostly Cloudy,25000.0,,BKN,25000.0,,,,,,
KRDR,10-10-2006,15:00,METAR,,230,13.0,,,9999.0,,8.0,0.0,30.02,1017.5,,,,,,,,,,,,,,,7/8 Mostly Cloudy,25000.0,,BKN,25000.0,,,,,,
KRDR,10-10-2006,14:00,METAR,,230,6.0,,,9999.0,,4.0,-1.0,30.07,1019.0,,,,,,,,,,,,,,,4/8 Partly Cloudy,72000.0,,SCT,25000.0,,,,,,
KRDR,10-10-2006,13:00,METAR,,220,7.0,,,9999.0,,0.0,-3.0,30.10,1020.2,,,,,,,,,,,,,,,2/8 Mostly Clear,72000.0,,FEW,25000.0,,,,,,
KRDR,10-10-2006,12:00,METAR,,220,8.0,,,9999.0,,0.0,-4.0,30.13,1021.0,,,,,,,,,,,,,,,Clear,72000.0,,,73000.0,,,,,,
KRDR,10-10-2006,11:00,METAR,,230,7.0,,,9999.0,,-1.0,-5.0,30.16,1022.0,,,,,,,,,,,,,,,Clear,72000.0,,,73000.0,,,,,,
KRDR,10-10-2006,10:00,METAR,,220,7.0,,,9999.0,,-2.0,-5.0,30.19,1023.0,,,,,,,,,,,,,,,2/8 Mostly Clear,72000.0,,FEW,25000.0,,,,,,
KRDR,10-10-2006,09:00,METAR,,230,7.0,,,9999.0,,-1.0,-4.0,30.23,1024.3,,,,,,,,,,,,,,,2/8 Mostly Clear,72000.0,,FEW,25000.0,,,,,,
KRDR,10-10-2006,08:00,METAR,,230,6.0,,,9999.0,,-1.0,-4.0,30.26,1025.2,,,,,,,,,,,,,,,2/8 Mostly Clear,72000.0,,FEW,25000.0,,,,,,
KRDR,10-10-2006,07:00,METAR,,250,6.0,,,9999.0,,-1.0,-4.0,30.28,1025.9,,,,,,,,,,,,,,,Clear,72000.0,,,73000.0,,,,,,
KRDR,10-10-2006,06:00,METAR,,230,3.0,,,9999.0,,0.0,-4.0,30.30,1026.6,,,,,,,,,,,,,,,Clear,72000.0,,,73000.0,,,,,,
KRDR,10-10-2006,05:00,METAR,,230,3.0,,,9999.0,,-1.0,-4.0,30.32,1027.3,,,,,,,,,,,,,,,Clear,72000.0,,,73000.0,,,,,,
KRDR,10-10-2006,04:00,METAR,,250,5.0,,,9999.0,,-1.0,-4.0,30.34,1027.9,,,,,,,,,,,,,,,Clear,72000.0,,,73000.0,,,,,,
KRDR,10-10-2006,03:00,METAR,,240,4.0,,,9999.0,,1.0,-3.0,30.35,1028.3,,,,,,,,,,,,,,,Clear,72000.0,,,73000.0,,,,,,
KRDR,10-10-2006,02:00,METAR,,230,3.0,,,9999.0,,2.0,-2.0,30.36,1028.6,,,,,,,,,,,,,,,Clear,72000.0,,,73000.0,,,,,,
KRDR,10-10-2006,01:00,METAR,,290,3.0,,,9999.0,,4.0,-2.0,30.37,1029.0,,,,,,,,,,,,,,,2/8 Mostly Clear,72000.0,,FEW,25000.0,,,,,,
KRDR,10-10-2006,00:00,METAR,,310,3.0,,,9999.0,,8.0,-2.0,30.38,1029.1,,,,,,,,,,,,,,,2/8 Mostly Clear,72000.0,,FEW,25000.0,,,,,,
KRDR,10-09-2006,23:00,METAR,,310,4.0,,,9999.0,,9.0,-1.0,30.38,1029.4,,,,,,,,,,,,,,,2/8 Mostly Clear,72000.0,,FEW,5900.0,,,,,,
KRDR,10-09-2006,22:00,METAR,,20,10.0,,,9999.0,,13.0,-1.0,30.40,1029.8,,,,,,,,,,,,,,,4/8 Partly Cloudy,72000.0,,SCT,5900.0,,,,,,
KRDR,10-09-2006,21:00,METAR,,290,10.0,,,9999.0,,13.0,-2.0,30.41,1030.3,,,,,,,,,,,,,,,4/8 Partly Cloudy,72000.0,,SCT,6900.0,,,,,,
KRDR,10-09-2006,20:00,METAR,,10,7.0,,,9999.0,,13.0,0.0,30.43,1030.8,,,,,,,,,,,,,,,4/8 Partly Cloudy,72000.0,,SCT,5900.0,,,,,,
KRDR,10-09-2006,19:00,METAR,,,5.0,,,9999.0,,11.0,0.0,30.44,1031.4,,,,,,,,,,,,,,,4/8 Partly Cloudy,72000.0,,SCT,4800.0,,,,,,
KRDR,10-09-2006,18:00,METAR,,330,6.0,,,9999.0,,11.0,1.0,30.47,1032.1,,,,,,,,,,,,,,,4/8 Partly Cloudy,72000.0,,SCT,4500.0,,,,,,
KRDR,10-09-2006,17:00,METAR,,10,4.0,,,9999.0,,10.0,1.0,30.49,1032.8,,,,,,,,,,,,,,,2/8 Mostly Clear,72000.0,,FEW,5000.0,,,,,,
KRDR,10-09-2006,16:00,METAR,,160,3.0,,,9999.0,,8.0,1.0,30.49,1032.9,,,,,,,,,,,,,,,4/8 Partly Cloudy,72000.0,,SCT,5000.0,,,,,,
KRDR,10-09-2006,15:00,METAR,,,0.0,,,9999.0,,5.0,1.0,30.49,1033.0,,,,,,,,,,,,,,,4/8 Partly Cloudy,72000.0,,SCT,5000.0,,,,,,
KRDR,10-09-2006,14:00,METAR,,,0.0,,,9999.0,,1.0,-1.0,30.48,1032.6,,,,,,,,,,,,,,,4/8 Partly Cloudy,72000.0,,SCT,5000.0,,,,,,
KRDR,10-09-2006,13:00,METAR,,,0.0,,,9999.0,,-1.0,-2.0,30.47,1032.3,,,,,,,,,,,,,,,4/8 Partly Cloudy,72000.0,,SCT,5000.0,,,,,,
KRDR,10-09-2006,12:00,METAR,,,0.0,,,9999.0,,-1.0,-2.0,30.46,1031.9,,,,,,,,,,,,,,,4/8 Partly Cloudy,72000.0,,SCT,5000.0,,,,,,
KRDR,10-09-2006,11:00,METAR,,250,3.0,,,9999.0,,-2.0,-3.0,30.44,1031.3,,,,,,,,,,,,,,,4/8 Partly Cloudy,72000.0,,SCT,5000.0,,,,,,
KRDR,10-09-2006,10:00,METAR,,280,4.0,,,9999.0,,-3.0,-5.0,30.44,1031.1,,,,,,,,,,,,,,,2/8 Mostly Clear,72000.0,,FEW,5000.0,,,,,,
KRDR,10-09-2006,09:00,METAR,,,0.0,,,9999.0,,-1.0,-3.0,30.41,1030.4,,,,,,,,,,,,,,,Clear,72000.0,,,73000.0,,,,,,
KRDR,10-09-2006,08:00,METAR,,,0.0,,,9999.0,,-1.0,-3.0,30.41,1030.2,,,,,,,,,,,,,,,Clear,72000.0,,,73000.0,,,,,,
KRDR,10-09-2006,07:00,METAR,,300,5.0,,,9999.0,,-1.0,-3.0,30.39,1029.6,,,,,,,,,,,,,,,Clear,72000.0,,,73000.0,,,,,,
KRDR,10-09-2006,06:00,METAR,,310,3.0,,,9999.0,,0.0,-2.0,30.38,1029.1,,,,,,,,,,,,,,,Clear,72000.0,,,73000.0,,,,,,
KRDR,10-09-2006,05:00,METAR,,300,3.0,,,9999.0,,1.0,-2.0,30.37,1028.9,,,,,,,,,,,,,,,2/8 Mostly Clear,72000.0,,FEW,5000.0,,,,,,
KRDR,10-09-2006,04:00,METAR,,350,3.0,,,9999.0,,3.0,0.0,30.36,1028.6,,,,,,,,,,,,,,,2/8 Mostly Clear,72000.0,,FEW,5000.0,,,,,,
KRDR,10-09-2006,03:00,METAR,,340,5.0,,,9999.0,,4.0,-1.0,30.34,1027.9,,,,,,,,,,,,,,,Clear,72000.0,,,73000.0,,,,,,
KRDR,10-09-2006,02:00,METAR,,320,6.0,,,9999.0,,7.0,0.0,30.32,1027.4,,,,,,,,,,,,,,,2/8 Mostly Clear,72000.0,,FEW,5400.0,,,,,,
KRDR,10-09-2006,00:00,METAR,,330,11.0,,,9999.0,,11.0,-1.0,30.30,1026.6,,,,,,,,,,,,,,,7/8 Mostly Cloudy,5500.0,,BKN,5400.0,BKN,25000.0,,,,
KRDR,10-08-2006,23:00,METAR,,320,11.0,19.0,,9999.0,,11.0,0.0,30.28,1026.1,,,,,,,,,,,,,,,7/8 Mostly Cloudy,4800.0,,BKN,4900.0,,,,,,
KRDR,10-08-2006,22:00,METAR,,320,14.0,21.0,,9999.0,,12.0,0.0,30.25,1025.1,,,,,,,,,,,,,,,7/8 Mostly Cloudy,4900.0,,BKN,5000.0,,,,,,
KRDR,10-08-2006,21:00,METAR,,330,15.0,20.0,320/26KTS,9999.0,,12.0,0.0,30.23,1024.4,,,,,,,,,,,,,,,7/8 Mostly Cloudy,4900.0,,BKN,5000.0,,,,,,
KRDR,10-08-2006,20:00,METAR,,320,16.0,25.0,330/30KTS,9999.0,,14.0,0.0,30.21,1023.6,,,,,,,,,,,,,,,4/8 Partly Cloudy,72000.0,,SCT,5000.0,,,,,,
KRDR,10-08-2006,19:00,METAR,,330,15.0,25.0,330/27KTS,9999.0,,13.0,0.0,30.19,1023.1,,,,,,,,,,,,,,,4/8 Partly Cloudy,72000.0,,SCT,4000.0,,,,,,
KRDR,10-08-2006,18:00,METAR,,330,19.0,28.0,310/28KTS,9999.0,,13.0,0.0,30.18,1022.6,,,,,,,,,,,,,,,4/8 Partly Cloudy,72000.0,,SCT,3500.0,,,,,,
KRDR,10-08-2006,17:00,METAR,,320,20.0,25.0,310/28KTS,9999.0,,12.0,4.0,30.15,1021.8,,,,,,,,,,,,,,,4/8 Partly Cloudy,72000.0,,SCT,3500.0,,,,,,
KRDR,10-08-2006,16:00,METAR,,300,18.0,24.0,300/26KTS,9999.0,,11.0,3.0,30.13,1021.0,,,,,,,,,,,,,,,7/8 Mostly Cloudy,3400.0,,BKN,3500.0,,,,,,
KRDR,10-08-2006,15:00,METAR,,290,16.0,23.0,290/28KTS,9999.0,,11.0,3.0,30.09,1020.0,,,,,,,,,,,,,,,7/8 Mostly Cloudy,3500.0,,BKN,3600.0,,,,,,
KRDR,10-08-2006,14:00,METAR,,290,21.0,31.0,290/31KTS,9999.0,,10.0,3.0,30.07,1018.9,,,,,,,,,,,,,,,7/8 Mostly Cloudy,3100.0,,BKN,3200.0,,,,,,
KRDR,10-08-2006,13:00,METAR,,300,20.0,27.0,300/29KTS,9999.0,,10.0,3.0,30.04,1017.7,,,,,,,,,,,,,,,7/8 Mostly Cloudy,3200.0,,BKN,3300.0,,,,,,
KRDR,10-08-2006,12:00,METAR,,300,18.0,23.0,,9999.0,,,,30.01,1017.0,,,,,,,,,,,,,,,4/8 Partly Cloudy,72000.0,,FEW,2600.0,SCT,12000.0,,,,
KRDR,10-08-2006,11:00,METAR,,280,12.0,22.0,,9999.0,,8.0,3.0,29.96,1015.1,,,,,,,,,,,,,,,2/8 Mostly Clear,72000.0,,FEW,2600.0,,,,,,
KRDR,10-08-2006,10:00,METAR,,270,17.0,24.0,,9999.0,,9.0,3.0,29.93,1013.8,,,,,,,,,,,,,,,Clear,72000.0,,,73000.0,,,,,,
KRDR,10-08-2006,09:00,METAR,,270,12.0,24.0,280/26KTS,9999.0,,10.0,5.0,29.89,1012.2,,,,,,,,,,,,,,,Clear,72000.0,,,73000.0,,,,,,
KRDR,10-08-2006,08:00,METAR,,270,23.0,32.0,280/32KTS,9999.0,,12.0,6.0,29.86,1011.5,,,,,,,,,,,,,,,,72000.0,,,,,,,,,
KRDR,10-08-2006,07:00,METAR,,290,13.0,27.0,280/32KTS,9999.0,,12.0,6.0,29.84,1011.5,,,,,,,,,,,,,,,4/8 Partly Cloudy,72000.0,,FEW,1800.0,SCT,2600.0,,,,
KRDR,10-08-2006,06:00,METAR,,270,19.0,30.0,290/31KTS,9999.0,,13.0,7.0,29.80,1010.4,,,,,,,,,,,,,,,2/8 Mostly Clear,72000.0,,FEW,2600.0,,,,,,
KRDR,10-08-2006,05:48,SPECI,,270,20.0,28.0,,9999.0,,13.0,7.0,29.79,,,,,,,,,,,,,,,,7/8 Mostly Cloudy,1600.0,,BKN,1600.0,,,,,,
KRDR,10-08-2006,05:00,METAR,,280,18.0,29.0,280/32KTS,9999.0,,14.0,8.0,29.77,1009.4,,,,,,,,,,,,,,,2/8 Mostly Clear,72000.0,,FEW,2600.0,,,,,,
KRDR,10-08-2006,04:00,METAR,,280,20.0,33.0,280/34KTS,9999.0,,15.0,9.0,29.74,1008.3,,,,,,,,,,,,,,,Clear,72000.0,,,73000.0,,,,,,
KRDR,10-08-2006,03:00,METAR,,260,20.0,29.0,280/38KTS,9999.0,,22.0,12.0,29.64,1003.9,,,,,,,,,,,,,,,2/8 Mostly Clear,72000.0,,FEW,4000.0,,,,,,
KRDR,10-08-2006,02:00,METAR,,230,12.0,,,9999.0,,24.0,12.0,29.62,1003.0,,,,,,,,,,,,,,,Clear,72000.0,,,73000.0,,,,,,
KRDR,10-08-2006,01:00,METAR,,190,10.0,,,9999.0,,24.0,13.0,29.60,1003.4,,,,,,,,,,,,,,,Clear,72000.0,,,73000.0,,,,,,
KRDR,10-08-2006,00:00,METAR,,220,11.0,22.0,,9999.0,,26.0,13.0,29.57,1002.7,,,,,,,,,,,,,,,2/8 Mostly Clear,72000.0,,FEW,12000.0,FEW,25000.0,,,,
KRDR,10-07-2006,23:00,METAR,,190,15.0,,180/26KTS,9999.0,,27.0,15.0,29.56,1002.3,,,,,,,,,,,,,,,2/8 Mostly Clear,72000.0,,FEW,25000.0,,,,,,
KRDR,10-07-2006,22:00,METAR,,190,21.0,29.0,180/29KTS,9999.0,,27.0,14.0,29.57,1002.5,,,,,,,,,,,,,,,7/8 Mostly Cloudy,25000.0,,BKN,25000.0,,,,,,
KRDR,10-07-2006,21:00,METAR,,180,16.0,20.0,,9999.0,,26.0,14.0,29.58,1002.9,,,,,,,,,,,,,,,7/8 Mostly Cloudy,25000.0,,BKN,25000.0,,,,,,
KRDR,10-07-2006,20:00,METAR,,180,13.0,21.0,,9999.0,,25.0,14.0,29.62,1004.1,,,,,,,,,,,,,,,7/8 Mostly Cloudy,25000.0,,FEW,15000.0,BKN,25000.0,,,,
KRDR,10-07-2006,19:00,METAR,,190,14.0,,,9999.0,,23.0,14.0,29.64,1004.9,,,,,,,,,,,,,,,7/8 Mostly Cloudy,25000.0,,BKN,25000.0,,,,,,
KRDR,10-07-2006,18:00,METAR,,170,14.0,20.0,,9999.0,,22.0,13.0,29.66,1005.6,,,,,,,,,,,,,,,7/8 Mostly Cloudy,25000.0,,BKN,25000.0,,,,,,
KRDR,10-07-2006,17:00,METAR,,180,12.0,19.0,,9999.0,,20.0,12.0,29.69,1006.5,,,,,,,,,,,,,,,7/8 Mostly Cloudy,25000.0,,BKN,25000.0,,,,,,
KRDR,10-07-2006,16:00,METAR,,180,14.0,,,9999.0,,18.0,11.0,29.72,1007.5,,,,,,,,,,,,,,,7/8 Mostly Cloudy,25000.0,,BKN,25000.0,,,,,,
KRDR,10-07-2006,15:00,METAR,,170,14.0,,,9999.0,,16.0,11.0,29.73,1007.8,,,,,,,,,,,,,,,7/8 Mostly Cloudy,25000.0,,FEW,15000.0,BKN,25000.0,,,,
KRDR,10-07-2006,14:00,METAR,,170,9.0,,,9999.0,,14.0,11.0,29.75,1008.5,,,,,,,,,,,,,,,7/8 Mostly Cloudy,25000.0,,SCT,15000.0,BKN,25000.0,,,,
KRDR,10-07-2006,13:00,METAR,,180,11.0,,,9999.0,,13.0,10.0,29.76,1008.7,,,,,,,,,,,,,,,7/8 Mostly Cloudy,25000.0,,SCT,15000.0,BKN,25000.0,,,,
KRDR,10-07-2006,12:00,METAR,,180,8.0,,,9999.0,,13.0,10.0,29.77,1009.1,,,,,,,,,,,,,,,4/8 Partly Cloudy,72000.0,,FEW,12000.0,SCT,25000.0,,,,
KRDR,10-07-2006,11:00,METAR,,180,8.0,,,9999.0,,14.0,11.0,29.78,1009.6,,,,,,,,,,,,,,,4/8 Partly Cloudy,72000.0,,SCT,25000.0,,,,,,
KRDR,10-07-2006,10:00,METAR,,190,8.0,,,9999.0,,15.0,12.0,29.78,1009.6,,,,,,,,,,,,,,,4/8 Partly Cloudy,72000.0,,SCT,25000.0,,,,,,
KRDR,10-07-2006,09:00,METAR,,180,11.0,,,9999.0,,15.0,12.0,29.79,1009.8,,,,,,,,,,,,,,,4/8 Partly Cloudy,72000.0,,SCT,25000.0,,,,,,
KRDR,10-07-2006,08:00,METAR,,170,7.0,,,9999.0,,14.0,11.0,29.80,1010.2,,,,,,,,,,,,,,,4/8 Partly Cloudy,72000.0,,SCT,25000.0,,,,,,
KRDR,10-07-2006,07:00,METAR,,160,7.0,,,9999.0,,15.0,12.0,29.80,1010.3,,,,,,,,,,,,,,,2/8 Mostly Clear,72000.0,,FEW,25000.0,,,,,,
KRDR,10-07-2006,06:00,METAR,,180,5.0,,,9999.0,,14.0,11.0,29.82,1010.7,,,,,,,,,,,,,,,Clear,72000.0,,,73000.0,,,,,,
KRDR,10-07-2006,05:00,METAR,,200,8.0,,,9999.0,,17.0,12.0,29.82,1010.8,,,,,,,,,,,,,,,Clear,72000.0,,,73000.0,,,,,,
KRDR,10-07-2006,04:00,METAR,,180,9.0,,,9999.0,,18.0,12.0,29.81,1010.4,,,,,,,,,,,,,,,Clear,72000.0,,,73000.0,,,,,,
KRDR,10-07-2006,03:00,METAR,,170,11.0,,,9999.0,,18.0,12.0,29.81,1010.4,,,,,,,,,,,,,,,4/8 Partly Cloudy,72000.0,,SCT,25000.0,,,,,,
KRDR,10-07-2006,02:00,METAR,,170,11.0,,,9999.0,,19.0,12.0,29.81,1010.6,,,,,,,,,,,,,,,4/8 Partly Cloudy,72000.0,,SCT,25000.0,,,,,,
KRDR,10-07-2006,01:00,METAR,,170,9.0,,,9999.0,,20.0,13.0,29.82,1010.8,,,,,,,,,,,,,,,7/8 Mostly Cloudy,25000.0,,BKN,25000.0,,,,,,
KRDR,10-07-2006,00:00,METAR,,180,9.0,,,9999.0,,22.0,13.0,29.82,1010.9,,,,,,,,,,,,,,,7/8 Mostly Cloudy,25000.0,,FEW,12000.0,BKN,25000.0,,,,
KRDR,10-06-2006,23:00,METAR,,190,17.0,23.0,200/29KTS,9999.0,,23.0,13.0,29.82,1010.9,,,,,,,,,,,,,,,7/8 Mostly Cloudy,25000.0,,SCT,15000.0,BKN,25000.0,,,,
KRDR,10-06-2006,22:00,METAR,,180,16.0,21.0,,9999.0,,22.0,13.0,29.83,1011.2,,,,,,,,,,,,,,,8/8 Overcast,25000.0,,SCT,15000.0,OVC,25000.0,,,,
KRDR,10-06-2006,21:00,METAR,,190,17.0,23.0,,9999.0,,22.0,12.0,29.85,1011.9,,,,,,,,,,,,,,,7/8 Mostly Cloudy,25000.0,,SCT,15000.0,BKN,25000.0,,,,
KRDR,10-06-2006,20:00,METAR,,190,16.0,22.0,200/28KTS,9999.0,,22.0,12.0,29.86,1012.0,,,,,,,,,,,,,,,Clear,72000.0,,,73000.0,,,,,,
KRDR,10-06-2006,19:00,METAR,,180,18.0,23.0,200/26KTS,9999.0,,21.0,12.0,29.88,1012.8,,,,,,,,,,,,,,,8/8 Overcast,15000.0,,BKN,15000.0,OVC,25000.0,,,,
KRDR,10-06-2006,18:00,METAR,,200,18.0,26.0,200/26KTS,9999.0,,19.0,11.0,29.91,1013.7,,,,,,,,,,,,,,,8/8 Overcast,15000.0,,BKN,15000.0,OVC,25000.0,,,,
KRDR,10-06-2006,17:00,METAR,,180,14.0,,180/26KTS,9999.0,,16.0,9.0,29.93,1014.4,,,,,,,,,,,,,,,8/8 Overcast,15000.0,,BKN,15000.0,OVC,25000.0,,,,
KRDR,10-06-2006,16:00,METAR,,190,19.0,22.0,180/26KTS,9999.0,,15.0,9.0,29.95,1015.0,,,,,,,,,,,,,,,7/8 Mostly Cloudy,15000.0,,BKN,15000.0,BKN,25000.0,,,,
KRDR,10-06-2006,15:00,METAR,,180,16.0,21.0,,9999.0,,13.0,8.0,29.96,1015.5,,,,,,,,,,,,,,,7/8 Mostly Cloudy,25000.0,,FEW,15000.0,BKN,25000.0,,,,
KRDR,10-06-2006,14:00,METAR,,180,15.0,21.0,,9999.0,,11.0,7.0,29.97,1015.7,,,,,,,,,,,,,,,7/8 Mostly Cloudy,25000.0,,FEW,15000.0,BKN,25000.0,,,,
KRDR,10-06-2006,13:00,METAR,,180,14.0,,,9999.0,,10.0,6.0,29.99,1016.4,,,,,,,,,,,,,,,7/8 Mostly Cloudy,25000.0,,FEW,15000.0,BKN,25000.0,,,,
KRDR,10-06-2006,12:00,METAR,,180,14.0,,,9999.0,,10.0,6.0,30.00,1016.7,,,,,,,,,,,,,,,7/8 Mostly Cloudy,25000.0,,FEW,15000.0,BKN,25000.0,,,,
KRDR,10-06-2006,11:00,METAR,,180,11.0,,,9999.0,,10.0,5.0,30.02,1017.3,,,,,,,,,,,,,,,4/8 Partly Cloudy,72000.0,,SCT,25000.0,,,,,,
KRDR,10-06-2006,10:00,METAR,,180,10.0,,,9999.0,,9.0,4.0,30.03,1017.7,,,,,,,,,,,,,,,4/8 Partly Cloudy,72000.0,,SCT,25000.0,,,,,,
KRDR,10-06-2006,09:00,METAR,,180,10.0,,,9999.0,,9.0,4.0,30.05,1018.5,,,,,,,,,,,,,,,Clear,72000.0,,,73000.0,,,,,,
KRDR,10-06-2006,08:00,METAR,,180,10.0,,,9999.0,,10.0,4.0,30.08,1019.2,,,,,,,,,,,,,,,4/8 Partly Cloudy,72000.0,,SCT,25000.0,,,,,,
KRDR,10-06-2006,07:00,METAR,,170,9.0,,,9999.0,,10.0,3.0,30.09,1019.8,,,,,,,,,,,,,,,4/8 Partly Cloudy,72000.0,,SCT,25000.0,,,,,,
KRDR,10-06-2006,06:00,METAR,,180,11.0,,,9999.0,,11.0,3.0,30.11,1020.2,,,,,,,,,,,,,,,2/8 Mostly Clear,72000.0,,FEW,25000.0,,,,,,
KRDR,10-06-2006,05:00,METAR,,170,9.0,,,9999.0,,10.0,3.0,30.12,1020.6,,,,,,,,,,,,,,,2/8 Mostly Clear,72000.0,,FEW,25000.0,,,,,,
KRDR,10-06-2006,04:00,METAR,,170,10.0,,,9999.0,,10.0,3.0,30.13,1021.2,,,,,,,,,,,,,,,Clear,72000.0,,,73000.0,,,,,,
KRDR,10-06-2006,03:00,METAR,,160,9.0,,,9999.0,,11.0,3.0,30.15,1021.5,,,,,,,,,,,,,,,Clear,72000.0,,,73000.0,,,,,,
KRDR,10-06-2006,02:00,METAR,,170,9.0,,,9999.0,,11.0,4.0,30.16,1021.9,,,,,,,,,,,,,,,Clear,72000.0,,,73000.0,,,,,,
KRDR,10-06-2006,01:00,METAR,,160,8.0,,,9999.0,,13.0,4.0,30.17,1022.4,,,,,,,,,,,,,,,Clear,72000.0,,,73000.0,,,,,,
KRDR,10-06-2006,00:00,METAR,,180,11.0,,,9999.0,,15.0,4.0,30.18,1022.7,,,,,,,,,,,,,,,Clear,72000.0,,,73000.0,,,,,,
KRDR,10-05-2006,23:00,METAR,,190,13.0,,,9999.0,,17.0,3.0,30.19,1023.0,,,,,,,,,,,,,,,Clear,72000.0,,,73000.0,,,,,,
KRDR,10-05-2006,22:00,METAR,,190,15.0,,,9999.0,,18.0,4.0,30.20,1023.4,,,,,,,,,,,,,,,Clear,72000.0,,,73000.0,,,,,,
KRDR,10-05-2006,21:00,METAR,,180,12.0,,,9999.0,,18.0,3.0,30.22,1024.0,,,,,,,,,,,,,,,Clear,72000.0,,,73000.0,,,,,,
KRDR,10-05-2006,20:00,METAR,,180,9.0,,,9999.0,,18.0,4.0,30.24,1024.8,,,,,,,,,,,,,,,Clear,72000.0,,,73000.0,,,,,,
KRDR,10-05-2006,19:00,METAR,,190,12.0,16.0,,9999.0,,17.0,4.0,30.27,1025.8,,,,,,,,,,,,,,,Clear,72000.0,,,73000.0,,,,,,
KRDR,10-05-2006,18:00,METAR,,190,12.0,16.0,,9999.0,,16.0,4.0,30.30,1026.6,,,,,,,,,,,,,,,Clear,72000.0,,,73000.0,,,,,,
KRDR,10-05-2006,17:00,METAR,,210,9.0,,,9999.0,,15.0,4.0,30.32,1027.4,,,,,,,,,,,,,,,Clear,72000.0,,,73000.0,,,,,,
KRDR,10-05-2006,16:00,METAR,,200,9.0,,,9999.0,,13.0,3.0,30.34,1028.1,,,,,,,,,,,,,,,Clear,72000.0,,,73000.0,,,,,,
KRDR,10-05-2006,15:00,METAR,Normal,190,7.0,,,,,10.0,3.0,30.36,1028.5,,,,,,,,,,,,,,,,72000.0,,,,,,,,,
KRDR,10-05-2006,14:00,METAR,,210,4.0,,,9999.0,,5.0,2.0,30.35,1028.3,,,,,,,,,,,,,,,Clear,72000.0,,,73000.0,,,,,,
KRDR,10-05-2006,13:00,METAR,,190,3.0,,,9999.0,,0.0,-1.0,30.35,1028.2,,,,,,,,,,,,,,,Clear,72000.0,,,73000.0,,,,,,
KRDR,10-05-2006,12:00,METAR,,190,3.0,,,9999.0,,1.0,0.0,30.34,1028.1,,,,,,,,,,,,,,,Clear,72000.0,,,73000.0,,,,,,
KRDR,10-05-2006,11:00,METAR,,,0.0,,,9999.0,,2.0,0.0,30.35,1028.4,,,,,,,,,,,,,,,2/8 Mostly Clear,72000.0,,FEW,25000.0,,,,,,
KRDR,10-05-2006,10:00,METAR,,210,4.0,,,9999.0,,3.0,0.0,30.35,1028.3,,,,,,,,,,,,,,,2/8 Mostly Clear,72000.0,,FEW,11000.0,FEW,25000.0,,,,
KRDR,10-05-2006,09:00,METAR,,210,5.0,,,9999.0,,5.0,1.0,30.37,1028.9,,,,,,,,,,,,,,,7/8 Mostly Cloudy,11000.0,,BKN,11000.0,BKN,25000.0,,,,
KRDR,10-05-2006,08:00,METAR,,220,7.0,,,9999.0,,4.0,1.0,30.37,1029.0,,,,,,,,,,,,,,,7/8 Mostly Cloudy,25000.0,,BKN,25000.0,,,,,,
KRDR,10-05-2006,07:00,METAR,,240,5.0,,,9999.0,,3.0,0.0,30.38,1029.2,,,,,,,,,,,,,,,7/8 Mostly Cloudy,25000.0,,BKN,25000.0,,,,,,
KRDR,10-05-2006,06:00,METAR,,220,4.0,,,9999.0,,4.0,0.0,30.37,1028.9,,,,,,,,,,,,,,,7/8 Mostly Cloudy,25000.0,,BKN,25000.0,,,,,,
KRDR,10-05-2006,05:00,METAR,,200,3.0,,,9999.0,,3.0,0.0,30.37,1028.9,,,,,,,,,,,,,,,7/8 Mostly Cloudy,25000.0,,BKN,25000.0,,,,,,
KRDR,10-05-2006,04:00,METAR,,190,5.0,,,9999.0,,4.0,1.0,30.37,1029.1,,,,,,,,,,,,,,,7/8 Mostly Cloudy,25000.0,,BKN,25000.0,,,,,,
KRDR,10-05-2006,03:00,METAR,,190,5.0,,,9999.0,,5.0,1.0,30.38,1029.3,,,,,,,,,,,,,,,7/8 Mostly Cloudy,25000.0,,BKN,25000.0,,,,,,
KRDR,10-05-2006,02:00,METAR,,170,6.0,,,9999.0,,6.0,1.0,30.39,1029.6,,,,,,,,,,,,,,,4/8 Partly Cloudy,72000.0,,SCT,25000.0,,,,,,
KRDR,10-05-2006,01:00,METAR,,160,3.0,,,9999.0,,9.0,1.0,30.40,1030.0,,,,,,,,,,,,,,,4/8 Partly Cloudy,72000.0,,SCT,25000.0,,,,,,
KRDR,10-05-2006,00:00,METAR,,140,3.0,,,9999.0,,13.0,0.0,30.41,1030.4,,,,,,,,,,,,,,,7/8 Mostly Cloudy,25000.0,,BKN,25000.0,,,,,,
KRDR,10-04-2006,23:00,METAR,,120,2.0,,,9999.0,,14.0,0.0,30.42,1030.6,,,,,,,,,,,,,,,7/8 Mostly Cloudy,25000.0,,BKN,25000.0,,,,,,
KRDR,10-04-2006,22:00,METAR,,,0.0,,,9999.0,,14.0,1.0,30.43,1030.9,,,,,,,,,,,,,,,7/8 Mostly Cloudy,25000.0,,BKN,25000.0,,,,,,
KRDR,10-04-2006,21:00,METAR,,,0.0,,,9999.0,,14.0,1.0,30.45,1031.4,,,,,,,,,,,,,,,7/8 Mostly Cloudy,25000.0,,FEW,5000.0,BKN,25000.0,,,,
KRDR,10-04-2006,20:00,METAR,,220,3.0,,,9999.0,,14.0,1.0,30.46,1031.9,,,,,,,,,,,,,,,7/8 Mostly Cloudy,25000.0,,FEW,4500.0,BKN,25000.0,,,,
KRDR,10-04-2006,19:00,METAR,,,3.0,,,9999.0,,13.0,2.0,30.49,1032.8,,,,,,,,,,,,,,,4/8 Partly Cloudy,72000.0,,FEW,4000.0,SCT,25000.0,,,,
KRDR,10-04-2006,18:00,METAR,,,0.0,,,9999.0,,13.0,2.0,30.50,1033.3,,,,,,,,,,,,,,,4/8 Partly Cloudy,72000.0,,FEW,4000.0,SCT,25000.0,,,,
KRDR,10-04-2006,17:00,METAR,,,0.0,,,9999.0,,12.0,3.0,30.51,1033.5,,,,,,,,,,,,,,,2/8 Mostly Clear,72000.0,,FEW,25000.0,,,,,,
KRDR,10-04-2006,16:00,METAR,,,3.0,,,9999.0,,10.0,3.0,30.50,1033.2,,,,,,,,,,,,,,,Clear,72000.0,,,73000.0,,,,,,
KRDR,10-04-2006,15:00,METAR,,10,5.0,,,9999.0,,7.0,3.0,30.49,1032.8,,,,,,,,,,,,,,,Clear,72000.0,,,73000.0,,,,,,
KRDR,10-04-2006,14:00,METAR,,350,5.0,,,9999.0,,4.0,2.0,30.47,1032.4,,,,,,,,,,,,,,,Clear,72000.0,,,73000.0,,,,,,
KRDR,10-04-2006,13:00,METAR,,310,3.0,,,9999.0,,1.0,-1.0,30.46,1031.9,,,,,,,,,,,,,,,Clear,72000.0,,,73000.0,,,,,,
KRDR,10-04-2006,12:00,METAR,,350,5.0,,,9999.0,,1.0,-1.0,30.44,1031.1,,,,,,,,,,,,,.02 IN,,Clear,72000.0,,,73000.0,,,,,,
KRDR,10-04-2006,11:00,METAR,,350,7.0,,,9999.0,,3.0,0.0,30.42,1030.6,,,,,,,,,,,,,,,Clear,72000.0,,,73000.0,,,,,,
KRDR,10-04-2006,10:00,METAR,,360,6.0,,,9999.0,,2.0,0.0,30.40,1029.8,,,,,,,,,,,,,,,Clear,72000.0,,,73000.0,,,,,,
KRDR,10-04-2006,09:00,METAR,,350,7.0,,,9999.0,,3.0,0.0,30.38,1029.1,,,,,,,,,,,,,,,Clear,72000.0,,,73000.0,,,,,,
KRDR,10-04-2006,08:00,METAR,,350,7.0,,,9999.0,,3.0,1.0,30.37,1028.8,,,,,,,,,,,,,,,2/8 Mostly Clear,72000.0,,FEW,25000.0,,,,,,
KRDR,10-04-2006,07:00,METAR,,360,5.0,,,9999.0,,4.0,1.0,30.36,1028.5,,,,,,,,,,,,,,,4/8 Partly Cloudy,72000.0,,FEW,6900.0,SCT,25000.0,,,,
KRDR,10-04-2006,06:00,METAR,,360,6.0,,,9999.0,,5.0,2.0,30.34,1027.9,,,,,,,,,,,,,,,2/8 Mostly Clear,72000.0,,FEW,7900.0,,,,,,
KRDR,10-04-2006,05:00,METAR,,10,8.0,,,9999.0,,7.0,3.0,30.32,1027.3,,,,,,,,,,,,,,,4/8 Partly Cloudy,72000.0,,SCT,7900.0,,,,,,
KRDR,10-04-2006,04:00,METAR,,10,9.0,,,9999.0,,9.0,5.0,30.31,1026.9,,,,,,,,,,,,,,,7/8 Mostly Cloudy,8000.0,,BKN,7900.0,,,,,,
KRDR,10-04-2006,03:00,METAR,,10,9.0,,,9999.0,,10.0,6.0,30.29,1026.1,,,,,,,,,,,,,,,8/8 Overcast,7500.0,,OVC,7400.0,,,,,,
KRDR,10-04-2006,02:00,METAR,,20,11.0,,,9999.0,,10.0,6.0,30.27,1025.7,,,,,,,,,,,,,,,8/8 Overcast,6500.0,,OVC,6400.0,,,,,,
KRDR,10-04-2006,01:00,METAR,,10,9.0,,,9999.0,,10.0,6.0,30.25,1025.0,,,,,,,,,,,,,,,7/8 Mostly Cloudy,6500.0,,BKN,6400.0,BKN,15000.0,,,,
KRDR,10-04-2006,00:00,METAR,,20,9.0,,,9999.0,,11.0,7.0,30.22,1024.0,,,,,,,,,,,,,.02 IN,,8/8 Overcast,8000.0,,BKN,7900.0,OVC,15000.0,,,,
KRDR,10-03-2006,23:00,METAR,,30,10.0,,,9999.0,,11.0,7.0,30.20,1023.4,,,,,,,,,,,,,,,8/8 Overcast,8500.0,,SCT,5900.0,BKN,8400.0,OVC,15000.0,,
KRDR,10-03-2006,22:11,SPECI,,30,11.0,,,9999.0,,10.0,7.0,30.20,,,,,,,,,,,,,,,,8/8 Overcast,6000.0,,BKN,5900.0,OVC,11000.0,,,,
KRDR,10-03-2006,22:00,METAR,,30,9.0,,,9999.0,Rain,10.0,8.0,30.19,1023.1,,,,61,,,,,,,,,,,7/8 Mostly Cloudy,6000.0,,BKN,5900.0,,,,,,
KRDR,10-03-2006,21:00,METAR,,30,11.0,,,9999.0,Rain,10.0,8.0,30.18,1022.5,,,,61,,,,,,,,.02 IN,,,8/8 Overcast,5500.0,,BKN,5400.0,OVC,11000.0,,,,
KRDR,10-03-2006,20:16,SPECI,,30,14.0,,,9999.0,Rain,11.0,8.0,30.15,,,,,61,,,,,,,,,,,7/8 Mostly Cloudy,4900.0,,BKN,5000.0,BKN,11000.0,,,,
KRDR,10-03-2006,20:00,METAR,,30,12.0,,,9999.0,Rain,11.0,7.0,30.15,1021.6,,,,61,,,,,,,TRACE,,,,8/8 Overcast,4900.0,,BKN,5000.0,OVC,11000.0,,,,
KRDR,10-03-2006,19:21,SPECI,,30,13.0,18.0,,9999.0,,11.0,8.0,30.15,,,,,,,,,,,,,,,,8/8 Overcast,4900.0,,BKN,5000.0,OVC,11000.0,,,,
KRDR,10-03-2006,19:00,METAR,,30,12.0,,,9999.0,Rain,10.0,7.0,30.15,1021.6,,,,61,,,,,,,TRACE,,,,8/8 Overcast,4800.0,,BKN,4900.0,OVC,9900.0,,,,
KRDR,10-03-2006,18:38,SPECI,,40,15.0,,,9999.0,Rain,11.0,7.0,30.15,,,,,61,,,,,,,,,,,8/8 Overcast,4900.0,,BKN,5000.0,OVC,9900.0,,,,
KRDR,10-03-2006,18:21,SPECI,,30,15.0,,,9999.0,,11.0,8.0,30.14,1021.5,,,,,,,,,,,,,,,8/8 Overcast,4400.0,,BKN,4500.0,OVC,9900.0,,,,
KRDR,10-03-2006,18:00,METAR,,40,13.0,,,9999.0,Rain,11.0,8.0,30.15,1021.7,,,,61,,,,,,,TRACE,,TRACE,,8/8 Overcast,4900.0,,FEW,2500.0,BKN,5000.0,OVC,9900.0,,
KRDR,10-03-2006,17:21,SPECI,,40,10.0,,,9999.0,Rain,11.0,7.0,30.16,,,,,61,,,,,,,,,,,8/8 Overcast,5500.0,,BKN,5400.0,OVC,9900.0,,,,
KRDR,10-03-2006,17:00,METAR,,30,11.0,,,9999.0,,11.0,7.0,30.16,1021.9,,,,,,,,,,,TRACE,,,,8/8 Overcast,5500.0,,BKN,5400.0,OVC,9900.0,,,,
KRDR,10-03-2006,16:35,SPECI,,20,14.0,,,9999.0,,11.0,7.0,30.16,1021.9,,,,,,,,,,,,,,,8/8 Overcast,6000.0,,BKN,5900.0,OVC,9900.0,,,,
KRDR,10-03-2006,16:22,SPECI,,30,13.0,,,9999.0,Rain,11.0,7.0,30.15,1021.8,,,,61,,,,,,,,,,,8/8 Overcast,6500.0,,BKN,6400.0,OVC,11000.0,,,,
KRDR,10-03-2006,16:00,METAR,,20,12.0,,,9999.0,,10.0,6.0,30.15,1021.8,,,,,,,,,,,,,,,8/8 Overcast,10000.0,,FEW,5000.0,OVC,9900.0,,,,
KRDR,10-03-2006,15:00,METAR,,10,10.0,,,9999.0,,10.0,6.0,30.15,1021.5,,,,,,,,,,,,,,,8/8 Overcast,11000.0,,FEW,5000.0,OVC,11000.0,,,,
KRDR,10-03-2006,14:00,METAR,,360,6.0,,,9999.0,,10.0,6.0,30.14,1021.5,,,,,,,,,,,,,,,8/8 Overcast,11000.0,,FEW,5000.0,BKN,11000.0,OVC,15000.0,,
KRDR,10-03-2006,13:00,METAR,,30,10.0,,,9999.0,,10.0,6.0,30.12,1020.6,,,,,,,,,,,,,,,8/8 Overcast,11000.0,,FEW,5000.0,BKN,11000.0,OVC,15000.0,,
KRDR,10-03-2006,12:00,METAR,,10,6.0,,,9999.0,,9.0,6.0,30.11,1020.3,,,,,,,,,,,,,,,8/8 Overcast,11000.0,,BKN,11000.0,OVC,15000.0,,,,
KRDR,10-03-2006,11:00,METAR,,350,5.0,,,9999.0,,9.0,6.0,30.10,1020.0,,,,,,,,,,,,,,,8/8 Overcast,12000.0,,BKN,12000.0,OVC,15000.0,,,,
KRDR,10-03-2006,10:00,METAR,,20,7.0,,,9999.0,,10.0,6.0,30.08,1019.2,,,,,,,,,,,,,,,8/8 Overcast,11000.0,,OVC,11000.0,,,,,,
KRDR,10-03-2006,09:00,METAR,,30,6.0,,,9999.0,,8.0,6.0,30.08,1019.5,,,,,,,,,,,,,,,8/8 Overcast,12000.0,,BKN,12000.0,OVC,25000.0,,,,
KRDR,10-03-2006,08:00,METAR,,20,7.0,,,9999.0,,8.0,5.0,30.08,1019.4,,,,,,,,,,,,,,,4/8 Partly Cloudy,72000.0,,FEW,15000.0,SCT,25000.0,,,,
KRDR,10-03-2006,07:00,METAR,,10,6.0,,,9999.0,,8.0,6.0,30.08,1019.2,,,,,,,,,,,,,,,4/8 Partly Cloudy,72000.0,,SCT,15000.0,,,,,,
KRDR,10-03-2006,06:00,METAR,,350,4.0,,,9999.0,,10.0,6.0,30.07,1019.0,,,,,,,,,,,,,,,8/8 Overcast,15000.0,,OVC,15000.0,,,,,,
KRDR,10-03-2006,05:00,METAR,,10,6.0,,,9999.0,,11.0,8.0,30.07,1018.9,,,,,,,,,,,,,,,7/8 Mostly Cloudy,15000.0,,BKN,15000.0,,,,,,
KRDR,10-03-2006,04:00,METAR,,20,5.0,,,9999.0,,11.0,8.0,30.07,1018.9,,,,,,,,,,,,,,,7/8 Mostly Cloudy,15000.0,,BKN,15000.0,,,,,,
KRDR,10-03-2006,03:00,METAR,,20,5.0,,,9999.0,,11.0,8.0,30.05,1018.5,,,,,,,,,,,,,,,7/8 Mostly Cloudy,15000.0,,BKN,15000.0,,,,,,
KRDR,10-03-2006,02:00,METAR,,350,3.0,,,9999.0,,14.0,9.0,30.04,1018.1,,,,,,,,,,,,,,,8/8 Overcast,15000.0,,OVC,15000.0,,,,,,
KRDR,10-03-2006,01:00,METAR,,60,3.0,,,9999.0,,17.0,10.0,30.02,1017.4,,,,,,,,,,,,,,,7/8 Mostly Cloudy,15000.0,,BKN,15000.0,,,,,,
KRDR,10-03-2006,00:00,METAR,,70,3.0,,,9999.0,,18.0,9.0,30.01,1016.9,,,,,,,,,,,,,,,7/8 Mostly Cloudy,15000.0,,BKN,15000.0,,,,,,
KRDR,10-02-2006,23:00,METAR,,30,5.0,,,9999.0,,19.0,11.0,29.99,1016.4,,,,,,,,,,,,,,,7/8 Mostly Cloudy,19000.0,,SCT,14000.0,BKN,19000.0,,,,
KRDR,10-02-2006,22:00,METAR,,30,9.0,,,9999.0,,20.0,11.0,29.96,1015.5,,,,,,,,,,,,,,,7/8 Mostly Cloudy,20000.0,,SCT,14000.0,BKN,20000.0,,,,
KRDR,10-02-2006,21:00,METAR,,10,8.0,,,9999.0,,21.0,10.0,29.98,1016.0,,,,,,,,,,,,,,,7/8 Mostly Cloudy,22000.0,,BKN,22000.0,,,,,,
KRDR,10-02-2006,20:00,METAR,,,3.0,,,9999.0,,20.0,10.0,29.98,1016.1,,,,,,,,,,,,,,,7/8 Mostly Cloudy,22000.0,,BKN,22000.0,,,,,,
KRDR,10-02-2006,19:00,METAR,,70,2.0,,,9999.0,,19.0,10.0,29.99,1016.5,,,,,,,,,,,,,,,4/8 Partly Cloudy,72000.0,,SCT,25000.0,,,,,,
KRDR,10-02-2006,18:00,METAR,,70,3.0,,,9999.0,,17.0,10.0,29.99,1016.4,,,,,,,,,,,,,,,7/8 Mostly Cloudy,25000.0,,BKN,25000.0,,,,,,
KRDR,10-02-2006,17:00,METAR,,20,4.0,,,9999.0,,17.0,10.0,29.98,1016.1,,,,,,,,,,,,,,,4/8 Partly Cloudy,72000.0,,SCT,25000.0,,,,,,
KRDR,10-02-2006,16:00,METAR,,20,6.0,,,9999.0,,15.0,10.0,29.97,1015.8,,,,,,,,,,,,,,,Clear,72000.0,,,73000.0,,,,,,
KRDR,10-02-2006,15:00,METAR,,20,9.0,,,9999.0,,13.0,9.0,29.95,1015.2,,,,,,,,,,,,,,,4/8 Partly Cloudy,72000.0,,SCT,25000.0,,,,,,
KRDR,10-02-2006,14:00,METAR,,360,3.0,,,9999.0,,10.0,8.0,29.94,1014.7,,,,,,,,,,,,,,,2/8 Mostly Clear,72000.0,,FEW,25000.0,,,,,,
KRDR,10-02-2006,13:00,METAR,,290,2.0,,,9999.0,,6.0,5.0,29.91,1013.7,,,,,,,,,,,,,,,2/8 Mostly Clear,72000.0,,FEW,12000.0,FEW,25000.0,,,,
KRDR,10-02-2006,12:00,METAR,,340,4.0,,,9999.0,,7.0,5.0,29.89,1013.0,,,,,,,,,,,,,,,Clear,72000.0,,,73000.0,,,,,,
KRDR,10-02-2006,11:00,METAR,,330,5.0,,,9999.0,,9.0,6.0,29.85,1012.2,,,,,,,,,,,,,,,Clear,72000.0,,,73000.0,,,,,,
KRDR,10-02-2006,10:00,METAR,,320,6.0,,,9999.0,,10.0,7.0,29.84,1011.5,,,,,,,,,,,,,,,Clear,72000.0,,,73000.0,,,,,,
KRDR,10-02-2006,09:00,METAR,,300,7.0,,,9999.0,,9.0,7.0,29.82,1010.7,,,,,,,,,,,,,,,Clear,72000.0,,,73000.0,,,,,,
KRDR,10-02-2006,08:00,METAR,,310,6.0,,,9999.0,,9.0,7.0,29.79,1009.9,,,,,,,,,,,,,,,Clear,72000.0,,,73000.0,,,,,,
KRDR,10-02-2006,07:00,METAR,,310,5.0,,,9999.0,,12.0,7.0,29.77,1009.0,,,,,,,,,,,,,,,Clear,72000.0,,,73000.0,,,,,,
KRDR,10-02-2006,06:00,METAR,,330,7.0,,,9999.0,,13.0,8.0,29.74,1008.1,,,,,,,,,,,,,,,Clear,72000.0,,,73000.0,,,,,,
KRDR,10-02-2006,05:00,METAR,,320,9.0,,,9999.0,,14.0,5.0,29.72,1007.4,,,,,,,,,,,,,,,Clear,72000.0,,,73000.0,,,,,,
KRDR,10-02-2006,04:00,METAR,,260,5.0,,,9999.0,,12.0,5.0,29.69,1006.6,,,,,,,,,,,,,,,Clear,72000.0,,,73000.0,,,,,,
KRDR,10-02-2006,03:00,METAR,,280,5.0,,,9999.0,,13.0,6.0,29.68,1006.2,,,,,,,,,,,,,,,Clear,72000.0,,,73000.0,,,,,,
KRDR,10-02-2006,02:00,METAR,,250,4.0,,,9999.0,,13.0,7.0,29.66,1005.6,,,,,,,,,,,,,,,Clear,72000.0,,,73000.0,,,,,,
KRDR,10-02-2006,01:00,METAR,,230,3.0,,,9999.0,,17.0,7.0,29.64,1004.9,,,,,,,,,,,,,,,Clear,72000.0,,,73000.0,,,,,,
KRDR,10-02-2006,00:00,METAR,,300,7.0,,,9999.0,,24.0,5.0,29.62,1004.4,,,,,,,,,,,,,,,2/8 Mostly Clear,72000.0,,FEW,25000.0,,,,,,
KRDR,10-01-2006,23:00,METAR,,310,8.0,13.0,,9999.0,,27.0,7.0,29.61,1003.7,,,,,,,,,,,,,,,2/8 Mostly Clear,72000.0,,FEW,25000.0,,,,,,
KRDR,10-01-2006,22:00,METAR,,250,9.0,14.0,,9999.0,,29.0,8.0,29.59,1003.3,,,,,,,,,,,,,,,2/8 Mostly Clear,72000.0,,FEW,25000.0,,,,,,
KRDR,10-01-2006,21:00,METAR,,250,10.0,,,9999.0,,29.0,11.0,29.60,1003.4,,,,,,,,,,,,,,,2/8 Mostly Clear,72000.0,,FEW,25000.0,,,,,,
KRDR,10-01-2006,20:00,METAR,,210,12.0,,,9999.0,,27.0,11.0,29.59,1003.3,,,,,,,,,,,,,,,2/8 Mostly Clear,72000.0,,FEW,25000.0,,,,,,
KRDR,10-01-2006,19:00,METAR,,180,11.0,,,9999.0,,24.0,11.0,29.60,1003.6,,,,,,,,,,,,,,,2/8 Mostly Clear,72000.0,,FEW,25000.0,,,,,,
KRDR,10-01-2006,18:00,METAR,,170,12.0,,,9999.0,,22.0,11.0,29.61,1003.8,,,,,,,,,,,,,,,2/8 Mostly Clear,72000.0,,FEW,25000.0,,,,,,
KRDR,10-01-2006,17:00,METAR,,170,16.0,,,6400.0,Haze,19.0,10.0,29.63,1004.5,,,,5,,,,,,,,,,,Clear,72000.0,,,73000.0,,,,,,
KRDR,10-01-2006,16:00,METAR,,170,16.0,,,9999.0,,16.0,9.0,29.65,1005.2,,,,,,,,,,,,,,,Clear,72000.0,,,73000.0,,,,,,
KRDR,10-01-2006,15:00,METAR,,160,12.0,18.0,,9999.0,,14.0,8.0,29.65,1005.3,,,,,,,,,,,,,,,2/8 Mostly Clear,72000.0,,FEW,25000.0,,,,,,
KRDR,10-01-2006,14:00,METAR,,160,11.0,,,9999.0,,11.0,7.0,29.68,1006.1,,,,,,,,,,,,,,,4/8 Partly Cloudy,72000.0,,SCT,25000.0,,,,,,
KRDR,10-01-2006,13:00,METAR,,160,8.0,,,9999.0,,9.0,6.0,29.69,1006.5,,,,,,,,,,,,,,,2/8 Mostly Clear,72000.0,,FEW,25000.0,,,,,,
KRDR,10-01-2006,12:00,METAR,,150,9.0,,,9999.0,,9.0,6.0,29.69,1006.6,,,,,,,,,,,,,,,Clear,72000.0,,,73000.0,,,,,,
KRDR,10-01-2006,11:00,METAR,,150,9.0,,,9999.0,,8.0,6.0,29.71,1007.0,,,,,,,,,,,,,,,Clear,72000.0,,,73000.0,,,,,,
KRDR,10-01-2006,10:00,METAR,,140,9.0,,,9999.0,,8.0,5.0,29.73,1007.7,,,,,,,,,,,,,,,Clear,72000.0,,,73000.0,,,,,,
KRDR,10-01-2006,09:00,METAR,,140,8.0,,,9999.0,,8.0,6.0,29.75,1008.3,,,,,,,,,,,,,,,Clear,72000.0,,,73000.0,,,,,,
KRDR,10-01-2006,08:00,METAR,,150,8.0,,,9999.0,,8.0,5.0,29.76,1009.0,,,,,,,,,,,,,,,Clear,72000.0,,,73000.0,,,,,,
KRDR,10-01-2006,07:00,METAR,,140,6.0,,,9999.0,,9.0,6.0,29.77,1009.2,,,,,,,,,,,,,,,Clear,72000.0,,,73000.0,,,,,,
KRDR,10-01-2006,06:00,METAR,,140,7.0,,,9999.0,,9.0,6.0,29.78,1009.4,,,,,,,,,,,,,,,Clear,72000.0,,,73000.0,,,,,,
KRDR,10-01-2006,05:00,METAR,,140,7.0,,,9999.0,,10.0,6.0,29.79,1009.6,,,,,,,,,,,,,,,Clear,72000.0,,,73000.0,,,,,,
KRDR,10-01-2006,04:00,METAR,,150,5.0,,,9999.0,,11.0,6.0,29.79,1009.9,,,,,,,,,,,,,,,Clear,72000.0,,,73000.0,,,,,,
KRDR,10-01-2006,03:00,METAR,,130,5.0,,,9999.0,,11.0,6.0,29.79,1009.9,,,,,,,,,,,,,,,Clear,72000.0,,,73000.0,,,,,,
KRDR,10-01-2006,02:00,METAR,,110,5.0,,,9999.0,,12.0,6.0,29.79,1009.7,,,,,,,,,,,,,,,Clear,72000.0,,,73000.0,,,,,,
KRDR,10-01-2006,01:00,METAR,,100,5.0,,,9999.0,,14.0,6.0,29.78,1009.5,,,,,,,,,,,,,,,2/8 Mostly Clear,72000.0,,FEW,25000.0,,,,,,
KRDR,10-01-2006,00:00,METAR,,90,6.0,,,9999.0,,16.0,6.0,29.77,1009.2,,,,,,,,,,,,,,,Clear,72000.0,,,73000.0,,,,,,
KRDR,09-30-2006,23:00,METAR,,60,7.0,,,9999.0,,18.0,7.0,29.77,1009.1,,,,,,,,,,,,,,,2/8 Mostly Clear,72000.0,,FEW,20000.0,,,,,,
KRDR,09-30-2006,22:00,METAR,,70,5.0,,,9999.0,,19.0,7.0,29.77,1009.0,,,,,,,,,,,,,,,Clear,72000.0,,,73000.0,,,,,,
KRDR,09-30-2006,21:00,METAR,,50,4.0,,,9999.0,,19.0,7.0,29.76,1009.0,,,,,,,,,,,,,,,4/8 Partly Cloudy,72000.0,,FEW,5000.0,SCT,20000.0,,,,
KRDR,09-30-2006,20:00,METAR,,,0.0,,,9999.0,,19.0,8.0,29.76,1009.0,,,,,,,,,,,,,,,2/8 Mostly Clear,72000.0,,FEW,5000.0,FEW,20000.0,,,,
KRDR,09-30-2006,19:00,METAR,,,2.0,,,9999.0,,18.0,7.0,29.77,1009.1,,,,,,,,,,,,,,,2/8 Mostly Clear,72000.0,,FEW,4500.0,FEW,20000.0,,,,
KRDR,09-30-2006,18:00,METAR,,,0.0,,,9999.0,,16.0,8.0,29.78,1009.3,,,,,,,,,,,,,,,2/8 Mostly Clear,72000.0,,FEW,20000.0,,,,,,
KRDR,09-30-2006,17:00,METAR,,230,2.0,,,9999.0,,14.0,8.0,29.78,1009.4,,,,,,,,,,,,,,,4/8 Partly Cloudy,72000.0,,SCT,20000.0,,,,,,
KRDR,09-30-2006,16:00,METAR,,,0.0,,,9999.0,,13.0,8.0,29.78,1009.3,,,,,,,,,,,,,,,4/8 Partly Cloudy,72000.0,,SCT,20000.0,,,,,,
KRDR,09-30-2006,15:00,METAR,,340,2.0,,,9999.0,,11.0,7.0,29.77,1009.0,,,,,,,,,,,,,,,4/8 Partly Cloudy,72000.0,,FEW,12000.0,SCT,20000.0,,,,
KRDR,09-30-2006,14:00,METAR,,280,8.0,,,9999.0,,9.0,6.0,29.74,1008.0,,,,,,,,,,,,,,,7/8 Mostly Cloudy,20000.0,,FEW,12000.0,BKN,20000.0,,,,
KRDR,09-30-2006,13:00,METAR,,280,7.0,,,9999.0,,5.0,3.0,29.72,1007.5,,,,,,,,,,,,,,,7/8 Mostly Cloudy,21000.0,,FEW,12000.0,BKN,21000.0,,,,
KRDR,09-30-2006,12:00,METAR,,280,7.0,,,9999.0,,4.0,3.0,29.70,1006.9,,,,,,,,,,,,,,.03 IN,Clear,72000.0,,,73000.0,,,,,,
KRDR,09-30-2006,11:00,METAR,,290,6.0,,,9999.0,,6.0,4.0,29.69,1006.4,,,,,,,,,,,,,,,2/8 Mostly Clear,72000.0,,FEW,12000.0,,,,,,
KRDR,09-30-2006,10:00,METAR,,310,6.0,,,9999.0,,7.0,5.0,29.67,1005.8,,,,,,,,,,,,,,,2/8 Mostly Clear,72000.0,,FEW,12000.0,,,,,,
KRDR,09-30-2006,09:00,METAR,,300,5.0,,,9999.0,,8.0,5.0,29.65,1005.3,,,,,,,,,,,,,,,4/8 Partly Cloudy,72000.0,,SCT,12000.0,,,,,,
KRDR,09-30-2006,08:00,METAR,,310,5.0,,,9999.0,,10.0,5.0,29.65,1005.1,,,,,,,,,,,,,,,8/8 Overcast,11000.0,,BKN,11000.0,OVC,15000.0,,,,
KRDR,09-30-2006,07:00,METAR,,270,6.0,,,9999.0,,11.0,6.0,29.63,1004.7,,,,,,,,,,,,,,,8/8 Overcast,10000.0,,FEW,6900.0,BKN,9900.0,OVC,15000.0,,
KRDR,09-30-2006,06:00,METAR,,240,4.0,,,9999.0,,9.0,7.0,29.63,1004.5,,,,,,,,,,,,,,,8/8 Overcast,10000.0,,FEW,6900.0,BKN,9900.0,OVC,15000.0,,
KRDR,09-30-2006,05:00,METAR,,230,3.0,,,9999.0,,9.0,7.0,29.63,1004.6,,,,,,,,,,,,,,,7/8 Mostly Cloudy,12000.0,,BKN,12000.0,,,,,,
KRDR,09-30-2006,04:00,METAR,,230,5.0,,,9999.0,,9.0,6.0,29.64,1004.8,,,,,,,,,,,,,,,7/8 Mostly Cloudy,15000.0,,SCT,8900.0,BKN,15000.0,,,,
KRDR,09-30-2006,03:00,METAR,,210,4.0,,,9999.0,,10.0,7.0,29.65,1005.1,,,,,,,,,,,,,,,7/8 Mostly Cloudy,15000.0,,SCT,8400.0,BKN,15000.0,,,,
KRDR,09-30-2006,02:00,METAR,,,2.0,,,9999.0,,12.0,7.0,29.64,1004.9,,,,,,,,,,,,,,,7/8 Mostly Cloudy,8500.0,,BKN,8400.0,,,,,,
KRDR,09-30-2006,01:00,METAR,,310,5.0,,,9999.0,,13.0,6.0,29.63,1004.5,,,,,,,,,,,,,,,7/8 Mostly Cloudy,9000.0,,BKN,8900.0,,,,,,
KRDR,09-30-2006,00:00,METAR,,310,6.0,,,9999.0,,15.0,6.0,29.62,1004.1,,,,,,,,,,,,,TRACE,,7/8 Mostly Cloudy,9500.0,,FEW,5900.0,BKN,9400.0,,,,
KRDR,09-29-2006,23:00,METAR,,320,15.0,21.0,,9999.0,,18.0,6.0,29.60,1003.7,,,,,,,,,,,,,,,4/8 Partly Cloudy,72000.0,,SCT,8900.0,,,,,,
KRDR,09-29-2006,22:00,METAR,,320,18.0,26.0,310/26KTS,9999.0,,19.0,6.0,29.59,1003.1,,,,,,,,,,,TRACE,,,,7/8 Mostly Cloudy,6500.0,,BKN,6400.0,BKN,12000.0,,,,
KRDR,09-29-2006,21:33,SPECI,,320,13.0,17.0,,9999.0,,18.0,7.0,29.59,,,,,,,,,,,,,,,,4/8 Partly Cloudy,72000.0,,SCT,7400.0,,,,,,
KRDR,09-29-2006,21:26,SPECI,,340,13.0,23.0,,9999.0,Light Rain Showers,19.0,6.0,29.58,,,,,80,,,,,,,,,,,7/8 Mostly Cloudy,7500.0,,BKN,7400.0,,,,,,
KRDR,09-29-2006,21:00,METAR,,300,18.0,21.0,,9999.0,,18.0,6.0,29.58,1002.9,,,,,,,,,,,,,,,7/8 Mostly Cloudy,9000.0,,SCT,5400.0,SCT,6400.0,BKN,8900.0,,
KRDR,09-29-2006,20:00,METAR,,310,14.0,26.0,300/28KTS,9999.0,,18.0,8.0,29.57,1002.7,,,,,,,,,,,,,,,7/8 Mostly Cloudy,4700.0,,BKN,4800.0,,,,,,
KRDR,09-29-2006,19:00,METAR,,300,17.0,22.0,,9999.0,,18.0,8.0,29.58,1002.9,,,,,,,,,,,,,,,7/8 Mostly Cloudy,4500.0,,BKN,4600.0,,,,,,
KRDR,09-29-2006,18:00,METAR,,280,15.0,,,9999.0,,16.0,8.0,29.58,1003.0,,,,,,,,,,,,,TRACE,,2/8 Mostly Clear,72000.0,,FEW,6400.0,,,,,,
KRDR,09-29-2006,17:00,METAR,,290,10.0,,,9999.0,,13.0,8.0,29.59,1003.2,,,,,,,,,,,TRACE,,,,7/8 Mostly Cloudy,6500.0,,BKN,6400.0,,,,,,
KRDR,09-29-2006,16:39,SPECI,,300,8.0,,,9999.0,,13.0,8.0,29.59,,,,,,,,,,,,,,,,7/8 Mostly Cloudy,6500.0,,BKN,6400.0,,,,,,
KRDR,09-29-2006,16:27,SPECI,,290,9.0,,,9999.0,Rain,13.0,8.0,29.59,,,,,61,,,,,,,,,,,7/8 Mostly Cloudy,7000.0,,BKN,6900.0,,,,,,
KRDR,09-29-2006,16:00,METAR,,290,9.0,,,9999.0,,13.0,8.0,29.58,1003.0,,,,,,,,,,,,,,,8/8 Overcast,10000.0,,FEW,6900.0,BKN,9900.0,OVC,25000.0,,
KRDR,09-29-2006,15:00,METAR,,280,7.0,,,9999.0,,12.0,8.0,29.57,1002.7,,,,,,,,,,,,.01 IN,,,8/8 Overcast,10000.0,,FEW,6400.0,BKN,9900.0,OVC,25000.0,,
KRDR,09-29-2006,14:00,METAR,,170,5.0,,,9999.0,,8.0,7.0,29.58,1003.0,,,,,,,,,,,,,,,7/8 Mostly Cloudy,10000.0,,FEW,5900.0,BKN,9900.0,BKN,15000.0,,
KRDR,09-29-2006,13:39,SPECI,,180,4.0,,,9999.0,,7.0,6.0,29.59,,,,,,,,,,,,,,,,7/8 Mostly Cloudy,9500.0,,FEW,5900.0,BKN,9400.0,,,,
KRDR,09-29-2006,13:07,METAR,,200,1.0,,,9999.0,Light Rain Showers,6.0,5.0,29.60,,,,,80,,,,,,,,,,,7/8 Mostly Cloudy,7000.0,,SCT,5900.0,BKN,6900.0,BKN,9900.0,,
KRDR,09-29-2006,13:00,METAR,,180,4.0,,,9999.0,Precipitation in the Vicinity,6.0,5.0,29.59,1003.3,,,,16,,,,,,,,,,,8/8 Overcast,10000.0,,FEW,6400.0,SCT,7900.0,OVC,9900.0,,
KRDR,09-29-2006,12:00,METAR,,170,4.0,,,9999.0,,6.0,4.0,29.60,1003.5,,,,,,,,,,,,,,.05 IN,8/8 Overcast,9500.0,,FEW,1600.0,SCT,5000.0,OVC,9400.0,,
KRDR,09-29-2006,11:00,METAR,,190,4.0,,,9999.0,,5.0,4.0,29.60,1003.4,,,,,,,,,,,,,,,7/8 Mostly Cloudy,11000.0,,BKN,11000.0,,,,,,
KRDR,09-29-2006,10:00,METAR,,180,6.0,,,9999.0,,6.0,4.0,29.61,1003.7,,,,,,,,,,,,,,,7/8 Mostly Cloudy,15000.0,,FEW,6900.0,BKN,15000.0,,,,
KRDR,09-29-2006,09:00,METAR,,180,9.0,,,9999.0,,6.0,3.0,29.61,1004.0,,,,,,,,,,,,,,,7/8 Mostly Cloudy,15000.0,,FEW,6900.0,BKN,15000.0,,,,
KRDR,09-29-2006,08:00,METAR,,160,7.0,,,9999.0,,5.0,3.0,29.64,1004.9,,,,,,,,,,,,,,,7/8 Mostly Cloudy,7000.0,,BKN,6900.0,,,,,,
KRDR,09-29-2006,07:00,METAR,,170,14.0,19.0,,9999.0,,6.0,3.0,29.67,1005.7,,,,,,,,,,,,,,,8/8 Overcast,6500.0,,OVC,6400.0,,,,,,
KRDR,09-29-2006,06:00,METAR,,150,13.0,,,9999.0,,6.0,3.0,29.69,1006.6,,,,,,,,,,,,,.05 IN,,7/8 Mostly Cloudy,6500.0,,BKN,6400.0,,,,,,
KRDR,09-29-2006,05:33,SPECI,,150,13.0,,,9999.0,,6.0,4.0,29.71,,,,,,,,,,,,,,,,8/8 Overcast,6000.0,,OVC,5900.0,,,,,,
KRDR,09-29-2006,05:00,METAR,,150,15.0,20.0,,9999.0,,6.0,3.0,29.73,1007.9,,,,,,,,,,,,,,,8/8 Overcast,5500.0,,FEW,4400.0,OVC,5400.0,,,,
KRDR,09-29-2006,04:00,METAR,,150,13.0,,,9999.0,Rain,6.0,4.0,29.77,1009.0,,,,61,,,,,,,,,,,8/8 Overcast,4900.0,,SCT,3000.0,OVC,5000.0,,,,
KRDR,09-29-2006,03:00,METAR,,130,9.0,,,9999.0,Rain,6.0,3.0,29.80,1010.0,,,,61,,,,,,,,.01 IN,,,8/8 Overcast,3000.0,,BKN,3000.0,OVC,4600.0,,,,
KRDR,09-29-2006,02:00,METAR,,140,7.0,,,9999.0,Rain,7.0,2.0,29.83,1011.1,,,,61,,,,,,,,,,,8/8 Overcast,3300.0,,BKN,3400.0,OVC,4800.0,,,,
KRDR,09-29-2006,01:00,METAR,,190,6.0,,,9999.0,,8.0,2.0,29.85,1011.8,,,,,,,,,,,,,,,8/8 Overcast,4600.0,,SCT,3000.0,OVC,4700.0,,,,
KRDR,09-29-2006,00:00,METAR,,190,8.0,,,9999.0,,9.0,-1.0,29.86,1012.3,,,,,,,,,,,,,,,8/8 Overcast,6000.0,,OVC,5900.0,,,,,,
KRDR,09-28-2006,23:00,METAR,,210,9.0,,,9999.0,,8.0,0.0,29.89,1013.1,,,,,,,,,,,,,,,8/8 Overcast,7500.0,,OVC,7400.0,,,,,,
KRDR,09-28-2006,22:00,METAR,,,2.0,,,9999.0,,8.0,0.0,29.92,1014.0,,,,,,,,,,,,,,,8/8 Overcast,9000.0,,BKN,8900.0,OVC,25000.0,,,,
KRDR,09-28-2006,21:35,SPECI,,,0.0,,,9999.0,,8.0,0.0,29.93,1014.5,,,,,,,,,,,,,,,7/8 Mostly Cloudy,2300.0,,BKN,2300.0,BKN,3700.0,,,,
KRDR,09-28-2006,21:00,METAR,,240,9.0,,,9999.0,,9.0,-2.0,29.95,1015.2,,,,,,,,,,,,,,,8/8 Overcast,7000.0,,OVC,6900.0,,,,,,
KRDR,09-28-2006,20:00,METAR,,220,5.0,,,9999.0,,9.0,-1.0,29.97,1015.8,,,,,,,,,,,,,,,8/8 Overcast,10000.0,,BKN,9900.0,OVC,25000.0,,,,
KRDR,09-28-2006,19:00,METAR,,220,6.0,,,9999.0,,9.0,-2.0,30.01,1017.0,,,,,,,,,,,,,,,8/8 Overcast,12000.0,,FEW,5000.0,BKN,12000.0,OVC,25000.0,,
KRDR,09-28-2006,18:00,METAR,,260,7.0,,,9999.0,,9.0,-2.0,30.03,1017.9,,,,,,,,,,,,,,,8/8 Overcast,25000.0,,FEW,4400.0,OVC,25000.0,,,,
KRDR,09-28-2006,17:00,METAR,,260,9.0,,,9999.0,,9.0,-2.0,30.07,1018.9,,,,,,,,,,,,,,,7/8 Mostly Cloudy,25000.0,,FEW,5900.0,SCT,12000.0,BKN,25000.0,,
KRDR,09-28-2006,16:00,METAR,Normal,280,7.0,,,,,8.0,-1.0,30.10,1019.9,,,,,,,,,,,,,,,,25000.0,,FEW,5900.0,SCT,12000.0,BKN,25000.0,,
KRDR,09-28-2006,15:00,METAR,,290,5.0,,,9999.0,,6.0,-1.0,30.11,1020.2,,,,,,,,,,,,,,,7/8 Mostly Cloudy,25000.0,,FEW,5900.0,BKN,25000.0,,,,
KRDR,09-28-2006,14:00,METAR,,300,6.0,,,9999.0,,2.0,-1.0,30.12,1020.6,,,,,,,,,,,,,,,4/8 Partly Cloudy,72000.0,,SCT,25000.0,,,,,,
KRDR,09-28-2006,13:00,METAR,,290,7.0,,,9999.0,,0.0,-3.0,30.12,1020.8,,,,,,,,,,,,,,,2/8 Mostly Clear,72000.0,,FEW,2500.0,FEW,25000.0,,,,
KRDR,09-28-2006,12:00,METAR,,290,6.0,,,9999.0,,-1.0,-2.0,30.13,1020.9,,,,,,,,,,,,,,,2/8 Mostly Clear,72000.0,,FEW,2000.0,FEW,25000.0,,,,
KRDR,09-28-2006,11:00,METAR,,300,7.0,,,9999.0,,0.0,-1.0,30.13,1021.0,,,,,,,,,,,,,,,2/8 Mostly Clear,72000.0,,FEW,5900.0,,,,,,
KRDR,09-28-2006,10:00,METAR,,310,5.0,,,9999.0,,1.0,-1.0,30.13,1021.0,,,,,,,,,,,,,,,7/8 Mostly Cloudy,6000.0,,BKN,5900.0,,,,,,
KRDR,09-28-2006,09:00,METAR,,320,5.0,,,9999.0,,2.0,0.0,30.13,1020.9,,,,,,,,,,,,,,,4/8 Partly Cloudy,72000.0,,SCT,5900.0,,,,,,
KRDR,09-28-2006,08:00,METAR,,340,6.0,,,9999.0,,4.0,1.0,30.13,1021.1,,,,,,,,,,,,,,,7/8 Mostly Cloudy,6000.0,,BKN,5900.0,,,,,,
KRDR,09-28-2006,07:00,METAR,,340,9.0,,,9999.0,,5.0,0.0,30.13,1021.0,,,,,,,,,,,,,,,8/8 Overcast,6000.0,,OVC,5900.0,,,,,,
KRDR,09-28-2006,06:00,METAR,,330,7.0,,,9999.0,,5.0,0.0,30.12,1020.7,,,,,,,,,,,,,,,8/8 Overcast,6000.0,,OVC,5900.0,,,,,,
KRDR,09-28-2006,05:00,METAR,,330,9.0,,,9999.0,,5.0,-1.0,30.12,1020.7,,,,,,,,,,,,,,,7/8 Mostly Cloudy,6000.0,,BKN,5900.0,,,,,,
KRDR,09-28-2006,04:00,METAR,,340,8.0,,,9999.0,,5.0,0.0,30.12,1020.6,,,,,,,,,,,,,,,7/8 Mostly Cloudy,6000.0,,BKN,5900.0,,,,,,
KRDR,09-28-2006,03:00,METAR,,340,8.0,,,9999.0,,5.0,0.0,30.11,1020.5,,,,,,,,,,,,,,,4/8 Partly Cloudy,72000.0,,SCT,5900.0,,,,,,
KRDR,09-28-2006,02:00,METAR,,360,9.0,,,9999.0,,5.0,0.0,30.11,1020.3,,,,,,,,,,,,,,,4/8 Partly Cloudy,72000.0,,SCT,5900.0,,,,,,
KRDR,09-28-2006,01:00,METAR,Normal,10,8.0,,,,,7.0,1.0,30.09,1019.7,,,,,,,,,,,,,,,,72000.0,,SCT,5900.0,,,,,,
KRDR,09-28-2006,00:00,METAR,Normal,20,11.0,,,,,9.0,3.0,30.07,1019.0,,,,,,,,,,,,,.11 IN,,,,,SCT,5900.0,,,,,,
KRDR,09-27-2006,23:00,METAR,,350,13.0,19.0,,9999.0,,10.0,3.0,30.06,1018.7,,,,,,,,,,,,,,,7/8 Mostly Cloudy,6500.0,,BKN,6400.0,,,,,,
KRDR,09-27-2006,22:00,METAR,,350,12.0,,,9999.0,,10.0,4.0,30.05,1018.3,,,,,,,,,,,,,,,7/8 Mostly Cloudy,6000.0,,FEW,3000.0,BKN,5900.0,BKN,12000.0,,
KRDR,09-27-2006,21:00,METAR,,360,8.0,,000/29KTS,9999.0,,9.0,5.0,30.04,1018.1,,,,,,,,,,,,.11 IN,,,7/8 Mostly Cloudy,3900.0,,SCT,3000.0,BKN,4000.0,BKN,12000.0,,
KRDR,09-27-2006,20:29,SPECI,,360,22.0,29.0,,9999.0,Rain Showers,10.0,6.0,30.04,,,,,81,,,,,,,,,,,8/8 Overcast,3800.0,,FEW,2600.0,OVC,3900.0,,,,
KRDR,09-27-2006,20:09,SPECI,,360,13.0,18.0,,9999.0,Precipitation in the Vicinity,10.0,6.0,30.03,,,,,16,,,,,,,,,,,7/8 Mostly Cloudy,3900.0,,SCT,3000.0,BKN,4000.0,BKN,5400.0,,
KRDR,09-27-2006,20:00,METAR,,330,6.0,,000/28KTS,9999.0,Light Rain Showers,9.0,6.0,30.03,1017.6,,,,80,,,,,,,,,,,7/8 Mostly Cloudy,5500.0,,FEW,2900.0,SCT,4000.0,BKN,5400.0,,
KRDR,09-27-2006,19:46,SPECI,,320,9.0,,,9999.0,Light Rain Showers,10.0,6.0,30.03,,,,,80,,,,,,,,,,,7/8 Mostly Cloudy,4600.0,,FEW,2800.0,SCT,3800.0,BKN,4700.0,,
KRDR,09-27-2006,19:33,SPECI,,20,9.0,,,9999.0,,9.0,6.0,30.03,,,,,,,,,,,,,,,,7/8 Mostly Cloudy,6000.0,,FEW,900.0,SCT,4500.0,BKN,5900.0,,
KRDR,09-27-2006,19:22,SPECI,,10,8.0,,,9999.0,,9.0,5.0,30.03,,,,,,,,,,,,,,,,7/8 Mostly Cloudy,4900.0,,SCT,3100.0,BKN,5000.0,,,,
KRDR,09-27-2006,19:01,SPECI,,360,17.0,21.0,,9999.0,Light Rain Showers,12.0,4.0,30.02,,,,,80,,,,,,,,,,,7/8 Mostly Cloudy,6000.0,,FEW,2900.0,SCT,3900.0,BKN,5900.0,,
KRDR,09-27-2006,19:00,METAR,,350,8.0,17.0,,9999.0,Precipitation in the Vicinity,12.0,4.0,30.02,1017.3,,,,16,,,,,,,,,,,7/8 Mostly Cloudy,6000.0,,FEW,2900.0,SCT,3900.0,BKN,5900.0,,
KRDR,09-27-2006,18:00,METAR,,350,15.0,21.0,,9999.0,,11.0,5.0,30.02,1017.4,,,,,,,,,,,,,,,8/8 Overcast,3400.0,,FEW,2800.0,BKN,3500.0,OVC,5400.0,,
KRDR,09-27-2006,17:00,METAR,,10,13.0,,,9999.0,,10.0,5.0,30.01,1017.2,,,,,,,,,,,,,,,7/8 Mostly Cloudy,3100.0,,FEW,2300.0,BKN,3200.0,BKN,5900.0,,
KRDR,09-27-2006,16:00,METAR,,360,11.0,,,9999.0,,10.0,5.0,30.00,1016.6,,,,,,,,,,,,,,,7/8 Mostly Cloudy,12000.0,,FEW,1900.0,SCT,5400.0,BKN,12000.0,,
KRDR,09-27-2006,15:00,METAR,,360,13.0,,,9999.0,,9.0,5.0,29.98,1016.0,,,,,,,,,,,,,,,4/8 Partly Cloudy,72000.0,,FEW,4500.0,SCT,12000.0,,,,
KRDR,09-27-2006,14:00,METAR,,350,9.0,,,9999.0,,7.0,4.0,29.97,1015.6,,,,,,,,,,,,,,,7/8 Mostly Cloudy,4400.0,,BKN,4500.0,,,,,,
KRDR,09-27-2006,13:00,METAR,,320,7.0,,,9999.0,,5.0,3.0,29.95,1015.0,,,,,,,,,,,,,,,7/8 Mostly Cloudy,12000.0,,SCT,4500.0,BKN,12000.0,,,,
KRDR,09-27-2006,12:00,METAR,,320,8.0,,,9999.0,,6.0,4.0,29.94,1014.7,,,,,,,,,,,,,,,7/8 Mostly Cloudy,4300.0,,BKN,4400.0,,,,,,
KRDR,09-27-2006,11:00,METAR,,310,7.0,,,9999.0,,5.0,4.0,29.92,1014.2,,,,,,,,,,,,,,,7/8 Mostly Cloudy,25000.0,,SCT,4000.0,BKN,25000.0,,,,
KRDR,09-27-2006,10:00,METAR,,330,7.0,,,9999.0,,5.0,4.0,29.90,1013.6,,,,,,,,,,,,,,,7/8 Mostly Cloudy,25000.0,,FEW,3000.0,SCT,12000.0,BKN,25000.0,,
KRDR,09-27-2006,09:00,METAR,,320,7.0,,,9999.0,,7.0,5.0,29.90,1013.3,,,,,,,,,,,,,,,7/8 Mostly Cloudy,12000.0,,SCT,3000.0,BKN,12000.0,,,,
KRDR,09-27-2006,08:00,METAR,,320,7.0,,,9999.0,,8.0,6.0,29.89,1013.2,,,,,,,,,,,,,,,8/8 Overcast,9000.0,,SCT,3000.0,OVC,8900.0,,,,
KRDR,09-27-2006,07:00,METAR,,310,7.0,,,9999.0,,8.0,7.0,29.88,1012.9,,,,,,,,,,,,,,,7/8 Mostly Cloudy,10000.0,,SCT,6900.0,BKN,9900.0,,,,
KRDR,09-27-2006,06:00,METAR,,330,5.0,,,9999.0,,9.0,7.0,29.88,1012.9,,,,,,,,,,,,,TRACE,,8/8 Overcast,7000.0,,SCT,4000.0,OVC,6900.0,,,,
KRDR,09-27-2006,05:35,SPECI,,340,6.0,,,9999.0,,9.0,7.0,29.89,,,,,,,,,,,,,,,,7/8 Mostly Cloudy,6000.0,,FEW,1300.0,SCT,4400.0,BKN,5900.0,,
KRDR,09-27-2006,05:16,SPECI,,340,8.0,,,9999.0,Rain,9.0,7.0,29.90,,,,,61,,,,,,,,,,,8/8 Overcast,6000.0,,FEW,1300.0,SCT,4300.0,OVC,5900.0,,
KRDR,09-27-2006,05:11,SPECI,,340,8.0,,,9999.0,Rain,9.0,7.0,29.89,,,,,61,,,,,,,,,,,8/8 Overcast,6000.0,,FEW,1300.0,SCT,4300.0,OVC,5900.0,,
KRDR,09-27-2006,05:00,METAR,,340,8.0,,,9999.0,,9.0,7.0,29.89,1013.0,,,,,,,,,,,,,,,8/8 Overcast,7000.0,,BKN,6900.0,OVC,12000.0,,,,
KRDR,09-27-2006,04:00,METAR,,320,8.0,,,9999.0,,9.0,6.0,29.88,1012.6,,,,,,,,,,,,,,,7/8 Mostly Cloudy,25000.0,,FEW,6900.0,SCT,12000.0,BKN,25000.0,,
KRDR,09-27-2006,03:00,METAR,,340,7.0,,,9999.0,,9.0,7.0,29.87,1012.3,,,,,,,,,,,,,,,7/8 Mostly Cloudy,25000.0,,SCT,6900.0,BKN,25000.0,,,,
KRDR,09-27-2006,02:00,METAR,,330,7.0,,,9999.0,,10.0,6.0,29.84,1011.4,,,,,,,,,,,,,,,7/8 Mostly Cloudy,25000.0,,FEW,4000.0,SCT,7900.0,BKN,25000.0,,
KRDR,09-27-2006,01:00,METAR,,330,7.0,,,9999.0,,11.0,7.0,29.82,1010.8,,,,,,,,,,,,,,,4/8 Partly Cloudy,72000.0,,SCT,4200.0,SCT,7900.0,,,,
KRDR,09-27-2006,00:00,METAR,,360,10.0,,,9999.0,,12.0,8.0,29.81,1010.3,,,,,,,,,,,,,,,7/8 Mostly Cloudy,4100.0,,SCT,2400.0,BKN,4200.0,BKN,7900.0,,
KRDR,09-26-2006,23:00,METAR,,360,15.0,18.0,,9999.0,,14.0,8.0,29.79,1009.9,,,,,,,,,,,,,,,8/8 Overcast,4100.0,,SCT,2400.0,BKN,4200.0,OVC,7900.0,,
KRDR,09-26-2006,22:00,METAR,,350,14.0,,,9999.0,,14.0,8.0,29.78,1009.4,,,,,,,,,,,,,,,8/8 Overcast,3600.0,,SCT,2600.0,BKN,3700.0,OVC,7900.0,,
KRDR,09-26-2006,21:00,METAR,,360,15.0,,,9999.0,,14.0,9.0,29.76,1008.9,,,,,,,,,,,,,,,8/8 Overcast,3100.0,,SCT,2300.0,BKN,3100.0,OVC,7400.0,,
KRDR,09-26-2006,20:00,METAR,,360,16.0,22.0,,9999.0,,15.0,9.0,29.74,1008.2,,,,,,,,,,,,,,,8/8 Overcast,4400.0,,FEW,2000.0,SCT,2600.0,BKN,4500.0,OVC,8900.0
KRDR,09-26-2006,19:00,METAR,,360,14.0,20.0,,9999.0,,15.0,11.0,29.73,1007.7,,,,,,,,,,,,,,,8/8 Overcast,4300.0,,FEW,3400.0,BKN,4400.0,OVC,9900.0,,
KRDR,09-26-2006,18:14,SPECI,,350,13.0,,,9999.0,,16.0,11.0,29.71,1007.2,,,,,,,,,,,,,,,8/8 Overcast,3100.0,,SCT,2400.0,BKN,3100.0,OVC,20000.0,,
KRDR,09-26-2006,18:07,SPECI,,350,14.0,,,9999.0,,17.0,12.0,29.71,1007.2,,,,,,,,,,,,,,,8/8 Overcast,2100.0,,BKN,2900.0,BKN,3800.0,OVC,20000.0,,
KRDR,09-26-2006,18:00,METAR,,350,12.0,,,9999.0,,16.0,12.0,29.71,1007.1,,,,,,,,,,,,,TRACE,,8/8 Overcast,3400.0,,FEW,2400.0,BKN,3500.0,OVC,20000.0,,
KRDR,09-26-2006,17:05,SPECI,,340,14.0,19.0,,9999.0,,16.0,11.0,29.69,,,,,,,,,,,,,,,,8/8 Overcast,10000.0,,SCT,2400.0,BKN,9900.0,OVC,25000.0,,
KRDR,09-26-2006,17:00,METAR,,340,13.0,,,9999.0,Light Rain Showers,16.0,11.0,29.69,1006.6,,,,80,,,,,,,,,,,8/8 Overcast,11000.0,,FEW,2500.0,SCT,7400.0,BKN,11000.0,OVC,25000.0
KRDR,09-26-2006,16:00,METAR,,330,13.0,19.0,,9999.0,,18.0,11.0,29.67,1006.0,,,,,,,,,,,,,,,7/8 Mostly Cloudy,20000.0,,FEW,12000.0,BKN,20000.0,,,,
KRDR,09-26-2006,15:00,METAR,,280,7.0,,,9999.0,,15.0,10.0,29.66,1005.6,,,,,,,,,,,,,,,7/8 Mostly Cloudy,10000.0,,BKN,9900.0,BKN,25000.0,,,,
KRDR,09-26-2006,14:00,METAR,,250,6.0,,,9999.0,,13.0,9.0,29.66,1005.5,,,,,,,,,,,,,,,7/8 Mostly Cloudy,25000.0,,FEW,4500.0,SCT,9900.0,BKN,25000.0,,
KRDR,09-26-2006,13:00,METAR,,230,8.0,,,9999.0,,11.0,8.0,29.67,1005.9,,,,,,,,,,,,,,,7/8 Mostly Cloudy,25000.0,,FEW,9900.0,BKN,25000.0,,,,
KRDR,09-26-2006,12:00,METAR,,210,6.0,,,9999.0,,10.0,7.0,29.71,1007.1,,,,,,,,,,,,,TRACE,,7/8 Mostly Cloudy,10000.0,,BKN,9900.0,,,,,,
KRDR,09-26-2006,11:00,METAR,,180,11.0,,,9999.0,,9.0,7.0,29.71,1007.2,,,,,,,,,,,,,,,7/8 Mostly Cloudy,25000.0,,FEW,5000.0,SCT,12000.0,BKN,25000.0,,
KRDR,09-26-2006,10:00,METAR,,190,10.0,,,9999.0,,10.0,7.0,29.73,1007.9,,,,,,,,,,,,,,,7/8 Mostly Cloudy,25000.0,,FEW,5000.0,SCT,12000.0,BKN,25000.0,,
KRDR,09-26-2006,09:00,METAR,,70,7.0,,320/28KTS,9999.0,,12.0,7.0,29.79,1009.6,,,,,,,,,,,,TRACE,,,7/8 Mostly Cloudy,10000.0,,FEW,7400.0,BKN,9900.0,,,,
KRDR,09-26-2006,08:38,SPECI,,70,4.0,,320/28KTS,9999.0,,12.0,7.0,29.80,,,,,,,,,,,,,,,,8/8 Overcast,9000.0,,SCT,4400.0,OVC,8900.0,,,,
KRDR,09-26-2006,08:11,SPECI,,350,17.0,24.0,,9999.0,Thunderstorm with Rain or Snow/Light Rain Showers,13.0,7.0,29.82,,,,,95,80,,,,,,,,,,8/8 Overcast,9000.0,,FEW,800.0,SCT,4000.0,OVC,8900.0,,
KRDR,09-26-2006,08:00,METAR,,230,14.0,21.0,,9999.0,,14.0,5.0,29.75,1008.4,,,,,,,,,,,,,,,8/8 Overcast,10000.0,,BKN,9900.0,OVC,25000.0,,,,
KRDR,09-26-2006,07:00,METAR,,220,12.0,,,9999.0,,12.0,5.0,29.79,1009.8,,,,,,,,,,,,,,,7/8 Mostly Cloudy,9000.0,,BKN,8900.0,BKN,25000.0,,,,
KRDR,09-26-2006,06:00,METAR,,190,9.0,,,9999.0,,10.0,4.0,29.84,1011.5,,,,,,,,,,,,,,,7/8 Mostly Cloudy,25000.0,,SCT,8400.0,BKN,25000.0,,,,
KRDR,09-26-2006,05:00,METAR,,210,9.0,,,9999.0,,10.0,4.0,29.89,1013.0,,,,,,,,,,,,,,,7/8 Mostly Cloudy,25000.0,,SCT,7900.0,BKN,25000.0,,,,
KRDR,09-26-2006,04:00,METAR,,220,5.0,,,9999.0,,9.0,6.0,29.91,1013.9,,,,,,,,,,,,,,,7/8 Mostly Cloudy,25000.0,,SCT,7900.0,BKN,25000.0,,,,
KRDR,09-26-2006,03:00,METAR,,220,5.0,,,9999.0,,9.0,4.0,29.93,1014.6,,,,,,,,,,,,,,,4/8 Partly Cloudy,72000.0,,SCT,25000.0,,,,,,
KRDR,09-26-2006,02:00,METAR,,220,5.0,,,9999.0,,9.0,4.0,29.96,1015.3,,,,,,,,,,,,,,,4/8 Partly Cloudy,72000.0,,SCT,25000.0,,,,,,
KRDR,09-26-2006,01:00,METAR,,260,6.0,,,9999.0,,11.0,5.0,29.97,1015.6,,,,,,,,,,,,,,,4/8 Partly Cloudy,72000.0,,SCT,25000.0,,,,,,
KRDR,09-26-2006,00:00,METAR,,260,7.0,,,9999.0,,15.0,5.0,29.97,1015.8,,,,,,,,,,,,,,,4/8 Partly Cloudy,72000.0,,FEW,5900.0,SCT,25000.0,,,,
KRDR,09-25-2006,23:00,METAR,,,6.0,,,9999.0,,18.0,3.0,29.99,1016.4,,,,,,,,,,,,,,,4/8 Partly Cloudy,72000.0,,FEW,5900.0,SCT,25000.0,,,,
KRDR,09-25-2006,22:00,METAR,,320,11.0,,,9999.0,,18.0,3.0,30.00,1016.8,,,,,,,,,,,,,,,7/8 Mostly Cloudy,25000.0,,FEW,5900.0,BKN,25000.0,,,,
KRDR,09-25-2006,21:00,METAR,,,0.0,,,9999.0,,18.0,2.0,30.01,1017.1,,,,,,,,,,,,,,,7/8 Mostly Cloudy,25000.0,,FEW,5000.0,BKN,25000.0,,,,
KRDR,09-25-2006,20:00,METAR,,320,10.0,,,9999.0,,18.0,2.0,30.02,1017.4,,,,,,,,,,,,,,,7/8 Mostly Cloudy,25000.0,,FEW,5000.0,BKN,25000.0,,,,
KRDR,09-25-2006,19:00,METAR,,310,13.0,16.0,,9999.0,,17.0,5.0,30.04,1017.9,,,,,,,,,,,,,,,4/8 Partly Cloudy,72000.0,,FEW,4500.0,SCT,25000.0,,,,
KRDR,09-25-2006,18:00,METAR,,320,10.0,,,9999.0,,17.0,6.0,30.05,1018.4,,,,,,,,,,,,,,,4/8 Partly Cloudy,72000.0,,FEW,4500.0,SCT,25000.0,,,,
KRDR,09-25-2006,17:00,METAR,,300,8.0,,,9999.0,,16.0,6.0,30.06,1018.6,,,,,,,,,,,,,,,Clear,72000.0,,,73000.0,,,,,,
KRDR,09-25-2006,16:00,METAR,Normal,300,8.0,,,,,14.0,7.0,30.05,1018.5,,,,,,,,,,,,,,,,72000.0,,,,,,,,,
KRDR,09-25-2006,15:00,METAR,,300,8.0,,,9999.0,,11.0,7.0,30.04,1018.2,,,,,,,,,,,,,,,Clear,72000.0,,,73000.0,,,,,,
KRDR,09-25-2006,14:00,METAR,,300,10.0,,,9999.0,,9.0,6.0,30.03,1017.8,,,,,,,,,,,,,,,Clear,72000.0,,,73000.0,,,,,,
KRDR,09-25-2006,13:00,METAR,,290,7.0,,,9999.0,,6.0,5.0,30.02,1017.4,,,,,,,,,,,,,,,Clear,72000.0,,,73000.0,,,,,,
KRDR,09-25-2006,12:00,METAR,,310,7.0,,,9999.0,,7.0,5.0,30.00,1016.7,,,,,,,,,,,,,TRACE,,Clear,72000.0,,,73000.0,,,,,,
KRDR,09-25-2006,11:00,METAR,,290,7.0,,,9999.0,,7.0,5.0,29.98,1016.0,,,,,,,,,,,,,,,4/8 Partly Cloudy,72000.0,,SCT,25000.0,,,,,,
KRDR,09-25-2006,10:00,METAR,,310,6.0,,,9999.0,,7.0,5.0,29.96,1015.3,,,,,,,,,,,,,,,7/8 Mostly Cloudy,25000.0,,FEW,7900.0,BKN,25000.0,,,,
KRDR,09-25-2006,09:00,METAR,,290,6.0,,,9999.0,,6.0,5.0,29.94,1014.6,,,,,,,,,,,,TRACE,,,4/8 Partly Cloudy,72000.0,,FEW,7900.0,SCT,25000.0,,,,
KRDR,09-25-2006,08:00,METAR,,320,5.0,,,9999.0,,8.0,7.0,29.92,1014.2,,,,,,,,,,,,,,,7/8 Mostly Cloudy,25000.0,,SCT,4000.0,BKN,25000.0,,,,
KRDR,09-25-2006,07:00,METAR,,360,3.0,,,9999.0,,10.0,8.0,29.90,1013.4,,,,,,,,,,,TRACE,,,,8/8 Overcast,3400.0,,BKN,3500.0,OVC,25000.0,,,,
KRDR,09-25-2006,06:24,SPECI,,360,8.0,,,9999.0,,9.0,8.0,29.90,1013.5,,,,,,,,,,,,,,,8/8 Overcast,3900.0,,BKN,4000.0,OVC,25000.0,,,,
KRDR,09-25-2006,06:00,METAR,,10,15.0,20.0,,9999.0,Rain,11.0,7.0,29.89,1013.0,,,,61,,,,,,,TRACE,,TRACE,,7/8 Mostly Cloudy,7500.0,,BKN,7400.0,BKN,25000.0,,,,
KRDR,09-25-2006,05:00,METAR,,330,15.0,21.0,,9999.0,,14.0,7.0,29.85,1011.9,,,,,,,,,,,,,,,7/8 Mostly Cloudy,25000.0,,SCT,6900.0,BKN,25000.0,,,,
KRDR,09-25-2006,04:00,METAR,,240,7.0,,,9999.0,,10.0,6.0,29.81,1010.4,,,,,,,,,,,,,,,7/8 Mostly Cloudy,25000.0,,BKN,25000.0,,,,,,
KRDR,09-25-2006,03:00,METAR,,230,6.0,,,9999.0,,9.0,6.0,29.83,1011.3,,,,,,,,,,,,,,,7/8 Mostly Cloudy,25000.0,,BKN,25000.0,,,,,,
KRDR,09-25-2006,02:00,METAR,,250,8.0,,,9999.0,,12.0,6.0,29.84,1011.6,,,,,,,,,,,,,,,7/8 Mostly Cloudy,25000.0,,BKN,25000.0,,,,,,
KRDR,09-25-2006,01:00,METAR,,260,8.0,,,9999.0,,14.0,7.0,29.86,1012.0,,,,,,,,,,,,,,,7/8 Mostly Cloudy,25000.0,,BKN,25000.0,,,,,,
KRDR,09-25-2006,00:00,METAR,,270,9.0,,,9999.0,,16.0,7.0,29.86,1012.1,,,,,,,,,,,,,,,7/8 Mostly Cloudy,25000.0,,BKN,25000.0,,,,,,
KRDR,09-24-2006,23:00,METAR,,280,9.0,,,9999.0,,18.0,7.0,29.87,1012.3,,,,,,,,,,,,,,,Clear,72000.0,,,73000.0,,,,,,
KRDR,09-24-2006,22:00,METAR,,290,13.0,,,9999.0,,19.0,6.0,29.88,1012.9,,,,,,,,,,,,,,,7/8 Mostly Cloudy,7000.0,,BKN,6900.0,,,,,,
KRDR,09-24-2006,21:00,METAR,,280,14.0,21.0,,9999.0,,19.0,6.0,29.89,1013.2,,,,,,,,,,,,,,,7/8 Mostly Cloudy,25000.0,,FEW,4500.0,SCT,7400.0,BKN,25000.0,,
KRDR,09-24-2006,20:00,METAR,,300,13.0,19.0,,9999.0,,19.0,6.0,29.91,1013.7,,,,,,,,,,,,,,,4/8 Partly Cloudy,72000.0,,FEW,5000.0,SCT,5900.0,,,,
KRDR,09-24-2006,19:00,METAR,,300,13.0,,,9999.0,,17.0,5.0,29.93,1014.4,,,,,,,,,,,,,,,7/8 Mostly Cloudy,25000.0,,SCT,5400.0,BKN,25000.0,,,,
KRDR,09-24-2006,18:00,METAR,,300,13.0,21.0,,9999.0,,16.0,7.0,29.95,1014.9,,,,,,,,,,,,,,,7/8 Mostly Cloudy,25000.0,,SCT,4200.0,SCT,7900.0,BKN,25000.0,,
KRDR,09-24-2006,17:00,METAR,,310,14.0,,,9999.0,,16.0,6.0,29.96,1015.4,,,,,,,,,,,,,,,7/8 Mostly Cloudy,25000.0,,FEW,5900.0,SCT,8900.0,BKN,25000.0,,
KRDR,09-24-2006,16:00,METAR,,300,10.0,,,9999.0,,14.0,8.0,29.97,1015.7,,,,,,,,,,,,,,,7/8 Mostly Cloudy,8000.0,,FEW,5000.0,BKN,7900.0,BKN,25000.0,,
KRDR,09-24-2006,15:00,METAR,,310,12.0,,,9999.0,,14.0,7.0,29.96,1015.6,,,,,,,,,,,,,,,7/8 Mostly Cloudy,8000.0,,BKN,7900.0,,,,,,
KRDR,09-24-2006,14:00,METAR,,280,7.0,,,9999.0,,10.0,5.0,29.96,1015.3,,,,,,,,,,,,,,,Clear,72000.0,,,73000.0,,,,,,
KRDR,09-24-2006,13:00,METAR,,280,5.0,,,9999.0,,9.0,6.0,29.95,1015.2,,,,,,,,,,,,,,,7/8 Mostly Cloudy,7500.0,,BKN,7400.0,,,,,,
KRDR,09-24-2006,12:00,METAR,,300,4.0,,,9999.0,,8.0,5.0,29.96,1015.3,,,,,,,,,,,,,,,8/8 Overcast,9000.0,,FEW,5900.0,OVC,8900.0,,,,
KRDR,09-24-2006,11:00,METAR,,260,4.0,,,9999.0,,7.0,5.0,29.96,1015.3,,,,,,,,,,,,,,,8/8 Overcast,10000.0,,OVC,9900.0,,,,,,
KRDR,09-24-2006,10:00,METAR,,270,5.0,,,9999.0,,7.0,4.0,29.96,1015.5,,,,,,,,,,,,,,,8/8 Overcast,10000.0,,OVC,9900.0,,,,,,
KRDR,09-24-2006,09:00,METAR,,290,6.0,,,9999.0,,7.0,4.0,29.96,1015.6,,,,,,,,,,,,,,,8/8 Overcast,10000.0,,OVC,9900.0,,,,,,
KRDR,09-24-2006,08:00,METAR,,290,6.0,,,9999.0,,6.0,3.0,29.97,1015.8,,,,,,,,,,,,,,,7/8 Mostly Cloudy,11000.0,,BKN,11000.0,,,,,,
KRDR,09-24-2006,07:00,METAR,,300,6.0,,,9999.0,,7.0,3.0,29.98,1015.9,,,,,,,,,,,,,,,7/8 Mostly Cloudy,11000.0,,BKN,11000.0,,,,,,
KRDR,09-24-2006,06:00,METAR,,310,5.0,,,9999.0,,7.0,4.0,29.97,1015.8,,,,,,,,,,,,,,,7/8 Mostly Cloudy,15000.0,,BKN,15000.0,,,,,,
KRDR,09-24-2006,05:00,METAR,,320,5.0,,,9999.0,,7.0,3.0,29.96,1015.4,,,,,,,,,,,,,,,7/8 Mostly Cloudy,15000.0,,BKN,15000.0,,,,,,
KRDR,09-24-2006,04:00,METAR,,330,8.0,,,9999.0,,9.0,4.0,29.95,1015.2,,,,,,,,,,,,,,,Clear,72000.0,,,73000.0,,,,,,
KRDR,09-24-2006,03:00,METAR,,330,7.0,,,9999.0,,9.0,5.0,29.95,1015.0,,,,,,,,,,,,,,,Clear,72000.0,,,73000.0,,,,,,
KRDR,09-24-2006,02:00,METAR,,320,6.0,,,9999.0,,10.0,6.0,29.94,1014.7,,,,,,,,,,,,,,,Clear,72000.0,,,73000.0,,,,,,
KRDR,09-24-2006,01:00,METAR,,340,8.0,,,9999.0,,12.0,7.0,29.93,1014.5,,,,,,,,,,,,,,,2/8 Mostly Clear,72000.0,,FEW,4000.0,FEW,25000.0,,,,
KRDR,09-24-2006,00:00,METAR,,350,10.0,,,9999.0,,14.0,7.0,29.93,1014.4,,,,,,,,,,,,,,,2/8 Mostly Clear,72000.0,,FEW,3600.0,FEW,25000.0,,,,
KRDR,09-23-2006,23:00,METAR,,350,12.0,,,9999.0,,16.0,8.0,29.92,1014.0,,,,,,,,,,,,,,,2/8 Mostly Clear,72000.0,,FEW,3500.0,FEW,25000.0,,,,
KRDR,09-23-2006,22:00,METAR,,360,13.0,18.0,,9999.0,,17.0,8.0,29.91,1013.7,,,,,,,,,,,,,,,4/8 Partly Cloudy,72000.0,,SCT,3500.0,SCT,25000.0,,,,
KRDR,09-23-2006,21:00,METAR,,350,17.0,20.0,,9999.0,,17.0,9.0,29.90,1013.6,,,,,,,,,,,,,,,4/8 Partly Cloudy,72000.0,,SCT,4600.0,,,,,,
KRDR,09-23-2006,20:00,METAR,,10,15.0,23.0,,9999.0,,16.0,10.0,29.90,1013.3,,,,,,,,,,,,,,,4/8 Partly Cloudy,72000.0,,SCT,2700.0,,,,,,
KRDR,09-23-2006,19:00,METAR,,360,15.0,22.0,,9999.0,,16.0,10.0,29.90,1013.4,,,,,,,,,,,,,,,4/8 Partly Cloudy,72000.0,,SCT,2000.0,,,,,,
KRDR,09-23-2006,18:00,METAR,,10,14.0,21.0,,9999.0,,15.0,9.0,29.89,1013.1,,,,,,,,,,,,,,,2/8 Mostly Clear,72000.0,,FEW,2000.0,,,,,,
KRDR,09-23-2006,17:00,METAR,,360,14.0,,,9999.0,,14.0,9.0,29.88,1012.9,,,,,,,,,,,,,,,2/8 Mostly Clear,72000.0,,FEW,1100.0,FEW,25000.0,,,,
KRDR,09-23-2006,16:00,METAR,,10,16.0,23.0,,9999.0,,12.0,8.0,29.87,1012.5,,,,,,,,,,,,,,,2/8 Mostly Clear,72000.0,,FEW,1100.0,FEW,25000.0,,,,
KRDR,09-23-2006,14:53,METAR,,10,16.0,,,9999.0,,4.0,3.0,29.82,1011.9,,,,,,,,,,,,,,,2/8 Mostly Clear,72000.0,,FEW,1100.0,FEW,25000.0,,,,
KRDR,09-23-2006,14:00,METAR,,360,14.0,,,9999.0,,10.0,7.0,29.84,1011.6,,,,,,,,,,,,,,,4/8 Partly Cloudy,72000.0,,FEW,1100.0,SCT,25000.0,,,,
KRDR,09-23-2006,13:00,METAR,,350,12.0,,,9999.0,,9.0,8.0,29.82,1010.9,,,,,,,,,,,,,,,7/8 Mostly Cloudy,25000.0,,FEW,1100.0,FEW,3000.0,SCT,6400.0,BKN,25000.0
KRDR,09-23-2006,12:07,SPECI,,360,12.0,,,9999.0,,10.0,9.0,29.80,,,,,,,,,,,,,,,,8/8 Overcast,6000.0,,SCT,1100.0,SCT,3000.0,OVC,5900.0,,
KRDR,09-23-2006,12:00,METAR,,360,12.0,,,9999.0,,10.0,9.0,29.80,1010.0,,,,,,,,,,,,,TRACE,.57 IN,8/8 Overcast,1100.0,,BKN,1100.0,BKN,3000.0,OVC,5900.0,,
KRDR,09-23-2006,11:00,METAR,,10,15.0,18.0,,9999.0,,11.0,9.0,29.77,1009.3,,,,,,,,,,,,,,,8/8 Overcast,1100.0,,BKN,1100.0,BKN,3000.0,OVC,6400.0,,
KRDR,09-23-2006,10:00,METAR,,360,14.0,19.0,,9999.0,,11.0,10.0,29.76,1008.7,,,,,,,,,,,,,,,8/8 Overcast,1100.0,,BKN,1100.0,OVC,2300.0,,,,
KRDR,09-23-2006,09:15,SPECI,,360,15.0,,,9999.0,,11.0,10.0,29.75,,,,,,,,,,,,,,,,8/8 Overcast,1300.0,,OVC,1300.0,,,,,,
KRDR,09-23-2006,09:00,METAR,,10,12.0,,,9999.0,,11.0,10.0,29.75,1008.4,,,,,,,,,,,,.01 IN,,,8/8 Overcast,1500.0,,SCT,1000.0,OVC,1500.0,,,,
KRDR,09-23-2006,08:29,SPECI,,360,14.0,,,9999.0,,11.0,10.0,29.74,,,,,,,,,,,,,,,,8/8 Overcast,1500.0,,FEW,700.0,OVC,1500.0,,,,
KRDR,09-23-2006,08:00,METAR,,360,15.0,,,9999.0,Drizzle,11.0,10.0,29.73,1007.7,,,,51,,,,,,,,,,,8/8 Overcast,1500.0,,FEW,600.0,OVC,1500.0,,,,
KRDR,09-23-2006,07:33,SPECI,,10,12.0,,,9999.0,Drizzle,11.0,10.0,29.72,,,,,51,,,,,,,,,,,8/8 Overcast,2900.0,,SCT,600.0,OVC,2900.0,,,,
KRDR,09-23-2006,07:00,METAR,,360,12.0,,,9999.0,Drizzle,11.0,10.0,29.72,1007.5,,,,51,,,,,,,,,,,8/8 Overcast,1200.0,,FEW,900.0,BKN,1200.0,OVC,6900.0,,
KRDR,09-23-2006,06:47,SPECI,,360,13.0,,,9999.0,Rain,11.0,10.0,29.72,,,,,61,,,,,,,,,,,8/8 Overcast,1100.0,,FEW,700.0,BKN,1100.0,OVC,5900.0,,
KRDR,09-23-2006,06:00,METAR,,10,14.0,,,9999.0,,11.0,10.0,29.71,1007.2,,,,,,,,,,,,,.03 IN,,8/8 Overcast,1600.0,,SCT,600.0,BKN,1600.0,OVC,5400.0,,
KRDR,09-23-2006,05:31,SPECI,,10,13.0,,,9999.0,Drizzle,11.0,10.0,29.71,,,,,51,,,,,,,,,,,8/8 Overcast,2100.0,,SCT,600.0,OVC,2100.0,,,,
KRDR,09-23-2006,05:00,METAR,,10,13.0,,,9999.0,Drizzle,12.0,11.0,29.70,1006.8,,,,51,,,,,,,,,,,7/8 Mostly Cloudy,1100.0,,SCT,700.0,BKN,1100.0,BKN,4100.0,,
KRDR,09-23-2006,04:00,METAR,,10,12.0,,,9999.0,Rain,12.0,11.0,29.69,1006.5,,,,61,,,,,,,,,,,8/8 Overcast,1100.0,,BKN,1100.0,BKN,3900.0,OVC,4600.0,,
KRDR,09-23-2006,03:00,METAR,,10,13.0,,,9999.0,Drizzle,12.0,11.0,29.68,1006.1,,,,51,,,,,,,,.01 IN,,,8/8 Overcast,1100.0,,FEW,700.0,BKN,1100.0,OVC,3900.0,,
KRDR,09-23-2006,02:26,SPECI,,20,15.0,,,9999.0,Drizzle,12.0,11.0,29.67,,,,,51,,,,,,,,,,,8/8 Overcast,1100.0,,BKN,1100.0,OVC,2000.0,,,,
KRDR,09-23-2006,02:13,SPECI,,20,14.0,20.0,,9999.0,,12.0,11.0,29.67,,,,,,,,,,,,,,,,8/8 Overcast,1400.0,,OVC,1400.0,,,,,,
KRDR,09-23-2006,02:06,SPECI,,20,14.0,20.0,,9999.0,,12.0,11.0,29.66,,,,,,,,,,,,,,,,8/8 Overcast,2200.0,,SCT,700.0,OVC,2200.0,,,,
KRDR,09-23-2006,02:00,METAR,,10,15.0,,,9999.0,Drizzle,12.0,11.0,29.66,1005.6,,,,51,,,,,,,,,,,8/8 Overcast,1200.0,,OVC,1200.0,,,,,,
KRDR,09-23-2006,01:37,SPECI,,20,15.0,19.0,,9999.0,,12.0,11.0,29.66,,,,,,,,,,,,,,,,8/8 Overcast,1400.0,,FEW,900.0,BKN,1400.0,OVC,2200.0,,
KRDR,09-23-2006,01:05,SPECI,,20,14.0,,,9999.0,,12.0,11.0,29.65,,,,,,,,,,,,,,,,8/8 Overcast,1100.0,,BKN,1100.0,OVC,3600.0,,,,
KRDR,09-23-2006,00:51,METAR,,20,13.0,,,9999.0,Drizzle,12.0,11.0,29.65,1005.1,,,,51,,,,,,,,,,,8/8 Overcast,800.0,,BKN,1300.0,OVC,2700.0,,,,
KRDR,09-23-2006,00:00,METAR,,20,14.0,,,9999.0,Drizzle,13.0,11.0,29.63,1004.6,,,,51,,,,,,,,,.13 IN,,8/8 Overcast,1100.0,,BKN,1100.0,BKN,1800.0,OVC,2900.0,,
KRDR,09-22-2006,23:23,SPECI,,20,14.0,,,9999.0,Rain,13.0,11.0,29.62,,,,,61,,,,,,,,,,,8/8 Overcast,1100.0,,BKN,1100.0,BKN,1900.0,OVC,3500.0,,
KRDR,09-22-2006,23:05,SPECI,,20,12.0,,,9999.0,Rain,13.0,12.0,29.62,,,,,61,,,,,,,,,,,7/8 Mostly Cloudy,1000.0,,BKN,1000.0,BKN,2600.0,BKN,5900.0,,
KRDR,09-22-2006,23:00,METAR,,20,13.0,,,9999.0,Rain,13.0,11.0,29.61,1004.0,,,,61,,,,,,,,,,,8/8 Overcast,2800.0,,SCT,1300.0,BKN,2800.0,OVC,4600.0,,
KRDR,09-22-2006,22:26,SPECI,,20,11.0,,,9999.0,Drizzle,13.0,11.0,29.61,,,,,51,,,,,,,,,,,8/8 Overcast,1900.0,,FEW,800.0,BKN,1900.0,BKN,2800.0,OVC,5000.0
KRDR,09-22-2006,22:00,METAR,,20,12.0,,,9999.0,Drizzle,13.0,12.0,29.60,1003.6,,,,51,,,,,,,,,,,8/8 Overcast,1900.0,,OVC,1900.0,,,,,,
KRDR,09-22-2006,21:00,METAR,,30,11.0,,,9999.0,Rain,13.0,12.0,29.59,1003.2,,,,61,,,,,,,,.09 IN,,,8/8 Overcast,1500.0,,SCT,1000.0,BKN,1500.0,OVC,3200.0,,
KRDR,09-22-2006,20:21,SPECI,,30,12.0,,,9999.0,Rain,13.0,12.0,29.59,,,,,61,,,,,,,,,,,8/8 Overcast,1500.0,,SCT,900.0,OVC,1500.0,,,,
KRDR,09-22-2006,20:00,METAR,,30,12.0,20.0,,8000.0,Rain/Mist,13.0,12.0,29.59,1003.2,,,,61,10,,,,,,,,,,8/8 Overcast,800.0,,BKN,800.0,OVC,3000.0,,,,
KRDR,09-22-2006,19:00,METAR,,40,13.0,19.0,,6400.0,Rain/Mist,13.0,11.0,29.59,1003.2,,,,61,10,,,,,,,,,,8/8 Overcast,800.0,,OVC,800.0,,,,,,
KRDR,09-22-2006,18:00,METAR,,40,11.0,,,6400.0,Rain,12.0,11.0,29.59,1003.3,,,,61,,,,,,,,,.41 IN,,8/8 Overcast,500.0,,OVC,500.0,,,,,,
KRDR,09-22-2006,17:00,METAR,,40,11.0,,,4000.0,Rain/Mist,11.0,11.0,29.60,1003.5,,,,63,10,,,,,,,,,,8/8 Overcast,300.0,,OVC,400.0,,,,,,
KRDR,09-22-2006,16:06,SPECI,,30,8.0,,,4000.0,Rain/Mist,11.0,10.0,29.60,,,,,63,10,,,,,,,,,,8/8 Overcast,400.0,,OVC,400.0,,,,,,
KRDR,09-22-2006,16:00,METAR,,40,10.0,,,4800.0,Rain/Mist,11.0,10.0,29.61,1003.7,,,,61,10,,,,,,,,.12 IN,,8/8 Overcast,500.0,,OVC,500.0,,,,,,
KRDR,09-22-2006,15:18,SPECI,,40,10.0,,,6400.0,Rain/Mist,11.0,10.0,29.61,,,,,61,10,,,,,,,,,,8/8 Overcast,600.0,,OVC,600.0,,,,,,
KRDR,09-22-2006,15:11,SPECI,,50,12.0,,,6400.0,Rain/Mist,11.0,10.0,29.61,1003.8,,,,61,10,,,,,,,,,,8/8 Overcast,300.0,,OVC,400.0,,,,,,
KRDR,09-22-2006,15:06,SPECI,,50,10.0,17.0,,6400.0,Rain/Mist,11.0,10.0,29.61,1003.8,,,,63,10,,,,,,,,,,8/8 Overcast,100.0,,OVC,500.0,,,,,,
KRDR,09-22-2006,15:00,METAR,,50,12.0,,,4000.0,Rain/Mist,11.0,10.0,29.60,1003.7,,,,63,10,,,,,,,.19 IN,,,8/8 Overcast,300.0,,OVC,300.0,,,,,,
KRDR,09-22-2006,14:24,SPECI,,40,13.0,,,6400.0,Rain/Mist,11.0,10.0,29.60,,,,,61,10,,,,,,,,,,8/8 Overcast,400.0,,OVC,400.0,,,,,,
KRDR,09-22-2006,14:00,METAR,,40,13.0,,,8000.0,Rain/Mist,11.0,10.0,29.60,1003.5,,,,61,10,,,,,,,,,,8/8 Overcast,500.0,,OVC,500.0,,,,,,
KRDR,09-22-2006,13:43,SPECI,,40,14.0,,,9999.0,Rain,11.0,10.0,29.60,,,,,61,,,,,,,,,,,8/8 Overcast,500.0,,BKN,500.0,OVC,1200.0,,,,
KRDR,09-22-2006,13:00,METAR,,50,12.0,,,9999.0,Rain,11.0,10.0,29.60,1003.6,,,,61,,,,,,,,,,,8/8 Overcast,600.0,,OVC,600.0,OVC,1200.0,,,,
KRDR,09-22-2006,12:16,SPECI,,50,10.0,,,9999.0,Drizzle,11.0,10.0,29.60,,,,,51,,,,,,,,,,,8/8 Overcast,700.0,,OVC,700.0,,,,,,
KRDR,09-22-2006,12:00,METAR,,50,8.0,,,9999.0,Rain,11.0,10.0,29.60,1003.5,,,,61,,,,,,,,,.19 IN,,8/8 Overcast,900.0,,OVC,900.0,,,,,,
KRDR,09-22-2006,11:00,METAR,,50,9.0,,,9999.0,Rain,11.0,10.0,29.60,1003.6,,,,61,,,,,,,,,,,8/8 Overcast,800.0,,BKN,800.0,OVC,1500.0,,,,
KRDR,09-22-2006,09:51,METAR,,60,9.0,,,9999.0,Rain,11.0,10.0,29.61,1003.7,,,,61,,,,,,,,,,,8/8 Overcast,400.0,,BKN,800.0,OVC,1500.0,,,,
KRDR,09-22-2006,09:20,METAR,,60,7.0,,,9999.0,Drizzle,11.0,10.0,29.61,,,,,51,,,,,,,,,,,8/8 Overcast,700.0,,BKN,700.0,OVC,2900.0,,,,
KRDR,09-22-2006,09:00,METAR,,60,7.0,,,9999.0,Drizzle,11.0,10.0,29.61,1004.0,,,,51,,,,,,,,.09 IN,,,8/8 Overcast,2900.0,,SCT,1200.0,OVC,2900.0,,,,
KRDR,09-22-2006,08:38,SPECI,,60,7.0,,,9999.0,,11.0,10.0,29.61,,,,,,,,,,,,,,,,8/8 Overcast,2900.0,,FEW,800.0,BKN,2900.0,OVC,5900.0,,
KRDR,09-22-2006,08:11,SPECI,,80,6.0,,,9999.0,,11.0,10.0,29.62,,,,,,,,,,,,,,,,8/8 Overcast,6000.0,,FEW,800.0,SCT,4700.0,OVC,5900.0,,
KRDR,09-22-2006,08:00,METAR,,70,8.0,,,9999.0,Drizzle,11.0,10.0,29.62,1004.1,,,,51,,,,,,,,,,,8/8 Overcast,4900.0,,FEW,900.0,SCT,1500.0,OVC,5000.0,,
KRDR,09-22-2006,07:43,SPECI,,70,7.0,,,9999.0,Drizzle,11.0,10.0,29.62,,,,,51,,,,,,,,,,,8/8 Overcast,4100.0,,FEW,700.0,SCT,1500.0,OVC,4200.0,,
KRDR,09-22-2006,07:00,METAR,,80,8.0,,,9999.0,Rain/Mist,11.0,10.0,29.63,1004.5,,,,61,10,,,,,,,,,,8/8 Overcast,1500.0,,SCT,500.0,OVC,1500.0,,,,
KRDR,09-22-2006,06:00,METAR,,90,7.0,,,9999.0,Rain/Mist,11.0,10.0,29.64,1004.7,,,,61,10,,,,,,,,.12 IN,,8/8 Overcast,1500.0,,SCT,600.0,BKN,1500.0,OVC,3500.0,,
KRDR,09-22-2006,05:36,SPECI,,90,8.0,,,9999.0,Rain,11.0,10.0,29.64,,,,,61,,,,,,,,,,,8/8 Overcast,1500.0,,SCT,700.0,OVC,1500.0,,,,
KRDR,09-22-2006,05:23,SPECI,,100,8.0,,,9999.0,Rain,11.0,10.0,29.64,1004.9,,,,61,,,,,,,,,,,8/8 Overcast,500.0,,OVC,800.0,,,,,,
KRDR,09-22-2006,05:21,SPECI,,100,7.0,,,9999.0,Rain,11.0,10.0,29.64,1004.8,,,,61,,,,,,,,,,,8/8 Overcast,500.0,,OVC,900.0,,,,,,
KRDR,09-22-2006,05:00,METAR,,90,7.0,,,9999.0,Rain,11.0,9.0,29.64,1005.0,,,,61,,,,,,,,,,,8/8 Overcast,1500.0,,FEW,500.0,OVC,1500.0,,,,
KRDR,09-22-2006,04:00,METAR,,100,10.0,17.0,,9999.0,Rain,11.0,9.0,29.66,1005.4,,,,61,,,,,,,,,,,8/8 Overcast,2100.0,,OVC,2100.0,,,,,,
KRDR,09-22-2006,03:00,METAR,,110,10.0,,,9999.0,Rain,12.0,9.0,29.66,1005.4,,,,61,,,,,,,,.03 IN,,,8/8 Overcast,2600.0,,OVC,2600.0,,,,,,
KRDR,09-22-2006,02:44,SPECI,,120,10.0,,,9999.0,Rain,12.0,9.0,29.66,,,,,61,,,,,,,,,,,8/8 Overcast,2600.0,,OVC,2600.0,,,,,,
KRDR,09-22-2006,02:19,SPECI,,120,11.0,,,9999.0,Rain,12.0,9.0,29.66,,,,,61,,,,,,,,,,,8/8 Overcast,3000.0,,OVC,3000.0,,,,,,
KRDR,09-22-2006,02:03,SPECI,,90,11.0,,,9999.0,,12.0,9.0,29.66,1005.6,,,,,,,,,,,,,,,8/8 Overcast,3100.0,,FEW,300.0,OVC,3200.0,,,,
KRDR,09-22-2006,02:00,METAR,,120,12.0,,,9999.0,,12.0,9.0,29.66,1005.5,,,,,,,,,,,,,,,8/8 Overcast,3100.0,,OVC,3100.0,,,,,,
KRDR,09-22-2006,01:46,SPECI,,100,10.0,,,9999.0,Rain,14.0,8.0,29.66,,,,,61,,,,,,,,,,,8/8 Overcast,3400.0,,OVC,3500.0,,,,,,
KRDR,09-22-2006,01:00,METAR,,110,10.0,18.0,,9999.0,Rain,14.0,8.0,29.66,1005.4,,,,63,,,,,,,,,,,8/8 Overcast,3700.0,,OVC,3800.0,,,,,,
KRDR,09-22-2006,00:39,SPECI,,90,8.0,,,9999.0,Rain,16.0,6.0,29.65,1005.3,,,,61,,,,,,,,,,,8/8 Overcast,3700.0,,OVC,3800.0,,,,,,
KRDR,09-22-2006,00:00,METAR,,100,10.0,,,9999.0,,16.0,6.0,29.66,1005.4,,,,,,,,,,,,,,,8/8 Overcast,4100.0,,OVC,4200.0,,,,,,
KRDR,09-21-2006,23:00,METAR,,110,9.0,,,9999.0,,17.0,6.0,29.66,1005.4,,,,,,,,,,,,,,,8/8 Overcast,4600.0,,OVC,4700.0,,,,,,
KRDR,09-21-2006,22:00,METAR,,90,9.0,,,9999.0,,18.0,5.0,29.65,1005.1,,,,,,,,,,,,,,,8/8 Overcast,7000.0,,BKN,6900.0,OVC,25000.0,,,,
KRDR,09-21-2006,21:00,METAR,,70,10.0,,,9999.0,,17.0,5.0,29.67,1005.9,,,,,,,,,,,,,,,7/8 Mostly Cloudy,25000.0,,SCT,12000.0,BKN,25000.0,,,,
KRDR,09-21-2006,20:00,METAR,,120,11.0,18.0,,9999.0,,17.0,6.0,29.70,1006.8,,,,,,,,,,,,,,,7/8 Mostly Cloudy,12000.0,,BKN,12000.0,BKN,25000.0,,,,
KRDR,09-21-2006,19:00,METAR,,110,12.0,,,9999.0,,16.0,5.0,29.72,1007.6,,,,,,,,,,,,,,,7/8 Mostly Cloudy,12000.0,,BKN,12000.0,BKN,25000.0,,,,
KRDR,09-21-2006,18:00,METAR,,100,10.0,,,9999.0,,16.0,6.0,29.74,1008.3,,,,,,,,,,,,,,,4/8 Partly Cloudy,72000.0,,SCT,12000.0,SCT,25000.0,,,,
KRDR,09-21-2006,17:00,METAR,,150,8.0,,,9999.0,,14.0,6.0,29.77,1009.2,,,,,,,,,,,,,,,4/8 Partly Cloudy,72000.0,,FEW,12000.0,SCT,25000.0,,,,
KRDR,09-21-2006,16:00,METAR,,120,7.0,,,9999.0,,12.0,6.0,29.79,1009.8,,,,,,,,,,,,,,,7/8 Mostly Cloudy,12000.0,,BKN,12000.0,BKN,25000.0,,,,
KRDR,09-21-2006,15:00,METAR,,150,8.0,,,9999.0,,10.0,5.0,29.80,1010.2,,,,,,,,,,,,,,,8/8 Overcast,15000.0,,FEW,12000.0,BKN,15000.0,OVC,25000.0,,
KRDR,09-21-2006,14:00,METAR,,160,7.0,,,9999.0,,8.0,5.0,29.82,1010.7,,,,,,,,,,,,,,,7/8 Mostly Cloudy,15000.0,,BKN,15000.0,BKN,25000.0,,,,
KRDR,09-21-2006,13:00,METAR,,170,7.0,,,9999.0,,5.0,4.0,29.82,1010.9,,,,,,,,,,,,,,,7/8 Mostly Cloudy,25000.0,,FEW,9900.0,BKN,25000.0,,,,
KRDR,09-21-2006,12:00,METAR,,160,6.0,,,9999.0,,4.0,3.0,29.82,1010.7,,,,,,,,,,,,,,,7/8 Mostly Cloudy,25000.0,,FEW,9900.0,BKN,25000.0,,,,
KRDR,09-21-2006,11:00,METAR,,140,5.0,,,9999.0,,4.0,3.0,29.81,1010.6,,,,,,,,,,,,,,,7/8 Mostly Cloudy,25000.0,,BKN,25000.0,,,,,,
KRDR,09-21-2006,10:00,METAR,,130,3.0,,,9999.0,,5.0,3.0,29.82,1010.9,,,,,,,,,,,,,,,7/8 Mostly Cloudy,25000.0,,BKN,25000.0,,,,,,
KRDR,09-21-2006,09:00,METAR,,,0.0,,,9999.0,,5.0,3.0,29.84,1011.6,,,,,,,,,,,,,,,7/8 Mostly Cloudy,25000.0,,BKN,25000.0,,,,,,
KRDR,09-21-2006,08:00,METAR,,180,3.0,,,9999.0,,5.0,3.0,29.87,1012.4,,,,,,,,,,,,,,,7/8 Mostly Cloudy,25000.0,,BKN,25000.0,,,,,,
KRDR,09-21-2006,07:00,METAR,,170,6.0,,,9999.0,,7.0,4.0,29.88,1012.9,,,,,,,,,,,,,,,7/8 Mostly Cloudy,25000.0,,BKN,25000.0,,,,,,
KRDR,09-21-2006,06:00,METAR,,170,5.0,,,9999.0,,7.0,4.0,29.89,1013.1,,,,,,,,,,,,,,,7/8 Mostly Cloudy,25000.0,,BKN,25000.0,,,,,,
KRDR,09-21-2006,05:00,METAR,,160,5.0,,,9999.0,,8.0,4.0,29.89,1013.2,,,,,,,,,,,,,,,7/8 Mostly Cloudy,25000.0,,BKN,25000.0,,,,,,
KRDR,09-21-2006,04:00,METAR,,170,4.0,,,9999.0,,7.0,4.0,29.90,1013.6,,,,,,,,,,,,,,,7/8 Mostly Cloudy,25000.0,,BKN,25000.0,,,,,,
KRDR,09-21-2006,03:00,METAR,,140,6.0,,,9999.0,,9.0,4.0,29.91,1013.7,,,,,,,,,,,,,,,7/8 Mostly Cloudy,25000.0,,BKN,25000.0,,,,,,
KRDR,09-21-2006,02:00,METAR,,140,5.0,,,9999.0,,10.0,4.0,29.91,1013.7,,,,,,,,,,,,,,,7/8 Mostly Cloudy,25000.0,,BKN,25000.0,,,,,,
KRDR,09-21-2006,01:00,METAR,,150,4.0,,,9999.0,,10.0,5.0,29.91,1013.6,,,,,,,,,,,,,,,7/8 Mostly Cloudy,25000.0,,BKN,25000.0,,,,,,
KRDR,09-21-2006,00:00,METAR,,170,5.0,,,9999.0,,13.0,6.0,29.91,1013.8,,,,,,,,,,,,,,,Clear,72000.0,,,73000.0,,,,,,
KRDR,09-20-2006,23:00,METAR,,220,4.0,,,9999.0,,15.0,3.0,29.92,1014.1,,,,,,,,,,,,,,,7/8 Mostly Cloudy,25000.0,,BKN,25000.0,,,,,,
KRDR,09-20-2006,22:00,METAR,,,0.0,,,9999.0,,15.0,2.0,29.94,1014.8,,,,,,,,,,,,,,,7/8 Mostly Cloudy,25000.0,,BKN,25000.0,,,,,,
KRDR,09-20-2006,21:00,METAR,,190,3.0,,,9999.0,,15.0,2.0,29.97,1015.6,,,,,,,,,,,,,,,7/8 Mostly Cloudy,25000.0,,FEW,4500.0,BKN,25000.0,,,,
KRDR,09-20-2006,20:00,METAR,,,4.0,,,9999.0,,16.0,3.0,29.99,1016.3,,,,,,,,,,,,,,,7/8 Mostly Cloudy,25000.0,,FEW,5000.0,BKN,25000.0,,,,
KRDR,09-20-2006,19:00,METAR,,,3.0,,,9999.0,,15.0,3.0,30.01,1017.0,,,,,,,,,,,,,,,7/8 Mostly Cloudy,25000.0,,FEW,4600.0,BKN,25000.0,,,,
KRDR,09-20-2006,18:00,METAR,,250,8.0,,,9999.0,,15.0,3.0,30.03,1017.7,,,,,,,,,,,,,,,7/8 Mostly Cloudy,25000.0,,FEW,5000.0,BKN,25000.0,,,,
KRDR,09-20-2006,17:00,METAR,,,4.0,,,9999.0,,14.0,3.0,30.05,1018.4,,,,,,,,,,,,,,,4/8 Partly Cloudy,72000.0,,FEW,3500.0,SCT,25000.0,,,,
KRDR,09-20-2006,16:00,METAR,,,4.0,,,9999.0,,12.0,5.0,30.06,1018.9,,,,,,,,,,,,,,,2/8 Mostly Clear,72000.0,,FEW,25000.0,,,,,,
KRDR,09-20-2006,15:00,METAR,,280,7.0,,,9999.0,,10.0,4.0,30.08,1019.3,,,,,,,,,,,,,,,2/8 Mostly Clear,72000.0,,FEW,25000.0,,,,,,
KRDR,09-20-2006,14:00,METAR,,240,4.0,,,9999.0,,7.0,3.0,30.08,1019.4,,,,,,,,,,,,,,,2/8 Mostly Clear,72000.0,,FEW,25000.0,,,,,,
KRDR,09-20-2006,13:00,METAR,,250,5.0,,,9999.0,,2.0,0.0,30.09,1019.5,,,,,,,,,,,,,,,Clear,72000.0,,,73000.0,,,,,,
KRDR,09-20-2006,12:00,METAR,,250,5.0,,,9999.0,,0.0,-1.0,30.09,1019.6,,,,,,,,,,,,,,,Clear,72000.0,,,73000.0,,,,,,
KRDR,09-20-2006,11:00,METAR,,230,3.0,,,9999.0,,0.0,-1.0,30.09,1019.6,,,,,,,,,,,,,,,Clear,72000.0,,,73000.0,,,,,,
KRDR,09-20-2006,10:00,METAR,,260,4.0,,,9999.0,,0.0,-1.0,30.08,1019.5,,,,,,,,,,,,,,,Clear,72000.0,,,73000.0,,,,,,
KRDR,09-20-2006,09:00,METAR,,260,5.0,,,9999.0,,1.0,0.0,30.09,1019.5,,,,,,,,,,,,,,,Clear,72000.0,,,73000.0,,,,,,
KRDR,09-20-2006,08:00,METAR,,260,4.0,,,9999.0,,1.0,0.0,30.09,1019.7,,,,,,,,,,,,,,,Clear,72000.0,,,73000.0,,,,,,
KRDR,09-20-2006,07:00,METAR,,260,4.0,,,9999.0,,1.0,0.0,30.09,1019.7,,,,,,,,,,,,,,,Clear,72000.0,,,73000.0,,,,,,
KRDR,09-20-2006,06:00,METAR,,250,3.0,,,9999.0,,2.0,1.0,30.10,1019.9,,,,,,,,,,,,,,,Clear,72000.0,,,73000.0,,,,,,
KRDR,09-20-2006,05:00,METAR,,260,3.0,,,9999.0,,2.0,2.0,30.10,1019.9,,,,,,,,,,,,,,,2/8 Mostly Clear,72000.0,,FEW,4000.0,,,,,,
KRDR,09-20-2006,04:00,METAR,,240,3.0,,,9999.0,,2.0,1.0,30.10,1019.9,,,,,,,,,,,,,,,2/8 Mostly Clear,72000.0,,FEW,4000.0,,,,,,
KRDR,09-20-2006,03:00,METAR,,240,4.0,,,9999.0,,4.0,2.0,30.10,1020.1,,,,,,,,,,,,,,,2/8 Mostly Clear,72000.0,,FEW,4000.0,,,,,,
KRDR,09-20-2006,02:00,METAR,,,0.0,,,9999.0,,4.0,2.0,30.10,1020.2,,,,,,,,,,,,,,,2/8 Mostly Clear,72000.0,,FEW,5000.0,,,,,,
KRDR,09-20-2006,01:00,METAR,,90,2.0,,,9999.0,,8.0,3.0,30.10,1019.9,,,,,,,,,,,,,,,4/8 Partly Cloudy,72000.0,,SCT,5000.0,,,,,,
KRDR,09-20-2006,00:00,METAR,,60,4.0,,,9999.0,,10.0,3.0,30.09,1019.8,,,,,,,,,,,,,,,7/8 Mostly Cloudy,4900.0,,BKN,5000.0,,,,,,
KRDR,09-19-2006,23:09,SPECI,,100,2.0,,,9999.0,,10.0,3.0,30.08,,,,,,,,,,,,,,,,7/8 Mostly Cloudy,4900.0,,BKN,5000.0,,,,,,
KRDR,09-19-2006,23:00,METAR,,50,3.0,,,4000.0,Haze,10.0,2.0,30.09,1019.6,,,,5,,,,,,,,,,,7/8 Mostly Cloudy,4700.0,,BKN,4800.0,,,,,,
KRDR,09-19-2006,22:00,METAR,,270,5.0,,,9999.0,,10.0,2.0,30.10,1019.9,,,,,,,,,,,,,,,7/8 Mostly Cloudy,4100.0,,BKN,4200.0,,,,,,
KRDR,09-19-2006,21:00,METAR,,350,3.0,,,9999.0,,9.0,3.0,30.11,1020.2,,,,,,,,,,,,,,,7/8 Mostly Cloudy,3400.0,,BKN,3500.0,,,,,,
KRDR,09-19-2006,20:00,METAR,,330,4.0,,,9999.0,,9.0,2.0,30.11,1020.4,,,,,,,,,,,,,,,8/8 Overcast,3300.0,,OVC,3400.0,,,,,,
KRDR,09-19-2006,19:00,METAR,,340,10.0,,,9999.0,,9.0,2.0,30.12,1020.5,,,,,,,,,,,,,,,8/8 Overcast,3100.0,,OVC,3200.0,,,,,,
KRDR,09-19-2006,18:00,METAR,,320,9.0,,,9999.0,,8.0,3.0,30.12,1020.7,,,,,,,,,,,,,,,8/8 Overcast,3300.0,,OVC,3400.0,,,,,,
KRDR,09-19-2006,17:00,METAR,,330,11.0,,,9999.0,,8.0,3.0,30.12,1020.6,,,,,,,,,,,,,,,8/8 Overcast,3100.0,,OVC,3100.0,,,,,,
KRDR,09-19-2006,16:00,METAR,,330,10.0,,,9999.0,,8.0,3.0,30.11,1020.4,,,,,,,,,,,,,,,7/8 Mostly Cloudy,3100.0,,BKN,3200.0,BKN,4500.0,,,,
KRDR,09-19-2006,15:00,METAR,,330,13.0,,,9999.0,,7.0,3.0,30.10,1020.0,,,,,,,,,,,,,,,7/8 Mostly Cloudy,4400.0,,FEW,3500.0,BKN,4500.0,,,,
KRDR,09-19-2006,14:00,METAR,,320,10.0,,,9999.0,,6.0,3.0,30.09,1019.6,,,,,,,,,,,,,,,7/8 Mostly Cloudy,4000.0,,BKN,4100.0,,,,,,
KRDR,09-19-2006,13:00,METAR,,310,7.0,,,9999.0,,4.0,2.0,30.07,1018.9,,,,,,,,,,,,,,,7/8 Mostly Cloudy,3800.0,,BKN,3900.0,,,,,,
KRDR,09-19-2006,12:00,METAR,,300,7.0,,,9999.0,,3.0,1.0,30.04,1018.0,,,,,,,,,,,,,,.09 IN,2/8 Mostly Clear,72000.0,,FEW,4500.0,,,,,,
KRDR,09-19-2006,11:00,METAR,,320,6.0,,,9999.0,,3.0,1.0,30.02,1017.4,,,,,,,,,,,,,,,7/8 Mostly Cloudy,5500.0,,BKN,5400.0,,,,,,
KRDR,09-19-2006,10:00,METAR,,340,9.0,,,9999.0,,4.0,2.0,30.01,1017.2,,,,,,,,,,,,,,,7/8 Mostly Cloudy,5500.0,,FEW,2500.0,BKN,5400.0,,,,
KRDR,09-19-2006,09:00,METAR,,340,10.0,,,9999.0,,4.0,2.0,30.00,1016.6,,,,,,,,,,,,,,,4/8 Partly Cloudy,72000.0,,SCT,5400.0,,,,,,
KRDR,09-19-2006,08:00,METAR,,330,9.0,,,9999.0,,4.0,2.0,29.99,1016.2,,,,,,,,,,,,,,,7/8 Mostly Cloudy,6000.0,,FEW,3400.0,BKN,5900.0,,,,
KRDR,09-19-2006,07:00,METAR,,350,11.0,,,9999.0,,5.0,2.0,29.98,1015.9,,,,,,,,,,,,,,,7/8 Mostly Cloudy,4400.0,,FEW,2900.0,BKN,4500.0,,,,
KRDR,09-19-2006,06:12,SPECI,,340,11.0,,,9999.0,,5.0,3.0,29.97,,,,,,,,,,,,,,,,8/8 Overcast,3600.0,,SCT,2700.0,BKN,3700.0,OVC,5900.0,,
KRDR,09-19-2006,06:00,METAR,,340,11.0,,,9999.0,,5.0,3.0,29.96,1015.5,,,,,,,,,,,,,TRACE,,8/8 Overcast,2900.0,,BKN,2900.0,OVC,4000.0,,,,
KRDR,09-19-2006,05:00,METAR,,350,12.0,,,9999.0,,5.0,3.0,29.95,1015.2,,,,,,,,,,,TRACE,,,,8/8 Overcast,2700.0,,BKN,2700.0,OVC,3700.0,,,,
KRDR,09-19-2006,04:00,METAR,,350,17.0,21.0,,9999.0,,5.0,4.0,29.94,1014.8,,,,,,,,,,,TRACE,,,,8/8 Overcast,400.0,,FEW,800.0,OVC,1300.0,,,,
KRDR,09-19-2006,03:36,SPECI,,10,17.0,22.0,,9999.0,Rain,5.0,4.0,29.93,,,,,61,,,,,,,,,,,,2000.0,,OVC,2000.0,,,,,,
KRDR,09-19-2006,03:11,SPECI,,20,10.0,,,9999.0,Rain,6.0,5.0,29.93,1014.4,,,,61,,,,,,,,,,,8/8 Overcast,2000.0,,FEW,500.0,OVC,2000.0,,,,
KRDR,09-19-2006,03:00,METAR,,360,8.0,,,9999.0,Drizzle,6.0,5.0,29.92,1014.2,,,,51,,,,,,,TRACE,TRACE,,,8/8 Overcast,2000.0,,BKN,2000.0,OVC,2600.0,,,,
KRDR,09-19-2006,02:33,SPECI,Normal,360,11.0,,,,,6.0,5.0,29.92,,,,,,,,,,,,,,,,,2100.0,,SCT,400.0,BKN,2100.0,OVC,3500.0,,
KRDR,09-19-2006,02:15,SPECI,,360,12.0,,,9999.0,Rain/Mist,6.0,5.0,29.92,1014.1,,,,61,10,,,,,,,,,,8/8 Overcast,100.0,,FEW,100.0,SCT,400.0,OVC,800.0,,
KRDR,09-19-2006,02:00,METAR,,10,14.0,18.0,350/26KTS,9999.0,Rain,6.0,5.0,29.91,1013.9,,,,61,,,,,,,TRACE,,,,8/8 Overcast,1800.0,,SCT,400.0,SCT,800.0,OVC,1800.0,,
KRDR,09-19-2006,01:36,SPECI,,10,13.0,,350/26KTS,9999.0,Rain,6.0,4.0,29.91,1013.7,,,,61,,,,,,,,,,,8/8 Overcast,2100.0,,FEW,400.0,SCT,900.0,OVC,2100.0,,
KRDR,09-19-2006,01:29,SPECI,,360,15.0,21.0,350/26KTS,9999.0,,7.0,4.0,29.91,1013.6,,,,,,,,,,,,,,,8/8 Overcast,2100.0,,FEW,800.0,OVC,2100.0,,,,
KRDR,09-19-2006,01:00,METAR,,340,14.0,22.0,330/28KTS,9999.0,,7.0,4.0,29.89,1013.0,,,,,,,,,,,TRACE,,,,8/8 Overcast,2400.0,,FEW,1500.0,OVC,2400.0,,,,
KRDR,09-19-2006,00:34,SPECI,,340,16.0,23.0,330/28KTS,9999.0,,6.0,5.0,29.88,1012.9,,,,,,,,,,,,,,,8/8 Overcast,2400.0,,FEW,500.0,BKN,2400.0,OVC,3200.0,,
KRDR,09-18-2006,23:54,METAR,,330,20.0,24.0,,9999.0,Rain,7.0,5.0,29.86,1012.2,,,,61,,,,,,,,,.04 IN,,8/8 Overcast,2200.0,,FEW,300.0,BKN,2200.0,OVC,5400.0,,
KRDR,09-18-2006,23:40,SPECI,,340,14.0,,,9999.0,,7.0,5.0,29.86,1012.3,,,,,,,,,,,,,,,8/8 Overcast,2200.0,,FEW,400.0,BKN,2200.0,OVC,5400.0,,
KRDR,09-18-2006,23:21,SPECI,,340,16.0,23.0,,9999.0,Light Rain Showers,7.0,5.0,29.86,1012.0,,,,80,,,,,,,,,,,8/8 Overcast,1900.0,,FEW,500.0,BKN,1900.0,OVC,4400.0,,
KRDR,09-18-2006,23:10,SPECI,,340,16.0,22.0,,9999.0,,7.0,5.0,29.85,1011.9,,,,,,,,,,,,,,,8/8 Overcast,2600.0,,FEW,700.0,BKN,2600.0,OVC,4300.0,,
KRDR,09-18-2006,23:00,METAR,,340,15.0,20.0,350/29KTS,9999.0,,7.0,5.0,29.84,1011.6,,,,,,,,,,,TRACE,,,,8/8 Overcast,1700.0,,FEW,500.0,OVC,2400.0,,,,
KRDR,09-18-2006,22:41,SPECI,,340,17.0,27.0,350/29KTS,9999.0,,7.0,5.0,29.84,1011.5,,,,,,,,,,,,,,,8/8 Overcast,2300.0,,FEW,400.0,BKN,2300.0,OVC,4900.0,,
KRDR,09-18-2006,22:11,SPECI,,340,15.0,23.0,,9999.0,Rain,8.0,5.0,29.83,1011.2,,,,61,,,,,,,,,,,8/8 Overcast,2000.0,,BKN,2500.0,OVC,4500.0,,,,
KRDR,09-18-2006,22:00,METAR,,350,19.0,28.0,340/30KTS,9999.0,,8.0,5.0,29.82,1010.6,,,,,,,,,,,,,,,8/8 Overcast,2000.0,,BKN,2000.0,BKN,2700.0,OVC,4400.0,,
KRDR,09-18-2006,21:42,SPECI,,360,16.0,22.0,,9999.0,,8.0,5.0,29.82,1010.7,,,,,,,,,,,,,,,8/8 Overcast,2200.0,,FEW,1600.0,BKN,2200.0,OVC,5900.0,,
KRDR,09-18-2006,21:28,SPECI,,360,18.0,22.0,,9999.0,Light Rain Showers,7.0,5.0,29.81,1010.6,,,,80,,,,,,,,,,,8/8 Overcast,1700.0,,FEW,300.0,SCT,1600.0,OVC,2200.0,,
KRDR,09-18-2006,21:25,METAR,,340,16.0,23.0,,9999.0,,7.0,5.0,29.81,1010.5,,,,,,,,,,,,,,,8/8 Overcast,2200.0,,FEW,400.0,SCT,1600.0,OVC,2200.0,,
KRDR,09-18-2006,21:11,SPECI,,330,16.0,24.0,,9999.0,Light Rain Showers,7.0,5.0,29.81,1010.4,,,,80,,,,,,,,,,,8/8 Overcast,1600.0,,FEW,300.0,BKN,2200.0,OVC,3000.0,,
KRDR,09-18-2006,21:00,METAR,,340,18.0,26.0,,9999.0,Light Rain Showers,7.0,5.0,29.80,1010.2,,,,80,,,,,,,,.04 IN,,,8/8 Overcast,1700.0,,FEW,500.0,BKN,1700.0,OVC,2900.0,,
KRDR,09-18-2006,20:37,SPECI,,340,17.0,26.0,330/27KTS,9999.0,Light Rain Showers,7.0,4.0,29.80,1010.0,,,,80,,,,,,,,,,,8/8 Overcast,1400.0,,SCT,500.0,BKN,1400.0,OVC,3000.0,,
KRDR,09-18-2006,20:26,SPECI,,340,21.0,27.0,330/27KTS,9999.0,,7.0,4.0,29.79,1009.8,,,,,,,,,,,,,,,8/8 Overcast,1800.0,,FEW,600.0,BKN,1800.0,OVC,3200.0,,
KRDR,09-18-2006,20:17,SPECI,,340,22.0,27.0,330/27KTS,9999.0,Rain,7.0,4.0,29.79,1009.8,,,,61,,,,,,,,,,,8/8 Overcast,1600.0,,FEW,600.0,BKN,1600.0,OVC,3100.0,,
KRDR,09-18-2006,20:00,METAR,,340,21.0,26.0,340/30KTS,9999.0,Rain,7.0,5.0,29.78,1009.3,,,,61,,,,,,,TRACE,,,,8/8 Overcast,900.0,,SCT,500.0,OVC,1700.0,,,,
KRDR,09-18-2006,19:32,SPECI,,340,17.0,23.0,340/30KTS,9999.0,,7.0,5.0,29.77,1009.1,,,,,,,,,,,,,,,8/8 Overcast,900.0,,SCT,500.0,OVC,1500.0,,,,
KRDR,09-18-2006,19:26,SPECI,,350,22.0,27.0,340/30KTS,9999.0,Rain,7.0,5.0,29.77,1009.0,,,,61,,,,,,,,,,,8/8 Overcast,1400.0,,SCT,500.0,BKN,1400.0,OVC,2200.0,,
KRDR,09-18-2006,19:10,SPECI,,340,20.0,29.0,340/29KTS,9999.0,Rain,7.0,4.0,29.76,1009.0,,,,61,,,,,,,,,,,8/8 Overcast,1400.0,,FEW,500.0,BKN,1400.0,OVC,1900.0,,
KRDR,09-18-2006,19:00,METAR,,340,20.0,26.0,350/31KTS,9999.0,,7.0,4.0,29.76,1008.7,,,,,,,,,,,TRACE,,,,8/8 Overcast,1200.0,,SCT,1200.0,OVC,2000.0,,,,
KRDR,09-18-2006,18:00,METAR,,340,19.0,24.0,,9999.0,,8.0,5.0,29.73,1007.6,,,,,,,,,,,,,.05 IN,,8/8 Overcast,1800.0,,SCT,1200.0,OVC,1800.0,,,,
KRDR,09-18-2006,17:00,METAR,,340,17.0,27.0,340/30KTS,9999.0,,7.0,5.0,29.72,1007.3,,,,,,,,,,,TRACE,,,,8/8 Overcast,800.0,,OVC,1500.0,,,,,,
KRDR,09-18-2006,16:26,SPECI,,350,24.0,30.0,,9999.0,,7.0,5.0,29.70,,,,,,,,,,,,,,,,8/8 Overcast,1600.0,,OVC,1600.0,,,,,,
KRDR,09-18-2006,16:17,SPECI,,340,22.0,30.0,340/30KTS,9999.0,,7.0,5.0,29.70,1006.9,,,,,,,,,,,,,,,8/8 Overcast,900.0,,FEW,400.0,OVC,1200.0,,,,
KRDR,09-18-2006,16:04,SPECI,,340,17.0,30.0,350/29KTS,9999.0,Rain/Mist,7.0,6.0,29.70,1006.8,,,,61,10,,,,,,,,,,8/8 Overcast,700.0,,SCT,400.0,BKN,1100.0,OVC,1700.0,,
KRDR,09-18-2006,16:00,METAR,,340,22.0,30.0,340/31KTS,9999.0,Rain,8.0,6.0,29.69,1006.6,,,,61,,,,,,,TRACE,,,,8/8 Overcast,900.0,,FEW,400.0,BKN,900.0,OVC,1400.0,,
KRDR,09-18-2006,15:48,SPECI,,330,17.0,26.0,340/31KTS,9999.0,Rain,8.0,6.0,29.69,1006.5,,,,61,,,,,,,,,,,8/8 Overcast,900.0,,FEW,400.0,BKN,900.0,OVC,1400.0,,
KRDR,09-18-2006,15:24,SPECI,,340,19.0,28.0,340/30KTS,9999.0,Rain/Mist,7.0,6.0,29.68,1006.2,,,,61,10,,,,,,,,,,8/8 Overcast,500.0,,OVC,900.0,,,,,,
KRDR,09-18-2006,15:01,SPECI,,340,20.0,27.0,340/27KTS,9999.0,,7.0,6.0,29.67,1005.8,,,,,,,,,,,,,,,8/8 Overcast,400.0,,OVC,900.0,,,,,,
KRDR,09-18-2006,15:00,METAR,,340,18.0,27.0,340/28KTS,9999.0,Rain/Mist,7.0,6.0,29.66,1005.6,,,,61,10,,,,,,TRACE,.05 IN,,,8/8 Overcast,800.0,,OVC,800.0,,,,,,
KRDR,09-18-2006,14:45,METAR,,330,21.0,25.0,340/28KTS,9999.0,,7.0,6.0,29.66,1005.6,,,,,,,,,,,,,,,8/8 Overcast,400.0,,OVC,800.0,,,,,,
KRDR,09-18-2006,14:36,SPECI,,340,16.0,25.0,340/28KTS,9999.0,,7.0,6.0,29.65,1005.3,,,,,,,,,,,,,,,8/8 Overcast,500.0,,OVC,900.0,,,,,,
KRDR,09-18-2006,14:09,SPECI,,340,16.0,27.0,330/27KTS,9999.0,Rain,7.0,7.0,29.65,1005.2,,,,61,,,,,,,,,,,8/8 Overcast,300.0,,OVC,700.0,,,,,,
KRDR,09-18-2006,14:00,METAR,,340,17.0,25.0,,9999.0,,7.0,7.0,29.64,1004.9,,,,,,,,,,,,,,,8/8 Overcast,500.0,,OVC,500.0,,,,,,
KRDR,09-18-2006,13:26,SPECI,,340,15.0,19.0,,4800.0,Rain/Mist,7.0,7.0,29.63,1004.6,,,,61,10,,,,,,,,,,8/8 Overcast,700.0,,SCT,300.0,BKN,700.0,OVC,900.0,,
KRDR,09-18-2006,13:20,METAR,,330,14.0,,,4000.0,Rain/Mist,7.0,7.0,29.63,1004.5,,,,61,10,,,,,,,,,,8/8 Overcast,200.0,,OVC,500.0,,,,,,
KRDR,09-18-2006,13:04,SPECI,,330,16.0,25.0,,9999.0,Rain,8.0,7.0,29.62,1004.4,,,,61,,,,,,,,,,,8/8 Overcast,300.0,,OVC,600.0,,,,,,
KRDR,09-18-2006,13:00,METAR,,330,15.0,,,9999.0,Rain,8.0,7.0,29.62,1004.1,,,,61,,,,,,,,,,,8/8 Overcast,700.0,,BKN,700.0,OVC,1100.0,,,,
KRDR,09-18-2006,12:48,SPECI,,330,16.0,,,9999.0,Rain,8.0,7.0,29.62,1004.1,,,,61,,,,,,,,,,,8/8 Overcast,1000.0,,SCT,800.0,OVC,1000.0,,,,
KRDR,09-18-2006,12:37,SPECI,,330,14.0,,,9999.0,Rain,8.0,7.0,29.62,1004.1,,,,61,,,,,,,,,,,8/8 Overcast,400.0,,SCT,600.0,OVC,900.0,,,,
KRDR,09-18-2006,12:25,METAR,,340,15.0,21.0,,8000.0,Rain/Mist,8.0,7.0,29.61,1004.0,,,,61,10,,,,,,,,,,8/8 Overcast,300.0,,OVC,600.0,,,,,,
KRDR,09-18-2006,12:00,METAR,,310,6.0,,,8000.0,Rain/Mist,8.0,7.0,29.60,1003.5,,,,61,10,,,,,,,,.09 IN,.09 IN,8/8 Overcast,800.0,,SCT,400.0,OVC,1200.0,,,,
KRDR,09-18-2006,11:46,SPECI,,300,6.0,,,6400.0,Rain/Mist,8.0,7.0,29.60,1003.5,,,,63,10,,,,,,,,,,8/8 Overcast,1000.0,,FEW,300.0,BKN,1000.0,OVC,1700.0,,
KRDR,09-18-2006,11:28,SPECI,,310,6.0,,,9999.0,Rain,8.0,7.0,29.59,,,,,61,,,,,,,,,,,8/8 Overcast,1300.0,,FEW,800.0,OVC,2300.0,,,,
KRDR,09-18-2006,11:00,METAR,,330,11.0,,,9999.0,Rain,8.0,7.0,29.59,1003.3,,,,61,,,,,,,,,,,8/8 Overcast,4300.0,,BKN,4400.0,OVC,9900.0,,,,
KRDR,09-18-2006,10:00,METAR,,320,9.0,,,9999.0,Rain,8.0,7.0,29.58,1002.9,,,,61,,,,,,,,,,,8/8 Overcast,4300.0,,SCT,3500.0,BKN,4400.0,OVC,9900.0,,
KRDR,09-18-2006,09:00,METAR,,340,8.0,,,9999.0,,8.0,6.0,29.57,1002.5,,,,,,,,,,,,,,,7/8 Mostly Cloudy,9500.0,,SCT,5000.0,SCT,7400.0,BKN,9400.0,,
KRDR,09-18-2006,08:00,METAR,,350,8.0,,,9999.0,,8.0,6.0,29.56,1002.2,,,,,,,,,,,,,,,8/8 Overcast,6000.0,,OVC,5900.0,,,,,,
KRDR,09-18-2006,07:00,METAR,,10,7.0,,,9999.0,,8.0,7.0,29.55,1001.8,,,,,,,,,,,,,,,8/8 Overcast,12000.0,,SCT,5000.0,OVC,12000.0,,,,
KRDR,09-18-2006,06:00,METAR,,360,6.0,,,9999.0,,9.0,7.0,29.54,1001.6,,,,,,,,,,,,,,,8/8 Overcast,11000.0,,FEW,3600.0,SCT,5400.0,OVC,11000.0,,
KRDR,09-18-2006,05:00,METAR,,20,6.0,,,9999.0,,9.0,7.0,29.54,1001.5,,,,,,,,,,,,,,,8/8 Overcast,4300.0,,OVC,4400.0,,,,,,
KRDR,09-18-2006,04:00,METAR,,30,3.0,,,9999.0,,9.0,6.0,29.53,1001.3,,,,,,,,,,,,,,,8/8 Overcast,4000.0,,OVC,4100.0,,,,,,
KRDR,09-18-2006,03:00,METAR,,60,2.0,,,9999.0,,10.0,6.0,29.53,1001.2,,,,,,,,,,,,,,,8/8 Overcast,4600.0,,OVC,4700.0,,,,,,
KRDR,09-18-2006,02:00,METAR,,90,2.0,,,9999.0,,10.0,4.0,29.52,1000.9,,,,,,,,,,,,,,,8/8 Overcast,4400.0,,OVC,4500.0,,,,,,
KRDR,09-18-2006,01:00,METAR,,180,2.0,,,9999.0,,10.0,4.0,29.51,1000.7,,,,,,,,,,,,,,,8/8 Overcast,4300.0,,OVC,4400.0,,,,,,
KRDR,09-18-2006,00:00,METAR,,180,5.0,,,9999.0,,10.0,4.0,29.52,1000.7,,,,,,,,,,,,,,,8/8 Overcast,4500.0,,OVC,4600.0,,,,,,
KRDR,09-17-2006,23:00,METAR,,190,8.0,,,9999.0,,10.0,3.0,29.52,1000.8,,,,,,,,,,,,,,,8/8 Overcast,4200.0,,OVC,4300.0,,,,,,
KRDR,09-17-2006,22:00,METAR,,200,10.0,,,9999.0,,11.0,4.0,29.51,1000.6,,,,,,,,,,,,,,,8/8 Overcast,4200.0,,OVC,4300.0,,,,,,
KRDR,09-17-2006,21:00,METAR,,210,13.0,,,9999.0,,10.0,5.0,29.52,1000.7,,,,,,,,,,,,,,,8/8 Overcast,3400.0,,OVC,3500.0,,,,,,
KRDR,09-17-2006,20:00,METAR,,220,12.0,,,9999.0,,11.0,5.0,29.51,1000.6,,,,,,,,,,,,,,,8/8 Overcast,3200.0,,OVC,3300.0,,,,,,
KRDR,09-17-2006,19:00,METAR,,230,12.0,,,9999.0,,11.0,6.0,29.51,,,,,,,,,,,,,,,,8/8 Overcast,3200.0,,FEW,2600.0,BKN,3300.0,OVC,4500.0,,
KRDR,09-17-2006,18:00,METAR,,250,15.0,20.0,,9999.0,,11.0,6.0,29.51,1000.6,,,,,,,,,,,,,,,8/8 Overcast,3100.0,,BKN,3200.0,OVC,5000.0,,,,
KRDR,09-17-2006,17:15,SPECI,,230,5.0,,,9999.0,,11.0,6.0,29.51,,,,,,,,,,,,,,,,8/8 Overcast,3000.0,,FEW,900.0,OVC,3000.0,,,,
KRDR,09-17-2006,17:00,METAR,,250,6.0,,,9999.0,,11.0,6.0,29.51,1000.7,,,,,,,,,,,,,,,8/8 Overcast,2800.0,,OVC,2800.0,,,,,,
KRDR,09-17-2006,16:00,METAR,,250,12.0,,,9999.0,,11.0,6.0,29.51,1000.6,,,,,,,,,,,,,,,7/8 Mostly Cloudy,2400.0,,BKN,2400.0,,,,,,
KRDR,09-17-2006,15:00,METAR,,230,14.0,,,9999.0,,11.0,8.0,29.51,1000.7,,,,,,,,,,,,,,,7/8 Mostly Cloudy,2000.0,,BKN,2000.0,,,,,,
KRDR,09-17-2006,14:00,METAR,,240,10.0,,,9999.0,,10.0,8.0,29.52,1000.9,,,,,,,,,,,,,,,7/8 Mostly Cloudy,2100.0,,BKN,2100.0,BKN,5900.0,,,,
KRDR,09-17-2006,12:51,METAR,,230,11.0,,,9999.0,,10.0,8.0,29.53,1001.1,,,,,,,,,,,,,,,8/8 Overcast,1900.0,,FEW,800.0,BKN,1900.0,OVC,3200.0,,
KRDR,09-17-2006,12:30,METAR,,230,8.0,,,9999.0,,10.0,9.0,29.53,,,,,,,,,,,,,,,,7/8 Mostly Cloudy,2800.0,,BKN,2800.0,,,,,,
KRDR,09-17-2006,12:00,METAR,,230,6.0,,,9999.0,,9.0,8.0,29.53,1001.2,,,,,,,,,,,.16 IN,,.16 IN,1.82 IN,8/8 Overcast,4900.0,,FEW,500.0,BKN,5000.0,OVC,8900.0,,
KRDR,09-17-2006,11:00,METAR,,,5.0,,,9999.0,Rain,10.0,8.0,29.53,1001.3,,,,61,,,,,,,,,,,7/8 Mostly Cloudy,6500.0,,FEW,500.0,SCT,2200.0,BKN,6400.0,,
KRDR,09-17-2006,10:42,SPECI,,280,8.0,,,9999.0,Light Rain Showers,10.0,8.0,29.53,,,,,80,,,,,,,,,,,7/8 Mostly Cloudy,6500.0,,FEW,500.0,SCT,2700.0,BKN,6400.0,,
KRDR,09-17-2006,10:08,SPECI,,290,9.0,,,9999.0,Thunderstorm with Rain or Snow/Light Rain Showers,10.0,8.0,29.52,,,,,95,80,,,,,,,,,,8/8 Overcast,1000.0,,FEW,400.0,BKN,1000.0,OVC,4500.0,,
KRDR,09-17-2006,10:00,METAR,,280,12.0,,,9999.0,Light Rain Showers,10.0,8.0,29.52,1000.9,,,,80,,,,,,,,,,,8/8 Overcast,900.0,,FEW,500.0,OVC,2600.0,,,,
KRDR,09-17-2006,09:13,SPECI,,270,12.0,,,8000.0,Rain/Mist,11.0,9.0,29.52,,,,,63,10,,,,,,,,,,8/8 Overcast,1300.0,,SCT,1000.0,OVC,2600.0,,,,
KRDR,09-17-2006,09:06,SPECI,,270,9.0,,,8000.0,Rain,11.0,9.0,29.52,,,,,61,,,,,,,,,,,8/8 Overcast,3000.0,,FEW,1500.0,OVC,3000.0,,,,
KRDR,09-17-2006,09:00,METAR,,280,11.0,18.0,,9999.0,,11.0,8.0,29.51,1000.7,,,,,,,,,,,,,,,8/8 Overcast,2500.0,,FEW,1700.0,OVC,3000.0,,,,
KRDR,09-17-2006,08:07,SPECI,,300,12.0,19.0,,9999.0,,11.0,9.0,29.50,,,,,,,,,,,,,,,,8/8 Overcast,2900.0,,FEW,2000.0,OVC,2900.0,,,,
KRDR,09-17-2006,08:00,METAR,,280,12.0,,,9999.0,,12.0,9.0,29.52,1001.0,,,,,,,,,,,,,,,8/8 Overcast,3300.0,,FEW,1900.0,OVC,3400.0,,,,
KRDR,09-17-2006,07:05,SPECI,,310,10.0,,,9999.0,,12.0,9.0,29.53,1001.1,,,,,,,,,,,,,,,8/8 Overcast,3000.0,,OVC,3000.0,,,,,,
KRDR,09-17-2006,07:00,METAR,,310,12.0,,,9999.0,,12.0,9.0,29.53,1001.1,,,,,,,,,,,,,,,8/8 Overcast,2800.0,,OVC,2800.0,,,,,,
KRDR,09-17-2006,06:00,METAR,,280,10.0,,,9999.0,,13.0,11.0,29.54,1001.7,,,,,,,,,,,,,1.48 IN,,8/8 Overcast,1200.0,,OVC,1900.0,,,,,,
KRDR,09-17-2006,05:46,SPECI,,280,10.0,,,9999.0,,13.0,11.0,29.54,1001.6,,,,,,,,,,,,,,,8/8 Overcast,1500.0,,OVC,1500.0,,,,,,
KRDR,09-17-2006,05:00,METAR,,320,17.0,23.0,,9999.0,,14.0,12.0,29.47,999.3,,,,,,,,,,,,,,,8/8 Overcast,2000.0,,OVC,2000.0,,,,,,
KRDR,09-17-2006,04:13,SPECI,,300,11.0,,,9999.0,,14.0,13.0,29.54,,,,,,,,,,,,,,,,8/8 Overcast,1100.0,,BKN,1900.0,BKN,9900.0,OVC,20000.0,,
KRDR,09-17-2006,04:06,SPECI,,300,12.0,,,9999.0,,14.0,13.0,29.53,,,,,,,,,,,,,,,,8/8 Overcast,20000.0,,FEW,2100.0,SCT,9900.0,OVC,20000.0,,
KRDR,09-17-2006,04:00,METAR,,310,12.0,22.0,,9999.0,Rain,15.0,13.0,29.52,1001.0,,,,61,,,,,,,,,,,7/8 Mostly Cloudy,10000.0,,FEW,1000.0,SCT,3000.0,BKN,9900.0,BKN,20000.0
KRDR,09-17-2006,03:00,METAR,,310,15.0,,,8000.0,Light Rain Showers/Mist,15.0,14.0,29.56,1002.1,,,,80,10,,,,,,,1.39 IN,,,7/8 Mostly Cloudy,3100.0,,FEW,200.0,SCT,2200.0,BKN,3200.0,,
KRDR,09-17-2006,02:49,SPECI,,290,13.0,,,4800.0,Light Rain Showers/Mist,16.0,15.0,29.56,,,,,80,10,,,,,,,,,,8/8 Overcast,2200.0,,FEW,300.0,BKN,2200.0,OVC,3100.0,,
KRDR,09-17-2006,02:41,SPECI,,280,15.0,,,4000.0,Rain/Thunderstorm/Mist,16.0,15.0,29.57,1002.5,,,,17,63,10,,,,,,,,,8/8 Overcast,100.0,,OVC,500.0,,,,,,
KRDR,09-17-2006,02:37,SPECI,,270,13.0,,,4800.0,Light Rain Showers/Mist,16.0,15.0,29.57,,,,,80,10,,,,,,,,,,8/8 Overcast,1200.0,,FEW,300.0,BKN,1200.0,OVC,3000.0,,
KRDR,09-17-2006,02:23,SPECI,,270,10.0,,,2400.0,Heavy Rain/Thunderstorm/Mist,16.0,15.0,29.57,1002.5,,,,17,65,10,,,,,,,,,7/8 Mostly Cloudy,100.0,,BKN,100.0,,,,,,
KRDR,09-17-2006,02:00,METAR,,320,12.0,,,4000.0,Heavy Thunderstorm with Rain or Snow/Heavy Rain Showers,16.0,15.0,29.54,1001.5,,,,97,82,,,,,,,,,,8/8 Overcast,1000.0,,SCT,300.0,OVC,1000.0,,,,
KRDR,09-17-2006,01:47,SPECI,,330,13.0,,,3200.0,Heavy Thunderstorm with Rain or Snow/Heavy Rain Showers,17.0,15.0,29.52,,,,,97,82,,,,,,,,,,8/8 Overcast,1300.0,,SCT,400.0,BKN,1300.0,OVC,3000.0,,
KRDR,09-17-2006,01:21,SPECI,,320,16.0,22.0,,6400.0,Heavy Thunderstorm with Rain or Snow/Heavy Rain Showers,18.0,16.0,29.50,,,,,97,82,,,,,,,,,,8/8 Overcast,1300.0,,FEW,700.0,BKN,1300.0,OVC,3000.0,,
KRDR,09-17-2006,01:00,METAR,,30,3.0,,360/38KTS,8000.0,Thunderstorm with Rain or Snow/Light Rain Showers,19.0,18.0,29.51,1000.5,,,,95,80,,,,,,,,,,8/8 Overcast,3000.0,,SCT,2000.0,BKN,3000.0,OVC,5000.0,,
KRDR,09-17-2006,00:38,SPECI,,350,3.0,,360/38KTS,8000.0,Thunderstorm with Rain or Snow/Rain Showers,20.0,18.0,29.52,,,,,95,81,,,,,,,,,,8/8 Overcast,4800.0,,SCT,2100.0,BKN,4900.0,OVC,5900.0,,
KRDR,09-17-2006,00:16,SPECI,,280,4.0,,,8000.0,Thunderstorm with Rain or Snow/Light Rain Showers,20.0,18.0,29.51,,,,,95,80,,,,,,,,,,8/8 Overcast,1900.0,,BKN,1900.0,BKN,2700.0,OVC,4900.0,,
KRDR,09-17-2006,00:00,METAR,,300,4.0,,,9999.0,,21.0,19.0,29.52,1000.8,,,,,,,,,,,,,TRACE,,8/8 Overcast,1900.0,,BKN,2600.0,OVC,4500.0,,,,
KRDR,09-16-2006,23:00,METAR,,100,4.0,,,9999.0,,21.0,18.0,29.49,1000.0,,,,,,,,,,,,,,,8/8 Overcast,2000.0,,BKN,2000.0,OVC,4500.0,,,,
KRDR,09-16-2006,22:00,METAR,,110,6.0,,,9999.0,,20.0,18.0,29.51,1000.5,,,,,,,,,,,TRACE,,,,7/8 Mostly Cloudy,2800.0,,BKN,2800.0,BKN,9900.0,,,,
KRDR,09-16-2006,21:04,SPECI,,210,2.0,,,9999.0,,19.0,18.0,29.51,,,,,,,,,,,,,,,,8/8 Overcast,1900.0,,OVC,1900.0,,,,,,
KRDR,09-16-2006,21:00,METAR,,200,4.0,,,9999.0,Drizzle,19.0,18.0,29.52,1001.0,,,,51,,,,,,,TRACE,TRACE,,,8/8 Overcast,2100.0,,OVC,2100.0,,,,,,
KRDR,09-16-2006,20:22,SPECI,,180,6.0,,,9999.0,,19.0,18.0,29.53,,,,,,,,,,,,,,,,8/8 Overcast,2100.0,,SCT,400.0,OVC,2100.0,,,,
KRDR,09-16-2006,20:18,SPECI,,180,5.0,,,9999.0,Drizzle,19.0,18.0,29.53,,,,,51,,,,,,,,,,,8/8 Overcast,1900.0,,SCT,400.0,SCT,1200.0,OVC,1900.0,,
KRDR,09-16-2006,20:00,METAR,,180,8.0,,,4800.0,Drizzle/Mist,20.0,17.0,29.54,1001.6,,,,51,10,,,,,,,,,,8/8 Overcast,400.0,,OVC,1500.0,,,,,,
KRDR,09-16-2006,19:00,METAR,,170,8.0,,,9999.0,,19.0,17.0,29.53,1001.3,,,,,,,,,,,,,,,8/8 Overcast,1600.0,,OVC,1600.0,,,,,,
KRDR,09-16-2006,18:18,SPECI,,140,12.0,,,9999.0,,19.0,17.0,29.53,,,,,,,,,,,,,,,,8/8 Overcast,1500.0,,OVC,1500.0,,,,,,
KRDR,09-16-2006,18:00,METAR,,150,8.0,,,9999.0,,19.0,17.0,29.53,1001.2,,,,,,,,,,,,,.18 IN,,8/8 Overcast,1400.0,,OVC,1400.0,,,,,,
KRDR,09-16-2006,17:00,METAR,,150,10.0,,,9999.0,,19.0,17.0,29.54,1001.6,,,,,,,,,,,,,,,8/8 Overcast,1200.0,,OVC,1200.0,,,,,,
KRDR,09-16-2006,16:09,SPECI,,150,10.0,,,9999.0,,19.0,17.0,29.54,,,,,,,,,,,,,,,,8/8 Overcast,1300.0,,OVC,1300.0,,,,,,
KRDR,09-16-2006,16:00,METAR,,160,15.0,,,9999.0,,19.0,17.0,29.54,1001.5,,,,,,,,,,,,,,,8/8 Overcast,900.0,,OVC,2100.0,,,,,,
KRDR,09-16-2006,15:36,SPECI,,160,16.0,,,9999.0,,19.0,17.0,29.53,,,,,,,,,,,,,,,,8/8 Overcast,800.0,,OVC,1500.0,,,,,,
KRDR,09-16-2006,15:00,METAR,,160,10.0,17.0,,9999.0,,18.0,17.0,29.53,1001.2,,,,,,,,,,,,.18 IN,,,8/8 Overcast,1000.0,,OVC,1000.0,,,,,,
KRDR,09-16-2006,14:00,METAR,,160,14.0,,,8000.0,Mist,18.0,17.0,29.55,1001.9,,,,10,,,,,,,TRACE,,,,8/8 Overcast,1100.0,,SCT,700.0,OVC,1100.0,,,,
KRDR,09-16-2006,13:00,METAR,,150,12.0,18.0,,6400.0,Mist,17.0,17.0,29.55,,,,,10,,,,,,,,,,,8/8 Overcast,1100.0,,FEW,100.0,OVC,1100.0,,,,
KRDR,09-16-2006,12:51,METAR,,150,14.0,18.0,,4800.0,Rain/Mist,17.0,17.0,29.55,1001.8,,,,61,10,,,,,,,,,,8/8 Overcast,1100.0,,FEW,100.0,OVC,1100.0,,,,
KRDR,09-16-2006,12:41,SPECI,,150,9.0,,,4800.0,Rain/Mist,18.0,17.0,29.55,,,,,61,10,,,,,,,,,,8/8 Overcast,3000.0,,FEW,500.0,SCT,1600.0,OVC,3000.0,,
KRDR,09-16-2006,12:37,SPECI,,150,10.0,,,1600.0,Heavy Rain/Mist,18.0,17.0,29.55,,,,,65,10,,,,,,,,,,8/8 Overcast,1600.0,,SCT,800.0,BKN,1600.0,OVC,2500.0,,
KRDR,09-16-2006,12:32,SPECI,,150,11.0,,,6400.0,Rain/Mist,18.0,17.0,29.54,,,,,61,10,,,,,,,,,,8/8 Overcast,3000.0,,FEW,900.0,SCT,1700.0,OVC,3000.0,,
KRDR,09-16-2006,12:03,SPECI,,150,12.0,,,9999.0,,18.0,17.0,29.55,,,,,,,,,,,,,,,,8/8 Overcast,3000.0,,FEW,1100.0,BKN,3000.0,OVC,5000.0,,
KRDR,09-16-2006,12:00,METAR,,150,13.0,,,9999.0,,18.0,16.0,29.55,1002.0,,,,,,,,,,,.5 IN,,.5 IN,,8/8 Overcast,3700.0,,SCT,2400.0,OVC,3800.0,,,,
KRDR,09-16-2006,11:29,SPECI,,150,13.0,,,9999.0,,18.0,16.0,29.55,,,,,,,,,,,,,,,,8/8 Overcast,6000.0,,FEW,1000.0,SCT,3100.0,OVC,5900.0,,
KRDR,09-16-2006,11:23,SPECI,,150,15.0,,,9999.0,Light Rain Showers,18.0,17.0,29.55,,,,,80,,,,,,,,,,,8/8 Overcast,6000.0,,FEW,1000.0,SCT,4400.0,OVC,5900.0,,
KRDR,09-16-2006,11:00,METAR,,150,19.0,,,4800.0,Thunderstorm with Rain or Snow/Rain Showers,17.0,17.0,29.55,1001.8,,,,95,81,,,,,,,,,,8/8 Overcast,3900.0,,SCT,1000.0,OVC,4000.0,,,,
KRDR,09-16-2006,10:31,SPECI,,160,16.0,19.0,,8000.0,Thunderstorm with Rain or Snow/Rain Showers,18.0,16.0,29.55,,,,,95,81,,,,,,,,,,8/8 Overcast,4600.0,,SCT,1400.0,OVC,4700.0,,,,
KRDR,09-16-2006,10:03,SPECI,,160,15.0,,,4800.0,Heavy Thunderstorm with Rain or Snow/Heavy Rain Showers,17.0,16.0,29.56,,,,,97,82,,,,,,,,,,8/8 Overcast,2500.0,,SCT,1000.0,BKN,2500.0,OVC,4000.0,,
KRDR,09-16-2006,10:00,METAR,,130,11.0,,,8000.0,Thunderstorm with Rain or Snow/Light Rain Showers,18.0,16.0,29.56,1002.1,,,,95,80,,,,,,TRACE,,,,8/8 Overcast,3900.0,,FEW,400.0,SCT,2500.0,OVC,4000.0,,
KRDR,09-16-2006,09:24,SPECI,,130,14.0,,,9999.0,Light Rain Showers,18.0,16.0,29.56,,,,,80,,,,,,,,,,,8/8 Overcast,6500.0,,SCT,2800.0,SCT,4700.0,BKN,6400.0,OVC,9900.0
KRDR,09-16-2006,09:00,METAR,,130,11.0,,,9999.0,,18.0,16.0,29.56,1002.2,,,,,,,,,,,,,,,7/8 Mostly Cloudy,10000.0,,SCT,7400.0,BKN,9900.0,,,,
KRDR,09-16-2006,08:00,METAR,,140,13.0,21.0,,9999.0,,19.0,16.0,29.57,1002.6,,,,,,,,,,,,,,,8/8 Overcast,7500.0,,SCT,4600.0,OVC,7400.0,,,,
KRDR,09-16-2006,07:00,METAR,,140,15.0,19.0,,9999.0,,19.0,15.0,29.60,1003.6,,,,,,,,,,,,,,,7/8 Mostly Cloudy,7000.0,,BKN,6900.0,,,,,,
KRDR,09-16-2006,06:00,METAR,,120,12.0,,,9999.0,,18.0,15.0,29.61,1004.0,,,,,,,,,,,,,.53 IN,,8/8 Overcast,10000.0,,SCT,5900.0,BKN,9900.0,OVC,20000.0,,
KRDR,09-16-2006,05:00,METAR,,120,10.0,,,9999.0,,18.0,16.0,29.62,1004.3,,,,,,,,,,,,,,,8/8 Overcast,6000.0,,OVC,5900.0,,,,,,
KRDR,09-16-2006,04:00,METAR,,130,10.0,,,9999.0,,18.0,15.0,29.64,1004.9,,,,,,,,,,,,,,,8/8 Overcast,6000.0,,OVC,5900.0,,,,,,
KRDR,09-16-2006,03:00,METAR,,130,15.0,20.0,,9999.0,,18.0,16.0,29.66,1005.4,,,,,,,,,,,,.53 IN,,,8/8 Overcast,4400.0,,BKN,4500.0,OVC,9900.0,,,,
KRDR,09-16-2006,02:36,SPECI,,130,15.0,,,9999.0,Thunderstorm,18.0,16.0,29.65,,,,,17,,,,,,,,,,,8/8 Overcast,4500.0,,BKN,4600.0,OVC,9900.0,,,,
KRDR,09-16-2006,02:00,METAR,,140,19.0,38.0,150/49KTS,9999.0,Thunderstorm,18.0,16.0,29.66,1005.4,,,,17,,,,,,,,,,,8/8 Overcast,10000.0,,FEW,3500.0,SCT,5000.0,BKN,9900.0,OVC,20000.0
KRDR,09-16-2006,01:26,SPECI,,160,34.0,44.0,,8000.0,Thunderstorm with Rain or Snow/Rain Showers,18.0,16.0,29.63,,,,,95,81,,,,,,,,,,8/8 Overcast,4900.0,,FEW,2500.0,BKN,5000.0,OVC,9900.0,,
KRDR,09-16-2006,01:19,SPECI,,150,34.0,43.0,,800.0,Heavy Thunderstorm with Rain or Snow/Heavy Rain Showers,18.0,16.0,29.61,,,,,97,82,,,,,,,,,,8/8 Overcast,10000.0,,SCT,5000.0,OVC,9900.0,,,,
KRDR,09-16-2006,01:00,METAR,,150,25.0,36.0,160/39KTS,9999.0,Thunderstorm with Rain or Snow/Light Rain Showers,19.0,16.0,29.63,1004.7,,,,95,80,,,,,,TRACE,,,,8/8 Overcast,10000.0,,FEW,5000.0,BKN,9900.0,OVC,20000.0,,
KRDR,09-16-2006,00:16,SPECI,,170,26.0,,,9999.0,Thunderstorm with Rain or Snow/Light Rain Showers,24.0,12.0,29.62,,,,,95,80,,,,,,,,,,7/8 Mostly Cloudy,10000.0,,FEW,5000.0,BKN,9900.0,BKN,20000.0,,
KRDR,09-16-2006,00:13,SPECI,,180,26.0,34.0,,9999.0,Thunderstorm,25.0,12.0,29.62,,,,,17,,,,,,,,,,,7/8 Mostly Cloudy,12000.0,,FEW,5000.0,BKN,12000.0,BKN,20000.0,,
KRDR,09-16-2006,00:00,METAR,,150,24.0,35.0,160/39KTS,9999.0,,26.0,12.0,29.61,1003.7,,,,,,,,,,,,,,,7/8 Mostly Cloudy,12000.0,,FEW,5000.0,BKN,12000.0,BKN,20000.0,,
KRDR,09-15-2006,23:00,METAR,,150,22.0,30.0,150/33KTS,9999.0,,28.0,11.0,29.59,1003.2,,,,,,,,,,,,,,,7/8 Mostly Cloudy,12000.0,,BKN,12000.0,BKN,20000.0,,,,
KRDR,09-15-2006,22:00,METAR,,130,21.0,30.0,150/36KTS,9999.0,,28.0,12.0,29.59,1003.2,,,,,,,,,,,,,,,7/8 Mostly Cloudy,20000.0,,SCT,12000.0,BKN,20000.0,,,,
KRDR,09-15-2006,21:00,METAR,,160,28.0,35.0,150/38KTS,9999.0,,30.0,11.0,29.61,1003.8,,,,,,,,,,,,,,,7/8 Mostly Cloudy,25000.0,,FEW,12000.0,BKN,25000.0,,,,
KRDR,09-15-2006,20:00,METAR,,140,20.0,33.0,150/33KTS,9999.0,,29.0,11.0,29.63,1004.6,,,,,,,,,,,,,,,7/8 Mostly Cloudy,25000.0,,SCT,12000.0,BKN,25000.0,,,,
KRDR,09-15-2006,19:00,METAR,,160,23.0,34.0,160/34KTS,9999.0,,28.0,11.0,29.66,1005.5,,,,,,,,,,,,,,,7/8 Mostly Cloudy,25000.0,,FEW,12000.0,BKN,25000.0,,,,
KRDR,09-15-2006,18:00,METAR,,150,19.0,26.0,150/27KTS,9999.0,,27.0,13.0,29.68,1006.1,,,,,,,,,,,,,,,7/8 Mostly Cloudy,25000.0,,BKN,25000.0,,,,,,
KRDR,09-15-2006,17:00,METAR,,150,19.0,24.0,,9999.0,,25.0,13.0,29.68,1005.1,,,,,,,,,,,,,,,7/8 Mostly Cloudy,25000.0,,BKN,25000.0,,,,,,
KRDR,09-15-2006,16:00,METAR,,150,21.0,25.0,,9999.0,,24.0,13.0,29.70,1006.8,,,,,,,,,,,,,,,7/8 Mostly Cloudy,20000.0,,BKN,20000.0,,,,,,
KRDR,09-15-2006,15:00,METAR,,160,16.0,22.0,160/26KTS,9999.0,,22.0,13.0,29.70,1006.9,,,,,,,,,,,,,,,7/8 Mostly Cloudy,20000.0,,BKN,20000.0,,,,,,
KRDR,09-15-2006,14:00,METAR,,150,13.0,,,9999.0,,20.0,13.0,29.71,1007.0,,,,,,,,,,,,,,,7/8 Mostly Cloudy,20000.0,,FEW,7900.0,BKN,20000.0,,,,
KRDR,09-15-2006,13:00,METAR,,140,11.0,,,9999.0,,19.0,13.0,29.71,1007.0,,,,,,,,,,,,,,,7/8 Mostly Cloudy,20000.0,,FEW,8400.0,BKN,20000.0,,,,
KRDR,09-15-2006,12:00,METAR,,150,12.0,,,9999.0,,19.0,13.0,29.70,1006.7,,,,,,,,,,,,,,,7/8 Mostly Cloudy,20000.0,,SCT,12000.0,BKN,20000.0,,,,
KRDR,09-15-2006,11:00,METAR,,150,10.0,,,9999.0,,20.0,14.0,29.69,1006.4,,,,,,,,,,,,,,,Clear,72000.0,,,73000.0,,,,,,
KRDR,09-15-2006,10:00,METAR,,160,13.0,,,9999.0,,21.0,14.0,29.68,1006.0,,,,,,,,,,,,,,,Clear,72000.0,,,73000.0,,,,,,
KRDR,09-15-2006,09:00,METAR,,160,12.0,,,9999.0,,21.0,14.0,29.66,1005.6,,,,,,,,,,,,,,,7/8 Mostly Cloudy,20000.0,,BKN,20000.0,,,,,,
KRDR,09-15-2006,08:00,METAR,,160,12.0,,,9999.0,,22.0,15.0,29.65,1005.3,,,,,,,,,,,,,,,7/8 Mostly Cloudy,25000.0,,BKN,25000.0,,,,,,
KRDR,09-15-2006,07:00,METAR,,160,13.0,,,9999.0,,23.0,16.0,29.65,1005.2,,,,,,,,,,,,,,,7/8 Mostly Cloudy,25000.0,,BKN,25000.0,,,,,,
KRDR,09-15-2006,06:00,METAR,,160,15.0,21.0,,9999.0,,24.0,16.0,29.64,1005.0,,,,,,,,,,,,,,,7/8 Mostly Cloudy,25000.0,,BKN,25000.0,,,,,,
KRDR,09-15-2006,05:00,METAR,,160,16.0,,,9999.0,,25.0,16.0,29.64,1004.8,,,,,,,,,,,,,,,4/8 Partly Cloudy,72000.0,,SCT,25000.0,,,,,,
KRDR,09-15-2006,04:00,METAR,,160,15.0,,,9999.0,,26.0,17.0,29.63,1004.6,,,,,,,,,,,,,,,7/8 Mostly Cloudy,25000.0,,BKN,25000.0,,,,,,
KRDR,09-15-2006,03:00,METAR,,170,15.0,,,9999.0,,26.0,17.0,29.62,1004.3,,,,,,,,,,,,,,,7/8 Mostly Cloudy,25000.0,,BKN,25000.0,,,,,,
KRDR,09-15-2006,02:00,METAR,,170,14.0,,,9999.0,,27.0,16.0,29.61,1003.7,,,,,,,,,,,,,,,7/8 Mostly Cloudy,25000.0,,BKN,25000.0,,,,,,
KRDR,09-15-2006,01:00,METAR,,180,16.0,,,9999.0,,29.0,16.0,29.59,1003.1,,,,,,,,,,,,,,,4/8 Partly Cloudy,72000.0,,SCT,25000.0,,,,,,
KRDR,09-15-2006,00:00,METAR,,160,16.0,22.0,170/27KTS,9999.0,,30.0,17.0,29.57,1002.5,,,,,,,,,,,,,,,4/8 Partly Cloudy,72000.0,,SCT,25000.0,,,,,,
KRDR,09-14-2006,23:00,METAR,,150,19.0,23.0,,9999.0,,30.0,16.0,29.56,1002.2,,,,,,,,,,,,,,,7/8 Mostly Cloudy,25000.0,,FEW,12000.0,BKN,25000.0,,,,
KRDR,09-14-2006,22:00,METAR,,170,20.0,28.0,150/31KTS,9999.0,,31.0,16.0,29.56,1002.2,,,,,,,,,,,,,,,7/8 Mostly Cloudy,25000.0,,FEW,12000.0,BKN,25000.0,,,,
KRDR,09-14-2006,21:00,METAR,,170,26.0,32.0,,9999.0,,31.0,15.0,29.55,1002.0,,,,,,,,,,,,,,,7/8 Mostly Cloudy,20000.0,,SCT,12000.0,BKN,20000.0,,,,
KRDR,09-14-2006,20:00,METAR,,160,18.0,28.0,170/29KTS,9999.0,,29.0,15.0,29.56,1002.2,,,,,,,,,,,,,,,7/8 Mostly Cloudy,20000.0,,SCT,12000.0,BKN,20000.0,,,,
KRDR,09-14-2006,19:00,METAR,,160,19.0,25.0,150/28KTS,9999.0,,27.0,14.0,29.57,1002.5,,,,,,,,,,,,,,,7/8 Mostly Cloudy,20000.0,,SCT,12000.0,BKN,20000.0,,,,
KRDR,09-14-2006,18:00,METAR,,150,18.0,22.0,,9999.0,,26.0,14.0,29.60,1003.6,,,,,,,,,,,,,,,7/8 Mostly Cloudy,25000.0,,SCT,12000.0,BKN,25000.0,,,,
KRDR,09-14-2006,17:00,METAR,,160,14.0,,,9999.0,,23.0,13.0,29.62,1004.3,,,,,,,,,,,,,,,7/8 Mostly Cloudy,20000.0,,SCT,15000.0,BKN,20000.0,,,,
KRDR,09-14-2006,16:00,METAR,,160,12.0,,,9999.0,,21.0,12.0,29.65,1005.2,,,,,,,,,,,,,,,7/8 Mostly Cloudy,20000.0,,SCT,12000.0,BKN,20000.0,,,,
KRDR,09-14-2006,15:00,METAR,,170,11.0,,,9999.0,,19.0,11.0,29.65,1005.3,,,,,,,,,,,,,,,7/8 Mostly Cloudy,20000.0,,SCT,12000.0,BKN,20000.0,,,,
KRDR,09-14-2006,14:00,METAR,,160,14.0,19.0,,9999.0,,18.0,11.0,29.65,1005.1,,,,,,,,,,,,,,,4/8 Partly Cloudy,72000.0,,SCT,25000.0,,,,,,
KRDR,09-14-2006,13:00,METAR,,160,10.0,,,9999.0,,17.0,10.0,29.65,1005.2,,,,,,,,,,,,,,,4/8 Partly Cloudy,72000.0,,FEW,6900.0,SCT,25000.0,,,,
KRDR,09-14-2006,12:00,METAR,,150,10.0,,,9999.0,,17.0,10.0,29.65,1005.1,,,,,,,,,,,,,,,2/8 Mostly Clear,72000.0,,FEW,25000.0,,,,,,
KRDR,09-14-2006,11:00,METAR,,160,16.0,,,9999.0,,16.0,11.0,29.65,1005.3,,,,,,,,,,,,,,,4/8 Partly Cloudy,72000.0,,SCT,25000.0,,,,,,
KRDR,09-14-2006,10:00,METAR,,160,13.0,,,9999.0,,17.0,12.0,29.67,1005.9,,,,,,,,,,,,,,,4/8 Partly Cloudy,72000.0,,SCT,25000.0,,,,,,
KRDR,09-14-2006,09:00,METAR,,170,13.0,,,9999.0,,18.0,12.0,29.69,1006.7,,,,,,,,,,,,,,,Clear,72000.0,,,73000.0,,,,,,
KRDR,09-14-2006,08:00,METAR,,170,11.0,,,9999.0,,18.0,12.0,29.70,1006.8,,,,,,,,,,,,,,,Clear,72000.0,,,73000.0,,,,,,
KRDR,09-14-2006,07:00,METAR,,180,10.0,,,9999.0,,19.0,12.0,29.71,1007.0,,,,,,,,,,,,,,,Clear,72000.0,,,73000.0,,,,,,
KRDR,09-14-2006,06:00,METAR,,180,12.0,,,9999.0,,21.0,11.0,29.71,1007.0,,,,,,,,,,,,,,,Clear,72000.0,,,73000.0,,,,,,
KRDR,09-14-2006,05:00,METAR,,180,12.0,,,9999.0,,20.0,11.0,29.71,1007.2,,,,,,,,,,,,,,,2/8 Mostly Clear,72000.0,,FEW,25000.0,,,,,,
KRDR,09-14-2006,04:00,METAR,,180,11.0,,,9999.0,,21.0,11.0,29.71,1007.3,,,,,,,,,,,,,,,2/8 Mostly Clear,72000.0,,FEW,25000.0,,,,,,
KRDR,09-14-2006,03:00,METAR,,180,10.0,,,9999.0,,21.0,11.0,29.72,1007.6,,,,,,,,,,,,,,,2/8 Mostly Clear,72000.0,,FEW,25000.0,,,,,,
KRDR,09-14-2006,02:00,METAR,,170,10.0,,,9999.0,,22.0,11.0,29.72,1007.4,,,,,,,,,,,,,,,Clear,72000.0,,,73000.0,,,,,,
KRDR,09-14-2006,01:00,METAR,,150,7.0,,,9999.0,,23.0,11.0,29.71,1007.2,,,,,,,,,,,,,,,4/8 Partly Cloudy,72000.0,,SCT,25000.0,,,,,,
KRDR,09-14-2006,00:00,METAR,,140,9.0,,,9999.0,,27.0,12.0,29.71,1007.2,,,,,,,,,,,,,,,Clear,72000.0,,,73000.0,,,,,,
KRDR,09-13-2006,23:00,METAR,,150,12.0,,,9999.0,,28.0,11.0,29.72,1007.4,,,,,,,,,,,,,,,7/8 Mostly Cloudy,25000.0,,BKN,25000.0,,,,,,
KRDR,09-13-2006,22:00,METAR,,150,12.0,,,9999.0,,29.0,11.0,29.74,1008.2,,,,,,,,,,,,,,,7/8 Mostly Cloudy,25000.0,,BKN,25000.0,,,,,,
KRDR,09-13-2006,21:00,METAR,,140,13.0,,,9999.0,,29.0,11.0,29.77,1009.1,,,,,,,,,,,,,,,4/8 Partly Cloudy,72000.0,,SCT,25000.0,,,,,,
KRDR,09-13-2006,20:00,METAR,,150,12.0,,,9999.0,,29.0,11.0,29.79,1009.9,,,,,,,,,,,,,,,4/8 Partly Cloudy,72000.0,,SCT,25000.0,,,,,,
KRDR,09-13-2006,19:00,METAR,,140,14.0,,,9999.0,,28.0,12.0,29.81,1010.5,,,,,,,,,,,,,,,Clear,72000.0,,,73000.0,,,,,,
KRDR,09-13-2006,18:00,METAR,,150,10.0,,,9999.0,,27.0,13.0,29.84,1011.3,,,,,,,,,,,,,,,Clear,72000.0,,,73000.0,,,,,,
KRDR,09-13-2006,17:00,METAR,,150,8.0,,,9999.0,,24.0,14.0,29.86,1012.2,,,,,,,,,,,,,,,2/8 Mostly Clear,72000.0,,FEW,25000.0,,,,,,
KRDR,09-13-2006,16:00,METAR,,140,6.0,,,9999.0,,22.0,14.0,29.88,1012.7,,,,,,,,,,,,,,,Clear,72000.0,,,73000.0,,,,,,
KRDR,09-13-2006,15:00,METAR,,160,5.0,,,9999.0,,19.0,13.0,29.89,1013.0,,,,,,,,,,,,,,,Clear,72000.0,,,73000.0,,,,,,
KRDR,09-13-2006,14:00,METAR,,150,2.0,,,9999.0,,14.0,12.0,29.91,1013.6,,,,,,,,,,,,,,,Clear,72000.0,,,73000.0,,,,,,
KRDR,09-13-2006,13:00,METAR,,170,4.0,,,9999.0,,10.0,9.0,29.90,1013.5,,,,,,,,,,,,,,,Clear,72000.0,,,73000.0,,,,,,
KRDR,09-13-2006,12:00,METAR,,180,5.0,,,9999.0,Shallow Fog or Ice Fog,9.0,9.0,29.89,1013.2,,,,12,,,,,,,,,,,Clear,72000.0,,,73000.0,,,,,,
KRDR,09-13-2006,11:00,METAR,,190,5.0,,,9999.0,Shallow Fog or Ice Fog,9.0,8.0,29.90,1013.5,,,,12,,,,,,,,,,,Clear,72000.0,,,73000.0,,,,,,
KRDR,09-13-2006,10:00,METAR,,,0.0,,,9999.0,,9.0,8.0,29.91,1013.8,,,,,,,,,,,,,,,Clear,72000.0,,,73000.0,,,,,,
KRDR,09-13-2006,09:00,METAR,,190,3.0,,,9999.0,,10.0,10.0,29.91,1013.7,,,,,,,,,,,,,,,Clear,72000.0,,,73000.0,,,,,,
KRDR,09-13-2006,08:00,METAR,,,0.0,,,9999.0,,13.0,11.0,29.92,1014.0,,,,,,,,,,,,,,,Clear,72000.0,,,73000.0,,,,,,
KRDR,09-13-2006,07:00,METAR,,150,4.0,,,9999.0,,13.0,11.0,29.92,1014.1,,,,,,,,,,,,,,,Clear,72000.0,,,73000.0,,,,,,
KRDR,09-13-2006,06:00,METAR,,170,6.0,,,9999.0,,15.0,12.0,29.93,1014.3,,,,,,,,,,,,,,,Clear,72000.0,,,73000.0,,,,,,
KRDR,09-13-2006,05:00,METAR,,180,7.0,,,9999.0,,16.0,13.0,29.93,1014.5,,,,,,,,,,,,,,,2/8 Mostly Clear,72000.0,,FEW,25000.0,,,,,,
KRDR,09-13-2006,04:00,METAR,,170,8.0,,,9999.0,,18.0,13.0,29.95,1014.9,,,,,,,,,,,,,,,Clear,72000.0,,,73000.0,,,,,,
KRDR,09-13-2006,03:00,METAR,,170,8.0,,,9999.0,,18.0,13.0,29.95,1015.2,,,,,,,,,,,,,,,2/8 Mostly Clear,72000.0,,FEW,25000.0,,,,,,
KRDR,09-13-2006,02:00,METAR,,150,5.0,,,9999.0,,19.0,13.0,29.95,1015.2,,,,,,,,,,,,,,,2/8 Mostly Clear,72000.0,,FEW,25000.0,,,,,,
KRDR,09-13-2006,01:00,METAR,,130,6.0,,,9999.0,,22.0,13.0,29.95,1015.2,,,,,,,,,,,,,,,4/8 Partly Cloudy,72000.0,,FEW,7900.0,SCT,25000.0,,,,
KRDR,09-13-2006,00:00,METAR,,170,9.0,,,9999.0,,25.0,13.0,29.95,1015.1,,,,,,,,,,,,,,,4/8 Partly Cloudy,72000.0,,FEW,7900.0,SCT,25000.0,,,,
KRDR,09-12-2006,23:00,METAR,,180,7.0,,,9999.0,,26.0,13.0,29.96,1015.5,,,,,,,,,,,,,,,4/8 Partly Cloudy,72000.0,,FEW,7900.0,SCT,25000.0,,,,
KRDR,09-12-2006,22:00,METAR,,180,10.0,,,9999.0,,26.0,13.0,29.98,1016.0,,,,,,,,,,,,,,,4/8 Partly Cloudy,72000.0,,FEW,5000.0,SCT,25000.0,,,,
KRDR,09-12-2006,21:00,METAR,,180,7.0,17.0,,9999.0,,26.0,13.0,30.00,1016.8,,,,,,,,,,,,,,,4/8 Partly Cloudy,72000.0,,FEW,4000.0,SCT,25000.0,,,,
KRDR,09-12-2006,20:00,METAR,,180,8.0,15.0,,9999.0,,25.0,13.0,30.03,1017.6,,,,,,,,,,,,,,,4/8 Partly Cloudy,72000.0,,FEW,4000.0,SCT,25000.0,,,,
KRDR,09-12-2006,19:00,METAR,,190,10.0,,,9999.0,,24.0,12.0,30.05,1018.3,,,,,,,,,,,,,,,2/8 Mostly Clear,72000.0,,FEW,4000.0,FEW,25000.0,,,,
KRDR,09-12-2006,18:00,METAR,,180,13.0,,,9999.0,,23.0,12.0,30.07,1019.0,,,,,,,,,,,,,,,4/8 Partly Cloudy,72000.0,,FEW,3500.0,FEW,15000.0,SCT,25000.0,,
KRDR,09-12-2006,17:00,METAR,,190,11.0,,,9999.0,,22.0,12.0,30.09,1019.6,,,,,,,,,,,,,,,2/8 Mostly Clear,72000.0,,FEW,15000.0,FEW,25000.0,,,,
KRDR,09-12-2006,16:00,METAR,,170,10.0,,,9999.0,,19.0,12.0,30.11,1020.2,,,,,,,,,,,,,,,2/8 Mostly Clear,72000.0,,FEW,15000.0,FEW,25000.0,,,,
KRDR,09-12-2006,15:00,METAR,,170,8.0,,,9999.0,,17.0,13.0,30.11,1020.5,,,,,,,,,,,,,,,2/8 Mostly Clear,72000.0,,FEW,25000.0,,,,,,
KRDR,09-12-2006,14:00,METAR,,170,8.0,,,9999.0,,13.0,12.0,30.13,1020.9,,,,,,,,,,,,,,,2/8 Mostly Clear,72000.0,,FEW,25000.0,,,,,,
KRDR,09-12-2006,13:00,METAR,,170,7.0,,,9999.0,,9.0,8.0,30.13,1020.9,,,,,,,,,,,,,,,2/8 Mostly Clear,72000.0,,FEW,25000.0,,,,,,
KRDR,09-12-2006,12:00,METAR,,180,7.0,,,9999.0,Shallow Fog or Ice Fog,7.0,6.0,30.13,1021.0,,,,12,,,,,,,,,,,2/8 Mostly Clear,72000.0,,FEW,25000.0,,,,,,
KRDR,09-12-2006,11:00,METAR,,180,6.0,,,9999.0,Shallow Fog or Ice Fog,7.0,7.0,30.14,1021.4,,,,12,,,,,,,,,,,Clear,72000.0,,,73000.0,,,,,,
KRDR,09-12-2006,10:00,METAR,,210,5.0,,,9999.0,Mist,6.0,5.0,30.15,1021.7,,,,10,,,,,,,,,,,Clear,72000.0,,,73000.0,,,,,,
KRDR,09-12-2006,09:00,METAR,,190,6.0,,,8000.0,Mist,6.0,6.0,30.16,1021.9,,,,10,,,,,,,,,,,Clear,72000.0,,,73000.0,,,,,,
KRDR,09-12-2006,08:00,METAR,,190,5.0,,,9999.0,,7.0,7.0,30.15,1021.8,,,,,,,,,,,,,,,Clear,72000.0,,,73000.0,,,,,,
KRDR,09-12-2006,07:00,METAR,,180,5.0,,,9999.0,,8.0,7.0,30.16,1021.9,,,,,,,,,,,,,,,Clear,72000.0,,,73000.0,,,,,,
KRDR,09-12-2006,06:00,METAR,,230,5.0,,,9999.0,,8.0,8.0,30.17,1022.5,,,,,,,,,,,,,,,Clear,72000.0,,,73000.0,,,,,,
KRDR,09-12-2006,05:00,METAR,,210,3.0,,,9999.0,,9.0,8.0,30.18,1022.6,,,,,,,,,,,,,,,Clear,72000.0,,,73000.0,,,,,,
KRDR,09-12-2006,04:00,METAR,,190,5.0,,,9999.0,,9.0,7.0,30.18,1022.7,,,,,,,,,,,,,,,2/8 Mostly Clear,72000.0,,FEW,25000.0,,,,,,
KRDR,09-12-2006,03:00,METAR,,180,5.0,,,9999.0,,10.0,8.0,30.19,1022.9,,,,,,,,,,,,,,,2/8 Mostly Clear,72000.0,,FEW,4200.0,FEW,25000.0,,,,
KRDR,09-12-2006,02:00,METAR,,190,3.0,,,9999.0,,14.0,10.0,30.19,1022.9,,,,,,,,,,,,,,,4/8 Partly Cloudy,72000.0,,FEW,4200.0,SCT,25000.0,,,,
KRDR,09-12-2006,01:00,METAR,,180,7.0,,,9999.0,,16.0,11.0,30.18,1022.6,,,,,,,,,,,,,,,4/8 Partly Cloudy,72000.0,,FEW,4000.0,SCT,25000.0,,,,
KRDR,09-12-2006,00:00,METAR,,180,8.0,,,9999.0,,17.0,11.0,30.18,1022.6,,,,,,,,,,,,,,,4/8 Partly Cloudy,72000.0,,FEW,4500.0,SCT,25000.0,,,,
KRDR,09-11-2006,23:00,METAR,,170,9.0,,,9999.0,,19.0,11.0,30.18,1022.7,,,,,,,,,,,,,,,4/8 Partly Cloudy,72000.0,,SCT,4700.0,,,,,,
KRDR,09-11-2006,22:00,METAR,,160,7.0,,,9999.0,,20.0,11.0,30.19,1022.9,,,,,,,,,,,,,,,7/8 Mostly Cloudy,4000.0,,BKN,4100.0,,,,,,
KRDR,09-11-2006,21:00,METAR,,110,10.0,,,9999.0,,19.0,11.0,30.20,1023.3,,,,,,,,,,,,,,,7/8 Mostly Cloudy,3800.0,,BKN,3900.0,,,,,,
KRDR,09-11-2006,20:00,METAR,,170,7.0,,,9999.0,,18.0,11.0,30.21,1023.8,,,,,,,,,,,,,,,7/8 Mostly Cloudy,3300.0,,BKN,3400.0,,,,,,
KRDR,09-11-2006,19:32,SPECI,,,3.0,,,9999.0,,18.0,11.0,30.22,,,,,,,,,,,,,,,,7/8 Mostly Cloudy,3100.0,,BKN,3100.0,,,,,,
KRDR,09-11-2006,19:00,METAR,,180,7.0,,,9999.0,,17.0,11.0,30.23,1024.4,,,,,,,,,,,,,,,7/8 Mostly Cloudy,2500.0,,BKN,2500.0,,,,,,
KRDR,09-11-2006,18:00,METAR,,150,7.0,,,9999.0,,16.0,11.0,30.24,1024.8,,,,,,,,,,,,,,,8/8 Overcast,2200.0,,OVC,2200.0,,,,,,
KRDR,09-11-2006,17:00,METAR,,150,9.0,,,9999.0,,15.0,11.0,30.25,1025.1,,,,,,,,,,,,,,,8/8 Overcast,1800.0,,BKN,1800.0,OVC,2500.0,,,,
KRDR,09-11-2006,16:00,METAR,,140,7.0,,,9999.0,,15.0,11.0,30.25,1025.1,,,,,,,,,,,,,,,8/8 Overcast,1600.0,,OVC,1600.0,,,,,,
KRDR,09-11-2006,15:00,METAR,,140,7.0,,,9999.0,,14.0,11.0,30.25,1024.8,,,,,,,,,,,,,,,8/8 Overcast,1600.0,,OVC,1600.0,,,,,,
KRDR,09-11-2006,14:37,SPECI,,130,6.0,,,9999.0,,14.0,11.0,30.24,1024.7,,,,,,,,,,,,,,,7/8 Mostly Cloudy,1000.0,,FEW,1000.0,BKN,2500.0,,,,
KRDR,09-11-2006,14:00,METAR,,130,3.0,,,9999.0,,13.0,10.0,30.25,1024.9,,,,,,,,,,,,,,,8/8 Overcast,1900.0,,SCT,1200.0,OVC,1900.0,,,,
KRDR,09-11-2006,13:00,METAR,,120,4.0,,,9999.0,,12.0,9.0,30.24,1024.5,,,,,,,,,,,,,,,8/8 Overcast,1300.0,,OVC,1900.0,,,,,,
KRDR,09-11-2006,12:00,METAR,,120,3.0,,,9999.0,,11.0,8.0,30.22,1024.0,,,,,,,,,,,,,.03 IN,.03 IN,8/8 Overcast,1900.0,,FEW,900.0,OVC,1900.0,,,,
KRDR,09-11-2006,11:01,SPECI,,130,2.0,,,9999.0,,11.0,7.0,30.21,,,,,,,,,,,,,,,,8/8 Overcast,1500.0,,OVC,1500.0,,,,,,
KRDR,09-11-2006,11:00,METAR,,120,2.0,,,9999.0,,11.0,7.0,30.21,1023.6,,,,,,,,,,,,,,,8/8 Overcast,1200.0,,OVC,1200.0,,,,,,
KRDR,09-11-2006,10:35,SPECI,,,0.0,,,9999.0,,10.0,7.0,30.21,,,,,,,,,,,,,,,,8/8 Overcast,1400.0,,OVC,1400.0,,,,,,
KRDR,09-11-2006,10:05,SPECI,,,0.0,,,9999.0,,10.0,7.0,30.21,,,,,,,,,,,,,,,,8/8 Overcast,2900.0,,FEW,1400.0,OVC,2900.0,,,,
KRDR,09-11-2006,10:00,METAR,,,0.0,,,9999.0,,10.0,7.0,30.21,1023.7,,,,,,,,,,,,,,,8/8 Overcast,2800.0,,OVC,2800.0,,,,,,
KRDR,09-11-2006,09:00,METAR,,,0.0,,,9999.0,,9.0,6.0,30.20,1023.4,,,,,,,,,,,,.03 IN,,,8/8 Overcast,2100.0,,OVC,2100.0,,,,,,
KRDR,09-11-2006,08:35,SPECI,,90,3.0,,,9999.0,,7.0,5.0,30.20,,,,,,,,,,,,,,,,7/8 Mostly Cloudy,2800.0,,BKN,2800.0,,,,,,
KRDR,09-11-2006,08:00,METAR,,180,3.0,,,9999.0,,6.0,4.0,30.19,1023.1,,,,,,,,,,,.03 IN,,,,2/8 Mostly Clear,72000.0,,FEW,2500.0,,,,,,
KRDR,09-11-2006,07:00,METAR,,160,6.0,,,9999.0,,9.0,5.0,30.20,1023.2,,,,,,,,,,,,,,,Clear,72000.0,,,73000.0,,,,,,
KRDR,09-11-2006,06:00,METAR,,160,6.0,,,9999.0,,9.0,5.0,30.20,1023.3,,,,,,,,,,,,,,,Clear,72000.0,,,73000.0,,,,,,
KRDR,09-11-2006,05:00,METAR,,160,8.0,,,9999.0,,11.0,6.0,30.19,1023.1,,,,,,,,,,,,,,,2/8 Mostly Clear,72000.0,,FEW,25000.0,,,,,,
KRDR,09-11-2006,04:00,METAR,,180,6.0,,,9999.0,,11.0,6.0,30.19,1023.0,,,,,,,,,,,,,,,2/8 Mostly Clear,72000.0,,FEW,25000.0,,,,,,
KRDR,09-11-2006,03:00,METAR,,170,6.0,,,9999.0,,12.0,6.0,30.19,1023.0,,,,,,,,,,,,,,,2/8 Mostly Clear,72000.0,,FEW,25000.0,,,,,,
KRDR,09-11-2006,02:00,METAR,,140,5.0,,,9999.0,,14.0,6.0,30.18,1022.7,,,,,,,,,,,,,,,2/8 Mostly Clear,72000.0,,FEW,25000.0,,,,,,
KRDR,09-11-2006,01:00,METAR,,140,6.0,,,9999.0,,16.0,7.0,30.17,1022.3,,,,,,,,,,,,,,,2/8 Mostly Clear,72000.0,,FEW,3500.0,,,,,,
KRDR,09-11-2006,00:00,METAR,,140,8.0,,,9999.0,,19.0,6.0,30.17,1022.2,,,,,,,,,,,,,,,Clear,72000.0,,,73000.0,,,,,,
KRDR,09-10-2006,23:00,METAR,,150,8.0,,,9999.0,,20.0,6.0,30.16,1022.1,,,,,,,,,,,,,,,Clear,72000.0,,,73000.0,,,,,,
KRDR,09-10-2006,22:00,METAR,,140,10.0,,,9999.0,,21.0,5.0,30.17,1022.3,,,,,,,,,,,,,,,Clear,72000.0,,,73000.0,,,,,,
KRDR,09-10-2006,21:00,METAR,,130,11.0,,,9999.0,,20.0,6.0,30.18,1022.6,,,,,,,,,,,,,,,Clear,72000.0,,,73000.0,,,,,,
KRDR,09-10-2006,20:00,METAR,,140,13.0,,,9999.0,,21.0,6.0,30.19,1023.0,,,,,,,,,,,,,,,Clear,72000.0,,,73000.0,,,,,,
KRDR,09-10-2006,19:00,METAR,,160,14.0,,,9999.0,,19.0,6.0,30.20,1023.4,,,,,,,,,,,,,,,2/8 Mostly Clear,72000.0,,FEW,3000.0,,,,,,
KRDR,09-10-2006,18:00,METAR,,140,12.0,,,9999.0,,19.0,5.0,30.21,1023.6,,,,,,,,,,,,,,,2/8 Mostly Clear,72000.0,,FEW,3000.0,,,,,,
KRDR,09-10-2006,17:00,METAR,,150,8.0,15.0,,9999.0,,17.0,7.0,30.23,1024.3,,,,,,,,,,,,,,,2/8 Mostly Clear,72000.0,,FEW,4000.0,,,,,,
KRDR,09-10-2006,16:00,METAR,,120,5.0,,,9999.0,,14.0,7.0,30.24,1024.6,,,,,,,,,,,,,,,2/8 Mostly Clear,72000.0,,FEW,3000.0,,,,,,
KRDR,09-10-2006,15:00,METAR,,130,5.0,,,9999.0,,11.0,7.0,30.24,1024.5,,,,,,,,,,,,,,,Clear,72000.0,,,73000.0,,,,,,
KRDR,09-10-2006,14:00,METAR,,160,5.0,,,9999.0,,8.0,6.0,30.24,1024.5,,,,,,,,,,,,,,,Clear,72000.0,,,73000.0,,,,,,
KRDR,09-10-2006,13:00,METAR,,,0.0,,,9999.0,,3.0,2.0,30.23,1024.4,,,,,,,,,,,,,,,Clear,72000.0,,,73000.0,,,,,,
KRDR,09-10-2006,12:00,METAR,,,0.0,,,9999.0,,3.0,1.0,30.23,1024.3,,,,,,,,,,,,,,,Clear,72000.0,,,73000.0,,,,,,
KRDR,09-10-2006,11:00,METAR,,140,3.0,,,9999.0,,1.0,0.0,30.22,1024.0,,,,,,,,,,,,,,,Clear,72000.0,,,73000.0,,,,,,
KRDR,09-10-2006,10:00,METAR,,150,6.0,,,9999.0,,1.0,0.0,30.21,1023.6,,,,,,,,,,,,,,,Clear,72000.0,,,73000.0,,,,,,
KRDR,09-10-2006,09:00,METAR,,130,2.0,,,9999.0,,1.0,-1.0,30.20,1023.5,,,,,,,,,,,,,,,Clear,72000.0,,,73000.0,,,,,,
KRDR,09-10-2006,08:00,METAR,,,0.0,,,9999.0,,2.0,0.0,30.19,1022.9,,,,,,,,,,,,,,,Clear,72000.0,,,73000.0,,,,,,
KRDR,09-10-2006,07:00,METAR,,,0.0,,,9999.0,,2.0,0.0,30.18,1022.8,,,,,,,,,,,,,,,Clear,72000.0,,,73000.0,,,,,,
KRDR,09-10-2006,06:00,METAR,,,0.0,,,9999.0,,3.0,0.0,30.18,1022.8,,,,,,,,,,,,,,,Clear,72000.0,,,73000.0,,,,,,
KRDR,09-10-2006,05:00,METAR,,120,2.0,,,9999.0,,5.0,2.0,30.19,1022.8,,,,,,,,,,,,,,,Clear,72000.0,,,73000.0,,,,,,
KRDR,09-10-2006,04:00,METAR,,,0.0,,,9999.0,,5.0,2.0,30.18,1022.8,,,,,,,,,,,,,,,Clear,72000.0,,,73000.0,,,,,,
KRDR,09-10-2006,03:00,METAR,,,0.0,,,9999.0,,7.0,3.0,30.18,1022.6,,,,,,,,,,,,,,,Clear,72000.0,,,73000.0,,,,,,
KRDR,09-10-2006,02:00,METAR,,50,4.0,,,9999.0,,10.0,3.0,30.16,1022.0,,,,,,,,,,,,,,,Clear,72000.0,,,73000.0,,,,,,
KRDR,09-10-2006,01:00,METAR,,130,5.0,,,9999.0,,14.0,4.0,30.16,1021.9,,,,,,,,,,,,,,,Clear,72000.0,,,73000.0,,,,,,
KRDR,09-10-2006,00:00,METAR,,140,7.0,,,9999.0,,17.0,4.0,30.15,1021.8,,,,,,,,,,,,,,,Clear,72000.0,,,73000.0,,,,,,
KRDR,09-09-2006,23:00,METAR,,130,11.0,,,9999.0,,18.0,3.0,30.16,1021.9,,,,,,,,,,,,,,,Clear,72000.0,,,73000.0,,,,,,
KRDR,09-09-2006,22:00,METAR,,120,9.0,,,9999.0,,18.0,3.0,30.17,1022.2,,,,,,,,,,,,,,,Clear,72000.0,,,73000.0,,,,,,
KRDR,09-09-2006,21:00,METAR,,120,7.0,17.0,,9999.0,,17.0,3.0,30.18,1022.6,,,,,,,,,,,,,,,Clear,72000.0,,,73000.0,,,,,,
KRDR,09-09-2006,20:00,METAR,,130,13.0,18.0,,9999.0,,17.0,4.0,30.20,1023.2,,,,,,,,,,,,,,,2/8 Mostly Clear,72000.0,,FEW,5000.0,,,,,,
KRDR,09-09-2006,19:00,METAR,,110,12.0,17.0,,9999.0,,17.0,4.0,30.21,1023.6,,,,,,,,,,,,,,,2/8 Mostly Clear,72000.0,,FEW,4700.0,,,,,,
KRDR,09-09-2006,18:00,METAR,,120,12.0,,,9999.0,,16.0,4.0,30.23,1024.2,,,,,,,,,,,,,,,4/8 Partly Cloudy,72000.0,,SCT,4300.0,,,,,,
KRDR,09-09-2006,17:00,METAR,,110,9.0,,,9999.0,,15.0,4.0,30.24,1024.7,,,,,,,,,,,,,,,4/8 Partly Cloudy,72000.0,,SCT,4200.0,,,,,,
KRDR,09-09-2006,16:00,METAR,,130,11.0,,,9999.0,,14.0,5.0,30.25,1025.0,,,,,,,,,,,,,,,2/8 Mostly Clear,72000.0,,FEW,4000.0,,,,,,
KRDR,09-09-2006,15:00,METAR,,170,6.0,,,9999.0,,11.0,5.0,30.25,1025.1,,,,,,,,,,,,,,,2/8 Mostly Clear,72000.0,,FEW,3800.0,,,,,,
KRDR,09-09-2006,14:00,METAR,,,0.0,,,9999.0,,6.0,3.0,30.25,1024.9,,,,,,,,,,,,,,,Clear,72000.0,,,73000.0,,,,,,
KRDR,09-09-2006,13:00,METAR,,,0.0,,,9999.0,,1.0,0.0,30.24,1024.7,,,,,,,,,,,,,,,2/8 Mostly Clear,72000.0,,FEW,3000.0,,,,,,
KRDR,09-09-2006,12:00,METAR,,320,3.0,,,9999.0,,0.0,-1.0,30.23,1024.4,,,,,,,,,,,,,,,Clear,72000.0,,,73000.0,,,,,,
KRDR,09-09-2006,11:00,METAR,,,0.0,,,9999.0,,0.0,-1.0,30.22,1024.0,,,,,,,,,,,,,,,Clear,72000.0,,,73000.0,,,,,,
KRDR,09-09-2006,10:00,METAR,,,0.0,,,9999.0,,1.0,0.0,30.21,1023.5,,,,,,,,,,,,,,,Clear,72000.0,,,73000.0,,,,,,
KRDR,09-09-2006,08:00,METAR,,100,3.0,,,9999.0,,5.0,2.0,30.19,1023.1,,,,,,,,,,,,,,,Clear,72000.0,,,73000.0,,,,,,
KRDR,09-09-2006,07:00,METAR,,90,5.0,,,9999.0,,7.0,3.0,30.19,1023.0,,,,,,,,,,,,,,,Clear,72000.0,,,73000.0,,,,,,
KRDR,09-09-2006,06:00,METAR,,90,6.0,,,9999.0,,7.0,2.0,30.19,1022.9,,,,,,,,,,,,,,,Clear,72000.0,,,73000.0,,,,,,
KRDR,09-09-2006,05:00,METAR,,70,7.0,,,9999.0,,9.0,2.0,30.18,1022.5,,,,,,,,,,,,,,,Clear,72000.0,,,73000.0,,,,,,
KRDR,09-09-2006,04:00,METAR,,60,8.0,,,9999.0,,10.0,2.0,30.17,1022.3,,,,,,,,,,,,,,,Clear,72000.0,,,73000.0,,,,,,
KRDR,09-09-2006,03:00,METAR,,50,7.0,,,9999.0,,11.0,2.0,30.16,1022.1,,,,,,,,,,,,,,,Clear,72000.0,,,73000.0,,,,,,
KRDR,09-09-2006,02:00,METAR,,40,6.0,,,9999.0,,12.0,2.0,30.14,1021.4,,,,,,,,,,,,,,,Clear,72000.0,,,73000.0,,,,,,
KRDR,09-09-2006,01:00,METAR,,70,4.0,,,9999.0,,14.0,2.0,30.12,1020.8,,,,,,,,,,,,,,,Clear,72000.0,,,73000.0,,,,,,
KRDR,09-09-2006,00:00,METAR,,70,8.0,,,9999.0,,16.0,1.0,30.12,1020.6,,,,,,,,,,,,,,,Clear,72000.0,,,73000.0,,,,,,
KRDR,09-08-2006,23:00,METAR,,60,8.0,,,9999.0,,17.0,0.0,30.12,1020.8,,,,,,,,,,,,,,,2/8 Mostly Clear,72000.0,,FEW,25000.0,,,,,,
KRDR,09-08-2006,22:00,METAR,,70,10.0,,,9999.0,,17.0,1.0,30.12,1020.8,,,,,,,,,,,,,,,2/8 Mostly Clear,72000.0,,FEW,25000.0,,,,,,
KRDR,09-08-2006,21:00,METAR,,30,9.0,,,9999.0,,17.0,2.0,30.12,1020.7,,,,,,,,,,,,,,,2/8 Mostly Clear,72000.0,,FEW,25000.0,,,,,,
KRDR,09-08-2006,20:00,METAR,,60,10.0,,,9999.0,,16.0,3.0,30.13,1021.1,,,,,,,,,,,,,,,2/8 Mostly Clear,72000.0,,FEW,25000.0,,,,,,
KRDR,09-08-2006,19:00,METAR,,40,11.0,,,9999.0,,16.0,3.0,30.14,1021.3,,,,,,,,,,,,,,,2/8 Mostly Clear,72000.0,,FEW,25000.0,,,,,,
KRDR,09-08-2006,18:00,METAR,,40,12.0,19.0,,9999.0,,15.0,3.0,30.15,1021.6,,,,,,,,,,,,,,,2/8 Mostly Clear,72000.0,,FEW,3000.0,,,,,,
KRDR,09-08-2006,17:00,METAR,,40,10.0,17.0,,9999.0,,13.0,3.0,30.16,1021.8,,,,,,,,,,,,,,,2/8 Mostly Clear,72000.0,,FEW,3000.0,,,,,,
KRDR,09-08-2006,16:00,METAR,,40,12.0,,,9999.0,,12.0,3.0,30.15,1021.7,,,,,,,,,,,,,,,4/8 Partly Cloudy,72000.0,,SCT,3000.0,,,,,,
KRDR,09-08-2006,15:00,METAR,,40,11.0,,,9999.0,,10.0,3.0,30.14,1021.4,,,,,,,,,,,,,,,7/8 Mostly Cloudy,3000.0,,BKN,3000.0,,,,,,
KRDR,09-08-2006,14:00,METAR,,30,11.0,,,9999.0,,8.0,3.0,30.13,1020.9,,,,,,,,,,,,,,,7/8 Mostly Cloudy,3100.0,,BKN,3200.0,,,,,,
KRDR,09-08-2006,13:00,METAR,,10,11.0,,,9999.0,,7.0,2.0,30.12,1020.7,,,,,,,,,,,,,,,7/8 Mostly Cloudy,3100.0,,BKN,3100.0,,,,,,
KRDR,09-08-2006,12:00,METAR,,10,9.0,,,9999.0,,6.0,2.0,30.10,1020.0,,,,,,,,,,,,,,,8/8 Overcast,3100.0,,OVC,3200.0,,,,,,
KRDR,09-08-2006,11:00,METAR,,10,9.0,,,9999.0,,8.0,3.0,30.08,1019.2,,,,,,,,,,,,,,,8/8 Overcast,3100.0,,OVC,3200.0,,,,,,
KRDR,09-08-2006,10:00,METAR,,20,13.0,,,9999.0,,10.0,4.0,30.06,1018.6,,,,,,,,,,,,,,,7/8 Mostly Cloudy,3100.0,,BKN,3100.0,,,,,,
KRDR,09-08-2006,09:36,SPECI,,20,12.0,,,9999.0,,10.0,4.0,30.05,1018.5,,,,,,,,,,,,,,,7/8 Mostly Cloudy,3000.0,,BKN,3000.0,,,,,,
KRDR,09-08-2006,09:00,METAR,,10,13.0,17.0,,9999.0,,9.0,4.0,30.04,1018.2,,,,,,,,,,,,,,,7/8 Mostly Cloudy,2400.0,,BKN,2400.0,,,,,,
KRDR,09-08-2006,08:00,METAR,,10,11.0,,,9999.0,,9.0,4.0,30.04,1017.9,,,,,,,,,,,,,,,8/8 Overcast,2400.0,,OVC,2400.0,,,,,,
KRDR,09-08-2006,07:09,SPECI,,10,13.0,,,9999.0,,8.0,4.0,30.04,1017.9,,,,,,,,,,,,,,,7/8 Mostly Cloudy,2500.0,,BKN,2500.0,,,,,,
KRDR,09-08-2006,07:00,METAR,,360,11.0,,,9999.0,,8.0,4.0,30.04,1017.9,,,,,,,,,,,,,,,Clear,72000.0,,,73000.0,,,,,,
KRDR,09-08-2006,06:00,METAR,,10,13.0,,,9999.0,,10.0,5.0,30.02,1017.2,,,,,,,,,,,,,,,2/8 Mostly Clear,72000.0,,FEW,12000.0,,,,,,
KRDR,09-08-2006,05:00,METAR,,10,16.0,22.0,,9999.0,,11.0,6.0,29.99,1016.3,,,,,,,,,,,,,,,Clear,72000.0,,,73000.0,,,,,,
KRDR,09-08-2006,04:00,METAR,,10,13.0,,,9999.0,,12.0,6.0,29.98,1016.0,,,,,,,,,,,,,,,2/8 Mostly Clear,72000.0,,FEW,11000.0,,,,,,
KRDR,09-08-2006,03:00,METAR,,20,15.0,,,9999.0,,13.0,8.0,29.98,1016.1,,,,,,,,,,,,,,,2/8 Mostly Clear,72000.0,,FEW,5900.0,FEW,11000.0,,,,
KRDR,09-08-2006,02:00,METAR,,30,17.0,25.0,030/26KTS,9999.0,,16.0,9.0,29.94,1014.8,,,,,,,,,,,,,,,2/8 Mostly Clear,72000.0,,FEW,5000.0,FEW,12000.0,,,,
KRDR,09-08-2006,01:00,METAR,,20,10.0,,,9999.0,,19.0,9.0,29.90,1013.4,,,,,,,,,,,,,,,Clear,72000.0,,,73000.0,,,,,,
KRDR,09-08-2006,00:00,METAR,,20,21.0,27.0,020/31KTS,9999.0,,21.0,10.0,29.86,1012.0,,,,,,,,,,,,,,,4/8 Partly Cloudy,72000.0,,FEW,5900.0,SCT,12000.0,,,,
KRDR,09-07-2006,23:00,METAR,,10,22.0,27.0,020/28KTS,9999.0,,24.0,10.0,29.80,1010.1,,,,,,,,,,,,,,,7/8 Mostly Cloudy,25000.0,,FEW,6900.0,BKN,25000.0,,,,
KRDR,09-07-2006,22:00,METAR,,20,22.0,28.0,010/29KTS,9999.0,,27.0,11.0,29.78,1009.5,,,,,,,,,,,,,,,7/8 Mostly Cloudy,25000.0,,FEW,6900.0,BKN,25000.0,,,,
KRDR,09-07-2006,21:00,METAR,,10,15.0,23.0,,9999.0,,29.0,12.0,29.78,1009.3,,,,,,,,,,,,,,,7/8 Mostly Cloudy,25000.0,,SCT,6900.0,BKN,25000.0,,,,
KRDR,09-07-2006,20:00,METAR,,320,8.0,,,9999.0,,31.0,8.0,29.77,1009.0,,,,,,,,,,,,,,,7/8 Mostly Cloudy,25000.0,,SCT,5900.0,BKN,25000.0,,,,
KRDR,09-07-2006,19:00,METAR,,270,8.0,15.0,,9999.0,,31.0,10.0,29.78,1009.3,,,,,,,,,,,,,,,7/8 Mostly Cloudy,25000.0,,FEW,5000.0,BKN,25000.0,,,,
KRDR,09-07-2006,18:00,METAR,,240,8.0,,,9999.0,,30.0,11.0,29.79,1008.8,,,,,,,,,,,,,,,7/8 Mostly Cloudy,25000.0,,BKN,25000.0,,,,,,
KRDR,09-07-2006,17:00,METAR,,220,8.0,,,9999.0,,28.0,13.0,29.81,1010.5,,,,,,,,,,,,,,,4/8 Partly Cloudy,72000.0,,SCT,25000.0,,,,,,
KRDR,09-07-2006,16:00,METAR,,250,6.0,,,9999.0,,26.0,14.0,29.83,1011.3,,,,,,,,,,,,,,,2/8 Mostly Clear,72000.0,,FEW,25000.0,,,,,,
KRDR,09-07-2006,15:00,METAR,,260,8.0,,,9999.0,,23.0,14.0,29.84,,,,,,,,,,,,,,,,2/8 Mostly Clear,72000.0,,FEW,25000.0,,,,,,
KRDR,09-07-2006,14:00,METAR,,250,6.0,,,9999.0,,19.0,13.0,29.85,1011.8,,,,,,,,,,,,,,,Clear,72000.0,,,73000.0,,,,,,
KRDR,09-07-2006,13:00,METAR,,240,5.0,,,9999.0,,15.0,11.0,29.85,1011.9,,,,,,,,,,,,,,,2/8 Mostly Clear,72000.0,,FEW,25000.0,,,,,,
KRDR,09-07-2006,12:00,METAR,,240,5.0,,,9999.0,,14.0,11.0,29.85,1011.0,,,,,,,,,,,,,,,4/8 Partly Cloudy,72000.0,,SCT,25000.0,,,,,,
KRDR,09-07-2006,11:00,METAR,,240,5.0,,,9999.0,,14.0,11.0,29.87,1012.3,,,,,,,,,,,,,,,Clear,72000.0,,,73000.0,,,,,,
KRDR,09-07-2006,10:00,METAR,,240,6.0,,,9999.0,,14.0,11.0,29.88,1012.9,,,,,,,,,,,,,,,2/8 Mostly Clear,72000.0,,FEW,25000.0,,,,,,
KRDR,09-07-2006,09:00,METAR,,230,7.0,,,9999.0,,16.0,12.0,29.89,1013.0,,,,,,,,,,,,,,,2/8 Mostly Clear,72000.0,,FEW,25000.0,,,,,,
KRDR,09-07-2006,08:00,METAR,,230,6.0,,,9999.0,,16.0,12.0,29.89,1013.2,,,,,,,,,,,,,,,2/8 Mostly Clear,72000.0,,FEW,25000.0,,,,,,
KRDR,09-07-2006,07:00,METAR,,230,6.0,,,9999.0,,15.0,11.0,29.91,1013.6,,,,,,,,,,,,,,,4/8 Partly Cloudy,72000.0,,SCT,25000.0,,,,,,
KRDR,09-07-2006,06:00,METAR,,230,5.0,,,9999.0,,15.0,11.0,29.92,1014.2,,,,,,,,,,,,,,,7/8 Mostly Cloudy,25000.0,,BKN,25000.0,,,,,,
KRDR,09-07-2006,05:00,METAR,,240,6.0,,,9999.0,,17.0,10.0,29.94,1014.7,,,,,,,,,,,,,,,7/8 Mostly Cloudy,25000.0,,BKN,25000.0,,,,,,
KRDR,09-07-2006,04:00,METAR,,200,3.0,,,9999.0,,16.0,12.0,29.95,1015.1,,,,,,,,,,,,,,,7/8 Mostly Cloudy,25000.0,,BKN,25000.0,,,,,,
KRDR,09-07-2006,03:00,METAR,,160,2.0,,,9999.0,,20.0,12.0,29.95,1015.2,,,,,,,,,,,,,,,7/8 Mostly Cloudy,25000.0,,BKN,25000.0,,,,,,
KRDR,09-07-2006,02:00,METAR,,90,4.0,,,9999.0,,23.0,13.0,29.96,1015.4,,,,,,,,,,,,,,,8/8 Overcast,25000.0,,FEW,8400.0,OVC,25000.0,,,,
KRDR,09-07-2006,01:00,METAR,,120,3.0,,,9999.0,,25.0,13.0,29.96,1015.3,,,,,,,,,,,,,,,8/8 Overcast,25000.0,,FEW,8400.0,OVC,25000.0,,,,
KRDR,09-07-2006,00:00,METAR,,100,4.0,,,9999.0,,27.0,13.0,29.97,1015.8,,,,,,,,,,,,,,,7/8 Mostly Cloudy,9000.0,,BKN,8900.0,BKN,25000.0,,,,
KRDR,09-06-2006,23:00,METAR,,,0.0,,,9999.0,,28.0,11.0,29.98,1016.1,,,,,,,,,,,,,,,7/8 Mostly Cloudy,25000.0,,SCT,7900.0,BKN,25000.0,,,,
KRDR,09-06-2006,22:00,METAR,,,0.0,,,9999.0,,28.0,11.0,30.00,1016.7,,,,,,,,,,,,,,,7/8 Mostly Cloudy,25000.0,,FEW,7900.0,BKN,25000.0,,,,
KRDR,09-06-2006,21:00,METAR,,,3.0,,,9999.0,,28.0,11.0,30.02,1017.3,,,,,,,,,,,,,,,4/8 Partly Cloudy,72000.0,,FEW,7900.0,SCT,25000.0,,,,
KRDR,09-06-2006,20:00,METAR,,20,6.0,,,9999.0,,28.0,12.0,30.04,1018.0,,,,,,,,,,,,,,,4/8 Partly Cloudy,72000.0,,FEW,6900.0,SCT,25000.0,,,,
KRDR,09-06-2006,19:00,METAR,,80,4.0,,,9999.0,,27.0,13.0,30.06,1018.7,,,,,,,,,,,,,,,4/8 Partly Cloudy,72000.0,,FEW,6900.0,FEW,12000.0,SCT,25000.0,,
KRDR,09-06-2006,18:00,METAR,,30,4.0,,,9999.0,,26.0,13.0,30.08,1019.3,,,,,,,,,,,,,,,4/8 Partly Cloudy,72000.0,,SCT,25000.0,,,,,,
KRDR,09-06-2006,17:00,METAR,,60,3.0,,,9999.0,,24.0,14.0,30.09,1019.8,,,,,,,,,,,,,,,4/8 Partly Cloudy,72000.0,,FEW,12000.0,SCT,25000.0,,,,
KRDR,09-06-2006,16:00,METAR,,320,3.0,,,9999.0,,22.0,13.0,30.10,1020.1,,,,,,,,,,,,,,,4/8 Partly Cloudy,72000.0,,FEW,12000.0,SCT,25000.0,,,,
KRDR,09-06-2006,15:00,METAR,,,3.0,,,9999.0,,19.0,13.0,30.10,1020.1,,,,,,,,,,,,,,,2/8 Mostly Clear,72000.0,,FEW,12000.0,FEW,25000.0,,,,
KRDR,09-06-2006,14:00,METAR,,290,5.0,,,9999.0,,15.0,12.0,30.10,1020.1,,,,,,,,,,,,,,,2/8 Mostly Clear,72000.0,,FEW,12000.0,FEW,25000.0,,,,
KRDR,09-06-2006,13:00,METAR,,260,3.0,,,9999.0,,11.0,9.0,30.10,1020.2,,,,,,,,,,,,,,,2/8 Mostly Clear,72000.0,,FEW,12000.0,FEW,25000.0,,,,
KRDR,09-06-2006,12:00,METAR,,310,4.0,,,9999.0,,12.0,9.0,30.09,1019.8,,,,,,,,,,,,,,,2/8 Mostly Clear,72000.0,,FEW,25000.0,,,,,,
KRDR,09-06-2006,11:00,METAR,,270,4.0,,,9999.0,,13.0,9.0,30.08,,,,,,,,,,,,,,,,2/8 Mostly Clear,72000.0,,FEW,25000.0,,,,,,
KRDR,09-06-2006,10:00,METAR,,260,2.0,,,9999.0,,13.0,9.0,30.11,,,,,,,,,,,,,,,,2/8 Mostly Clear,72000.0,,FEW,25000.0,,,,,,
KRDR,09-06-2006,09:00,METAR,,270,4.0,,,9999.0,,14.0,8.0,30.11,,,,,,,,,,,,,,,,2/8 Mostly Clear,72000.0,,FEW,25000.0,,,,,,
KRDR,09-06-2006,08:00,METAR,,280,3.0,,,9999.0,,16.0,9.0,30.12,,,,,,,,,,,,,,,,4/8 Partly Cloudy,72000.0,,SCT,25000.0,,,,,,
KRDR,09-06-2006,07:00,METAR,,270,2.0,,,9999.0,,17.0,9.0,30.12,,,,,,,,,,,,,,,,2/8 Mostly Clear,72000.0,,FEW,25000.0,,,,,,
KRDR,09-06-2006,06:00,METAR,,230,4.0,,,9999.0,,14.0,10.0,30.11,,,,,,,,,,,,,,,,4/8 Partly Cloudy,72000.0,,FEW,8900.0,SCT,25000.0,,,,
KRDR,09-06-2006,05:00,METAR,,280,5.0,,,9999.0,,15.0,10.0,30.11,1020.3,,,,,,,,,,,,,,,4/8 Partly Cloudy,72000.0,,FEW,8900.0,SCT,25000.0,,,,
KRDR,09-06-2006,04:00,METAR,,250,5.0,,,9999.0,,15.0,10.0,30.11,1020.5,,,,,,,,,,,,,,,4/8 Partly Cloudy,72000.0,,FEW,8900.0,SCT,25000.0,,,,
KRDR,09-06-2006,03:00,METAR,,210,5.0,,,9999.0,,18.0,10.0,30.12,1020.7,,,,,,,,,,,,,,,7/8 Mostly Cloudy,25000.0,,SCT,8900.0,BKN,25000.0,,,,
KRDR,09-06-2006,02:00,METAR,,200,3.0,,,9999.0,,18.0,11.0,30.11,1020.4,,,,,,,,,,,,,,,4/8 Partly Cloudy,72000.0,,FEW,6900.0,SCT,25000.0,,,,
KRDR,09-06-2006,01:00,METAR,,120,4.0,,,9999.0,,26.0,10.0,30.10,1020.0,,,,,,,,,,,,,,,7/8 Mostly Cloudy,25000.0,,FEW,6900.0,BKN,25000.0,,,,
KRDR,09-06-2006,00:00,METAR,,80,3.0,,,9999.0,,27.0,10.0,30.10,1020.1,,,,,,,,,,,,,,,4/8 Partly Cloudy,72000.0,,FEW,6900.0,SCT,25000.0,,,,
KRDR,09-05-2006,23:00,METAR,,280,3.0,,,9999.0,,29.0,9.0,30.10,1020.1,,,,,,,,,,,,,,,4/8 Partly Cloudy,72000.0,,FEW,6900.0,SCT,25000.0,,,,
KRDR,09-05-2006,22:00,METAR,,290,5.0,,,9999.0,,29.0,7.0,30.11,1020.5,,,,,,,,,,,,,,,2/8 Mostly Clear,72000.0,,FEW,6900.0,FEW,25000.0,,,,
KRDR,09-05-2006,21:00,METAR,,260,8.0,,,9999.0,,29.0,8.0,30.12,1020.8,,,,,,,,,,,,,,,2/8 Mostly Clear,72000.0,,FEW,6900.0,FEW,25000.0,,,,
KRDR,09-05-2006,20:00,METAR,,290,6.0,,,9999.0,,29.0,9.0,30.14,1021.4,,,,,,,,,,,,,,,2/8 Mostly Clear,72000.0,,FEW,5900.0,FEW,25000.0,,,,
KRDR,09-05-2006,19:00,METAR,,310,7.0,,,9999.0,,29.0,10.0,30.16,1021.9,,,,,,,,,,,,,,,2/8 Mostly Clear,72000.0,,FEW,5900.0,FEW,25000.0,,,,
KRDR,09-05-2006,18:00,METAR,,,2.0,,,9999.0,,28.0,9.0,30.17,1022.4,,,,,,,,,,,,,,,Clear,72000.0,,,73000.0,,,,,,
KRDR,09-05-2006,17:00,METAR,,300,7.0,,,9999.0,,27.0,11.0,30.19,1022.9,,,,,,,,,,,,,,,Clear,72000.0,,,73000.0,,,,,,
KRDR,09-05-2006,16:00,METAR,,290,7.0,,,9999.0,,25.0,12.0,30.20,1023.3,,,,,,,,,,,,,,,Clear,72000.0,,,73000.0,,,,,,
KRDR,09-05-2006,15:00,METAR,,320,9.0,,,9999.0,,23.0,12.0,30.20,1023.2,,,,,,,,,,,,,,,Clear,72000.0,,,73000.0,,,,,,
KRDR,09-05-2006,14:00,METAR,,310,4.0,,,9999.0,,20.0,13.0,30.20,1023.5,,,,,,,,,,,,,,,Clear,72000.0,,,73000.0,,,,,,
KRDR,09-05-2006,13:00,METAR,,290,6.0,,,9999.0,,16.0,12.0,30.20,1023.2,,,,,,,,,,,,,,,Clear,72000.0,,,73000.0,,,,,,
KRDR,09-05-2006,12:00,METAR,,290,8.0,,,9999.0,,14.0,10.0,30.19,1022.9,,,,,,,,,,,,,,,Clear,72000.0,,,73000.0,,,,,,
KRDR,09-05-2006,11:00,METAR,,260,4.0,,,9999.0,,14.0,10.0,30.19,1022.9,,,,,,,,,,,,,,,Clear,72000.0,,,73000.0,,,,,,
KRDR,09-05-2006,10:00,METAR,,270,4.0,,,9999.0,,13.0,10.0,30.19,1022.9,,,,,,,,,,,,,,,Clear,72000.0,,,73000.0,,,,,,
KRDR,09-05-2006,09:00,METAR,,240,5.0,,,9999.0,,13.0,10.0,30.19,1023.0,,,,,,,,,,,,,,,Clear,72000.0,,,73000.0,,,,,,
KRDR,09-05-2006,08:00,METAR,,270,7.0,,,9999.0,,14.0,11.0,30.20,1023.2,,,,,,,,,,,,,,,Clear,72000.0,,,73000.0,,,,,,
KRDR,09-05-2006,06:00,METAR,,230,3.0,,,9999.0,,13.0,11.0,30.19,1023.1,,,,,,,,,,,,,,,Clear,72000.0,,,73000.0,,,,,,
KRDR,09-05-2006,05:00,METAR,,230,3.0,,,9999.0,,13.0,11.0,30.19,1023.1,,,,,,,,,,,,,,,Clear,72000.0,,,73000.0,,,,,,
KRDR,09-05-2006,04:00,METAR,,290,1.0,,,9999.0,,15.0,11.0,30.19,1022.5,,,,,,,,,,,,,,,Clear,72000.0,,,73000.0,,,,,,
KRDR,09-05-2006,03:00,METAR,,240,5.0,,,9999.0,,16.0,12.0,30.19,1023.1,,,,,,,,,,,,,,,Clear,72000.0,,,73000.0,,,,,,
KRDR,09-05-2006,02:00,METAR,,220,3.0,,,9999.0,,18.0,12.0,30.18,1022.7,,,,,,,,,,,,,,,Clear,72000.0,,,73000.0,,,,,,
KRDR,09-05-2006,01:00,METAR,,130,3.0,,,9999.0,,24.0,12.0,30.17,1022.4,,,,,,,,,,,,,,,Clear,72000.0,,,73000.0,,,,,,
KRDR,09-05-2006,00:00,METAR,,170,3.0,,,9999.0,,26.0,13.0,30.18,1022.6,,,,,,,,,,,,,,,Clear,72000.0,,,73000.0,,,,,,
KRDR,09-04-2006,23:00,METAR,,,4.0,,,9999.0,,27.0,11.0,30.19,1022.9,,,,,,,,,,,,,,,2/8 Mostly Clear,72000.0,,FEW,5900.0,,,,,,
KRDR,09-04-2006,22:00,METAR,,,0.0,,,9999.0,,27.0,11.0,30.19,1023.1,,,,,,,,,,,,,,,2/8 Mostly Clear,72000.0,,FEW,5900.0,,,,,,
KRDR,09-04-2006,21:00,METAR,,,3.0,,,9999.0,,27.0,11.0,30.20,1023.3,,,,,,,,,,,,,,,2/8 Mostly Clear,72000.0,,FEW,5400.0,,,,,,
KRDR,09-04-2006,20:00,METAR,,80,4.0,,,9999.0,,27.0,10.0,30.21,1023.8,,,,,,,,,,,,,,,2/8 Mostly Clear,72000.0,,FEW,5000.0,,,,,,
KRDR,09-04-2006,19:00,METAR,,190,3.0,,,9999.0,,26.0,10.0,30.23,1024.3,,,,,,,,,,,,,,,2/8 Mostly Clear,72000.0,,FEW,4000.0,,,,,,
KRDR,09-04-2006,18:00,METAR,,80,5.0,,,9999.0,,26.0,11.0,30.24,1024.2,,,,,,,,,,,,,,,2/8 Mostly Clear,72000.0,,FEW,4000.0,,,,,,
KRDR,09-04-2006,17:00,METAR,,40,3.0,,,9999.0,,25.0,12.0,30.25,1025.1,,,,,,,,,,,,,,,2/8 Mostly Clear,72000.0,,FEW,3000.0,,,,,,
KRDR,09-04-2006,16:00,METAR,,10,6.0,,,9999.0,,22.0,13.0,30.25,1025.1,,,,,,,,,,,,,,,Clear,72000.0,,,73000.0,,,,,,
KRDR,09-04-2006,15:00,METAR,,350,4.0,,,9999.0,,19.0,11.0,30.25,1025.0,,,,,,,,,,,,,,,Clear,72000.0,,,73000.0,,,,,,
KRDR,09-04-2006,14:00,METAR,,340,5.0,,,9999.0,,16.0,11.0,30.25,1024.8,,,,,,,,,,,,,,,Clear,72000.0,,,73000.0,,,,,,
KRDR,09-04-2006,13:00,METAR,,320,5.0,,,9999.0,,13.0,10.0,30.24,1024.4,,,,,,,,,,,,,,,Clear,72000.0,,,73000.0,,,,,,
KRDR,09-04-2006,12:00,METAR,,270,2.0,,,9999.0,,9.0,8.0,30.22,1024.0,,,,,,,,,,,,,,,Clear,72000.0,,,73000.0,,,,,,
KRDR,09-04-2006,11:00,METAR,,280,2.0,,,9999.0,,9.0,8.0,30.20,1023.2,,,,,,,,,,,,,,,Clear,72000.0,,,73000.0,,,,,,
KRDR,09-04-2006,10:00,METAR,,310,3.0,,,9999.0,,11.0,9.0,30.20,1022.9,,,,,,,,,,,,,,,4/8 Partly Cloudy,72000.0,,SCT,25000.0,,,,,,
KRDR,09-04-2006,09:00,METAR,,310,3.0,,,9999.0,,13.0,10.0,30.19,1022.5,,,,,,,,,,,,,,,4/8 Partly Cloudy,72000.0,,SCT,25000.0,,,,,,
KRDR,09-04-2006,08:00,METAR,,280,3.0,,,9999.0,,12.0,10.0,30.19,1022.5,,,,,,,,,,,,,,,2/8 Mostly Clear,72000.0,,FEW,25000.0,,,,,,
KRDR,09-04-2006,07:00,METAR,,280,3.0,,,9999.0,,13.0,10.0,30.19,1022.5,,,,,,,,,,,,,,,2/8 Mostly Clear,72000.0,,FEW,25000.0,,,,,,
KRDR,09-04-2006,06:00,METAR,,260,3.0,,,9999.0,,12.0,10.0,30.18,1022.4,,,,,,,,,,,,,,,Clear,72000.0,,,73000.0,,,,,,
KRDR,09-04-2006,05:00,METAR,,280,1.0,,,9999.0,,12.0,10.0,30.18,1022.5,,,,,,,,,,,,,,,Clear,72000.0,,,73000.0,,,,,,
KRDR,09-04-2006,04:00,METAR,,210,2.0,,,9999.0,,13.0,11.0,30.17,1022.2,,,,,,,,,,,,,,,Clear,72000.0,,,73000.0,,,,,,
KRDR,09-04-2006,03:00,METAR,,250,2.0,,,9999.0,,14.0,12.0,30.15,1021.7,,,,,,,,,,,,,,,Clear,72000.0,,,73000.0,,,,,,
KRDR,09-04-2006,02:00,METAR,,270,3.0,,,9999.0,,16.0,12.0,30.15,1021.7,,,,,,,,,,,,,,,Clear,72000.0,,,73000.0,,,,,,
KRDR,09-04-2006,01:00,METAR,,,0.0,,,9999.0,,20.0,14.0,30.14,1021.5,,,,,,,,,,,TRACE,,,,2/8 Mostly Clear,72000.0,,FEW,5400.0,FEW,25000.0,,,,
KRDR,09-03-2006,23:00,METAR,,70,4.0,,,9999.0,,24.0,11.0,30.15,1021.6,,,,,,,,,,,,,,,4/8 Partly Cloudy,72000.0,,FEW,200.0,FEW,5900.0,SCT,15000.0,,
KRDR,09-03-2006,22:00,METAR,,100,6.0,,,9999.0,,24.0,11.0,30.15,1021.7,,,,,,,,,,,,,,,4/8 Partly Cloudy,72000.0,,SCT,5900.0,SCT,15000.0,,,,
KRDR,09-03-2006,21:00,METAR,,70,6.0,,,9999.0,,24.0,12.0,30.16,1022.0,,,,,,,,,,,,,,,7/8 Mostly Cloudy,15000.0,,SCT,5900.0,BKN,15000.0,,,,
KRDR,09-03-2006,20:00,METAR,,70,7.0,,,9999.0,,24.0,13.0,30.17,1022.4,,,,,,,,,,,,,,,4/8 Partly Cloudy,72000.0,,SCT,5400.0,SCT,12000.0,,,,
KRDR,09-03-2006,19:00,METAR,,80,6.0,,,9999.0,,23.0,13.0,30.19,1022.8,,,,,,,,,,,,,,,7/8 Mostly Cloudy,4600.0,,BKN,4700.0,BKN,12000.0,BKN,25000.0,,
KRDR,09-03-2006,18:00,METAR,,70,8.0,,,9999.0,,22.0,13.0,30.19,1023.0,,,,,,,,,,,,,,,4/8 Partly Cloudy,72000.0,,FEW,5900.0,SCT,12000.0,SCT,25000.0,,
KRDR,09-03-2006,17:00,METAR,,60,6.0,,,9999.0,,20.0,13.0,30.20,1023.2,,,,,,,,,,,,,,,7/8 Mostly Cloudy,12000.0,,FEW,5900.0,BKN,12000.0,,,,
KRDR,09-03-2006,16:00,METAR,,,3.0,,,9999.0,,18.0,14.0,30.20,1023.4,,,,,,,,,,,,,,,7/8 Mostly Cloudy,12000.0,,FEW,5900.0,BKN,12000.0,,,,
KRDR,09-03-2006,15:00,METAR,,10,6.0,,,9999.0,,15.0,12.0,30.20,1023.2,,,,,,,,,,,,,,,7/8 Mostly Cloudy,12000.0,,SCT,5900.0,BKN,12000.0,,,,
KRDR,09-03-2006,14:00,METAR,,350,6.0,,,9999.0,,14.0,12.0,30.19,1023.2,,,,,,,,,,,,,,,7/8 Mostly Cloudy,4900.0,,BKN,5000.0,BKN,15000.0,,,,
KRDR,09-03-2006,13:00,METAR,,360,3.0,,,9999.0,,12.0,11.0,30.18,1022.6,,,,,,,,,,,,,,,4/8 Partly Cloudy,72000.0,,SCT,15000.0,SCT,25000.0,,,,
KRDR,09-03-2006,12:00,METAR,,350,6.0,,,9999.0,,11.0,11.0,30.16,1022.0,,,,,,,,,,,,,,.04 IN,7/8 Mostly Cloudy,25000.0,,SCT,15000.0,BKN,25000.0,,,,
KRDR,09-03-2006,11:00,METAR,,360,5.0,,,9999.0,,12.0,11.0,30.16,1021.9,,,,,,,,,,,,,,,4/8 Partly Cloudy,72000.0,,SCT,15000.0,,,,,,
KRDR,09-03-2006,10:00,METAR,,350,6.0,,,9999.0,,13.0,12.0,30.15,1021.7,,,,,,,,,,,,,,,4/8 Partly Cloudy,72000.0,,SCT,15000.0,,,,,,
KRDR,09-03-2006,09:00,METAR,,360,6.0,,,9999.0,,14.0,13.0,30.15,1021.7,,,,,,,,,,,,,,,4/8 Partly Cloudy,72000.0,,SCT,15000.0,,,,,,
KRDR,09-03-2006,08:00,METAR,,360,5.0,,,9999.0,,14.0,13.0,30.16,1021.9,,,,,,,,,,,,,,,4/8 Partly Cloudy,72000.0,,SCT,12000.0,,,,,,
KRDR,09-03-2006,07:00,METAR,,10,3.0,,,9999.0,,15.0,13.0,30.17,1022.2,,,,,,,,,,,,,,,8/8 Overcast,11000.0,,OVC,11000.0,,,,,,
KRDR,09-03-2006,06:00,METAR,,30,5.0,,,9999.0,,16.0,14.0,30.17,1022.4,,,,,,,,,,,,,,,7/8 Mostly Cloudy,12000.0,,SCT,6900.0,BKN,12000.0,,,,
KRDR,09-03-2006,05:00,METAR,,10,6.0,,,9999.0,,16.0,15.0,30.18,1022.7,,,,,,,,,,,,,,,8/8 Overcast,7000.0,,FEW,4000.0,BKN,6900.0,OVC,12000.0,,
KRDR,09-03-2006,04:00,METAR,,90,8.0,,,9999.0,,17.0,14.0,30.19,1023.1,,,,,,,,,,,,,,,8/8 Overcast,6000.0,,BKN,5900.0,OVC,25000.0,,,,
KRDR,09-03-2006,03:00,METAR,,40,7.0,,,9999.0,,18.0,15.0,30.18,1022.8,,,,,,,,,,,,,,,7/8 Mostly Cloudy,7500.0,,BKN,7400.0,BKN,25000.0,,,,
KRDR,09-03-2006,02:00,METAR,,20,4.0,,,9999.0,,17.0,15.0,30.19,1022.9,,,,,,,,,,,,,,,8/8 Overcast,10000.0,,FEW,3800.0,OVC,9900.0,,,,
KRDR,09-03-2006,01:00,METAR,,10,4.0,,,9999.0,,17.0,15.0,30.19,1022.9,,,,,,,,,,,,,,,8/8 Overcast,7000.0,,FEW,4300.0,OVC,6900.0,,,,
KRDR,09-03-2006,00:00,METAR,,350,4.0,,,9999.0,,19.0,16.0,30.20,1023.2,,,,,,,,,,,,,TRACE,,8/8 Overcast,10000.0,,OVC,9900.0,,,,,,
KRDR,09-02-2006,23:00,METAR,,30,7.0,,,9999.0,,19.0,15.0,30.20,1023.4,,,,,,,,,,,,,,,8/8 Overcast,9000.0,,FEW,2000.0,SCT,3000.0,OVC,8900.0,,
KRDR,09-02-2006,22:00,METAR,,30,7.0,,,9999.0,,18.0,15.0,30.21,1023.5,,,,,,,,,,,,,,,8/8 Overcast,9500.0,,FEW,1800.0,SCT,3500.0,OVC,9400.0,,
KRDR,09-02-2006,21:15,SPECI,,10,8.0,,,9999.0,,17.0,14.0,30.21,,,,,,,,,,,,,,,,8/8 Overcast,8000.0,,SCT,1800.0,OVC,7900.0,,,,
KRDR,09-02-2006,21:00,METAR,,20,8.0,,,9999.0,,16.0,14.0,30.22,1024.0,,,,,,,,,,,TRACE,TRACE,,,8/8 Overcast,1800.0,,BKN,1800.0,OVC,7400.0,,,,
KRDR,09-02-2006,20:40,SPECI,,20,8.0,,,9999.0,,16.0,14.0,30.22,,,,,,,,,,,,,,,,8/8 Overcast,1800.0,,BKN,1800.0,OVC,6900.0,,,,
KRDR,09-02-2006,20:02,SPECI,,20,8.0,,,9999.0,,16.0,14.0,30.23,,,,,,,,,,,,,,,,8/8 Overcast,1700.0,,FEW,400.0,BKN,1700.0,OVC,5900.0,,
KRDR,09-02-2006,20:01,SPECI,,20,7.0,,,9999.0,Rain,16.0,14.0,30.23,,,,,61,,,,,,,,,,,7/8 Mostly Cloudy,1700.0,,FEW,400.0,BKN,1700.0,BKN,5900.0,,
KRDR,09-02-2006,20:00,METAR,,20,7.0,,,9999.0,Rain,16.0,14.0,30.23,1024.5,,,,61,,,,,,,TRACE,,,,8/8 Overcast,1200.0,,FEW,500.0,BKN,1200.0,OVC,1800.0,,
KRDR,09-02-2006,19:38,SPECI,,30,7.0,,,9999.0,Rain,16.0,14.0,30.24,,,,,61,,,,,,,,,,,8/8 Overcast,1500.0,,FEW,600.0,OVC,1500.0,,,,
KRDR,09-02-2006,19:29,SPECI,,30,8.0,,,9999.0,Drizzle,16.0,13.0,30.24,,,,,51,,,,,,,,,,,8/8 Overcast,1500.0,,OVC,1500.0,,,,,,
KRDR,09-02-2006,19:07,SPECI,,30,8.0,,,9999.0,,16.0,14.0,30.25,,,,,,,,,,,,,,,,8/8 Overcast,1500.0,,OVC,1500.0,,,,,,
KRDR,09-02-2006,19:00,METAR,,30,8.0,,,9999.0,,16.0,13.0,30.25,1024.8,,,,,,,,,,,TRACE,,,,8/8 Overcast,1400.0,,OVC,1400.0,,,,,,
KRDR,09-02-2006,18:37,SPECI,,30,9.0,,,9999.0,,16.0,13.0,30.25,,,,,,,,,,,,,,,,8/8 Overcast,1400.0,,OVC,1400.0,,,,,,
KRDR,09-02-2006,18:27,SPECI,,30,9.0,,,9999.0,,16.0,13.0,30.25,,,,,,,,,,,,,,,,8/8 Overcast,1200.0,,OVC,2300.0,,,,,,
KRDR,09-02-2006,18:00,METAR,,30,12.0,,,9999.0,Rain,15.0,13.0,30.25,1025.0,,,,61,,,,,,,.01 IN,,.04 IN,,7/8 Mostly Cloudy,1700.0,,FEW,1200.0,BKN,1700.0,BKN,5400.0,,
KRDR,09-02-2006,17:14,SPECI,,30,10.0,,,9999.0,Drizzle,15.0,12.0,30.26,,,,,51,,,,,,,,,,,7/8 Mostly Cloudy,3000.0,,SCT,1700.0,BKN,3000.0,BKN,3500.0,,
KRDR,09-02-2006,17:06,SPECI,,40,12.0,,,9999.0,,15.0,12.0,30.26,1025.4,,,,,,,,,,,,,,,7/8 Mostly Cloudy,4000.0,,FEW,1800.0,BKN,4100.0,,,,
KRDR,09-02-2006,17:00,METAR,,30,11.0,,,9999.0,Rain,15.0,13.0,30.26,1025.4,,,,61,,,,,,,.01 IN,,,,8/8 Overcast,3900.0,,FEW,2900.0,BKN,4000.0,OVC,7900.0,,
KRDR,09-02-2006,16:00,METAR,,30,10.0,,,9999.0,Rain,14.0,12.0,30.27,1025.7,,,,61,,,,,,,TRACE,,,,8/8 Overcast,4900.0,,FEW,3500.0,BKN,5000.0,OVC,7900.0,,
KRDR,09-02-2006,15:04,SPECI,,30,11.0,,,9999.0,Drizzle,14.0,12.0,30.27,,,,,51,,,,,,,,,,,8/8 Overcast,10000.0,,FEW,5900.0,SCT,7400.0,BKN,9900.0,OVC,15000.0
KRDR,09-02-2006,15:00,METAR,,10,9.0,,,9999.0,,13.0,12.0,30.27,1025.7,,,,,,,,,,,.01 IN,.02 IN,,,8/8 Overcast,10000.0,,SCT,5900.0,BKN,9900.0,OVC,15000.0,,
KRDR,09-02-2006,14:33,SPECI,,20,9.0,,,9999.0,,13.0,12.0,30.28,,,,,,,,,,,,,,,,8/8 Overcast,4000.0,,BKN,4100.0,OVC,7900.0,,,,
KRDR,09-02-2006,14:04,SPECI,,20,10.0,,,9999.0,Drizzle,13.0,11.0,30.28,,,,,51,,,,,,,,,,,8/8 Overcast,4700.0,,BKN,4800.0,OVC,7900.0,,,,
KRDR,09-02-2006,14:00,METAR,,10,10.0,,,9999.0,,13.0,12.0,30.28,1025.8,,,,,,,,,,,TRACE,,,,8/8 Overcast,3900.0,,BKN,4000.0,OVC,7900.0,,,,
KRDR,09-02-2006,13:00,METAR,,20,8.0,,,9999.0,Rain,12.0,11.0,30.28,1026.1,,,,61,,,,,,,.01 IN,,,,8/8 Overcast,4200.0,,BKN,4300.0,OVC,7900.0,,,,
KRDR,09-02-2006,12:00,METAR,,10,4.0,,,9999.0,Rain,12.0,11.0,30.29,1026.4,,,,61,,,,,,,.02 IN,,.04 IN,.04 IN,8/8 Overcast,11000.0,,FEW,4500.0,SCT,6900.0,OVC,11000.0,,
KRDR,09-02-2006,11:00,METAR,,110,4.0,,,9999.0,Rain,12.0,11.0,30.30,1026.7,,,,61,,,,,,,.01 IN,,,,7/8 Mostly Cloudy,11000.0,,FEW,4500.0,SCT,7900.0,BKN,11000.0,,
KRDR,09-02-2006,10:00,METAR,,330,3.0,,,9999.0,Rain,12.0,11.0,30.29,1026.4,,,,61,,,,,,,.01 IN,,,,7/8 Mostly Cloudy,11000.0,,FEW,4500.0,SCT,7900.0,BKN,11000.0,,
KRDR,09-02-2006,09:20,METAR,,310,5.0,,,9999.0,Drizzle,12.0,10.0,30.29,1026.2,,,,51,,,,,,,,,,,8/8 Overcast,11000.0,,FEW,600.0,SCT,4500.0,OVC,11000.0,,
KRDR,09-02-2006,09:00,METAR,,310,3.0,,,9999.0,Rain,12.0,10.0,30.29,1026.1,,,,61,,,,,,,TRACE,TRACE,,,8/8 Overcast,4400.0,,BKN,4500.0,OVC,11000.0,,,,
KRDR,09-02-2006,07:51,METAR,,340,4.0,,,9999.0,Drizzle,12.0,10.0,30.29,1026.1,,,,51,,,,,,,,,,,8/8 Overcast,8000.0,,BKN,7900.0,BKN,12000.0,OVC,25000.0,,
KRDR,09-02-2006,07:00,METAR,,290,2.0,,,9999.0,,12.0,10.0,30.30,1026.6,,,,,,,,,,,,,,,7/8 Mostly Cloudy,25000.0,,SCT,11000.0,BKN,25000.0,,,,
KRDR,09-02-2006,06:00,METAR,,,0.0,,,9999.0,,12.0,10.0,30.31,1027.0,,,,,,,,,,,,,,,7/8 Mostly Cloudy,25000.0,,SCT,11000.0,BKN,25000.0,,,,
KRDR,09-02-2006,05:00,METAR,,,0.0,,,9999.0,,12.0,10.0,30.30,1026.7,,,,,,,,,,,,,,,7/8 Mostly Cloudy,25000.0,,SCT,11000.0,BKN,25000.0,,,,
KRDR,09-02-2006,04:00,METAR,,300,3.0,,,9999.0,,12.0,10.0,30.31,1026.8,,,,,,,,,,,,,,,7/8 Mostly Cloudy,11000.0,,BKN,11000.0,BKN,25000.0,,,,
KRDR,09-02-2006,03:00,METAR,,350,3.0,,,9999.0,,13.0,10.0,30.30,1026.5,,,,,,,,,,,,,,,7/8 Mostly Cloudy,12000.0,,BKN,12000.0,BKN,25000.0,,,,
KRDR,09-02-2006,02:00,METAR,,70,3.0,,,9999.0,,15.0,9.0,30.28,1026.1,,,,,,,,,,,,,,,7/8 Mostly Cloudy,11000.0,,BKN,11000.0,BKN,25000.0,,,,
KRDR,09-02-2006,01:00,METAR,,100,5.0,,,9999.0,,16.0,9.0,30.28,1026.0,,,,,,,,,,,,,,,7/8 Mostly Cloudy,25000.0,,SCT,12000.0,BKN,25000.0,,,,
KRDR,09-02-2006,00:00,METAR,,60,5.0,,,9999.0,,17.0,8.0,30.29,1026.3,,,,,,,,,,,,,,,8/8 Overcast,25000.0,,SCT,12000.0,OVC,25000.0,,,,
KRDR,09-01-2006,23:00,METAR,,360,5.0,,,9999.0,,17.0,8.0,30.29,1026.3,,,,,,,,,,,,,,,8/8 Overcast,25000.0,,SCT,12000.0,OVC,25000.0,,,,
KRDR,09-01-2006,22:00,METAR,,10,7.0,,,9999.0,,18.0,8.0,30.29,1026.2,,,,,,,,,,,,,,,8/8 Overcast,25000.0,,SCT,12000.0,OVC,25000.0,,,,
KRDR,09-01-2006,20:00,METAR,,10,8.0,,,9999.0,,17.0,7.0,30.30,1026.7,,,,,,,,,,,,,,,8/8 Overcast,25000.0,,FEW,12000.0,OVC,25000.0,,,,
KRDR,09-01-2006,19:00,METAR,,10,7.0,,,9999.0,,17.0,7.0,30.29,1026.4,,,,,,,,,,,,,,,8/8 Overcast,25000.0,,FEW,12000.0,OVC,25000.0,,,,
KRDR,09-01-2006,18:00,METAR,,350,11.0,,,9999.0,,16.0,8.0,30.29,1026.2,,,,,,,,,,,,,,,8/8 Overcast,12000.0,,FEW,9900.0,BKN,12000.0,OVC,25000.0,,
KRDR,09-01-2006,17:00,METAR,,360,7.0,,,9999.0,,15.0,8.0,30.29,1026.4,,,,,,,,,,,,,,,8/8 Overcast,15000.0,,FEW,11000.0,BKN,15000.0,OVC,25000.0,,
KRDR,09-01-2006,16:00,METAR,,340,9.0,,,9999.0,,15.0,8.0,30.28,1026.0,,,,,,,,,,,,,,,8/8 Overcast,15000.0,,FEW,11000.0,BKN,15000.0,OVC,25000.0,,
KRDR,09-01-2006,15:00,METAR,,360,4.0,,,9999.0,,14.0,8.0,30.27,1025.6,,,,,,,,,,,,,,,8/8 Overcast,15000.0,,BKN,15000.0,OVC,25000.0,,,,
KRDR,09-01-2006,14:00,METAR,,340,9.0,,,9999.0,,14.0,8.0,30.25,1024.9,,,,,,,,,,,,,,,7/8 Mostly Cloudy,12000.0,,BKN,12000.0,BKN,25000.0,,,,
KRDR,09-01-2006,13:00,METAR,,320,4.0,,,9999.0,,12.0,8.0,30.24,1024.6,,,,,,,,,,,,,,,7/8 Mostly Cloudy,25000.0,,SCT,12000.0,BKN,25000.0,,,,
KRDR,09-01-2006,12:00,METAR,,310,5.0,,,9999.0,,9.0,6.0,30.22,1024.1,,,,,,,,,,,,,,,4/8 Partly Cloudy,72000.0,,FEW,12000.0,SCT,25000.0,,,,
KRDR,09-01-2006,11:00,METAR,,280,4.0,,,9999.0,,10.0,7.0,30.21,1023.4,,,,,,,,,,,,,,,4/8 Partly Cloudy,72000.0,,FEW,12000.0,SCT,25000.0,,,,
KRDR,09-01-2006,10:00,METAR,,290,6.0,,,9999.0,,12.0,7.0,30.18,1022.2,,,,,,,,,,,,,,,4/8 Partly Cloudy,72000.0,,FEW,12000.0,SCT,25000.0,,,,
KRDR,09-01-2006,09:00,METAR,,300,5.0,,,9999.0,,13.0,8.0,30.16,1021.8,,,,,,,,,,,,,,,4/8 Partly Cloudy,72000.0,,FEW,12000.0,SCT,25000.0,,,,
KRDR,09-01-2006,08:00,METAR,,310,7.0,,,9999.0,,14.0,8.0,30.14,1021.1,,,,,,,,,,,,,,,2/8 Mostly Clear,72000.0,,FEW,25000.0,,,,,,
KRDR,09-01-2006,07:00,METAR,,290,7.0,,,9999.0,,14.0,8.0,30.12,1020.7,,,,,,,,,,,,,,,4/8 Partly Cloudy,72000.0,,SCT,25000.0,,,,,,
KRDR,09-01-2006,06:00,METAR,,290,6.0,,,9999.0,,15.0,9.0,30.10,1020.0,,,,,,,,,,,,,,,7/8 Mostly Cloudy,25000.0,,SCT,5900.0,BKN,25000.0,,,,
KRDR,09-01-2006,05:00,METAR,,290,6.0,,,9999.0,,16.0,12.0,30.07,1019.2,,,,,,,,,,,,,,,Clear,72000.0,,,73000.0,,,,,,
KRDR,09-01-2006,04:00,METAR,,280,4.0,,,9999.0,,17.0,13.0,30.05,1018.4,,,,,,,,,,,,,,,Clear,72000.0,,,73000.0,,,,,,
KRDR,09-01-2006,03:00,METAR,,300,5.0,,,9999.0,,20.0,15.0,30.03,1017.7,,,,,,,,,,,,,,,7/8 Mostly Cloudy,6000.0,,BKN,5900.0,,,,,,
KRDR,09-01-2006,02:00,METAR,,300,3.0,,,9999.0,,22.0,15.0,30.00,1016.7,,,,,,,,,,,,,,,8/8 Overcast,4800.0,,OVC,4900.0,,,,,,
KRDR,09-01-2006,01:00,METAR,,200,7.0,,,9999.0,,23.0,16.0,29.97,1015.9,,,,,,,,,,,,,,,7/8 Mostly Cloudy,4800.0,,BKN,4900.0,BKN,25000.0,,,,
KRDR,09-01-2006,00:00,METAR,,200,10.0,,,9999.0,,23.0,16.0,29.96,1015.3,,,,,,,,,,,,,,,8/8 Overcast,4000.0,,OVC,4100.0,,,,,,
KRDR,08-31-2006,23:00,METAR,,200,9.0,,,9999.0,,23.0,16.0,29.94,1014.7,,,,,,,,,,,,,,,8/8 Overcast,4000.0,,BKN,4100.0,OVC,9900.0,,,,
KRDR,08-31-2006,22:00,METAR,,200,9.0,,,9999.0,,24.0,16.0,29.94,1014.7,,,,,,,,,,,,,,,8/8 Overcast,3700.0,,OVC,3800.0,,,,,,
KRDR,08-31-2006,21:00,METAR,,180,12.0,20.0,180/28KTS,9999.0,,24.0,16.0,29.92,1014.2,,,,,,,,,,,,,,,8/8 Overcast,4100.0,,BKN,4200.0,OVC,6900.0,,,,
KRDR,08-31-2006,20:00,METAR,,180,17.0,25.0,180/33KTS,9999.0,,24.0,16.0,29.92,1014.0,,,,,,,,,,,,,,,8/8 Overcast,4300.0,,BKN,4400.0,OVC,7400.0,,,,
KRDR,08-31-2006,19:00,METAR,,180,22.0,32.0,180/34KTS,9999.0,,25.0,15.0,29.90,1013.6,,,,,,,,,,,,,,,8/8 Overcast,7000.0,,SCT,4300.0,BKN,6900.0,OVC,15000.0,,
KRDR,08-31-2006,18:00,METAR,,170,25.0,33.0,180/36KTS,9999.0,,25.0,15.0,29.91,1013.7,,,,,,,,,,,,,,,8/8 Overcast,5500.0,,BKN,5400.0,BKN,15000.0,OVC,25000.0,,
KRDR,08-31-2006,17:00,METAR,,160,24.0,33.0,160/36KTS,9999.0,,24.0,15.0,29.91,1013.8,,,,,,,,,,,,,,,7/8 Mostly Cloudy,25000.0,,SCT,7400.0,SCT,15000.0,BKN,25000.0,,
KRDR,08-31-2006,16:00,METAR,,160,28.0,33.0,150/33KTS,9999.0,,23.0,14.0,29.88,1012.7,,,,,,,,,,,,,,,7/8 Mostly Cloudy,25000.0,,SCT,6900.0,BKN,25000.0,,,,
KRDR,08-31-2006,15:00,METAR,,160,24.0,30.0,160/31KTS,9999.0,,21.0,14.0,29.90,1013.3,,,,,,,,,,,,,,,7/8 Mostly Cloudy,6000.0,,BKN,5900.0,BKN,25000.0,,,,
KRDR,08-31-2006,14:00,METAR,,160,23.0,28.0,170/29KTS,9999.0,,20.0,14.0,29.92,1014.1,,,,,,,,,,,,,,,4/8 Partly Cloudy,72000.0,,SCT,6900.0,SCT,25000.0,,,,
KRDR,08-31-2006,13:00,METAR,,150,19.0,25.0,,9999.0,,19.0,14.0,29.88,1012.9,,,,,,,,,,,,,,,4/8 Partly Cloudy,72000.0,,FEW,15000.0,SCT,25000.0,,,,
KRDR,08-31-2006,12:00,METAR,,150,17.0,23.0,,9999.0,,18.0,14.0,29.89,1013.0,,,,,,,,,,,,,,,7/8 Mostly Cloudy,25000.0,,FEW,15000.0,BKN,25000.0,,,,
KRDR,08-31-2006,11:00,METAR,,150,15.0,22.0,,9999.0,,18.0,14.0,29.90,1013.3,,,,,,,,,,,,,,,Clear,72000.0,,,73000.0,,,,,,
KRDR,08-31-2006,10:00,METAR,,150,16.0,,,9999.0,,18.0,14.0,29.90,1013.5,,,,,,,,,,,,,,,7/8 Mostly Cloudy,25000.0,,BKN,25000.0,,,,,,
KRDR,08-31-2006,09:00,METAR,,140,13.0,,,9999.0,,17.0,14.0,29.91,1013.6,,,,,,,,,,,,,,,7/8 Mostly Cloudy,25000.0,,BKN,25000.0,,,,,,
KRDR,08-31-2006,08:00,METAR,,150,12.0,,,9999.0,,18.0,14.0,29.91,1013.7,,,,,,,,,,,,,,,Clear,72000.0,,,73000.0,,,,,,
KRDR,08-31-2006,07:00,METAR,,140,11.0,,,9999.0,,18.0,13.0,29.91,1013.9,,,,,,,,,,,,,,,4/8 Partly Cloudy,72000.0,,SCT,25000.0,,,,,,
KRDR,08-31-2006,06:00,METAR,,150,10.0,,,9999.0,,17.0,11.0,29.92,1013.9,,,,,,,,,,,,,,,4/8 Partly Cloudy,72000.0,,SCT,25000.0,,,,,,
KRDR,08-31-2006,05:00,METAR,,150,12.0,,,9999.0,,19.0,11.0,29.92,1014.0,,,,,,,,,,,,,,,4/8 Partly Cloudy,72000.0,,SCT,25000.0,,,,,,
KRDR,08-31-2006,04:00,METAR,,150,11.0,,,9999.0,,19.0,10.0,29.92,1013.9,,,,,,,,,,,,,,,Clear,72000.0,,,73000.0,,,,,,
KRDR,08-31-2006,03:00,METAR,,140,11.0,,,9999.0,,20.0,10.0,29.91,1013.9,,,,,,,,,,,,,,,Clear,72000.0,,,73000.0,,,,,,
KRDR,08-31-2006,02:00,METAR,,140,11.0,,,9999.0,,22.0,11.0,29.90,1013.5,,,,,,,,,,,,,,,4/8 Partly Cloudy,72000.0,,SCT,25000.0,,,,,,
KRDR,08-31-2006,01:00,METAR,,140,16.0,21.0,,9999.0,,24.0,11.0,29.89,1013.0,,,,,,,,,,,,,,,Clear,72000.0,,,73000.0,,,,,,
KRDR,08-31-2006,00:00,METAR,,150,17.0,,170/26KTS,9999.0,,26.0,13.0,29.88,1012.9,,,,,,,,,,,,,,,Clear,72000.0,,,73000.0,,,,,,
KRDR,08-30-2006,23:00,METAR,,170,22.0,27.0,150/30KTS,9999.0,,27.0,12.0,29.89,1013.1,,,,,,,,,,,,,,,7/8 Mostly Cloudy,25000.0,,BKN,25000.0,,,,,,
KRDR,08-30-2006,22:00,METAR,,160,19.0,26.0,170/27KTS,9999.0,,27.0,13.0,29.90,1013.5,,,,,,,,,,,,,,,7/8 Mostly Cloudy,25000.0,,FEW,5900.0,BKN,25000.0,,,,
KRDR,08-30-2006,21:00,METAR,,170,17.0,25.0,,9999.0,,26.0,14.0,29.92,1014.1,,,,,,,,,,,,,,,7/8 Mostly Cloudy,25000.0,,FEW,5900.0,BKN,25000.0,,,,
KRDR,08-30-2006,20:00,METAR,,170,17.0,28.0,160/29KTS,9999.0,,26.0,14.0,29.93,1014.3,,,,,,,,,,,,,,,7/8 Mostly Cloudy,25000.0,,FEW,5900.0,BKN,25000.0,,,,
KRDR,08-30-2006,19:00,METAR,,150,16.0,25.0,,9999.0,,25.0,15.0,29.94,1014.7,,,,,,,,,,,,,,,7/8 Mostly Cloudy,25000.0,,BKN,25000.0,,,,,,
KRDR,08-30-2006,18:00,METAR,,150,16.0,,,9999.0,,24.0,15.0,29.97,1015.6,,,,,,,,,,,,,,,4/8 Partly Cloudy,72000.0,,SCT,25000.0,,,,,,
KRDR,08-30-2006,17:00,METAR,,130,13.0,,,9999.0,,22.0,14.0,29.98,1016.1,,,,,,,,,,,,,,,2/8 Mostly Clear,72000.0,,FEW,25000.0,,,,,,
KRDR,08-30-2006,16:00,METAR,,140,13.0,,,9999.0,,20.0,14.0,30.00,1016.7,,,,,,,,,,,,,,,2/8 Mostly Clear,72000.0,,FEW,25000.0,,,,,,
KRDR,08-30-2006,15:02,SPECI,,160,15.0,,,9999.0,,18.0,14.0,30.01,,,,,,,,,,,,,,,,4/8 Partly Cloudy,72000.0,,SCT,1000.0,,,,,,
KRDR,08-30-2006,15:00,METAR,,150,15.0,19.0,,9999.0,,18.0,14.0,30.01,1017.0,,,,,,,,,,,,,,,7/8 Mostly Cloudy,1000.0,,BKN,1000.0,,,,,,
KRDR,08-30-2006,14:00,METAR,,150,15.0,19.0,,9999.0,,15.0,13.0,30.02,1017.3,,,,,,,,,,,,,,,7/8 Mostly Cloudy,1000.0,,BKN,1000.0,,,,,,
KRDR,08-30-2006,13:22,SPECI,,150,10.0,,,9999.0,,14.0,13.0,30.02,1017.4,,,,,,,,,,,,,,,2/8 Mostly Clear,72000.0,,FEW,800.0,,,,,,
KRDR,08-30-2006,13:00,METAR,,150,8.0,,,9999.0,,13.0,12.0,30.03,1017.6,,,,,,,,,,,,,,,2/8 Mostly Clear,72000.0,,FEW,2000.0,,,,,,
KRDR,08-30-2006,12:00,METAR,,130,7.0,,,,,12.0,11.0,,,,,,,,,,,,,,,,,,72000.0,,,,,,,,,
KRDR,08-30-2006,11:55,METAR,,140,8.0,,,9999.0,,12.0,11.0,30.03,1017.8,,,,,,,,,,,,,,,Clear,72000.0,,,73000.0,,,,,,
KRDR,08-30-2006,11:00,METAR,,150,8.0,,,9999.0,,12.0,11.0,30.03,1017.2,,,,,,,,,,,,,,,Clear,72000.0,,,73000.0,,,,,,
KRDR,08-30-2006,10:00,METAR,,140,7.0,,,9999.0,,13.0,11.0,30.03,1017.3,,,,,,,,,,,,,,,Clear,72000.0,,,73000.0,,,,,,
KRDR,08-30-2006,09:00,METAR,,160,6.0,,,9999.0,,13.0,11.0,30.04,1017.4,,,,,,,,,,,,,,,Clear,72000.0,,,73000.0,,,,,,
KRDR,08-30-2006,08:00,METAR,,160,10.0,,,9999.0,,13.0,11.0,30.03,1017.2,,,,,,,,,,,,,,,Clear,72000.0,,,73000.0,,,,,,
KRDR,08-30-2006,07:00,METAR,,140,10.0,,,9999.0,,12.0,9.0,30.03,1017.7,,,,,,,,,,,,,,,Clear,72000.0,,,73000.0,,,,,,
KRDR,08-30-2006,06:00,METAR,,140,3.0,,,9999.0,,10.0,7.0,30.03,1017.6,,,,,,,,,,,,,,,Clear,72000.0,,,73000.0,,,,,,
KRDR,08-30-2006,05:00,METAR,,130,4.0,,,9999.0,,12.0,8.0,30.03,1017.8,,,,,,,,,,,,,,,Clear,72000.0,,,73000.0,,,,,,
KRDR,08-30-2006,04:00,METAR,,120,6.0,,,9999.0,,14.0,9.0,30.03,1017.8,,,,,,,,,,,,,,,Clear,72000.0,,,73000.0,,,,,,
KRDR,08-30-2006,03:00,METAR,,110,4.0,,,9999.0,,15.0,9.0,30.03,1017.8,,,,,,,,,,,,,,,Clear,72000.0,,,73000.0,,,,,,
KRDR,08-30-2006,02:00,METAR,,120,5.0,,,9999.0,,17.0,9.0,30.03,1017.6,,,,,,,,,,,,,,,Clear,72000.0,,,73000.0,,,,,,
KRDR,08-30-2006,01:00,METAR,,130,5.0,,,9999.0,,21.0,10.0,30.02,1017.5,,,,,,,,,,,,,,,Clear,72000.0,,,73000.0,,,,,,
KRDR,08-30-2006,00:00,METAR,,130,7.0,,,9999.0,,23.0,9.0,30.03,1017.8,,,,,,,,,,,,,,,Clear,72000.0,,,73000.0,,,,,,
KRDR,08-29-2006,23:00,METAR,,120,5.0,,,9999.0,,23.0,8.0,30.04,1018.1,,,,,,,,,,,,,,,Clear,72000.0,,,73000.0,,,,,,
KRDR,08-29-2006,22:00,METAR,,130,6.0,,,9999.0,,23.0,9.0,30.06,1018.6,,,,,,,,,,,,,,,Clear,72000.0,,,73000.0,,,,,,
KRDR,08-29-2006,21:00,METAR,,,5.0,,,9999.0,,23.0,9.0,30.07,1019.1,,,,,,,,,,,,,,,Clear,72000.0,,,73000.0,,,,,,
KRDR,08-29-2006,20:00,METAR,,130,4.0,,,9999.0,,22.0,10.0,30.09,1019.6,,,,,,,,,,,,,,,Clear,72000.0,,,73000.0,,,,,,
KRDR,08-29-2006,19:00,METAR,,150,6.0,,,9999.0,,21.0,10.0,30.11,1020.2,,,,,,,,,,,,,,,Clear,72000.0,,,73000.0,,,,,,
KRDR,08-29-2006,18:00,METAR,,,3.0,,,9999.0,,20.0,10.0,30.13,1020.9,,,,,,,,,,,,,,,Clear,72000.0,,,73000.0,,,,,,
KRDR,08-29-2006,17:00,METAR,,250,3.0,,,9999.0,,19.0,10.0,30.15,1021.5,,,,,,,,,,,,,,,Clear,72000.0,,,73000.0,,,,,,
KRDR,08-29-2006,16:00,METAR,,,5.0,,,9999.0,,17.0,11.0,30.15,1021.8,,,,,,,,,,,,,,,Clear,72000.0,,,73000.0,,,,,,
KRDR,08-29-2006,15:00,METAR,,140,3.0,,,9999.0,,15.0,10.0,30.16,1022.2,,,,,,,,,,,,,,,Clear,72000.0,,,73000.0,,,,,,
KRDR,08-29-2006,14:00,METAR,,,0.0,,,9999.0,,12.0,9.0,30.16,1022.1,,,,,,,,,,,,,,,Clear,72000.0,,,73000.0,,,,,,
KRDR,08-29-2006,13:00,METAR,,340,2.0,,,9999.0,,8.0,7.0,30.16,1022.0,,,,,,,,,,,,,,,Clear,72000.0,,,73000.0,,,,,,
KRDR,08-29-2006,12:00,METAR,,300,3.0,,,9999.0,,5.0,5.0,30.15,1021.8,,,,,,,,,,,,,,,Clear,72000.0,,,73000.0,,,,,,
KRDR,08-29-2006,11:00,METAR,,300,2.0,,,9999.0,,5.0,5.0,30.15,1021.6,,,,,,,,,,,,,,,Clear,72000.0,,,73000.0,,,,,,
KRDR,08-29-2006,10:00,METAR,,330,3.0,,,9999.0,,6.0,5.0,30.14,1021.4,,,,,,,,,,,,,,,Clear,72000.0,,,73000.0,,,,,,
KRDR,08-29-2006,09:00,METAR,,340,3.0,,,9999.0,,8.0,6.0,30.15,1021.6,,,,,,,,,,,,,,,Clear,72000.0,,,73000.0,,,,,,
KRDR,08-29-2006,08:00,METAR,,330,4.0,,,9999.0,,9.0,6.0,30.15,1021.6,,,,,,,,,,,,,,,Clear,72000.0,,,73000.0,,,,,,
KRDR,08-29-2006,07:00,METAR,,310,5.0,,,9999.0,,9.0,7.0,30.14,1021.4,,,,,,,,,,,,,,,Clear,72000.0,,,73000.0,,,,,,
KRDR,08-29-2006,06:00,METAR,,320,7.0,,,9999.0,,8.0,7.0,30.14,1021.4,,,,,,,,,,,,,,,Clear,72000.0,,,73000.0,,,,,,
KRDR,08-29-2006,05:00,METAR,,310,5.0,,,9999.0,,9.0,7.0,30.14,1021.4,,,,,,,,,,,,,,,Clear,72000.0,,,73000.0,,,,,,
KRDR,08-29-2006,04:00,METAR,,20,4.0,,,9999.0,,13.0,9.0,30.14,1021.4,,,,,,,,,,,,,,,Clear,72000.0,,,73000.0,,,,,,
KRDR,08-29-2006,03:00,METAR,,10,7.0,,,9999.0,,13.0,9.0,30.14,1021.2,,,,,,,,,,,,,,,Clear,72000.0,,,73000.0,,,,,,
KRDR,08-29-2006,02:00,METAR,,10,4.0,,,9999.0,,15.0,10.0,30.12,1020.7,,,,,,,,,,,,,,,Clear,72000.0,,,73000.0,,,,,,
KRDR,08-29-2006,01:00,METAR,,10,7.0,,,9999.0,,20.0,10.0,30.10,1020.2,,,,,,,,,,,,,,,Clear,72000.0,,,73000.0,,,,,,
KRDR,08-29-2006,00:00,METAR,,360,10.0,,,9999.0,,22.0,8.0,30.10,1020.0,,,,,,,,,,,,,,,2/8 Mostly Clear,72000.0,,FEW,25000.0,,,,,,
KRDR,08-28-2006,23:00,METAR,,10,11.0,,,9999.0,,23.0,8.0,30.09,1019.8,,,,,,,,,,,,,,,2/8 Mostly Clear,72000.0,,FEW,25000.0,,,,,,
KRDR,08-28-2006,22:00,METAR,,360,14.0,,,9999.0,,24.0,8.0,30.10,1019.9,,,,,,,,,,,,,,,2/8 Mostly Clear,72000.0,,FEW,9900.0,FEW,25000.0,,,,
KRDR,08-28-2006,21:00,METAR,,10,17.0,,,9999.0,,24.0,9.0,30.11,1020.2,,,,,,,,,,,,,,,4/8 Partly Cloudy,72000.0,,FEW,9900.0,SCT,25000.0,,,,
KRDR,08-28-2006,20:00,METAR,,360,13.0,21.0,,9999.0,,23.0,11.0,30.11,1020.5,,,,,,,,,,,,,,,4/8 Partly Cloudy,72000.0,,FEW,9900.0,SCT,25000.0,,,,
KRDR,08-28-2006,19:00,METAR,,360,14.0,19.0,,9999.0,,23.0,11.0,30.11,1020.5,,,,,,,,,,,,,,,2/8 Mostly Clear,72000.0,,FEW,25000.0,,,,,,
KRDR,08-28-2006,18:00,METAR,,350,13.0,19.0,,9999.0,,22.0,11.0,30.11,1020.5,,,,,,,,,,,,,,,2/8 Mostly Clear,72000.0,,FEW,25000.0,,,,,,
KRDR,08-28-2006,17:00,METAR,,10,12.0,,,9999.0,,21.0,12.0,30.13,1021.0,,,,,,,,,,,,,,,4/8 Partly Cloudy,72000.0,,SCT,25000.0,,,,,,
KRDR,08-28-2006,16:00,METAR,,350,11.0,16.0,,9999.0,,20.0,13.0,30.12,1020.8,,,,,,,,,,,,,,,4/8 Partly Cloudy,72000.0,,SCT,25000.0,,,,,,
KRDR,08-28-2006,15:00,METAR,,360,17.0,,,9999.0,,18.0,14.0,30.11,1020.2,,,,,,,,,,,,,,,4/8 Partly Cloudy,72000.0,,FEW,11000.0,SCT,25000.0,,,,
KRDR,08-28-2006,14:00,METAR,,360,13.0,,,9999.0,,17.0,13.0,30.10,1020.1,,,,,,,,,,,,,,,7/8 Mostly Cloudy,25000.0,,FEW,11000.0,BKN,25000.0,,,,
KRDR,08-28-2006,13:00,METAR,,350,11.0,,,9999.0,,16.0,12.0,30.09,1019.7,,,,,,,,,,,,,,,7/8 Mostly Cloudy,25000.0,,FEW,11000.0,BKN,25000.0,,,,
KRDR,08-28-2006,12:00,METAR,,330,10.0,,,9999.0,,16.0,12.0,30.06,1018.8,,,,,,,,,,,,,,,7/8 Mostly Cloudy,25000.0,,SCT,11000.0,BKN,25000.0,,,,
KRDR,08-28-2006,11:00,METAR,,300,5.0,,,9999.0,,16.0,12.0,30.06,1018.6,,,,,,,,,,,,,,,4/8 Partly Cloudy,72000.0,,SCT,25000.0,,,,,,
KRDR,08-28-2006,10:00,METAR,,300,7.0,,,9999.0,,18.0,14.0,30.04,1017.9,,,,,,,,,,,,,,,4/8 Partly Cloudy,72000.0,,SCT,25000.0,,,,,,
KRDR,08-28-2006,09:00,METAR,,290,9.0,,,9999.0,,19.0,15.0,30.02,1017.3,,,,,,,,,,,,,,,7/8 Mostly Cloudy,25000.0,,FEW,11000.0,BKN,25000.0,,,,
KRDR,08-28-2006,08:00,METAR,,280,8.0,,,9999.0,,21.0,15.0,30.01,1017.0,,,,,,,,,,,,,,,7/8 Mostly Cloudy,25000.0,,SCT,11000.0,BKN,25000.0,,,,
KRDR,08-28-2006,07:00,METAR,,270,10.0,,,9999.0,,21.0,14.0,30.01,1016.9,,,,,,,,,,,,,,,7/8 Mostly Cloudy,25000.0,,BKN,25000.0,,,,,,
KRDR,08-28-2006,06:00,METAR,,260,9.0,,,9999.0,,19.0,14.0,30.00,1016.8,,,,,,,,,,,,,,,4/8 Partly Cloudy,72000.0,,SCT,25000.0,,,,,,
KRDR,08-28-2006,05:00,METAR,,240,7.0,,,9999.0,,20.0,14.0,29.99,1016.5,,,,,,,,,,,,,,,4/8 Partly Cloudy,72000.0,,SCT,25000.0,,,,,,
KRDR,08-28-2006,04:00,METAR,,230,8.0,,,9999.0,,19.0,13.0,29.99,1016.5,,,,,,,,,,,,,,,7/8 Mostly Cloudy,25000.0,,BKN,25000.0,,,,,,
KRDR,08-28-2006,03:00,METAR,,230,8.0,,,9999.0,,19.0,11.0,29.99,1016.3,,,,,,,,,,,,,,,7/8 Mostly Cloudy,25000.0,,BKN,25000.0,,,,,,
KRDR,08-28-2006,02:00,METAR,,220,7.0,,,9999.0,,20.0,13.0,29.98,1016.1,,,,,,,,,,,,,,,7/8 Mostly Cloudy,25000.0,,BKN,25000.0,,,,,,
KRDR,08-28-2006,01:00,METAR,,220,7.0,,,9999.0,,23.0,14.0,29.97,1015.8,,,,,,,,,,,,,,,7/8 Mostly Cloudy,25000.0,,FEW,8900.0,BKN,25000.0,,,,
KRDR,08-28-2006,00:00,METAR,,250,5.0,,,9999.0,,27.0,14.0,29.98,1015.9,,,,,,,,,,,,,,,7/8 Mostly Cloudy,25000.0,,FEW,8900.0,BKN,25000.0,,,,
KRDR,08-27-2006,23:00,METAR,,270,7.0,,,9999.0,,28.0,13.0,29.98,1016.1,,,,,,,,,,,,,,,7/8 Mostly Cloudy,25000.0,,FEW,8900.0,BKN,25000.0,,,,
KRDR,08-27-2006,22:00,METAR,,250,8.0,,,9999.0,,29.0,11.0,29.99,1016.3,,,,,,,,,,,,,,,7/8 Mostly Cloudy,25000.0,,SCT,9900.0,BKN,25000.0,,,,
KRDR,08-27-2006,21:00,METAR,,250,8.0,17.0,,9999.0,,30.0,11.0,29.99,1016.3,,,,,,,,,,,,,,,7/8 Mostly Cloudy,25000.0,,SCT,9900.0,BKN,25000.0,,,,
KRDR,08-27-2006,20:00,METAR,,240,7.0,,,9999.0,,28.0,12.0,30.00,1016.7,,,,,,,,,,,,,,,7/8 Mostly Cloudy,25000.0,,SCT,9900.0,BKN,25000.0,,,,
KRDR,08-27-2006,19:00,METAR,,240,7.0,,,9999.0,,29.0,9.0,30.00,1016.9,,,,,,,,,,,,,,,7/8 Mostly Cloudy,25000.0,,SCT,8900.0,BKN,25000.0,,,,
KRDR,08-27-2006,18:00,METAR,,250,8.0,,,9999.0,,30.0,9.0,30.01,1017.1,,,,,,,,,,,,,,,4/8 Partly Cloudy,72000.0,,FEW,8900.0,SCT,25000.0,,,,
KRDR,08-27-2006,17:00,METAR,,260,7.0,,,9999.0,,28.0,12.0,30.02,1017.3,,,,,,,,,,,,,,,4/8 Partly Cloudy,72000.0,,SCT,25000.0,,,,,,
KRDR,08-27-2006,16:00,METAR,,280,5.0,,,9999.0,,26.0,13.0,30.02,1017.3,,,,,,,,,,,,,,,4/8 Partly Cloudy,72000.0,,SCT,25000.0,,,,,,
KRDR,08-27-2006,15:00,METAR,,300,4.0,,,9999.0,,23.0,14.0,30.01,1017.2,,,,,,,,,,,,,,,4/8 Partly Cloudy,72000.0,,FEW,15000.0,SCT,25000.0,,,,
KRDR,08-27-2006,14:00,METAR,,210,3.0,,,9999.0,,18.0,13.0,30.02,1017.2,,,,,,,,,,,,,,,4/8 Partly Cloudy,72000.0,,FEW,15000.0,SCT,25000.0,,,,
KRDR,08-27-2006,13:00,METAR,,,0.0,,,9999.0,,14.0,11.0,30.01,1017.0,,,,,,,,,,,,,,,4/8 Partly Cloudy,72000.0,,FEW,15000.0,SCT,25000.0,,,,
KRDR,08-27-2006,12:00,METAR,,250,2.0,,,9999.0,,10.0,9.0,30.01,1017.1,,,,,,,,,,,,,,,2/8 Mostly Clear,72000.0,,FEW,15000.0,FEW,25000.0,,,,
KRDR,08-27-2006,11:00,METAR,,,0.0,,,9999.0,,11.0,9.0,30.00,1016.9,,,,,,,,,,,,,,,2/8 Mostly Clear,72000.0,,FEW,25000.0,,,,,,
KRDR,08-27-2006,10:00,METAR,,,0.0,,,9999.0,,12.0,10.0,30.00,1016.7,,,,,,,,,,,,,,,2/8 Mostly Clear,72000.0,,FEW,25000.0,,,,,,
KRDR,08-27-2006,09:00,METAR,,,0.0,,,9999.0,,11.0,9.0,30.00,1016.9,,,,,,,,,,,,,,,Clear,72000.0,,,73000.0,,,,,,
KRDR,08-27-2006,08:00,METAR,,220,2.0,,,9999.0,,12.0,10.0,30.01,1017.0,,,,,,,,,,,,,,,Clear,72000.0,,,73000.0,,,,,,
KRDR,08-27-2006,07:00,METAR,,230,6.0,,,9999.0,,12.0,10.0,30.01,1017.0,,,,,,,,,,,,,,,Clear,72000.0,,,73000.0,,,,,,
KRDR,08-27-2006,06:00,METAR,,230,6.0,,,9999.0,,13.0,11.0,30.00,1016.8,,,,,,,,,,,,,,,Clear,72000.0,,,73000.0,,,,,,
KRDR,08-27-2006,05:00,METAR,,220,3.0,,,9999.0,,14.0,11.0,30.00,1016.6,,,,,,,,,,,,,,,Clear,72000.0,,,73000.0,,,,,,
KRDR,08-27-2006,04:00,METAR,,30,3.0,,,9999.0,,16.0,11.0,29.99,1016.4,,,,,,,,,,,,,,,Clear,72000.0,,,73000.0,,,,,,
KRDR,08-27-2006,03:00,METAR,,240,6.0,,,9999.0,,16.0,12.0,29.98,1016.1,,,,,,,,,,,,,,,Clear,72000.0,,,73000.0,,,,,,
KRDR,08-27-2006,02:00,METAR,,250,4.0,,,9999.0,,19.0,11.0,29.97,1015.7,,,,,,,,,,,,,,,2/8 Mostly Clear,72000.0,,FEW,6900.0,,,,,,
KRDR,08-27-2006,01:00,METAR,,280,5.0,,,9999.0,,24.0,10.0,29.96,1015.5,,,,,,,,,,,,,,,2/8 Mostly Clear,72000.0,,FEW,5900.0,,,,,,
KRDR,08-27-2006,00:00,METAR,,320,4.0,,,9999.0,,26.0,9.0,29.96,1015.4,,,,,,,,,,,,,,,2/8 Mostly Clear,72000.0,,FEW,4500.0,,,,,,
KRDR,08-26-2006,23:00,METAR,,310,8.0,,,9999.0,,28.0,8.0,29.96,1015.3,,,,,,,,,,,,,,,4/8 Partly Cloudy,72000.0,,SCT,11000.0,,,,,,
KRDR,08-26-2006,22:00,METAR,,300,9.0,,,9999.0,,28.0,8.0,29.95,1015.2,,,,,,,,,,,,,,,4/8 Partly Cloudy,72000.0,,FEW,5000.0,SCT,11000.0,,,,
KRDR,08-26-2006,21:00,METAR,,310,11.0,,,9999.0,,29.0,9.0,29.95,1015.2,,,,,,,,,,,,,,,4/8 Partly Cloudy,72000.0,,FEW,5000.0,SCT,11000.0,,,,
KRDR,08-26-2006,20:00,METAR,,300,14.0,,,9999.0,,28.0,9.0,29.96,1015.3,,,,,,,,,,,,,,,4/8 Partly Cloudy,72000.0,,FEW,5000.0,SCT,8900.0,,,,
KRDR,08-26-2006,19:00,METAR,,280,12.0,,,9999.0,,28.0,8.0,29.97,1015.6,,,,,,,,,,,,,,,2/8 Mostly Clear,72000.0,,FEW,4500.0,FEW,9400.0,,,,
KRDR,08-26-2006,18:00,METAR,,280,7.0,,,9999.0,,28.0,9.0,29.97,1015.9,,,,,,,,,,,,,,,Clear,72000.0,,,73000.0,,,,,,
KRDR,08-26-2006,17:00,METAR,,270,7.0,,,9999.0,,27.0,12.0,29.98,1016.1,,,,,,,,,,,,,,,Clear,72000.0,,,73000.0,,,,,,
KRDR,08-26-2006,16:00,METAR,,270,7.0,,,9999.0,,25.0,12.0,29.98,1016.2,,,,,,,,,,,,,,,Clear,72000.0,,,73000.0,,,,,,
KRDR,08-26-2006,15:00,METAR,,270,6.0,,,9999.0,,22.0,12.0,29.99,1016.3,,,,,,,,,,,,,,,4/8 Partly Cloudy,72000.0,,FEW,9900.0,SCT,25000.0,,,,
KRDR,08-26-2006,14:00,METAR,,330,5.0,,,9999.0,,18.0,13.0,29.98,1016.2,,,,,,,,,,,,,,,4/8 Partly Cloudy,72000.0,,SCT,25000.0,,,,,,
KRDR,08-26-2006,13:00,METAR,,240,3.0,,,9999.0,,14.0,12.0,29.98,1015.9,,,,,,,,,,,,,,,2/8 Mostly Clear,72000.0,,FEW,9900.0,,,,,,
KRDR,08-26-2006,12:00,METAR,,250,4.0,,,9999.0,,12.0,10.0,29.97,1015.9,,,,,,,,,,,,,,,2/8 Mostly Clear,72000.0,,FEW,9900.0,,,,,,
KRDR,08-26-2006,11:00,METAR,,250,2.0,,,9999.0,,14.0,11.0,29.96,1015.3,,,,,,,,,,,,,,,4/8 Partly Cloudy,72000.0,,SCT,25000.0,,,,,,
KRDR,08-26-2006,10:00,METAR,,270,4.0,,,9999.0,,13.0,11.0,29.95,1015.1,,,,,,,,,,,,,,,4/8 Partly Cloudy,72000.0,,SCT,25000.0,,,,,,
KRDR,08-26-2006,09:00,METAR,,250,4.0,,,9999.0,,14.0,11.0,29.94,1014.7,,,,,,,,,,,,,,,4/8 Partly Cloudy,72000.0,,SCT,25000.0,,,,,,
KRDR,08-26-2006,08:00,METAR,,250,8.0,,,9999.0,,14.0,11.0,29.94,1014.6,,,,,,,,,,,,,,,4/8 Partly Cloudy,72000.0,,SCT,25000.0,,,,,,
KRDR,08-26-2006,07:00,METAR,,240,7.0,,,9999.0,,14.0,11.0,29.94,1014.6,,,,,,,,,,,,,,,4/8 Partly Cloudy,72000.0,,SCT,25000.0,,,,,,
KRDR,08-26-2006,06:00,METAR,,240,7.0,,,9999.0,,14.0,12.0,29.93,1014.5,,,,,,,,,,,,,,,7/8 Mostly Cloudy,25000.0,,BKN,25000.0,,,,,,
KRDR,08-26-2006,05:00,METAR,,230,6.0,,,9999.0,,15.0,12.0,29.93,1014.3,,,,,,,,,,,,,,,7/8 Mostly Cloudy,25000.0,,BKN,25000.0,,,,,,
KRDR,08-26-2006,04:00,METAR,,250,6.0,,,9999.0,,16.0,13.0,29.93,1014.5,,,,,,,,,,,,,,,7/8 Mostly Cloudy,25000.0,,BKN,25000.0,,,,,,
KRDR,08-26-2006,03:00,METAR,,240,6.0,,,9999.0,,16.0,13.0,29.93,1014.6,,,,,,,,,,,,,,,7/8 Mostly Cloudy,25000.0,,BKN,25000.0,,,,,,
KRDR,08-26-2006,02:00,METAR,,230,6.0,,,9999.0,,17.0,13.0,29.93,1014.3,,,,,,,,,,,,,,,7/8 Mostly Cloudy,25000.0,,BKN,25000.0,,,,,,
KRDR,08-26-2006,01:00,METAR,,270,4.0,,,9999.0,,21.0,13.0,29.91,1013.8,,,,,,,,,,,,,,,7/8 Mostly Cloudy,25000.0,,FEW,5400.0,BKN,25000.0,,,,
KRDR,08-26-2006,00:00,METAR,,300,8.0,,,9999.0,,24.0,11.0,29.91,1013.6,,,,,,,,,,,,,,,7/8 Mostly Cloudy,25000.0,,FEW,5400.0,BKN,25000.0,,,,
KRDR,08-25-2006,23:00,METAR,,300,9.0,,,9999.0,,25.0,12.0,29.89,1013.1,,,,,,,,,,,,,,,7/8 Mostly Cloudy,25000.0,,FEW,5000.0,BKN,25000.0,,,,
KRDR,08-25-2006,22:00,METAR,,310,10.0,,,9999.0,,25.0,14.0,29.87,1012.5,,,,,,,,,,,,,,,7/8 Mostly Cloudy,25000.0,,SCT,5000.0,BKN,25000.0,,,,
KRDR,08-25-2006,21:00,METAR,,320,9.0,,,9999.0,,24.0,14.0,29.86,1012.1,,,,,,,,,,,,,,,4/8 Partly Cloudy,72000.0,,SCT,5900.0,,,,,,
KRDR,08-25-2006,20:00,METAR,,310,10.0,,,9999.0,,25.0,14.0,29.87,1012.3,,,,,,,,,,,,,,,7/8 Mostly Cloudy,6000.0,,FEW,4600.0,BKN,5900.0,BKN,25000.0,,
KRDR,08-25-2006,19:00,METAR,,310,7.0,17.0,,9999.0,,25.0,14.0,29.87,1012.5,,,,,,,,,,,,,,,7/8 Mostly Cloudy,25000.0,,SCT,4800.0,BKN,25000.0,,,,
KRDR,08-25-2006,18:00,METAR,,320,5.0,,,9999.0,,24.0,14.0,29.87,1012.4,,,,,,,,,,,,,,,4/8 Partly Cloudy,72000.0,,FEW,2000.0,FEW,3800.0,SCT,25000.0,,
KRDR,08-25-2006,17:00,METAR,,280,9.0,,,9999.0,,23.0,14.0,29.86,1012.1,,,,,,,,,,,,,,,Clear,72000.0,,,73000.0,,,,,,
KRDR,08-25-2006,16:00,METAR,,280,11.0,,,9999.0,,21.0,15.0,29.86,1012.2,,,,,,,,,,,,,,,2/8 Mostly Clear,72000.0,,FEW,2500.0,,,,,,
KRDR,08-25-2006,15:00,METAR,,290,10.0,,,9999.0,,20.0,15.0,29.84,1011.6,,,,,,,,,,,,,,,2/8 Mostly Clear,72000.0,,FEW,3500.0,,,,,,
KRDR,08-25-2006,14:00,METAR,,280,8.0,,,9999.0,,18.0,15.0,29.84,1011.3,,,,,,,,,,,,,,,2/8 Mostly Clear,72000.0,,FEW,20000.0,,,,,,
KRDR,08-25-2006,13:00,METAR,,270,4.0,,,9999.0,,17.0,15.0,29.83,1011.0,,,,,,,,,,,,,,,2/8 Mostly Clear,72000.0,,FEW,1400.0,FEW,11000.0,,,,
KRDR,08-25-2006,12:25,METAR,,280,5.0,,,9999.0,,17.0,15.0,29.82,1010.8,,,,,,,,,,,,,,,4/8 Partly Cloudy,72000.0,,SCT,1300.0,,,,,,
KRDR,08-25-2006,12:00,METAR,,310,8.0,,,9999.0,,16.0,15.0,29.81,1010.4,,,,,,,,,,,,,,.85 IN,7/8 Mostly Cloudy,1100.0,,BKN,1100.0,,,,,,
KRDR,08-25-2006,11:30,METAR,,320,5.0,,,9999.0,,16.0,15.0,29.79,,,,,,,,,,,,,,,,7/8 Mostly Cloudy,1200.0,,BKN,1200.0,,,,,,
KRDR,08-25-2006,11:03,SPECI,,300,7.0,,,9999.0,,16.0,15.0,29.80,1010.0,,,,,,,,,,,,,,,7/8 Mostly Cloudy,800.0,,BKN,1200.0,,,,,,
KRDR,08-25-2006,11:00,METAR,,240,4.0,,,9999.0,,16.0,15.0,29.80,1010.1,,,,,,,,,,,,,,,4/8 Partly Cloudy,72000.0,,FEW,1800.0,SCT,3000.0,,,,
KRDR,08-25-2006,10:00,METAR,,250,6.0,,,9999.0,,16.0,15.0,29.78,1009.6,,,,,,,,,,,,,,,8/8 Overcast,3000.0,,SCT,1800.0,OVC,3000.0,,,,
KRDR,08-25-2006,09:00,METAR,,240,11.0,,,9999.0,,17.0,15.0,29.76,1008.7,,,,,,,,,,,,,,,8/8 Overcast,3100.0,,OVC,3100.0,,,,,,
KRDR,08-25-2006,08:00,METAR,,230,12.0,,,9999.0,,16.0,15.0,29.74,1008.2,,,,,,,,,,,,,,,8/8 Overcast,4700.0,,OVC,4800.0,,,,,,
KRDR,08-25-2006,07:00,METAR,,220,11.0,17.0,,9999.0,,17.0,15.0,29.74,1008.2,,,,,,,,,,,,,,,8/8 Overcast,5500.0,,OVC,5400.0,,,,,,
KRDR,08-25-2006,06:00,METAR,,190,4.0,,,9999.0,,16.0,15.0,29.75,1008.4,,,,,,,,,,,.01 IN,,.69 IN,,8/8 Overcast,3100.0,,SCT,2700.0,BKN,3200.0,OVC,8400.0,,
KRDR,08-25-2006,05:25,METAR,,230,5.0,,,9999.0,,16.0,15.0,29.75,,,,,,,,,,,,,,,,8/8 Overcast,3000.0,,SCT,2000.0,BKN,3000.0,OVC,4600.0,,
KRDR,08-25-2006,05:00,METAR,,250,6.0,,,9999.0,,16.0,15.0,29.75,1008.6,,,,,,,,,,,,,,,4/8 Partly Cloudy,72000.0,,SCT,2200.0,,,,,,
KRDR,08-25-2006,04:00,METAR,,170,3.0,,,9999.0,,16.0,15.0,29.74,1008.0,,,,,,,,,,,,,,,4/8 Partly Cloudy,72000.0,,SCT,3500.0,,,,,,
KRDR,08-25-2006,03:00,METAR,,100,8.0,,,9999.0,,16.0,15.0,29.73,1007.8,,,,,,,,,,,.04 IN,.68 IN,,,7/8 Mostly Cloudy,10000.0,,FEW,5900.0,BKN,9900.0,,,,
KRDR,08-25-2006,02:24,SPECI,,80,7.0,,,9999.0,,16.0,15.0,29.75,1008.4,,,,,,,,,,,,,,,7/8 Mostly Cloudy,10000.0,,SCT,5900.0,BKN,9900.0,,,,
KRDR,08-25-2006,02:03,SPECI,,50,11.0,,,6400.0,Rain/Mist,16.0,15.0,29.71,1007.2,,,,61,10,,,,,,,,,,8/8 Overcast,6000.0,,OVC,5900.0,,,,,,
KRDR,08-25-2006,02:00,METAR,,60,10.0,,,6400.0,Rain/Mist,16.0,16.0,29.73,1007.9,,,,63,10,,,,,,.27 IN,,,,8/8 Overcast,6000.0,,FEW,1500.0,OVC,5900.0,,,,
KRDR,08-25-2006,01:48,SPECI,,60,11.0,,,6400.0,Rain/Mist,16.0,16.0,29.74,,,,,63,10,,,,,,,,,,8/8 Overcast,6000.0,,FEW,1500.0,OVC,5900.0,,,,
KRDR,08-25-2006,01:20,METAR,,100,7.0,,,6400.0,Rain/Thunderstorm/Mist,16.0,16.0,29.78,1009.5,,,,17,63,10,,,,,,,,,8/8 Overcast,6000.0,,FEW,1500.0,OVC,5900.0,,,,
KRDR,08-25-2006,01:01,SPECI,,90,6.0,,,4800.0,Rain/Thunderstorm/Mist,17.0,16.0,29.80,1010.1,,,,17,63,10,,,,,,,,,8/8 Overcast,6000.0,,SCT,3900.0,OVC,5900.0,,,,
KRDR,08-25-2006,01:00,METAR,,120,7.0,,,4800.0,Rain/Thunderstorm/Mist,17.0,16.0,29.81,1010.4,,,,17,61,10,,,,,.37 IN,,,,8/8 Overcast,6000.0,,OVC,5900.0,,,,,,
KRDR,08-25-2006,00:32,SPECI,,80,5.0,,,4800.0,Thunderstorm with Rain or Snow/Light Rain Showers,17.0,16.0,29.80,1010.2,,,,95,80,,,,,,,,,,8/8 Overcast,3800.0,,FEW,1300.0,BKN,3900.0,OVC,5900.0,,
KRDR,08-25-2006,00:22,SPECI,,110,5.0,,,4800.0,Thunderstorm with Rain or Snow/Light Rain Showers,17.0,15.0,29.81,,,,,95,80,,,,,,,,,,8/8 Overcast,3800.0,,SCT,200.0,OVC,3900.0,,,,
KRDR,08-25-2006,00:13,SPECI,,50,3.0,,,3200.0,Heavy Rain/Thunderstorm/Mist,17.0,15.0,29.83,1011.0,,,,17,65,10,,,,,,,,,4/8 Partly Cloudy,72000.0,,SCT,200.0,SCT,3900.0,,,,
KRDR,08-25-2006,00:00,METAR,,330,8.0,22.0,,2800.0,Heavy Rain/Thunderstorm,17.0,15.0,29.84,1011.4,,,,17,65,,,,,,,,,,7/8 Mostly Cloudy,3100.0,,SCT,200.0,SCT,1500.0,BKN,3200.0,,
KRDR,08-24-2006,23:49,SPECI,,290,17.0,24.0,,4000.0,Thunderstorm with Rain or Snow/Light Rain Showers,18.0,15.0,29.83,1011.2,,,,95,80,,,,,,,,,,8/8 Overcast,3700.0,,FEW,300.0,OVC,3800.0,,,,
KRDR,08-24-2006,23:17,SPECI,,230,2.0,,,8000.0,Thunderstorm with Rain or Snow/Light Rain Showers,20.0,15.0,29.76,,,,,95,80,,,,,,,,,,8/8 Overcast,10000.0,,FEW,2000.0,SCT,4200.0,OVC,9900.0,,
KRDR,08-24-2006,23:00,METAR,,90,8.0,,,9999.0,Light Rain Showers,21.0,14.0,29.72,1007.5,,,,80,,,,,,,TRACE,,,,8/8 Overcast,12000.0,,FEW,2000.0,BKN,12000.0,OVC,20000.0,,
KRDR,08-24-2006,22:27,SPECI,,90,11.0,15.0,,9999.0,Precipitation in the Vicinity,21.0,14.0,29.69,1006.5,,,,16,,,,,,,,,,,8/8 Overcast,10000.0,,FEW,2000.0,BKN,9900.0,OVC,20000.0,,
KRDR,08-24-2006,22:14,SPECI,,90,14.0,23.0,,9999.0,Light Rain Showers,21.0,14.0,29.68,,,,,80,,,,,,,,,,,8/8 Overcast,10000.0,,FEW,2000.0,BKN,9900.0,OVC,20000.0,,
KRDR,08-24-2006,22:00,METAR,,110,14.0,19.0,,9999.0,,22.0,15.0,29.72,1007.6,,,,,,,,,,,,,,,8/8 Overcast,10000.0,,FEW,2000.0,BKN,9900.0,OVC,20000.0,,
KRDR,08-24-2006,21:00,METAR,,100,9.0,,,9999.0,,22.0,16.0,29.73,1006.8,,,,,,,,,,,,,,,8/8 Overcast,12000.0,,FEW,2000.0,BKN,12000.0,OVC,20000.0,,
KRDR,08-24-2006,20:00,METAR,,110,17.0,21.0,,9999.0,,23.0,16.0,29.72,1007.5,,,,,,,,,,,,,,,7/8 Mostly Cloudy,20000.0,,FEW,2000.0,SCT,15000.0,BKN,20000.0,,
KRDR,08-24-2006,19:00,METAR,,100,9.0,,,9999.0,,21.0,16.0,29.78,1008.6,,,,,,,,,,,,,,,8/8 Overcast,15000.0,,SCT,1700.0,BKN,15000.0,OVC,20000.0,,
KRDR,08-24-2006,18:00,METAR,,100,8.0,,,9999.0,,20.0,16.0,29.81,1010.4,,,,,,,,,,,,,,,8/8 Overcast,20000.0,,FEW,1000.0,SCT,15000.0,OVC,20000.0,,
KRDR,08-24-2006,17:00,METAR,,90,7.0,,,9999.0,,20.0,16.0,29.80,1010.2,,,,,,,,,,,,,,,8/8 Overcast,20000.0,,FEW,1000.0,SCT,15000.0,OVC,20000.0,,
KRDR,08-24-2006,16:00,METAR,,130,8.0,,,9999.0,,19.0,16.0,29.81,1010.5,,,,,,,,,,,,,,,8/8 Overcast,20000.0,,FEW,1000.0,OVC,20000.0,,,,
KRDR,08-24-2006,15:00,METAR,,110,7.0,,,9999.0,,18.0,16.0,29.81,1010.3,,,,,,,,,,,,,,,8/8 Overcast,20000.0,,FEW,800.0,OVC,20000.0,,,,
KRDR,08-24-2006,14:00,METAR,,100,7.0,,,9999.0,,17.0,16.0,29.79,1009.5,,,,,,,,,,,,,,,8/8 Overcast,20000.0,,OVC,20000.0,,,,,,
KRDR,08-24-2006,13:00,METAR,,90,3.0,,,9999.0,,17.0,16.0,29.80,1010.1,,,,,,,,,,,,,,,8/8 Overcast,21000.0,,OVC,21000.0,,,,,,
KRDR,08-24-2006,12:00,METAR,,90,3.0,,,9999.0,,17.0,16.0,29.81,1010.3,,,,,,,,,,,,,,,8/8 Overcast,25000.0,,OVC,25000.0,,,,,,
KRDR,08-24-2006,11:00,METAR,,130,6.0,,,9999.0,,17.0,16.0,29.80,1010.3,,,,,,,,,,,,,,,7/8 Mostly Cloudy,20000.0,,BKN,20000.0,,,,,,
KRDR,08-24-2006,10:00,METAR,,80,5.0,,,9999.0,,17.0,16.0,29.82,1010.9,,,,,,,,,,,,,,,7/8 Mostly Cloudy,20000.0,,BKN,20000.0,,,,,,
KRDR,08-24-2006,09:00,METAR,,90,4.0,,,9999.0,,18.0,16.0,29.83,1011.0,,,,,,,,,,,,,,,7/8 Mostly Cloudy,20000.0,,BKN,20000.0,,,,,,
KRDR,08-24-2006,08:00,METAR,,,0.0,,,9999.0,,18.0,17.0,29.84,1011.5,,,,,,,,,,,,,,,7/8 Mostly Cloudy,20000.0,,BKN,20000.0,,,,,,
KRDR,08-24-2006,07:00,METAR,,240,4.0,,,9999.0,,18.0,17.0,29.86,1012.1,,,,,,,,,,,,,,,7/8 Mostly Cloudy,20000.0,,SCT,15000.0,BKN,20000.0,,,,
KRDR,08-24-2006,06:00,METAR,,140,6.0,,,9999.0,,19.0,17.0,29.83,1011.0,,,,,,,,,,,,,,,7/8 Mostly Cloudy,25000.0,,BKN,25000.0,,,,,,
KRDR,08-24-2006,05:00,METAR,,130,8.0,,,9999.0,,20.0,17.0,29.85,1011.7,,,,,,,,,,,,,,,7/8 Mostly Cloudy,20000.0,,BKN,20000.0,,,,,,
KRDR,08-24-2006,04:00,METAR,,110,7.0,,,9999.0,,22.0,17.0,29.84,1011.6,,,,,,,,,,,,,,,7/8 Mostly Cloudy,20000.0,,FEW,4500.0,BKN,20000.0,,,,
KRDR,08-24-2006,03:00,METAR,,80,7.0,,,9999.0,,22.0,17.0,29.85,1011.8,,,,,,,,,,,,,,,8/8 Overcast,20000.0,,FEW,3800.0,OVC,20000.0,,,,
KRDR,08-24-2006,02:00,METAR,,80,5.0,,,9999.0,,23.0,18.0,29.85,1011.9,,,,,,,,,,,,,,,8/8 Overcast,20000.0,,FEW,3800.0,OVC,20000.0,,,,
KRDR,08-24-2006,01:00,METAR,,60,5.0,,,9999.0,,25.0,18.0,29.83,1011.3,,,,,,,,,,,,,,,8/8 Overcast,25000.0,,SCT,4000.0,OVC,25000.0,,,,
KRDR,08-24-2006,00:00,METAR,,100,5.0,,,9999.0,,26.0,17.0,29.84,1011.5,,,,,,,,,,,,,,,7/8 Mostly Cloudy,25000.0,,FEW,4000.0,BKN,25000.0,,,,
KRDR,08-23-2006,23:00,METAR,,120,6.0,,,9999.0,,27.0,17.0,29.85,1011.9,,,,,,,,,,,,,,,7/8 Mostly Cloudy,25000.0,,FEW,4000.0,SCT,9900.0,BKN,25000.0,,
KRDR,08-23-2006,22:00,METAR,,120,9.0,,,9999.0,,27.0,17.0,29.85,1011.6,,,,,,,,,,,,,,,7/8 Mostly Cloudy,25000.0,,FEW,4000.0,SCT,15000.0,BKN,25000.0,,
KRDR,08-23-2006,21:00,METAR,,90,9.0,,,9999.0,,27.0,18.0,29.84,1011.6,,,,,,,,,,,,,,,7/8 Mostly Cloudy,25000.0,,FEW,3500.0,SCT,15000.0,BKN,25000.0,,
KRDR,08-23-2006,20:00,METAR,,80,11.0,15.0,,9999.0,,27.0,18.0,29.85,1010.7,,,,,,,,,,,,,,,7/8 Mostly Cloudy,25000.0,,FEW,3500.0,SCT,15000.0,BKN,25000.0,,
KRDR,08-23-2006,19:00,METAR,,90,7.0,,,9999.0,,25.0,17.0,29.86,1012.1,,,,,,,,,,,,,,,7/8 Mostly Cloudy,25000.0,,FEW,3500.0,BKN,25000.0,,,,
KRDR,08-23-2006,18:00,METAR,,80,8.0,,,9999.0,,25.0,17.0,29.87,1012.4,,,,,,,,,,,,,,,7/8 Mostly Cloudy,25000.0,,BKN,25000.0,,,,,,
KRDR,08-23-2006,17:00,METAR,,120,6.0,,,9999.0,,24.0,17.0,29.88,1012.8,,,,,,,,,,,,,,,7/8 Mostly Cloudy,25000.0,,BKN,25000.0,,,,,,
KRDR,08-23-2006,16:00,METAR,,140,6.0,,,9999.0,,21.0,16.0,29.89,1012.9,,,,,,,,,,,,,,,7/8 Mostly Cloudy,25000.0,,BKN,25000.0,,,,,,
KRDR,08-23-2006,15:00,METAR,,110,6.0,,,9999.0,,20.0,15.0,29.90,1013.5,,,,,,,,,,,,,,,7/8 Mostly Cloudy,25000.0,,FEW,3000.0,BKN,25000.0,,,,
KRDR,08-23-2006,14:00,METAR,,80,8.0,,,9999.0,,18.0,15.0,29.91,1013.6,,,,,,,,,,,,,,,4/8 Partly Cloudy,72000.0,,FEW,2000.0,SCT,7400.0,SCT,25000.0,,
KRDR,08-23-2006,13:00,METAR,,80,6.0,,,9999.0,,16.0,14.0,29.90,1013.4,,,,,,,,,,,,,,,7/8 Mostly Cloudy,25000.0,,SCT,7400.0,BKN,25000.0,,,,
KRDR,08-23-2006,12:00,METAR,,70,2.0,,,9999.0,,15.0,14.0,29.90,1013.4,,,,,,,,,,,,,,,4/8 Partly Cloudy,72000.0,,FEW,15000.0,SCT,25000.0,,,,
KRDR,08-23-2006,11:00,METAR,,80,4.0,,,9999.0,,15.0,14.0,29.88,1012.9,,,,,,,,,,,,,,,2/8 Mostly Clear,72000.0,,FEW,25000.0,,,,,,
KRDR,08-23-2006,10:00,METAR,,80,4.0,,,9999.0,,15.0,14.0,29.89,1013.0,,,,,,,,,,,,,,,2/8 Mostly Clear,72000.0,,FEW,25000.0,,,,,,
KRDR,08-23-2006,08:00,METAR,,110,7.0,,,9999.0,,17.0,14.0,29.89,1013.1,,,,,,,,,,,,,,,7/8 Mostly Cloudy,8000.0,,BKN,7900.0,,,,,,
KRDR,08-23-2006,07:00,METAR,,130,11.0,17.0,,9999.0,,18.0,14.0,29.90,1013.5,,,,,,,,,,,,,,,8/8 Overcast,7000.0,,OVC,6900.0,,,,,,
KRDR,08-23-2006,06:00,METAR,,120,7.0,,,9999.0,,19.0,14.0,29.92,1014.0,,,,,,,,,,,,,,,8/8 Overcast,7000.0,,BKN,6900.0,OVC,12000.0,,,,
KRDR,08-23-2006,05:00,METAR,,150,13.0,24.0,,9999.0,,21.0,13.0,29.92,1014.0,,,,,,,,,,,,,,,8/8 Overcast,4900.0,,BKN,5000.0,OVC,12000.0,,,,
KRDR,08-23-2006,04:00,METAR,,120,9.0,,,9999.0,,21.0,11.0,29.95,1014.9,,,,,,,,,,,,,,,8/8 Overcast,6000.0,,BKN,5900.0,OVC,12000.0,,,,
KRDR,08-23-2006,03:27,SPECI,,110,9.0,,,9999.0,Thunderstorm,21.0,11.0,29.94,,,,,17,,,,,,,,,,,7/8 Mostly Cloudy,6000.0,,BKN,5900.0,,,,,,
KRDR,08-23-2006,03:00,METAR,,120,8.0,,,9999.0,,21.0,12.0,29.97,1015.7,,,,,,,,,,,,,,,8/8 Overcast,15000.0,,FEW,6400.0,BKN,15000.0,OVC,25000.0,,
KRDR,08-23-2006,02:00,METAR,,110,8.0,,,9999.0,,22.0,11.0,29.97,1015.8,,,,,,,,,,,,,,,8/8 Overcast,15000.0,,FEW,5900.0,BKN,15000.0,OVC,25000.0,,
KRDR,08-23-2006,01:00,METAR,,140,8.0,,,9999.0,,23.0,12.0,30.00,1016.6,,,,,,,,,,,,,,,7/8 Mostly Cloudy,25000.0,,SCT,12000.0,BKN,25000.0,,,,
KRDR,08-23-2006,00:00,METAR,,150,12.0,17.0,,9999.0,,26.0,11.0,30.01,1017.1,,,,,,,,,,,,,,,4/8 Partly Cloudy,72000.0,,FEW,15000.0,SCT,25000.0,,,,
KRDR,08-22-2006,23:00,METAR,,150,11.0,16.0,,9999.0,,27.0,11.0,30.02,1017.5,,,,,,,,,,,,,,,4/8 Partly Cloudy,72000.0,,FEW,15000.0,SCT,25000.0,,,,
KRDR,08-22-2006,22:00,METAR,,160,11.0,19.0,,9999.0,,27.0,11.0,30.05,1018.3,,,,,,,,,,,,,,,Clear,72000.0,,,73000.0,,,,,,
KRDR,08-22-2006,21:00,METAR,,150,16.0,,,9999.0,,27.0,11.0,30.07,1018.5,,,,,,,,,,,,,,,Clear,72000.0,,,73000.0,,,,,,
KRDR,08-22-2006,20:00,METAR,,170,12.0,17.0,,9999.0,,26.0,12.0,30.09,1019.8,,,,,,,,,,,,,,,Clear,72000.0,,,73000.0,,,,,,
KRDR,08-22-2006,19:00,METAR,,170,12.0,,,9999.0,,26.0,12.0,30.11,1020.0,,,,,,,,,,,,,,,Clear,72000.0,,,73000.0,,,,,,
KRDR,08-22-2006,18:00,METAR,,190,12.0,19.0,,9999.0,,25.0,13.0,30.14,1021.2,,,,,,,,,,,,,,,Clear,72000.0,,,73000.0,,,,,,
KRDR,08-22-2006,17:00,METAR,,190,8.0,,,9999.0,,24.0,12.0,30.16,1022.1,,,,,,,,,,,,,,,2/8 Mostly Clear,72000.0,,FEW,25000.0,,,,,,
KRDR,08-22-2006,16:00,METAR,,210,9.0,,,9999.0,,22.0,13.0,30.18,1022.6,,,,,,,,,,,,,,,Clear,72000.0,,,73000.0,,,,,,
KRDR,08-22-2006,15:00,METAR,,160,5.0,,,9999.0,,18.0,12.0,30.19,1023.0,,,,,,,,,,,,,,,Clear,72000.0,,,73000.0,,,,,,
KRDR,08-22-2006,14:00,METAR,,,2.0,,,9999.0,,15.0,11.0,30.20,1023.3,,,,,,,,,,,,,,,Clear,72000.0,,,73000.0,,,,,,
KRDR,08-22-2006,13:00,METAR,,50,3.0,,,9999.0,,12.0,9.0,30.19,1023.0,,,,,,,,,,,,,,,Clear,72000.0,,,73000.0,,,,,,
KRDR,08-22-2006,12:00,METAR,,,0.0,,,9999.0,,8.0,6.0,30.19,1023.0,,,,,,,,,,,,,,,Clear,72000.0,,,73000.0,,,,,,
KRDR,08-22-2006,11:00,METAR,,,0.0,,,9999.0,,8.0,7.0,30.20,1023.2,,,,,,,,,,,,,,,Clear,72000.0,,,73000.0,,,,,,
KRDR,08-22-2006,10:00,METAR,,240,3.0,,,9999.0,,8.0,7.0,30.19,1022.9,,,,,,,,,,,,,,,Clear,72000.0,,,73000.0,,,,,,
KRDR,08-22-2006,09:00,METAR,,,0.0,,,9999.0,,9.0,8.0,30.18,1022.6,,,,,,,,,,,,,,,Clear,72000.0,,,73000.0,,,,,,
KRDR,08-22-2006,08:00,METAR,,,0.0,,,9999.0,,9.0,8.0,30.19,1023.0,,,,,,,,,,,,,,,Clear,72000.0,,,73000.0,,,,,,
KRDR,08-22-2006,07:00,METAR,,320,3.0,,,9999.0,,9.0,8.0,30.20,1023.2,,,,,,,,,,,,,,,Clear,72000.0,,,73000.0,,,,,,
KRDR,08-22-2006,06:55,METAR,,,0.0,,,9999.0,,9.0,8.0,30.20,1023.2,,,,,,,,,,,,,,,Clear,72000.0,,,73000.0,,,,,,
KRDR,08-22-2006,06:00,METAR,,,0.0,,,9999.0,,10.0,8.0,30.20,1023.3,,,,,,,,,,,,,,,Clear,72000.0,,,73000.0,,,,,,
KRDR,08-22-2006,05:00,METAR,,,0.0,,,9999.0,,12.0,10.0,30.20,1023.3,,,,,,,,,,,,,,,Clear,72000.0,,,73000.0,,,,,,
KRDR,08-22-2006,04:00,METAR,,,0.0,,,9999.0,,13.0,11.0,30.20,1023.2,,,,,,,,,,,,,,,Clear,72000.0,,,73000.0,,,,,,
KRDR,08-22-2006,03:00,METAR,,,0.0,,,9999.0,,14.0,11.0,30.19,1022.8,,,,,,,,,,,,,,,2/8 Mostly Clear,72000.0,,FEW,25000.0,,,,,,
KRDR,08-22-2006,02:00,METAR,,60,4.0,,,9999.0,,20.0,9.0,30.16,1022.0,,,,,,,,,,,,,,,2/8 Mostly Clear,72000.0,,FEW,5900.0,FEW,25000.0,,,,
KRDR,08-22-2006,01:00,METAR,,60,4.0,,,9999.0,,23.0,9.0,30.15,1021.6,,,,,,,,,,,,,,,2/8 Mostly Clear,72000.0,,FEW,5900.0,FEW,25000.0,,,,
KRDR,08-22-2006,00:00,METAR,,30,3.0,,,9999.0,,24.0,9.0,30.15,1021.7,,,,,,,,,,,,,,,2/8 Mostly Clear,72000.0,,FEW,5900.0,,,,,,
KRDR,08-21-2006,23:00,METAR,,350,6.0,,,9999.0,,24.0,9.0,30.16,1021.9,,,,,,,,,,,,,,,2/8 Mostly Clear,72000.0,,FEW,5900.0,,,,,,
KRDR,08-21-2006,22:00,METAR,,300,6.0,,,9999.0,,24.0,9.0,30.15,1021.8,,,,,,,,,,,,,,,4/8 Partly Cloudy,72000.0,,SCT,5900.0,,,,,,
KRDR,08-21-2006,21:00,METAR,,340,8.0,,,9999.0,,25.0,10.0,30.17,1022.2,,,,,,,,,,,,,,,4/8 Partly Cloudy,72000.0,,SCT,5900.0,,,,,,
KRDR,08-21-2006,20:00,METAR,,20,10.0,,,9999.0,,24.0,10.0,30.18,1022.6,,,,,,,,,,,,,,,4/8 Partly Cloudy,72000.0,,SCT,5400.0,,,,,,
KRDR,08-21-2006,19:00,METAR,,350,11.0,,,9999.0,,24.0,10.0,30.19,1022.9,,,,,,,,,,,,,,,4/8 Partly Cloudy,72000.0,,SCT,5400.0,,,,,,
KRDR,08-21-2006,18:00,METAR,,350,11.0,,,9999.0,,23.0,11.0,30.19,1023.0,,,,,,,,,,,,,,,4/8 Partly Cloudy,72000.0,,SCT,4500.0,,,,,,
KRDR,08-21-2006,17:00,METAR,,360,8.0,15.0,,9999.0,,22.0,13.0,30.20,1023.3,,,,,,,,,,,,,,,2/8 Mostly Clear,72000.0,,FEW,5000.0,,,,,,
KRDR,08-21-2006,16:00,METAR,,360,7.0,,,9999.0,,20.0,12.0,30.20,1023.2,,,,,,,,,,,,,,,Clear,72000.0,,,73000.0,,,,,,
KRDR,08-21-2006,15:00,METAR,,360,8.0,,,9999.0,,19.0,12.0,30.18,1022.6,,,,,,,,,,,,,,,2/8 Mostly Clear,72000.0,,FEW,5000.0,,,,,,
KRDR,08-21-2006,14:00,METAR,,340,8.0,,,9999.0,,17.0,12.0,30.16,1021.8,,,,,,,,,,,,,,,2/8 Mostly Clear,72000.0,,FEW,5000.0,,,,,,
KRDR,08-21-2006,13:00,METAR,,280,5.0,,,9999.0,,15.0,13.0,30.13,1021.1,,,,,,,,,,,,,,,2/8 Mostly Clear,72000.0,,FEW,5000.0,,,,,,
KRDR,08-21-2006,12:00,METAR,,280,5.0,,,9999.0,,13.0,12.0,30.11,1020.4,,,,,,,,,,,,,,.01 IN,Clear,72000.0,,,73000.0,,,,,,
KRDR,08-21-2006,11:00,METAR,,270,5.0,,,9999.0,,12.0,11.0,30.09,1019.6,,,,,,,,,,,,,,,Clear,72000.0,,,73000.0,,,,,,
KRDR,08-21-2006,10:00,METAR,,280,6.0,,,9999.0,,13.0,12.0,30.06,1018.8,,,,,,,,,,,,,,,Clear,72000.0,,,73000.0,,,,,,
KRDR,08-21-2006,09:00,METAR,,290,5.0,,,9999.0,,14.0,12.0,30.05,1018.4,,,,,,,,,,,,,,,Clear,72000.0,,,73000.0,,,,,,
KRDR,08-21-2006,08:00,METAR,,270,5.0,,,9999.0,,14.0,13.0,30.05,1018.4,,,,,,,,,,,,,,,2/8 Mostly Clear,72000.0,,FEW,20000.0,,,,,,
KRDR,08-21-2006,07:00,METAR,,290,4.0,,,9999.0,,14.0,13.0,30.04,1018.2,,,,,,,,,,,,,,,Clear,72000.0,,,73000.0,,,,,,
KRDR,08-21-2006,06:00,METAR,,220,6.0,,,9999.0,,15.0,13.0,30.05,1018.3,,,,,,,,,,,,,.01 IN,,4/8 Partly Cloudy,72000.0,,SCT,18000.0,,,,,,
KRDR,08-21-2006,05:00,METAR,,180,7.0,,,9999.0,,16.0,14.0,30.03,1017.8,,,,,,,,,,,,,,,7/8 Mostly Cloudy,10000.0,,BKN,9900.0,,,,,,
KRDR,08-21-2006,04:00,METAR,,210,5.0,,,9999.0,,16.0,13.0,30.01,1017.1,,,,,,,,,,,TRACE,,,,4/8 Partly Cloudy,72000.0,,FEW,6900.0,SCT,25000.0,,,,
KRDR,08-21-2006,03:20,METAR,,240,9.0,,,9999.0,,17.0,13.0,30.00,1016.8,,,,,,,,,,,,,,,7/8 Mostly Cloudy,18000.0,,FEW,12000.0,BKN,18000.0,,,,
KRDR,08-21-2006,03:00,METAR,,200,9.0,16.0,,9999.0,Thunderstorm with Rain or Snow/Light Rain Showers,21.0,16.0,29.93,1014.6,,,,95,80,,,,,,.01 IN,.01 IN,,,7/8 Mostly Cloudy,15000.0,,FEW,5000.0,SCT,11000.0,BKN,15000.0,,
KRDR,08-21-2006,02:11,SPECI,,70,7.0,,,9999.0,Thunderstorm with Rain or Snow/Light Rain Showers,23.0,15.0,29.98,1016.1,,,,95,80,,,,,,,,,,7/8 Mostly Cloudy,10000.0,,FEW,800.0,SCT,5000.0,SCT,7400.0,BKN,9900.0
KRDR,08-21-2006,02:06,SPECI,,10,10.0,24.0,,9999.0,Thunderstorm,22.0,14.0,29.98,1016.1,,,,17,,,,,,,,,,,7/8 Mostly Cloudy,8500.0,,FEW,4100.0,BKN,8400.0,,,,
KRDR,08-21-2006,02:00,METAR,,290,6.0,16.0,,9999.0,Thunderstorm,20.0,15.0,29.94,1014.7,,,,17,,,,,,,,,,,7/8 Mostly Cloudy,18000.0,,FEW,5000.0,SCT,7900.0,BKN,18000.0,,
KRDR,08-21-2006,01:41,SPECI,,200,4.0,,,9999.0,Thunderstorm,21.0,15.0,29.93,1014.5,,,,17,,,,,,,,,,,7/8 Mostly Cloudy,16000.0,,FEW,4000.0,SCT,7900.0,BKN,16000.0,,
KRDR,08-21-2006,01:00,METAR,,190,9.0,,,9999.0,,23.0,15.0,29.92,1014.0,,,,,,,,,,,,,,,4/8 Partly Cloudy,72000.0,,FEW,5000.0,SCT,16000.0,SCT,25000.0,,
KRDR,08-21-2006,00:00,METAR,,200,13.0,,,9999.0,,25.0,15.0,29.92,1014.1,,,,,,,,,,,,,TRACE,,4/8 Partly Cloudy,72000.0,,FEW,4000.0,SCT,18000.0,,,,
KRDR,08-20-2006,23:00,METAR,,200,14.0,22.0,,9999.0,,27.0,15.0,29.93,1014.6,,,,,,,,,,,,,,,4/8 Partly Cloudy,72000.0,,FEW,9900.0,SCT,25000.0,,,,
KRDR,08-20-2006,22:00,METAR,,200,12.0,,,9999.0,,26.0,12.0,29.95,1015.0,,,,,,,,,,,,,,,7/8 Mostly Cloudy,25000.0,,FEW,5900.0,SCT,12000.0,BKN,25000.0,,
KRDR,08-20-2006,21:00,METAR,,200,14.0,,,9999.0,,27.0,14.0,29.97,1015.7,,,,,,,,,,,TRACE,TRACE,,,8/8 Overcast,25000.0,,FEW,5900.0,SCT,11000.0,OVC,25000.0,,
KRDR,08-20-2006,20:45,METAR,,200,16.0,,,9999.0,,26.0,14.0,29.97,,,,,,,,,,,,,,,,8/8 Overcast,25000.0,,FEW,5900.0,SCT,11000.0,OVC,25000.0,,
KRDR,08-20-2006,20:42,SPECI,,200,14.0,,,9999.0,Rain,26.0,14.0,29.97,,,,,61,,,,,,,,,,,8/8 Overcast,10000.0,,FEW,5900.0,BKN,9900.0,OVC,25000.0,,
KRDR,08-20-2006,20:34,SPECI,,200,14.0,21.0,,9999.0,,26.0,14.0,29.97,1015.8,,,,,,,,,,,,,,,,10000.0,,BKN,9900.0,OVC,25000.0,,,,
KRDR,08-20-2006,20:25,METAR,,200,16.0,,,9999.0,,27.0,14.0,29.97,,,,,,,,,,,,,,,,8/8 Overcast,10000.0,,FEW,5900.0,BKN,9900.0,OVC,25000.0,,
KRDR,08-20-2006,20:00,METAR,,190,15.0,,,9999.0,,26.0,13.0,29.98,1016.0,,,,,,,,,,,,,,,7/8 Mostly Cloudy,10000.0,,FEW,5900.0,BKN,9900.0,BKN,25000.0,,
KRDR,08-20-2006,19:00,METAR,,200,14.0,20.0,140/70KTS,9999.0,,27.0,13.0,29.97,1015.9,,,,,,,,,,,,,,,7/8 Mostly Cloudy,25000.0,,FEW,5900.0,SCT,12000.0,BKN,25000.0,,
KRDR,08-20-2006,18:00,METAR,,220,18.0,,,9999.0,,28.0,13.0,30.00,1016.6,,,,,,,,,,,,,,,7/8 Mostly Cloudy,25000.0,,FEW,6900.0,SCT,12000.0,BKN,25000.0,,
KRDR,08-20-2006,17:00,METAR,,200,14.0,,,9999.0,,27.0,12.0,30.01,1017.0,,,,,,,,,,,,,,,4/8 Partly Cloudy,72000.0,,FEW,6900.0,SCT,25000.0,,,,
KRDR,08-20-2006,16:00,METAR,,190,12.0,,,9999.0,,25.0,13.0,30.01,1017.1,,,,,,,,,,,,,,,2/8 Mostly Clear,72000.0,,FEW,9900.0,FEW,25000.0,,,,
KRDR,08-20-2006,15:00,METAR,,220,12.0,,,9999.0,,22.0,14.0,30.02,1017.3,,,,,,,,,,,,,,,2/8 Mostly Clear,72000.0,,FEW,9900.0,FEW,25000.0,,,,
KRDR,08-20-2006,14:00,METAR,,200,11.0,,,9999.0,,20.0,13.0,30.02,1017.4,,,,,,,,,,,,,,,2/8 Mostly Clear,72000.0,,FEW,9900.0,FEW,25000.0,,,,
KRDR,08-20-2006,13:00,METAR,,200,8.0,,,9999.0,,17.0,12.0,30.03,1017.8,,,,,,,,,,,,,,,2/8 Mostly Clear,72000.0,,FEW,9900.0,FEW,25000.0,,,,
KRDR,08-20-2006,12:00,METAR,,200,6.0,,,9999.0,,15.0,12.0,30.04,1018.1,,,,,,,,,,,,,,,2/8 Mostly Clear,72000.0,,FEW,9900.0,FEW,25000.0,,,,
KRDR,08-20-2006,11:00,METAR,,210,6.0,,,9999.0,,16.0,12.0,30.04,1018.1,,,,,,,,,,,,,,,4/8 Partly Cloudy,72000.0,,FEW,9900.0,SCT,25000.0,,,,
KRDR,08-20-2006,10:00,METAR,,200,6.0,,,9999.0,,15.0,11.0,30.04,1018.2,,,,,,,,,,,,,,,Clear,72000.0,,,73000.0,,,,,,
KRDR,08-20-2006,09:00,METAR,,190,6.0,,,9999.0,,14.0,12.0,30.05,1018.3,,,,,,,,,,,,,,,Clear,72000.0,,,73000.0,,,,,,
KRDR,08-20-2006,08:00,METAR,,210,6.0,,,9999.0,,16.0,12.0,30.05,1018.5,,,,,,,,,,,,,,,Clear,72000.0,,,73000.0,,,,,,
KRDR,08-20-2006,07:00,METAR,,200,7.0,,,9999.0,,17.0,13.0,30.06,1018.7,,,,,,,,,,,,,,,Clear,72000.0,,,73000.0,,,,,,
KRDR,08-20-2006,06:00,METAR,,200,6.0,,,9999.0,,16.0,13.0,30.07,1019.0,,,,,,,,,,,,,,,Clear,72000.0,,,73000.0,,,,,,
KRDR,08-20-2006,05:00,METAR,,200,4.0,,,9999.0,,16.0,13.0,30.07,1019.1,,,,,,,,,,,,,,,Clear,72000.0,,,73000.0,,,,,,
KRDR,08-20-2006,04:00,METAR,,190,7.0,,,9999.0,,17.0,13.0,30.07,1018.9,,,,,,,,,,,,,,,Clear,72000.0,,,73000.0,,,,,,
KRDR,08-20-2006,03:00,METAR,,180,7.0,,,9999.0,,19.0,13.0,30.07,1018.9,,,,,,,,,,,,,,,Clear,72000.0,,,73000.0,,,,,,
KRDR,08-20-2006,02:00,METAR,,190,4.0,,,9999.0,,21.0,13.0,30.06,1018.8,,,,,,,,,,,,,,,2/8 Mostly Clear,72000.0,,FEW,6400.0,FEW,20000.0,,,,
KRDR,08-20-2006,01:00,METAR,,210,3.0,,,9999.0,,25.0,13.0,30.06,1018.8,,,,,,,,,,,,,,,4/8 Partly Cloudy,72000.0,,SCT,6400.0,,,,,,
KRDR,08-20-2006,00:00,METAR,,240,4.0,,,9999.0,,26.0,9.0,30.07,1019.2,,,,,,,,,,,TRACE,,TRACE,,4/8 Partly Cloudy,72000.0,,SCT,6400.0,,,,,,
KRDR,08-19-2006,23:00,METAR,,250,4.0,,,9999.0,,25.0,10.0,30.08,1018.9,,,,,,,,,,,,,,,2/8 Mostly Clear,72000.0,,FEW,7400.0,,,,,,
KRDR,08-19-2006,22:00,METAR,,250,3.0,,,9999.0,,26.0,9.0,30.10,1020.0,,,,,,,,,,,,,,,2/8 Mostly Clear,72000.0,,FEW,7400.0,,,,,,
KRDR,08-19-2006,21:00,METAR,,290,4.0,,,9999.0,,26.0,10.0,30.12,1020.2,,,,,,,,,,,,,,,4/8 Partly Cloudy,72000.0,,SCT,6900.0,,,,,,
KRDR,08-19-2006,20:00,METAR,,,5.0,,,9999.0,,26.0,9.0,30.13,1021.1,,,,,,,,,,,,,,,4/8 Partly Cloudy,72000.0,,SCT,6900.0,,,,,,
KRDR,08-19-2006,19:00,METAR,,,5.0,,,9999.0,,25.0,10.0,30.15,1021.6,,,,,,,,,,,,,,,4/8 Partly Cloudy,72000.0,,SCT,4000.0,,,,,,
KRDR,08-19-2006,18:00,METAR,,210,5.0,,,9999.0,,25.0,11.0,30.16,1021.5,,,,,,,,,,,,,,,4/8 Partly Cloudy,72000.0,,SCT,4000.0,,,,,,
KRDR,08-19-2006,17:00,METAR,,280,6.0,,,9999.0,,24.0,11.0,30.18,1022.1,,,,,,,,,,,,,,,Clear,72000.0,,,73000.0,,,,,,
KRDR,08-19-2006,16:00,METAR,,,2.0,,,9999.0,,22.0,11.0,30.18,1022.3,,,,,,,,,,,,,,,Clear,72000.0,,,73000.0,,,,,,
KRDR,08-19-2006,15:00,METAR,,320,3.0,,,9999.0,,20.0,13.0,30.18,1022.3,,,,,,,,,,,,,,,Clear,72000.0,,,73000.0,,,,,,
KRDR,08-19-2006,14:00,METAR,,,0.0,,,9999.0,,17.0,12.0,30.19,1022.9,,,,,,,,,,,,,,,Clear,72000.0,,,73000.0,,,,,,
KRDR,08-19-2006,13:00,METAR,,310,3.0,,,9999.0,,13.0,11.0,30.18,1022.7,,,,,,,,,,,,,,,2/8 Mostly Clear,72000.0,,FEW,11000.0,,,,,,
KRDR,08-19-2006,12:00,METAR,,290,4.0,,,9999.0,,10.0,8.0,30.18,1022.6,,,,,,,,,,,,,,,Clear,72000.0,,,73000.0,,,,,,
KRDR,08-19-2006,11:00,METAR,,290,3.0,,,9999.0,,10.0,9.0,30.17,1022.4,,,,,,,,,,,,,,,Clear,72000.0,,,73000.0,,,,,,
KRDR,08-19-2006,10:00,METAR,,290,5.0,,,9999.0,,11.0,9.0,30.16,1022.1,,,,,,,,,,,,,,,Clear,72000.0,,,73000.0,,,,,,
KRDR,08-19-2006,09:00,METAR,,310,4.0,,,9999.0,,12.0,10.0,30.15,1021.8,,,,,,,,,,,,,,,2/8 Mostly Clear,72000.0,,FEW,11000.0,,,,,,
KRDR,08-19-2006,08:00,METAR,,300,5.0,,,9999.0,,13.0,11.0,30.15,1021.7,,,,,,,,,,,,,,,4/8 Partly Cloudy,72000.0,,SCT,11000.0,,,,,,
KRDR,08-19-2006,07:00,METAR,,300,4.0,,,9999.0,,13.0,12.0,30.15,1021.8,,,,,,,,,,,,,,,4/8 Partly Cloudy,72000.0,,FEW,5900.0,SCT,11000.0,,,,
KRDR,08-19-2006,06:00,METAR,,310,4.0,,,9999.0,,14.0,12.0,30.16,1021.9,,,,,,,,,,,,,,,7/8 Mostly Cloudy,10000.0,,BKN,9900.0,,,,,,
KRDR,08-19-2006,05:00,METAR,,340,6.0,,,9999.0,,16.0,14.0,30.15,1021.5,,,,,,,,,,,,,,,7/8 Mostly Cloudy,25000.0,,FEW,12000.0,BKN,25000.0,,,,
KRDR,08-19-2006,04:00,METAR,,310,6.0,,,9999.0,,15.0,13.0,30.16,1021.9,,,,,,,,,,,,,,,7/8 Mostly Cloudy,12000.0,,BKN,12000.0,BKN,25000.0,,,,
KRDR,08-19-2006,03:00,METAR,,250,6.0,,,9999.0,,15.0,13.0,30.16,1021.9,,,,,,,,,,,,,,,4/8 Partly Cloudy,72000.0,,SCT,12000.0,SCT,25000.0,,,,
KRDR,08-19-2006,02:00,METAR,,200,4.0,,,9999.0,,18.0,14.0,30.14,1021.4,,,,,,,,,,,,,,,7/8 Mostly Cloudy,25000.0,,SCT,12000.0,BKN,25000.0,,,,
KRDR,08-19-2006,01:00,METAR,,220,4.0,,,9999.0,,20.0,15.0,30.14,1021.5,,,,,,,,,,,,,,,7/8 Mostly Cloudy,25000.0,,SCT,12000.0,BKN,25000.0,,,,
KRDR,08-19-2006,00:00,METAR,,220,4.0,,,9999.0,,22.0,13.0,30.14,1021.2,,,,,,,,,,,TRACE,,TRACE,,7/8 Mostly Cloudy,25000.0,,FEW,3500.0,SCT,12000.0,BKN,25000.0,,
KRDR,08-18-2006,23:05,SPECI,,240,4.0,,,9999.0,,21.0,14.0,30.16,1021.9,,,,,,,,,,,,,,,8/8 Overcast,12000.0,,OVC,12000.0,,,,,,
KRDR,08-18-2006,23:00,METAR,,290,3.0,,,9999.0,,20.0,14.0,30.16,1022.1,,,,,,,,,,,TRACE,,,,7/8 Mostly Cloudy,12000.0,,FEW,3500.0,BKN,12000.0,BKN,25000.0,,
KRDR,08-18-2006,22:46,SPECI,,290,3.0,,,9999.0,,20.0,13.0,30.16,1021.9,,,,,,,,,,,,,,,4/8 Partly Cloudy,72000.0,,SCT,12000.0,,,,,,
KRDR,08-18-2006,22:43,SPECI,,280,3.0,,,9999.0,,20.0,13.0,30.16,,,,,,,,,,,,,,,,7/8 Mostly Cloudy,25000.0,,FEW,3500.0,SCT,11000.0,BKN,25000.0,,
KRDR,08-18-2006,22:35,SPECI,,270,3.0,,,9999.0,Light Rain Showers,20.0,14.0,30.16,,,,,80,,,,,,,,,,,7/8 Mostly Cloudy,11000.0,,FEW,3500.0,BKN,11000.0,BKN,25000.0,,
KRDR,08-18-2006,22:00,METAR,,320,5.0,,,9999.0,,21.0,14.0,30.16,1022.1,,,,,,,,,,,,,,,8/8 Overcast,11000.0,,FEW,3500.0,BKN,11000.0,OVC,25000.0,,
KRDR,08-18-2006,21:00,METAR,,280,4.0,,,9999.0,,22.0,13.0,30.17,1022.2,,,,,,,,,,,,,,,8/8 Overcast,11000.0,,FEW,3600.0,BKN,11000.0,OVC,25000.0,,
KRDR,08-18-2006,20:00,METAR,,,0.0,,,9999.0,,21.0,12.0,30.16,1022.0,,,,,,,,,,,,,,,7/8 Mostly Cloudy,11000.0,,FEW,3600.0,BKN,11000.0,BKN,25000.0,,
KRDR,08-18-2006,19:00,METAR,,,0.0,,,9999.0,,21.0,12.0,30.18,1022.5,,,,,,,,,,,,,,,7/8 Mostly Cloudy,11000.0,,FEW,3600.0,BKN,11000.0,BKN,25000.0,,
KRDR,08-18-2006,18:00,METAR,,,0.0,,,9999.0,,21.0,13.0,30.17,1022.3,,,,,,,,,,,,,.08 IN,,7/8 Mostly Cloudy,11000.0,,BKN,11000.0,BKN,25000.0,,,,
KRDR,08-18-2006,17:00,METAR,,230,2.0,,,9999.0,,19.0,13.0,30.18,1022.6,,,,,,,,,,,,,,,7/8 Mostly Cloudy,25000.0,,SCT,11000.0,BKN,25000.0,,,,
KRDR,08-18-2006,16:00,METAR,,,0.0,,,9999.0,,18.0,14.0,30.17,1022.4,,,,,,,,,,,.01 IN,,,,8/8 Overcast,10000.0,,FEW,3500.0,SCT,8400.0,OVC,9900.0,,
KRDR,08-18-2006,15:00,METAR,,240,3.0,,,9999.0,Rain,17.0,14.0,30.16,1022.1,,,,61,,,,,,,.04 IN,.07 IN,,,8/8 Overcast,4900.0,,SCT,3400.0,BKN,5000.0,OVC,9900.0,,
KRDR,08-18-2006,14:00,METAR,,150,3.0,,,9999.0,Rain,17.0,15.0,30.12,1020.6,,,,61,,,,,,,.03 IN,,,,8/8 Overcast,4900.0,,FEW,2500.0,BKN,5000.0,OVC,9900.0,,
KRDR,08-18-2006,13:00,METAR,,300,5.0,,,9999.0,Rain,16.0,14.0,30.13,1021.2,,,,61,,,,,,,TRACE,,,,8/8 Overcast,10000.0,,SCT,5900.0,OVC,9900.0,,,,
KRDR,08-18-2006,12:00,METAR,,310,7.0,,,9999.0,Drizzle,16.0,13.0,30.13,1021.1,,,,51,,,,,,,.01 IN,,.01 IN,.01 IN,8/8 Overcast,9000.0,,SCT,5000.0,BKN,8900.0,OVC,12000.0,,
KRDR,08-18-2006,11:53,SPECI,,310,7.0,,,9999.0,,16.0,13.0,30.13,1021.1,,,,,,,,,,,,,,,2/8 Mostly Clear,72000.0,,FEW,9900.0,,,,,,
KRDR,08-18-2006,11:35,SPECI,,310,8.0,,,9999.0,,16.0,13.0,30.13,1021.2,,,,,,,,,,,,,,,8/8 Overcast,10000.0,,FEW,5000.0,BKN,9900.0,OVC,25000.0,,
KRDR,08-18-2006,11:06,SPECI,,310,5.0,,,9999.0,Drizzle,16.0,13.0,30.13,1021.0,,,,51,,,,,,,,,,,8/8 Overcast,11000.0,,FEW,5000.0,BKN,11000.0,OVC,25000.0,,
KRDR,08-18-2006,11:04,SPECI,,300,5.0,,,9999.0,,16.0,13.0,30.13,1021.0,,,,,,,,,,,,,,,8/8 Overcast,11000.0,,FEW,5000.0,BKN,11000.0,OVC,25000.0,,
KRDR,08-18-2006,11:00,METAR,,310,6.0,,,9999.0,Drizzle,16.0,13.0,30.12,1020.7,,,,51,,,,,,,TRACE,,,,8/8 Overcast,11000.0,,FEW,5900.0,BKN,11000.0,OVC,25000.0,,
KRDR,08-18-2006,10:42,SPECI,,320,5.0,,,9999.0,,16.0,13.0,30.12,1020.7,,,,,,,,,,,,,,,8/8 Overcast,25000.0,,FEW,5900.0,SCT,11000.0,OVC,25000.0,,
KRDR,08-18-2006,10:00,METAR,,330,7.0,,,9999.0,Rain,17.0,13.0,30.11,1020.5,,,,61,,,,,,,TRACE,,,,8/8 Overcast,10000.0,,BKN,9900.0,OVC,25000.0,,,,
KRDR,08-18-2006,09:30,METAR,,340,7.0,,,9999.0,,17.0,13.0,30.11,1020.5,,,,,,,,,,,,,,,8/8 Overcast,11000.0,,BKN,11000.0,OVC,25000.0,,,,
KRDR,08-18-2006,09:04,SPECI,,340,6.0,,,9999.0,,17.0,13.0,30.11,1020.5,,,,,,,,,,,,,,,8/8 Overcast,25000.0,,SCT,11000.0,OVC,25000.0,,,,
KRDR,08-18-2006,09:00,METAR,,340,9.0,,,9999.0,,17.0,13.0,30.11,1020.5,,,,,,,,,,,TRACE,TRACE,,,8/8 Overcast,25000.0,,SCT,11000.0,OVC,25000.0,,,,
KRDR,08-18-2006,08:42,SPECI,,330,10.0,,,9999.0,Drizzle,17.0,14.0,30.12,1020.6,,,,51,,,,,,,,,,,7/8 Mostly Cloudy,10000.0,,BKN,9900.0,,,,,,
KRDR,08-18-2006,08:34,SPECI,,330,10.0,,,9999.0,,17.0,14.0,30.12,1020.6,,,,,,,,,,,,,,,8/8 Overcast,25000.0,,SCT,9900.0,OVC,25000.0,,,,
KRDR,08-18-2006,08:19,SPECI,,340,7.0,,,9999.0,Drizzle,17.0,14.0,30.11,1020.4,,,,51,,,,,,,,,,,8/8 Overcast,11000.0,,BKN,11000.0,OVC,25000.0,,,,
KRDR,08-18-2006,08:18,SPECI,,310,6.0,,,9999.0,,17.0,14.0,30.12,,,,,,,,,,,,,,,,8/8 Overcast,11000.0,,BKN,11000.0,OVC,25000.0,,,,
KRDR,08-18-2006,08:05,SPECI,,310,6.0,,,9999.0,,17.0,14.0,30.12,,,,,,,,,,,,,,,,8/8 Overcast,11000.0,,BKN,11000.0,OVC,25000.0,,,,
KRDR,08-18-2006,08:00,METAR,,310,6.0,,,9999.0,Drizzle,17.0,15.0,30.12,1020.6,,,,51,,,,,,,TRACE,,,,8/8 Overcast,25000.0,,FEW,9900.0,SCT,12000.0,OVC,25000.0,,
KRDR,08-18-2006,07:48,SPECI,,310,6.0,,,9999.0,Drizzle,17.0,14.0,30.12,1020.6,,,,51,,,,,,,,,,,8/8 Overcast,25000.0,,FEW,9900.0,SCT,12000.0,OVC,25000.0,,
KRDR,08-18-2006,07:00,METAR,,300,5.0,,,9999.0,,15.0,14.0,30.10,1020.1,,,,,,,,,,,,,,,7/8 Mostly Cloudy,25000.0,,SCT,12000.0,BKN,25000.0,,,,
KRDR,08-18-2006,06:00,METAR,,220,2.0,,,9999.0,,16.0,15.0,30.10,1019.9,,,,,,,,,,,,,TRACE,,7/8 Mostly Cloudy,12000.0,,BKN,12000.0,BKN,25000.0,,,,
KRDR,08-18-2006,05:00,METAR,,290,6.0,,,9999.0,,15.0,14.0,30.08,1019.5,,,,,,,,,,,,,,,7/8 Mostly Cloudy,12000.0,,BKN,12000.0,BKN,25000.0,,,,
KRDR,08-18-2006,04:00,METAR,,280,3.0,,,9999.0,,17.0,15.0,30.06,1018.8,,,,,,,,,,,,,,,7/8 Mostly Cloudy,12000.0,,BKN,12000.0,BKN,25000.0,,,,
KRDR,08-18-2006,03:00,METAR,,300,5.0,,,9999.0,,17.0,16.0,30.06,1018.7,,,,,,,,,,,,TRACE,,,7/8 Mostly Cloudy,12000.0,,BKN,12000.0,BKN,25000.0,,,,
KRDR,08-18-2006,02:00,METAR,,300,3.0,,,9999.0,,19.0,17.0,30.03,1017.6,,,,,,,,,,,TRACE,,,,7/8 Mostly Cloudy,12000.0,,FEW,5000.0,BKN,12000.0,BKN,25000.0,,
KRDR,08-18-2006,01:38,SPECI,,320,4.0,,,9999.0,,20.0,17.0,30.03,,,,,,,,,,,,,,,,7/8 Mostly Cloudy,12000.0,,FEW,5000.0,BKN,12000.0,BKN,25000.0,,
KRDR,08-18-2006,01:20,METAR,,360,4.0,,,9999.0,Drizzle,20.0,17.0,30.02,,,,,51,,,,,,,,,,,7/8 Mostly Cloudy,12000.0,,FEW,5000.0,BKN,12000.0,BKN,25000.0,,
KRDR,08-18-2006,01:00,METAR,,320,8.0,,,9999.0,,20.0,17.0,30.04,1018.1,,,,,,,,,,,TRACE,,,,7/8 Mostly Cloudy,12000.0,,FEW,5000.0,BKN,12000.0,BKN,25000.0,,
KRDR,08-18-2006,00:14,SPECI,,350,8.0,,,9999.0,,21.0,18.0,30.02,,,,,,,,,,,,,,,,7/8 Mostly Cloudy,11000.0,,SCT,5000.0,BKN,11000.0,,,,
KRDR,08-18-2006,00:04,SPECI,,330,9.0,,,9999.0,Drizzle,21.0,18.0,30.02,,,,,51,,,,,,,,,,,7/8 Mostly Cloudy,12000.0,,SCT,5000.0,BKN,12000.0,,,,
KRDR,08-18-2006,00:00,METAR,,340,9.0,,,9999.0,,21.0,18.0,30.02,,,,,,,,,,,,,,,,7/8 Mostly Cloudy,11000.0,,FEW,2000.0,SCT,5000.0,BKN,11000.0,,
KRDR,08-17-2006,23:38,SPECI,,300,7.0,,,9999.0,Drizzle,21.0,18.0,30.02,,,,,51,,,,,,,,,,,7/8 Mostly Cloudy,11000.0,,FEW,2000.0,SCT,4000.0,BKN,11000.0,,
KRDR,08-17-2006,23:31,SPECI,,350,6.0,,,9999.0,,21.0,18.0,30.00,1016.7,,,,,,,,,,,,,,,7/8 Mostly Cloudy,12000.0,,FEW,2000.0,SCT,4000.0,BKN,12000.0,,
KRDR,08-17-2006,23:20,METAR,,340,3.0,,,9999.0,Rain,22.0,18.0,30.00,1016.9,,,,61,,,,,,,,,,,7/8 Mostly Cloudy,12000.0,,FEW,2000.0,SCT,4000.0,BKN,12000.0,,
KRDR,08-17-2006,23:00,METAR,,360,6.0,,,9999.0,Precipitation in the Vicinity,22.0,18.0,30.00,1016.9,,,,16,,,,,,,TRACE,,,,7/8 Mostly Cloudy,13000.0,,FEW,2000.0,SCT,4000.0,BKN,13000.0,BKN,25000.0
KRDR,08-17-2006,22:38,SPECI,,20,7.0,,,9999.0,,22.0,18.0,30.00,1016.6,,,,,,,,,,,,,,,7/8 Mostly Cloudy,12000.0,,FEW,2000.0,SCT,4000.0,BKN,12000.0,BKN,25000.0
KRDR,08-17-2006,22:27,SPECI,,350,9.0,,,9999.0,Rain,22.0,18.0,30.02,,,,,61,,,,,,,,,,,7/8 Mostly Cloudy,12000.0,,FEW,2000.0,SCT,4000.0,BKN,12000.0,BKN,25000.0
KRDR,08-17-2006,22:00,METAR,,350,8.0,,,9999.0,,23.0,18.0,30.01,1017.1,,,,,,,,,,,,,,,8/8 Overcast,12000.0,,FEW,1900.0,SCT,4000.0,BKN,12000.0,OVC,25000.0
KRDR,08-17-2006,21:48,SPECI,,340,9.0,,,9999.0,,23.0,18.0,30.01,,,,,,,,,,,,,,,,8/8 Overcast,12000.0,,FEW,1900.0,SCT,4100.0,BKN,12000.0,OVC,25000.0
KRDR,08-17-2006,21:31,SPECI,,340,11.0,,,9999.0,Rain,22.0,18.0,30.01,,,,,61,,,,,,,,,,,8/8 Overcast,3300.0,,BKN,3400.0,BKN,12000.0,OVC,25000.0,,
KRDR,08-17-2006,21:00,METAR,,10,10.0,,,9999.0,,23.0,19.0,29.98,1016.1,,,,,,,,,,,TRACE,TRACE,,,7/8 Mostly Cloudy,12000.0,,SCT,2100.0,BKN,12000.0,,,,
KRDR,08-17-2006,20:43,SPECI,,360,10.0,,,9999.0,,23.0,19.0,29.99,1016.3,,,,,,,,,,,,,,,7/8 Mostly Cloudy,12000.0,,SCT,2700.0,BKN,12000.0,,,,
KRDR,08-17-2006,20:29,SPECI,,350,6.0,,,9999.0,Fog or Ice Fog,24.0,19.0,29.99,1016.3,,,,40,,,,,,,,,,,2/8 Mostly Clear,72000.0,,FEW,5900.0,,,,,,
KRDR,08-17-2006,20:00,METAR,,350,6.0,,,9999.0,,25.0,19.0,29.98,1016.0,,,,,,,,,,,,,,,4/8 Partly Cloudy,72000.0,,SCT,2500.0,,,,,,
KRDR,08-17-2006,19:43,SPECI,,10,7.0,,,9999.0,,24.0,19.0,29.97,,,,,,,,,,,,,,,,4/8 Partly Cloudy,72000.0,,SCT,2600.0,,,,,,
KRDR,08-17-2006,19:12,SPECI,,340,10.0,,,9999.0,,24.0,19.0,29.98,1016.2,,,,,,,,,,,,,,,7/8 Mostly Cloudy,2100.0,,BKN,2100.0,,,,,,
KRDR,08-17-2006,19:00,METAR,,350,8.0,,,9999.0,,24.0,19.0,29.97,1015.8,,,,,,,,,,,,,,,4/8 Partly Cloudy,72000.0,,SCT,2000.0,,,,,,
KRDR,08-17-2006,18:00,METAR,,330,6.0,,,9999.0,,23.0,19.0,29.99,1016.4,,,,,,,,,,,,,TRACE,,7/8 Mostly Cloudy,1500.0,,BKN,1500.0,,,,,,
KRDR,08-17-2006,17:44,SPECI,,350,5.0,,,9999.0,,21.0,19.0,30.00,1016.6,,,,,,,,,,,,,,,7/8 Mostly Cloudy,20000.0,,SCT,1400.0,BKN,20000.0,,,,
KRDR,08-17-2006,17:13,SPECI,,350,5.0,,,9999.0,,21.0,19.0,30.00,1016.6,,,,,,,,,,,,,,,7/8 Mostly Cloudy,1100.0,,BKN,1100.0,,,,,,
KRDR,08-17-2006,17:01,SPECI,,340,7.0,,,9999.0,,20.0,19.0,30.00,1016.7,,,,,,,,,,,,,,,8/8 Overcast,400.0,,OVC,900.0,,,,,,
KRDR,08-17-2006,17:00,METAR,,350,7.0,,,9999.0,,20.0,19.0,29.99,1016.4,,,,,,,,,,,TRACE,,,,8/8 Overcast,800.0,,OVC,800.0,,,,,,
KRDR,08-17-2006,16:25,METAR,,330,9.0,,,9999.0,,20.0,19.0,30.00,,,,,,,,,,,,,,,,8/8 Overcast,700.0,,OVC,700.0,,,,,,
KRDR,08-17-2006,16:01,SPECI,,360,8.0,,,9999.0,,20.0,19.0,29.99,,,,,,,,,,,,,,,,8/8 Overcast,500.0,,OVC,500.0,,,,,,
KRDR,08-17-2006,16:00,METAR,,330,6.0,,,8000.0,Drizzle,19.0,19.0,30.00,1016.8,,,,51,,,,,,,,,,,8/8 Overcast,500.0,,OVC,500.0,,,,,,
KRDR,08-17-2006,15:46,SPECI,,330,7.0,,,4800.0,Drizzle,19.0,19.0,30.01,1017.0,,,,51,,,,,,,,,,,8/8 Overcast,500.0,,OVC,500.0,,,,,,
KRDR,08-17-2006,15:35,SPECI,,340,8.0,,,4800.0,Drizzle/Mist,19.0,19.0,30.00,,,,,51,10,,,,,,,,,,8/8 Overcast,300.0,,OVC,300.0,,,,,,
KRDR,08-17-2006,15:00,METAR,,10,7.0,,,4000.0,Mist,19.0,19.0,29.96,1015.3,,,,10,,,,,,,,TRACE,,,8/8 Overcast,200.0,,OVC,200.0,,,,,,
KRDR,08-17-2006,14:32,SPECI,,20,9.0,,,3200.0,,19.0,19.0,29.95,,,,,,,,,,,,,,,,8/8 Overcast,200.0,,OVC,200.0,,,,,,
KRDR,08-17-2006,14:03,SPECI,,350,8.0,,,3200.0,Drizzle/Mist,18.0,18.0,29.95,,,,,51,10,,,,,,,,,,8/8 Overcast,200.0,,OVC,200.0,,,,,,
KRDR,08-17-2006,14:00,METAR,,340,8.0,,,3200.0,Mist,18.0,18.0,29.94,1014.9,,,,10,,,,,,,,,,,8/8 Overcast,200.0,,OVC,200.0,,,,,,
KRDR,08-17-2006,13:18,SPECI,,350,7.0,,,2800.0,Drizzle/Mist,19.0,18.0,29.93,,,,,51,10,,,,,,,,,,8/8 Overcast,200.0,,OVC,200.0,,,,,,
KRDR,08-17-2006,13:00,METAR,,360,8.0,,,2800.0,,19.0,19.0,29.91,1014.0,,,,,,,,,,,,,,,8/8 Overcast,200.0,,OVC,200.0,,,,,,
KRDR,08-17-2006,12:13,SPECI,,340,6.0,,,2400.0,Mist,18.0,18.0,29.90,,,,,10,,,,,,,,,,,8/8 Overcast,200.0,,OVC,200.0,,,,,,
KRDR,08-17-2006,12:09,SPECI,,340,5.0,,,1600.0,Mist,18.0,18.0,29.90,,,,,10,,,,,,,,,,,8/8 Overcast,200.0,,OVC,200.0,,,,,,
KRDR,08-17-2006,12:00,METAR,,320,7.0,,,800.0,Fog or Ice Fog,17.0,17.0,29.90,1013.5,,,,44,,,,,,,,,,.67 IN,7/8 Mostly Cloudy,300.0,,BKN,300.0,,,,,,
KRDR,08-17-2006,11:45,METAR,,330,7.0,,,800.0,Mist,17.0,17.0,29.90,,,,,10,,,,,,,,,,,4/8 Partly Cloudy,72000.0,,SCT,400.0,,,,,,
KRDR,08-17-2006,11:38,SPECI,,320,3.0,,,1200.0,Mist,17.0,17.0,29.89,,,,,10,,,,,,,,,,,4/8 Partly Cloudy,72000.0,,FEW,900.0,SCT,2000.0,,,,
KRDR,08-17-2006,11:05,SPECI,,,0.0,,,1600.0,Mist,17.0,17.0,29.88,,,,,10,,,,,,,,,,,2/8 Mostly Clear,72000.0,,FEW,2000.0,,,,,,
KRDR,08-17-2006,11:02,SPECI,,190,3.0,,,2800.0,Shallow Fog or Ice Fog/Mist,17.0,17.0,29.87,,,,,10,12,,,,,,,,,,Clear,72000.0,,,73000.0,,,,,,
KRDR,08-17-2006,11:00,METAR,,210,3.0,,,6400.0,Shallow Fog or Ice Fog/Mist,18.0,17.0,29.87,1012.5,,,,10,12,,,,,,,,,,2/8 Mostly Clear,72000.0,,FEW,2000.0,,,,,,
KRDR,08-17-2006,10:01,SPECI,,180,5.0,,,9999.0,,19.0,18.0,29.88,,,,,,,,,,,,,,,,4/8 Partly Cloudy,72000.0,,FEW,2200.0,SCT,25000.0,,,,
KRDR,08-17-2006,10:00,METAR,,180,6.0,,,9999.0,,19.0,19.0,29.88,1012.7,,,,,,,,,,,,,,,7/8 Mostly Cloudy,2200.0,,BKN,2200.0,,,,,,
KRDR,08-17-2006,09:00,METAR,,160,7.0,,,9999.0,,20.0,19.0,29.87,1012.5,,,,,,,,,,,,,,,7/8 Mostly Cloudy,2400.0,,BKN,2400.0,,,,,,
KRDR,08-17-2006,08:31,SPECI,,160,7.0,,,9999.0,,21.0,19.0,29.87,1012.4,,,,,,,,,,,,,,,4/8 Partly Cloudy,72000.0,,SCT,1900.0,,,,,,
KRDR,08-17-2006,08:00,METAR,,150,5.0,,,9999.0,,21.0,19.0,29.87,1012.4,,,,,,,,,,,,,,,7/8 Mostly Cloudy,2700.0,,BKN,2700.0,,,,,,
KRDR,08-17-2006,07:00,METAR,,130,7.0,,,9999.0,,21.0,19.0,29.88,1012.7,,,,,,,,,,,,,,,8/8 Overcast,3000.0,,OVC,3000.0,,,,,,
KRDR,08-17-2006,06:37,SPECI,,130,7.0,,,9999.0,,21.0,19.0,29.88,1012.7,,,,,,,,,,,,,,,7/8 Mostly Cloudy,2900.0,,BKN,2900.0,,,,,,
KRDR,08-17-2006,06:00,METAR,,120,6.0,,,9999.0,,21.0,19.0,29.88,1012.8,,,,,,,,,,,,,.67 IN,,8/8 Overcast,3800.0,,OVC,3900.0,,,,,,
KRDR,08-17-2006,05:00,METAR,,90,5.0,,,9999.0,,21.0,20.0,29.87,1012.5,,,,,,,,,,,,,,,8/8 Overcast,25000.0,,SCT,5900.0,OVC,25000.0,,,,
KRDR,08-17-2006,04:00,METAR,,50,6.0,,,9999.0,,22.0,20.0,29.85,1011.7,,,,,,,,,,,,,,,8/8 Overcast,7000.0,,FEW,3000.0,BKN,6900.0,OVC,25000.0,,
KRDR,08-17-2006,03:00,METAR,,90,5.0,,,9999.0,,23.0,21.0,29.84,1011.3,,,,,,,,,,,,.67 IN,,,7/8 Mostly Cloudy,7500.0,,FEW,5000.0,BKN,7400.0,BKN,25000.0,,
KRDR,08-17-2006,02:00,METAR,,220,2.0,,,9999.0,Thunderstorm,23.0,21.0,29.81,1010.3,,,,17,,,,,,,.03 IN,,,,7/8 Mostly Cloudy,25000.0,,FEW,5000.0,SCT,9900.0,BKN,25000.0,,
KRDR,08-17-2006,01:35,SPECI,,230,5.0,,,9999.0,,23.0,21.0,29.81,,,,,,,,,,,,,,,,8/8 Overcast,9500.0,,FEW,4000.0,SCT,5000.0,OVC,9400.0,,
KRDR,08-17-2006,01:04,SPECI,,240,5.0,,,9999.0,Thunderstorm with Rain or Snow/Light Rain Showers,22.0,20.0,29.82,,,,,95,80,,,,,,,,,,8/8 Overcast,4700.0,,FEW,100.0,OVC,4800.0,,,,
KRDR,08-17-2006,01:00,METAR,,200,3.0,,320/26KTS,9999.0,Thunderstorm with Rain or Snow/Light Rain Showers,21.0,20.0,29.81,1010.6,,,,95,80,,,,,,.64 IN,,,,7/8 Mostly Cloudy,4700.0,,SCT,200.0,SCT,4100.0,BKN,4800.0,,
KRDR,08-17-2006,00:46,SPECI,,190,5.0,16.0,,9999.0,Thunderstorm with Rain or Snow/Light Rain Showers,22.0,20.0,29.80,,,,,95,80,,,,,,,,,,8/8 Overcast,3700.0,,SCT,300.0,BKN,3800.0,OVC,5000.0,,
KRDR,08-17-2006,00:44,SPECI,,190,7.0,16.0,,9999.0,Thunderstorm with Rain or Snow/Light Rain Showers,22.0,21.0,29.81,,,,,95,80,,,,,,,,,,4/8 Partly Cloudy,72000.0,,SCT,1000.0,,,,,,
KRDR,08-17-2006,00:42,SPECI,,180,11.0,,,3200.0,Heavy Thunderstorm with Rain or Snow/Heavy Rain Showers,22.0,21.0,29.81,,,,,97,82,,,,,,,,,,7/8 Mostly Cloudy,1200.0,,BKN,1200.0,,,,,,
KRDR,08-17-2006,00:37,SPECI,,240,8.0,,,800.0,Heavy Thunderstorm with Rain or Snow/Heavy Rain Showers,23.0,21.0,29.82,,,,,97,82,,,,,,,,,,7/8 Mostly Cloudy,3400.0,,SCT,200.0,BKN,3500.0,,,,
KRDR,08-17-2006,00:29,SPECI,,290,8.0,26.0,,2400.0,Heavy Rain/Thunderstorm/Mist,23.0,21.0,29.81,,,,,65,10,17,,,,,,,,,7/8 Mostly Cloudy,3500.0,,FEW,200.0,BKN,3600.0,BKN,5000.0,,
KRDR,08-17-2006,00:26,SPECI,,330,12.0,26.0,,3200.0,Thunderstorm with Rain or Snow/Light Rain Showers,24.0,21.0,29.81,,,,,95,80,,,,,,,,,,7/8 Mostly Cloudy,3400.0,,FEW,300.0,BKN,3500.0,BKN,5400.0,,
KRDR,08-17-2006,00:19,SPECI,,330,23.0,26.0,,6400.0,Thunderstorm with Rain or Snow/Light Rain Showers,25.0,21.0,29.80,,,,,95,80,,,,,,,,,,8/8 Overcast,5500.0,,FEW,200.0,SCT,3300.0,OVC,5400.0,,
KRDR,08-17-2006,00:15,SPECI,,320,21.0,26.0,,8000.0,Thunderstorm with Rain or Snow/Light Rain Showers,26.0,21.0,29.81,,,,,95,80,,,,,,,,,,8/8 Overcast,4900.0,,FEW,300.0,SCT,4300.0,OVC,5000.0,,
KRDR,08-17-2006,00:07,SPECI,,260,13.0,,,9999.0,Thunderstorm with Rain or Snow/Light Rain Showers,27.0,19.0,29.80,1010.0,,,,95,80,,,,,,,,,,8/8 Overcast,5500.0,,OVC,5400.0,,,,,,
KRDR,08-17-2006,00:02,SPECI,,200,11.0,,,9999.0,Thunderstorm,28.0,19.0,29.78,1009.6,,,,17,,,,,,,,,,,8/8 Overcast,5500.0,,FEW,1000.0,OVC,5400.0,,,,
KRDR,08-17-2006,00:00,METAR,,170,15.0,,,9999.0,Thunderstorm,28.0,19.0,29.76,1008.7,,,,17,,,,,,,,,,,8/8 Overcast,5500.0,,FEW,1000.0,BKN,5400.0,OVC,7900.0,,
KRDR,08-16-2006,23:41,SPECI,,170,16.0,,,9999.0,Thunderstorm,28.0,19.0,29.77,1009.2,,,,17,,,,,,,,,,,7/8 Mostly Cloudy,6000.0,,BKN,5900.0,BKN,18000.0,,,,
KRDR,08-16-2006,23:00,METAR,,180,17.0,24.0,190/28KTS,9999.0,,29.0,19.0,29.81,1010.4,,,,,,,,,,,,,,,7/8 Mostly Cloudy,6500.0,,BKN,6400.0,BKN,20000.0,,,,
KRDR,08-16-2006,22:00,METAR,,190,21.0,30.0,160/31KTS,9999.0,,30.0,19.0,29.82,1010.9,,,,,,,,,,,,,,,7/8 Mostly Cloudy,20000.0,,FEW,5000.0,BKN,20000.0,,,,
KRDR,08-16-2006,21:00,METAR,,170,19.0,28.0,150/33KTS,9999.0,,28.0,19.0,29.81,1010.5,,,,,,,,,,,,,,,7/8 Mostly Cloudy,20000.0,,FEW,5900.0,BKN,20000.0,,,,
KRDR,08-16-2006,20:00,METAR,,150,23.0,,170/30KTS,9999.0,,25.0,18.0,29.80,1010.0,,,,,,,,,,,,,,,8/8 Overcast,20000.0,,FEW,7900.0,SCT,18000.0,OVC,20000.0,,
KRDR,08-16-2006,19:00,METAR,,160,15.0,21.0,,9999.0,,25.0,17.0,29.86,1012.2,,,,,,,,,,,,,,,8/8 Overcast,25000.0,,SCT,12000.0,OVC,25000.0,,,,
KRDR,08-16-2006,18:00,METAR,,170,10.0,,,9999.0,,23.0,16.0,29.89,1013.0,,,,,,,,,,,,,,,8/8 Overcast,25000.0,,SCT,12000.0,OVC,25000.0,,,,
KRDR,08-16-2006,17:00,METAR,,170,10.0,,,9999.0,,23.0,16.0,29.91,1013.1,,,,,,,,,,,,,,,8/8 Overcast,18000.0,,FEW,5000.0,SCT,12000.0,BKN,18000.0,OVC,25000.0
KRDR,08-16-2006,16:00,METAR,,160,10.0,,,9999.0,,22.0,16.0,29.90,1013.5,,,,,,,,,,,,,,,8/8 Overcast,25000.0,,FEW,5900.0,SCT,14000.0,OVC,25000.0,,
KRDR,08-16-2006,15:00,METAR,,140,8.0,,,9999.0,,19.0,16.0,29.90,1013.5,,,,,,,,,,,,,,,Clear,72000.0,,,73000.0,,,,,,
KRDR,08-16-2006,14:00,METAR,,160,6.0,,,9999.0,,18.0,15.0,29.93,1014.5,,,,,,,,,,,,,,,7/8 Mostly Cloudy,20000.0,,SCT,9900.0,BKN,20000.0,,,,
KRDR,08-16-2006,13:00,METAR,,250,4.0,,,9999.0,,17.0,15.0,29.94,1014.6,,,,,,,,,,,,,,,7/8 Mostly Cloudy,20000.0,,FEW,12000.0,BKN,20000.0,,,,
KRDR,08-16-2006,12:00,METAR,,140,2.0,,,9999.0,,16.0,14.0,29.90,1013.4,,,,,,,,,,,,,,,7/8 Mostly Cloudy,25000.0,,FEW,12000.0,BKN,25000.0,,,,
KRDR,08-16-2006,11:00,METAR,,,0.0,,,9999.0,,12.0,12.0,29.90,1013.4,,,,,,,,,,,,,,,7/8 Mostly Cloudy,25000.0,,FEW,15000.0,BKN,25000.0,,,,
KRDR,08-16-2006,10:00,METAR,,,0.0,,,9999.0,,13.0,12.0,29.90,1013.3,,,,,,,,,,,,,,,7/8 Mostly Cloudy,25000.0,,BKN,25000.0,,,,,,
KRDR,08-16-2006,09:00,METAR,,,0.0,,,9999.0,,13.0,12.0,29.91,1013.7,,,,,,,,,,,,,,,4/8 Partly Cloudy,72000.0,,SCT,25000.0,,,,,,
KRDR,08-16-2006,08:00,METAR,,360,3.0,,,9999.0,,13.0,12.0,29.91,1013.7,,,,,,,,,,,,,,,2/8 Mostly Clear,72000.0,,FEW,25000.0,,,,,,
KRDR,08-16-2006,07:00,METAR,,,0.0,,,9999.0,,14.0,13.0,29.92,1014.0,,,,,,,,,,,,,,,2/8 Mostly Clear,72000.0,,FEW,25000.0,,,,,,
KRDR,08-16-2006,06:00,METAR,,,0.0,,,9999.0,,18.0,14.0,29.93,1014.4,,,,,,,,,,,,,,,2/8 Mostly Clear,72000.0,,FEW,25000.0,,,,,,
KRDR,08-16-2006,05:00,METAR,,50,3.0,,,9999.0,,19.0,14.0,29.92,1014.2,,,,,,,,,,,,,,,2/8 Mostly Clear,72000.0,,FEW,25000.0,,,,,,
KRDR,08-16-2006,04:00,METAR,,100,4.0,,,9999.0,,20.0,14.0,29.94,1014.6,,,,,,,,,,,,,,,7/8 Mostly Cloudy,25000.0,,BKN,25000.0,,,,,,
KRDR,08-16-2006,03:00,METAR,,120,5.0,,,9999.0,,21.0,14.0,29.94,1014.9,,,,,,,,,,,,,,,4/8 Partly Cloudy,72000.0,,SCT,25000.0,,,,,,
KRDR,08-16-2006,02:00,METAR,,130,6.0,,,9999.0,,23.0,14.0,29.92,1014.1,,,,,,,,,,,,,,,4/8 Partly Cloudy,72000.0,,SCT,25000.0,,,,,,
KRDR,08-16-2006,01:00,METAR,,140,8.0,,,9999.0,,26.0,14.0,29.93,1014.3,,,,,,,,,,,,,,,2/8 Mostly Clear,72000.0,,FEW,25000.0,,,,,,
KRDR,08-16-2006,00:00,METAR,,130,8.0,,,9999.0,,27.0,12.0,29.94,1014.7,,,,,,,,,,,,,,,2/8 Mostly Clear,72000.0,,FEW,25000.0,,,,,,
KRDR,08-15-2006,23:00,METAR,,140,9.0,,,9999.0,,28.0,12.0,29.95,1015.2,,,,,,,,,,,,,,,2/8 Mostly Clear,72000.0,,FEW,25000.0,,,,,,
KRDR,08-15-2006,22:00,METAR,,150,9.0,,,9999.0,,28.0,12.0,29.96,1015.3,,,,,,,,,,,,,,,Clear,72000.0,,,73000.0,,,,,,
KRDR,08-15-2006,21:00,METAR,,160,9.0,,,9999.0,,28.0,12.0,29.98,1015.9,,,,,,,,,,,,,,,2/8 Mostly Clear,72000.0,,FEW,25000.0,,,,,,
KRDR,08-15-2006,20:00,METAR,,160,6.0,,,9999.0,,27.0,10.0,29.99,1016.5,,,,,,,,,,,,,,,2/8 Mostly Clear,72000.0,,FEW,25000.0,,,,,,
KRDR,08-15-2006,19:00,METAR,,150,6.0,,,9999.0,,27.0,10.0,30.00,1016.7,,,,,,,,,,,,,,,2/8 Mostly Clear,72000.0,,FEW,25000.0,,,,,,
KRDR,08-15-2006,18:00,METAR,,160,6.0,,,9999.0,,26.0,10.0,30.01,1017.0,,,,,,,,,,,,,,,Clear,72000.0,,,73000.0,,,,,,
KRDR,08-15-2006,17:00,METAR,,170,9.0,,,9999.0,,26.0,10.0,30.02,1017.4,,,,,,,,,,,,,,,Clear,72000.0,,,73000.0,,,,,,
KRDR,08-15-2006,16:00,METAR,,190,8.0,,,9999.0,,25.0,10.0,30.03,1017.6,,,,,,,,,,,,,,,Clear,72000.0,,,73000.0,,,,,,
KRDR,08-15-2006,15:00,METAR,,190,6.0,,,9999.0,,23.0,11.0,30.03,1017.6,,,,,,,,,,,,,,,Clear,72000.0,,,73000.0,,,,,,
KRDR,08-15-2006,14:00,METAR,,,0.0,,,9999.0,,19.0,12.0,30.03,1017.6,,,,,,,,,,,,,,,Clear,72000.0,,,73000.0,,,,,,
KRDR,08-15-2006,13:00,METAR,,,0.0,,,9999.0,,15.0,10.0,30.03,1017.7,,,,,,,,,,,,,,,Clear,72000.0,,,73000.0,,,,,,
KRDR,08-15-2006,12:00,METAR,,220,6.0,,,9999.0,,11.0,9.0,30.02,1017.5,,,,,,,,,,,,,,,Clear,72000.0,,,73000.0,,,,,,
KRDR,08-15-2006,11:00,METAR,,220,5.0,,,9999.0,,11.0,9.0,30.02,1017.3,,,,,,,,,,,,,,,Clear,72000.0,,,73000.0,,,,,,
KRDR,08-15-2006,10:00,METAR,,220,3.0,,,9999.0,,11.0,9.0,30.01,1017.1,,,,,,,,,,,,,,,Clear,72000.0,,,73000.0,,,,,,
KRDR,08-15-2006,09:00,METAR,,240,4.0,,,9999.0,,11.0,9.0,30.01,1017.1,,,,,,,,,,,,,,,Clear,72000.0,,,73000.0,,,,,,
KRDR,08-15-2006,08:00,METAR,,210,4.0,,,9999.0,,12.0,9.0,30.01,1017.0,,,,,,,,,,,,,,,Clear,72000.0,,,73000.0,,,,,,
KRDR,08-15-2006,07:00,METAR,,220,4.0,,,9999.0,,12.0,9.0,30.01,1017.2,,,,,,,,,,,,,,,Clear,72000.0,,,73000.0,,,,,,
KRDR,08-15-2006,06:00,METAR,,230,4.0,,,9999.0,,12.0,10.0,30.01,1017.1,,,,,,,,,,,,,,,Clear,72000.0,,,73000.0,,,,,,
KRDR,08-15-2006,05:00,METAR,,230,3.0,,,9999.0,,12.0,10.0,30.01,1017.0,,,,,,,,,,,,,,,Clear,72000.0,,,73000.0,,,,,,
KRDR,08-15-2006,04:00,METAR,,,0.0,,,9999.0,,13.0,11.0,30.01,1017.0,,,,,,,,,,,,,,,Clear,72000.0,,,73000.0,,,,,,
KRDR,08-15-2006,03:00,METAR,,350,3.0,,,9999.0,,16.0,11.0,30.00,1016.8,,,,,,,,,,,,,,,Clear,72000.0,,,73000.0,,,,,,
KRDR,08-15-2006,02:00,METAR,,310,3.0,,,9999.0,,18.0,11.0,29.99,1016.3,,,,,,,,,,,,,,,Clear,72000.0,,,73000.0,,,,,,
KRDR,08-15-2006,01:00,METAR,,330,6.0,,,9999.0,,23.0,9.0,29.98,1016.2,,,,,,,,,,,,,,,Clear,72000.0,,,73000.0,,,,,,
KRDR,08-15-2006,00:00,METAR,,360,9.0,,,9999.0,,25.0,9.0,29.98,1016.0,,,,,,,,,,,,,,,2/8 Mostly Clear,72000.0,,FEW,6900.0,,,,,,
KRDR,08-14-2006,23:00,METAR,,330,9.0,,,9999.0,,25.0,9.0,29.98,1016.2,,,,,,,,,,,,,,,2/8 Mostly Clear,72000.0,,FEW,6900.0,,,,,,
KRDR,08-14-2006,22:00,METAR,,330,10.0,,,9999.0,,25.0,9.0,29.99,1016.3,,,,,,,,,,,,,,,4/8 Partly Cloudy,72000.0,,SCT,6400.0,,,,,,
KRDR,08-14-2006,21:00,METAR,,340,11.0,18.0,,9999.0,,25.0,9.0,29.99,1016.4,,,,,,,,,,,,,,,4/8 Partly Cloudy,72000.0,,SCT,5900.0,,,,,,
KRDR,08-14-2006,20:00,METAR,,350,13.0,19.0,,9999.0,,25.0,8.0,29.99,1016.6,,,,,,,,,,,,,,,4/8 Partly Cloudy,72000.0,,SCT,5900.0,,,,,,
KRDR,08-14-2006,19:00,METAR,,320,8.0,,,9999.0,,24.0,10.0,30.00,1016.6,,,,,,,,,,,,,,,4/8 Partly Cloudy,72000.0,,SCT,5400.0,,,,,,
KRDR,08-14-2006,18:00,METAR,,340,9.0,17.0,,9999.0,,23.0,10.0,30.00,1016.8,,,,,,,,,,,,,,,2/8 Mostly Clear,72000.0,,FEW,4700.0,,,,,,
KRDR,08-14-2006,17:00,METAR,,350,11.0,,,9999.0,,23.0,11.0,30.01,1016.9,,,,,,,,,,,,,,,2/8 Mostly Clear,72000.0,,FEW,4800.0,,,,,,
KRDR,08-14-2006,16:00,METAR,,320,7.0,,,9999.0,,22.0,11.0,30.00,1016.7,,,,,,,,,,,,,,,Clear,72000.0,,,73000.0,,,,,,
KRDR,08-14-2006,15:00,METAR,,320,10.0,,,9999.0,,20.0,11.0,29.99,1016.5,,,,,,,,,,,,,,,Clear,72000.0,,,73000.0,,,,,,
KRDR,08-14-2006,14:00,METAR,,310,8.0,,,9999.0,,18.0,11.0,29.99,1016.3,,,,,,,,,,,,,,,Clear,72000.0,,,73000.0,,,,,,
KRDR,08-14-2006,13:00,METAR,,280,7.0,,,9999.0,,15.0,11.0,29.98,1016.1,,,,,,,,,,,,,,,Clear,72000.0,,,73000.0,,,,,,
KRDR,08-14-2006,12:00,METAR,,290,6.0,,,9999.0,,12.0,10.0,29.97,1015.8,,,,,,,,,,,,,,,Clear,72000.0,,,73000.0,,,,,,
KRDR,08-14-2006,11:00,METAR,,290,5.0,,,9999.0,,13.0,10.0,29.95,1015.2,,,,,,,,,,,,,,,Clear,72000.0,,,73000.0,,,,,,
KRDR,08-14-2006,10:00,METAR,,270,8.0,,,9999.0,,13.0,11.0,29.95,1015.0,,,,,,,,,,,,,,,Clear,72000.0,,,73000.0,,,,,,
KRDR,08-14-2006,09:00,METAR,,270,8.0,,,9999.0,,14.0,11.0,29.94,1014.8,,,,,,,,,,,,,,,Clear,72000.0,,,73000.0,,,,,,
KRDR,08-14-2006,08:00,METAR,,280,6.0,,,9999.0,,15.0,12.0,29.94,1014.7,,,,,,,,,,,,,,,Clear,72000.0,,,73000.0,,,,,,
KRDR,08-14-2006,07:00,METAR,,260,6.0,,,9999.0,,13.0,11.0,29.93,1014.6,,,,,,,,,,,,,,,Clear,72000.0,,,73000.0,,,,,,
KRDR,08-14-2006,06:00,METAR,,260,6.0,,,9999.0,,13.0,11.0,29.94,1014.6,,,,,,,,,,,,,,,Clear,72000.0,,,73000.0,,,,,,
KRDR,08-14-2006,05:00,METAR,,240,6.0,,,9999.0,,14.0,11.0,29.94,1014.6,,,,,,,,,,,,,,,Clear,72000.0,,,73000.0,,,,,,
KRDR,08-14-2006,04:00,METAR,,260,7.0,,,9999.0,,14.0,11.0,29.94,1014.6,,,,,,,,,,,,,,,Clear,72000.0,,,73000.0,,,,,,
KRDR,08-14-2006,03:00,METAR,,260,6.0,,,9999.0,,15.0,12.0,29.92,1014.1,,,,,,,,,,,,,,,2/8 Mostly Clear,72000.0,,FEW,12000.0,FEW,25000.0,,,,
KRDR,08-14-2006,02:00,METAR,,280,6.0,,,9999.0,,17.0,12.0,29.91,1013.7,,,,,,,,,,,,,,,4/8 Partly Cloudy,72000.0,,FEW,12000.0,SCT,25000.0,,,,
KRDR,08-14-2006,01:00,METAR,,270,7.0,,,9999.0,,21.0,13.0,29.90,1013.5,,,,,,,,,,,,,,,4/8 Partly Cloudy,72000.0,,FEW,5000.0,SCT,20000.0,,,,
KRDR,08-14-2006,00:00,METAR,,270,9.0,16.0,,9999.0,,21.0,13.0,29.91,1013.7,,,,,,,,,,,,,TRACE,,4/8 Partly Cloudy,72000.0,,SCT,5400.0,,,,,,
KRDR,08-13-2006,23:00,METAR,,280,11.0,,,9999.0,,22.0,13.0,29.92,1014.0,,,,,,,,,,,,,,,4/8 Partly Cloudy,72000.0,,FEW,3600.0,SCT,15000.0,,,,
KRDR,08-13-2006,22:00,METAR,,290,12.0,16.0,,9999.0,,21.0,12.0,29.93,1014.3,,,,,,,,,,,,,,,7/8 Mostly Cloudy,25000.0,,FEW,5000.0,SCT,7900.0,BKN,25000.0,,
KRDR,08-13-2006,21:00,METAR,,300,10.0,,,9999.0,,19.0,12.0,29.93,1014.5,,,,,,,,,,,TRACE,TRACE,,,7/8 Mostly Cloudy,10000.0,,SCT,6400.0,BKN,9900.0,,,,
KRDR,08-13-2006,20:00,METAR,,300,9.0,,,9999.0,,17.0,12.0,29.95,1015.1,,,,,,,,,,,TRACE,,,,7/8 Mostly Cloudy,6500.0,,FEW,4500.0,BKN,6400.0,,,,
KRDR,08-13-2006,19:00,METAR,,310,10.0,,,9999.0,,17.0,13.0,29.96,,,,,,,,,,,,,,,,8/8 Overcast,4000.0,,OVC,4100.0,,,,,,
KRDR,08-13-2006,18:20,METAR,,310,8.0,,,9999.0,,17.0,13.0,29.96,,,,,,,,,,,,,,,,8/8 Overcast,4200.0,,BKN,4300.0,OVC,6900.0,,,,
KRDR,08-13-2006,18:05,SPECI,,310,9.0,,,9999.0,Rain,17.0,13.0,29.96,,,,,61,,,,,,,,,,,8/8 Overcast,7000.0,,FEW,3200.0,OVC,6900.0,,,,
KRDR,08-13-2006,18:00,METAR,,320,9.0,,,9999.0,,17.0,14.0,29.95,1015.1,,,,,,,,,,,TRACE,,TRACE,,8/8 Overcast,7000.0,,BKN,6900.0,OVC,12000.0,,,,
KRDR,08-13-2006,17:39,SPECI,,320,9.0,,,9999.0,,17.0,14.0,29.95,,,,,,,,,,,,,,,,8/8 Overcast,7500.0,,BKN,7400.0,OVC,12000.0,,,,
KRDR,08-13-2006,17:22,SPECI,,320,12.0,,,9999.0,Rain,17.0,13.0,29.94,,,,,61,,,,,,,,,,,8/8 Overcast,8000.0,,FEW,4700.0,BKN,7900.0,OVC,15000.0,,
KRDR,08-13-2006,17:10,SPECI,,320,8.0,,,9999.0,,17.0,14.0,29.94,,,,,,,,,,,,,,,,8/8 Overcast,9000.0,,FEW,6900.0,BKN,8900.0,OVC,15000.0,,
KRDR,08-13-2006,17:00,METAR,,330,9.0,,,9999.0,,17.0,13.0,29.93,1014.3,,,,,,,,,,,TRACE,,,,8/8 Overcast,10000.0,,BKN,9900.0,OVC,15000.0,,,,
KRDR,08-13-2006,16:41,SPECI,,330,7.0,,,9999.0,,17.0,14.0,29.92,,,,,,,,,,,,,,,,7/8 Mostly Cloudy,10000.0,,BKN,9900.0,,,,,,
KRDR,08-13-2006,16:22,SPECI,,330,9.0,,,9999.0,,18.0,14.0,29.92,,,,,,,,,,,,,,,,8/8 Overcast,10000.0,,FEW,7400.0,OVC,9900.0,,,,
KRDR,08-13-2006,16:00,METAR,,340,9.0,,,9999.0,,18.0,13.0,29.91,1013.9,,,,,,,,,,,TRACE,,,,8/8 Overcast,11000.0,,BKN,11000.0,OVC,15000.0,,,,
KRDR,08-13-2006,15:17,SPECI,,360,10.0,,,9999.0,,17.0,14.0,29.88,,,,,,,,,,,,,,,,8/8 Overcast,15000.0,,FEW,8900.0,SCT,12000.0,OVC,15000.0,,
KRDR,08-13-2006,15:04,SPECI,,350,12.0,,,9999.0,Rain,17.0,14.0,29.88,,,,,61,,,,,,,,,,,8/8 Overcast,15000.0,,FEW,5000.0,SCT,12000.0,OVC,15000.0,,
KRDR,08-13-2006,15:00,METAR,,340,13.0,,,9999.0,,17.0,14.0,29.88,1012.7,,,,,,,,,,,TRACE,TRACE,,,8/8 Overcast,15000.0,,FEW,5000.0,SCT,12000.0,OVC,15000.0,,
KRDR,08-13-2006,14:24,SPECI,,330,9.0,,,9999.0,,17.0,14.0,29.89,1013.0,,,,,,,,,,,,,,,8/8 Overcast,12000.0,,FEW,3000.0,SCT,5000.0,OVC,12000.0,,
KRDR,08-13-2006,14:14,SPECI,,340,11.0,,,9999.0,Drizzle,17.0,14.0,29.88,1012.8,,,,51,,,,,,,,,,,8/8 Overcast,5500.0,,FEW,3000.0,BKN,5400.0,OVC,12000.0,,
KRDR,08-13-2006,14:00,METAR,,360,12.0,,,9999.0,,17.0,14.0,29.87,1012.6,,,,,,,,,,,,,,,8/8 Overcast,12000.0,,SCT,6900.0,OVC,12000.0,,,,
KRDR,08-13-2006,13:00,METAR,,320,6.0,,,9999.0,,17.0,15.0,29.92,1014.0,,,,,,,,,,,,,,,8/8 Overcast,4900.0,,OVC,5000.0,,,,,,
KRDR,08-13-2006,12:00,METAR,,290,5.0,,,9999.0,,17.0,16.0,29.90,1013.5,,,,,,,,,,,.01 IN,,.01 IN,.93 IN,8/8 Overcast,4700.0,,OVC,4800.0,,,,,,
KRDR,08-13-2006,11:00,METAR,,220,7.0,,,9999.0,,15.0,15.0,29.87,1012.6,,,,,,,,,,,,,,,7/8 Mostly Cloudy,25000.0,,FEW,4200.0,SCT,15000.0,BKN,25000.0,,
KRDR,08-13-2006,10:00,METAR,,,0.0,,,9999.0,,15.0,15.0,29.82,1010.9,,,,,,,,,,,,,,,4/8 Partly Cloudy,72000.0,,FEW,15000.0,SCT,25000.0,,,,
KRDR,08-13-2006,09:00,METAR,,330,6.0,,,9999.0,,16.0,15.0,29.82,1010.8,,,,,,,,,,,,,,,4/8 Partly Cloudy,72000.0,,SCT,25000.0,,,,,,
KRDR,08-13-2006,08:00,METAR,,310,6.0,,,9999.0,,16.0,16.0,29.83,1011.1,,,,,,,,,,,,,,,7/8 Mostly Cloudy,25000.0,,FEW,15000.0,BKN,25000.0,,,,
KRDR,08-13-2006,07:00,METAR,,310,6.0,,,9999.0,,16.0,16.0,29.83,1011.1,,,,,,,,,,,,,,,8/8 Overcast,25000.0,,OVC,25000.0,,,,,,
KRDR,08-13-2006,06:00,METAR,,270,3.0,,,9999.0,,17.0,16.0,29.84,1011.6,,,,,,,,,,,,,.18 IN,,7/8 Mostly Cloudy,25000.0,,FEW,2000.0,SCT,17000.0,BKN,25000.0,,
KRDR,08-13-2006,05:00,METAR,,320,3.0,,,9999.0,,17.0,17.0,29.84,1011.3,,,,,,,,,,,,,,,7/8 Mostly Cloudy,17000.0,,SCT,2000.0,BKN,17000.0,,,,
KRDR,08-13-2006,04:00,METAR,,,0.0,,,9999.0,,18.0,17.0,29.83,1011.2,,,,,,,,,,,,,,,7/8 Mostly Cloudy,15000.0,,SCT,2000.0,BKN,15000.0,,,,
KRDR,08-13-2006,03:00,METAR,,310,2.0,,,9999.0,,18.0,17.0,29.81,1010.6,,,,,,,,,,,.01 IN,.18 IN,,,7/8 Mostly Cloudy,15000.0,,FEW,4500.0,SCT,8900.0,BKN,15000.0,,
KRDR,08-13-2006,02:18,SPECI,,130,4.0,,,9999.0,,18.0,17.0,29.81,,,,,,,,,,,,,,,,7/8 Mostly Cloudy,11000.0,,SCT,6400.0,BKN,11000.0,,,,
KRDR,08-13-2006,02:00,METAR,,170,6.0,,,9999.0,Rain,18.0,17.0,29.83,1011.0,,,,61,,,,,,,,,,,7/8 Mostly Cloudy,6500.0,,FEW,700.0,BKN,6400.0,BKN,9900.0,,
KRDR,08-13-2006,01:38,SPECI,,170,6.0,,,9999.0,Rain,18.0,17.0,29.84,,,,,61,,,,,,,,,,,7/8 Mostly Cloudy,9500.0,,FEW,600.0,BKN,9400.0,BKN,12000.0,,
KRDR,08-13-2006,01:20,METAR,,160,8.0,,,9999.0,,18.0,17.0,29.83,,,,,,,,,,,,,,,,7/8 Mostly Cloudy,7000.0,,FEW,700.0,BKN,6900.0,BKN,12000.0,,
KRDR,08-13-2006,01:00,METAR,,130,8.0,,,9999.0,Rain,18.0,17.0,29.82,1010.9,,,,61,,,,,,,,,,,8/8 Overcast,6500.0,,FEW,500.0,BKN,6400.0,OVC,12000.0,,
KRDR,08-13-2006,00:39,SPECI,,130,9.0,,,9999.0,Rain/Mist,18.0,18.0,29.81,,,,,61,10,,,,,,,,,,8/8 Overcast,3900.0,,FEW,200.0,SCT,2400.0,BKN,4000.0,OVC,8900.0
KRDR,08-13-2006,00:21,SPECI,,130,5.0,,,3200.0,Rain/Mist,19.0,17.0,29.80,,,,,63,10,,,,,,,,,,8/8 Overcast,3700.0,,SCT,200.0,BKN,3800.0,BKN,5400.0,OVC,8900.0
KRDR,08-13-2006,00:14,SPECI,,70,5.0,,,4800.0,Rain/Mist,19.0,17.0,29.81,,,,,61,10,,,,,,,,,,8/8 Overcast,3400.0,,FEW,300.0,SCT,2600.0,BKN,3500.0,OVC,5900.0
KRDR,08-13-2006,00:13,SPECI,,90,6.0,,,2000.0,Rain/Mist,19.0,17.0,29.81,,,,,61,10,,,,,,,,,,8/8 Overcast,3300.0,,SCT,200.0,BKN,3400.0,OVC,5900.0,,
KRDR,08-13-2006,00:00,METAR,,,0.0,,,9999.0,Precipitation in the Vicinity,19.0,17.0,29.81,1010.6,,,,16,,,,,,,,,.74 IN,,8/8 Overcast,6000.0,,FEW,300.0,BKN,5900.0,OVC,9400.0,,
KRDR,08-12-2006,23:35,SPECI,,80,6.0,,,9999.0,,19.0,18.0,29.80,,,,,,,,,,,,,,,,8/8 Overcast,9000.0,,FEW,300.0,OVC,8900.0,,,,
KRDR,08-12-2006,23:10,SPECI,,20,7.0,,,9999.0,Thunderstorm with Rain or Snow/Light Rain Showers,18.0,17.0,29.82,,,,,95,80,,,,,,,,,,7/8 Mostly Cloudy,3500.0,,FEW,300.0,SCT,2700.0,BKN,3600.0,,
KRDR,08-12-2006,23:00,METAR,,10,7.0,,330/34KTS,9999.0,Thunderstorm with Rain or Snow/Light Rain Showers,18.0,17.0,29.83,1011.0,,,,95,80,,,,,,.46 IN,,,,7/8 Mostly Cloudy,3300.0,,FEW,200.0,SCT,2500.0,BKN,3400.0,,
KRDR,08-12-2006,22:55,METAR,,10,7.0,,330/34KTS,9999.0,Thunderstorm with Rain or Snow/Light Rain Showers,18.0,17.0,29.83,1011.0,,,,95,80,,,,,,.46 IN,,,,7/8 Mostly Cloudy,3300.0,,FEW,200.0,SCT,2500.0,BKN,3400.0,,
KRDR,08-12-2006,22:36,SPECI,,10,17.0,22.0,,4800.0,Thunderstorm with Rain or Snow/Rain Showers/Mist,18.0,17.0,29.81,,,,,95,81,10,,,,,,,,,7/8 Mostly Cloudy,2500.0,,SCT,200.0,BKN,2500.0,BKN,3600.0,,
KRDR,08-12-2006,22:33,SPECI,,10,17.0,22.0,,1600.0,Heavy Thunderstorm with Rain or Snow/Heavy Rain Showers/Mist,18.0,17.0,29.80,,,,,97,82,10,,,,,,,,,7/8 Mostly Cloudy,2600.0,,SCT,200.0,BKN,2600.0,BKN,4400.0,,
KRDR,08-12-2006,22:23,SPECI,,340,17.0,25.0,,1200.0,Heavy Thunderstorm with Rain or Snow/Heavy Rain Showers/Mist,19.0,17.0,29.83,,,,,97,82,10,,,,,,,,,7/8 Mostly Cloudy,3100.0,,SCT,200.0,BKN,3200.0,BKN,4300.0,,
KRDR,08-12-2006,22:14,SPECI,,350,19.0,24.0,,4000.0,Thunderstorm with Rain or Snow/Rain Showers,20.0,17.0,29.85,,,,,95,81,,,,,,,,,,8/8 Overcast,3300.0,,FEW,300.0,BKN,3400.0,OVC,5400.0,,
KRDR,08-12-2006,22:02,SPECI,,340,22.0,33.0,,9999.0,Rain,21.0,17.0,29.83,,,,,61,,,,,,,,,,,8/8 Overcast,2600.0,,FEW,1600.0,SCT,3000.0,OVC,3600.0,,
KRDR,08-12-2006,22:00,METAR,,320,17.0,32.0,310/32KTS,9999.0,,26.0,19.0,29.82,1010.9,,,,,,,,,,,,,,,7/8 Mostly Cloudy,3500.0,,FEW,1600.0,BKN,3600.0,,,,
KRDR,08-12-2006,21:00,METAR,,170,11.0,,,9999.0,,27.0,20.0,29.73,1007.9,,,,,,,,,,,,,,,8/8 Overcast,4300.0,,OVC,4400.0,,,,,,
KRDR,08-12-2006,20:00,METAR,,160,13.0,19.0,,9999.0,,28.0,20.0,29.77,1009.2,,,,,,,,,,,,,,,8/8 Overcast,4900.0,,BKN,5000.0,OVC,9900.0,,,,
KRDR,08-12-2006,19:00,METAR,,160,13.0,,,9999.0,,27.0,20.0,29.79,1009.7,,,,,,,,,,,,,,,7/8 Mostly Cloudy,4700.0,,FEW,2900.0,BKN,4800.0,,,,
KRDR,08-12-2006,18:00,METAR,,170,11.0,,,9999.0,,28.0,20.0,29.81,1010.6,,,,,,,,,,,,,TRACE,,7/8 Mostly Cloudy,10000.0,,SCT,6400.0,BKN,9900.0,,,,
KRDR,08-12-2006,17:33,SPECI,,150,10.0,,,9999.0,,27.0,20.0,29.82,,,,,,,,,,,,,,,,7/8 Mostly Cloudy,10000.0,,SCT,2500.0,BKN,9900.0,,,,
KRDR,08-12-2006,17:00,METAR,,160,13.0,18.0,,9999.0,,26.0,20.0,29.83,1011.0,,,,,,,,,,,,,,,7/8 Mostly Cloudy,2500.0,,FEW,1600.0,BKN,2500.0,BKN,9900.0,,
KRDR,08-12-2006,16:19,SPECI,,170,14.0,,,9999.0,,24.0,20.0,29.84,,,,,,,,,,,,,,,,7/8 Mostly Cloudy,2500.0,,SCT,1600.0,BKN,2500.0,BKN,9900.0,,
KRDR,08-12-2006,16:04,SPECI,,170,14.0,20.0,,9999.0,,24.0,19.0,29.83,,,,,,,,,,,,,,,,7/8 Mostly Cloudy,900.0,,BKN,1500.0,,,,,,
KRDR,08-12-2006,16:00,METAR,,150,12.0,,,9999.0,,22.0,20.0,29.83,1011.2,,,,,,,,,,,TRACE,,,,7/8 Mostly Cloudy,900.0,,BKN,1300.0,,,,,,
KRDR,08-12-2006,15:07,SPECI,,170,12.0,19.0,,9999.0,Rain,22.0,19.0,29.83,,,,,61,,,,,,,,,,,8/8 Overcast,1000.0,,OVC,1400.0,,,,,,
KRDR,08-12-2006,15:00,METAR,,150,15.0,20.0,,9999.0,,22.0,19.0,29.83,1011.1,,,,,,,,,,,,,,,8/8 Overcast,1000.0,,OVC,1400.0,,,,,,
KRDR,08-12-2006,14:34,SPECI,,150,13.0,,,9999.0,,23.0,19.0,29.83,,,,,,,,,,,,,,,,8/8 Overcast,1500.0,,OVC,1500.0,,,,,,
KRDR,08-12-2006,14:28,SPECI,,150,16.0,,,9999.0,,23.0,19.0,29.83,1011.2,,,,,,,,,,,,,,,8/8 Overcast,1000.0,,OVC,1400.0,,,,,,
KRDR,08-12-2006,14:00,METAR,,160,10.0,,,9999.0,,22.0,19.0,29.84,1011.6,,,,,,,,,,,,,,,7/8 Mostly Cloudy,1200.0,,BKN,1700.0,,,,,,
KRDR,08-12-2006,13:41,SPECI,,150,11.0,,,9999.0,,22.0,19.0,29.86,1012.0,,,,,,,,,,,,,,,7/8 Mostly Cloudy,1200.0,,BKN,1500.0,,,,,,
KRDR,08-12-2006,13:29,SPECI,,160,12.0,,,9999.0,,22.0,19.0,29.86,1012.1,,,,,,,,,,,,,,,7/8 Mostly Cloudy,1200.0,,BKN,1400.0,,,,,,
KRDR,08-12-2006,13:00,METAR,,140,10.0,17.0,,9999.0,,21.0,19.0,29.84,1011.4,,,,,,,,,,,,,,,8/8 Overcast,2600.0,,OVC,2600.0,,,,,,
KRDR,08-12-2006,12:00,METAR,,130,8.0,,,9999.0,,21.0,19.0,29.86,1012.0,,,,,,,,,,,,,,,8/8 Overcast,1300.0,,OVC,1300.0,,,,,,
KRDR,08-12-2006,11:00,METAR,,140,8.0,,,9999.0,,21.0,19.0,29.83,1011.3,,,,,,,,,,,,,,,8/8 Overcast,1400.0,,OVC,1400.0,,,,,,
KRDR,08-12-2006,10:41,SPECI,,130,8.0,,,9999.0,,21.0,19.0,29.83,,,,,,,,,,,,,,,,8/8 Overcast,1400.0,,OVC,1400.0,,,,,,
KRDR,08-12-2006,10:05,SPECI,,130,9.0,,,9999.0,,21.0,18.0,29.84,,,,,,,,,,,,,,,,8/8 Overcast,1700.0,,BKN,1700.0,BKN,4600.0,OVC,25000.0,,
KRDR,08-12-2006,10:00,METAR,,140,8.0,,,9999.0,,21.0,18.0,29.85,1011.7,,,,,,,,,,,,,,,8/8 Overcast,4300.0,,BKN,4400.0,BKN,12000.0,OVC,25000.0,,
KRDR,08-12-2006,09:00,METAR,,140,8.0,,,9999.0,Precipitation in the Vicinity,21.0,19.0,29.84,1011.4,,,,16,,,,,,,,,,,7/8 Mostly Cloudy,25000.0,,FEW,4300.0,SCT,12000.0,BKN,25000.0,,
KRDR,08-12-2006,08:00,METAR,,150,9.0,,,9999.0,,21.0,19.0,29.83,1011.3,,,,,,,,,,,,,,,7/8 Mostly Cloudy,25000.0,,SCT,15000.0,BKN,25000.0,,,,
KRDR,08-12-2006,07:00,METAR,,150,10.0,,,9999.0,,22.0,19.0,29.84,1011.6,,,,,,,,,,,,,,,7/8 Mostly Cloudy,25000.0,,FEW,5000.0,BKN,25000.0,,,,
KRDR,08-12-2006,06:00,METAR,,160,11.0,,,9999.0,,22.0,19.0,29.86,1012.0,,,,,,,,,,,,,,,8/8 Overcast,25000.0,,FEW,4500.0,OVC,25000.0,,,,
KRDR,08-12-2006,05:00,METAR,,150,9.0,,,9999.0,,23.0,19.0,29.85,1011.8,,,,,,,,,,,,,,,8/8 Overcast,25000.0,,FEW,4500.0,OVC,25000.0,,,,
KRDR,08-12-2006,04:00,METAR,,150,8.0,,,9999.0,,23.0,20.0,29.86,1012.1,,,,,,,,,,,,,,,8/8 Overcast,25000.0,,OVC,25000.0,,,,,,
KRDR,08-12-2006,03:00,METAR,,150,9.0,,,9999.0,,24.0,19.0,29.84,1011.5,,,,,,,,,,,,,,,7/8 Mostly Cloudy,25000.0,,BKN,25000.0,,,,,,
KRDR,08-12-2006,02:00,METAR,,140,10.0,,,9999.0,,25.0,20.0,29.81,1010.5,,,,,,,,,,,,,,,2/8 Mostly Clear,72000.0,,FEW,12000.0,FEW,25000.0,,,,
KRDR,08-12-2006,01:00,METAR,,150,14.0,19.0,,9999.0,,27.0,20.0,29.83,1011.3,,,,,,,,,,,,,,,4/8 Partly Cloudy,72000.0,,FEW,3000.0,SCT,25000.0,,,,
KRDR,08-12-2006,00:00,METAR,,150,12.0,21.0,,9999.0,,27.0,20.0,29.86,1012.0,,,,,,,,,,,,,,,7/8 Mostly Cloudy,25000.0,,SCT,3000.0,BKN,25000.0,,,,
KRDR,08-11-2006,23:00,METAR,,150,15.0,,,9999.0,,27.0,20.0,29.87,1012.6,,,,,,,,,,,,,,,7/8 Mostly Cloudy,25000.0,,SCT,3000.0,BKN,25000.0,,,,
KRDR,08-11-2006,22:00,METAR,,160,14.0,,,9999.0,,27.0,20.0,29.90,1013.5,,,,,,,,,,,,,,,4/8 Partly Cloudy,72000.0,,SCT,2800.0,,,,,,
KRDR,08-11-2006,21:34,SPECI,,160,15.0,20.0,,9999.0,,27.0,19.0,29.91,1013.7,,,,,,,,,,,,,,,4/8 Partly Cloudy,72000.0,,SCT,2800.0,,,,,,
KRDR,08-11-2006,21:18,SPECI,,160,13.0,,,9999.0,,27.0,20.0,29.91,,,,,,,,,,,,,,,,7/8 Mostly Cloudy,3000.0,,SCT,2500.0,BKN,3000.0,,,,
KRDR,08-11-2006,21:00,METAR,,170,15.0,,,9999.0,,26.0,19.0,29.92,1014.1,,,,,,,,,,,,,,,7/8 Mostly Cloudy,2500.0,,BKN,2500.0,,,,,,
KRDR,08-11-2006,20:00,METAR,,160,11.0,,,9999.0,,24.0,19.0,29.94,1014.8,,,,,,,,,,,,,,,8/8 Overcast,1800.0,,OVC,1800.0,,,,,,
KRDR,08-11-2006,19:00,METAR,,170,12.0,,,9999.0,,23.0,18.0,29.95,1015.2,,,,,,,,,,,,,,,8/8 Overcast,1700.0,,OVC,1700.0,,,,,,
KRDR,08-11-2006,18:00,METAR,,150,11.0,,,9999.0,,23.0,18.0,29.97,1015.6,,,,,,,,,,,,,,,8/8 Overcast,1600.0,,OVC,1600.0,,,,,,
KRDR,08-11-2006,17:00,METAR,,160,9.0,,,9999.0,,20.0,17.0,29.98,1016.0,,,,,,,,,,,,,,,8/8 Overcast,1000.0,,OVC,1000.0,,,,,,
KRDR,08-11-2006,16:28,SPECI,,150,10.0,,,9999.0,,20.0,17.0,29.99,,,,,,,,,,,,,,,,8/8 Overcast,900.0,,OVC,900.0,,,,,,
KRDR,08-11-2006,16:00,METAR,,150,7.0,,,9999.0,,19.0,17.0,29.99,1016.4,,,,,,,,,,,,,,,8/8 Overcast,700.0,,OVC,700.0,,,,,,
KRDR,08-11-2006,15:34,SPECI,,140,10.0,,,9999.0,,19.0,17.0,29.99,1016.4,,,,,,,,,,,,,,,8/8 Overcast,600.0,,OVC,600.0,,,,,,
KRDR,08-11-2006,15:00,METAR,,150,10.0,,,9999.0,,18.0,17.0,30.00,1016.7,,,,,,,,,,,,,,,8/8 Overcast,500.0,,OVC,500.0,,,,,,
KRDR,08-11-2006,14:15,SPECI,,140,8.0,,,9999.0,,18.0,16.0,30.01,,,,,,,,,,,,,,,,8/8 Overcast,600.0,,OVC,600.0,,,,,,
KRDR,08-11-2006,14:03,SPECI,,140,8.0,,,8000.0,Mist,18.0,16.0,30.01,1017.0,,,,10,,,,,,,,,,,8/8 Overcast,500.0,,OVC,500.0,,,,,,
KRDR,08-11-2006,14:00,METAR,,140,8.0,,,9999.0,,18.0,16.0,30.01,1017.1,,,,,,,,,,,,,,,8/8 Overcast,600.0,,OVC,600.0,,,,,,
KRDR,08-11-2006,13:39,SPECI,,140,10.0,,,9999.0,,18.0,16.0,30.01,1016.9,,,,,,,,,,,,,,,8/8 Overcast,600.0,,OVC,600.0,,,,,,
KRDR,08-11-2006,13:19,SPECI,,140,8.0,,,9999.0,,18.0,16.0,30.01,1017.0,,,,,,,,,,,,,,,8/8 Overcast,500.0,,OVC,500.0,,,,,,
KRDR,08-11-2006,13:00,METAR,,140,7.0,,,9999.0,,17.0,16.0,30.01,1017.0,,,,,,,,,,,,,,,8/8 Overcast,200.0,,OVC,700.0,,,,,,
KRDR,08-11-2006,12:43,SPECI,,140,8.0,,,9999.0,,17.0,16.0,30.01,1017.2,,,,,,,,,,,,,,,8/8 Overcast,200.0,,OVC,700.0,,,,,,
KRDR,08-11-2006,12:15,SPECI,,130,7.0,,,9999.0,,17.0,16.0,30.01,,,,,,,,,,,,,,,,8/8 Overcast,800.0,,OVC,800.0,,,,,,
KRDR,08-11-2006,12:12,SPECI,,130,9.0,,,9999.0,,17.0,16.0,30.01,,,,,,,,,,,,,,,,8/8 Overcast,900.0,,OVC,900.0,,,,,,
KRDR,08-11-2006,12:00,METAR,,130,7.0,,,9999.0,,17.0,16.0,30.02,1017.3,,,,,,,,,,,,,,.02 IN,8/8 Overcast,1100.0,,OVC,1100.0,,,,,,
KRDR,08-11-2006,11:27,SPECI,,130,7.0,,,9999.0,,17.0,16.0,30.02,,,,,,,,,,,,,,,,8/8 Overcast,1400.0,,OVC,1400.0,,,,,,
KRDR,08-11-2006,11:00,METAR,,130,7.0,,,9999.0,,17.0,16.0,30.02,1017.2,,,,,,,,,,,,,,,8/8 Overcast,1700.0,,OVC,1700.0,,,,,,
KRDR,08-11-2006,10:00,METAR,,120,6.0,,,9999.0,,17.0,16.0,30.01,1017.0,,,,,,,,,,,,,,,7/8 Mostly Cloudy,3200.0,,BKN,3300.0,,,,,,
KRDR,08-11-2006,09:00,METAR,,130,6.0,,,9999.0,,17.0,16.0,30.01,1017.2,,,,,,,,,,,,,,,7/8 Mostly Cloudy,3000.0,,BKN,3000.0,,,,,,
KRDR,08-11-2006,08:00,METAR,,130,6.0,,,9999.0,,18.0,17.0,30.00,1016.8,,,,,,,,,,,,,,,4/8 Partly Cloudy,72000.0,,SCT,25000.0,,,,,,
KRDR,08-11-2006,07:00,METAR,,120,5.0,,,9999.0,,19.0,17.0,30.00,1016.7,,,,,,,,,,,,,,,7/8 Mostly Cloudy,25000.0,,BKN,25000.0,,,,,,
KRDR,08-11-2006,06:00,METAR,,140,7.0,,,9999.0,,19.0,18.0,30.00,1016.8,,,,,,,,,,,,,TRACE,,4/8 Partly Cloudy,72000.0,,SCT,25000.0,,,,,,
KRDR,08-11-2006,05:00,METAR,,140,8.0,,,9999.0,,20.0,18.0,30.00,1016.8,,,,,,,,,,,,,,,2/8 Mostly Clear,72000.0,,FEW,25000.0,,,,,,
KRDR,08-11-2006,04:00,METAR,,100,6.0,,,9999.0,,20.0,19.0,29.99,1016.5,,,,,,,,,,,,,,,2/8 Mostly Clear,72000.0,,FEW,25000.0,,,,,,
KRDR,08-11-2006,03:00,METAR,,120,6.0,,,9999.0,,21.0,19.0,29.99,1016.3,,,,,,,,,,,,TRACE,,,4/8 Partly Cloudy,72000.0,,FEW,12000.0,SCT,25000.0,,,,
KRDR,08-11-2006,02:00,METAR,,120,8.0,,,9999.0,,23.0,18.0,29.98,1016.2,,,,,,,,,,,TRACE,,,,7/8 Mostly Cloudy,25000.0,,FEW,4000.0,SCT,12000.0,BKN,25000.0,,
KRDR,08-11-2006,01:07,SPECI,,80,4.0,,,9999.0,,23.0,18.0,29.98,,,,,,,,,,,,,,,,7/8 Mostly Cloudy,25000.0,,FEW,2800.0,FEW,4300.0,SCT,12000.0,BKN,25000.0
KRDR,08-11-2006,01:00,METAR,,110,10.0,,,9999.0,Rain,23.0,18.0,29.99,1016.3,,,,61,,,,,,,TRACE,,,,7/8 Mostly Cloudy,12000.0,,FEW,2700.0,SCT,4300.0,BKN,12000.0,BKN,25000.0
KRDR,08-11-2006,00:39,SPECI,,130,7.0,,,9999.0,Rain,24.0,18.0,30.01,,,,,61,,,,,,,,,,,7/8 Mostly Cloudy,12000.0,,FEW,2700.0,SCT,4300.0,BKN,12000.0,BKN,25000.0
KRDR,08-11-2006,00:00,METAR,,130,3.0,,,9999.0,,24.0,20.0,29.97,1015.9,,,,,,,,,,,,,.02 IN,,7/8 Mostly Cloudy,25000.0,,FEW,3500.0,SCT,12000.0,BKN,25000.0,,
KRDR,08-10-2006,23:00,METAR,,140,9.0,,,9999.0,,26.0,20.0,29.97,1015.9,,,,,,,,,,,,,,,7/8 Mostly Cloudy,25000.0,,FEW,3000.0,SCT,12000.0,BKN,25000.0,,
KRDR,08-10-2006,22:00,METAR,,120,10.0,,,9999.0,,26.0,20.0,29.99,,,,,,,,,,,,,,,,7/8 Mostly Cloudy,25000.0,,FEW,3000.0,SCT,12000.0,BKN,25000.0,,
KRDR,08-10-2006,21:00,METAR,,160,8.0,,,9999.0,,25.0,18.0,29.98,,,,,,,,,,,,,,,,7/8 Mostly Cloudy,25000.0,,FEW,5000.0,SCT,12000.0,BKN,25000.0,,
KRDR,08-10-2006,20:06,SPECI,,210,5.0,,,9999.0,,22.0,19.0,29.97,1015.9,,,,,,,,,,,,,,,7/8 Mostly Cloudy,25000.0,,FEW,5000.0,SCT,12000.0,BKN,25000.0,,
KRDR,08-10-2006,20:00,METAR,,140,3.0,,120/32KTS,9999.0,Rain,23.0,19.0,29.98,1016.0,,,,61,,,,,,,.02 IN,,,,7/8 Mostly Cloudy,25000.0,,FEW,4000.0,SCT,7900.0,BKN,25000.0,,
KRDR,08-10-2006,19:32,SPECI,,110,12.0,,120/32KTS,9999.0,Rain/Thunderstorm,22.0,18.0,29.98,,,,,61,17,,,,,,,,,,8/8 Overcast,3700.0,,SCT,3100.0,BKN,3800.0,OVC,7900.0,,
KRDR,08-10-2006,19:00,METAR,,,3.0,,,9999.0,,29.0,21.0,29.97,1015.7,,,,,,,,,,,,,,,7/8 Mostly Cloudy,25000.0,,FEW,3500.0,SCT,12000.0,BKN,25000.0,,
KRDR,08-10-2006,18:00,METAR,,120,6.0,,,9999.0,,28.0,21.0,29.98,1016.2,,,,,,,,,,,,,,,7/8 Mostly Cloudy,5500.0,,FEW,2300.0,BKN,5400.0,BKN,25000.0,,
KRDR,08-10-2006,17:40,SPECI,,120,8.0,,,9999.0,,27.0,21.0,29.99,,,,,,,,,,,,,,,,7/8 Mostly Cloudy,3200.0,,BKN,3300.0,BKN,25000.0,,,,
KRDR,08-10-2006,17:00,METAR,,100,5.0,,,9999.0,,27.0,21.0,29.99,1016.3,,,,,,,,,,,,,,,7/8 Mostly Cloudy,2200.0,,BKN,2200.0,BKN,25000.0,,,,
KRDR,08-10-2006,16:46,SPECI,,,6.0,,,9999.0,,27.0,21.0,29.99,,,,,,,,,,,,,,,,7/8 Mostly Cloudy,2200.0,,BKN,2200.0,BKN,25000.0,,,,
KRDR,08-10-2006,16:00,METAR,,,5.0,,,9999.0,,26.0,21.0,29.98,1016.2,,,,,,,,,,,,,,,7/8 Mostly Cloudy,25000.0,,FEW,1400.0,SCT,12000.0,BKN,25000.0,,
KRDR,08-10-2006,15:00,METAR,,90,8.0,,,9999.0,,23.0,20.0,29.98,1016.0,,,,,,,,,,,,,,,7/8 Mostly Cloudy,25000.0,,FEW,900.0,SCT,12000.0,BKN,25000.0,,
KRDR,08-10-2006,14:00,METAR,,,4.0,,,9999.0,,21.0,19.0,29.98,1015.9,,,,,,,,,,,,,,,7/8 Mostly Cloudy,25000.0,,FEW,5900.0,SCT,12000.0,BKN,25000.0,,
KRDR,08-10-2006,13:00,METAR,,,0.0,,,9999.0,,18.0,17.0,29.97,1015.9,,,,,,,,,,,,,,,7/8 Mostly Cloudy,25000.0,,FEW,5900.0,SCT,12000.0,BKN,25000.0,,
KRDR,08-10-2006,12:00,METAR,,30,3.0,,,9999.0,,18.0,17.0,29.96,1015.3,,,,,,,,,,,,,,.13 IN,7/8 Mostly Cloudy,12000.0,,FEW,5900.0,BKN,12000.0,BKN,25000.0,,
KRDR,08-10-2006,11:00,METAR,,360,5.0,,,9999.0,,18.0,17.0,29.95,1015.2,,,,,,,,,,,,,,,8/8 Overcast,13000.0,,FEW,5900.0,BKN,13000.0,OVC,25000.0,,
KRDR,08-10-2006,10:00,METAR,,350,3.0,,,9999.0,,18.0,17.0,29.94,1014.9,,,,,,,,,,,,,,,8/8 Overcast,12000.0,,SCT,6900.0,BKN,12000.0,OVC,25000.0,,
KRDR,08-10-2006,09:00,METAR,,320,4.0,,,9999.0,,18.0,17.0,29.95,1015.0,,,,,,,,,,,,,,,7/8 Mostly Cloudy,7000.0,,BKN,6900.0,,,,,,
KRDR,08-10-2006,08:00,METAR,,,0.0,,,9999.0,,18.0,17.0,29.94,1014.8,,,,,,,,,,,,,,,7/8 Mostly Cloudy,6500.0,,BKN,6400.0,BKN,25000.0,,,,
KRDR,08-10-2006,07:00,METAR,,270,3.0,,,9999.0,,18.0,17.0,29.97,1015.6,,,,,,,,,,,,,,,7/8 Mostly Cloudy,18000.0,,BKN,18000.0,BKN,25000.0,,,,
KRDR,08-10-2006,06:00,METAR,,330,3.0,,,9999.0,,18.0,17.0,29.96,1015.3,,,,,,,,,,,,,.13 IN,,8/8 Overcast,15000.0,,FEW,5000.0,BKN,15000.0,OVC,25000.0,,
KRDR,08-10-2006,05:00,METAR,,230,3.0,,,9999.0,,19.0,18.0,29.94,1014.6,,,,,,,,,,,,,,,7/8 Mostly Cloudy,12000.0,,FEW,5000.0,BKN,12000.0,BKN,25000.0,,
KRDR,08-10-2006,04:00,METAR,,160,3.0,,,9999.0,,20.0,18.0,29.94,1014.7,,,,,,,,,,,,,,,8/8 Overcast,25000.0,,SCT,12000.0,OVC,25000.0,,,,
KRDR,08-10-2006,03:00,METAR,,20,8.0,,,9999.0,,21.0,18.0,29.90,1013.6,,,,,,,,,,,TRACE,.13 IN,,,7/8 Mostly Cloudy,25000.0,,FEW,2800.0,SCT,12000.0,BKN,25000.0,,
KRDR,08-10-2006,02:06,SPECI,,80,9.0,,,9999.0,,21.0,17.0,29.87,,,,,,,,,,,,,,,,7/8 Mostly Cloudy,11000.0,,FEW,2800.0,SCT,5000.0,BKN,11000.0,BKN,25000.0
KRDR,08-10-2006,02:00,METAR,,70,7.0,,,9999.0,Rain,22.0,17.0,29.88,1012.8,,,,61,,,,,,,.06 IN,,,,7/8 Mostly Cloudy,5500.0,,FEW,2800.0,BKN,5400.0,BKN,11000.0,,
KRDR,08-10-2006,01:02,SPECI,,30,13.0,,,9999.0,Rain,20.0,18.0,29.91,,,,,61,,,,,,,,,,,8/8 Overcast,6000.0,,OVC,5900.0,,,,,,
KRDR,08-10-2006,01:00,METAR,,30,16.0,20.0,,8000.0,Thunderstorm with Rain or Snow/Light Rain Showers,21.0,19.0,29.91,1013.7,,,,95,80,,,,,,.07 IN,,,,8/8 Overcast,4900.0,,OVC,5900.0,,,,,,
KRDR,08-10-2006,00:01,SPECI,,320,10.0,16.0,,9999.0,Thunderstorm with Rain or Snow/Light Rain Showers,24.0,21.0,29.92,,,,,95,80,,,,,,,,,,8/8 Overcast,25000.0,,FEW,3000.0,SCT,12000.0,OVC,25000.0,,
KRDR,08-10-2006,00:00,METAR,,320,12.0,16.0,,9999.0,Thunderstorm,24.0,21.0,29.92,1014.0,,,,,17,,,,,,TRACE,,TRACE,,8/8 Overcast,25000.0,,FEW,3000.0,SCT,12000.0,OVC,25000.0,,
KRDR,08-09-2006,23:14,SPECI,,240,3.0,,,9999.0,Rain,26.0,21.0,29.89,,,,,61,,,,,,,,,,,7/8 Mostly Cloudy,25000.0,,FEW,3000.0,SCT,12000.0,BKN,25000.0,,
KRDR,08-09-2006,23:00,METAR,,230,4.0,,,9999.0,Thunderstorm,27.0,20.0,29.89,1013.1,,,,17,,,,,,,,,,,7/8 Mostly Cloudy,25000.0,,FEW,3000.0,SCT,12000.0,BKN,25000.0,,
KRDR,08-09-2006,22:00,METAR,,170,5.0,,,9999.0,,28.0,21.0,29.89,1013.0,,,,,,,,,,,,,,,7/8 Mostly Cloudy,25000.0,,FEW,3000.0,SCT,12000.0,BKN,25000.0,,
KRDR,08-09-2006,21:00,METAR,,,6.0,,,9999.0,,30.0,20.0,29.88,1012.8,,,,,,,,,,,,,,,7/8 Mostly Cloudy,25000.0,,FEW,3000.0,SCT,12000.0,BKN,25000.0,,
KRDR,08-09-2006,20:00,METAR,,160,5.0,,,9999.0,,28.0,21.0,29.89,1013.1,,,,,,,,,,,,,,,7/8 Mostly Cloudy,25000.0,,FEW,3000.0,BKN,25000.0,,,,
KRDR,08-09-2006,19:00,METAR,,170,5.0,,,9999.0,,27.0,21.0,29.88,1012.8,,,,,,,,,,,,,,,8/8 Overcast,25000.0,,FEW,2500.0,OVC,25000.0,,,,
KRDR,08-09-2006,18:00,METAR,,170,7.0,,,9999.0,,28.0,21.0,29.90,1013.6,,,,,,,,,,,,,,,8/8 Overcast,25000.0,,SCT,2200.0,OVC,25000.0,,,,
KRDR,08-09-2006,17:43,SPECI,,150,5.0,,,9999.0,,28.0,22.0,29.90,1013.6,,,,,,,,,,,,,,,4/8 Partly Cloudy,72000.0,,SCT,2200.0,,,,,,
KRDR,08-09-2006,17:00,METAR,,190,5.0,,,9999.0,,27.0,21.0,29.90,1013.6,,,,,,,,,,,,,,,7/8 Mostly Cloudy,25000.0,,SCT,1900.0,BKN,25000.0,,,,
KRDR,08-09-2006,16:36,SPECI,,,0.0,,,9999.0,,26.0,21.0,29.90,1013.5,,,,,,,,,,,,,,,7/8 Mostly Cloudy,1900.0,,BKN,1900.0,,,,,,
KRDR,08-09-2006,16:00,METAR,,,0.0,,,9999.0,,26.0,21.0,29.90,1013.4,,,,,,,,,,,,,,,7/8 Mostly Cloudy,25000.0,,SCT,1500.0,BKN,25000.0,,,,
KRDR,08-09-2006,15:00,METAR,,230,5.0,,,9999.0,,25.0,21.0,29.89,1013.0,,,,,,,,,,,,,,,7/8 Mostly Cloudy,25000.0,,SCT,1300.0,BKN,25000.0,,,,
KRDR,08-09-2006,14:00,METAR,,210,6.0,,,9999.0,,24.0,21.0,29.90,1013.4,,,,,,,,,,,,,,,4/8 Partly Cloudy,72000.0,,FEW,5400.0,FEW,12000.0,SCT,25000.0,,
KRDR,08-09-2006,13:00,METAR,,190,6.0,,,9999.0,,21.0,20.0,29.89,1013.3,,,,,,,,,,,,,,,4/8 Partly Cloudy,72000.0,,FEW,5400.0,SCT,12000.0,SCT,25000.0,,
KRDR,08-09-2006,12:00,METAR,,200,8.0,,,9999.0,,20.0,18.0,29.88,1012.7,,,,,,,,,,,TRACE,,.16 IN,.16 IN,7/8 Mostly Cloudy,25000.0,,FEW,5900.0,SCT,12000.0,BKN,25000.0,,
KRDR,08-09-2006,11:06,SPECI,,210,9.0,,,9999.0,,21.0,19.0,29.88,,,,,,,,,,,,,,,,7/8 Mostly Cloudy,25000.0,,FEW,2600.0,SCT,5900.0,BKN,25000.0,,
KRDR,08-09-2006,11:00,METAR,,210,10.0,,,9999.0,Thunderstorm with Rain or Snow/Light Rain Showers,21.0,19.0,29.88,1012.9,,,,95,80,,,,,,.12 IN,,,,7/8 Mostly Cloudy,25000.0,,FEW,4900.0,BKN,25000.0,,,,
KRDR,08-09-2006,10:38,SPECI,,180,8.0,,,9999.0,Thunderstorm with Rain or Snow/Light Rain Showers,22.0,20.0,29.89,,,,,95,80,,,,,,,,,,7/8 Mostly Cloudy,8500.0,,FEW,300.0,SCT,2800.0,BKN,8400.0,,
KRDR,08-09-2006,10:22,SPECI,,200,14.0,,,9999.0,Thunderstorm with Rain or Snow/Light Rain Showers,23.0,20.0,29.92,,,,,95,80,,,,,,,,,,8/8 Overcast,2900.0,,FEW,200.0,SCT,1600.0,BKN,2900.0,OVC,25000.0
KRDR,08-09-2006,10:12,SPECI,,150,6.0,,,4000.0,Thunderstorm with Rain or Snow/Rain Showers,20.0,19.0,29.93,1014.4,,,,95,81,,,,,,,,,,8/8 Overcast,1700.0,,FEW,700.0,BKN,2300.0,OVC,7400.0,,
KRDR,08-09-2006,10:02,SPECI,,100,8.0,,,9999.0,Thunderstorm with Rain or Snow/Rain Showers,20.0,19.0,29.93,,,,,95,81,,,,,,,,,,8/8 Overcast,1700.0,,SCT,2200.0,BKN,3800.0,BKN,7400.0,OVC,25000.0
KRDR,08-09-2006,10:00,METAR,,40,9.0,,,9999.0,Thunderstorm with Rain or Snow/Light Rain Showers,20.0,18.0,29.94,1014.6,,,,95,80,,,,,,.02 IN,,,,7/8 Mostly Cloudy,3900.0,,SCT,2200.0,BKN,4000.0,BKN,25000.0,,
KRDR,08-09-2006,09:53,SPECI,,30,9.0,,,9999.0,Thunderstorm,20.0,18.0,29.94,1014.6,,,,17,,,,,,,,,,,8/8 Overcast,2200.0,,BKN,2200.0,OVC,4000.0,,,,
KRDR,08-09-2006,09:14,SPECI,,150,11.0,,,9999.0,Thunderstorm,20.0,18.0,29.91,,,,,17,,,,,,,,,,,8/8 Overcast,4900.0,,FEW,500.0,OVC,5000.0,,,,
KRDR,08-09-2006,09:00,METAR,,90,10.0,,,8000.0,Thunderstorm with Rain or Snow/Light Rain Showers,20.0,18.0,29.91,1013.8,,,,95,80,,,,,,.02 IN,.02 IN,,,8/8 Overcast,6000.0,,FEW,300.0,SCT,1400.0,BKN,5900.0,OVC,25000.0
KRDR,08-09-2006,08:37,SPECI,,40,4.0,,,9999.0,Thunderstorm with Rain or Snow/Light Rain Showers,21.0,17.0,29.91,1013.8,,,,95,80,,,,,,,,,,7/8 Mostly Cloudy,6000.0,,BKN,5900.0,BKN,25000.0,,,,
KRDR,08-09-2006,08:28,SPECI,,170,5.0,,,9999.0,Thunderstorm,21.0,17.0,29.91,,,,,17,,,,,,,,,,,7/8 Mostly Cloudy,6000.0,,BKN,5900.0,BKN,25000.0,,,,
KRDR,08-09-2006,08:18,SPECI,,170,6.0,,,9999.0,Thunderstorm,21.0,17.0,29.91,,,,,17,,,,,,,,,,,7/8 Mostly Cloudy,25000.0,,SCT,5900.0,BKN,25000.0,,,,
KRDR,08-09-2006,08:00,METAR,,180,8.0,,,9999.0,,21.0,16.0,29.91,1013.8,,,,,,,,,,,,,,,4/8 Partly Cloudy,72000.0,,FEW,8400.0,SCT,25000.0,,,,
KRDR,08-09-2006,07:00,METAR,,180,10.0,,,9999.0,,21.0,16.0,29.92,1014.2,,,,,,,,,,,,,,,2/8 Mostly Clear,72000.0,,FEW,25000.0,,,,,,
KRDR,08-09-2006,06:00,METAR,,180,11.0,,,9999.0,,22.0,15.0,29.91,1013.8,,,,,,,,,,,,,,,2/8 Mostly Clear,72000.0,,FEW,25000.0,,,,,,
KRDR,08-09-2006,05:00,METAR,,180,11.0,,,9999.0,,23.0,15.0,29.94,1014.6,,,,,,,,,,,,,,,4/8 Partly Cloudy,72000.0,,SCT,25000.0,,,,,,
KRDR,08-09-2006,04:00,METAR,,190,7.0,,,9999.0,,22.0,14.0,29.96,1015.3,,,,,,,,,,,,,,,7/8 Mostly Cloudy,25000.0,,BKN,25000.0,,,,,,
KRDR,08-09-2006,03:00,METAR,,180,9.0,,,9999.0,,24.0,14.0,29.95,1015.0,,,,,,,,,,,,,,,7/8 Mostly Cloudy,25000.0,,BKN,25000.0,,,,,,
KRDR,08-09-2006,02:00,METAR,,180,13.0,,,9999.0,,25.0,14.0,29.94,1014.7,,,,,,,,,,,,,,,7/8 Mostly Cloudy,25000.0,,BKN,25000.0,,,,,,
KRDR,08-09-2006,01:00,METAR,,180,15.0,,,9999.0,,27.0,14.0,29.95,1015.0,,,,,,,,,,,,,,,7/8 Mostly Cloudy,25000.0,,BKN,25000.0,,,,,,
KRDR,08-09-2006,00:00,METAR,,170,14.0,,,9999.0,,28.0,14.0,29.96,1015.3,,,,,,,,,,,,,,,7/8 Mostly Cloudy,25000.0,,BKN,25000.0,,,,,,
KRDR,08-08-2006,23:00,METAR,,170,17.0,23.0,,9999.0,,29.0,12.0,29.97,1015.9,,,,,,,,,,,,,,,7/8 Mostly Cloudy,25000.0,,BKN,25000.0,,,,,,
KRDR,08-08-2006,22:00,METAR,,170,16.0,24.0,180/27KTS,9999.0,,31.0,12.0,29.98,1016.1,,,,,,,,,,,,,,,7/8 Mostly Cloudy,25000.0,,FEW,11000.0,BKN,25000.0,,,,
KRDR,08-08-2006,21:00,METAR,,180,15.0,24.0,,9999.0,,30.0,12.0,30.00,1016.8,,,,,,,,,,,,,,,4/8 Partly Cloudy,72000.0,,FEW,11000.0,SCT,25000.0,,,,
KRDR,08-08-2006,20:00,METAR,,190,18.0,22.0,,9999.0,,30.0,12.0,30.03,1017.8,,,,,,,,,,,,,,,Clear,72000.0,,,73000.0,,,,,,
KRDR,08-08-2006,19:28,SPECI,Normal,180,17.0,23.0,,,,30.0,12.0,30.04,1018.0,,,,,,,,,,,,,,,,72000.0,,,,,,,,,
KRDR,08-08-2006,19:00,METAR,,180,18.0,26.0,180/26KTS,9999.0,,30.0,12.0,30.05,1018.2,,,,,,,,,,,,,,,2/8 Mostly Clear,72000.0,,FEW,25000.0,,,,,,
KRDR,08-08-2006,18:00,METAR,,190,18.0,21.0,,9999.0,,28.0,15.0,30.07,1019.0,,,,,,,,,,,,,,,Clear,72000.0,,,73000.0,,,,,,
KRDR,08-08-2006,17:00,METAR,,190,16.0,22.0,,9999.0,,27.0,15.0,30.08,1019.4,,,,,,,,,,,,,,,2/8 Mostly Clear,72000.0,,FEW,25000.0,,,,,,
KRDR,08-08-2006,16:35,SPECI,,180,16.0,20.0,,9999.0,,27.0,15.0,30.09,1019.6,,,,,,,,,,,,,,,Clear,72000.0,,,73000.0,,,,,,
KRDR,08-08-2006,16:28,SPECI,,170,15.0,20.0,,9999.0,,27.0,16.0,30.09,1019.6,,,,,,,,,,,,,,,Clear,72000.0,,,73000.0,,,,,,
KRDR,08-08-2006,16:00,METAR,,190,16.0,25.0,190/25KTS,9999.0,,26.0,15.0,30.09,1019.9,,,,,,,,,,,,,,,2/8 Mostly Clear,72000.0,,FEW,12000.0,FEW,25000.0,,,,
KRDR,08-08-2006,15:00,METAR,,190,11.0,,,9999.0,,23.0,15.0,30.12,1020.5,,,,,,,,,,,,,,,4/8 Partly Cloudy,72000.0,,FEW,11000.0,SCT,25000.0,,,,
KRDR,08-08-2006,14:00,METAR,,200,11.0,,,9999.0,,21.0,15.0,30.11,1020.4,,,,,,,,,,,,,,,Clear,72000.0,,,73000.0,,,,,,
KRDR,08-08-2006,13:00,METAR,,180,9.0,,,9999.0,,18.0,14.0,30.11,1020.5,,,,,,,,,,,,,,,2/8 Mostly Clear,72000.0,,FEW,11000.0,FEW,25000.0,,,,
KRDR,08-08-2006,12:00,METAR,,180,7.0,,,9999.0,,16.0,14.0,30.11,1020.5,,,,,,,,,,,,,,,2/8 Mostly Clear,72000.0,,FEW,11000.0,FEW,25000.0,,,,
KRDR,08-08-2006,11:00,METAR,,200,8.0,,,9999.0,,16.0,13.0,30.11,1020.4,,,,,,,,,,,,,,,2/8 Mostly Clear,72000.0,,FEW,11000.0,FEW,25000.0,,,,
KRDR,08-08-2006,10:00,METAR,,190,6.0,,,9999.0,,16.0,13.0,30.11,1020.4,,,,,,,,,,,,,,,2/8 Mostly Clear,72000.0,,FEW,25000.0,,,,,,
KRDR,08-08-2006,09:00,METAR,,160,6.0,,,9999.0,,17.0,13.0,30.12,1020.6,,,,,,,,,,,,,,,2/8 Mostly Clear,72000.0,,FEW,25000.0,,,,,,
KRDR,08-08-2006,08:00,METAR,,160,6.0,,,9999.0,,17.0,13.0,30.13,1020.9,,,,,,,,,,,,,,,2/8 Mostly Clear,72000.0,,FEW,25000.0,,,,,,
KRDR,08-08-2006,07:00,METAR,,170,6.0,,,9999.0,,17.0,13.0,30.14,1021.3,,,,,,,,,,,,,,,4/8 Partly Cloudy,72000.0,,SCT,25000.0,,,,,,
KRDR,08-08-2006,06:00,METAR,,170,6.0,,,9999.0,,18.0,13.0,30.15,1021.7,,,,,,,,,,,,,,,4/8 Partly Cloudy,72000.0,,SCT,25000.0,,,,,,
KRDR,08-08-2006,05:00,METAR,,160,4.0,,,9999.0,,18.0,12.0,30.16,1021.9,,,,,,,,,,,,,,,4/8 Partly Cloudy,72000.0,,SCT,25000.0,,,,,,
KRDR,08-08-2006,04:00,METAR,,160,7.0,,,9999.0,,21.0,12.0,30.15,1021.8,,,,,,,,,,,,,,,2/8 Mostly Clear,72000.0,,FEW,25000.0,,,,,,
KRDR,08-08-2006,03:00,METAR,,150,7.0,,,9999.0,,22.0,12.0,30.16,1021.8,,,,,,,,,,,,,,,2/8 Mostly Clear,72000.0,,FEW,25000.0,,,,,,
KRDR,08-08-2006,02:00,METAR,,160,8.0,,,9999.0,,24.0,11.0,30.15,1021.6,,,,,,,,,,,,,,,2/8 Mostly Clear,72000.0,,FEW,25000.0,,,,,,
KRDR,08-08-2006,01:00,METAR,,160,10.0,,,9999.0,,27.0,11.0,30.15,1021.7,,,,,,,,,,,,,,,2/8 Mostly Clear,72000.0,,FEW,25000.0,,,,,,
KRDR,08-08-2006,00:00,METAR,,180,11.0,,,9999.0,,28.0,11.0,30.15,1021.6,,,,,,,,,,,,,,,2/8 Mostly Clear,72000.0,,FEW,25000.0,,,,,,
KRDR,08-07-2006,23:00,METAR,,150,9.0,,,9999.0,,29.0,10.0,30.16,1021.9,,,,,,,,,,,,,,,2/8 Mostly Clear,72000.0,,FEW,25000.0,,,,,,
KRDR,08-07-2006,22:00,METAR,,180,5.0,,,9999.0,,29.0,10.0,30.17,1022.4,,,,,,,,,,,,,,,2/8 Mostly Clear,72000.0,,FEW,25000.0,,,,,,
KRDR,08-07-2006,21:00,METAR,,190,7.0,,,9999.0,,28.0,9.0,30.19,1022.9,,,,,,,,,,,,,,,2/8 Mostly Clear,72000.0,,FEW,25000.0,,,,,,
KRDR,08-07-2006,20:00,METAR,,230,10.0,,,9999.0,,28.0,9.0,30.20,1023.3,,,,,,,,,,,,,,,2/8 Mostly Clear,72000.0,,FEW,25000.0,,,,,,
KRDR,08-07-2006,19:00,METAR,,170,8.0,,,9999.0,,27.0,10.0,30.21,1023.5,,,,,,,,,,,,,,,2/8 Mostly Clear,72000.0,,FEW,25000.0,,,,,,
KRDR,08-07-2006,18:00,METAR,,140,8.0,,,9999.0,,26.0,10.0,30.23,1024.2,,,,,,,,,,,,,,,2/8 Mostly Clear,72000.0,,FEW,25000.0,,,,,,
KRDR,08-07-2006,17:00,METAR,,190,6.0,,,9999.0,,25.0,11.0,30.24,1024.7,,,,,,,,,,,,,,,2/8 Mostly Clear,72000.0,,FEW,25000.0,,,,,,
KRDR,08-07-2006,16:00,METAR,,180,7.0,,,9999.0,,23.0,11.0,30.25,1024.9,,,,,,,,,,,,,,,2/8 Mostly Clear,72000.0,,FEW,25000.0,,,,,,
KRDR,08-07-2006,15:00,METAR,,150,7.0,,,9999.0,,21.0,12.0,30.25,1024.8,,,,,,,,,,,,,,,Clear,72000.0,,,73000.0,,,,,,
KRDR,08-07-2006,14:00,METAR,,,2.0,,,9999.0,,18.0,11.0,30.24,1024.7,,,,,,,,,,,,,,,2/8 Mostly Clear,72000.0,,FEW,25000.0,,,,,,
KRDR,08-07-2006,13:00,METAR,,,0.0,,,9999.0,,14.0,10.0,30.23,1024.3,,,,,,,,,,,,,,,2/8 Mostly Clear,72000.0,,FEW,25000.0,,,,,,
KRDR,08-07-2006,12:00,METAR,,260,3.0,,,9999.0,,8.0,6.0,30.21,1023.8,,,,,,,,,,,,,,,2/8 Mostly Clear,72000.0,,FEW,25000.0,,,,,,
KRDR,08-07-2006,11:00,METAR,,,0.0,,,9999.0,,8.0,6.0,30.19,1023.1,,,,,,,,,,,,,,,2/8 Mostly Clear,72000.0,,FEW,25000.0,,,,,,
KRDR,08-07-2006,09:00,METAR,,290,3.0,,,9999.0,,9.0,7.0,30.17,1022.4,,,,,,,,,,,,,,,2/8 Mostly Clear,72000.0,,FEW,25000.0,,,,,,
KRDR,08-07-2006,08:00,METAR,,,0.0,,,9999.0,,9.0,7.0,30.15,1021.7,,,,,,,,,,,,,,,4/8 Partly Cloudy,72000.0,,SCT,25000.0,,,,,,
KRDR,08-07-2006,07:00,METAR,,,0.0,,,9999.0,,11.0,8.0,30.14,1021.5,,,,,,,,,,,,,,,2/8 Mostly Clear,72000.0,,FEW,25000.0,,,,,,
KRDR,08-07-2006,06:00,METAR,,,0.0,,,9999.0,,13.0,9.0,30.14,1021.4,,,,,,,,,,,,,,,Clear,72000.0,,,73000.0,,,,,,
KRDR,08-07-2006,05:00,METAR,,260,4.0,,,9999.0,,13.0,9.0,30.13,1020.9,,,,,,,,,,,,,,,Clear,72000.0,,,73000.0,,,,,,
KRDR,08-07-2006,04:00,METAR,,280,3.0,,,9999.0,,14.0,9.0,30.11,1020.5,,,,,,,,,,,,,,,Clear,72000.0,,,73000.0,,,,,,
KRDR,08-07-2006,03:00,METAR,,330,4.0,,,9999.0,,18.0,10.0,30.09,1019.7,,,,,,,,,,,,,,,2/8 Mostly Clear,72000.0,,FEW,25000.0,,,,,,
KRDR,08-07-2006,02:00,METAR,,360,6.0,,,9999.0,,20.0,11.0,30.07,1019.0,,,,,,,,,,,,,,,2/8 Mostly Clear,72000.0,,FEW,5900.0,FEW,25000.0,,,,
KRDR,08-07-2006,01:00,METAR,,350,11.0,,,9999.0,,25.0,10.0,30.05,1018.5,,,,,,,,,,,,,,,2/8 Mostly Clear,72000.0,,FEW,5900.0,FEW,25000.0,,,,
KRDR,08-07-2006,00:00,METAR,,340,9.0,,,9999.0,,26.0,9.0,30.04,1018.2,,,,,,,,,,,,,,,Clear,72000.0,,,73000.0,,,,,,
KRDR,08-06-2006,23:00,METAR,,340,16.0,,,9999.0,,27.0,9.0,30.03,1017.8,,,,,,,,,,,,,,,2/8 Mostly Clear,72000.0,,FEW,5000.0,,,,,,
KRDR,08-06-2006,22:00,METAR,,340,10.0,24.0,,9999.0,,27.0,9.0,30.02,1017.5,,,,,,,,,,,,,,,2/8 Mostly Clear,72000.0,,FEW,5000.0,,,,,,
KRDR,08-06-2006,21:00,METAR,,350,15.0,20.0,330/26KTS,9999.0,,28.0,9.0,30.02,1017.3,,,,,,,,,,,,,,,2/8 Mostly Clear,72000.0,,FEW,3000.0,,,,,,
KRDR,08-06-2006,20:00,METAR,,300,13.0,22.0,310/28KTS,9999.0,,28.0,8.0,30.01,1016.9,,,,,,,,,,,,,,,2/8 Mostly Clear,72000.0,,FEW,3000.0,,,,,,
KRDR,08-06-2006,19:00,METAR,,300,17.0,23.0,290/27KTS,9999.0,,27.0,6.0,30.00,1016.7,,,,,,,,,,,,,,,2/8 Mostly Clear,72000.0,,FEW,3000.0,,,,,,
KRDR,08-06-2006,18:00,METAR,,320,19.0,26.0,300/27KTS,9999.0,,26.0,7.0,30.00,1016.6,,,,,,,,,,,,,,,Clear,72000.0,,,73000.0,,,,,,
KRDR,08-06-2006,17:00,METAR,,310,17.0,27.0,310/27KTS,9999.0,,24.0,7.0,30.00,1016.7,,,,,,,,,,,,,,,Clear,72000.0,,,73000.0,,,,,,
KRDR,08-06-2006,16:00,METAR,,310,20.0,25.0,290/30KTS,9999.0,,23.0,7.0,29.99,1016.4,,,,,,,,,,,,,,,Clear,72000.0,,,73000.0,,,,,,
KRDR,08-06-2006,15:00,METAR,,310,18.0,24.0,,9999.0,,22.0,7.0,29.99,1016.3,,,,,,,,,,,,,,,Clear,72000.0,,,73000.0,,,,,,
KRDR,08-06-2006,14:00,METAR,,290,9.0,,,9999.0,,20.0,10.0,29.98,1016.1,,,,,,,,,,,,,,,Clear,72000.0,,,73000.0,,,,,,
KRDR,08-06-2006,13:00,METAR,,260,10.0,,,9999.0,,17.0,9.0,29.96,1015.5,,,,,,,,,,,,,,,Clear,72000.0,,,73000.0,,,,,,
KRDR,08-06-2006,12:00,METAR,,250,8.0,,,9999.0,,14.0,9.0,29.94,1014.9,,,,,,,,,,,,,,,Clear,72000.0,,,73000.0,,,,,,
KRDR,08-06-2006,11:00,METAR,,270,7.0,,,9999.0,,13.0,8.0,29.93,1014.6,,,,,,,,,,,,,,,2/8 Mostly Clear,72000.0,,FEW,25000.0,,,,,,
KRDR,08-06-2006,10:00,METAR,,270,6.0,,,9999.0,,12.0,8.0,29.93,1014.4,,,,,,,,,,,,,,,Clear,72000.0,,,73000.0,,,,,,
KRDR,08-06-2006,09:00,METAR,,270,6.0,,,9999.0,,12.0,8.0,29.92,1014.0,,,,,,,,,,,,,,,Clear,72000.0,,,73000.0,,,,,,
KRDR,08-06-2006,08:00,METAR,,260,6.0,,,9999.0,,12.0,8.0,29.91,1013.8,,,,,,,,,,,,,,,Clear,72000.0,,,73000.0,,,,,,
KRDR,08-06-2006,07:00,METAR,,250,6.0,,,9999.0,,12.0,8.0,29.91,1013.9,,,,,,,,,,,,,,,Clear,72000.0,,,73000.0,,,,,,
KRDR,08-06-2006,06:00,METAR,,290,6.0,,,9999.0,,15.0,9.0,29.92,1014.0,,,,,,,,,,,,,,,Clear,72000.0,,,73000.0,,,,,,
KRDR,08-06-2006,05:00,METAR,,290,7.0,,,9999.0,,15.0,8.0,29.90,1013.6,,,,,,,,,,,,,,,Clear,72000.0,,,73000.0,,,,,,
KRDR,08-06-2006,04:00,METAR,,280,6.0,,,9999.0,,17.0,9.0,29.89,1013.2,,,,,,,,,,,,,,,Clear,72000.0,,,73000.0,,,,,,
KRDR,08-06-2006,03:00,METAR,,280,7.0,,,9999.0,,19.0,8.0,29.87,1012.3,,,,,,,,,,,,,,,2/8 Mostly Clear,72000.0,,FEW,25000.0,,,,,,
KRDR,08-06-2006,02:00,METAR,,300,11.0,,,9999.0,,23.0,8.0,29.82,1010.6,,,,,,,,,,,,,,,4/8 Partly Cloudy,72000.0,,FEW,12000.0,SCT,25000.0,,,,
KRDR,08-06-2006,01:00,METAR,,300,14.0,21.0,,9999.0,,26.0,8.0,29.80,1010.2,,,,,,,,,,,,,,,2/8 Mostly Clear,72000.0,,FEW,25000.0,,,,,,
KRDR,08-06-2006,00:00,METAR,,290,15.0,24.0,300/28KTS,9999.0,,28.0,9.0,29.78,1009.4,,,,,,,,,,,,,,,Clear,72000.0,,,73000.0,,,,,,
KRDR,08-05-2006,23:00,METAR,,300,11.0,,,9999.0,,31.0,13.0,29.75,1008.5,,,,,,,,,,,,,,,4/8 Partly Cloudy,72000.0,,FEW,5900.0,SCT,25000.0,,,,
KRDR,08-05-2006,22:11,SPECI,,290,18.0,,,9999.0,,31.0,17.0,29.75,,,,,,,,,,,,,,,,7/8 Mostly Cloudy,6000.0,,BKN,5900.0,,,,,,
KRDR,08-05-2006,22:00,METAR,,230,11.0,,,9999.0,,32.0,18.0,29.74,1008.1,,,,,,,,,,,,,,,7/8 Mostly Cloudy,6000.0,,BKN,5900.0,BKN,25000.0,,,,
KRDR,08-05-2006,21:00,METAR,,200,17.0,24.0,,9999.0,,32.0,20.0,29.74,1008.2,,,,,,,,,,,,,,,7/8 Mostly Cloudy,15000.0,,SCT,4600.0,BKN,15000.0,BKN,25000.0,,
KRDR,08-05-2006,20:00,METAR,,210,15.0,,220/27KTS,9999.0,,31.0,19.0,29.75,1008.4,,,,,,,,,,,,,,,7/8 Mostly Cloudy,25000.0,,FEW,5000.0,SCT,15000.0,BKN,25000.0,,
KRDR,08-05-2006,19:00,METAR,,170,14.0,21.0,,9999.0,,29.0,19.0,29.71,1007.1,,,,,,,,,,,,,,,7/8 Mostly Cloudy,20000.0,,FEW,6900.0,BKN,20000.0,,,,
KRDR,08-05-2006,18:18,SPECI,,170,16.0,,,9999.0,,28.0,18.0,29.74,,,,,,,,,,,,,,,,7/8 Mostly Cloudy,20000.0,,FEW,6900.0,BKN,20000.0,,,,
KRDR,08-05-2006,18:00,METAR,,190,15.0,,,9999.0,Thunderstorm,28.0,18.0,29.77,1009.1,,,,17,,,,,,,,,,,7/8 Mostly Cloudy,20000.0,,SCT,6900.0,BKN,20000.0,,,,
KRDR,08-05-2006,17:17,SPECI,,210,13.0,,,9999.0,Thunderstorm,28.0,18.0,29.77,,,,,17,,,,,,,,,,,7/8 Mostly Cloudy,7000.0,,BKN,6900.0,,,,,,
KRDR,08-05-2006,17:00,METAR,,210,14.0,18.0,,9999.0,,28.0,18.0,29.77,1009.0,,,,,,,,,,,,,,,7/8 Mostly Cloudy,25000.0,,SCT,6400.0,BKN,25000.0,,,,
KRDR,08-05-2006,16:00,METAR,,190,18.0,22.0,,9999.0,,27.0,18.0,29.77,1009.1,,,,,,,,,,,,,,,7/8 Mostly Cloudy,25000.0,,FEW,4000.0,BKN,25000.0,,,,
KRDR,08-05-2006,15:00,METAR,,180,15.0,,,9999.0,,25.0,17.0,29.78,1009.3,,,,,,,,,,,,,,,7/8 Mostly Cloudy,25000.0,,FEW,3000.0,BKN,25000.0,,,,
KRDR,08-05-2006,14:00,METAR,,180,15.0,,,9999.0,,22.0,17.0,29.80,1010.0,,,,,,,,,,,,,,,2/8 Mostly Clear,72000.0,,FEW,25000.0,,,,,,
KRDR,08-05-2006,13:22,SPECI,,170,10.0,,,9999.0,,20.0,16.0,29.81,1010.3,,,,,,,,,,,,,,,Clear,72000.0,,,73000.0,,,,,,
KRDR,08-05-2006,13:00,METAR,,160,10.0,,,9999.0,,19.0,16.0,29.81,1009.3,,,,,,,,,,,,,,,2/8 Mostly Clear,72000.0,,FEW,25000.0,,,,,,
KRDR,08-05-2006,12:00,METAR,,130,8.0,,,9999.0,,17.0,15.0,29.81,1009.3,,,,,,,,,,,,,,,2/8 Mostly Clear,72000.0,,FEW,25000.0,,,,,,
KRDR,08-05-2006,11:00,METAR,,100,6.0,,,9999.0,,17.0,15.0,29.79,1008.8,,,,,,,,,,,,,,,2/8 Mostly Clear,72000.0,,FEW,5900.0,FEW,25000.0,,,,
KRDR,08-05-2006,10:00,METAR,,140,3.0,,,9999.0,,17.0,15.0,29.78,1008.6,,,,,,,,,,,,,,,2/8 Mostly Clear,72000.0,,FEW,25000.0,,,,,,
KRDR,08-05-2006,09:00,METAR,,150,5.0,,,9999.0,,18.0,15.0,29.80,1009.1,,,,,,,,,,,,,,,2/8 Mostly Clear,72000.0,,FEW,25000.0,,,,,,
KRDR,08-05-2006,08:00,METAR,,150,5.0,,,9999.0,,18.0,14.0,29.83,1010.0,,,,,,,,,,,,,,,2/8 Mostly Clear,72000.0,,FEW,12000.0,FEW,25000.0,,,,
KRDR,08-05-2006,07:00,METAR,,90,3.0,,,9999.0,,21.0,15.0,29.81,1009.4,,,,,,,,,,,,,,,2/8 Mostly Clear,72000.0,,FEW,12000.0,FEW,25000.0,,,,
KRDR,08-05-2006,06:00,METAR,,110,4.0,,,9999.0,,21.0,14.0,29.82,1009.6,,,,,,,,,,,,,,,2/8 Mostly Clear,72000.0,,FEW,12000.0,FEW,25000.0,,,,
KRDR,08-05-2006,05:00,METAR,,190,8.0,,,9999.0,,23.0,15.0,29.81,1009.2,,,,,,,,,,,,,,,4/8 Partly Cloudy,72000.0,,FEW,12000.0,SCT,25000.0,,,,
KRDR,08-05-2006,04:00,METAR,,160,8.0,,,9999.0,,24.0,15.0,29.80,1009.1,,,,,,,,,,,,,,,4/8 Partly Cloudy,72000.0,,FEW,12000.0,SCT,25000.0,,,,
KRDR,08-05-2006,03:00,METAR,,120,6.0,,,9999.0,,24.0,13.0,29.83,1011.0,,,,,,,,,,,,,,,Clear,72000.0,,,73000.0,,,,,,
KRDR,08-05-2006,02:00,METAR,,140,9.0,,,9999.0,,26.0,11.0,29.82,1010.6,,,,,,,,,,,,,,,Clear,72000.0,,,73000.0,,,,,,
KRDR,08-05-2006,01:00,METAR,,160,14.0,21.0,,9999.0,,28.0,9.0,29.81,1010.5,,,,,,,,,,,,,,,2/8 Mostly Clear,72000.0,,FEW,12000.0,FEW,25000.0,,,,
KRDR,08-05-2006,00:00,METAR,,160,12.0,,,9999.0,,29.0,11.0,29.84,1011.5,,,,,,,,,,,,,,,Clear,72000.0,,,73000.0,,,,,,
KRDR,08-04-2006,23:00,METAR,,160,14.0,,,9999.0,,29.0,13.0,29.85,1011.8,,,,,,,,,,,,,,,7/8 Mostly Cloudy,25000.0,,SCT,11000.0,BKN,25000.0,,,,
KRDR,08-04-2006,22:00,METAR,,160,16.0,20.0,,9999.0,,30.0,14.0,29.87,1012.5,,,,,,,,,,,,,,,7/8 Mostly Cloudy,25000.0,,SCT,11000.0,BKN,25000.0,,,,
KRDR,08-04-2006,21:00,METAR,,120,11.0,19.0,,9999.0,,30.0,14.0,29.90,1013.5,,,,,,,,,,,,,,,4/8 Partly Cloudy,72000.0,,FEW,11000.0,SCT,25000.0,,,,
KRDR,08-04-2006,20:00,METAR,,120,14.0,19.0,,9999.0,,28.0,15.0,29.92,1014.2,,,,,,,,,,,,,,,4/8 Partly Cloudy,72000.0,,FEW,6900.0,SCT,11000.0,SCT,25000.0,,
KRDR,08-04-2006,19:00,METAR,,110,14.0,19.0,,9999.0,,28.0,14.0,29.95,1015.1,,,,,,,,,,,,,,,7/8 Mostly Cloudy,25000.0,,FEW,6900.0,SCT,11000.0,BKN,25000.0,,
KRDR,08-04-2006,17:53,METAR,,100,8.0,,,9999.0,,27.0,14.0,29.98,1016.1,,,,,,,,,,,,,,,7/8 Mostly Cloudy,25000.0,,SCT,11000.0,BKN,25000.0,,,,
KRDR,08-04-2006,17:00,METAR,,110,8.0,,,9999.0,,25.0,13.0,29.98,1016.1,,,,,,,,,,,,,,,7/8 Mostly Cloudy,25000.0,,SCT,9900.0,BKN,25000.0,,,,
KRDR,08-04-2006,16:00,METAR,,110,9.0,,,9999.0,,23.0,13.0,30.00,1016.7,,,,,,,,,,,,,,,7/8 Mostly Cloudy,25000.0,,SCT,11000.0,BKN,25000.0,,,,
KRDR,08-04-2006,15:00,METAR,,90,11.0,,,9999.0,,20.0,12.0,30.01,1017.0,,,,,,,,,,,,,,,8/8 Overcast,9500.0,,OVC,9400.0,,,,,,
KRDR,08-04-2006,14:00,METAR,,60,12.0,,,9999.0,,19.0,12.0,30.03,1017.6,,,,,,,,,,,,,,,7/8 Mostly Cloudy,9000.0,,BKN,8900.0,,,,,,
KRDR,08-04-2006,13:00,METAR,,350,14.0,,,9999.0,,18.0,11.0,30.01,1017.1,,,,,,,,,,,,,,,7/8 Mostly Cloudy,12000.0,,FEW,5000.0,BKN,12000.0,,,,
KRDR,08-04-2006,12:00,METAR,,110,4.0,,,9999.0,,17.0,10.0,29.99,1016.4,,,,,,,,,,,,,,,4/8 Partly Cloudy,72000.0,,FEW,5000.0,SCT,15000.0,,,,
KRDR,08-04-2006,11:00,METAR,,160,10.0,,,9999.0,,17.0,10.0,29.98,1016.2,,,,,,,,,,,,,,,4/8 Partly Cloudy,72000.0,,SCT,15000.0,,,,,,
KRDR,08-04-2006,10:00,METAR,,150,8.0,,,9999.0,,18.0,10.0,29.98,1016.0,,,,,,,,,,,,,,,4/8 Partly Cloudy,72000.0,,FEW,12000.0,SCT,25000.0,,,,
KRDR,08-04-2006,09:00,METAR,,180,4.0,,,9999.0,,16.0,10.0,30.01,1017.0,,,,,,,,,,,,,,,4/8 Partly Cloudy,72000.0,,SCT,9900.0,,,,,,
KRDR,08-04-2006,08:00,METAR,,180,2.0,,,9999.0,,15.0,10.0,30.02,1017.3,,,,,,,,,,,,,,,4/8 Partly Cloudy,72000.0,,FEW,9900.0,SCT,25000.0,,,,
KRDR,08-04-2006,07:00,METAR,,190,4.0,,,9999.0,,14.0,10.0,30.03,1017.7,,,,,,,,,,,,,,,4/8 Partly Cloudy,72000.0,,SCT,25000.0,,,,,,
KRDR,08-04-2006,06:00,METAR,,,0.0,,,9999.0,,14.0,11.0,30.04,1018.2,,,,,,,,,,,,,,,Clear,72000.0,,,73000.0,,,,,,
KRDR,08-04-2006,05:00,METAR,,,0.0,,,9999.0,,16.0,11.0,30.05,1018.3,,,,,,,,,,,,,,,Clear,72000.0,,,73000.0,,,,,,
KRDR,08-04-2006,04:00,METAR,,200,5.0,,,9999.0,,17.0,11.0,30.04,1018.0,,,,,,,,,,,,,,,Clear,72000.0,,,73000.0,,,,,,
KRDR,08-04-2006,03:00,METAR,,60,5.0,,,9999.0,,22.0,11.0,30.02,1017.4,,,,,,,,,,,,,,,Clear,72000.0,,,73000.0,,,,,,
KRDR,08-04-2006,02:00,METAR,,10,4.0,,,9999.0,,25.0,11.0,30.01,1017.1,,,,,,,,,,,,,,,Clear,72000.0,,,73000.0,,,,,,
KRDR,08-04-2006,01:00,METAR,,20,6.0,,,9999.0,,27.0,10.0,30.00,1016.9,,,,,,,,,,,,,,,Clear,72000.0,,,73000.0,,,,,,
KRDR,08-04-2006,00:00,METAR,,20,6.0,,,9999.0,,28.0,10.0,30.00,1016.9,,,,,,,,,,,,,,,Clear,72000.0,,,73000.0,,,,,,
KRDR,08-03-2006,23:00,METAR,,320,5.0,,,9999.0,,29.0,10.0,30.00,1016.7,,,,,,,,,,,,,,,2/8 Mostly Clear,72000.0,,FEW,6900.0,FEW,25000.0,,,,
KRDR,08-03-2006,22:00,METAR,,,0.0,,,9999.0,,29.0,10.0,30.00,1016.7,,,,,,,,,,,,,,,2/8 Mostly Clear,72000.0,,FEW,6900.0,FEW,25000.0,,,,
KRDR,08-03-2006,21:00,METAR,,360,9.0,,,9999.0,,29.0,10.0,30.00,1016.8,,,,,,,,,,,,,,,2/8 Mostly Clear,72000.0,,FEW,6900.0,FEW,25000.0,,,,
KRDR,08-03-2006,20:00,METAR,,340,12.0,,,9999.0,,29.0,9.0,30.01,1017.1,,,,,,,,,,,,,,,2/8 Mostly Clear,72000.0,,FEW,6900.0,FEW,25000.0,,,,
KRDR,08-03-2006,19:00,METAR,,340,8.0,,,9999.0,,29.0,10.0,30.02,1017.4,,,,,,,,,,,,,,,2/8 Mostly Clear,72000.0,,FEW,6900.0,FEW,25000.0,,,,
KRDR,08-03-2006,18:00,METAR,,330,12.0,,,9999.0,,27.0,11.0,30.02,1017.5,,,,,,,,,,,,,,,2/8 Mostly Clear,72000.0,,FEW,6900.0,FEW,25000.0,,,,
KRDR,08-03-2006,17:00,METAR,,350,7.0,,,9999.0,,26.0,13.0,30.02,1017.5,,,,,,,,,,,,,,,Clear,72000.0,,,73000.0,,,,,,
KRDR,08-03-2006,16:00,METAR,,320,6.0,,,9999.0,,24.0,14.0,30.02,1017.5,,,,,,,,,,,,,,,Clear,72000.0,,,73000.0,,,,,,
KRDR,08-03-2006,15:00,METAR,,320,5.0,,,9999.0,,21.0,15.0,30.01,1017.1,,,,,,,,,,,,,,,Clear,72000.0,,,73000.0,,,,,,
KRDR,08-03-2006,14:00,METAR,,330,5.0,,,9999.0,,19.0,15.0,29.99,1016.5,,,,,,,,,,,,,,,Clear,72000.0,,,73000.0,,,,,,
KRDR,08-03-2006,13:00,METAR,,290,2.0,,,9999.0,,16.0,13.0,29.98,1015.9,,,,,,,,,,,,,,,Clear,72000.0,,,73000.0,,,,,,
KRDR,08-03-2006,12:00,METAR,,290,5.0,,,9999.0,,13.0,11.0,29.96,1015.4,,,,,,,,,,,,,,.05 IN,Clear,72000.0,,,73000.0,,,,,,
KRDR,08-03-2006,11:00,METAR,,290,5.0,,,9999.0,,12.0,11.0,29.95,1015.2,,,,,,,,,,,,,,,Clear,72000.0,,,73000.0,,,,,,
KRDR,08-03-2006,10:00,METAR,,290,6.0,,,9999.0,,11.0,11.0,29.94,1014.6,,,,,,,,,,,,,,,Clear,72000.0,,,73000.0,,,,,,
KRDR,08-03-2006,09:00,METAR,,360,6.0,,,9999.0,,13.0,12.0,29.93,1014.3,,,,,,,,,,,,,,,2/8 Mostly Clear,72000.0,,FEW,12000.0,,,,,,
KRDR,08-03-2006,08:00,METAR,,230,6.0,,,9999.0,,14.0,13.0,29.90,1013.5,,,,,,,,,,,,,,,4/8 Partly Cloudy,72000.0,,FEW,11000.0,SCT,15000.0,,,,
KRDR,08-03-2006,07:00,METAR,,,3.0,,,9999.0,,16.0,14.0,29.91,1013.7,,,,,,,,,,,,,,,8/8 Overcast,11000.0,,BKN,11000.0,OVC,15000.0,,,,
KRDR,08-03-2006,06:00,METAR,,140,5.0,,,9999.0,,17.0,15.0,29.92,1014.0,,,,,,,,,,,.01 IN,,.05 IN,,4/8 Partly Cloudy,72000.0,,FEW,12000.0,SCT,15000.0,,,,
KRDR,08-03-2006,05:14,SPECI,,30,4.0,,,9999.0,,17.0,15.0,29.94,1014.9,,,,,,,,,,,,,,,7/8 Mostly Cloudy,15000.0,,FEW,8400.0,BKN,15000.0,,,,
KRDR,08-03-2006,05:00,METAR,,350,8.0,,320/31KTS,9999.0,Rain,17.0,14.0,29.96,1015.6,,,,61,,,,,,,.04 IN,,,,7/8 Mostly Cloudy,15000.0,,SCT,8400.0,BKN,15000.0,,,,
KRDR,08-03-2006,04:15,SPECI,,320,16.0,31.0,,9999.0,Rain,23.0,11.0,29.97,,,,,61,,,,,,,,,,,7/8 Mostly Cloudy,9000.0,,FEW,5900.0,BKN,8900.0,,,,
KRDR,08-03-2006,04:00,METAR,,,6.0,,,9999.0,,21.0,12.0,29.91,1013.7,,,,,,,,,,,,,,,4/8 Partly Cloudy,72000.0,,FEW,9900.0,SCT,15000.0,,,,
KRDR,08-03-2006,03:00,METAR,,190,8.0,,,9999.0,,21.0,12.0,29.89,1013.1,,,,,,,,,,,,,,,4/8 Partly Cloudy,72000.0,,SCT,15000.0,SCT,25000.0,,,,
KRDR,08-03-2006,02:00,METAR,,190,7.0,,,9999.0,,23.0,13.0,29.89,1013.1,,,,,,,,,,,,,,,2/8 Mostly Clear,72000.0,,FEW,15000.0,FEW,25000.0,,,,
KRDR,08-03-2006,01:00,METAR,,190,7.0,,,9999.0,,27.0,12.0,29.89,1013.0,,,,,,,,,,,,,,,2/8 Mostly Clear,72000.0,,FEW,7900.0,FEW,25000.0,,,,
KRDR,08-03-2006,00:00,METAR,,190,9.0,,,9999.0,,28.0,10.0,29.90,1013.3,,,,,,,,,,,,,,,7/8 Mostly Cloudy,25000.0,,SCT,7400.0,SCT,9900.0,BKN,25000.0,,
KRDR,08-02-2006,23:00,METAR,,190,7.0,,,9999.0,,27.0,9.0,29.91,1013.9,,,,,,,,,,,,,,,7/8 Mostly Cloudy,10000.0,,SCT,7400.0,BKN,9900.0,BKN,25000.0,,
KRDR,08-02-2006,22:00,METAR,,240,7.0,,,9999.0,,28.0,9.0,29.92,1014.0,,,,,,,,,,,,,,,7/8 Mostly Cloudy,11000.0,,SCT,7400.0,BKN,11000.0,BKN,25000.0,,
KRDR,08-02-2006,21:00,METAR,,,5.0,,,9999.0,,28.0,8.0,29.92,1014.1,,,,,,,,,,,,,,,7/8 Mostly Cloudy,11000.0,,FEW,7400.0,BKN,11000.0,BKN,25000.0,,
KRDR,08-02-2006,20:00,METAR,,,0.0,,,9999.0,,28.0,8.0,29.93,1014.4,,,,,,,,,,,,,,,7/8 Mostly Cloudy,25000.0,,FEW,7400.0,SCT,11000.0,BKN,25000.0,,
KRDR,08-02-2006,19:00,METAR,,,0.0,,,9999.0,,27.0,9.0,29.94,1014.8,,,,,,,,,,,,,,,7/8 Mostly Cloudy,25000.0,,FEW,6900.0,SCT,9900.0,BKN,25000.0,,
KRDR,08-02-2006,18:00,METAR,,,0.0,,,9999.0,,24.0,10.0,29.94,1014.8,,,,,,,,,,,,,,,8/8 Overcast,10000.0,,OVC,9900.0,,,,,,
KRDR,08-02-2006,17:00,METAR,,30,5.0,,,9999.0,,23.0,11.0,29.94,1014.7,,,,,,,,,,,,,,,8/8 Overcast,10000.0,,OVC,9900.0,,,,,,
KRDR,08-02-2006,16:00,METAR,,360,9.0,,,9999.0,,24.0,11.0,29.94,1014.7,,,,,,,,,,,,,,,7/8 Mostly Cloudy,11000.0,,BKN,11000.0,BKN,25000.0,,,,
KRDR,08-02-2006,15:00,METAR,,340,13.0,,,9999.0,,24.0,10.0,29.93,1014.5,,,,,,,,,,,,,,,7/8 Mostly Cloudy,15000.0,,FEW,12000.0,BKN,15000.0,BKN,25000.0,,
KRDR,08-02-2006,14:00,METAR,,320,12.0,17.0,,9999.0,,21.0,11.0,29.93,1014.3,,,,,,,,,,,,,,,7/8 Mostly Cloudy,15000.0,,BKN,15000.0,BKN,25000.0,,,,
KRDR,08-02-2006,13:00,METAR,,320,10.0,,,9999.0,,19.0,10.0,29.92,1014.2,,,,,,,,,,,,,,,7/8 Mostly Cloudy,15000.0,,BKN,15000.0,BKN,25000.0,,,,
KRDR,08-02-2006,12:00,METAR,,320,7.0,,,9999.0,,17.0,11.0,29.91,1013.6,,,,,,,,,,,,,,,7/8 Mostly Cloudy,15000.0,,BKN,15000.0,BKN,25000.0,,,,
KRDR,08-02-2006,11:00,METAR,,310,3.0,,,9999.0,,16.0,11.0,29.89,1013.0,,,,,,,,,,,,,,,7/8 Mostly Cloudy,15000.0,,BKN,15000.0,BKN,25000.0,,,,
KRDR,08-02-2006,10:00,METAR,,340,5.0,,,9999.0,,17.0,10.0,29.88,1012.7,,,,,,,,,,,,,,,7/8 Mostly Cloudy,25000.0,,SCT,15000.0,BKN,25000.0,,,,
KRDR,08-02-2006,09:00,METAR,,320,5.0,,,9999.0,,18.0,10.0,29.88,1012.6,,,,,,,,,,,,,,,7/8 Mostly Cloudy,25000.0,,SCT,15000.0,BKN,25000.0,,,,
KRDR,08-02-2006,08:00,METAR,,300,6.0,,,9999.0,,18.0,12.0,29.85,1011.9,,,,,,,,,,,,,,,7/8 Mostly Cloudy,25000.0,,SCT,15000.0,BKN,25000.0,,,,
KRDR,08-02-2006,07:00,METAR,,220,4.0,,,9999.0,,18.0,12.0,29.87,1012.3,,,,,,,,,,,,,,,7/8 Mostly Cloudy,15000.0,,FEW,12000.0,BKN,15000.0,BKN,25000.0,,
KRDR,08-02-2006,06:00,METAR,,230,3.0,,,9999.0,,19.0,12.0,29.87,1012.5,,,,,,,,,,,,,,,7/8 Mostly Cloudy,12000.0,,BKN,12000.0,BKN,25000.0,,,,
KRDR,08-02-2006,05:00,METAR,,,0.0,,,9999.0,,19.0,12.0,29.87,1012.4,,,,,,,,,,,,,,,7/8 Mostly Cloudy,15000.0,,BKN,15000.0,BKN,25000.0,,,,
KRDR,08-02-2006,04:00,METAR,,,0.0,,,9999.0,,19.0,12.0,29.87,1012.3,,,,,,,,,,,,,,,7/8 Mostly Cloudy,15000.0,,BKN,15000.0,BKN,25000.0,,,,
KRDR,08-02-2006,03:00,METAR,,260,4.0,,,9999.0,,19.0,12.0,29.88,1012.6,,,,,,,,,,,,,,,7/8 Mostly Cloudy,15000.0,,BKN,15000.0,BKN,25000.0,,,,
KRDR,08-02-2006,02:00,METAR,,30,3.0,,,9999.0,,22.0,10.0,29.86,1012.0,,,,,,,,,,,,,,,7/8 Mostly Cloudy,15000.0,,BKN,15000.0,BKN,25000.0,,,,
KRDR,08-02-2006,01:00,METAR,,,6.0,,,9999.0,,25.0,9.0,29.86,1012.1,,,,,,,,,,,,,,,7/8 Mostly Cloudy,15000.0,,BKN,15000.0,BKN,25000.0,,,,
KRDR,08-02-2006,00:00,METAR,,30,7.0,,,9999.0,,27.0,8.0,29.85,1011.8,,,,,,,,,,,,,,,7/8 Mostly Cloudy,15000.0,,BKN,15000.0,BKN,25000.0,,,,
KRDR,08-01-2006,23:00,METAR,,10,10.0,,,9999.0,,28.0,9.0,29.86,1012.1,,,,,,,,,,,,,,,7/8 Mostly Cloudy,25000.0,,SCT,15000.0,BKN,25000.0,,,,
KRDR,08-01-2006,22:00,METAR,,,6.0,,,9999.0,,28.0,8.0,29.86,1012.2,,,,,,,,,,,,,,,7/8 Mostly Cloudy,25000.0,,SCT,15000.0,BKN,25000.0,,,,
KRDR,08-01-2006,21:00,METAR,,,6.0,,,9999.0,,27.0,6.0,29.87,1012.4,,,,,,,,,,,,,,,7/8 Mostly Cloudy,25000.0,,SCT,15000.0,BKN,25000.0,,,,
KRDR,08-01-2006,20:00,METAR,,340,9.0,,,9999.0,,27.0,6.0,29.88,1012.9,,,,,,,,,,,,,,,7/8 Mostly Cloudy,15000.0,,BKN,15000.0,BKN,25000.0,,,,
KRDR,08-01-2006,19:00,METAR,,10,9.0,,,9999.0,,26.0,7.0,29.90,1013.3,,,,,,,,,,,,,,,7/8 Mostly Cloudy,15000.0,,BKN,15000.0,BKN,25000.0,,,,
KRDR,08-01-2006,18:00,METAR,,,3.0,,,9999.0,,25.0,9.0,29.90,1013.4,,,,,,,,,,,,,,,7/8 Mostly Cloudy,15000.0,,BKN,15000.0,BKN,25000.0,,,,
KRDR,08-01-2006,17:00,METAR,,,4.0,,,9999.0,,23.0,11.0,29.90,1013.5,,,,,,,,,,,,,,,7/8 Mostly Cloudy,15000.0,,BKN,15000.0,BKN,25000.0,,,,
KRDR,08-01-2006,16:00,METAR,,,2.0,,,9999.0,,21.0,11.0,29.90,1013.4,,,,,,,,,,,,,,,8/8 Overcast,15000.0,,BKN,15000.0,OVC,25000.0,,,,
KRDR,08-01-2006,15:00,METAR,,290,3.0,,,9999.0,,20.0,12.0,29.88,1012.8,,,,,,,,,,,,,,,8/8 Overcast,15000.0,,BKN,15000.0,OVC,25000.0,,,,
KRDR,08-01-2006,14:00,METAR,,290,3.0,,,9999.0,,17.0,11.0,29.88,1012.8,,,,,,,,,,,,,,,7/8 Mostly Cloudy,15000.0,,BKN,15000.0,BKN,25000.0,,,,
KRDR,08-01-2006,13:00,METAR,,290,4.0,,,9999.0,,15.0,10.0,29.87,1012.4,,,,,,,,,,,,,,,7/8 Mostly Cloudy,15000.0,,BKN,15000.0,BKN,25000.0,,,,
KRDR,08-01-2006,12:00,METAR,,,2.0,,,9999.0,,13.0,9.0,29.86,1012.1,,,,,,,,,,,,,,,7/8 Mostly Cloudy,15000.0,,BKN,15000.0,BKN,25000.0,,,,
KRDR,08-01-2006,11:00,METAR,,270,5.0,,,9999.0,,11.0,8.0,29.85,1011.9,,,,,,,,,,,,,,,7/8 Mostly Cloudy,25000.0,,FEW,15000.0,BKN,25000.0,,,,
KRDR,08-01-2006,10:00,METAR,,290,5.0,,,9999.0,,12.0,8.0,29.84,1011.5,,,,,,,,,,,,,,,4/8 Partly Cloudy,72000.0,,SCT,15000.0,,,,,,
KRDR,08-01-2006,09:00,METAR,,290,6.0,,,9999.0,,12.0,7.0,29.83,1011.2,,,,,,,,,,,,,,,Clear,72000.0,,,73000.0,,,,,,
KRDR,08-01-2006,08:00,METAR,,290,5.0,,,9999.0,,10.0,7.0,29.80,1010.2,,,,,,,,,,,,,,,Clear,72000.0,,,73000.0,,,,,,
KRDR,08-01-2006,07:00,METAR,,240,3.0,,,9999.0,,11.0,8.0,29.78,1009.6,,,,,,,,,,,,,,,Clear,72000.0,,,73000.0,,,,,,
KRDR,08-01-2006,06:00,METAR,,260,5.0,,,9999.0,,12.0,9.0,29.77,1009.1,,,,,,,,,,,,,,,Clear,72000.0,,,73000.0,,,,,,
KRDR,08-01-2006,05:00,METAR,,280,5.0,,,9999.0,,13.0,9.0,29.76,1008.9,,,,,,,,,,,,,,,Clear,72000.0,,,73000.0,,,,,,
KRDR,08-01-2006,04:00,METAR,,260,5.0,,,9999.0,,15.0,10.0,29.76,1008.7,,,,,,,,,,,,,,,2/8 Mostly Clear,72000.0,,FEW,15000.0,,,,,,
KRDR,08-01-2006,03:00,METAR,,220,2.0,,,9999.0,,19.0,9.0,29.73,1007.5,,,,,,,,,,,,,,,4/8 Partly Cloudy,72000.0,,SCT,15000.0,,,,,,
KRDR,08-01-2006,02:00,METAR,,330,6.0,,,9999.0,,22.0,10.0,29.67,1006.0,,,,,,,,,,,,,,,2/8 Mostly Clear,72000.0,,FEW,15000.0,,,,,,
KRDR,08-01-2006,01:00,METAR,,330,14.0,19.0,,9999.0,,27.0,7.0,29.65,1005.2,,,,,,,,,,,,,,,2/8 Mostly Clear,72000.0,,FEW,25000.0,,,,,,
KRDR,08-01-2006,00:00,METAR,,340,12.0,,,9999.0,,28.0,11.0,29.64,1004.8,,,,,,,,,,,,,,,Clear,72000.0,,,73000.0,,,,,,
KRDR,07-31-2006,23:00,METAR,,330,13.0,21.0,,9999.0,,29.0,10.0,29.63,1004.7,,,,,,,,,,,,,,,7/8 Mostly Cloudy,25000.0,,SCT,15000.0,BKN,25000.0,,,,
KRDR,07-31-2006,22:00,METAR,,320,12.0,20.0,,9999.0,,30.0,13.0,29.62,1004.2,,,,,,,,,,,,,,,7/8 Mostly Cloudy,25000.0,,SCT,15000.0,BKN,25000.0,,,,
KRDR,07-31-2006,21:00,METAR,,340,15.0,25.0,,9999.0,,31.0,15.0,29.59,1003.4,,,,,,,,,,,,,,,8/8 Overcast,15000.0,,FEW,5000.0,BKN,15000.0,OVC,25000.0,,
KRDR,07-31-2006,20:00,METAR,,330,12.0,18.0,,9999.0,,29.0,20.0,29.57,1002.4,,,,,,,,,,,,,,,8/8 Overcast,15000.0,,FEW,3000.0,BKN,15000.0,OVC,25000.0,,
KRDR,07-31-2006,19:16,SPECI,,330,11.0,,,9999.0,,28.0,20.0,29.54,,,,,,,,,,,,,,,,8/8 Overcast,15000.0,,SCT,2500.0,BKN,15000.0,OVC,25000.0,,
KRDR,07-31-2006,19:00,METAR,,350,13.0,,,9999.0,,28.0,21.0,29.54,1001.5,,,,,,,,,,,,,,,8/8 Overcast,2500.0,,BKN,2500.0,BKN,15000.0,OVC,25000.0,,
KRDR,07-31-2006,18:00,METAR,,300,7.0,,,9999.0,,26.0,20.0,29.52,1000.9,,,,,,,,,,,,,TRACE,,8/8 Overcast,2500.0,,BKN,2500.0,BKN,15000.0,OVC,25000.0,,
KRDR,07-31-2006,17:00,METAR,,330,2.0,,,9999.0,,25.0,21.0,29.51,1000.6,,,,,,,,,,,TRACE,,,,8/8 Overcast,15000.0,,FEW,3000.0,BKN,15000.0,OVC,25000.0,,
KRDR,07-31-2006,16:46,SPECI,,310,3.0,,,9999.0,,25.0,21.0,29.51,,,,,,,,,,,,,,,,8/8 Overcast,15000.0,,FEW,3000.0,BKN,15000.0,OVC,25000.0,,
KRDR,07-31-2006,16:30,METAR,,340,4.0,,,9999.0,,25.0,20.0,29.50,,,,,,,,,,,,,,,,8/8 Overcast,15000.0,,FEW,3000.0,BKN,15000.0,OVC,25000.0,,
KRDR,07-31-2006,16:00,METAR,,,3.0,,,9999.0,,26.0,19.0,29.48,999.6,,,,,,,,,,,,,,,8/8 Overcast,15000.0,,FEW,3000.0,BKN,15000.0,OVC,25000.0,,
KRDR,07-31-2006,15:00,METAR,,30,8.0,,,9999.0,,25.0,19.0,29.47,999.3,,,,,,,,,,,,,,,7/8 Mostly Cloudy,25000.0,,SCT,14000.0,BKN,25000.0,,,,
KRDR,07-31-2006,14:00,METAR,,10,9.0,,,9999.0,,25.0,19.0,29.46,999.0,,,,,,,,,,,,,,,7/8 Mostly Cloudy,25000.0,,SCT,15000.0,BKN,25000.0,,,,
KRDR,07-31-2006,13:00,METAR,,20,9.0,,,9999.0,,23.0,19.0,29.47,999.2,,,,,,,,,,,,,,,7/8 Mostly Cloudy,25000.0,,SCT,18000.0,BKN,25000.0,,,,
KRDR,07-31-2006,12:00,METAR,,10,8.0,,,9999.0,,23.0,19.0,29.45,998.6,,,,,,,,,,,,,TRACE,,7/8 Mostly Cloudy,18000.0,,FEW,4000.0,BKN,18000.0,BKN,25000.0,,
KRDR,07-31-2006,11:00,METAR,,140,5.0,,,9999.0,,24.0,19.0,29.39,995.0,,,,,,,,,,,,,,,7/8 Mostly Cloudy,18000.0,,SCT,4000.0,BKN,18000.0,,,,
KRDR,07-31-2006,10:29,SPECI,,160,7.0,,,9999.0,Precipitation in the Vicinity,24.0,19.0,29.40,,,,,16,,,,,,,,,,,8/8 Overcast,15000.0,,SCT,4500.0,OVC,15000.0,,,,
KRDR,07-31-2006,10:15,SPECI,,130,13.0,,,9999.0,Light Rain Showers,24.0,19.0,29.36,,,,,80,,,,,,,,,,,8/8 Overcast,15000.0,,SCT,4500.0,OVC,15000.0,,,,
KRDR,07-31-2006,10:00,METAR,,140,9.0,,,9999.0,,24.0,18.0,29.39,994.8,,,,,,,,,,,,,,,7/8 Mostly Cloudy,20000.0,,SCT,12000.0,BKN,20000.0,,,,
KRDR,07-31-2006,09:00,METAR,,150,8.0,,,9999.0,,23.0,18.0,29.42,995.9,,,,,,,,,,,,,,,7/8 Mostly Cloudy,20000.0,,SCT,12000.0,BKN,20000.0,,,,
KRDR,07-31-2006,08:00,METAR,,130,11.0,,,9999.0,,22.0,18.0,29.43,996.1,,,,,,,,,,,,,,,7/8 Mostly Cloudy,19000.0,,FEW,2000.0,SCT,5000.0,BKN,19000.0,,
KRDR,07-31-2006,07:00,METAR,,60,6.0,,,9999.0,,22.0,18.0,29.47,997.7,,,,,,,,,,,,,,,7/8 Mostly Cloudy,19000.0,,FEW,2000.0,SCT,5000.0,BKN,19000.0,,
KRDR,07-31-2006,06:00,METAR,,340,24.0,32.0,340/37KTS,9999.0,,26.0,20.0,29.48,994.6,,,,,,,,,,,,,,,8/8 Overcast,3900.0,,SCT,1800.0,BKN,4000.0,OVC,8900.0,,
KRDR,07-31-2006,05:00,METAR,,290,5.0,,,9999.0,,29.0,23.0,29.38,994.6,,,,,,,,,,,,,,,7/8 Mostly Cloudy,20000.0,,FEW,5000.0,SCT,12000.0,BKN,20000.0,,
KRDR,07-31-2006,04:00,METAR,,150,10.0,,,9999.0,,30.0,23.0,29.32,996.3,,,,,,,,,,,,,,,7/8 Mostly Cloudy,20000.0,,FEW,5000.0,SCT,12000.0,BKN,20000.0,,
KRDR,07-31-2006,03:00,METAR,,100,7.0,,,9999.0,,31.0,24.0,29.38,996.3,,,,,,,,,,,,,,,7/8 Mostly Cloudy,20000.0,,SCT,12000.0,BKN,20000.0,,,,
KRDR,07-31-2006,02:00,METAR,,70,5.0,,,9999.0,,31.0,24.0,29.41,997.1,,,,,,,,,,,,,,,8/8 Overcast,18000.0,,SCT,12000.0,BKN,18000.0,OVC,25000.0,,
KRDR,07-31-2006,01:00,METAR,,30,4.0,,,9999.0,,32.0,24.0,29.43,998.0,,,,,,,,,,,,,,,7/8 Mostly Cloudy,20000.0,,FEW,12000.0,BKN,20000.0,,,,
KRDR,07-31-2006,00:00,METAR,,20,7.0,,,9999.0,,34.0,24.0,29.44,998.2,,,,,,,,,,,,,,,7/8 Mostly Cloudy,20000.0,,SCT,12000.0,BKN,20000.0,,,,
KRDR,07-30-2006,23:00,METAR,,140,2.0,,,9999.0,Precipitation in the Vicinity,34.0,24.0,29.45,998.6,,,,16,,,,,,,,,,,7/8 Mostly Cloudy,25000.0,,FEW,5900.0,FEW,9900.0,SCT,18000.0,BKN,25000.0
KRDR,07-30-2006,22:00,METAR,,230,5.0,,,9999.0,,34.0,24.0,29.47,999.3,,,,,,,,,,,,,,,7/8 Mostly Cloudy,25000.0,,FEW,9900.0,SCT,15000.0,BKN,25000.0,,
KRDR,07-30-2006,21:00,METAR,,180,9.0,,,9999.0,,34.0,24.0,29.47,999.2,,,,,,,,,,,,,,,7/8 Mostly Cloudy,25000.0,,SCT,18000.0,BKN,25000.0,,,,
KRDR,07-30-2006,20:00,METAR,,170,8.0,,,9999.0,,35.0,24.0,29.49,1000.0,,,,,,,,,,,,,,,7/8 Mostly Cloudy,25000.0,,SCT,18000.0,BKN,25000.0,,,,
KRDR,07-30-2006,19:00,METAR,,,6.0,,,9999.0,,34.0,24.0,29.51,1000.6,,,,,,,,,,,,,,,4/8 Partly Cloudy,72000.0,,FEW,18000.0,SCT,25000.0,,,,
KRDR,07-30-2006,18:00,METAR,,,6.0,,,9999.0,,31.0,24.0,29.53,1001.4,,,,,,,,,,,,,,,2/8 Mostly Clear,72000.0,,FEW,2000.0,FEW,25000.0,,,,
KRDR,07-30-2006,17:12,SPECI,,,5.0,,,9999.0,,30.0,23.0,29.55,,,,,,,,,,,,,,,,4/8 Partly Cloudy,72000.0,,SCT,1300.0,,,,,,
KRDR,07-30-2006,17:00,METAR,,,2.0,,,9999.0,,29.0,22.0,29.56,1002.2,,,,,,,,,,,,,,,7/8 Mostly Cloudy,1300.0,,BKN,1300.0,,,,,,
KRDR,07-30-2006,16:00,METAR,,340,6.0,,,9999.0,,25.0,19.0,29.57,1002.5,,,,,,,,,,,,,,,8/8 Overcast,1300.0,,OVC,1300.0,,,,,,
KRDR,07-30-2006,15:11,SPECI,,340,8.0,,,9999.0,,24.0,18.0,29.59,,,,,,,,,,,,,,,,8/8 Overcast,1300.0,,OVC,1300.0,,,,,,
KRDR,07-30-2006,15:00,METAR,,340,10.0,,,9999.0,,24.0,18.0,29.59,1003.1,,,,,,,,,,,,,,,7/8 Mostly Cloudy,12000.0,,SCT,1300.0,BKN,12000.0,,,,
KRDR,07-30-2006,14:00,METAR,,320,6.0,,,9999.0,,23.0,19.0,29.59,1003.1,,,,,,,,,,,,,,,7/8 Mostly Cloudy,25000.0,,FEW,1300.0,SCT,12000.0,BKN,25000.0,,
KRDR,07-30-2006,13:00,METAR,,350,4.0,,,9999.0,,21.0,18.0,29.60,1003.4,,,,,,,,,,,,,,,7/8 Mostly Cloudy,25000.0,,FEW,1300.0,SCT,12000.0,BKN,25000.0,,
KRDR,07-30-2006,12:00,METAR,,350,5.0,,,9999.0,,18.0,16.0,29.61,1003.7,,,,,,,,,,,,,,,4/8 Partly Cloudy,72000.0,,FEW,12000.0,SCT,25000.0,,,,
KRDR,07-30-2006,11:00,METAR,,330,6.0,,,9999.0,,18.0,16.0,29.60,1002.4,,,,,,,,,,,,,,,4/8 Partly Cloudy,72000.0,,FEW,12000.0,SCT,25000.0,,,,
KRDR,07-30-2006,10:00,METAR,,340,4.0,,,9999.0,,18.0,16.0,29.61,1002.6,,,,,,,,,,,,,,,4/8 Partly Cloudy,72000.0,,FEW,12000.0,SCT,25000.0,,,,
KRDR,07-30-2006,09:00,METAR,,20,4.0,,,9999.0,,19.0,16.0,29.63,1003.3,,,,,,,,,,,,,,,4/8 Partly Cloudy,72000.0,,SCT,20000.0,,,,,,
KRDR,07-30-2006,08:00,METAR,,340,3.0,,,9999.0,,20.0,17.0,29.65,1003.8,,,,,,,,,,,,,,,7/8 Mostly Cloudy,25000.0,,SCT,12000.0,BKN,25000.0,,,,
KRDR,07-30-2006,07:00,METAR,,40,5.0,,,9999.0,,22.0,16.0,29.67,1004.6,,,,,,,,,,,,,,,4/8 Partly Cloudy,72000.0,,SCT,25000.0,,,,,,
KRDR,07-30-2006,06:00,METAR,,30,4.0,,,9999.0,,20.0,17.0,29.71,1006.0,,,,,,,,,,,,,,,4/8 Partly Cloudy,72000.0,,SCT,25000.0,,,,,,
KRDR,07-30-2006,05:00,METAR,,40,3.0,,,9999.0,,21.0,17.0,29.73,1006.9,,,,,,,,,,,,,,,4/8 Partly Cloudy,72000.0,,SCT,25000.0,,,,,,
KRDR,07-30-2006,04:00,METAR,,100,3.0,,,9999.0,,25.0,17.0,29.77,1009.0,,,,,,,,,,,,,,,4/8 Partly Cloudy,72000.0,,SCT,25000.0,,,,,,
KRDR,07-30-2006,03:00,METAR,,100,5.0,,,9999.0,,26.0,16.0,29.76,1009.0,,,,,,,,,,,,,,,7/8 Mostly Cloudy,20000.0,,SCT,12000.0,BKN,20000.0,,,,
KRDR,07-30-2006,02:00,METAR,,50,6.0,,,9999.0,,27.0,16.0,29.78,1009.4,,,,,,,,,,,,,,,4/8 Partly Cloudy,72000.0,,FEW,15000.0,SCT,25000.0,,,,
KRDR,07-30-2006,01:00,METAR,,40,9.0,,,9999.0,,29.0,16.0,29.80,1010.0,,,,,,,,,,,,,,,2/8 Mostly Clear,72000.0,,FEW,25000.0,,,,,,
KRDR,07-29-2006,23:00,METAR,,90,7.0,,,9999.0,,30.0,15.0,29.82,1010.8,,,,,,,,,,,,,,,2/8 Mostly Clear,72000.0,,FEW,25000.0,,,,,,
KRDR,07-29-2006,22:00,METAR,,60,8.0,,,9999.0,,30.0,14.0,29.85,1011.8,,,,,,,,,,,,,,,2/8 Mostly Clear,72000.0,,FEW,12000.0,,,,,,
KRDR,07-29-2006,21:00,METAR,,,6.0,,,9999.0,,29.0,14.0,29.86,1012.1,,,,,,,,,,,,,,,2/8 Mostly Clear,72000.0,,FEW,12000.0,,,,,,
KRDR,07-29-2006,20:00,METAR,,80,10.0,,,9999.0,,29.0,13.0,29.88,1012.6,,,,,,,,,,,,,,,2/8 Mostly Clear,72000.0,,FEW,15000.0,FEW,25000.0,,,,
KRDR,07-29-2006,19:00,METAR,,70,9.0,14.0,,9999.0,,28.0,14.0,29.90,1013.4,,,,,,,,,,,,,,,2/8 Mostly Clear,72000.0,,FEW,15000.0,,,,,,
KRDR,07-29-2006,18:00,METAR,,40,9.0,16.0,,9999.0,,26.0,14.0,29.92,1014.1,,,,,,,,,,,,,,,2/8 Mostly Clear,72000.0,,FEW,15000.0,,,,,,
KRDR,07-29-2006,17:00,METAR,,30,10.0,,,9999.0,,24.0,14.0,29.92,1014.2,,,,,,,,,,,,,,,2/8 Mostly Clear,72000.0,,FEW,15000.0,,,,,,
KRDR,07-29-2006,16:00,METAR,,30,8.0,,,9999.0,,22.0,14.0,29.92,1014.2,,,,,,,,,,,,,,,2/8 Mostly Clear,72000.0,,FEW,15000.0,,,,,,
KRDR,07-29-2006,15:00,METAR,,50,5.0,,,9999.0,,19.0,13.0,29.93,1014.5,,,,,,,,,,,,,,,4/8 Partly Cloudy,72000.0,,SCT,15000.0,,,,,,
KRDR,07-29-2006,14:00,METAR,,40,8.0,,,9999.0,,17.0,12.0,29.92,1013.9,,,,,,,,,,,,,,,2/8 Mostly Clear,72000.0,,FEW,15000.0,,,,,,
KRDR,07-29-2006,13:00,METAR,,10,7.0,,,9999.0,,15.0,11.0,29.93,1014.5,,,,,,,,,,,,,,,4/8 Partly Cloudy,72000.0,,SCT,15000.0,,,,,,
KRDR,07-29-2006,12:00,METAR,,10,9.0,,,9999.0,,13.0,11.0,29.92,1014.1,,,,,,,,,,,,,,,Clear,72000.0,,,73000.0,,,,,,
KRDR,07-29-2006,11:00,METAR,,10,7.0,,,9999.0,,13.0,11.0,29.91,1013.7,,,,,,,,,,,,,,,4/8 Partly Cloudy,72000.0,,SCT,18000.0,,,,,,
KRDR,07-29-2006,10:00,METAR,,20,11.0,,,9999.0,,14.0,11.0,29.90,1013.3,,,,,,,,,,,,,,,4/8 Partly Cloudy,72000.0,,SCT,20000.0,,,,,,
KRDR,07-29-2006,09:00,METAR,,30,11.0,,,9999.0,,16.0,11.0,29.91,1013.7,,,,,,,,,,,,,,,8/8 Overcast,19000.0,,OVC,19000.0,,,,,,
KRDR,07-29-2006,08:00,METAR,,30,10.0,,,9999.0,,16.0,11.0,29.93,1014.4,,,,,,,,,,,,,,,7/8 Mostly Cloudy,20000.0,,BKN,20000.0,,,,,,
KRDR,07-29-2006,07:00,METAR,,40,11.0,,,9999.0,,17.0,11.0,29.94,1014.7,,,,,,,,,,,,,,,7/8 Mostly Cloudy,18000.0,,BKN,18000.0,,,,,,
KRDR,07-29-2006,06:00,METAR,,20,11.0,,,9999.0,,17.0,12.0,29.90,1012.5,,,,,,,,,,,,,TRACE,,7/8 Mostly Cloudy,18000.0,,SCT,8900.0,BKN,18000.0,,,,
KRDR,07-29-2006,05:00,METAR,,340,6.0,,,9999.0,,18.0,11.0,29.92,1013.2,,,,,,,,,,,TRACE,,,,8/8 Overcast,16000.0,,FEW,4000.0,SCT,8900.0,OVC,16000.0,,
KRDR,07-29-2006,04:12,SPECI,,20,4.0,,,9999.0,,18.0,11.0,29.94,,,,,,,,,,,,,,,,8/8 Overcast,9000.0,,FEW,4800.0,BKN,8900.0,OVC,16000.0,,
KRDR,07-29-2006,04:08,SPECI,,360,7.0,,,9999.0,Light Rain Showers,19.0,11.0,29.92,,,,,80,,,,,,,,,,,8/8 Overcast,16000.0,,SCT,8900.0,OVC,16000.0,,,,
KRDR,07-29-2006,04:04,SPECI,,30,9.0,,,9999.0,,19.0,11.0,29.92,,,,,,,,,,,,,,,,4/8 Partly Cloudy,72000.0,,FEW,4800.0,SCT,7900.0,,,,
KRDR,07-29-2006,04:00,METAR,,360,9.0,,,9999.0,,19.0,11.0,29.93,1013.7,,,,,,,,,,,,,,,8/8 Overcast,16000.0,,SCT,8900.0,OVC,16000.0,,,,
KRDR,07-29-2006,03:00,METAR,,360,11.0,,,9999.0,,20.0,11.0,29.91,1013.1,,,,,,,,,,,,,,,7/8 Mostly Cloudy,16000.0,,BKN,16000.0,,,,,,
KRDR,07-29-2006,02:00,METAR,,360,11.0,,,9999.0,,21.0,12.0,29.94,1014.6,,,,,,,,,,,,,,,7/8 Mostly Cloudy,20000.0,,BKN,20000.0,,,,,,
KRDR,07-29-2006,01:00,METAR,,20,10.0,,,9999.0,,23.0,12.0,29.92,1014.2,,,,,,,,,,,,,,,Clear,72000.0,,,73000.0,,,,,,
KRDR,07-29-2006,00:00,METAR,,10,15.0,,,9999.0,,28.0,17.0,29.91,1012.9,,,,,,,,,,,,,,,4/8 Partly Cloudy,72000.0,,SCT,8900.0,SCT,25000.0,,,,
KRDR,07-28-2006,23:00,METAR,,20,12.0,,,9999.0,,26.0,14.0,29.91,1012.8,,,,,,,,,,,,,,,2/8 Mostly Clear,72000.0,,FEW,25000.0,,,,,,
KRDR,07-28-2006,22:00,METAR,,30,14.0,,,9999.0,,27.0,14.0,29.91,1012.8,,,,,,,,,,,,,,,Clear,72000.0,,,73000.0,,,,,,
KRDR,07-28-2006,21:00,METAR,,20,15.0,,,9999.0,,28.0,14.0,29.92,1013.1,,,,,,,,,,,,,,,Clear,72000.0,,,73000.0,,,,,,
KRDR,07-28-2006,20:00,METAR,,20,14.0,21.0,,9999.0,,28.0,15.0,29.92,1013.1,,,,,,,,,,,,,,,Clear,72000.0,,,73000.0,,,,,,
KRDR,07-28-2006,19:00,METAR,,20,15.0,20.0,,9999.0,,27.0,15.0,29.91,1012.8,,,,,,,,,,,,,,,Clear,72000.0,,,73000.0,,,,,,
KRDR,07-28-2006,18:00,METAR,,20,14.0,24.0,,9999.0,,26.0,15.0,29.91,1012.8,,,,,,,,,,,,,,,2/8 Mostly Clear,72000.0,,FEW,11000.0,FEW,25000.0,,,,
KRDR,07-28-2006,17:00,METAR,,20,13.0,,,9999.0,,26.0,18.0,29.91,1012.8,,,,,,,,,,,,,,,4/8 Partly Cloudy,72000.0,,FEW,11000.0,SCT,25000.0,,,,
KRDR,07-28-2006,16:00,METAR,,20,13.0,,,9999.0,,25.0,17.0,29.90,,,,,,,,,,,,,,,,7/8 Mostly Cloudy,25000.0,,FEW,2000.0,SCT,11000.0,BKN,25000.0,,
KRDR,07-28-2006,15:00,METAR,,10,15.0,,,9999.0,,23.0,16.0,29.87,1011.5,,,,,,,,,,,,,,,7/8 Mostly Cloudy,25000.0,,FEW,1500.0,SCT,11000.0,BKN,25000.0,,
KRDR,07-28-2006,14:00,METAR,,20,12.0,,,9999.0,,22.0,18.0,29.85,1010.6,,,,,,,,,,,,,,,7/8 Mostly Cloudy,25000.0,,FEW,1500.0,SCT,11000.0,BKN,25000.0,,
KRDR,07-28-2006,13:00,METAR,,10,10.0,,,9999.0,,21.0,18.0,29.84,1010.1,,,,,,,,,,,,,,,7/8 Mostly Cloudy,25000.0,,FEW,3000.0,SCT,11000.0,BKN,25000.0,,
KRDR,07-28-2006,12:00,METAR,,360,8.0,,,9999.0,,20.0,19.0,29.82,1009.5,,,,,,,,,,,,,,,8/8 Overcast,11000.0,,FEW,3000.0,BKN,11000.0,OVC,25000.0,,
KRDR,07-28-2006,11:00,METAR,,350,6.0,,,9999.0,,20.0,19.0,29.81,1009.0,,,,,,,,,,,,,,,7/8 Mostly Cloudy,25000.0,,SCT,12000.0,BKN,25000.0,,,,
KRDR,07-28-2006,10:00,METAR,,330,6.0,,,9999.0,,20.0,18.0,29.78,1008.2,,,,,,,,,,,,,,,7/8 Mostly Cloudy,11000.0,,BKN,11000.0,,,,,,
KRDR,07-28-2006,09:00,METAR,,350,5.0,,,9999.0,,21.0,18.0,29.78,1007.7,,,,,,,,,,,,,,,7/8 Mostly Cloudy,11000.0,,BKN,11000.0,,,,,,
KRDR,07-28-2006,08:00,METAR,,310,3.0,,,9999.0,,20.0,16.0,29.76,1007.3,,,,,,,,,,,,,,,7/8 Mostly Cloudy,11000.0,,BKN,11000.0,,,,,,
KRDR,07-28-2006,07:00,METAR,,230,2.0,,,9999.0,,19.0,15.0,29.75,1006.9,,,,,,,,,,,,,,,2/8 Mostly Clear,72000.0,,FEW,12000.0,FEW,25000.0,,,,
KRDR,07-28-2006,06:00,METAR,,180,3.0,,,9999.0,,21.0,16.0,29.75,1007.0,,,,,,,,,,,,,,,2/8 Mostly Clear,72000.0,,FEW,12000.0,FEW,25000.0,,,,
KRDR,07-28-2006,05:00,METAR,,220,2.0,,,9999.0,,21.0,16.0,29.75,1007.2,,,,,,,,,,,,,,,2/8 Mostly Clear,72000.0,,FEW,12000.0,FEW,25000.0,,,,
KRDR,07-28-2006,04:00,METAR,,190,3.0,,,9999.0,,23.0,17.0,29.75,1006.9,,,,,,,,,,,,,,,2/8 Mostly Clear,72000.0,,FEW,25000.0,,,,,,
KRDR,07-28-2006,03:00,METAR,,100,3.0,,,9999.0,,28.0,18.0,29.74,1006.5,,,,,,,,,,,,,,,4/8 Partly Cloudy,72000.0,,FEW,12000.0,SCT,25000.0,,,,
KRDR,07-28-2006,02:00,METAR,,,4.0,,,9999.0,,28.0,17.0,29.73,1006.3,,,,,,,,,,,,,,,4/8 Partly Cloudy,72000.0,,FEW,12000.0,SCT,25000.0,,,,
KRDR,07-28-2006,01:00,METAR,,300,5.0,,,9999.0,,33.0,14.0,29.72,1005.9,,,,,,,,,,,,,,,7/8 Mostly Cloudy,25000.0,,FEW,7900.0,SCT,12000.0,BKN,25000.0,,
KRDR,07-28-2006,00:00,METAR,,310,6.0,,,9999.0,,32.0,13.0,29.72,1005.9,,,,,,,,,,,,,,,7/8 Mostly Cloudy,12000.0,,SCT,7900.0,BKN,12000.0,BKN,25000.0,,
KRDR,07-27-2006,23:00,METAR,,250,8.0,,,9999.0,,34.0,15.0,29.72,1006.4,,,,,,,,,,,,,,,7/8 Mostly Cloudy,8000.0,,BKN,7900.0,BKN,25000.0,,,,
KRDR,07-27-2006,22:00,METAR,,230,11.0,,,9999.0,,35.0,16.0,29.72,1006.3,,,,,,,,,,,,,,,7/8 Mostly Cloudy,25000.0,,SCT,6900.0,BKN,25000.0,,,,
KRDR,07-27-2006,21:00,METAR,,200,12.0,,,9999.0,,35.0,16.0,29.73,1006.7,,,,,,,,,,,,,,,7/8 Mostly Cloudy,25000.0,,SCT,6900.0,BKN,25000.0,,,,
KRDR,07-27-2006,20:00,METAR,,190,10.0,,,9999.0,,34.0,17.0,29.73,1006.7,,,,,,,,,,,,,,,4/8 Partly Cloudy,72000.0,,SCT,6900.0,SCT,25000.0,,,,
KRDR,07-27-2006,19:00,METAR,,180,9.0,,,9999.0,,33.0,18.0,29.75,1007.2,,,,,,,,,,,,,,,2/8 Mostly Clear,72000.0,,FEW,6900.0,FEW,25000.0,,,,
KRDR,07-27-2006,18:00,METAR,,180,10.0,,,9999.0,,32.0,18.0,29.75,1007.2,,,,,,,,,,,,,,,2/8 Mostly Clear,72000.0,,FEW,9900.0,FEW,25000.0,,,,
KRDR,07-27-2006,17:00,METAR,,170,8.0,,,9999.0,,30.0,18.0,29.77,1008.1,,,,,,,,,,,,,,,2/8 Mostly Clear,72000.0,,FEW,12000.0,FEW,25000.0,,,,
KRDR,07-27-2006,16:00,METAR,,180,10.0,,,9999.0,,29.0,17.0,29.78,1008.4,,,,,,,,,,,,,,,2/8 Mostly Clear,72000.0,,FEW,12000.0,FEW,25000.0,,,,
KRDR,07-27-2006,15:00,METAR,,180,8.0,,,9999.0,,27.0,17.0,29.79,1008.7,,,,,,,,,,,,,,,4/8 Partly Cloudy,72000.0,,FEW,12000.0,SCT,25000.0,,,,
KRDR,07-27-2006,14:00,METAR,,170,5.0,,,9999.0,,24.0,17.0,29.81,1009.2,,,,,,,,,,,,,,,2/8 Mostly Clear,72000.0,,FEW,12000.0,FEW,25000.0,,,,
KRDR,07-27-2006,13:00,METAR,,150,3.0,,,9999.0,,21.0,17.0,29.81,1009.2,,,,,,,,,,,,,,,2/8 Mostly Clear,72000.0,,FEW,12000.0,FEW,25000.0,,,,
KRDR,07-27-2006,12:00,METAR,,170,2.0,,,9999.0,,17.0,15.0,29.81,1009.2,,,,,,,,,,,,,,,2/8 Mostly Clear,72000.0,,FEW,12000.0,FEW,25000.0,,,,
KRDR,07-27-2006,11:00,METAR,,200,3.0,,,9999.0,,15.0,13.0,29.80,1008.8,,,,,,,,,,,,,,,2/8 Mostly Clear,72000.0,,FEW,12000.0,FEW,25000.0,,,,
KRDR,07-27-2006,10:00,METAR,,,3.0,,,9999.0,,17.0,15.0,29.78,1008.3,,,,,,,,,,,,,,,2/8 Mostly Clear,72000.0,,FEW,25000.0,,,,,,
KRDR,07-27-2006,09:00,METAR,,90,1.0,,,9999.0,,18.0,15.0,29.78,1008.1,,,,,,,,,,,,,,,2/8 Mostly Clear,72000.0,,FEW,25000.0,,,,,,
KRDR,07-27-2006,08:00,METAR,,230,2.0,,,9999.0,,18.0,16.0,29.78,1008.3,,,,,,,,,,,,,,,2/8 Mostly Clear,72000.0,,FEW,25000.0,,,,,,
KRDR,07-27-2006,07:00,METAR,,200,2.0,,,9999.0,,21.0,16.0,29.78,1008.2,,,,,,,,,,,,,,,7/8 Mostly Cloudy,25000.0,,FEW,12000.0,BKN,25000.0,,,,
KRDR,07-27-2006,06:00,METAR,,210,5.0,,,9999.0,,21.0,16.0,29.79,1008.6,,,,,,,,,,,,,,,7/8 Mostly Cloudy,25000.0,,SCT,12000.0,BKN,25000.0,,,,
KRDR,07-27-2006,05:00,METAR,,200,3.0,,,9999.0,,20.0,16.0,29.80,1008.9,,,,,,,,,,,,,,,8/8 Overcast,12000.0,,BKN,12000.0,OVC,25000.0,,,,
KRDR,07-27-2006,04:00,METAR,,220,1.0,,,9999.0,,20.0,16.0,29.79,1008.7,,,,,,,,,,,,,,,7/8 Mostly Cloudy,25000.0,,SCT,12000.0,BKN,25000.0,,,,
KRDR,07-27-2006,03:00,METAR,,180,3.0,,,9999.0,,23.0,16.0,29.78,1008.3,,,,,,,,,,,,,,,7/8 Mostly Cloudy,20000.0,,SCT,12000.0,BKN,20000.0,,,,
KRDR,07-27-2006,02:00,METAR,,100,5.0,,,9999.0,,26.0,15.0,29.77,1007.7,,,,,,,,,,,,,,,7/8 Mostly Cloudy,20000.0,,SCT,12000.0,BKN,20000.0,,,,
KRDR,07-27-2006,01:00,METAR,,90,6.0,,,9999.0,,27.0,15.0,29.76,1007.5,,,,,,,,,,,,,,,7/8 Mostly Cloudy,20000.0,,SCT,12000.0,BKN,20000.0,,,,
KRDR,07-27-2006,00:00,METAR,,,6.0,,,9999.0,,29.0,13.0,29.77,1007.7,,,,,,,,,,,,,,,7/8 Mostly Cloudy,20000.0,,FEW,5000.0,SCT,12000.0,BKN,20000.0,,
KRDR,07-26-2006,23:00,METAR,,20,3.0,,,9999.0,,29.0,13.0,29.76,1007.7,,,,,,,,,,,,,,,7/8 Mostly Cloudy,25000.0,,FEW,4000.0,BKN,25000.0,,,,
KRDR,07-26-2006,22:00,METAR,,50,5.0,,,9999.0,,29.0,14.0,29.77,1008.1,,,,,,,,,,,,,,,7/8 Mostly Cloudy,25000.0,,FEW,4000.0,BKN,25000.0,,,,
KRDR,07-26-2006,21:00,METAR,,360,5.0,,,9999.0,,29.0,13.0,29.78,1008.5,,,,,,,,,,,,,,,4/8 Partly Cloudy,72000.0,,FEW,3500.0,SCT,25000.0,,,,
KRDR,07-26-2006,20:00,METAR,,40,4.0,,,9999.0,,28.0,14.0,29.78,1008.6,,,,,,,,,,,,,,,4/8 Partly Cloudy,72000.0,,FEW,3000.0,SCT,25000.0,,,,
KRDR,07-26-2006,19:00,METAR,,320,9.0,,,9999.0,,28.0,14.0,29.81,1009.3,,,,,,,,,,,,,,,4/8 Partly Cloudy,72000.0,,FEW,2500.0,SCT,25000.0,,,,
KRDR,07-26-2006,18:00,METAR,,350,7.0,,,9999.0,,27.0,15.0,29.82,1009.7,,,,,,,,,,,,,,,4/8 Partly Cloudy,72000.0,,FEW,2500.0,SCT,25000.0,,,,
KRDR,07-26-2006,17:00,METAR,,10,7.0,,,9999.0,,25.0,16.0,29.82,1009.7,,,,,,,,,,,,,,,4/8 Partly Cloudy,72000.0,,FEW,1500.0,SCT,25000.0,,,,
KRDR,07-26-2006,16:00,METAR,,330,8.0,,,9999.0,,24.0,16.0,29.82,1009.9,,,,,,,,,,,,,,,2/8 Mostly Clear,72000.0,,FEW,1000.0,FEW,25000.0,,,,
KRDR,07-26-2006,15:00,METAR,,330,7.0,,,9999.0,,23.0,18.0,29.82,1009.7,,,,,,,,,,,,,,,2/8 Mostly Clear,72000.0,,FEW,800.0,FEW,25000.0,,,,
KRDR,07-26-2006,14:00,METAR,,350,5.0,,,9999.0,,21.0,18.0,29.81,1009.6,,,,,,,,,,,,,,,2/8 Mostly Clear,72000.0,,FEW,800.0,FEW,25000.0,,,,
KRDR,07-26-2006,13:23,SPECI,,330,5.0,,,9999.0,,20.0,18.0,29.81,,,,,,,,,,,,,,,,4/8 Partly Cloudy,72000.0,,FEW,700.0,SCT,25000.0,,,,
KRDR,07-26-2006,13:00,METAR,,330,5.0,,,9999.0,,19.0,17.0,29.79,1009.0,,,,,,,,,,,,,,,7/8 Mostly Cloudy,600.0,,BKN,600.0,BKN,25000.0,,,,
KRDR,07-26-2006,12:39,SPECI,,300,5.0,,,9999.0,,19.0,17.0,29.79,,,,,,,,,,,,,,,,4/8 Partly Cloudy,72000.0,,SCT,700.0,,,,,,
KRDR,07-26-2006,12:19,SPECI,,310,4.0,,,9999.0,,18.0,17.0,29.79,,,,,,,,,,,,,,,,7/8 Mostly Cloudy,700.0,,BKN,700.0,,,,,,
KRDR,07-26-2006,12:00,METAR,,290,3.0,,,9999.0,,17.0,16.0,29.78,1008.7,,,,,,,,,,,,,,.04 IN,4/8 Partly Cloudy,72000.0,,SCT,600.0,,,,,,
KRDR,07-26-2006,11:00,METAR,,310,3.0,,,9999.0,,17.0,16.0,29.77,1007.9,,,,,,,,,,,,,,,Clear,72000.0,,,73000.0,,,,,,
KRDR,07-26-2006,10:00,METAR,,280,4.0,,,9999.0,,16.0,15.0,29.76,1007.7,,,,,,,,,,,,,,,Clear,72000.0,,,73000.0,,,,,,
KRDR,07-26-2006,09:00,METAR,,260,1.0,,,9999.0,,16.0,15.0,29.76,1007.7,,,,,,,,,,,,,,,Clear,72000.0,,,73000.0,,,,,,
KRDR,07-26-2006,08:00,METAR,,280,2.0,,,9999.0,,16.0,16.0,29.76,1007.7,,,,,,,,,,,,,,,Clear,72000.0,,,73000.0,,,,,,
KRDR,07-26-2006,07:00,METAR,,280,3.0,,,9999.0,,18.0,17.0,29.76,1007.4,,,,,,,,,,,,,,,Clear,72000.0,,,73000.0,,,,,,
KRDR,07-26-2006,06:00,METAR,,300,2.0,,,9999.0,,18.0,17.0,29.76,1007.4,,,,,,,,,,,,,TRACE,,Clear,72000.0,,,73000.0,,,,,,
KRDR,07-26-2006,05:00,METAR,,270,3.0,,,9999.0,,17.0,16.0,29.75,1007.1,,,,,,,,,,,,,,,2/8 Mostly Clear,72000.0,,FEW,25000.0,,,,,,
KRDR,07-26-2006,04:00,METAR,,,3.0,,,9999.0,,18.0,18.0,29.74,1007.0,,,,,,,,,,,,,,,2/8 Mostly Clear,72000.0,,FEW,25000.0,,,,,,
KRDR,07-26-2006,03:00,METAR,,300,3.0,,,9999.0,,20.0,19.0,29.74,1006.9,,,,,,,,,,,,TRACE,,,4/8 Partly Cloudy,72000.0,,FEW,12000.0,SCT,25000.0,,,,
KRDR,07-26-2006,02:00,METAR,,270,2.0,,,9999.0,,22.0,20.0,29.73,1006.4,,,,,,,,,,,,,,,2/8 Mostly Clear,72000.0,,FEW,12000.0,FEW,25000.0,,,,
KRDR,07-26-2006,01:00,METAR,,,1.0,,,9999.0,,24.0,19.0,29.71,1005.9,,,,,,,,,,,,,,,4/8 Partly Cloudy,72000.0,,FEW,5000.0,FEW,8900.0,SCT,25000.0,,
KRDR,07-26-2006,00:10,SPECI,,,0.0,,,9999.0,,24.0,19.0,29.70,,,,,,,,,,,,,,,,7/8 Mostly Cloudy,25000.0,,FEW,2500.0,FEW,5000.0,SCT,8900.0,BKN,25000.0
KRDR,07-26-2006,00:00,METAR,,170,6.0,,,9999.0,,23.0,20.0,29.71,,,,,,,,,,,,,,.02 IN,,7/8 Mostly Cloudy,9000.0,,FEW,2500.0,SCT,5000.0,BKN,8900.0,BKN,25000.0
KRDR,07-25-2006,23:43,SPECI,,160,2.0,,,9999.0,Light Rain Showers,23.0,20.0,29.71,,,,,80,,,,,,,,,,,7/8 Mostly Cloudy,9000.0,,FEW,2000.0,SCT,5000.0,BKN,8900.0,BKN,25000.0
KRDR,07-25-2006,23:30,METAR,,200,1.0,,,9999.0,Thunderstorm with Rain or Snow/Light Rain Showers,24.0,19.0,29.71,,,,,95,80,,,,,,,,,,7/8 Mostly Cloudy,9000.0,,FEW,2000.0,SCT,5000.0,BKN,8900.0,BKN,25000.0
KRDR,07-25-2006,23:05,SPECI,,110,3.0,,,9999.0,Thunderstorm,25.0,18.0,29.72,,,,,17,,,,,,,,,,,7/8 Mostly Cloudy,9000.0,,FEW,2000.0,SCT,5000.0,BKN,8900.0,BKN,25000.0
KRDR,07-25-2006,22:00,METAR,,,0.0,,,9999.0,,23.0,19.0,29.71,1006.2,,,,,,,,,,,,,,,7/8 Mostly Cloudy,25000.0,,FEW,2500.0,FEW,5000.0,SCT,8900.0,BKN,25000.0
KRDR,07-25-2006,21:00,METAR,,30,4.0,,,9999.0,,22.0,20.0,29.70,1005.8,,,,,,,,,,,,.01 IN,,,7/8 Mostly Cloudy,25000.0,,FEW,2500.0,FEW,5000.0,SCT,8900.0,BKN,25000.0
KRDR,07-25-2006,20:15,SPECI,,60,8.0,,,9999.0,Precipitation in the Vicinity,22.0,20.0,29.69,,,,,16,,,,,,,,,,,7/8 Mostly Cloudy,4900.0,,FEW,2000.0,BKN,5000.0,BKN,8900.0,BKN,25000.0
KRDR,07-25-2006,20:00,METAR,,20,10.0,,350/35KTS,9999.0,Thunderstorm with Rain or Snow/Light Rain Showers,21.0,19.0,29.69,1005.5,,,,95,80,,,,,,,,,,7/8 Mostly Cloudy,6000.0,,SCT,4000.0,BKN,5900.0,BKN,25000.0,,
KRDR,07-25-2006,19:22,SPECI,,360,17.0,35.0,,9999.0,Thunderstorm with Rain or Snow/Light Rain Showers,28.0,19.0,29.69,,,,,95,80,,,,,,,,,,8/8 Overcast,4900.0,,FEW,2000.0,BKN,5000.0,OVC,8900.0,,
KRDR,07-25-2006,19:16,SPECI,,220,3.0,,,9999.0,Thunderstorm,30.0,18.0,29.69,,,,,17,,,,,,,,,,,7/8 Mostly Cloudy,9000.0,,SCT,5000.0,BKN,8900.0,BKN,25000.0,,
KRDR,07-25-2006,19:00,METAR,,210,5.0,,,9999.0,,31.0,18.0,29.69,1005.3,,,,,,,,,,,,,,,7/8 Mostly Cloudy,11000.0,,SCT,5000.0,BKN,11000.0,BKN,25000.0,,
KRDR,07-25-2006,18:00,METAR,,230,5.0,,,9999.0,,28.0,20.0,29.71,1006.0,,,,,,,,,,,,,.02 IN,,7/8 Mostly Cloudy,25000.0,,FEW,5000.0,SCT,11000.0,BKN,25000.0,,
KRDR,07-25-2006,17:00,METAR,,280,3.0,,,9999.0,,28.0,20.0,29.71,1006.0,,,,,,,,,,,,,,,7/8 Mostly Cloudy,25000.0,,FEW,5000.0,SCT,11000.0,BKN,25000.0,,
KRDR,07-25-2006,16:00,METAR,,200,3.0,,,9999.0,,26.0,19.0,29.71,1006.0,,,,,,,,,,,,,,,7/8 Mostly Cloudy,25000.0,,SCT,11000.0,BKN,25000.0,,,,
KRDR,07-25-2006,15:00,METAR,,240,3.0,,,9999.0,,23.0,19.0,29.72,1006.5,,,,,,,,,,,,.02 IN,,,7/8 Mostly Cloudy,10000.0,,SCT,5000.0,BKN,9900.0,BKN,25000.0,,
KRDR,07-25-2006,14:06,SPECI,,,1.0,,,9999.0,,21.0,19.0,29.72,,,,,,,,,,,,,,,,8/8 Overcast,11000.0,,SCT,5900.0,BKN,11000.0,OVC,25000.0,,
KRDR,07-25-2006,14:00,METAR,,10,2.0,,,9999.0,Light Rain Showers,21.0,18.0,29.73,1006.7,,,,80,,,,,,,,,,,7/8 Mostly Cloudy,8000.0,,SCT,4000.0,BKN,7900.0,BKN,25000.0,,
KRDR,07-25-2006,13:19,SPECI,,250,1.0,,,9999.0,Light Rain Showers,21.0,17.0,29.74,,,,,80,,,,,,,,,,,8/8 Overcast,11000.0,,SCT,5900.0,BKN,11000.0,OVC,25000.0,,
KRDR,07-25-2006,13:00,METAR,,190,3.0,,,9999.0,Precipitation in the Vicinity,20.0,17.0,29.73,1006.8,,,,16,,,,,,,,,,,7/8 Mostly Cloudy,8000.0,,SCT,4000.0,BKN,7900.0,BKN,25000.0,,
KRDR,07-25-2006,12:00,METAR,,140,2.0,,,9999.0,,19.0,14.0,29.73,1006.6,,,,,,,,,,,,,,,7/8 Mostly Cloudy,25000.0,,FEW,5000.0,SCT,6900.0,BKN,25000.0,,
KRDR,07-25-2006,11:00,METAR,,230,5.0,,,9999.0,,16.0,13.0,29.73,1006.5,,,,,,,,,,,,,,,7/8 Mostly Cloudy,25000.0,,FEW,5900.0,BKN,25000.0,,,,
KRDR,07-25-2006,10:00,METAR,,200,2.0,,,9999.0,,16.0,13.0,29.73,1006.3,,,,,,,,,,,,,,,7/8 Mostly Cloudy,25000.0,,BKN,25000.0,,,,,,
KRDR,07-25-2006,09:00,METAR,,220,1.0,,,9999.0,,16.0,12.0,29.74,1006.7,,,,,,,,,,,,,,,7/8 Mostly Cloudy,25000.0,,BKN,25000.0,,,,,,
KRDR,07-25-2006,08:00,METAR,,260,1.0,,,9999.0,,16.0,13.0,29.75,1007.0,,,,,,,,,,,,,,,7/8 Mostly Cloudy,25000.0,,BKN,25000.0,,,,,,
KRDR,07-25-2006,07:00,METAR,,250,2.0,,,9999.0,,15.0,13.0,29.76,1007.4,,,,,,,,,,,,,,,4/8 Partly Cloudy,72000.0,,SCT,25000.0,,,,,,
KRDR,07-25-2006,06:00,METAR,,240,2.0,,,9999.0,,16.0,13.0,29.76,1007.6,,,,,,,,,,,,,,,2/8 Mostly Clear,72000.0,,FEW,25000.0,,,,,,
KRDR,07-25-2006,05:00,METAR,,240,3.0,,,9999.0,,17.0,14.0,29.77,1008.0,,,,,,,,,,,,,,,Clear,72000.0,,,73000.0,,,,,,
KRDR,07-25-2006,04:00,METAR,,,1.0,,,9999.0,,19.0,14.0,29.76,1007.7,,,,,,,,,,,,,,,Clear,72000.0,,,73000.0,,,,,,
KRDR,07-25-2006,03:00,METAR,,360,2.0,,,9999.0,,21.0,14.0,29.75,1007.2,,,,,,,,,,,,,,,Clear,72000.0,,,73000.0,,,,,,
KRDR,07-25-2006,02:00,METAR,,20,3.0,,,9999.0,,25.0,14.0,29.75,1006.9,,,,,,,,,,,,,,,2/8 Mostly Clear,72000.0,,FEW,25000.0,,,,,,
KRDR,07-25-2006,01:00,METAR,,20,6.0,,,9999.0,,29.0,12.0,29.74,1006.8,,,,,,,,,,,,,,,2/8 Mostly Clear,72000.0,,FEW,25000.0,,,,,,
KRDR,07-25-2006,00:00,METAR,,360,7.0,,,9999.0,,30.0,12.0,29.75,1006.9,,,,,,,,,,,,,,,4/8 Partly Cloudy,72000.0,,SCT,25000.0,,,,,,
KRDR,07-24-2006,23:00,METAR,,360,9.0,,,9999.0,,31.0,12.0,29.73,1006.7,,,,,,,,,,,,,,,7/8 Mostly Cloudy,25000.0,,FEW,8900.0,BKN,25000.0,,,,
KRDR,07-24-2006,22:00,METAR,,330,4.0,,,9999.0,,31.0,13.0,29.73,1006.7,,,,,,,,,,,,,,,7/8 Mostly Cloudy,25000.0,,FEW,8900.0,BKN,25000.0,,,,
KRDR,07-24-2006,21:00,METAR,,350,7.0,,,9999.0,,31.0,13.0,29.74,1007.1,,,,,,,,,,,,,,,7/8 Mostly Cloudy,25000.0,,FEW,4000.0,FEW,8900.0,BKN,25000.0,,
KRDR,07-24-2006,20:00,METAR,,360,13.0,,,9999.0,,30.0,13.0,29.76,1007.4,,,,,,,,,,,,,,,7/8 Mostly Cloudy,25000.0,,FEW,4000.0,FEW,8900.0,BKN,25000.0,,
KRDR,07-24-2006,19:00,METAR,,360,3.0,,,9999.0,,30.0,13.0,29.77,1007.9,,,,,,,,,,,,,,,4/8 Partly Cloudy,72000.0,,FEW,4000.0,FEW,8900.0,SCT,25000.0,,
KRDR,07-24-2006,18:00,METAR,,40,6.0,,,9999.0,,29.0,13.0,29.77,1008.1,,,,,,,,,,,,,,,4/8 Partly Cloudy,72000.0,,FEW,4000.0,FEW,8900.0,SCT,25000.0,,
KRDR,07-24-2006,17:00,METAR,,320,2.0,,,9999.0,,28.0,13.0,29.78,1008.4,,,,,,,,,,,,,,,4/8 Partly Cloudy,72000.0,,FEW,4000.0,FEW,8900.0,SCT,25000.0,,
KRDR,07-24-2006,16:00,METAR,,50,2.0,,,9999.0,,27.0,14.0,29.79,1008.8,,,,,,,,,,,,,,,4/8 Partly Cloudy,72000.0,,FEW,4000.0,FEW,8900.0,SCT,25000.0,,
KRDR,07-24-2006,15:00,METAR,,170,3.0,,,9999.0,,25.0,14.0,29.81,1009.2,,,,,,,,,,,,,,,7/8 Mostly Cloudy,25000.0,,FEW,4000.0,SCT,8900.0,BKN,25000.0,,
KRDR,07-24-2006,14:00,METAR,,240,3.0,,,9999.0,,24.0,15.0,29.82,1009.5,,,,,,,,,,,,,,,7/8 Mostly Cloudy,25000.0,,FEW,3500.0,SCT,6900.0,BKN,25000.0,,
KRDR,07-24-2006,13:00,METAR,,320,5.0,,,9999.0,,22.0,16.0,29.81,1009.2,,,,,,,,,,,,,,,7/8 Mostly Cloudy,25000.0,,FEW,5000.0,SCT,8900.0,BKN,25000.0,,
KRDR,07-24-2006,12:00,METAR,,330,3.0,,,9999.0,,20.0,15.0,29.78,1008.3,,,,,,,,,,,,,,,7/8 Mostly Cloudy,25000.0,,FEW,5000.0,SCT,8900.0,BKN,25000.0,,
KRDR,07-24-2006,11:00,METAR,,320,4.0,,,9999.0,,19.0,15.0,29.78,1008.4,,,,,,,,,,,,,,,7/8 Mostly Cloudy,25000.0,,SCT,9400.0,BKN,25000.0,,,,
KRDR,07-24-2006,10:00,METAR,,340,5.0,,,9999.0,,19.0,16.0,29.77,1008.1,,,,,,,,,,,,,,,7/8 Mostly Cloudy,25000.0,,SCT,9400.0,BKN,25000.0,,,,
KRDR,07-24-2006,09:00,METAR,,330,3.0,,,9999.0,,20.0,16.0,29.76,1007.7,,,,,,,,,,,,,,,2/8 Mostly Clear,72000.0,,FEW,9400.0,FEW,25000.0,,,,
KRDR,07-24-2006,08:00,METAR,,330,5.0,,,9999.0,,22.0,16.0,29.76,1007.7,,,,,,,,,,,,,,,4/8 Partly Cloudy,72000.0,,FEW,9400.0,SCT,25000.0,,,,
KRDR,07-24-2006,07:00,METAR,,330,5.0,,,9999.0,,23.0,17.0,29.75,1007.3,,,,,,,,,,,,,,,4/8 Partly Cloudy,72000.0,,SCT,9400.0,SCT,25000.0,,,,
KRDR,07-24-2006,06:00,METAR,,300,5.0,,,9999.0,,23.0,17.0,29.73,1006.6,,,,,,,,,,,,,,,2/8 Mostly Clear,72000.0,,FEW,7900.0,FEW,25000.0,,,,
KRDR,07-24-2006,05:00,METAR,,300,5.0,,,9999.0,,25.0,17.0,29.73,1006.6,,,,,,,,,,,,,,,2/8 Mostly Clear,72000.0,,FEW,7900.0,FEW,25000.0,,,,
KRDR,07-24-2006,04:00,METAR,,260,5.0,,,9999.0,,25.0,17.0,29.71,1005.9,,,,,,,,,,,,,,,2/8 Mostly Clear,72000.0,,FEW,8900.0,FEW,25000.0,,,,
KRDR,07-24-2006,03:00,METAR,,230,6.0,,,9999.0,,24.0,17.0,29.71,1006.0,,,,,,,,,,,,,,,4/8 Partly Cloudy,72000.0,,FEW,8900.0,SCT,25000.0,,,,
KRDR,07-24-2006,02:00,METAR,,230,6.0,,,9999.0,,28.0,18.0,29.71,1006.0,,,,,,,,,,,,,,,4/8 Partly Cloudy,72000.0,,FEW,8900.0,SCT,25000.0,,,,
KRDR,07-24-2006,01:00,METAR,,250,6.0,,,9999.0,,31.0,17.0,29.72,1006.3,,,,,,,,,,,,,,,4/8 Partly Cloudy,72000.0,,SCT,25000.0,,,,,,
KRDR,07-24-2006,00:00,METAR,,280,5.0,,,9999.0,,33.0,15.0,29.72,1006.3,,,,,,,,,,,,,,,2/8 Mostly Clear,72000.0,,FEW,25000.0,,,,,,
KRDR,07-23-2006,23:00,METAR,,290,10.0,,,9999.0,,34.0,15.0,29.73,1006.3,,,,,,,,,,,,,,,2/8 Mostly Clear,72000.0,,FEW,25000.0,,,,,,
KRDR,07-23-2006,22:00,METAR,,280,8.0,,,9999.0,,34.0,15.0,29.74,1006.6,,,,,,,,,,,,,,,2/8 Mostly Clear,72000.0,,FEW,12000.0,FEW,25000.0,,,,
KRDR,07-23-2006,21:00,METAR,,290,8.0,,,9999.0,,34.0,14.0,29.75,1006.9,,,,,,,,,,,,,,,7/8 Mostly Cloudy,25000.0,,SCT,12000.0,BKN,25000.0,,,,
KRDR,07-23-2006,20:00,METAR,,330,8.0,,,9999.0,,33.0,15.0,29.76,1007.2,,,,,,,,,,,,,,,4/8 Partly Cloudy,72000.0,,FEW,12000.0,SCT,25000.0,,,,
KRDR,07-23-2006,19:00,METAR,,,6.0,,,9999.0,,33.0,15.0,29.77,1007.6,,,,,,,,,,,,,,,4/8 Partly Cloudy,72000.0,,FEW,5900.0,FEW,12000.0,SCT,25000.0,,
KRDR,07-23-2006,18:00,METAR,,,6.0,,,9999.0,,32.0,15.0,29.79,1008.3,,,,,,,,,,,,,,,4/8 Partly Cloudy,72000.0,,FEW,5900.0,FEW,12000.0,SCT,25000.0,,
KRDR,07-23-2006,17:00,METAR,,,6.0,,,9999.0,,31.0,15.0,29.81,1008.9,,,,,,,,,,,,,,,2/8 Mostly Clear,72000.0,,FEW,12000.0,FEW,25000.0,,,,
KRDR,07-23-2006,16:00,METAR,,310,9.0,,,9999.0,,30.0,17.0,29.82,1009.4,,,,,,,,,,,,,,,2/8 Mostly Clear,72000.0,,FEW,9900.0,FEW,25000.0,,,,
KRDR,07-23-2006,15:00,METAR,,300,8.0,,,9999.0,,27.0,17.0,29.83,1009.6,,,,,,,,,,,,,,,2/8 Mostly Clear,72000.0,,FEW,25000.0,,,,,,
KRDR,07-23-2006,14:00,METAR,,260,7.0,,,9999.0,,25.0,16.0,29.83,1009.6,,,,,,,,,,,,,,,2/8 Mostly Clear,72000.0,,FEW,25000.0,,,,,,
KRDR,07-23-2006,13:00,METAR,,220,4.0,,,9999.0,,23.0,16.0,29.84,1010.0,,,,,,,,,,,,,,,2/8 Mostly Clear,72000.0,,FEW,25000.0,,,,,,
KRDR,07-23-2006,12:00,METAR,,180,5.0,,,9999.0,,19.0,15.0,29.85,1010.4,,,,,,,,,,,,,,,2/8 Mostly Clear,72000.0,,FEW,9900.0,FEW,25000.0,,,,
KRDR,07-23-2006,11:00,METAR,,180,4.0,,,9999.0,,18.0,14.0,29.86,1011.0,,,,,,,,,,,,,,,2/8 Mostly Clear,72000.0,,FEW,8400.0,,,,,,
KRDR,07-23-2006,10:00,METAR,,190,5.0,,,9999.0,,17.0,14.0,29.86,1011.0,,,,,,,,,,,,,,,2/8 Mostly Clear,72000.0,,FEW,8400.0,,,,,,
KRDR,07-23-2006,09:00,METAR,,180,5.0,,,9999.0,,20.0,15.0,29.87,1011.3,,,,,,,,,,,,,,,4/8 Partly Cloudy,72000.0,,SCT,8400.0,,,,,,
KRDR,07-23-2006,08:00,METAR,,180,3.0,,,9999.0,,19.0,15.0,29.89,1012.0,,,,,,,,,,,,,,,2/8 Mostly Clear,72000.0,,FEW,9900.0,,,,,,
KRDR,07-23-2006,07:00,METAR,,190,4.0,,,9999.0,,20.0,15.0,29.91,1012.7,,,,,,,,,,,,,,,2/8 Mostly Clear,72000.0,,FEW,8900.0,,,,,,
KRDR,07-23-2006,06:00,METAR,,170,5.0,,,9999.0,,21.0,15.0,29.92,1013.0,,,,,,,,,,,,,,,4/8 Partly Cloudy,72000.0,,FEW,9400.0,SCT,25000.0,,,,
KRDR,07-23-2006,05:00,METAR,,170,5.0,,,9999.0,,22.0,15.0,29.93,1013.4,,,,,,,,,,,,,,,7/8 Mostly Cloudy,9000.0,,BKN,8900.0,BKN,25000.0,,,,
KRDR,07-23-2006,04:00,METAR,,160,4.0,,,9999.0,,22.0,15.0,29.93,1013.4,,,,,,,,,,,,,,,2/8 Mostly Clear,72000.0,,FEW,9900.0,FEW,25000.0,,,,
KRDR,07-23-2006,03:00,METAR,,140,4.0,,,9999.0,,25.0,15.0,29.94,1013.7,,,,,,,,,,,,,,,2/8 Mostly Clear,72000.0,,FEW,9900.0,FEW,25000.0,,,,
KRDR,07-23-2006,02:00,METAR,,140,5.0,,,9999.0,,27.0,15.0,29.94,1013.7,,,,,,,,,,,,,,,4/8 Partly Cloudy,72000.0,,FEW,9900.0,SCT,25000.0,,,,
KRDR,07-23-2006,01:00,METAR,,100,4.0,,,9999.0,,30.0,13.0,29.95,1014.1,,,,,,,,,,,,,,,7/8 Mostly Cloudy,10000.0,,BKN,9900.0,BKN,25000.0,,,,
KRDR,07-23-2006,00:00,METAR,,70,2.0,,,9999.0,,30.0,13.0,29.96,1014.5,,,,,,,,,,,,,,,7/8 Mostly Cloudy,25000.0,,FEW,7400.0,SCT,12000.0,BKN,25000.0,,
KRDR,07-22-2006,23:00,METAR,,,4.0,,,9999.0,,31.0,11.0,29.96,1014.4,,,,,,,,,,,,,,,7/8 Mostly Cloudy,25000.0,,FEW,7400.0,SCT,12000.0,BKN,25000.0,,
KRDR,07-22-2006,22:00,METAR,,,3.0,,,9999.0,,31.0,11.0,29.98,1015.0,,,,,,,,,,,,,,,7/8 Mostly Cloudy,25000.0,,FEW,7400.0,BKN,25000.0,,,,
KRDR,07-22-2006,21:00,METAR,,,3.0,,,9999.0,,31.0,11.0,30.00,1015.6,,,,,,,,,,,,,,,7/8 Mostly Cloudy,25000.0,,SCT,7400.0,BKN,25000.0,,,,
KRDR,07-22-2006,20:00,METAR,,360,7.0,,,9999.0,,32.0,13.0,30.01,1016.0,,,,,,,,,,,,,,,7/8 Mostly Cloudy,25000.0,,SCT,6400.0,BKN,25000.0,,,,
KRDR,07-22-2006,19:00,METAR,,,4.0,,,9999.0,,30.0,12.0,30.03,1016.6,,,,,,,,,,,,,,,7/8 Mostly Cloudy,25000.0,,SCT,6900.0,BKN,25000.0,,,,
KRDR,07-22-2006,18:00,METAR,,,4.0,,,9999.0,,30.0,12.0,30.04,1017.2,,,,,,,,,,,,,,,7/8 Mostly Cloudy,25000.0,,FEW,5900.0,BKN,25000.0,,,,
KRDR,07-22-2006,17:00,METAR,,,5.0,,,9999.0,,28.0,14.0,30.05,1017.5,,,,,,,,,,,,,,,7/8 Mostly Cloudy,25000.0,,FEW,5000.0,BKN,25000.0,,,,
KRDR,07-22-2006,16:00,METAR,,,1.0,,,9999.0,,27.0,14.0,30.06,1017.8,,,,,,,,,,,,,,,4/8 Partly Cloudy,72000.0,,FEW,12000.0,SCT,25000.0,,,,
KRDR,07-22-2006,15:00,METAR,,,2.0,,,9999.0,,25.0,14.0,30.07,1018.2,,,,,,,,,,,,,,,4/8 Partly Cloudy,72000.0,,FEW,12000.0,SCT,25000.0,,,,
KRDR,07-22-2006,14:00,METAR,,,4.0,,,9999.0,,23.0,15.0,30.08,1018.4,,,,,,,,,,,,,,,4/8 Partly Cloudy,72000.0,,FEW,7400.0,FEW,12000.0,SCT,25000.0,,
KRDR,07-22-2006,13:00,METAR,,,2.0,,,9999.0,,21.0,15.0,30.08,1018.5,,,,,,,,,,,,,,,7/8 Mostly Cloudy,25000.0,,FEW,7400.0,FEW,12000.0,BKN,25000.0,,
KRDR,07-22-2006,12:00,METAR,,,2.0,,,9999.0,,18.0,14.0,30.08,1018.4,,,,,,,,,,,,,,,4/8 Partly Cloudy,72000.0,,FEW,12000.0,SCT,25000.0,,,,
KRDR,07-22-2006,11:00,METAR,,,0.0,,,9999.0,,17.0,14.0,30.08,1018.8,,,,,,,,,,,,,,,7/8 Mostly Cloudy,8000.0,,BKN,7900.0,BKN,25000.0,,,,
KRDR,07-22-2006,10:00,METAR,,270,5.0,,,9999.0,,18.0,13.0,30.09,1019.1,,,,,,,,,,,,,,,7/8 Mostly Cloudy,8000.0,,BKN,7900.0,,,,,,
KRDR,07-22-2006,09:00,METAR,,280,5.0,,,9999.0,,18.0,13.0,30.08,1018.8,,,,,,,,,,,,,,,7/8 Mostly Cloudy,9500.0,,BKN,9400.0,,,,,,
KRDR,07-22-2006,08:00,METAR,,270,5.0,,,9999.0,,18.0,14.0,30.09,1019.1,,,,,,,,,,,,,,,8/8 Overcast,11000.0,,OVC,11000.0,,,,,,
KRDR,07-22-2006,07:00,METAR,,,3.0,,,9999.0,,17.0,13.0,30.10,1019.5,,,,,,,,,,,,,,,7/8 Mostly Cloudy,11000.0,,BKN,11000.0,,,,,,
KRDR,07-22-2006,06:00,METAR,,230,4.0,,,9999.0,,16.0,13.0,30.11,1019.9,,,,,,,,,,,,,TRACE,,4/8 Partly Cloudy,72000.0,,SCT,12000.0,,,,,,
KRDR,07-22-2006,05:00,METAR,,200,4.0,,,9999.0,,17.0,14.0,30.11,1019.9,,,,,,,,,,,,,,,4/8 Partly Cloudy,72000.0,,FEW,6900.0,SCT,11000.0,,,,
KRDR,07-22-2006,04:00,METAR,,80,6.0,,,9999.0,,22.0,14.0,30.11,1019.8,,,,,,,,,,,,,,,7/8 Mostly Cloudy,11000.0,,FEW,2700.0,FEW,6900.0,BKN,11000.0,,
KRDR,07-22-2006,03:10,SPECI,,300,4.0,,,9999.0,,21.0,14.0,30.11,,,,,,,,,,,,,,,,7/8 Mostly Cloudy,11000.0,,FEW,6900.0,BKN,11000.0,,,,
KRDR,07-22-2006,03:05,SPECI,,300,5.0,,,9999.0,Light Rain Showers,21.0,14.0,30.10,,,,,80,,,,,,,,,,,7/8 Mostly Cloudy,72000.0,,FEW,6900.0,BKN,7400.0,,,,
KRDR,07-22-2006,03:00,METAR,,270,1.0,,,9999.0,,21.0,14.0,30.10,1019.5,,,,,,,,,,,,,,,7/8 Mostly Cloudy,12000.0,,FEW,7400.0,BKN,12000.0,,,,
KRDR,07-22-2006,02:00,METAR,,330,3.0,,,9999.0,,22.0,14.0,30.10,1019.5,,,,,,,,,,,,,,,7/8 Mostly Cloudy,7500.0,,BKN,7400.0,BKN,25000.0,,,,
KRDR,07-22-2006,01:00,METAR,,310,5.0,,,9999.0,,26.0,12.0,30.10,1019.5,,,,,,,,,,,,,,,4/8 Partly Cloudy,72000.0,,SCT,7400.0,SCT,25000.0,,,,
KRDR,07-22-2006,00:00,METAR,,300,7.0,,,9999.0,,28.0,12.0,30.10,1019.5,,,,,,,,,,,,,,,4/8 Partly Cloudy,72000.0,,SCT,7400.0,SCT,25000.0,,,,
KRDR,07-21-2006,23:00,METAR,,,4.0,,,9999.0,,28.0,12.0,30.12,1019.9,,,,,,,,,,,,,,,7/8 Mostly Cloudy,25000.0,,SCT,7400.0,BKN,25000.0,,,,
KRDR,07-21-2006,22:00,METAR,,,3.0,,,9999.0,,28.0,11.0,30.13,1020.3,,,,,,,,,,,,,,,7/8 Mostly Cloudy,25000.0,,SCT,8900.0,BKN,25000.0,,,,
KRDR,07-21-2006,21:00,METAR,,,3.0,,,9999.0,,26.0,13.0,30.16,1021.2,,,,,,,,,,,,,,,7/8 Mostly Cloudy,8500.0,,BKN,8400.0,BKN,25000.0,,,,
KRDR,07-21-2006,20:00,METAR,,290,7.0,,,9999.0,,28.0,11.0,30.18,1021.9,,,,,,,,,,,,,,,7/8 Mostly Cloudy,7500.0,,BKN,7400.0,BKN,25000.0,,,,
KRDR,07-21-2006,19:00,METAR,,,3.0,,,9999.0,,27.0,11.0,30.20,1022.5,,,,,,,,,,,,,,,7/8 Mostly Cloudy,8000.0,,BKN,7900.0,BKN,25000.0,,,,
KRDR,07-21-2006,18:00,METAR,,280,7.0,,,9999.0,,27.0,13.0,30.22,1023.1,,,,,,,,,,,,,,,7/8 Mostly Cloudy,25000.0,,SCT,5900.0,BKN,25000.0,,,,
KRDR,07-21-2006,17:00,METAR,,,5.0,,,9999.0,,26.0,12.0,30.23,1023.5,,,,,,,,,,,,,,,4/8 Partly Cloudy,72000.0,,FEW,5000.0,SCT,25000.0,,,,
KRDR,07-21-2006,16:00,METAR,,310,5.0,,,9999.0,,25.0,12.0,30.23,1023.8,,,,,,,,,,,,,,,4/8 Partly Cloudy,72000.0,,FEW,3000.0,SCT,25000.0,,,,
KRDR,07-21-2006,15:00,METAR,,,3.0,,,9999.0,,23.0,15.0,30.24,1024.0,,,,,,,,,,,,,,,4/8 Partly Cloudy,72000.0,,SCT,25000.0,,,,,,
KRDR,07-21-2006,14:00,METAR,,,3.0,,,9999.0,,20.0,15.0,30.24,1023.8,,,,,,,,,,,,,,,2/8 Mostly Clear,72000.0,,FEW,25000.0,,,,,,
KRDR,07-21-2006,13:00,METAR,,280,4.0,,,9999.0,,17.0,14.0,30.23,1023.8,,,,,,,,,,,,,,,2/8 Mostly Clear,72000.0,,FEW,12000.0,FEW,25000.0,,,,
KRDR,07-21-2006,12:00,METAR,,240,3.0,,,9999.0,,14.0,12.0,30.22,1023.5,,,,,,,,,,,,,,,2/8 Mostly Clear,72000.0,,FEW,12000.0,FEW,25000.0,,,,
KRDR,07-21-2006,11:00,METAR,,270,2.0,,,9999.0,,12.0,11.0,30.21,1023.4,,,,,,,,,,,,,,,4/8 Partly Cloudy,72000.0,,FEW,12000.0,SCT,25000.0,,,,
KRDR,07-21-2006,10:00,METAR,,270,3.0,,,9999.0,,13.0,12.0,30.20,1023.0,,,,,,,,,,,,,,,4/8 Partly Cloudy,72000.0,,FEW,12000.0,SCT,25000.0,,,,
KRDR,07-21-2006,09:00,METAR,,270,2.0,,,9999.0,,13.0,12.0,30.20,1022.8,,,,,,,,,,,,,,,4/8 Partly Cloudy,72000.0,,FEW,12000.0,SCT,25000.0,,,,
KRDR,07-21-2006,08:00,METAR,,280,2.0,,,9999.0,,14.0,12.0,30.20,1022.7,,,,,,,,,,,,,,,4/8 Partly Cloudy,72000.0,,FEW,12000.0,SCT,25000.0,,,,
KRDR,07-21-2006,07:00,METAR,,250,4.0,,,9999.0,,16.0,13.0,30.20,1022.9,,,,,,,,,,,,,,,7/8 Mostly Cloudy,25000.0,,FEW,12000.0,BKN,25000.0,,,,
KRDR,07-21-2006,06:00,METAR,,280,4.0,,,9999.0,,16.0,13.0,30.20,1022.9,,,,,,,,,,,,,,,7/8 Mostly Cloudy,25000.0,,FEW,12000.0,BKN,25000.0,,,,
KRDR,07-21-2006,05:00,METAR,,270,3.0,,,9999.0,,17.0,13.0,30.20,1022.9,,,,,,,,,,,,,,,7/8 Mostly Cloudy,25000.0,,FEW,12000.0,BKN,25000.0,,,,
KRDR,07-21-2006,04:00,METAR,,280,2.0,,,9999.0,,17.0,13.0,30.19,1022.6,,,,,,,,,,,,,,,7/8 Mostly Cloudy,25000.0,,SCT,12000.0,BKN,25000.0,,,,
KRDR,07-21-2006,03:00,METAR,,310,2.0,,,9999.0,,18.0,14.0,30.18,1022.3,,,,,,,,,,,,,,,7/8 Mostly Cloudy,20000.0,,SCT,12000.0,BKN,20000.0,,,,
KRDR,07-21-2006,02:00,METAR,,330,3.0,,,9999.0,,21.0,14.0,30.17,1021.9,,,,,,,,,,,,,,,8/8 Overcast,25000.0,,SCT,12000.0,OVC,25000.0,,,,
KRDR,07-21-2006,01:00,METAR,,360,5.0,,,9999.0,,23.0,13.0,30.17,1021.9,,,,,,,,,,,,,,,8/8 Overcast,25000.0,,SCT,12000.0,OVC,25000.0,,,,
KRDR,07-21-2006,00:00,METAR,,340,5.0,,,9999.0,,24.0,13.0,30.18,1022.3,,,,,,,,,,,,,,,8/8 Overcast,25000.0,,SCT,12000.0,OVC,25000.0,,,,
KRDR,07-20-2006,23:00,METAR,,280,3.0,,,9999.0,,24.0,14.0,30.19,1022.4,,,,,,,,,,,,,,,8/8 Overcast,25000.0,,SCT,12000.0,OVC,25000.0,,,,
KRDR,07-20-2006,22:00,METAR,,310,8.0,,,9999.0,,25.0,12.0,30.19,1022.3,,,,,,,,,,,,,,,7/8 Mostly Cloudy,25000.0,,SCT,12000.0,BKN,25000.0,,,,
KRDR,07-20-2006,21:00,METAR,,,1.0,,,9999.0,,26.0,10.0,30.17,1021.6,,,,,,,,,,,,,,,7/8 Mostly Cloudy,25000.0,,SCT,12000.0,BKN,25000.0,,,,
KRDR,07-20-2006,20:00,METAR,,,6.0,,,9999.0,,27.0,9.0,30.16,1021.3,,,,,,,,,,,,,,,7/8 Mostly Cloudy,25000.0,,FEW,9900.0,BKN,25000.0,,,,
KRDR,07-20-2006,19:00,METAR,,,6.0,,,9999.0,,26.0,10.0,30.17,1021.7,,,,,,,,,,,,,,,4/8 Partly Cloudy,72000.0,,FEW,9900.0,SCT,25000.0,,,,
KRDR,07-20-2006,18:00,METAR,,20,8.0,,,9999.0,,24.0,11.0,30.18,1022.0,,,,,,,,,,,,,,,4/8 Partly Cloudy,72000.0,,FEW,5000.0,SCT,25000.0,,,,
KRDR,07-20-2006,17:00,METAR,,10,7.0,,,9999.0,,24.0,12.0,30.20,1022.6,,,,,,,,,,,,,,,4/8 Partly Cloudy,72000.0,,FEW,5000.0,SCT,25000.0,,,,
KRDR,07-20-2006,16:00,METAR,,340,7.0,,,9999.0,,23.0,13.0,30.20,1022.6,,,,,,,,,,,,,,,4/8 Partly Cloudy,72000.0,,FEW,5000.0,SCT,25000.0,,,,
KRDR,07-20-2006,15:00,METAR,,360,7.0,,,9999.0,,21.0,14.0,30.19,1022.4,,,,,,,,,,,,,,,2/8 Mostly Clear,72000.0,,FEW,5000.0,FEW,25000.0,,,,
KRDR,07-20-2006,14:00,METAR,,330,7.0,,,9999.0,,19.0,13.0,30.19,1022.1,,,,,,,,,,,,,,,2/8 Mostly Clear,72000.0,,FEW,25000.0,,,,,,
KRDR,07-20-2006,13:00,METAR,,330,7.0,,,9999.0,,17.0,12.0,30.18,1021.7,,,,,,,,,,,,,,,2/8 Mostly Clear,72000.0,,FEW,25000.0,,,,,,
KRDR,07-20-2006,12:00,METAR,,300,4.0,,,9999.0,,14.0,11.0,30.13,1021.2,,,,,,,,,,,,,,,2/8 Mostly Clear,72000.0,,FEW,25000.0,,,,,,
KRDR,07-20-2006,11:00,METAR,,310,3.0,,,9999.0,,13.0,10.0,30.12,1020.1,,,,,,,,,,,,,,,2/8 Mostly Clear,72000.0,,FEW,25000.0,,,,,,
KRDR,07-20-2006,10:00,METAR,,320,5.0,,,9999.0,,13.0,10.0,30.10,1019.4,,,,,,,,,,,,,,,2/8 Mostly Clear,72000.0,,FEW,25000.0,,,,,,
KRDR,07-20-2006,09:00,METAR,,330,5.0,,,9999.0,,14.0,10.0,30.07,1018.3,,,,,,,,,,,,,,,2/8 Mostly Clear,72000.0,,FEW,25000.0,,,,,,
KRDR,07-20-2006,08:00,METAR,,290,4.0,,,9999.0,,15.0,10.0,30.06,1018.1,,,,,,,,,,,,,,,Clear,72000.0,,,73000.0,,,,,,
KRDR,07-20-2006,07:00,METAR,,310,6.0,,,9999.0,,16.0,10.0,30.06,1018.0,,,,,,,,,,,,,,,Clear,72000.0,,,73000.0,,,,,,
KRDR,07-20-2006,06:00,METAR,,280,5.0,,,9999.0,,15.0,10.0,30.05,1017.7,,,,,,,,,,,,,,,Clear,72000.0,,,73000.0,,,,,,
KRDR,07-20-2006,05:00,METAR,,280,5.0,,,9999.0,,17.0,11.0,30.04,1017.3,,,,,,,,,,,,,,,Clear,72000.0,,,73000.0,,,,,,
KRDR,07-20-2006,04:00,METAR,,290,6.0,,,9999.0,,19.0,11.0,30.03,1017.0,,,,,,,,,,,,,,,2/8 Mostly Clear,72000.0,,FEW,25000.0,,,,,,
KRDR,07-20-2006,03:00,METAR,,270,3.0,,,9999.0,,18.0,12.0,30.01,1016.5,,,,,,,,,,,,,,,2/8 Mostly Clear,72000.0,,FEW,5900.0,FEW,25000.0,,,,
KRDR,07-20-2006,02:00,METAR,,320,4.0,,,9999.0,,23.0,12.0,29.98,1015.3,,,,,,,,,,,,,,,2/8 Mostly Clear,72000.0,,FEW,25000.0,,,,,,
KRDR,07-20-2006,01:00,METAR,,330,7.0,,,9999.0,,27.0,11.0,29.96,1014.7,,,,,,,,,,,,,,,2/8 Mostly Clear,72000.0,,FEW,25000.0,,,,,,
KRDR,07-20-2006,00:00,METAR,,300,10.0,,,9999.0,,28.0,11.0,29.95,1014.4,,,,,,,,,,,,,,,4/8 Partly Cloudy,72000.0,,SCT,25000.0,,,,,,
KRDR,07-19-2006,23:00,METAR,,300,11.0,,,9999.0,,29.0,9.0,29.94,1013.9,,,,,,,,,,,,,,,4/8 Partly Cloudy,72000.0,,SCT,25000.0,,,,,,
KRDR,07-19-2006,22:00,METAR,,310,12.0,,,9999.0,,29.0,10.0,29.94,1013.5,,,,,,,,,,,,,,,4/8 Partly Cloudy,72000.0,,SCT,25000.0,,,,,,
KRDR,07-19-2006,21:00,METAR,,320,12.0,20.0,,9999.0,,30.0,10.0,29.93,1013.2,,,,,,,,,,,,,,,7/8 Mostly Cloudy,25000.0,,FEW,15000.0,BKN,25000.0,,,,
KRDR,07-19-2006,20:00,METAR,,300,12.0,,,9999.0,,28.0,12.0,29.91,1012.6,,,,,,,,,,,,,,,7/8 Mostly Cloudy,25000.0,,SCT,15000.0,BKN,25000.0,,,,
KRDR,07-19-2006,19:00,METAR,,300,11.0,,,9999.0,,25.0,15.0,29.90,1012.4,,,,,,,,,,,,,,,7/8 Mostly Cloudy,25000.0,,SCT,15000.0,BKN,25000.0,,,,
KRDR,07-19-2006,18:00,METAR,,320,14.0,21.0,,9999.0,,26.0,16.0,29.89,1012.0,,,,,,,,,,,,,,,7/8 Mostly Cloudy,25000.0,,FEW,15000.0,BKN,25000.0,,,,
KRDR,07-19-2006,17:00,METAR,,310,9.0,,,9999.0,,26.0,16.0,29.89,1012.0,,,,,,,,,,,,,,,7/8 Mostly Cloudy,25000.0,,FEW,8900.0,SCT,15000.0,BKN,25000.0,,
KRDR,07-19-2006,16:00,METAR,,280,9.0,,,9999.0,,22.0,16.0,29.91,1012.9,,,,,,,,,,,,,,,7/8 Mostly Cloudy,25000.0,,FEW,8900.0,SCT,15000.0,BKN,25000.0,,
KRDR,07-19-2006,15:00,METAR,,260,5.0,,,9999.0,,21.0,16.0,29.90,1012.2,,,,,,,,,,,,,,,8/8 Overcast,15000.0,,FEW,8900.0,BKN,15000.0,OVC,25000.0,,
KRDR,07-19-2006,14:00,METAR,,,3.0,,,9999.0,,21.0,16.0,29.89,1012.0,,,,,,,,,,,,,,,8/8 Overcast,15000.0,,FEW,5900.0,BKN,15000.0,OVC,25000.0,,
KRDR,07-19-2006,13:00,METAR,,,4.0,,,9999.0,,21.0,16.0,29.88,1011.6,,,,,,,,,,,,,,,8/8 Overcast,15000.0,,FEW,5900.0,BKN,15000.0,OVC,25000.0,,
KRDR,07-19-2006,12:00,METAR,,,5.0,,,9999.0,,19.0,16.0,29.86,1010.7,,,,,,,,,,,,,,,7/8 Mostly Cloudy,25000.0,,SCT,18000.0,BKN,25000.0,,,,
KRDR,07-19-2006,11:00,METAR,,290,6.0,,,9999.0,,19.0,15.0,29.79,1008.9,,,,,,,,,,,,,,,7/8 Mostly Cloudy,25000.0,,SCT,18000.0,BKN,25000.0,,,,
KRDR,07-19-2006,10:00,METAR,,210,5.0,,,9999.0,,18.0,15.0,29.81,1009.2,,,,,,,,,,,,,,,7/8 Mostly Cloudy,25000.0,,BKN,25000.0,,,,,,
KRDR,07-19-2006,09:00,METAR,,220,6.0,,,9999.0,,21.0,16.0,29.77,1008.1,,,,,,,,,,,,,,,4/8 Partly Cloudy,72000.0,,SCT,25000.0,,,,,,
KRDR,07-19-2006,08:00,METAR,,200,10.0,,,9999.0,,21.0,16.0,29.77,1008.0,,,,,,,,,,,,,,,4/8 Partly Cloudy,72000.0,,SCT,25000.0,,,,,,
KRDR,07-19-2006,07:00,METAR,,180,12.0,,,9999.0,,22.0,15.0,29.76,1007.7,,,,,,,,,,,,,,,Clear,72000.0,,,73000.0,,,,,,
KRDR,07-19-2006,06:00,METAR,,180,14.0,,,9999.0,,22.0,15.0,29.77,1008.2,,,,,,,,,,,,,,,Clear,72000.0,,,73000.0,,,,,,
KRDR,07-19-2006,05:00,METAR,,170,18.0,,,9999.0,,23.0,15.0,29.79,1008.8,,,,,,,,,,,,,,,Clear,72000.0,,,73000.0,,,,,,
KRDR,07-19-2006,04:00,METAR,,160,14.0,20.0,,9999.0,,23.0,14.0,29.81,1009.3,,,,,,,,,,,,,,,Clear,72000.0,,,73000.0,,,,,,
KRDR,07-19-2006,03:00,METAR,,160,14.0,21.0,,9999.0,,24.0,15.0,29.81,1009.5,,,,,,,,,,,,,,,2/8 Mostly Clear,72000.0,,FEW,25000.0,,,,,,
KRDR,07-19-2006,02:00,METAR,,150,11.0,,,9999.0,,26.0,15.0,29.82,1009.8,,,,,,,,,,,,,,,2/8 Mostly Clear,72000.0,,FEW,25000.0,,,,,,
KRDR,07-19-2006,01:00,METAR,,170,13.0,,,9999.0,,28.0,14.0,29.84,1010.5,,,,,,,,,,,,,,,2/8 Mostly Clear,72000.0,,FEW,25000.0,,,,,,
KRDR,07-19-2006,00:00,METAR,,170,16.0,,,9999.0,,29.0,12.0,29.85,1010.7,,,,,,,,,,,,,,,2/8 Mostly Clear,72000.0,,FEW,25000.0,,,,,,
KRDR,07-18-2006,23:00,METAR,,160,15.0,21.0,,9999.0,,30.0,12.0,29.87,1011.7,,,,,,,,,,,,,,,2/8 Mostly Clear,72000.0,,FEW,25000.0,,,,,,
KRDR,07-18-2006,22:00,METAR,,170,17.0,24.0,,9999.0,,30.0,12.0,29.89,1012.2,,,,,,,,,,,,,,,2/8 Mostly Clear,72000.0,,FEW,25000.0,,,,,,
KRDR,07-18-2006,21:00,METAR,,150,17.0,,,9999.0,,30.0,12.0,29.91,1012.9,,,,,,,,,,,,,,,2/8 Mostly Clear,72000.0,,FEW,25000.0,,,,,,
KRDR,07-18-2006,20:00,METAR,,160,15.0,22.0,,9999.0,,29.0,13.0,29.94,1013.9,,,,,,,,,,,,,,,4/8 Partly Cloudy,72000.0,,FEW,9900.0,SCT,25000.0,,,,
KRDR,07-18-2006,19:00,METAR,,170,15.0,25.0,,9999.0,,27.0,13.0,29.96,1014.7,,,,,,,,,,,,,,,4/8 Partly Cloudy,72000.0,,FEW,9900.0,SCT,25000.0,,,,
KRDR,07-18-2006,18:00,METAR,,180,5.0,,180/28KTS,9999.0,,25.0,13.0,30.00,1016.2,,,,,,,,,,,,,,,8/8 Overcast,25000.0,,FEW,5000.0,SCT,9900.0,OVC,25000.0,,
KRDR,07-18-2006,17:00,METAR,,160,18.0,,,9999.0,,24.0,13.0,29.99,1015.8,,,,,,,,,,,,,,,8/8 Overcast,25000.0,,FEW,5000.0,SCT,9900.0,OVC,25000.0,,
KRDR,07-18-2006,16:00,METAR,,160,14.0,,,9999.0,,24.0,12.0,30.05,1017.8,,,,,,,,,,,,,,,7/8 Mostly Cloudy,25000.0,,FEW,5000.0,SCT,9900.0,BKN,25000.0,,
KRDR,07-18-2006,15:00,METAR,,190,12.0,,,9999.0,,23.0,13.0,30.09,1019.2,,,,,,,,,,,,,,,7/8 Mostly Cloudy,25000.0,,FEW,5000.0,SCT,9900.0,BKN,25000.0,,
KRDR,07-18-2006,14:00,METAR,,190,11.0,,,9999.0,,22.0,13.0,30.09,1019.1,,,,,,,,,,,,,,,7/8 Mostly Cloudy,25000.0,,FEW,5900.0,FEW,15000.0,BKN,25000.0,,
KRDR,07-18-2006,13:00,METAR,,170,4.0,,,9999.0,,19.0,12.0,30.07,1018.4,,,,,,,,,,,,,,,7/8 Mostly Cloudy,25000.0,,BKN,25000.0,,,,,,
KRDR,07-18-2006,12:00,METAR,,170,3.0,,,9999.0,,15.0,11.0,30.07,1018.5,,,,,,,,,,,,,,,7/8 Mostly Cloudy,25000.0,,BKN,25000.0,,,,,,
KRDR,07-18-2006,11:00,METAR,,190,3.0,,,9999.0,,12.0,9.0,30.08,1018.4,,,,,,,,,,,,,,,4/8 Partly Cloudy,72000.0,,SCT,25000.0,,,,,,
KRDR,07-18-2006,10:00,METAR,,210,4.0,,,9999.0,,12.0,10.0,30.07,1018.3,,,,,,,,,,,,,,,2/8 Mostly Clear,72000.0,,FEW,25000.0,,,,,,
KRDR,07-18-2006,09:00,METAR,,190,4.0,,,9999.0,,13.0,10.0,30.08,1018.6,,,,,,,,,,,,,,,Clear,72000.0,,,73000.0,,,,,,
KRDR,07-18-2006,08:00,METAR,,190,2.0,,,9999.0,,14.0,10.0,30.08,1018.6,,,,,,,,,,,,,,,Clear,72000.0,,,73000.0,,,,,,
KRDR,07-18-2006,07:00,METAR,,210,4.0,,,9999.0,,13.0,10.0,30.09,1018.8,,,,,,,,,,,,,,,Clear,72000.0,,,73000.0,,,,,,
KRDR,07-18-2006,06:00,METAR,,210,4.0,,,9999.0,,14.0,11.0,30.08,1018.7,,,,,,,,,,,,,,,Clear,72000.0,,,73000.0,,,,,,
KRDR,07-18-2006,05:00,METAR,,200,3.0,,,9999.0,,15.0,11.0,30.08,1018.6,,,,,,,,,,,,,,,Clear,72000.0,,,73000.0,,,,,,
KRDR,07-18-2006,04:00,METAR,,220,3.0,,,9999.0,,16.0,12.0,30.08,1018.7,,,,,,,,,,,,,,,Clear,72000.0,,,73000.0,,,,,,
KRDR,07-18-2006,03:00,METAR,,230,4.0,,,9999.0,,18.0,13.0,30.08,1018.4,,,,,,,,,,,,,,,Clear,72000.0,,,73000.0,,,,,,
KRDR,07-18-2006,02:00,METAR,,300,3.0,,,9999.0,,23.0,13.0,30.06,1017.9,,,,,,,,,,,,,,,Clear,72000.0,,,73000.0,,,,,,
KRDR,07-18-2006,01:00,METAR,,330,7.0,,,9999.0,,26.0,12.0,30.06,1017.6,,,,,,,,,,,,,,,Clear,72000.0,,,73000.0,,,,,,
KRDR,07-18-2006,00:00,METAR,,330,10.0,,,9999.0,,27.0,10.0,,1017.8,,,,,,,,,,,,,,,Clear,72000.0,,,73000.0,,,,,,
KRDR,07-17-2006,23:00,METAR,,310,12.0,,,9999.0,,28.0,10.0,30.07,1018.4,,,,,,,,,,,,,,,2/8 Mostly Clear,72000.0,,FEW,4000.0,,,,,,
KRDR,07-17-2006,22:00,METAR,,330,11.0,,,9999.0,,28.0,10.0,30.08,1018.7,,,,,,,,,,,,,,,2/8 Mostly Clear,72000.0,,FEW,4000.0,,,,,,
KRDR,07-17-2006,21:00,METAR,,340,10.0,,,9999.0,,28.0,10.0,30.08,1018.7,,,,,,,,,,,,,,,2/8 Mostly Clear,72000.0,,FEW,4000.0,,,,,,
KRDR,07-17-2006,20:00,METAR,,320,13.0,,,9999.0,,27.0,9.0,30.08,1018.7,,,,,,,,,,,,,,,2/8 Mostly Clear,72000.0,,FEW,4000.0,,,,,,
KRDR,07-17-2006,19:00,METAR,,340,15.0,21.0,,9999.0,,27.0,9.0,30.09,1019.0,,,,,,,,,,,,,,,2/8 Mostly Clear,72000.0,,FEW,4000.0,,,,,,
KRDR,07-17-2006,18:00,METAR,,330,16.0,22.0,,9999.0,,26.0,9.0,30.09,1019.0,,,,,,,,,,,,,,,2/8 Mostly Clear,72000.0,,FEW,4000.0,,,,,,
KRDR,07-17-2006,17:00,METAR,,330,16.0,,,9999.0,,25.0,9.0,30.09,1019.0,,,,,,,,,,,,,,,2/8 Mostly Clear,72000.0,,FEW,4000.0,,,,,,
KRDR,07-17-2006,16:00,METAR,,330,14.0,19.0,,9999.0,,24.0,9.0,30.08,1018.7,,,,,,,,,,,,,,,Clear,72000.0,,,73000.0,,,,,,
KRDR,07-17-2006,15:00,METAR,,310,7.0,,,9999.0,,23.0,11.0,30.08,1018.6,,,,,,,,,,,,,,,Clear,72000.0,,,73000.0,,,,,,
KRDR,07-17-2006,14:00,METAR,,310,11.0,,,9999.0,,21.0,11.0,30.06,1017.9,,,,,,,,,,,,,,,Clear,72000.0,,,73000.0,,,,,,
KRDR,07-17-2006,13:00,METAR,,310,10.0,,,9999.0,,19.0,12.0,30.05,1017.5,,,,,,,,,,,,,,,Clear,72000.0,,,73000.0,,,,,,
KRDR,07-17-2006,12:00,METAR,,290,7.0,,,9999.0,,17.0,12.0,30.04,1017.2,,,,,,,,,,,,,,,Clear,72000.0,,,73000.0,,,,,,
KRDR,07-17-2006,11:00,METAR,,330,13.0,,,9999.0,,17.0,12.0,30.01,1015.9,,,,,,,,,,,,,,,Clear,72000.0,,,73000.0,,,,,,
KRDR,07-17-2006,10:00,METAR,,340,15.0,,,9999.0,,19.0,13.0,29.98,1014.8,,,,,,,,,,,,,,,Clear,72000.0,,,73000.0,,,,,,
KRDR,07-17-2006,09:00,METAR,,340,15.0,,,9999.0,,20.0,12.0,29.96,1014.0,,,,,,,,,,,,,,,2/8 Mostly Clear,72000.0,,FEW,8900.0,,,,,,
KRDR,07-17-2006,08:00,METAR,,350,11.0,18.0,,9999.0,,21.0,11.0,29.92,1012.6,,,,,,,,,,,,,,,4/8 Partly Cloudy,72000.0,,SCT,8400.0,,,,,,
KRDR,07-17-2006,07:00,METAR,,340,12.0,20.0,,9999.0,,22.0,13.0,29.88,1011.3,,,,,,,,,,,,,,,2/8 Mostly Clear,72000.0,,FEW,8400.0,,,,,,
KRDR,07-17-2006,06:00,METAR,,340,12.0,,,9999.0,,23.0,17.0,29.83,1009.7,,,,,,,,,,,,,,,2/8 Mostly Clear,72000.0,,FEW,25000.0,,,,,,
KRDR,07-17-2006,05:00,METAR,,340,13.0,,,9999.0,,25.0,19.0,29.78,1008.0,,,,,,,,,,,,,,,2/8 Mostly Clear,72000.0,,FEW,25000.0,,,,,,
KRDR,07-17-2006,04:00,METAR,,300,7.0,,,9999.0,,26.0,20.0,29.75,1006.9,,,,,,,,,,,,,,,2/8 Mostly Clear,72000.0,,FEW,12000.0,FEW,25000.0,,,,
KRDR,07-17-2006,03:00,METAR,,300,9.0,,,9999.0,,28.0,20.0,29.72,1006.1,,,,,,,,,,,,,,,2/8 Mostly Clear,72000.0,,FEW,12000.0,FEW,25000.0,,,,
KRDR,07-17-2006,02:00,METAR,,300,10.0,,,9999.0,,31.0,20.0,29.70,1005.1,,,,,,,,,,,,,,,2/8 Mostly Clear,72000.0,,FEW,12000.0,FEW,25000.0,,,,
KRDR,07-17-2006,01:00,METAR,,190,8.0,,,9999.0,,33.0,23.0,29.69,1004.8,,,,,,,,,,,,,,,2/8 Mostly Clear,72000.0,,FEW,25000.0,,,,,,
KRDR,07-17-2006,00:00,METAR,,190,8.0,,,9999.0,,35.0,19.0,29.68,1004.7,,,,,,,,,,,,,,,2/8 Mostly Clear,72000.0,,FEW,25000.0,,,,,,
KRDR,07-16-2006,23:00,METAR,,210,7.0,,,9999.0,,36.0,19.0,29.69,1005.3,,,,,,,,,,,,,,,2/8 Mostly Clear,72000.0,,FEW,12000.0,,,,,,
KRDR,07-16-2006,22:00,METAR,,170,10.0,,,9999.0,,36.0,17.0,29.71,1006.0,,,,,,,,,,,,,,,2/8 Mostly Clear,72000.0,,FEW,12000.0,,,,,,
KRDR,07-16-2006,21:00,METAR,,140,8.0,,,9999.0,,36.0,18.0,29.72,1006.0,,,,,,,,,,,,,,,4/8 Partly Cloudy,72000.0,,SCT,9900.0,,,,,,
KRDR,07-16-2006,20:00,METAR,,120,7.0,,,9999.0,,35.0,17.0,29.75,1007.4,,,,,,,,,,,,,,,7/8 Mostly Cloudy,10000.0,,BKN,9900.0,,,,,,
KRDR,07-16-2006,19:00,METAR,,100,9.0,,,9999.0,,34.0,17.0,29.78,1008.4,,,,,,,,,,,,,,,4/8 Partly Cloudy,72000.0,,SCT,9900.0,,,,,,
KRDR,07-16-2006,18:00,METAR,,,6.0,,,9999.0,,33.0,17.0,29.80,1009.0,,,,,,,,,,,,,,,4/8 Partly Cloudy,72000.0,,FEW,9900.0,SCT,25000.0,,,,
KRDR,07-16-2006,17:00,METAR,,40,4.0,,,9999.0,,31.0,19.0,29.81,1009.1,,,,,,,,,,,,,,,4/8 Partly Cloudy,72000.0,,FEW,9900.0,SCT,25000.0,,,,
KRDR,07-16-2006,16:00,METAR,,40,5.0,,,9999.0,,29.0,18.0,29.81,1009.3,,,,,,,,,,,,,,,4/8 Partly Cloudy,72000.0,,FEW,12000.0,SCT,25000.0,,,,
KRDR,07-16-2006,15:00,METAR,,290,2.0,,,9999.0,,26.0,18.0,29.86,1010.9,,,,,,,,,,,,,,,7/8 Mostly Cloudy,25000.0,,FEW,12000.0,BKN,25000.0,,,,
KRDR,07-16-2006,14:00,METAR,,350,4.0,,,9999.0,,23.0,18.0,29.86,1010.9,,,,,,,,,,,,,,,7/8 Mostly Cloudy,25000.0,,FEW,12000.0,BKN,25000.0,,,,
KRDR,07-16-2006,13:00,METAR,,300,5.0,,,9999.0,,21.0,18.0,29.86,1010.9,,,,,,,,,,,,,,,4/8 Partly Cloudy,72000.0,,FEW,12000.0,SCT,25000.0,,,,
KRDR,07-16-2006,12:00,METAR,,20,2.0,,,9999.0,,17.0,16.0,29.82,1009.6,,,,,,,,,,,,,,,4/8 Partly Cloudy,72000.0,,FEW,12000.0,SCT,25000.0,,,,
KRDR,07-16-2006,11:00,METAR,,,1.0,,,9999.0,,16.0,16.0,29.82,1009.4,,,,,,,,,,,,,,,7/8 Mostly Cloudy,25000.0,,FEW,12000.0,BKN,25000.0,,,,
KRDR,07-16-2006,10:00,METAR,,270,1.0,,,9999.0,,16.0,16.0,29.82,1009.5,,,,,,,,,,,,,,,4/8 Partly Cloudy,72000.0,,SCT,25000.0,,,,,,
KRDR,07-16-2006,08:00,METAR,,250,3.0,,,9999.0,,17.0,17.0,29.83,1009.9,,,,,,,,,,,,,,,7/8 Mostly Cloudy,25000.0,,BKN,25000.0,,,,,,
KRDR,07-16-2006,07:00,METAR,,310,1.0,,,9999.0,,18.0,18.0,29.84,1009.9,,,,,,,,,,,,,,,7/8 Mostly Cloudy,25000.0,,BKN,25000.0,,,,,,
KRDR,07-16-2006,06:00,METAR,,310,1.0,,,9999.0,,20.0,19.0,29.84,1010.1,,,,,,,,,,,,,,,7/8 Mostly Cloudy,25000.0,,BKN,25000.0,,,,,,
KRDR,07-16-2006,05:00,METAR,,320,4.0,,,9999.0,,21.0,19.0,29.84,1010.1,,,,,,,,,,,,,,,7/8 Mostly Cloudy,25000.0,,BKN,25000.0,,,,,,
KRDR,07-16-2006,04:00,METAR,,350,6.0,,,9999.0,,24.0,20.0,29.83,1009.8,,,,,,,,,,,,,,,7/8 Mostly Cloudy,25000.0,,BKN,25000.0,,,,,,
KRDR,07-16-2006,03:00,METAR,,330,5.0,,,9999.0,,25.0,20.0,29.82,1009.3,,,,,,,,,,,,,,,7/8 Mostly Cloudy,25000.0,,BKN,25000.0,,,,,,
KRDR,07-16-2006,02:00,METAR,,340,6.0,,,9999.0,,28.0,21.0,29.80,1008.6,,,,,,,,,,,,,,,7/8 Mostly Cloudy,25000.0,,BKN,25000.0,,,,,,
KRDR,07-16-2006,01:00,METAR,,350,6.0,,,9999.0,,32.0,19.0,29.79,1008.4,,,,,,,,,,,,,,,7/8 Mostly Cloudy,25000.0,,BKN,25000.0,,,,,,
KRDR,07-16-2006,00:00,METAR,,300,3.0,,,9999.0,,32.0,16.0,29.79,1008.6,,,,,,,,,,,,,,,7/8 Mostly Cloudy,25000.0,,BKN,25000.0,,,,,,
KRDR,07-15-2006,23:00,METAR,,240,3.0,,,9999.0,,33.0,18.0,29.79,1008.9,,,,,,,,,,,,,,,7/8 Mostly Cloudy,25000.0,,BKN,25000.0,,,,,,
KRDR,07-15-2006,22:00,METAR,,90,1.0,,,9999.0,,33.0,16.0,29.81,1009.4,,,,,,,,,,,,,,,7/8 Mostly Cloudy,25000.0,,FEW,7900.0,BKN,25000.0,,,,
KRDR,07-15-2006,21:00,METAR,,100,3.0,,,9999.0,,32.0,18.0,29.81,1009.5,,,,,,,,,,,,,,,7/8 Mostly Cloudy,25000.0,,FEW,7900.0,BKN,25000.0,,,,
KRDR,07-15-2006,20:00,METAR,,90,9.0,,,9999.0,,33.0,17.0,29.82,1009.6,,,,,,,,,,,,,,,7/8 Mostly Cloudy,25000.0,,FEW,7900.0,BKN,25000.0,,,,
KRDR,07-15-2006,19:00,METAR,,70,10.0,,,9999.0,,33.0,16.0,29.83,1010.1,,,,,,,,,,,,,,,7/8 Mostly Cloudy,25000.0,,FEW,7900.0,BKN,25000.0,,,,
KRDR,07-15-2006,18:00,METAR,,70,12.0,14.0,,9999.0,,32.0,16.0,29.84,1010.2,,,,,,,,,,,,,,,7/8 Mostly Cloudy,25000.0,,SCT,5000.0,BKN,25000.0,,,,
KRDR,07-15-2006,17:00,METAR,,70,9.0,,,9999.0,,31.0,17.0,29.86,1011.1,,,,,,,,,,,,,,,7/8 Mostly Cloudy,25000.0,,SCT,5000.0,BKN,25000.0,,,,
KRDR,07-15-2006,16:00,METAR,,60,8.0,,,9999.0,,29.0,17.0,29.87,1011.5,,,,,,,,,,,,,,,4/8 Partly Cloudy,72000.0,,SCT,5000.0,SCT,25000.0,,,,
KRDR,07-15-2006,15:00,METAR,,70,4.0,,,9999.0,,27.0,16.0,29.87,1011.5,,,,,,,,,,,,,,,2/8 Mostly Clear,72000.0,,FEW,8900.0,FEW,25000.0,,,,
KRDR,07-15-2006,14:00,METAR,,10,7.0,,,9999.0,,24.0,15.0,29.88,1011.5,,,,,,,,,,,,,,,2/8 Mostly Clear,72000.0,,FEW,8900.0,FEW,25000.0,,,,
KRDR,07-15-2006,13:00,METAR,,40,3.0,,,9999.0,,21.0,14.0,29.89,1012.7,,,,,,,,,,,,,,,2/8 Mostly Clear,72000.0,,FEW,8900.0,FEW,25000.0,,,,
KRDR,07-15-2006,12:00,METAR,,,0.0,,,9999.0,,15.0,12.0,29.91,1012.7,,,,,,,,,,,,,,,2/8 Mostly Clear,72000.0,,FEW,8900.0,FEW,25000.0,,,,
KRDR,07-15-2006,11:00,METAR,,330,2.0,,,9999.0,,14.0,12.0,29.91,1012.6,,,,,,,,,,,,,,,2/8 Mostly Clear,72000.0,,FEW,25000.0,,,,,,
KRDR,07-15-2006,10:00,METAR,,,1.0,,,9999.0,,16.0,12.0,29.90,1012.3,,,,,,,,,,,,,,,2/8 Mostly Clear,72000.0,,FEW,25000.0,,,,,,
KRDR,07-15-2006,09:00,METAR,,220,1.0,,,9999.0,,15.0,13.0,29.90,1012.3,,,,,,,,,,,,,,,2/8 Mostly Clear,72000.0,,FEW,25000.0,,,,,,
KRDR,07-15-2006,08:00,METAR,,200,4.0,,,9999.0,,16.0,13.0,29.90,1012.3,,,,,,,,,,,,,,,2/8 Mostly Clear,72000.0,,FEW,25000.0,,,,,,
KRDR,07-15-2006,07:00,METAR,,170,5.0,,,9999.0,,18.0,14.0,29.91,1012.4,,,,,,,,,,,,,,,2/8 Mostly Clear,72000.0,,FEW,25000.0,,,,,,
KRDR,07-15-2006,06:00,METAR,,240,5.0,,,9999.0,,18.0,14.0,29.91,1012.6,,,,,,,,,,,,,,,2/8 Mostly Clear,72000.0,,FEW,25000.0,,,,,,
KRDR,07-15-2006,05:00,METAR,,240,4.0,,,9999.0,,20.0,14.0,29.90,1012.3,,,,,,,,,,,,,,,2/8 Mostly Clear,72000.0,,FEW,25000.0,,,,,,
KRDR,07-15-2006,04:00,METAR,,220,7.0,,,9999.0,,19.0,15.0,29.89,1011.9,,,,,,,,,,,,,,,2/8 Mostly Clear,72000.0,,FEW,25000.0,,,,,,
KRDR,07-15-2006,03:00,METAR,,300,4.0,,,9999.0,,22.0,15.0,29.87,1011.1,,,,,,,,,,,,,,,2/8 Mostly Clear,72000.0,,FEW,25000.0,,,,,,
KRDR,07-15-2006,02:00,METAR,,260,4.0,,,9999.0,,31.0,13.0,29.86,1010.7,,,,,,,,,,,,,,,2/8 Mostly Clear,72000.0,,FEW,25000.0,,,,,,
KRDR,07-15-2006,01:00,METAR,,270,8.0,,,9999.0,,31.0,13.0,29.85,1010.5,,,,,,,,,,,,,,,2/8 Mostly Clear,72000.0,,FEW,25000.0,,,,,,
KRDR,07-15-2006,00:00,METAR,,270,10.0,,,9999.0,,33.0,12.0,29.84,1010.2,,,,,,,,,,,,,,,2/8 Mostly Clear,72000.0,,FEW,25000.0,,,,,,
KRDR,07-14-2006,23:00,METAR,,260,11.0,20.0,,9999.0,,34.0,9.0,29.83,1010.1,,,,,,,,,,,,,,,2/8 Mostly Clear,72000.0,,FEW,4500.0,,,,,,
KRDR,07-14-2006,22:00,METAR,,270,13.0,,,9999.0,,35.0,10.0,29.84,1010.4,,,,,,,,,,,,,,,2/8 Mostly Clear,72000.0,,FEW,4500.0,,,,,,
KRDR,07-14-2006,21:00,METAR,,280,13.0,,,9999.0,,34.0,11.0,29.85,1010.5,,,,,,,,,,,,,,,2/8 Mostly Clear,72000.0,,FEW,4500.0,,,,,,
KRDR,07-14-2006,20:00,METAR,,260,13.0,20.0,,9999.0,,34.0,12.0,29.85,1010.7,,,,,,,,,,,,,,,2/8 Mostly Clear,72000.0,,FEW,4500.0,,,,,,
KRDR,07-14-2006,19:00,METAR,,200,8.0,,,9999.0,,33.0,13.0,29.87,1011.3,,,,,,,,,,,,,,,2/8 Mostly Clear,72000.0,,FEW,4500.0,,,,,,
KRDR,07-14-2006,18:02,SPECI,,270,8.0,15.0,,9999.0,,32.0,16.0,29.87,,,,,,,,,,,,,,,,2/8 Mostly Clear,72000.0,,FEW,4500.0,,,,,,
KRDR,07-14-2006,18:00,METAR,,200,8.0,,,9999.0,,31.0,17.0,29.87,1011.5,,,,,,,,,,,,,,,2/8 Mostly Clear,72000.0,,FEW,4500.0,,,,,,
KRDR,07-14-2006,17:00,METAR,,200,7.0,,,9999.0,,29.0,17.0,29.89,1012.0,,,,,,,,,,,,,,,Clear,72000.0,,,73000.0,,,,,,
KRDR,07-14-2006,16:00,METAR,,200,6.0,,,9999.0,,28.0,17.0,29.88,1011.9,,,,,,,,,,,,,,,Clear,72000.0,,,73000.0,,,,,,
KRDR,07-14-2006,15:00,METAR,,240,5.0,,,9999.0,,27.0,17.0,29.88,1011.8,,,,,,,,,,,,,,,Clear,72000.0,,,73000.0,,,,,,
KRDR,07-14-2006,14:00,METAR,,230,5.0,,,9999.0,,24.0,17.0,29.87,1011.3,,,,,,,,,,,,,,,Clear,72000.0,,,73000.0,,,,,,
KRDR,07-14-2006,13:00,METAR,,220,4.0,,,9999.0,,21.0,17.0,29.85,1010.8,,,,,,,,,,,,,,,Clear,72000.0,,,73000.0,,,,,,
KRDR,07-14-2006,12:00,METAR,,210,3.0,,,9999.0,,17.0,15.0,29.85,1010.7,,,,,,,,,,,,,,,Clear,72000.0,,,73000.0,,,,,,
KRDR,07-14-2006,11:00,METAR,,200,5.0,,,9999.0,,15.0,14.0,29.83,1009.9,,,,,,,,,,,,,,,Clear,72000.0,,,73000.0,,,,,,
KRDR,07-14-2006,10:00,METAR,,220,4.0,,,9999.0,,15.0,14.0,29.82,1009.4,,,,,,,,,,,,,,,Clear,72000.0,,,73000.0,,,,,,
KRDR,07-14-2006,09:00,METAR,,,1.0,,,9999.0,,18.0,15.0,29.81,1009.1,,,,,,,,,,,,,,,Clear,72000.0,,,73000.0,,,,,,
KRDR,07-14-2006,08:00,METAR,,270,4.0,,,9999.0,,19.0,16.0,29.79,1008.5,,,,,,,,,,,,,,,Clear,72000.0,,,73000.0,,,,,,
KRDR,07-14-2006,07:00,METAR,,260,6.0,,,9999.0,,18.0,15.0,29.78,1008.0,,,,,,,,,,,,,,,2/8 Mostly Clear,72000.0,,FEW,25000.0,,,,,,
KRDR,07-14-2006,06:00,METAR,,230,5.0,,,9999.0,,19.0,16.0,29.77,1007.9,,,,,,,,,,,,,,,2/8 Mostly Clear,72000.0,,FEW,25000.0,,,,,,
KRDR,07-14-2006,05:00,METAR,,200,5.0,,,9999.0,,20.0,16.0,29.76,1007.6,,,,,,,,,,,,,,,4/8 Partly Cloudy,72000.0,,FEW,12000.0,SCT,25000.0,,,,
KRDR,07-14-2006,04:00,METAR,,220,7.0,,,9999.0,,20.0,16.0,29.77,1007.7,,,,,,,,,,,,,,,4/8 Partly Cloudy,72000.0,,FEW,12000.0,SCT,25000.0,,,,
KRDR,07-14-2006,03:00,METAR,,210,5.0,,,9999.0,,23.0,17.0,29.76,1007.5,,,,,,,,,,,,,,,4/8 Partly Cloudy,72000.0,,FEW,12000.0,SCT,25000.0,,,,
KRDR,07-14-2006,02:00,METAR,,250,6.0,,,9999.0,,25.0,17.0,29.73,1006.7,,,,,,,,,,,,,,,4/8 Partly Cloudy,72000.0,,FEW,5900.0,SCT,25000.0,,,,
KRDR,07-14-2006,01:00,METAR,,260,8.0,,,9999.0,,29.0,17.0,29.73,1006.6,,,,,,,,,,,,,,,4/8 Partly Cloudy,72000.0,,FEW,5900.0,SCT,25000.0,,,,
KRDR,07-14-2006,00:00,METAR,,260,10.0,21.0,,9999.0,,30.0,17.0,29.72,1006.1,,,,,,,,,,,,,,,7/8 Mostly Cloudy,25000.0,,FEW,5900.0,BKN,25000.0,,,,
KRDR,07-13-2006,23:00,METAR,,270,12.0,19.0,,9999.0,,31.0,18.0,29.70,1005.2,,,,,,,,,,,,,,,7/8 Mostly Cloudy,25000.0,,FEW,5900.0,BKN,25000.0,,,,
KRDR,07-13-2006,22:00,METAR,,260,16.0,21.0,,9999.0,,32.0,17.0,29.68,1004.6,,,,,,,,,,,,,,,7/8 Mostly Cloudy,25000.0,,SCT,5900.0,BKN,25000.0,,,,
KRDR,07-13-2006,21:00,METAR,,220,14.0,,,9999.0,,32.0,19.0,29.68,1004.5,,,,,,,,,,,,,,,7/8 Mostly Cloudy,12000.0,,SCT,5000.0,BKN,12000.0,BKN,25000.0,,
KRDR,07-13-2006,20:00,METAR,,180,18.0,23.0,,9999.0,,31.0,22.0,29.67,1004.3,,,,,,,,,,,,,,,7/8 Mostly Cloudy,12000.0,,SCT,4500.0,BKN,12000.0,BKN,25000.0,,
KRDR,07-13-2006,19:00,METAR,,180,20.0,25.0,160/28KTS,9999.0,,30.0,22.0,29.68,1004.5,,,,,,,,,,,,,,,7/8 Mostly Cloudy,12000.0,,FEW,4000.0,BKN,12000.0,BKN,25000.0,,
KRDR,07-13-2006,18:00,METAR,,170,20.0,26.0,170/28KTS,9999.0,,30.0,22.0,29.67,1004.2,,,,,,,,,,,,,.11 IN,,7/8 Mostly Cloudy,12000.0,,SCT,3800.0,BKN,12000.0,BKN,25000.0,,
KRDR,07-13-2006,17:00,METAR,,170,20.0,26.0,170/27KTS,9999.0,,28.0,23.0,29.68,1004.8,,,,,,,,,,,,,,,7/8 Mostly Cloudy,12000.0,,SCT,2600.0,BKN,12000.0,BKN,25000.0,,
KRDR,07-13-2006,16:00,METAR,,160,11.0,18.0,,9999.0,,25.0,24.0,29.70,1005.3,,,,,,,,,,,,,,,7/8 Mostly Cloudy,25000.0,,FEW,3000.0,SCT,12000.0,BKN,25000.0,,
KRDR,07-13-2006,15:30,METAR,,160,16.0,,,9999.0,,23.0,23.0,29.71,,,,,,,,,,,,,,,,7/8 Mostly Cloudy,25000.0,,SCT,2300.0,SCT,9900.0,BKN,25000.0,,
KRDR,07-13-2006,15:09,SPECI,,140,12.0,,,9999.0,Thunderstorm,22.0,22.0,29.72,,,,,17,,,,,,,,,,,7/8 Mostly Cloudy,25000.0,,SCT,2300.0,SCT,9900.0,BKN,25000.0,,
KRDR,07-13-2006,15:00,METAR,,110,11.0,,,6400.0,Thunderstorm with Rain or Snow/Light Rain Showers/Mist,22.0,22.0,29.74,1006.7,,,,95,80,10,,,,,,.1 IN,,,8/8 Overcast,3100.0,,FEW,900.0,SCT,1600.0,BKN,3100.0,OVC,12000.0
KRDR,07-13-2006,14:49,SPECI,,120,11.0,,,8000.0,Thunderstorm with Rain or Snow/Light Rain Showers,22.0,22.0,29.75,,,,,95,80,,,,,,,,,,8/8 Overcast,3300.0,,FEW,900.0,SCT,1600.0,OVC,3400.0,,
KRDR,07-13-2006,14:26,SPECI,,,5.0,,,9999.0,Thunderstorm with Rain or Snow/Light Rain Showers,22.0,21.0,29.78,,,,,95,80,,,,,,,,,,8/8 Overcast,3900.0,,SCT,1600.0,OVC,4000.0,,,,
KRDR,07-13-2006,14:17,SPECI,,,3.0,,,9999.0,Thunderstorm,22.0,21.0,29.78,,,,,17,,,,,,,,,,,8/8 Overcast,3900.0,,SCT,1500.0,OVC,4000.0,,,,
KRDR,07-13-2006,14:00,METAR,,80,9.0,,,9999.0,,22.0,21.0,29.77,1007.9,,,,,,,,,,,,,,,8/8 Overcast,3100.0,,SCT,1400.0,OVC,3200.0,,,,
KRDR,07-13-2006,13:32,SPECI,,350,7.0,,,9999.0,,22.0,21.0,29.79,,,,,,,,,,,,,,,,8/8 Overcast,3100.0,,SCT,1500.0,BKN,3200.0,OVC,12000.0,,
KRDR,07-13-2006,13:09,SPECI,,320,9.0,,,9999.0,Thunderstorm,22.0,21.0,29.82,,,,,17,,,,,,,,,,,8/8 Overcast,3100.0,,SCT,1500.0,BKN,3200.0,OVC,12000.0,,
KRDR,07-13-2006,13:00,METAR,,,4.0,,,9999.0,Rain/Thunderstorm,22.0,21.0,29.79,1008.4,,,,61,17,,,,,,,,,,8/8 Overcast,12000.0,,SCT,4800.0,BKN,12000.0,OVC,25000.0,,
KRDR,07-13-2006,12:00,METAR,,170,17.0,,,9999.0,,22.0,21.0,29.77,1007.5,,,,,,,,,,,,,,,7/8 Mostly Cloudy,25000.0,,SCT,15000.0,BKN,25000.0,,,,
KRDR,07-13-2006,11:00,METAR,,150,12.0,,,9999.0,,21.0,19.0,29.76,1007.2,,,,,,,,,,,,,,,7/8 Mostly Cloudy,25000.0,,SCT,15000.0,BKN,25000.0,,,,
KRDR,07-13-2006,10:00,METAR,,140,11.0,,,9999.0,,22.0,19.0,29.77,1007.6,,,,,,,,,,,,,,,8/8 Overcast,25000.0,,OVC,25000.0,,,,,,
KRDR,07-13-2006,09:00,METAR,,160,9.0,,,9999.0,,23.0,19.0,29.81,1008.8,,,,,,,,,,,,,,,8/8 Overcast,25000.0,,OVC,25000.0,,,,,,
KRDR,07-13-2006,08:00,METAR,,170,8.0,,,9999.0,,23.0,19.0,29.82,1009.3,,,,,,,,,,,,,,,8/8 Overcast,25000.0,,OVC,25000.0,,,,,,
KRDR,07-13-2006,07:00,METAR,,160,11.0,,,9999.0,,24.0,19.0,29.83,1009.7,,,,,,,,,,,,,,,8/8 Overcast,25000.0,,OVC,25000.0,,,,,,
KRDR,07-13-2006,06:00,METAR,,170,8.0,,,9999.0,,24.0,19.0,29.86,1010.7,,,,,,,,,,,,,,,8/8 Overcast,25000.0,,OVC,25000.0,,,,,,
KRDR,07-13-2006,05:00,METAR,,150,8.0,,,9999.0,,25.0,19.0,29.86,1010.7,,,,,,,,,,,,,,,8/8 Overcast,18000.0,,OVC,18000.0,,,,,,
KRDR,07-13-2006,04:00,METAR,,160,8.0,,,9999.0,,26.0,18.0,29.86,1010.6,,,,,,,,,,,,,,,8/8 Overcast,15000.0,,OVC,15000.0,,,,,,
KRDR,07-13-2006,03:00,METAR,,170,10.0,,,9999.0,,27.0,17.0,29.85,1010.3,,,,,,,,,,,,,,,8/8 Overcast,25000.0,,OVC,25000.0,,,,,,
KRDR,07-13-2006,02:00,METAR,,150,13.0,,,9999.0,,29.0,18.0,29.81,1008.9,,,,,,,,,,,,,,,8/8 Overcast,25000.0,,OVC,25000.0,,,,,,
KRDR,07-13-2006,01:00,METAR,,150,11.0,,,9999.0,,30.0,20.0,29.83,1009.9,,,,,,,,,,,,,,,7/8 Mostly Cloudy,25000.0,,BKN,25000.0,,,,,,
KRDR,07-13-2006,00:00,METAR,,150,14.0,,,9999.0,,32.0,21.0,29.82,1009.3,,,,,,,,,,,,,,,7/8 Mostly Cloudy,25000.0,,BKN,25000.0,,,,,,
KRDR,07-12-2006,23:00,METAR,,170,16.0,23.0,,9999.0,,35.0,19.0,29.82,1009.3,,,,,,,,,,,,,,,7/8 Mostly Cloudy,25000.0,,BKN,25000.0,,,,,,
KRDR,07-12-2006,22:00,METAR,,150,17.0,22.0,,9999.0,,37.0,18.0,29.84,1009.9,,,,,,,,,,,,,,,7/8 Mostly Cloudy,25000.0,,BKN,25000.0,,,,,,
KRDR,07-12-2006,21:00,METAR,,170,17.0,24.0,,9999.0,,36.0,17.0,29.85,1010.5,,,,,,,,,,,,,,,7/8 Mostly Cloudy,25000.0,,BKN,25000.0,,,,,,
KRDR,07-12-2006,20:00,METAR,,180,13.0,21.0,,9999.0,,35.0,19.0,29.87,1011.0,,,,,,,,,,,,,,,7/8 Mostly Cloudy,25000.0,,BKN,25000.0,,,,,,
KRDR,07-12-2006,19:00,METAR,,170,16.0,21.0,,9999.0,,34.0,18.0,29.88,1011.5,,,,,,,,,,,,,,,7/8 Mostly Cloudy,25000.0,,BKN,25000.0,,,,,,
KRDR,07-12-2006,18:00,METAR,,160,16.0,,,9999.0,,33.0,18.0,29.90,1012.0,,,,,,,,,,,,,,,7/8 Mostly Cloudy,25000.0,,BKN,25000.0,,,,,,
KRDR,07-12-2006,17:00,METAR,,170,10.0,15.0,,9999.0,,31.0,19.0,29.91,1012.3,,,,,,,,,,,,,,,7/8 Mostly Cloudy,25000.0,,BKN,25000.0,,,,,,
KRDR,07-12-2006,16:00,METAR,,190,10.0,,,9999.0,,29.0,18.0,29.91,1012.4,,,,,,,,,,,,,,,7/8 Mostly Cloudy,25000.0,,BKN,25000.0,,,,,,
KRDR,07-12-2006,15:00,METAR,,190,10.0,,,9999.0,,28.0,18.0,29.91,1012.4,,,,,,,,,,,,,,,4/8 Partly Cloudy,72000.0,,SCT,25000.0,,,,,,
KRDR,07-12-2006,14:00,METAR,,200,7.0,,,9999.0,,26.0,18.0,29.91,1012.4,,,,,,,,,,,,,,,4/8 Partly Cloudy,72000.0,,SCT,25000.0,,,,,,
KRDR,07-12-2006,13:00,METAR,,190,7.0,,,9999.0,,23.0,18.0,29.91,1012.4,,,,,,,,,,,,,,,4/8 Partly Cloudy,72000.0,,SCT,25000.0,,,,,,
KRDR,07-12-2006,12:00,METAR,,170,1.0,,,9999.0,,21.0,17.0,29.90,1012.2,,,,,,,,,,,,,,,7/8 Mostly Cloudy,25000.0,,BKN,25000.0,,,,,,
KRDR,07-12-2006,11:00,METAR,,200,4.0,,,9999.0,,17.0,16.0,29.89,1012.1,,,,,,,,,,,,,,,4/8 Partly Cloudy,72000.0,,SCT,25000.0,,,,,,
KRDR,07-12-2006,10:00,METAR,,140,6.0,,,9999.0,,20.0,17.0,29.88,1011.6,,,,,,,,,,,,,,,2/8 Mostly Clear,72000.0,,FEW,25000.0,,,,,,
KRDR,07-12-2006,09:00,METAR,,170,5.0,,,9999.0,,20.0,16.0,29.88,1011.6,,,,,,,,,,,,,,,2/8 Mostly Clear,72000.0,,FEW,9900.0,FEW,25000.0,,,,
KRDR,07-12-2006,08:00,METAR,,190,4.0,,,9999.0,,20.0,17.0,29.88,1011.5,,,,,,,,,,,,,,,2/8 Mostly Clear,72000.0,,FEW,9900.0,FEW,25000.0,,,,
KRDR,07-12-2006,07:00,METAR,,180,4.0,,,9999.0,,20.0,17.0,29.88,1011.6,,,,,,,,,,,,,,,4/8 Partly Cloudy,72000.0,,FEW,9900.0,SCT,25000.0,,,,
KRDR,07-12-2006,06:00,METAR,,230,4.0,,,9999.0,,19.0,17.0,29.88,1011.8,,,,,,,,,,,,,,,7/8 Mostly Cloudy,25000.0,,SCT,9900.0,BKN,25000.0,,,,
KRDR,07-12-2006,05:00,METAR,,,0.0,,,9999.0,,24.0,18.0,29.87,1011.3,,,,,,,,,,,,,,,7/8 Mostly Cloudy,25000.0,,SCT,9900.0,BKN,25000.0,,,,
KRDR,07-12-2006,04:00,METAR,,110,2.0,,,9999.0,,24.0,17.0,29.86,1011.0,,,,,,,,,,,,,,,4/8 Partly Cloudy,72000.0,,SCT,25000.0,,,,,,
KRDR,07-12-2006,03:00,METAR,,210,2.0,,,9999.0,,24.0,17.0,29.83,1010.2,,,,,,,,,,,,,,,4/8 Partly Cloudy,72000.0,,SCT,25000.0,,,,,,
KRDR,07-12-2006,02:00,METAR,,180,8.0,,,9999.0,,28.0,19.0,29.82,1009.7,,,,,,,,,,,,,,,7/8 Mostly Cloudy,25000.0,,FEW,15000.0,BKN,25000.0,,,,
KRDR,07-12-2006,01:00,METAR,,150,10.0,,,9999.0,,29.0,18.0,29.81,1009.4,,,,,,,,,,,,,,,7/8 Mostly Cloudy,25000.0,,FEW,7900.0,SCT,15000.0,BKN,25000.0,,
KRDR,07-12-2006,00:00,METAR,,160,11.0,,,9999.0,,30.0,18.0,29.81,1009.3,,,,,,,,,,,,,,,7/8 Mostly Cloudy,25000.0,,FEW,7900.0,SCT,15000.0,BKN,25000.0,,
KRDR,07-11-2006,23:00,METAR,,170,12.0,17.0,,9999.0,,31.0,17.0,29.80,1008.8,,,,,,,,,,,,,,,7/8 Mostly Cloudy,25000.0,,FEW,7900.0,SCT,15000.0,BKN,25000.0,,
KRDR,07-11-2006,22:00,METAR,,160,14.0,19.0,,9999.0,,35.0,15.0,29.81,1009.0,,,,,,,,,,,,,,,4/8 Partly Cloudy,72000.0,,FEW,7900.0,SCT,25000.0,,,,
KRDR,07-11-2006,21:00,METAR,,170,14.0,19.0,,9999.0,,34.0,17.0,29.82,1009.3,,,,,,,,,,,,,,,4/8 Partly Cloudy,72000.0,,FEW,7900.0,SCT,25000.0,,,,
KRDR,07-11-2006,20:00,METAR,,180,16.0,,,9999.0,,33.0,17.0,29.83,1009.7,,,,,,,,,,,,,,,2/8 Mostly Clear,72000.0,,FEW,7900.0,FEW,25000.0,,,,
KRDR,07-11-2006,19:00,METAR,,160,14.0,,,9999.0,,32.0,17.0,29.83,1009.8,,,,,,,,,,,,,,,2/8 Mostly Clear,72000.0,,FEW,7900.0,FEW,25000.0,,,,
KRDR,07-11-2006,18:00,METAR,,180,9.0,19.0,,9999.0,,29.0,17.0,29.84,1010.3,,,,,,,,,,,,,,,2/8 Mostly Clear,72000.0,,FEW,25000.0,,,,,,
KRDR,07-11-2006,17:00,METAR,,160,12.0,,,9999.0,,28.0,17.0,29.84,1010.1,,,,,,,,,,,,,,,4/8 Partly Cloudy,72000.0,,FEW,12000.0,SCT,25000.0,,,,
KRDR,07-11-2006,16:00,METAR,,160,11.0,,,9999.0,,26.0,16.0,29.84,1010.2,,,,,,,,,,,,,,,4/8 Partly Cloudy,72000.0,,FEW,12000.0,SCT,25000.0,,,,
KRDR,07-11-2006,15:00,METAR,,170,9.0,,,9999.0,,24.0,16.0,29.83,1010.0,,,,,,,,,,,,,,,4/8 Partly Cloudy,72000.0,,SCT,25000.0,,,,,,
KRDR,07-11-2006,14:00,METAR,,170,14.0,,,9999.0,,21.0,16.0,29.83,1010.0,,,,,,,,,,,,,,,4/8 Partly Cloudy,72000.0,,SCT,25000.0,,,,,,
KRDR,07-11-2006,13:00,METAR,,160,14.0,,,9999.0,,19.0,16.0,29.82,1009.6,,,,,,,,,,,,,,,4/8 Partly Cloudy,72000.0,,SCT,25000.0,,,,,,
KRDR,07-11-2006,12:00,METAR,,140,7.0,,,9999.0,,17.0,15.0,29.83,1010.0,,,,,,,,,,,,,,,4/8 Partly Cloudy,72000.0,,SCT,25000.0,,,,,,
KRDR,07-11-2006,11:00,METAR,,140,8.0,,,9999.0,,15.0,14.0,29.82,1010.0,,,,,,,,,,,,,,,4/8 Partly Cloudy,72000.0,,SCT,25000.0,,,,,,
KRDR,07-11-2006,10:00,METAR,,140,8.0,,,9999.0,,15.0,13.0,29.82,1009.8,,,,,,,,,,,,,,,4/8 Partly Cloudy,72000.0,,SCT,25000.0,,,,,,
KRDR,07-11-2006,09:00,METAR,,130,6.0,,,9999.0,,16.0,13.0,29.83,1010.1,,,,,,,,,,,,,,,7/8 Mostly Cloudy,25000.0,,BKN,25000.0,,,,,,
KRDR,07-11-2006,08:00,METAR,,160,5.0,,,9999.0,,16.0,13.0,29.84,1010.5,,,,,,,,,,,,,,,4/8 Partly Cloudy,72000.0,,SCT,25000.0,,,,,,
KRDR,07-11-2006,07:00,METAR,,140,6.0,,,9999.0,,17.0,13.0,29.84,1010.5,,,,,,,,,,,,,,,4/8 Partly Cloudy,72000.0,,SCT,25000.0,,,,,,
KRDR,07-11-2006,06:00,METAR,,130,5.0,,,9999.0,,17.0,14.0,29.85,1010.8,,,,,,,,,,,,,,,4/8 Partly Cloudy,72000.0,,SCT,25000.0,,,,,,
KRDR,07-11-2006,05:00,METAR,,150,7.0,,,9999.0,,18.0,14.0,29.85,1010.9,,,,,,,,,,,,,,,7/8 Mostly Cloudy,25000.0,,BKN,25000.0,,,,,,
KRDR,07-11-2006,04:00,METAR,,140,9.0,,,9999.0,,19.0,15.0,29.84,1010.6,,,,,,,,,,,,,,,7/8 Mostly Cloudy,25000.0,,BKN,25000.0,,,,,,
KRDR,07-11-2006,03:00,METAR,,120,7.0,,,9999.0,,21.0,15.0,29.83,1010.4,,,,,,,,,,,,,,,4/8 Partly Cloudy,72000.0,,SCT,25000.0,,,,,,
KRDR,07-11-2006,02:00,METAR,,110,7.0,,,9999.0,,24.0,15.0,29.82,1009.8,,,,,,,,,,,,,,,4/8 Partly Cloudy,72000.0,,SCT,25000.0,,,,,,
KRDR,07-11-2006,01:00,METAR,,130,6.0,,,9999.0,,25.0,14.0,29.83,1010.2,,,,,,,,,,,,,,,4/8 Partly Cloudy,72000.0,,SCT,25000.0,,,,,,
KRDR,07-11-2006,00:00,METAR,,160,7.0,,,9999.0,,25.0,14.0,29.84,1010.6,,,,,,,,,,,,,,,7/8 Mostly Cloudy,25000.0,,FEW,3500.0,BKN,25000.0,,,,
KRDR,07-10-2006,23:00,METAR,,210,5.0,,,9999.0,,25.0,13.0,29.84,1010.8,,,,,,,,,,,,,,,7/8 Mostly Cloudy,25000.0,,FEW,3500.0,BKN,25000.0,,,,
KRDR,07-10-2006,22:00,METAR,,200,8.0,14.0,,9999.0,,25.0,13.0,29.86,1011.3,,,,,,,,,,,,,,,7/8 Mostly Cloudy,25000.0,,FEW,3500.0,BKN,25000.0,,,,
KRDR,07-10-2006,21:00,METAR,,130,6.0,,,9999.0,,25.0,14.0,29.86,1011.5,,,,,,,,,,,,,,,7/8 Mostly Cloudy,25000.0,,SCT,3500.0,BKN,25000.0,,,,
KRDR,07-10-2006,20:00,METAR,,160,7.0,,,9999.0,,24.0,13.0,29.88,1012.2,,,,,,,,,,,,,,,7/8 Mostly Cloudy,25000.0,,SCT,3500.0,BKN,25000.0,,,,
KRDR,07-10-2006,19:00,METAR,,180,5.0,,,9999.0,,24.0,14.0,29.90,1012.7,,,,,,,,,,,,,,,7/8 Mostly Cloudy,3300.0,,BKN,3400.0,BKN,7900.0,BKN,25000.0,,
KRDR,07-10-2006,18:00,METAR,,170,4.0,,,9999.0,,23.0,14.0,29.91,1013.1,,,,,,,,,,,,,,,7/8 Mostly Cloudy,3100.0,,BKN,3100.0,BKN,7900.0,BKN,25000.0,,
KRDR,07-10-2006,17:00,METAR,,130,4.0,,,9999.0,,21.0,14.0,29.92,1013.5,,,,,,,,,,,,,,,7/8 Mostly Cloudy,6000.0,,SCT,2800.0,BKN,5900.0,BKN,25000.0,,
KRDR,07-10-2006,16:00,METAR,,310,1.0,,,9999.0,,20.0,14.0,29.93,1013.8,,,,,,,,,,,,,,,7/8 Mostly Cloudy,25000.0,,SCT,3000.0,SCT,4600.0,BKN,25000.0,,
KRDR,07-10-2006,15:00,METAR,,,0.0,,,9999.0,,18.0,13.0,29.95,1014.5,,,,,,,,,,,,,,,7/8 Mostly Cloudy,25000.0,,FEW,3000.0,SCT,4600.0,BKN,25000.0,,
KRDR,07-10-2006,14:00,METAR,,310,1.0,,,9999.0,,16.0,12.0,29.95,1014.8,,,,,,,,,,,,,,,7/8 Mostly Cloudy,4500.0,,FEW,3000.0,BKN,4600.0,BKN,25000.0,,
KRDR,07-10-2006,13:00,METAR,,320,3.0,,,9999.0,,14.0,12.0,29.95,1014.6,,,,,,,,,,,,,,,7/8 Mostly Cloudy,4500.0,,BKN,4600.0,BKN,25000.0,,,,
KRDR,07-10-2006,12:00,METAR,,310,4.0,,,9999.0,,13.0,11.0,29.95,1014.6,,,,,,,,,,,,,,,7/8 Mostly Cloudy,4500.0,,BKN,4600.0,BKN,25000.0,,,,
KRDR,07-10-2006,11:00,METAR,,320,2.0,,,9999.0,,11.0,10.0,29.97,1015.4,,,,,,,,,,,,,,,7/8 Mostly Cloudy,4600.0,,BKN,4700.0,BKN,25000.0,,,,
KRDR,07-10-2006,10:00,METAR,,340,4.0,,,9999.0,,12.0,10.0,29.97,1015.1,,,,,,,,,,,,,,,7/8 Mostly Cloudy,4500.0,,BKN,4600.0,,,,,,
KRDR,07-10-2006,09:00,METAR,,330,3.0,,,9999.0,,12.0,11.0,29.98,1015.6,,,,,,,,,,,,,,,7/8 Mostly Cloudy,3900.0,,BKN,4000.0,,,,,,
KRDR,07-10-2006,08:00,METAR,,320,2.0,,,9999.0,,12.0,10.0,30.00,1016.3,,,,,,,,,,,,,,,7/8 Mostly Cloudy,3500.0,,BKN,3600.0,BKN,25000.0,,,,
KRDR,07-10-2006,07:00,METAR,,320,3.0,,,9999.0,,13.0,11.0,30.02,1016.7,,,,,,,,,,,,,,,7/8 Mostly Cloudy,3500.0,,BKN,3600.0,BKN,25000.0,,,,
KRDR,07-10-2006,06:00,METAR,,310,4.0,,,9999.0,,13.0,11.0,30.02,1017.0,,,,,,,,,,,,,,,8/8 Overcast,4800.0,,FEW,3400.0,BKN,4900.0,OVC,25000.0,,
KRDR,07-10-2006,05:00,METAR,,290,3.0,,,9999.0,,12.0,11.0,30.04,1017.6,,,,,,,,,,,,,,,8/8 Overcast,25000.0,,SCT,3300.0,SCT,5000.0,OVC,25000.0,,
KRDR,07-10-2006,04:00,METAR,,340,4.0,,,9999.0,,14.0,12.0,30.04,1017.9,,,,,,,,,,,,,,,7/8 Mostly Cloudy,25000.0,,SCT,3400.0,BKN,25000.0,,,,
KRDR,07-10-2006,03:00,METAR,,320,5.0,,,9999.0,,16.0,12.0,30.04,1017.8,,,,,,,,,,,,,,,7/8 Mostly Cloudy,3000.0,,BKN,3000.0,BKN,25000.0,,,,
KRDR,07-10-2006,02:00,METAR,,340,4.0,,,9999.0,,16.0,12.0,30.03,1017.3,,,,,,,,,,,,,,,7/8 Mostly Cloudy,25000.0,,SCT,3200.0,BKN,25000.0,,,,
KRDR,07-10-2006,01:00,METAR,,340,7.0,,,9999.0,,18.0,12.0,30.04,1017.8,,,,,,,,,,,,,,,7/8 Mostly Cloudy,25000.0,,SCT,2800.0,BKN,25000.0,,,,
KRDR,07-10-2006,00:00,METAR,,340,7.0,,,9999.0,,19.0,12.0,30.04,1017.8,,,,,,,,,,,,,,,7/8 Mostly Cloudy,25000.0,,SCT,2800.0,BKN,25000.0,,,,
KRDR,07-09-2006,23:00,METAR,,360,11.0,,,9999.0,,19.0,11.0,30.05,1017.9,,,,,,,,,,,,,,,7/8 Mostly Cloudy,25000.0,,FEW,2600.0,SCT,3500.0,SCT,7900.0,BKN,25000.0
KRDR,07-09-2006,22:00,METAR,,340,5.0,14.0,,9999.0,,18.0,10.0,30.06,1018.4,,,,,,,,,,,,,,,7/8 Mostly Cloudy,8000.0,,FEW,2600.0,SCT,3500.0,BKN,7900.0,,
KRDR,07-09-2006,21:00,METAR,,10,9.0,,,9999.0,,17.0,10.0,30.08,1019.2,,,,,,,,,,,,,,,7/8 Mostly Cloudy,3300.0,,SCT,2800.0,BKN,3400.0,BKN,7900.0,,
KRDR,07-09-2006,20:00,METAR,,330,11.0,,,9999.0,,15.0,9.0,30.10,1019.7,,,,,,,,,,,,,,,7/8 Mostly Cloudy,3400.0,,SCT,2000.0,BKN,3500.0,,,,
KRDR,07-09-2006,19:00,METAR,,320,11.0,,,9999.0,,15.0,9.0,30.10,1019.7,,,,,,,,,,,,,,,7/8 Mostly Cloudy,2000.0,,BKN,2000.0,,,,,,
KRDR,07-09-2006,18:00,METAR,,330,13.0,,,9999.0,,14.0,9.0,30.10,1019.9,,,,,,,,,,,,,,,7/8 Mostly Cloudy,1900.0,,BKN,1900.0,,,,,,
KRDR,07-09-2006,17:00,METAR,,340,15.0,,,9999.0,,15.0,9.0,30.10,1019.8,,,,,,,,,,,,,,,7/8 Mostly Cloudy,2200.0,,BKN,2200.0,,,,,,
KRDR,07-09-2006,16:00,METAR,,350,12.0,,,9999.0,,14.0,8.0,30.09,1019.5,,,,,,,,,,,,,,,7/8 Mostly Cloudy,1800.0,,BKN,1800.0,,,,,,
KRDR,07-09-2006,15:00,METAR,,360,14.0,,,9999.0,,14.0,8.0,30.08,1019.0,,,,,,,,,,,,,,,7/8 Mostly Cloudy,1800.0,,BKN,1800.0,,,,,,
KRDR,07-09-2006,14:35,SPECI,,340,14.0,,,9999.0,,13.0,8.0,30.08,,,,,,,,,,,,,,,,7/8 Mostly Cloudy,1900.0,,BKN,1900.0,,,,,,
KRDR,07-09-2006,14:00,METAR,,330,16.0,,,9999.0,,13.0,7.0,30.07,1018.4,,,,,,,,,,,,,,,4/8 Partly Cloudy,72000.0,,SCT,2200.0,,,,,,
KRDR,07-09-2006,13:00,METAR,,340,16.0,21.0,,9999.0,,12.0,7.0,30.05,1017.9,,,,,,,,,,,,,,,4/8 Partly Cloudy,72000.0,,SCT,2200.0,,,,,,
KRDR,07-09-2006,12:00,METAR,,340,19.0,25.0,,9999.0,,12.0,8.0,30.04,1017.5,,,,,,,,,,,,,,,4/8 Partly Cloudy,72000.0,,SCT,2200.0,,,,,,
KRDR,07-09-2006,11:00,METAR,,350,15.0,,,9999.0,,14.0,11.0,30.02,1016.2,,,,,,,,,,,,,,,7/8 Mostly Cloudy,1700.0,,BKN,1700.0,,,,,,
KRDR,07-09-2006,10:40,SPECI,,340,11.0,,,9999.0,,13.0,11.0,30.02,,,,,,,,,,,,,,,,7/8 Mostly Cloudy,1700.0,,BKN,1700.0,,,,,,
KRDR,07-09-2006,10:00,METAR,,330,11.0,,,9999.0,,14.0,11.0,29.99,1015.6,,,,,,,,,,,,,,,2/8 Mostly Clear,72000.0,,FEW,2000.0,,,,,,
KRDR,07-09-2006,09:00,METAR,,320,8.0,,,9999.0,,14.0,11.0,29.99,1015.6,,,,,,,,,,,,,,,Clear,72000.0,,,73000.0,,,,,,
KRDR,07-09-2006,08:00,METAR,,300,8.0,,,9999.0,,15.0,13.0,29.99,1015.6,,,,,,,,,,,,,,,Clear,72000.0,,,73000.0,,,,,,
KRDR,07-09-2006,07:00,METAR,,290,4.0,,,9999.0,,15.0,13.0,29.98,1015.3,,,,,,,,,,,,,,,2/8 Mostly Clear,72000.0,,FEW,7400.0,,,,,,
KRDR,07-09-2006,06:00,METAR,,320,6.0,,,9999.0,,17.0,15.0,29.97,1014.9,,,,,,,,,,,,,,,4/8 Partly Cloudy,72000.0,,SCT,7400.0,,,,,,
KRDR,07-09-2006,05:00,METAR,,330,7.0,,,9999.0,,17.0,15.0,29.96,1014.6,,,,,,,,,,,,,,,7/8 Mostly Cloudy,8000.0,,BKN,7900.0,,,,,,
KRDR,07-09-2006,04:00,METAR,,350,7.0,,360/26KTS,9999.0,,19.0,15.0,29.93,1013.5,,,,,,,,,,,,,,,7/8 Mostly Cloudy,9000.0,,BKN,8900.0,,,,,,
KRDR,07-09-2006,03:35,SPECI,,360,10.0,,,9999.0,,20.0,15.0,29.93,,,,,,,,,,,,,,,,7/8 Mostly Cloudy,4900.0,,BKN,5000.0,,,,,,
KRDR,07-09-2006,03:00,METAR,,360,17.0,31.0,360/31KTS,9999.0,,23.0,15.0,29.91,1012.7,,,,,,,,,,,,,,,7/8 Mostly Cloudy,4900.0,,BKN,5000.0,,,,,,
KRDR,07-09-2006,02:00,METAR,,160,5.0,,,9999.0,,26.0,17.0,29.83,1009.9,,,,,,,,,,,,,,,7/8 Mostly Cloudy,4900.0,,BKN,5000.0,,,,,,
KRDR,07-09-2006,01:00,METAR,,240,3.0,,,9999.0,,27.0,15.0,29.87,1011.3,,,,,,,,,,,,,,,2/8 Mostly Clear,72000.0,,FEW,5000.0,,,,,,
KRDR,07-09-2006,00:00,METAR,,260,9.0,,,9999.0,,29.0,14.0,29.91,1012.7,,,,,,,,,,,,,,,2/8 Mostly Clear,72000.0,,FEW,5000.0,,,,,,
KRDR,07-08-2006,23:00,METAR,,280,11.0,,,9999.0,,30.0,13.0,29.92,1013.0,,,,,,,,,,,,,,,2/8 Mostly Clear,72000.0,,FEW,5000.0,,,,,,
KRDR,07-08-2006,22:00,METAR,,300,9.0,15.0,,9999.0,,30.0,12.0,29.92,1013.2,,,,,,,,,,,,,,,2/8 Mostly Clear,72000.0,,FEW,5000.0,,,,,,
KRDR,07-08-2006,21:00,METAR,,280,11.0,14.0,,9999.0,,30.0,11.0,29.93,1013.6,,,,,,,,,,,,,,,Clear,72000.0,,,73000.0,,,,,,
KRDR,07-08-2006,20:00,METAR,,300,14.0,18.0,,9999.0,,30.0,11.0,29.94,1013.9,,,,,,,,,,,,,,,Clear,72000.0,,,73000.0,,,,,,
KRDR,07-08-2006,19:00,METAR,,290,15.0,,,9999.0,,29.0,12.0,29.94,1013.9,,,,,,,,,,,,,,,Clear,72000.0,,,73000.0,,,,,,
KRDR,07-08-2006,18:00,METAR,,320,14.0,20.0,,9999.0,,28.0,14.0,29.94,1013.9,,,,,,,,,,,,,,,Clear,72000.0,,,73000.0,,,,,,
KRDR,07-08-2006,17:00,METAR,,310,12.0,,,9999.0,,27.0,16.0,29.95,1014.1,,,,,,,,,,,,,,,Clear,72000.0,,,73000.0,,,,,,
KRDR,07-08-2006,16:00,METAR,,300,14.0,,,9999.0,,26.0,15.0,29.95,1014.1,,,,,,,,,,,,,,,Clear,72000.0,,,73000.0,,,,,,
KRDR,07-08-2006,14:00,METAR,,290,17.0,24.0,,9999.0,,23.0,15.0,29.93,1013.5,,,,,,,,,,,,,,,Clear,72000.0,,,73000.0,,,,,,
KRDR,07-08-2006,13:00,METAR,,290,11.0,,,9999.0,,22.0,15.0,29.92,1012.9,,,,,,,,,,,,,,,2/8 Mostly Clear,72000.0,,FEW,9900.0,,,,,,
KRDR,07-08-2006,12:00,METAR,,290,10.0,,,9999.0,,22.0,16.0,29.90,1012.2,,,,,,,,,,,,,TRACE,,2/8 Mostly Clear,72000.0,,FEW,12000.0,,,,,,
KRDR,07-08-2006,11:00,METAR,,270,9.0,,,9999.0,,21.0,18.0,29.88,1011.5,,,,,,,,,,,,,,,2/8 Mostly Clear,72000.0,,FEW,12000.0,,,,,,
KRDR,07-08-2006,10:00,METAR,,230,8.0,,,9999.0,,21.0,18.0,29.88,1011.5,,,,,,,,,,,,,,,2/8 Mostly Clear,72000.0,,FEW,12000.0,,,,,,
KRDR,07-08-2006,09:00,METAR,,200,5.0,,,9999.0,,20.0,18.0,29.87,1011.2,,,,,,,,,,,,,,,2/8 Mostly Clear,72000.0,,FEW,12000.0,,,,,,
KRDR,07-08-2006,08:00,METAR,,200,6.0,,,9999.0,,22.0,18.0,29.88,1011.5,,,,,,,,,,,,,,,2/8 Mostly Clear,72000.0,,FEW,5900.0,,,,,,
KRDR,07-08-2006,07:03,SPECI,,190,13.0,,,9999.0,,23.0,19.0,29.89,,,,,,,,,,,,,,,,8/8 Overcast,12000.0,,SCT,5900.0,BKN,12000.0,OVC,25000.0,,
KRDR,07-08-2006,07:00,METAR,,190,13.0,,,9999.0,Thunderstorm,23.0,19.0,29.89,,,,,17,,,,,,,,,,,8/8 Overcast,12000.0,,SCT,5900.0,BKN,12000.0,OVC,25000.0,,
KRDR,07-08-2006,06:30,METAR,,300,2.0,,,9999.0,Thunderstorm,24.0,19.0,29.86,,,,,17,,,,,,,,,,,8/8 Overcast,12000.0,,SCT,5900.0,BKN,12000.0,OVC,25000.0,,
KRDR,07-08-2006,06:10,SPECI,,300,9.0,,,9999.0,,24.0,19.0,29.88,,,,,,,,,,,,,,,,8/8 Overcast,12000.0,,SCT,5900.0,BKN,12000.0,OVC,25000.0,,
KRDR,07-08-2006,06:01,SPECI,,290,5.0,,,9999.0,Rain,25.0,19.0,29.86,,,,,61,,,,,,,,,,,8/8 Overcast,12000.0,,SCT,5900.0,BKN,12000.0,OVC,25000.0,,
KRDR,07-08-2006,06:00,METAR,,290,5.0,,,9999.0,,25.0,19.0,29.86,1010.8,,,,,,,,,,,,,TRACE,,8/8 Overcast,12000.0,,SCT,5900.0,BKN,12000.0,OVC,25000.0,,
KRDR,07-08-2006,05:00,METAR,,280,9.0,,,9999.0,,24.0,20.0,29.84,1010.2,,,,,,,,,,,,,,,7/8 Mostly Cloudy,12000.0,,SCT,5900.0,BKN,12000.0,BKN,25000.0,,
KRDR,07-08-2006,04:00,METAR,,250,4.0,,,9999.0,Rain,25.0,20.0,29.84,1010.2,,,,61,,,,,,,,,,,7/8 Mostly Cloudy,12000.0,,FEW,5900.0,BKN,12000.0,BKN,25000.0,,
KRDR,07-08-2006,03:39,SPECI,,230,6.0,,,9999.0,,25.0,20.0,29.84,,,,,,,,,,,,,,,,8/8 Overcast,12000.0,,FEW,5900.0,BKN,12000.0,OVC,25000.0,,
KRDR,07-08-2006,03:00,METAR,,190,6.0,,,9999.0,Rain,28.0,20.0,29.84,1010.2,,,,61,,,,,,,,,,,7/8 Mostly Cloudy,12000.0,,FEW,5900.0,BKN,12000.0,BKN,25000.0,,
KRDR,07-08-2006,02:00,METAR,,200,10.0,,,9999.0,,30.0,20.0,29.80,1009.0,,,,,,,,,,,,,,,7/8 Mostly Cloudy,25000.0,,SCT,12000.0,BKN,25000.0,,,,
KRDR,07-08-2006,01:00,METAR,,190,15.0,,180/26KTS,9999.0,,32.0,20.0,29.79,1008.8,,,,,,,,,,,,,,,4/8 Partly Cloudy,72000.0,,SCT,12000.0,SCT,25000.0,,,,
KRDR,07-08-2006,00:00,METAR,,180,14.0,,,9999.0,,32.0,20.0,29.80,1008.7,,,,,,,,,,,,,,,4/8 Partly Cloudy,72000.0,,FEW,5900.0,SCT,25000.0,,,,
KRDR,07-07-2006,23:00,METAR,,180,18.0,22.0,,9999.0,,33.0,19.0,29.81,1009.2,,,,,,,,,,,,,,,2/8 Mostly Clear,72000.0,,FEW,25000.0,,,,,,
KRDR,07-07-2006,22:00,METAR,,180,17.0,,,9999.0,,33.0,18.0,29.82,1009.6,,,,,,,,,,,,,,,2/8 Mostly Clear,72000.0,,FEW,12000.0,,,,,,
KRDR,07-07-2006,21:00,METAR,,200,15.0,,170/26KTS,9999.0,,33.0,18.0,29.84,1010.3,,,,,,,,,,,,,,,2/8 Mostly Clear,72000.0,,FEW,12000.0,,,,,,
KRDR,07-07-2006,20:00,METAR,,170,19.0,24.0,,9999.0,,32.0,18.0,29.84,1010.3,,,,,,,,,,,,,,,4/8 Partly Cloudy,72000.0,,SCT,12000.0,SCT,25000.0,,,,
KRDR,07-07-2006,19:00,METAR,,180,18.0,,,9999.0,,31.0,17.0,29.86,1010.9,,,,,,,,,,,,,,,4/8 Partly Cloudy,72000.0,,FEW,5900.0,SCT,25000.0,,,,
KRDR,07-07-2006,18:00,METAR,,180,18.0,23.0,,9999.0,,30.0,16.0,29.87,1011.2,,,,,,,,,,,,,,,4/8 Partly Cloudy,72000.0,,FEW,5900.0,SCT,25000.0,,,,
KRDR,07-07-2006,17:00,METAR,,170,16.0,22.0,,9999.0,,29.0,16.0,29.88,1011.8,,,,,,,,,,,,,,,2/8 Mostly Clear,72000.0,,FEW,25000.0,,,,,,
KRDR,07-07-2006,16:00,METAR,,180,15.0,,,9999.0,,27.0,14.0,29.90,1012.3,,,,,,,,,,,,,,,2/8 Mostly Clear,72000.0,,FEW,25000.0,,,,,,
KRDR,07-07-2006,15:00,METAR,,170,13.0,,,9999.0,,25.0,15.0,29.90,1012.7,,,,,,,,,,,,,,,2/8 Mostly Clear,72000.0,,FEW,25000.0,,,,,,
KRDR,07-07-2006,14:00,METAR,,170,15.0,,,9999.0,,23.0,14.0,29.91,1012.7,,,,,,,,,,,,,,,2/8 Mostly Clear,72000.0,,FEW,25000.0,,,,,,
KRDR,07-07-2006,13:00,METAR,,170,12.0,,,9999.0,,21.0,14.0,29.93,1013.4,,,,,,,,,,,,,,,4/8 Partly Cloudy,72000.0,,FEW,8400.0,SCT,25000.0,,,,
KRDR,07-07-2006,12:00,METAR,,150,12.0,,,9999.0,,19.0,14.0,29.95,1014.2,,,,,,,,,,,,,,,7/8 Mostly Cloudy,8500.0,,BKN,8400.0,BKN,25000.0,,,,
KRDR,07-07-2006,11:00,METAR,,160,8.0,,,9999.0,,18.0,14.0,29.96,1014.3,,,,,,,,,,,,,,,2/8 Mostly Clear,72000.0,,FEW,25000.0,,,,,,
KRDR,07-07-2006,10:00,METAR,,160,10.0,,,9999.0,,19.0,14.0,29.97,1014.5,,,,,,,,,,,,,,,2/8 Mostly Clear,72000.0,,FEW,25000.0,,,,,,
KRDR,07-07-2006,09:00,METAR,,150,9.0,,,9999.0,,20.0,14.0,29.99,1014.8,,,,,,,,,,,,,,,2/8 Mostly Clear,72000.0,,FEW,25000.0,,,,,,
KRDR,07-07-2006,08:00,METAR,,160,10.0,,,9999.0,,21.0,14.0,29.99,1015.3,,,,,,,,,,,,,,,2/8 Mostly Clear,72000.0,,FEW,25000.0,,,,,,
KRDR,07-07-2006,07:00,METAR,,170,14.0,,,9999.0,,22.0,14.0,30.00,1015.5,,,,,,,,,,,,,,,2/8 Mostly Clear,72000.0,,FEW,25000.0,,,,,,
KRDR,07-07-2006,06:00,METAR,,170,12.0,,,9999.0,,23.0,14.0,30.01,1015.8,,,,,,,,,,,,,,,2/8 Mostly Clear,72000.0,,FEW,25000.0,,,,,,
KRDR,07-07-2006,05:00,METAR,,160,11.0,,,9999.0,,23.0,15.0,30.02,1016.2,,,,,,,,,,,,,,,2/8 Mostly Clear,72000.0,,FEW,25000.0,,,,,,
KRDR,07-07-2006,04:00,METAR,,150,8.0,,,9999.0,,23.0,15.0,30.03,,,,,,,,,,,,,,,,4/8 Partly Cloudy,72000.0,,SCT,25000.0,,,,,,
KRDR,07-07-2006,03:00,METAR,,150,8.0,,,9999.0,,24.0,15.0,30.03,,,,,,,,,,,,,,,,4/8 Partly Cloudy,72000.0,,SCT,25000.0,,,,,,
KRDR,07-07-2006,02:00,METAR,,140,10.0,,,9999.0,,26.0,15.0,30.04,,,,,,,,,,,,,,,,7/8 Mostly Cloudy,25000.0,,BKN,25000.0,,,,,,
KRDR,07-07-2006,01:00,METAR,,150,11.0,,,9999.0,,27.0,15.0,30.05,,,,,,,,,,,,,,,,7/8 Mostly Cloudy,25000.0,,BKN,25000.0,,,,,,
KRDR,07-07-2006,00:00,METAR,,150,12.0,,,9999.0,,28.0,13.0,30.06,,,,,,,,,,,,,,,,8/8 Overcast,25000.0,,OVC,25000.0,,,,,,
KRDR,07-06-2006,23:00,METAR,,170,11.0,,,9999.0,,28.0,13.0,30.07,1018.1,,,,,,,,,,,,,,,7/8 Mostly Cloudy,25000.0,,BKN,25000.0,,,,,,
KRDR,07-06-2006,22:00,METAR,,180,18.0,,,9999.0,,29.0,11.0,30.08,1018.4,,,,,,,,,,,,,,,7/8 Mostly Cloudy,25000.0,,BKN,25000.0,,,,,,
KRDR,07-06-2006,21:00,METAR,,170,13.0,22.0,,9999.0,,31.0,11.0,30.08,1018.6,,,,,,,,,,,,,,,4/8 Partly Cloudy,72000.0,,SCT,25000.0,,,,,,
KRDR,07-06-2006,20:00,METAR,,170,15.0,,,9999.0,,30.0,11.0,30.09,1018.8,,,,,,,,,,,,,,,7/8 Mostly Cloudy,25000.0,,BKN,25000.0,,,,,,
KRDR,07-06-2006,19:00,METAR,,180,16.0,22.0,,9999.0,,30.0,11.0,30.10,1019.1,,,,,,,,,,,,,,,4/8 Partly Cloudy,72000.0,,SCT,25000.0,,,,,,
KRDR,07-06-2006,18:00,METAR,,160,20.0,,,9999.0,,30.0,12.0,30.11,1019.4,,,,,,,,,,,,,,,4/8 Partly Cloudy,72000.0,,SCT,25000.0,,,,,,
KRDR,07-06-2006,17:00,METAR,,180,15.0,25.0,,9999.0,,29.0,12.0,30.12,1019.8,,,,,,,,,,,,,,,4/8 Partly Cloudy,72000.0,,SCT,25000.0,,,,,,
KRDR,07-06-2006,16:00,METAR,,190,11.0,,,9999.0,,28.0,14.0,30.13,1020.4,,,,,,,,,,,,,,,4/8 Partly Cloudy,72000.0,,SCT,25000.0,,,,,,
KRDR,07-06-2006,15:00,METAR,,200,9.0,,,9999.0,,26.0,14.0,30.15,1021.0,,,,,,,,,,,,,,,4/8 Partly Cloudy,72000.0,,SCT,25000.0,,,,,,
KRDR,07-06-2006,14:00,METAR,,190,9.0,,,9999.0,,23.0,14.0,30.15,1020.9,,,,,,,,,,,,,,,2/8 Mostly Clear,72000.0,,FEW,9400.0,FEW,25000.0,,,,
KRDR,07-06-2006,13:00,METAR,,180,8.0,,,9999.0,,19.0,13.0,30.16,1021.3,,,,,,,,,,,,,,,4/8 Partly Cloudy,72000.0,,FEW,9400.0,SCT,25000.0,,,,
KRDR,07-06-2006,12:00,METAR,,160,6.0,,,9999.0,,17.0,13.0,30.15,1021.2,,,,,,,,,,,,,,,7/8 Mostly Cloudy,9500.0,,BKN,9400.0,BKN,25000.0,,,,
KRDR,07-06-2006,11:00,METAR,,160,5.0,,,9999.0,,16.0,12.0,30.16,1021.0,,,,,,,,,,,,,,,7/8 Mostly Cloudy,9000.0,,BKN,8900.0,BKN,25000.0,,,,
KRDR,07-06-2006,10:00,METAR,,170,6.0,,,9999.0,,17.0,13.0,30.16,1021.0,,,,,,,,,,,,,,,4/8 Partly Cloudy,72000.0,,SCT,8900.0,SCT,25000.0,,,,
KRDR,07-06-2006,09:00,METAR,,180,5.0,,,9999.0,,17.0,13.0,30.15,1020.7,,,,,,,,,,,,,,,4/8 Partly Cloudy,72000.0,,FEW,8900.0,SCT,25000.0,,,,
KRDR,07-06-2006,08:00,METAR,,180,6.0,,,9999.0,,18.0,13.0,30.15,1020.6,,,,,,,,,,,,,,,2/8 Mostly Clear,72000.0,,FEW,25000.0,,,,,,
KRDR,07-06-2006,07:00,METAR,,170,5.0,,,9999.0,,18.0,13.0,30.14,1020.5,,,,,,,,,,,,,,,2/8 Mostly Clear,72000.0,,FEW,25000.0,,,,,,
KRDR,07-06-2006,05:00,METAR,,170,6.0,,,9999.0,,19.0,13.0,30.13,1020.5,,,,,,,,,,,,,,,2/8 Mostly Clear,72000.0,,FEW,25000.0,,,,,,
KRDR,07-06-2006,04:00,METAR,,170,7.0,,,9999.0,,21.0,14.0,30.13,1020.2,,,,,,,,,,,,,,,2/8 Mostly Clear,72000.0,,FEW,25000.0,,,,,,
KRDR,07-06-2006,03:00,METAR,,150,9.0,,,9999.0,,22.0,14.0,30.13,1020.1,,,,,,,,,,,,,,,7/8 Mostly Cloudy,25000.0,,BKN,25000.0,,,,,,
KRDR,07-06-2006,02:00,METAR,,140,6.0,,,9999.0,,25.0,14.0,30.12,1019.9,,,,,,,,,,,,,,,7/8 Mostly Cloudy,25000.0,,FEW,6900.0,BKN,25000.0,,,,
KRDR,07-06-2006,01:00,METAR,,140,6.0,,,9999.0,,27.0,14.0,30.13,1020.1,,,,,,,,,,,,,,,Clear,72000.0,,,73000.0,,,,,,
KRDR,07-06-2006,00:00,METAR,,170,6.0,,,9999.0,,28.0,13.0,30.13,1020.3,,,,,,,,,,,,,,,Clear,72000.0,,,73000.0,,,,,,
KRDR,07-05-2006,23:00,METAR,,,4.0,,,9999.0,,28.0,12.0,30.14,1020.8,,,,,,,,,,,,,,,2/8 Mostly Clear,72000.0,,FEW,6400.0,,,,,,
KRDR,07-05-2006,22:00,METAR,,,5.0,,,9999.0,,28.0,12.0,30.16,1021.4,,,,,,,,,,,,,,,4/8 Partly Cloudy,72000.0,,SCT,6400.0,,,,,,
KRDR,07-05-2006,21:00,METAR,,,2.0,,,9999.0,,28.0,12.0,30.17,,,,,,,,,,,,,,,,4/8 Partly Cloudy,72000.0,,SCT,6900.0,,,,,,
KRDR,07-05-2006,20:00,METAR,,,4.0,,,9999.0,,28.0,11.0,30.18,1022.3,,,,,,,,,,,,,,,4/8 Partly Cloudy,72000.0,,SCT,6900.0,,,,,,
KRDR,07-05-2006,19:00,METAR,,,2.0,,,9999.0,,27.0,11.0,30.20,1022.7,,,,,,,,,,,,,,,4/8 Partly Cloudy,72000.0,,SCT,6900.0,,,,,,
KRDR,07-05-2006,18:00,METAR,,,1.0,,,9999.0,,27.0,11.0,30.22,1023.5,,,,,,,,,,,,,,,2/8 Mostly Clear,72000.0,,FEW,6900.0,,,,,,
KRDR,07-05-2006,17:00,METAR,,,4.0,,,9999.0,,26.0,11.0,30.23,1023.9,,,,,,,,,,,,,,,2/8 Mostly Clear,72000.0,,FEW,6900.0,,,,,,
KRDR,07-05-2006,16:00,METAR,,,3.0,,,9999.0,,25.0,12.0,30.23,1023.8,,,,,,,,,,,,,,,Clear,72000.0,,,73000.0,,,,,,
KRDR,07-05-2006,15:00,METAR,,290,5.0,,,9999.0,,24.0,13.0,30.24,1024.3,,,,,,,,,,,,,,,Clear,72000.0,,,73000.0,,,,,,
KRDR,07-05-2006,14:00,METAR,,,3.0,,,9999.0,,22.0,13.0,30.24,1024.2,,,,,,,,,,,,,,,Clear,72000.0,,,73000.0,,,,,,
KRDR,07-05-2006,13:00,METAR,,230,3.0,,,9999.0,,18.0,13.0,30.24,1024.1,,,,,,,,,,,,,,,Clear,72000.0,,,73000.0,,,,,,
KRDR,07-05-2006,12:00,METAR,,210,2.0,,,9999.0,,14.0,11.0,30.24,1024.2,,,,,,,,,,,,,,,Clear,72000.0,,,73000.0,,,,,,
KRDR,07-05-2006,11:00,METAR,,210,4.0,,,9999.0,,13.0,9.0,30.22,1023.6,,,,,,,,,,,,,,,Clear,72000.0,,,73000.0,,,,,,
KRDR,07-05-2006,10:00,METAR,,210,5.0,,,9999.0,,12.0,9.0,30.21,1023.4,,,,,,,,,,,,,,,Clear,72000.0,,,73000.0,,,,,,
KRDR,07-05-2006,09:00,METAR,,200,4.0,,,9999.0,,12.0,9.0,30.21,1023.2,,,,,,,,,,,,,,,Clear,72000.0,,,73000.0,,,,,,
KRDR,07-05-2006,08:00,METAR,,220,5.0,,,9999.0,,11.0,9.0,30.20,1023.1,,,,,,,,,,,,,,,Clear,72000.0,,,73000.0,,,,,,
KRDR,07-05-2006,07:00,METAR,,220,3.0,,,9999.0,,13.0,10.0,30.20,1023.0,,,,,,,,,,,,,,,Clear,72000.0,,,73000.0,,,,,,
KRDR,07-05-2006,06:00,METAR,,220,3.0,,,9999.0,,12.0,10.0,30.20,1022.9,,,,,,,,,,,,,,,Clear,72000.0,,,73000.0,,,,,,
KRDR,07-05-2006,05:00,METAR,,200,3.0,,,9999.0,,13.0,11.0,30.20,1023.1,,,,,,,,,,,,,,,2/8 Mostly Clear,72000.0,,FEW,25000.0,,,,,,
KRDR,07-05-2006,04:00,METAR,,170,2.0,,,9999.0,,15.0,11.0,30.20,1023.0,,,,,,,,,,,,,,,4/8 Partly Cloudy,72000.0,,SCT,25000.0,,,,,,
KRDR,07-05-2006,03:00,METAR,,230,1.0,,,9999.0,,16.0,12.0,30.18,1022.4,,,,,,,,,,,,,,,4/8 Partly Cloudy,72000.0,,SCT,25000.0,,,,,,
KRDR,07-05-2006,02:00,METAR,,,0.0,,,9999.0,,21.0,12.0,30.18,1022.1,,,,,,,,,,,,,,,4/8 Partly Cloudy,72000.0,,FEW,5900.0,SCT,25000.0,,,,
KRDR,07-05-2006,01:00,METAR,,310,1.0,,,9999.0,,23.0,9.0,30.17,1021.9,,,,,,,,,,,,,,,4/8 Partly Cloudy,72000.0,,FEW,5900.0,SCT,25000.0,,,,
KRDR,07-05-2006,00:00,METAR,,320,5.0,,,9999.0,,24.0,9.0,30.18,1022.3,,,,,,,,,,,,,,,4/8 Partly Cloudy,72000.0,,FEW,5900.0,SCT,25000.0,,,,
KRDR,07-04-2006,23:00,METAR,,,6.0,,,9999.0,,24.0,9.0,30.20,1022.8,,,,,,,,,,,,,,,4/8 Partly Cloudy,72000.0,,FEW,5900.0,SCT,25000.0,,,,
KRDR,07-04-2006,22:00,METAR,,,6.0,,,9999.0,,24.0,8.0,30.21,1023.3,,,,,,,,,,,,,,,4/8 Partly Cloudy,72000.0,,SCT,5900.0,SCT,25000.0,,,,
KRDR,07-04-2006,21:00,METAR,,340,5.0,,,9999.0,,24.0,8.0,30.22,1023.5,,,,,,,,,,,,,,,4/8 Partly Cloudy,72000.0,,SCT,5000.0,SCT,25000.0,,,,
KRDR,07-04-2006,20:00,METAR,,330,8.0,,,9999.0,,24.0,5.0,30.23,1023.9,,,,,,,,,,,,,,,4/8 Partly Cloudy,72000.0,,SCT,5000.0,SCT,25000.0,,,,
KRDR,07-04-2006,19:00,METAR,,310,7.0,,,9999.0,,23.0,9.0,30.25,1024.5,,,,,,,,,,,,,,,4/8 Partly Cloudy,72000.0,,SCT,5000.0,SCT,25000.0,,,,
KRDR,07-04-2006,18:00,METAR,,330,7.0,,,9999.0,,23.0,8.0,30.25,1024.6,,,,,,,,,,,,,,,4/8 Partly Cloudy,72000.0,,FEW,5000.0,SCT,25000.0,,,,
KRDR,07-04-2006,17:00,METAR,,320,7.0,,,9999.0,,22.0,10.0,30.26,1024.9,,,,,,,,,,,,,,,4/8 Partly Cloudy,72000.0,,FEW,5000.0,SCT,25000.0,,,,
KRDR,07-04-2006,16:00,METAR,,,4.0,,,9999.0,,21.0,10.0,30.26,1024.9,,,,,,,,,,,,,,,4/8 Partly Cloudy,72000.0,,FEW,5000.0,SCT,25000.0,,,,
KRDR,07-04-2006,15:00,METAR,,320,5.0,,,9999.0,,19.0,11.0,30.26,1024.8,,,,,,,,,,,,,,,4/8 Partly Cloudy,72000.0,,FEW,5000.0,SCT,25000.0,,,,
KRDR,07-04-2006,14:00,METAR,,330,2.0,,,9999.0,,17.0,12.0,30.25,1024.6,,,,,,,,,,,,,,,4/8 Partly Cloudy,72000.0,,SCT,25000.0,,,,,,
KRDR,07-04-2006,13:00,METAR,,300,3.0,,,9999.0,,15.0,12.0,30.24,1024.0,,,,,,,,,,,,,,,4/8 Partly Cloudy,72000.0,,SCT,25000.0,,,,,,
KRDR,07-04-2006,12:00,METAR,,250,2.0,,,9999.0,,12.0,10.0,30.22,1023.7,,,,,,,,,,,,,,,4/8 Partly Cloudy,72000.0,,SCT,25000.0,,,,,,
KRDR,07-04-2006,11:00,METAR,,230,1.0,,,9999.0,,10.0,9.0,30.20,1023.2,,,,,,,,,,,,,,,4/8 Partly Cloudy,72000.0,,SCT,25000.0,,,,,,
KRDR,07-04-2006,10:00,METAR,,310,1.0,,,9999.0,,11.0,9.0,30.20,1022.9,,,,,,,,,,,,,,,4/8 Partly Cloudy,72000.0,,SCT,25000.0,,,,,,
KRDR,07-04-2006,09:00,METAR,,300,4.0,,,9999.0,,11.0,10.0,30.19,1022.8,,,,,,,,,,,,,,,4/8 Partly Cloudy,72000.0,,SCT,25000.0,,,,,,
KRDR,07-04-2006,08:00,METAR,,290,4.0,,,9999.0,,12.0,11.0,30.19,1022.5,,,,,,,,,,,,,,,2/8 Mostly Clear,72000.0,,FEW,25000.0,,,,,,
KRDR,07-04-2006,07:00,METAR,,280,4.0,,,9999.0,,13.0,11.0,30.18,1022.3,,,,,,,,,,,,,,,2/8 Mostly Clear,72000.0,,FEW,25000.0,,,,,,
KRDR,07-04-2006,06:00,METAR,,290,2.0,,,9999.0,,13.0,11.0,30.17,1022.0,,,,,,,,,,,,,,,Clear,72000.0,,,73000.0,,,,,,
KRDR,07-04-2006,05:00,METAR,,310,3.0,,,9999.0,,13.0,12.0,30.16,1021.8,,,,,,,,,,,,,,,Clear,72000.0,,,73000.0,,,,,,
KRDR,07-04-2006,04:00,METAR,,290,2.0,,,9999.0,,14.0,12.0,30.16,1021.6,,,,,,,,,,,,,,,2/8 Mostly Clear,72000.0,,FEW,25000.0,,,,,,
KRDR,07-04-2006,03:00,METAR,,330,3.0,,,9999.0,,16.0,13.0,30.15,1021.3,,,,,,,,,,,,,,,2/8 Mostly Clear,72000.0,,FEW,25000.0,,,,,,
KRDR,07-04-2006,02:00,METAR,,360,8.0,,,9999.0,,19.0,13.0,30.12,1020.2,,,,,,,,,,,,,,,2/8 Mostly Clear,72000.0,,FEW,25000.0,,,,,,
KRDR,07-04-2006,01:00,METAR,,340,7.0,,,9999.0,,21.0,13.0,30.10,1019.7,,,,,,,,,,,,,,,2/8 Mostly Clear,72000.0,,FEW,5000.0,,,,,,
KRDR,07-04-2006,00:00,METAR,,350,11.0,,,9999.0,,23.0,11.0,30.09,1019.3,,,,,,,,,,,,,,,2/8 Mostly Clear,72000.0,,FEW,5000.0,,,,,,
KRDR,07-03-2006,23:00,METAR,,320,12.0,,,9999.0,,23.0,11.0,30.09,1019.3,,,,,,,,,,,,,,,4/8 Partly Cloudy,72000.0,,SCT,5000.0,,,,,,
KRDR,07-03-2006,22:00,METAR,,350,12.0,,,9999.0,,24.0,13.0,30.10,1019.3,,,,,,,,,,,,,,,7/8 Mostly Cloudy,4900.0,,BKN,5000.0,,,,,,
KRDR,07-03-2006,21:00,METAR,,340,15.0,,,9999.0,,24.0,12.0,30.09,1018.9,,,,,,,,,,,,,,,7/8 Mostly Cloudy,6000.0,,BKN,5900.0,,,,,,
KRDR,07-03-2006,20:00,METAR,,320,13.0,,,9999.0,,25.0,11.0,30.08,1018.6,,,,,,,,,,,,,,,4/8 Partly Cloudy,72000.0,,SCT,5900.0,,,,,,
KRDR,07-03-2006,19:00,METAR,,320,13.0,,,9999.0,,25.0,10.0,30.08,1018.5,,,,,,,,,,,,,,,4/8 Partly Cloudy,72000.0,,SCT,5900.0,,,,,,
KRDR,07-03-2006,18:00,METAR,,320,10.0,,,9999.0,,24.0,12.0,30.08,1018.4,,,,,,,,,,,,,,,4/8 Partly Cloudy,72000.0,,SCT,6400.0,,,,,,
KRDR,07-03-2006,17:00,METAR,,340,12.0,,,9999.0,,23.0,12.0,30.08,1018.4,,,,,,,,,,,,,,,2/8 Mostly Clear,72000.0,,FEW,6400.0,,,,,,
KRDR,07-03-2006,16:00,METAR,,330,9.0,,,9999.0,,22.0,13.0,30.07,1018.2,,,,,,,,,,,,,,,2/8 Mostly Clear,72000.0,,FEW,6400.0,,,,,,
KRDR,07-03-2006,15:00,METAR,,330,9.0,,,9999.0,,21.0,13.0,30.06,1017.7,,,,,,,,,,,,,,,2/8 Mostly Clear,72000.0,,FEW,6400.0,,,,,,
KRDR,07-03-2006,14:00,METAR,,330,9.0,,,9999.0,,19.0,14.0,30.05,1017.3,,,,,,,,,,,,,,,2/8 Mostly Clear,72000.0,,FEW,6900.0,FEW,25000.0,,,,
KRDR,07-03-2006,13:00,METAR,,320,10.0,,,9999.0,,18.0,14.0,30.02,1016.5,,,,,,,,,,,,,,,2/8 Mostly Clear,72000.0,,FEW,25000.0,,,,,,
KRDR,07-03-2006,12:00,METAR,,320,6.0,,,9999.0,,16.0,14.0,30.00,1015.8,,,,,,,,,,,,,,.04 IN,2/8 Mostly Clear,72000.0,,FEW,8900.0,FEW,25000.0,,,,
KRDR,07-03-2006,11:00,METAR,,300,5.0,,,9999.0,,15.0,13.0,29.97,1015.1,,,,,,,,,,,,,,,4/8 Partly Cloudy,72000.0,,FEW,8900.0,SCT,25000.0,,,,
KRDR,07-03-2006,10:00,METAR,,280,3.0,,,9999.0,,16.0,14.0,29.95,1014.4,,,,,,,,,,,,,,,4/8 Partly Cloudy,72000.0,,FEW,8900.0,SCT,25000.0,,,,
KRDR,07-03-2006,09:00,METAR,,280,3.0,,,9999.0,,15.0,14.0,29.94,1014.1,,,,,,,,,,,,,,,2/8 Mostly Clear,72000.0,,FEW,7900.0,FEW,25000.0,,,,
KRDR,07-03-2006,08:00,METAR,,180,4.0,,,9999.0,,16.0,15.0,29.94,1013.9,,,,,,,,,,,,,,,8/8 Overcast,8000.0,,OVC,7900.0,,,,,,
KRDR,07-03-2006,07:00,METAR,,230,3.0,,,9999.0,,17.0,16.0,29.93,1013.7,,,,,,,,,,,,,,,7/8 Mostly Cloudy,9000.0,,FEW,5000.0,BKN,8900.0,BKN,25000.0,,
KRDR,07-03-2006,06:00,METAR,,,0.0,,,9999.0,,17.0,16.0,29.92,1013.3,,,,,,,,,,,,,TRACE,,7/8 Mostly Cloudy,9000.0,,FEW,5000.0,BKN,8900.0,BKN,25000.0,,
KRDR,07-03-2006,05:00,METAR,,120,3.0,,,9999.0,,18.0,16.0,29.94,1013.8,,,,,,,,,,,,,,,7/8 Mostly Cloudy,9000.0,,FEW,5000.0,BKN,8900.0,BKN,25000.0,,
KRDR,07-03-2006,04:22,SPECI,,,5.0,,,9999.0,,18.0,16.0,29.94,,,,,,,,,,,,,,,,7/8 Mostly Cloudy,25000.0,,FEW,5400.0,SCT,7900.0,BKN,25000.0,,
KRDR,07-03-2006,04:00,METAR,,210,5.0,,,9999.0,Light Rain Showers,19.0,16.0,29.94,1013.8,,,,80,,,,,,,,,,,7/8 Mostly Cloudy,8000.0,,SCT,4000.0,BKN,7900.0,BKN,20000.0,,
KRDR,07-03-2006,03:42,SPECI,,210,8.0,,,9999.0,Thunderstorm with Rain or Snow/Light Rain Showers,18.0,16.0,29.95,,,,,95,80,,,,,,,,,,8/8 Overcast,9000.0,,SCT,5000.0,OVC,8900.0,,,,
KRDR,07-03-2006,03:00,METAR,,290,16.0,25.0,,9999.0,Thunderstorm with Rain or Snow/Light Rain Showers,23.0,13.0,29.87,1011.3,,,,95,80,,,,,,,,,,7/8 Mostly Cloudy,8000.0,,SCT,4000.0,BKN,7900.0,BKN,20000.0,,
KRDR,07-03-2006,02:37,SPECI,,180,6.0,,,9999.0,Thunderstorm,23.0,13.0,29.87,,,,,17,,,,,,,,,,,7/8 Mostly Cloudy,20000.0,,SCT,5000.0,BKN,20000.0,,,,
KRDR,07-03-2006,02:00,METAR,,170,5.0,,,9999.0,,23.0,14.0,29.87,1011.4,,,,,,,,,,,,,,,7/8 Mostly Cloudy,25000.0,,SCT,5900.0,BKN,25000.0,,,,
KRDR,07-03-2006,01:00,METAR,,190,6.0,,,9999.0,,28.0,14.0,29.88,1011.9,,,,,,,,,,,,,,,4/8 Partly Cloudy,72000.0,,FEW,5900.0,SCT,25000.0,,,,
KRDR,07-03-2006,00:00,METAR,,210,7.0,,,9999.0,,29.0,12.0,29.90,1012.6,,,,,,,,,,,,,,,2/8 Mostly Clear,72000.0,,FEW,5900.0,FEW,25000.0,,,,
KRDR,07-02-2006,23:00,METAR,,240,8.0,,,9999.0,,30.0,10.0,29.92,1013.4,,,,,,,,,,,,,,,2/8 Mostly Clear,72000.0,,FEW,5900.0,FEW,25000.0,,,,
KRDR,07-02-2006,22:00,METAR,,280,6.0,,,9999.0,,30.0,10.0,29.94,1014.1,,,,,,,,,,,,,,,2/8 Mostly Clear,72000.0,,FEW,5900.0,FEW,25000.0,,,,
KRDR,07-02-2006,21:00,METAR,,290,6.0,,,9999.0,,30.0,10.0,29.95,1011.4,,,,,,,,,,,,,,,2/8 Mostly Clear,72000.0,,FEW,5900.0,FEW,25000.0,,,,
KRDR,07-02-2006,20:00,METAR,,310,10.0,,,9999.0,,29.0,10.0,29.97,1014.9,,,,,,,,,,,,,,,2/8 Mostly Clear,72000.0,,FEW,5900.0,FEW,25000.0,,,,
KRDR,07-02-2006,19:00,METAR,,280,6.0,,,9999.0,,29.0,10.0,29.97,1014.9,,,,,,,,,,,,,,,2/8 Mostly Clear,72000.0,,FEW,5900.0,FEW,25000.0,,,,
KRDR,07-02-2006,18:00,METAR,,300,9.0,,,9999.0,,29.0,11.0,29.99,1015.5,,,,,,,,,,,,,,,2/8 Mostly Clear,72000.0,,FEW,5900.0,FEW,25000.0,,,,
KRDR,07-02-2006,17:00,METAR,,300,11.0,,,9999.0,,28.0,11.0,29.99,1015.6,,,,,,,,,,,,,,,2/8 Mostly Clear,72000.0,,FEW,5900.0,FEW,25000.0,,,,
KRDR,07-02-2006,16:00,METAR,,290,9.0,,,9999.0,,27.0,11.0,29.99,1015.7,,,,,,,,,,,,,,,Clear,72000.0,,,73000.0,,,,,,
KRDR,07-02-2006,15:00,METAR,,300,10.0,,,9999.0,,25.0,13.0,30.00,1015.8,,,,,,,,,,,,,,,Clear,72000.0,,,73000.0,,,,,,
KRDR,07-02-2006,14:00,METAR,,280,8.0,,,9999.0,,23.0,13.0,30.00,1015.8,,,,,,,,,,,,,,,2/8 Mostly Clear,72000.0,,FEW,25000.0,,,,,,
KRDR,07-02-2006,13:00,METAR,,260,8.0,,,9999.0,,20.0,13.0,29.99,1015.6,,,,,,,,,,,,,,,2/8 Mostly Clear,72000.0,,FEW,25000.0,,,,,,
KRDR,07-02-2006,12:00,METAR,,250,5.0,,,9999.0,,17.0,12.0,29.97,1014.8,,,,,,,,,,,,,,,Clear,72000.0,,,73000.0,,,,,,
KRDR,07-02-2006,11:00,METAR,,260,4.0,,,9999.0,,14.0,11.0,29.96,1014.6,,,,,,,,,,,,,,,Clear,72000.0,,,73000.0,,,,,,
KRDR,07-02-2006,10:00,METAR,,260,5.0,,,9999.0,,14.0,11.0,29.95,1014.3,,,,,,,,,,,,,,,Clear,72000.0,,,73000.0,,,,,,
KRDR,07-02-2006,09:00,METAR,,260,6.0,,,9999.0,,16.0,10.0,29.94,1013.9,,,,,,,,,,,,,,,Clear,72000.0,,,73000.0,,,,,,
KRDR,07-02-2006,08:00,METAR,,270,6.0,,,9999.0,,15.0,11.0,29.93,1013.6,,,,,,,,,,,,,,,Clear,72000.0,,,73000.0,,,,,,
KRDR,07-02-2006,07:00,METAR,,280,5.0,,,9999.0,,16.0,11.0,29.92,1013.2,,,,,,,,,,,,,,,Clear,72000.0,,,73000.0,,,,,,
KRDR,07-02-2006,06:00,METAR,,280,8.0,,,9999.0,,19.0,11.0,29.91,1012.8,,,,,,,,,,,,,,,Clear,72000.0,,,73000.0,,,,,,
KRDR,07-02-2006,05:00,METAR,,270,7.0,,,9999.0,,19.0,13.0,29.90,1012.5,,,,,,,,,,,,,,,2/8 Mostly Clear,72000.0,,FEW,25000.0,,,,,,
KRDR,07-02-2006,04:00,METAR,,250,6.0,,,9999.0,,20.0,13.0,29.89,1012.1,,,,,,,,,,,,,,,2/8 Mostly Clear,72000.0,,FEW,25000.0,,,,,,
KRDR,07-02-2006,03:00,METAR,,250,5.0,,,9999.0,,20.0,14.0,29.87,1011.5,,,,,,,,,,,,,,,2/8 Mostly Clear,72000.0,,FEW,25000.0,,,,,,
KRDR,07-02-2006,02:00,METAR,,260,5.0,,,9999.0,,24.0,14.0,29.86,1011.1,,,,,,,,,,,,,,,2/8 Mostly Clear,72000.0,,FEW,25000.0,,,,,,
KRDR,07-02-2006,01:00,METAR,,280,9.0,,,9999.0,,27.0,13.0,29.85,1010.7,,,,,,,,,,,,,,,2/8 Mostly Clear,72000.0,,FEW,25000.0,,,,,,
KRDR,07-02-2006,00:00,METAR,,290,10.0,,,9999.0,,27.0,14.0,29.84,1010.6,,,,,,,,,,,,,,,4/8 Partly Cloudy,72000.0,,FEW,5900.0,SCT,25000.0,,,,
KRDR,07-01-2006,23:00,METAR,,290,13.0,,,9999.0,,28.0,12.0,29.86,1011.1,,,,,,,,,,,,,,,4/8 Partly Cloudy,72000.0,,FEW,5900.0,SCT,25000.0,,,,
KRDR,07-01-2006,22:00,METAR,,310,13.0,,,9999.0,,28.0,11.0,29.86,1011.0,,,,,,,,,,,,,,,2/8 Mostly Clear,72000.0,,FEW,5900.0,FEW,25000.0,,,,
KRDR,07-01-2006,21:00,METAR,,300,14.0,,,9999.0,,28.0,11.0,29.87,1011.4,,,,,,,,,,,,,,,2/8 Mostly Clear,72000.0,,FEW,25000.0,,,,,,
KRDR,07-01-2006,20:00,METAR,,310,13.0,,,9999.0,,28.0,13.0,29.87,1011.4,,,,,,,,,,,,,,,2/8 Mostly Clear,72000.0,,FEW,25000.0,,,,,,
KRDR,07-01-2006,19:00,METAR,,300,12.0,,,9999.0,,27.0,12.0,29.88,1011.8,,,,,,,,,,,,,,,2/8 Mostly Clear,72000.0,,FEW,25000.0,,,,,,
KRDR,07-01-2006,18:00,METAR,,290,10.0,,,9999.0,,27.0,13.0,29.88,1011.9,,,,,,,,,,,,,,,2/8 Mostly Clear,72000.0,,FEW,25000.0,,,,,,
KRDR,07-01-2006,17:00,METAR,,300,10.0,,,9999.0,Haze,25.0,13.0,29.88,1011.9,,,,5,,,,,,,,,,,Clear,72000.0,,,73000.0,,,,,,
KRDR,07-01-2006,16:00,METAR,,290,10.0,,,9999.0,Haze,24.0,14.0,29.87,1011.6,,,,5,,,,,,,,,,,Clear,72000.0,,,73000.0,,,,,,
KRDR,07-01-2006,15:00,METAR,,290,9.0,,,9999.0,Haze,23.0,15.0,29.87,1011.3,,,,5,,,,,,,,,,,Clear,72000.0,,,73000.0,,,,,,
KRDR,07-01-2006,14:00,METAR,,280,10.0,,,9999.0,,21.0,15.0,29.86,1011.0,,,,,,,,,,,,,,,2/8 Mostly Clear,72000.0,,FEW,25000.0,,,,,,
KRDR,07-01-2006,13:00,METAR,,280,7.0,,,9999.0,,19.0,16.0,29.84,1010.3,,,,,,,,,,,,,,,2/8 Mostly Clear,72000.0,,FEW,25000.0,,,,,,
KRDR,07-01-2006,12:00,METAR,,300,7.0,,,9999.0,,18.0,16.0,29.82,1009.6,,,,,,,,,,,,,,,2/8 Mostly Clear,72000.0,,FEW,5000.0,,,,,,
KRDR,07-01-2006,11:00,METAR,,280,6.0,,,9999.0,,17.0,16.0,29.80,1009.1,,,,,,,,,,,,,,,2/8 Mostly Clear,72000.0,,FEW,5000.0,,,,,,
KRDR,07-01-2006,10:00,METAR,,280,7.0,,,9999.0,,18.0,16.0,29.81,1009.2,,,,,,,,,,,,,,,4/8 Partly Cloudy,72000.0,,SCT,5000.0,SCT,25000.0,,,,
KRDR,07-01-2006,09:00,METAR,,270,5.0,,,9999.0,,18.0,17.0,29.80,1009.0,,,,,,,,,,,,,,,8/8 Overcast,9000.0,,FEW,5000.0,OVC,8900.0,,,,
KRDR,07-01-2006,08:00,METAR,,270,4.0,,,9999.0,,18.0,17.0,29.79,1008.8,,,,,,,,,,,,,,,8/8 Overcast,12000.0,,FEW,5000.0,BKN,12000.0,OVC,25000.0,,
KRDR,07-01-2006,07:00,METAR,,320,9.0,,,9999.0,,19.0,17.0,29.77,1008.1,,,,,,,,,,,,,,,4/8 Partly Cloudy,72000.0,,FEW,2600.0,SCT,12000.0,SCT,25000.0,,
KRDR,07-01-2006,06:40,SPECI,,320,11.0,,,9999.0,,19.0,18.0,29.76,,,,,,,,,,,,,,,,7/8 Mostly Cloudy,25000.0,,FEW,5000.0,SCT,12000.0,BKN,25000.0,,
KRDR,07-01-2006,06:04,SPECI,,290,8.0,,,9999.0,Light Rain Showers,20.0,18.0,29.76,,,,,80,,,,,,,,,,,8/8 Overcast,12000.0,,SCT,5000.0,BKN,12000.0,OVC,25000.0,,
KRDR,07-01-2006,06:00,METAR,,300,7.0,,,9999.0,Thunderstorm,20.0,18.0,29.76,,,,,17,,,,,,,,,TRACE,,8/8 Overcast,12000.0,,SCT,5000.0,BKN,12000.0,OVC,25000.0,,
KRDR,07-01-2006,05:33,SPECI,,280,6.0,,,9999.0,Thunderstorm,20.0,18.0,29.76,,,,,17,,,,,,,,,,,8/8 Overcast,12000.0,,SCT,5000.0,BKN,12000.0,OVC,25000.0,,
KRDR,07-01-2006,05:00,METAR,,280,6.0,,,9999.0,,19.0,17.0,29.77,1008.2,,,,,,,,,,,,,,,7/8 Mostly Cloudy,12000.0,,SCT,5000.0,BKN,12000.0,BKN,25000.0,,
KRDR,07-01-2006,04:16,SPECI,,240,3.0,,,9999.0,,18.0,17.0,29.78,,,,,,,,,,,,,,,,7/8 Mostly Cloudy,12000.0,,SCT,5000.0,BKN,12000.0,BKN,25000.0,,
KRDR,07-01-2006,04:00,METAR,,240,3.0,,,9999.0,Thunderstorm,19.0,17.0,29.76,1007.9,,,,17,,,,,,,,,,,7/8 Mostly Cloudy,4900.0,,BKN,5000.0,BKN,25000.0,,,,
KRDR,07-01-2006,03:29,SPECI,,360,5.0,,,9999.0,Thunderstorm with Rain or Snow/Light Rain Showers,20.0,17.0,29.75,,,,,95,80,,,,,,,,,,7/8 Mostly Cloudy,4900.0,,BKN,5000.0,BKN,25000.0,,,,
KRDR,07-01-2006,03:11,SPECI,,320,24.0,32.0,,9999.0,Thunderstorm with Rain or Snow/Light Rain Showers,24.0,21.0,29.78,,,,,95,80,,,,,,,,,,7/8 Mostly Cloudy,4900.0,,BKN,5000.0,BKN,25000.0,,,,
KRDR,07-01-2006,03:05,SPECI,,310,7.0,,,9999.0,Thunderstorm,25.0,21.0,29.75,,,,,17,,,,,,,,,,,7/8 Mostly Cloudy,4900.0,,BKN,5000.0,BKN,25000.0,,,,
KRDR,07-01-2006,03:00,METAR,,330,5.0,,,9999.0,,25.0,21.0,29.74,1007.1,,,,,,,,,,,,,,,7/8 Mostly Cloudy,4900.0,,BKN,5000.0,BKN,25000.0,,,,
KRDR,07-01-2006,02:11,SPECI,,310,4.0,,,9999.0,,26.0,21.0,29.73,1006.7,,,,,,,,,,,,,,,4/8 Partly Cloudy,72000.0,,SCT,5900.0,SCT,25000.0,,,,
KRDR,07-01-2006,02:00,METAR,,300,5.0,,,9999.0,,26.0,21.0,29.73,1006.7,,,,,,,,,,,,,,,4/8 Partly Cloudy,72000.0,,SCT,5900.0,SCT,25000.0,,,,
KRDR,07-01-2006,01:00,METAR,,280,8.0,,,9999.0,,29.0,22.0,29.72,1006.4,,,,,,,,,,,,,,,2/8 Mostly Clear,72000.0,,FEW,5900.0,FEW,25000.0,,,,
KRDR,07-01-2006,00:00,METAR,,270,5.0,,,9999.0,,31.0,21.0,29.73,1006.7,,,,,,,,,,,,,,,4/8 Partly Cloudy,72000.0,,FEW,5900.0,SCT,15000.0,SCT,25000.0,,
KRDR,06-30-2006,23:00,METAR,,180,7.0,,,9999.0,,30.0,22.0,29.73,1006.6,,,,,,,,,,,,,,,7/8 Mostly Cloudy,25000.0,,SCT,5900.0,SCT,15000.0,BKN,25000.0,,
KRDR,06-30-2006,22:00,METAR,,160,15.0,,,9999.0,,32.0,21.0,29.75,1007.1,,,,,,,,,,,,,,,7/8 Mostly Cloudy,25000.0,,FEW,5900.0,SCT,15000.0,BKN,25000.0,,
KRDR,06-30-2006,21:00,METAR,,170,11.0,,,9999.0,,33.0,21.0,29.77,1007.7,,,,,,,,,,,,,,,7/8 Mostly Cloudy,25000.0,,FEW,5000.0,SCT,15000.0,BKN,25000.0,,
KRDR,06-30-2006,20:00,METAR,,170,13.0,19.0,,9999.0,,32.0,20.0,29.79,1008.2,,,,,,,,,,,,,,,7/8 Mostly Cloudy,25000.0,,SCT,15000.0,BKN,25000.0,,,,
KRDR,06-30-2006,19:00,METAR,,150,12.0,,,9999.0,,31.0,20.0,29.78,1008.2,,,,,,,,,,,,,,,7/8 Mostly Cloudy,25000.0,,SCT,15000.0,BKN,25000.0,,,,
KRDR,06-30-2006,18:00,METAR,,170,14.0,,,9999.0,,29.0,20.0,29.81,1009.0,,,,,,,,,,,,,,,7/8 Mostly Cloudy,25000.0,,FEW,15000.0,BKN,25000.0,,,,
KRDR,06-30-2006,17:00,METAR,,150,9.0,,,9999.0,,29.0,20.0,29.83,1009.8,,,,,,,,,,,,,,,7/8 Mostly Cloudy,25000.0,,BKN,25000.0,,,,,,
KRDR,06-30-2006,16:00,METAR,,130,8.0,,,9999.0,,27.0,19.0,29.85,1010.3,,,,,,,,,,,,,,,7/8 Mostly Cloudy,25000.0,,SCT,9900.0,BKN,25000.0,,,,
KRDR,06-30-2006,15:00,METAR,,140,8.0,,,9999.0,,25.0,19.0,29.87,1011.0,,,,,,,,,,,,,,,7/8 Mostly Cloudy,25000.0,,SCT,9900.0,BKN,25000.0,,,,
KRDR,06-30-2006,14:00,METAR,,140,9.0,,,9999.0,,24.0,18.0,29.87,1011.1,,,,,,,,,,,,,,,7/8 Mostly Cloudy,25000.0,,SCT,9900.0,BKN,25000.0,,,,
KRDR,06-30-2006,13:00,METAR,,150,6.0,,,9999.0,,21.0,18.0,29.87,1011.1,,,,,,,,,,,,,,,7/8 Mostly Cloudy,25000.0,,FEW,9900.0,SCT,15000.0,BKN,25000.0,,
KRDR,06-30-2006,12:00,METAR,,140,7.0,,,9999.0,,20.0,17.0,29.87,1011.1,,,,,,,,,,,,,.27 IN,.27 IN,7/8 Mostly Cloudy,15000.0,,SCT,9900.0,BKN,15000.0,BKN,25000.0,,
KRDR,06-30-2006,11:00,METAR,,100,6.0,,,9999.0,,19.0,17.0,29.85,1010.8,,,,,,,,,,,,,,,7/8 Mostly Cloudy,15000.0,,BKN,15000.0,BKN,25000.0,,,,
KRDR,06-30-2006,10:00,METAR,,90,4.0,,,9999.0,,19.0,17.0,29.83,1009.9,,,,,,,,,,,,,,,4/8 Partly Cloudy,72000.0,,FEW,5000.0,SCT,12000.0,SCT,25000.0,,
KRDR,06-30-2006,09:00,METAR,,120,12.0,,,9999.0,Thunderstorm with Rain or Snow/Light Rain Showers,21.0,18.0,29.84,1010.2,,,,95,80,,,,,,,.27 IN,,,8/8 Overcast,11000.0,,SCT,5000.0,BKN,11000.0,OVC,25000.0,,
KRDR,06-30-2006,08:45,METAR,,180,7.0,,,9999.0,,20.0,18.0,29.84,,,,,,,,,,,,,,,,7/8 Mostly Cloudy,11000.0,,SCT,4500.0,BKN,11000.0,BKN,25000.0,,
KRDR,06-30-2006,08:12,SPECI,,180,7.0,,,9999.0,Thunderstorm,22.0,16.0,29.85,,,,,17,,,,,,,,,,,8/8 Overcast,4400.0,,BKN,4500.0,BKN,8900.0,OVC,25000.0,,
KRDR,06-30-2006,08:00,METAR,,120,12.0,,,9999.0,Thunderstorm with Rain or Snow/Light Rain Showers,21.0,18.0,29.87,1011.2,,,,95,80,,,,,,,,,,8/8 Overcast,4900.0,,BKN,5000.0,BKN,11000.0,OVC,25000.0,,
KRDR,06-30-2006,07:00,METAR,,170,8.0,,,9999.0,Thunderstorm with Rain or Snow/Light Rain Showers,21.0,18.0,29.87,1011.3,,,,95,80,,,,,,,,,,7/8 Mostly Cloudy,4400.0,,BKN,4500.0,BKN,9900.0,BKN,25000.0,,
KRDR,06-30-2006,06:07,SPECI,,190,9.0,,,9999.0,Thunderstorm with Rain or Snow/Light Rain Showers,22.0,16.0,29.87,,,,,95,80,,,,,,,,,,8/8 Overcast,4400.0,,BKN,4500.0,BKN,9900.0,OVC,25000.0,,
KRDR,06-30-2006,06:00,METAR,,180,8.0,,,9999.0,Thunderstorm,23.0,16.0,29.86,1010.9,,,,17,,,,,,,,,,,7/8 Mostly Cloudy,10000.0,,SCT,4500.0,BKN,9900.0,BKN,25000.0,,
KRDR,06-30-2006,05:00,METAR,,140,7.0,,,9999.0,Thunderstorm,23.0,14.0,29.86,1011.1,,,,17,,,,,,,,,,,7/8 Mostly Cloudy,15000.0,,SCT,4500.0,BKN,15000.0,BKN,25000.0,,
KRDR,06-30-2006,04:40,SPECI,,150,9.0,,,9999.0,Thunderstorm,23.0,14.0,29.87,,,,,17,,,,,,,,,,,7/8 Mostly Cloudy,16000.0,,SCT,4500.0,BKN,16000.0,BKN,25000.0,,
KRDR,06-30-2006,04:00,METAR,,140,9.0,,,9999.0,,25.0,15.0,29.87,1011.3,,,,,,,,,,,,,,,7/8 Mostly Cloudy,18000.0,,SCT,4500.0,BKN,18000.0,BKN,25000.0,,
KRDR,06-30-2006,03:00,METAR,,140,8.0,,,9999.0,,25.0,15.0,29.87,1011.5,,,,,,,,,,,,,,,7/8 Mostly Cloudy,18000.0,,FEW,4500.0,BKN,18000.0,BKN,25000.0,,
KRDR,06-30-2006,02:00,METAR,,160,11.0,,,9999.0,,26.0,16.0,29.88,1011.7,,,,,,,,,,,,,,,7/8 Mostly Cloudy,25000.0,,FEW,4500.0,SCT,14000.0,BKN,25000.0,,
KRDR,06-30-2006,01:00,METAR,,170,7.0,,,9999.0,,28.0,17.0,29.89,1012.3,,,,,,,,,,,,,,,7/8 Mostly Cloudy,25000.0,,FEW,4500.0,SCT,14000.0,BKN,25000.0,,
KRDR,06-30-2006,00:00,METAR,,170,10.0,,,9999.0,,28.0,16.0,29.90,1012.5,,,,,,,,,,,,,,,7/8 Mostly Cloudy,25000.0,,FEW,4500.0,SCT,14000.0,BKN,25000.0,,
KRDR,06-29-2006,23:00,METAR,,190,10.0,,,9999.0,,31.0,14.0,29.91,1013.0,,,,,,,,,,,,,,,7/8 Mostly Cloudy,25000.0,,FEW,4500.0,SCT,12000.0,BKN,25000.0,,
KRDR,06-29-2006,22:00,METAR,,170,16.0,,,9999.0,,32.0,15.0,29.92,1013.2,,,,,,,,,,,,,,,7/8 Mostly Cloudy,15000.0,,FEW,4500.0,SCT,12000.0,BKN,15000.0,,
KRDR,06-29-2006,21:00,METAR,,170,15.0,21.0,,9999.0,,31.0,14.0,29.93,1013.5,,,,,,,,,,,,,,,7/8 Mostly Cloudy,25000.0,,FEW,5900.0,BKN,25000.0,,,,
KRDR,06-29-2006,20:00,METAR,,160,17.0,21.0,,9999.0,,31.0,14.0,29.94,1014.1,,,,,,,,,,,,,,,4/8 Partly Cloudy,72000.0,,SCT,25000.0,,,,,,
KRDR,06-29-2006,19:00,METAR,,170,16.0,,,9999.0,,30.0,14.0,29.98,1014.9,,,,,,,,,,,,,,,4/8 Partly Cloudy,72000.0,,SCT,25000.0,,,,,,
KRDR,06-29-2006,18:00,METAR,,150,11.0,,,9999.0,,28.0,14.0,30.00,1015.8,,,,,,,,,,,,,,,2/8 Mostly Clear,72000.0,,FEW,25000.0,,,,,,
KRDR,06-29-2006,17:00,METAR,,180,12.0,,,9999.0,,26.0,14.0,30.02,1016.5,,,,,,,,,,,,,,,2/8 Mostly Clear,72000.0,,FEW,25000.0,,,,,,
KRDR,06-29-2006,16:00,METAR,,160,10.0,,,9999.0,,25.0,14.0,30.03,1016.9,,,,,,,,,,,,,,,2/8 Mostly Clear,72000.0,,FEW,25000.0,,,,,,
KRDR,06-29-2006,15:00,METAR,,160,12.0,,,9999.0,,23.0,13.0,30.05,1017.6,,,,,,,,,,,,,,,4/8 Partly Cloudy,72000.0,,SCT,25000.0,,,,,,
KRDR,06-29-2006,14:00,METAR,,160,8.0,,,9999.0,,21.0,13.0,30.05,1017.8,,,,,,,,,,,,,,,4/8 Partly Cloudy,72000.0,,SCT,25000.0,,,,,,
KRDR,06-29-2006,13:00,METAR,,160,8.0,,,9999.0,,19.0,12.0,30.06,1017.9,,,,,,,,,,,,,,,4/8 Partly Cloudy,72000.0,,SCT,25000.0,,,,,,
KRDR,06-29-2006,12:00,METAR,,170,5.0,,,9999.0,,15.0,12.0,30.05,1017.4,,,,,,,,,,,,,,,4/8 Partly Cloudy,72000.0,,SCT,25000.0,,,,,,
KRDR,06-29-2006,11:00,METAR,,180,5.0,,,9999.0,,13.0,10.0,30.05,1017.7,,,,,,,,,,,,,,,4/8 Partly Cloudy,72000.0,,SCT,25000.0,,,,,,
KRDR,06-29-2006,10:00,METAR,,200,5.0,,,9999.0,,13.0,10.0,30.06,1017.9,,,,,,,,,,,,,,,2/8 Mostly Clear,72000.0,,FEW,25000.0,,,,,,
KRDR,06-29-2006,09:00,METAR,,190,4.0,,,9999.0,,13.0,10.0,30.06,1018.0,,,,,,,,,,,,,,,2/8 Mostly Clear,72000.0,,FEW,25000.0,,,,,,
KRDR,06-29-2006,08:00,METAR,,180,4.0,,,9999.0,,14.0,10.0,30.06,1017.9,,,,,,,,,,,,,,,2/8 Mostly Clear,72000.0,,FEW,25000.0,,,,,,
KRDR,06-29-2006,07:00,METAR,,170,5.0,,,9999.0,,15.0,10.0,30.07,1018.3,,,,,,,,,,,,,,,2/8 Mostly Clear,72000.0,,FEW,25000.0,,,,,,
KRDR,06-29-2006,06:00,METAR,,180,5.0,,,9999.0,,15.0,10.0,30.08,1018.6,,,,,,,,,,,,,,,2/8 Mostly Clear,72000.0,,FEW,25000.0,,,,,,
KRDR,06-29-2006,05:00,METAR,,190,3.0,,,9999.0,,17.0,10.0,30.09,1018.9,,,,,,,,,,,,,,,4/8 Partly Cloudy,72000.0,,SCT,25000.0,,,,,,
KRDR,06-29-2006,04:00,METAR,,170,4.0,,,9999.0,,18.0,11.0,30.09,1018.9,,,,,,,,,,,,,,,4/8 Partly Cloudy,72000.0,,SCT,25000.0,,,,,,
KRDR,06-29-2006,03:00,METAR,,150,5.0,,,9999.0,,20.0,11.0,30.07,1018.5,,,,,,,,,,,,,,,7/8 Mostly Cloudy,25000.0,,FEW,5900.0,BKN,25000.0,,,,
KRDR,06-29-2006,02:00,METAR,,130,5.0,,,9999.0,,22.0,11.0,30.07,1018.4,,,,,,,,,,,,,,,7/8 Mostly Cloudy,25000.0,,FEW,5900.0,BKN,25000.0,,,,
KRDR,06-29-2006,01:00,METAR,,130,4.0,,,9999.0,,24.0,10.0,30.07,1018.5,,,,,,,,,,,,,,,7/8 Mostly Cloudy,25000.0,,FEW,5900.0,BKN,25000.0,,,,
KRDR,06-29-2006,00:00,METAR,,130,4.0,,,9999.0,,25.0,10.0,30.08,1019.1,,,,,,,,,,,,,,,7/8 Mostly Cloudy,25000.0,,FEW,5900.0,BKN,25000.0,,,,
KRDR,06-28-2006,23:00,METAR,,170,6.0,,,9999.0,,26.0,10.0,30.08,1019.1,,,,,,,,,,,,,,,7/8 Mostly Cloudy,25000.0,,FEW,5900.0,BKN,25000.0,,,,
KRDR,06-28-2006,22:00,METAR,,220,3.0,,,9999.0,,25.0,10.0,30.10,1019.6,,,,,,,,,,,,,,,7/8 Mostly Cloudy,25000.0,,FEW,5900.0,BKN,25000.0,,,,
KRDR,06-28-2006,21:00,METAR,,220,2.0,,,9999.0,,25.0,10.0,30.10,1019.6,,,,,,,,,,,,,,,7/8 Mostly Cloudy,25000.0,,FEW,5900.0,BKN,25000.0,,,,
KRDR,06-28-2006,20:00,METAR,,170,4.0,,,9999.0,,25.0,10.0,30.10,1019.8,,,,,,,,,,,,,,,7/8 Mostly Cloudy,25000.0,,FEW,5900.0,BKN,25000.0,,,,
KRDR,06-28-2006,19:00,METAR,,,1.0,,,9999.0,,24.0,9.0,30.12,1020.1,,,,,,,,,,,,,,,7/8 Mostly Cloudy,25000.0,,FEW,5900.0,BKN,25000.0,,,,
KRDR,06-28-2006,18:00,METAR,,,2.0,,,9999.0,,25.0,10.0,30.13,1020.3,,,,,,,,,,,,,,,4/8 Partly Cloudy,72000.0,,FEW,5000.0,SCT,25000.0,,,,
KRDR,06-28-2006,17:00,METAR,,,2.0,,,9999.0,,23.0,11.0,30.14,1020.5,,,,,,,,,,,,,,,4/8 Partly Cloudy,72000.0,,FEW,5000.0,SCT,25000.0,,,,
KRDR,06-28-2006,16:00,METAR,,,2.0,,,9999.0,,22.0,11.0,30.14,1020.6,,,,,,,,,,,,,,,4/8 Partly Cloudy,72000.0,,SCT,25000.0,,,,,,
KRDR,06-28-2006,15:00,METAR,,,2.0,,,9999.0,,22.0,11.0,30.14,1020.8,,,,,,,,,,,,,,,4/8 Partly Cloudy,72000.0,,SCT,25000.0,,,,,,
KRDR,06-28-2006,14:00,METAR,,,0.0,,,9999.0,,19.0,12.0,30.15,1020.9,,,,,,,,,,,,,,,4/8 Partly Cloudy,72000.0,,SCT,25000.0,,,,,,
KRDR,06-28-2006,13:00,METAR,,240,2.0,,,9999.0,,16.0,12.0,30.15,1020.9,,,,,,,,,,,,,,,4/8 Partly Cloudy,72000.0,,FEW,6900.0,SCT,25000.0,,,,
KRDR,06-28-2006,11:50,METAR,,220,1.0,,,9999.0,,12.0,9.0,30.14,1020.9,,,,,,,,,,,,,,,4/8 Partly Cloudy,72000.0,,FEW,6900.0,SCT,25000.0,,,,
KRDR,06-28-2006,11:00,METAR,,210,2.0,,,9999.0,,9.0,8.0,30.12,1020.4,,,,,,,,,,,,,,,4/8 Partly Cloudy,72000.0,,FEW,6400.0,SCT,25000.0,,,,
KRDR,06-28-2006,10:00,METAR,,180,2.0,,,9999.0,,10.0,8.0,30.11,1020.0,,,,,,,,,,,,,,,4/8 Partly Cloudy,72000.0,,FEW,6400.0,SCT,25000.0,,,,
KRDR,06-28-2006,09:00,METAR,,310,2.0,,,9999.0,,10.0,8.0,30.10,1019.8,,,,,,,,,,,,,,,4/8 Partly Cloudy,72000.0,,FEW,6400.0,SCT,25000.0,,,,
KRDR,06-28-2006,08:00,METAR,,200,2.0,,,9999.0,,10.0,8.0,30.10,1019.6,,,,,,,,,,,,,,,4/8 Partly Cloudy,72000.0,,SCT,25000.0,,,,,,
KRDR,06-28-2006,07:00,METAR,,220,1.0,,,9999.0,,11.0,9.0,30.10,1019.6,,,,,,,,,,,,,,,4/8 Partly Cloudy,72000.0,,SCT,25000.0,,,,,,
KRDR,06-28-2006,06:00,METAR,,250,1.0,,,9999.0,,11.0,9.0,30.10,1019.8,,,,,,,,,,,,,,,4/8 Partly Cloudy,72000.0,,SCT,25000.0,,,,,,
KRDR,06-28-2006,05:00,METAR,,220,3.0,,,9999.0,,12.0,10.0,30.10,1019.8,,,,,,,,,,,,,,,4/8 Partly Cloudy,72000.0,,SCT,25000.0,,,,,,
KRDR,06-28-2006,04:00,METAR,,260,2.0,,,9999.0,,14.0,10.0,30.10,1019.7,,,,,,,,,,,,,,,7/8 Mostly Cloudy,25000.0,,BKN,25000.0,,,,,,
KRDR,06-28-2006,03:00,METAR,,350,3.0,,,9999.0,,17.0,10.0,30.08,1018.8,,,,,,,,,,,,,,,7/8 Mostly Cloudy,25000.0,,FEW,5400.0,BKN,25000.0,,,,
KRDR,06-28-2006,02:00,METAR,,30,5.0,,,9999.0,,21.0,10.0,30.08,1018.8,,,,,,,,,,,,,,,4/8 Partly Cloudy,72000.0,,FEW,5400.0,SCT,25000.0,,,,
KRDR,06-28-2006,01:00,METAR,,350,6.0,,,9999.0,,23.0,9.0,30.08,1018.8,,,,,,,,,,,,,,,4/8 Partly Cloudy,72000.0,,FEW,5400.0,SCT,25000.0,,,,
KRDR,06-28-2006,00:00,METAR,,350,9.0,,,9999.0,,23.0,9.0,30.08,1018.9,,,,,,,,,,,,,,,7/8 Mostly Cloudy,25000.0,,SCT,5400.0,BKN,25000.0,,,,
KRDR,06-27-2006,23:00,METAR,,10,11.0,,,9999.0,,24.0,9.0,30.08,1019.1,,,,,,,,,,,,,,,7/8 Mostly Cloudy,5500.0,,BKN,5400.0,BKN,25000.0,,,,
KRDR,06-27-2006,22:00,METAR,,350,10.0,,,9999.0,,24.0,8.0,30.09,1019.3,,,,,,,,,,,,,,,7/8 Mostly Cloudy,5500.0,,BKN,5400.0,BKN,25000.0,,,,
KRDR,06-27-2006,21:00,METAR,,330,4.0,,,9999.0,,24.0,9.0,30.10,1019.6,,,,,,,,,,,,,,,7/8 Mostly Cloudy,5500.0,,BKN,5400.0,BKN,25000.0,,,,
KRDR,06-27-2006,20:00,METAR,,330,8.0,14.0,,9999.0,,24.0,9.0,30.10,1019.7,,,,,,,,,,,,,,,7/8 Mostly Cloudy,5500.0,,BKN,5400.0,BKN,25000.0,,,,
KRDR,06-27-2006,19:00,METAR,,20,10.0,16.0,,9999.0,,23.0,9.0,30.12,1020.6,,,,,,,,,,,,,,,7/8 Mostly Cloudy,5500.0,,BKN,5400.0,BKN,25000.0,,,,
KRDR,06-27-2006,18:00,METAR,,10,8.0,,,9999.0,,23.0,10.0,30.13,1020.8,,,,,,,,,,,,,,,7/8 Mostly Cloudy,25000.0,,SCT,4900.0,BKN,25000.0,,,,
KRDR,06-27-2006,17:00,METAR,,360,11.0,,,9999.0,,21.0,11.0,30.16,1021.9,,,,,,,,,,,,,,,7/8 Mostly Cloudy,25000.0,,SCT,4300.0,BKN,25000.0,,,,
KRDR,06-27-2006,16:00,METAR,,350,12.0,,,9999.0,,20.0,11.0,30.15,1021.5,,,,,,,,,,,,,,,2/8 Mostly Clear,72000.0,,FEW,3000.0,FEW,25000.0,,,,
KRDR,06-27-2006,15:00,METAR,,350,11.0,,,9999.0,,19.0,11.0,30.16,1021.8,,,,,,,,,,,,,,,2/8 Mostly Clear,72000.0,,FEW,25000.0,,,,,,
KRDR,06-27-2006,14:00,METAR,,330,9.0,,,9999.0,,17.0,10.0,30.15,1021.5,,,,,,,,,,,,,,,Clear,72000.0,,,73000.0,,,,,,
KRDR,06-27-2006,13:00,METAR,,320,8.0,,,9999.0,,14.0,9.0,30.14,1021.1,,,,,,,,,,,,,,,2/8 Mostly Clear,72000.0,,FEW,12000.0,FEW,25000.0,,,,
KRDR,06-27-2006,12:00,METAR,,300,6.0,,,9999.0,,11.0,8.0,30.14,1021.2,,,,,,,,,,,,,,,2/8 Mostly Clear,72000.0,,FEW,12000.0,FEW,25000.0,,,,
KRDR,06-27-2006,11:00,METAR,,310,6.0,,,9999.0,,10.0,7.0,30.13,1020.8,,,,,,,,,,,,,,,2/8 Mostly Clear,72000.0,,FEW,25000.0,,,,,,
KRDR,06-27-2006,10:00,METAR,,310,4.0,,,9999.0,,10.0,7.0,30.13,1020.4,,,,,,,,,,,,,,,2/8 Mostly Clear,72000.0,,FEW,25000.0,,,,,,
KRDR,06-27-2006,09:00,METAR,,310,4.0,,,9999.0,,11.0,8.0,30.12,1020.2,,,,,,,,,,,,,,,Clear,72000.0,,,73000.0,,,,,,
KRDR,06-27-2006,08:00,METAR,,310,5.0,,,9999.0,Smoke or Ash,12.0,8.0,30.12,1020.6,,,,4,,,,,,,,,,,Clear,72000.0,,,73000.0,,,,,,
KRDR,06-27-2006,07:00,METAR,,280,3.0,,,9999.0,Smoke or Ash,10.0,8.0,30.13,1020.7,,,,4,,,,,,,,,,,Clear,72000.0,,,73000.0,,,,,,
KRDR,06-27-2006,06:00,METAR,,320,4.0,,,9999.0,Smoke or Ash,12.0,9.0,30.13,1020.8,,,,4,,,,,,,,,,,Clear,72000.0,,,73000.0,,,,,,
KRDR,06-27-2006,05:00,METAR,,340,4.0,,,9999.0,Smoke or Ash,13.0,9.0,30.13,1020.8,,,,4,,,,,,,,,,,Clear,72000.0,,,73000.0,,,,,,
KRDR,06-27-2006,04:00,METAR,,10,9.0,,,9999.0,Smoke or Ash,17.0,11.0,30.12,1020.4,,,,4,,,,,,,,,,,2/8 Mostly Clear,72000.0,,FEW,5000.0,,,,,,
KRDR,06-27-2006,03:00,METAR,,340,9.0,,,9999.0,Smoke or Ash,18.0,11.0,30.11,1019.4,,,,4,,,,,,,,,,,4/8 Partly Cloudy,72000.0,,FEW,5000.0,SCT,25000.0,,,,
KRDR,06-27-2006,02:00,METAR,,350,11.0,,,8000.0,Smoke or Ash,20.0,12.0,30.08,1018.7,,,,4,,,,,,,,,,,2/8 Mostly Clear,72000.0,,FEW,5000.0,,,,,,
KRDR,06-27-2006,01:00,METAR,,350,10.0,,,8000.0,Smoke or Ash,22.0,11.0,30.08,1018.5,,,,4,,,,,,,,,,,Clear,72000.0,,,73000.0,,,,,,
KRDR,06-27-2006,00:00,METAR,,340,15.0,22.0,,8000.0,Smoke or Ash,24.0,11.0,30.07,1018.1,,,,4,,,,,,,,,TRACE,,2/8 Mostly Clear,72000.0,,FEW,7400.0,,,,,,
KRDR,06-26-2006,23:00,METAR,,340,15.0,21.0,360/26KTS,9999.0,Smoke or Ash,25.0,10.0,30.05,1017.6,,,,4,,,,,,,,,,,4/8 Partly Cloudy,72000.0,,FEW,7400.0,SCT,25000.0,,,,
KRDR,06-26-2006,22:00,METAR,,360,17.0,,,9999.0,,28.0,11.0,30.05,1017.4,,,,,,,,,,,,,,,4/8 Partly Cloudy,72000.0,,FEW,7400.0,SCT,25000.0,,,,
KRDR,06-26-2006,21:37,SPECI,,340,15.0,,,9999.0,,27.0,11.0,30.05,,,,,,,,,,,,,,,,7/8 Mostly Cloudy,25000.0,,FEW,6400.0,SCT,12000.0,BKN,25000.0,,
KRDR,06-26-2006,21:11,SPECI,,350,14.0,,,9999.0,Thunderstorm,25.0,12.0,30.05,,,,,17,,,,,,,,,,,7/8 Mostly Cloudy,25000.0,,FEW,6400.0,SCT,12000.0,BKN,25000.0,,
KRDR,06-26-2006,21:00,METAR,,260,7.0,,,9999.0,Light Rain Showers,25.0,16.0,30.05,1017.6,,,,80,,,,,,,,TRACE,,,7/8 Mostly Cloudy,25000.0,,SCT,6400.0,BKN,25000.0,,,,
KRDR,06-26-2006,20:20,METAR,,220,10.0,,,9999.0,Thunderstorm,23.0,14.0,30.06,,,,,17,,,,,,,,,,,7/8 Mostly Cloudy,12000.0,,SCT,6400.0,BKN,12000.0,BKN,25000.0,,
KRDR,06-26-2006,20:00,METAR,,250,10.0,,,9999.0,Thunderstorm,21.0,14.0,30.07,,,,,17,,,,,,,,,,,7/8 Mostly Cloudy,11000.0,,SCT,7900.0,BKN,11000.0,BKN,25000.0,,
KRDR,06-26-2006,19:35,SPECI,,260,8.0,,,9999.0,Thunderstorm,21.0,14.0,30.07,,,,,17,,,,,,,,,,,7/8 Mostly Cloudy,11000.0,,SCT,7900.0,BKN,11000.0,BKN,25000.0,,
KRDR,06-26-2006,19:25,METAR,,260,7.0,,,9999.0,Thunderstorm with Rain or Snow/Light Rain Showers,22.0,15.0,30.06,,,,,95,80,,,,,,,,,,7/8 Mostly Cloudy,11000.0,,SCT,7900.0,BKN,11000.0,BKN,25000.0,,
KRDR,06-26-2006,19:15,SPECI,,320,7.0,,,9999.0,Light Rain Showers,24.0,13.0,30.06,,,,,80,,,,,,,,,,,7/8 Mostly Cloudy,11000.0,,SCT,7900.0,BKN,11000.0,BKN,25000.0,,
KRDR,06-26-2006,19:00,METAR,,330,11.0,17.0,,9999.0,,26.0,13.0,30.06,1018.2,,,,,,,,,,,,,,,7/8 Mostly Cloudy,11000.0,,SCT,7900.0,BKN,11000.0,BKN,25000.0,,
KRDR,06-26-2006,18:00,METAR,,290,8.0,,,9999.0,,24.0,15.0,30.08,1019.0,,,,,,,,,,,,,TRACE,,8/8 Overcast,11000.0,,SCT,7900.0,BKN,11000.0,OVC,25000.0,,
KRDR,06-26-2006,17:34,SPECI,,300,8.0,,,9999.0,,23.0,14.0,30.10,,,,,,,,,,,,,,,,8/8 Overcast,11000.0,,SCT,7900.0,BKN,11000.0,OVC,25000.0,,
KRDR,06-26-2006,17:10,SPECI,,290,9.0,,,9999.0,Thunderstorm with Rain or Snow/Light Rain Showers,23.0,14.0,30.10,,,,,95,80,,,,,,,,,,8/8 Overcast,11000.0,,SCT,7900.0,BKN,11000.0,OVC,25000.0,,
KRDR,06-26-2006,17:00,METAR,,300,11.0,,,9999.0,Thunderstorm,23.0,14.0,30.10,1019.7,,,,17,,,,,,,,,,,8/8 Overcast,11000.0,,SCT,7900.0,BKN,11000.0,OVC,25000.0,,
KRDR,06-26-2006,16:00,METAR,,290,7.0,,,9999.0,,22.0,14.0,30.11,1020.1,,,,,,,,,,,,,,,8/8 Overcast,11000.0,,SCT,7900.0,BKN,11000.0,OVC,25000.0,,
KRDR,06-26-2006,15:00,METAR,,280,7.0,,,9999.0,,22.0,14.0,30.11,1020.0,,,,,,,,,,,,,,,8/8 Overcast,12000.0,,SCT,7900.0,BKN,12000.0,OVC,25000.0,,
KRDR,06-26-2006,14:00,METAR,,280,9.0,,,9999.0,,22.0,13.0,30.11,1019.8,,,,,,,,,,,,,,,7/8 Mostly Cloudy,25000.0,,SCT,7900.0,BKN,25000.0,,,,
KRDR,06-26-2006,13:00,METAR,,260,7.0,,,9999.0,,19.0,12.0,30.12,1020.2,,,,,,,,,,,,,,,7/8 Mostly Cloudy,25000.0,,SCT,8900.0,BKN,25000.0,,,,
KRDR,06-26-2006,12:00,METAR,,260,7.0,,,9999.0,,17.0,11.0,30.13,1020.6,,,,,,,,,,,,,,,7/8 Mostly Cloudy,25000.0,,SCT,8900.0,BKN,25000.0,,,,
KRDR,06-26-2006,11:00,METAR,,250,5.0,,,9999.0,,15.0,10.0,30.14,1020.7,,,,,,,,,,,,,,,7/8 Mostly Cloudy,25000.0,,SCT,8900.0,BKN,25000.0,,,,
KRDR,06-26-2006,10:00,METAR,,220,4.0,,,9999.0,,14.0,11.0,30.15,1021.1,,,,,,,,,,,,,,,7/8 Mostly Cloudy,25000.0,,FEW,9900.0,BKN,25000.0,,,,
KRDR,06-26-2006,09:00,METAR,,220,5.0,,,9999.0,,14.0,11.0,30.16,1021.7,,,,,,,,,,,,,,,7/8 Mostly Cloudy,25000.0,,BKN,25000.0,,,,,,
KRDR,06-26-2006,08:00,METAR,,210,4.0,,,9999.0,,14.0,11.0,30.18,1022.1,,,,,,,,,,,,,,,7/8 Mostly Cloudy,25000.0,,BKN,25000.0,,,,,,
KRDR,06-26-2006,07:00,METAR,,210,3.0,,,9999.0,,14.0,11.0,30.19,1022.6,,,,,,,,,,,,,,,7/8 Mostly Cloudy,25000.0,,BKN,25000.0,,,,,,
KRDR,06-26-2006,06:00,METAR,,230,3.0,,,9999.0,,14.0,11.0,30.20,1023.0,,,,,,,,,,,,,,,4/8 Partly Cloudy,72000.0,,SCT,25000.0,,,,,,
KRDR,06-26-2006,05:00,METAR,,200,2.0,,,9999.0,,15.0,11.0,30.21,1023.3,,,,,,,,,,,,,,,7/8 Mostly Cloudy,25000.0,,BKN,25000.0,,,,,,
KRDR,06-26-2006,04:00,METAR,,240,2.0,,,9999.0,,15.0,10.0,30.23,1023.7,,,,,,,,,,,,,,,7/8 Mostly Cloudy,25000.0,,BKN,25000.0,,,,,,
KRDR,06-26-2006,03:00,METAR,,260,3.0,,,9999.0,,17.0,11.0,30.22,1023.5,,,,,,,,,,,,,,,7/8 Mostly Cloudy,25000.0,,BKN,25000.0,,,,,,
KRDR,06-26-2006,02:00,METAR,,340,4.0,,,9999.0,,22.0,10.0,30.22,1023.4,,,,,,,,,,,,,,,7/8 Mostly Cloudy,25000.0,,FEW,7400.0,BKN,25000.0,,,,
KRDR,06-26-2006,01:00,METAR,,350,6.0,,,9999.0,,24.0,8.0,30.23,1023.5,,,,,,,,,,,,,,,7/8 Mostly Cloudy,25000.0,,FEW,7400.0,BKN,25000.0,,,,
KRDR,06-26-2006,00:00,METAR,,,5.0,,,9999.0,,26.0,9.0,30.24,1024.0,,,,,,,,,,,,,,,4/8 Partly Cloudy,72000.0,,FEW,7400.0,SCT,25000.0,,,,
KRDR,06-25-2006,23:00,METAR,,310,8.0,,,9999.0,,27.0,9.0,30.25,1024.4,,,,,,,,,,,,,,,4/8 Partly Cloudy,72000.0,,FEW,7400.0,SCT,25000.0,,,,
KRDR,06-25-2006,22:00,METAR,,10,7.0,,,9999.0,,28.0,9.0,30.26,1024.9,,,,,,,,,,,,,,,2/8 Mostly Clear,72000.0,,FEW,7400.0,FEW,25000.0,,,,
KRDR,06-25-2006,21:00,METAR,,320,7.0,,,9999.0,,27.0,10.0,30.28,1025.4,,,,,,,,,,,,,,,2/8 Mostly Clear,72000.0,,FEW,7400.0,,,,,,
KRDR,06-25-2006,20:00,METAR,,,5.0,,,9999.0,,27.0,8.0,30.29,1025.7,,,,,,,,,,,,,,,2/8 Mostly Clear,72000.0,,FEW,6400.0,,,,,,
KRDR,06-25-2006,19:00,METAR,,,4.0,,,9999.0,,25.0,9.0,30.30,1026.3,,,,,,,,,,,,,,,2/8 Mostly Clear,72000.0,,FEW,4000.0,,,,,,
KRDR,06-25-2006,18:00,METAR,,330,5.0,,,9999.0,,25.0,8.0,30.31,1026.7,,,,,,,,,,,,,,,Clear,72000.0,,,73000.0,,,,,,
KRDR,06-25-2006,17:00,METAR,,320,9.0,,,9999.0,,24.0,9.0,30.31,1026.4,,,,,,,,,,,,,,,Clear,72000.0,,,73000.0,,,,,,
KRDR,06-25-2006,16:00,METAR,,330,8.0,,,9999.0,,23.0,11.0,30.31,1026.7,,,,,,,,,,,,,,,Clear,72000.0,,,73000.0,,,,,,
KRDR,06-25-2006,15:00,METAR,,320,7.0,,,9999.0,,21.0,12.0,30.31,1026.7,,,,,,,,,,,,,,,Clear,72000.0,,,73000.0,,,,,,
KRDR,06-25-2006,14:00,METAR,,330,9.0,,,9999.0,,18.0,13.0,30.31,1026.8,,,,,,,,,,,,,,,2/8 Mostly Clear,72000.0,,FEW,25000.0,,,,,,
KRDR,06-25-2006,13:00,METAR,,320,7.0,,,9999.0,,16.0,12.0,30.31,1026.9,,,,,,,,,,,,,,,2/8 Mostly Clear,72000.0,,FEW,25000.0,,,,,,
KRDR,06-25-2006,12:00,METAR,,310,4.0,,,9999.0,,13.0,10.0,30.30,1026.5,,,,,,,,,,,,,,,2/8 Mostly Clear,72000.0,,FEW,25000.0,,,,,,
KRDR,06-25-2006,11:00,METAR,,310,4.0,,,9999.0,,11.0,9.0,30.29,1025.9,,,,,,,,,,,,,,,2/8 Mostly Clear,72000.0,,FEW,25000.0,,,,,,
KRDR,06-25-2006,10:00,METAR,,300,5.0,,,9999.0,,11.0,9.0,30.29,1025.8,,,,,,,,,,,,,,,2/8 Mostly Clear,72000.0,,FEW,25000.0,,,,,,
KRDR,06-25-2006,09:00,METAR,,310,4.0,,,9999.0,,12.0,10.0,30.28,1025.3,,,,,,,,,,,,,,,2/8 Mostly Clear,72000.0,,FEW,25000.0,,,,,,
KRDR,06-25-2006,08:00,METAR,,310,4.0,,,9999.0,,13.0,12.0,30.26,1024.9,,,,,,,,,,,,,,,4/8 Partly Cloudy,72000.0,,SCT,25000.0,,,,,,
KRDR,06-25-2006,07:00,METAR,,300,4.0,,,9999.0,,13.0,12.0,30.26,1024.6,,,,,,,,,,,,,,,7/8 Mostly Cloudy,25000.0,,BKN,25000.0,,,,,,
KRDR,06-25-2006,06:00,METAR,,300,5.0,,,9999.0,,14.0,13.0,30.25,1024.4,,,,,,,,,,,,,,,7/8 Mostly Cloudy,25000.0,,BKN,25000.0,,,,,,
KRDR,06-25-2006,05:00,METAR,,280,3.0,,,9999.0,,14.0,12.0,30.23,1023.9,,,,,,,,,,,,,,,4/8 Partly Cloudy,72000.0,,SCT,25000.0,,,,,,
KRDR,06-25-2006,04:00,METAR,,280,5.0,,,9999.0,,14.0,12.0,30.23,1023.7,,,,,,,,,,,,,,,7/8 Mostly Cloudy,25000.0,,SCT,9900.0,BKN,25000.0,,,,
KRDR,06-25-2006,03:00,METAR,,300,5.0,,,9999.0,,15.0,12.0,30.21,1023.2,,,,,,,,,,,,,,,7/8 Mostly Cloudy,25000.0,,FEW,12000.0,BKN,25000.0,,,,
KRDR,06-25-2006,02:00,METAR,,280,5.0,,,9999.0,,17.0,12.0,30.19,1022.6,,,,,,,,,,,,,,,8/8 Overcast,25000.0,,SCT,12000.0,OVC,25000.0,,,,
KRDR,06-25-2006,01:00,METAR,,300,8.0,,,9999.0,,17.0,12.0,30.18,1022.2,,,,,,,,,,,,,,,8/8 Overcast,25000.0,,FEW,5000.0,SCT,9900.0,OVC,25000.0,,
KRDR,06-25-2006,00:00,METAR,,320,9.0,,,9999.0,,19.0,12.0,30.18,1022.1,,,,,,,,,,,,,,,8/8 Overcast,12000.0,,FEW,6400.0,BKN,12000.0,OVC,25000.0,,
KRDR,06-24-2006,23:36,SPECI,,330,10.0,,,9999.0,,20.0,12.0,30.17,,,,,,,,,,,,,,,,8/8 Overcast,12000.0,,SCT,5400.0,BKN,12000.0,OVC,25000.0,,
KRDR,06-24-2006,23:05,SPECI,,300,18.0,24.0,,9999.0,Thunderstorm,20.0,12.0,30.18,,,,,17,,,,,,,,,,,8/8 Overcast,5500.0,,BKN,5400.0,BKN,12000.0,OVC,25000.0,,
KRDR,06-24-2006,23:00,METAR,,320,18.0,25.0,320/25KTS,9999.0,Thunderstorm,21.0,11.0,30.16,1021.4,,,,17,,,,,,,,,,,8/8 Overcast,5500.0,,BKN,5400.0,BKN,12000.0,OVC,25000.0,,
KRDR,06-24-2006,22:00,METAR,,340,11.0,,,9999.0,Thunderstorm,24.0,12.0,30.12,1020.3,,,,17,,,,,,,,,,,7/8 Mostly Cloudy,25000.0,,SCT,4000.0,SCT,12000.0,BKN,25000.0,,
KRDR,06-24-2006,21:25,METAR,,360,10.0,,,9999.0,Thunderstorm,24.0,11.0,30.13,,,,,17,,,,,,,,,,,7/8 Mostly Cloudy,25000.0,,SCT,4000.0,SCT,12000.0,BKN,25000.0,,
KRDR,06-24-2006,21:00,METAR,,340,8.0,,,9999.0,,24.0,12.0,30.13,1020.4,,,,,,,,,,,,,,,7/8 Mostly Cloudy,25000.0,,SCT,4000.0,SCT,12000.0,BKN,25000.0,,
KRDR,06-24-2006,20:00,METAR,,330,7.0,,,9999.0,,24.0,11.0,30.13,1020.5,,,,,,,,,,,,,,,7/8 Mostly Cloudy,25000.0,,SCT,4000.0,SCT,12000.0,BKN,25000.0,,
KRDR,06-24-2006,19:00,METAR,,350,9.0,,,9999.0,,24.0,13.0,30.13,1020.8,,,,,,,,,,,,,,,7/8 Mostly Cloudy,25000.0,,FEW,4000.0,SCT,12000.0,BKN,25000.0,,
KRDR,06-24-2006,18:00,METAR,,320,7.0,,,9999.0,,23.0,13.0,30.15,1021.5,,,,,,,,,,,,,,,7/8 Mostly Cloudy,25000.0,,FEW,4000.0,SCT,12000.0,BKN,25000.0,,
KRDR,06-24-2006,17:00,METAR,,310,6.0,,,9999.0,,21.0,13.0,30.15,1021.4,,,,,,,,,,,,,,,7/8 Mostly Cloudy,25000.0,,SCT,12000.0,BKN,25000.0,,,,
KRDR,06-24-2006,16:00,METAR,,360,4.0,,,9999.0,,21.0,13.0,30.14,1021.1,,,,,,,,,,,,,,,7/8 Mostly Cloudy,25000.0,,SCT,12000.0,BKN,25000.0,,,,
KRDR,06-24-2006,15:00,METAR,,330,3.0,,,9999.0,,18.0,13.0,30.15,1021.3,,,,,,,,,,,,,,,7/8 Mostly Cloudy,25000.0,,SCT,12000.0,BKN,25000.0,,,,
KRDR,06-24-2006,14:00,METAR,,330,3.0,,,9999.0,,17.0,13.0,30.15,1021.2,,,,,,,,,,,,,,,7/8 Mostly Cloudy,25000.0,,SCT,12000.0,BKN,25000.0,,,,
KRDR,06-24-2006,13:00,METAR,,290,1.0,,,9999.0,,16.0,12.0,30.14,1020.8,,,,,,,,,,,,,,,7/8 Mostly Cloudy,25000.0,,SCT,12000.0,BKN,25000.0,,,,
KRDR,06-24-2006,12:00,METAR,,280,1.0,,,9999.0,,13.0,12.0,30.12,1020.4,,,,,,,,,,,,,,,7/8 Mostly Cloudy,25000.0,,SCT,12000.0,BKN,25000.0,,,,
KRDR,06-24-2006,11:00,METAR,,,2.0,,,9999.0,,10.0,10.0,30.12,1019.9,,,,,,,,,,,,,,,7/8 Mostly Cloudy,25000.0,,SCT,12000.0,BKN,25000.0,,,,
KRDR,06-24-2006,10:00,METAR,,230,1.0,,,9999.0,,10.0,9.0,30.10,1019.4,,,,,,,,,,,,,,,2/8 Mostly Clear,72000.0,,FEW,12000.0,,,,,,
KRDR,06-24-2006,09:00,METAR,,310,2.0,,,9999.0,,11.0,10.0,30.10,1019.3,,,,,,,,,,,,,,,2/8 Mostly Clear,72000.0,,FEW,25000.0,,,,,,
KRDR,06-24-2006,08:00,METAR,,,2.0,,,9999.0,,14.0,11.0,30.10,1019.3,,,,,,,,,,,,,,,Clear,72000.0,,,73000.0,,,,,,
KRDR,06-24-2006,07:00,METAR,,280,4.0,,,9999.0,,13.0,11.0,30.09,1019.0,,,,,,,,,,,,,,,Clear,72000.0,,,73000.0,,,,,,
KRDR,06-24-2006,06:00,METAR,,250,2.0,,,9999.0,,13.0,11.0,30.08,1018.9,,,,,,,,,,,,,TRACE,,2/8 Mostly Clear,72000.0,,FEW,25000.0,,,,,,
KRDR,06-24-2006,05:00,METAR,,210,3.0,,,9999.0,,14.0,12.0,30.09,1019.3,,,,,,,,,,,,,,,4/8 Partly Cloudy,72000.0,,FEW,9900.0,SCT,25000.0,,,,
KRDR,06-24-2006,04:00,METAR,,270,2.0,,,9999.0,,15.0,12.0,30.09,1019.1,,,,,,,,,,,,,,,7/8 Mostly Cloudy,10000.0,,FEW,5400.0,BKN,9900.0,,,,
KRDR,06-24-2006,03:20,METAR,,10,5.0,,,9999.0,,18.0,12.0,30.09,,,,,,,,,,,,,,,,7/8 Mostly Cloudy,10000.0,,SCT,5400.0,BKN,9900.0,BKN,25000.0,,
KRDR,06-24-2006,03:00,METAR,,60,4.0,,,9999.0,Light Rain Showers,19.0,11.0,30.08,1018.8,,,,80,,,,,,,,,,,7/8 Mostly Cloudy,10000.0,,FEW,5400.0,BKN,9900.0,BKN,25000.0,,
KRDR,06-24-2006,02:00,METAR,,10,7.0,,,9999.0,,22.0,12.0,30.05,1017.8,,,,,,,,,,,,,,,7/8 Mostly Cloudy,10000.0,,FEW,5900.0,BKN,9900.0,BKN,25000.0,,
KRDR,06-24-2006,01:00,METAR,,330,5.0,,,9999.0,,24.0,13.0,30.04,1017.5,,,,,,,,,,,,,,,7/8 Mostly Cloudy,25000.0,,FEW,5900.0,SCT,9900.0,BKN,25000.0,,
KRDR,06-24-2006,00:00,METAR,,350,8.0,,,9999.0,,24.0,15.0,30.04,1017.6,,,,,,,,,,,,,,,7/8 Mostly Cloudy,25000.0,,SCT,5900.0,SCT,9900.0,BKN,25000.0,,
KRDR,06-23-2006,23:00,METAR,,320,8.0,,,9999.0,,25.0,13.0,30.05,1017.7,,,,,,,,,,,,,,,7/8 Mostly Cloudy,10000.0,,SCT,5900.0,BKN,9900.0,BKN,25000.0,,
KRDR,06-23-2006,22:00,METAR,,300,7.0,,,9999.0,,26.0,12.0,30.05,1017.7,,,,,,,,,,,,,,,7/8 Mostly Cloudy,12000.0,,SCT,5900.0,BKN,12000.0,BKN,25000.0,,
KRDR,06-23-2006,21:00,METAR,,220,4.0,,,9999.0,,26.0,13.0,30.06,1018.1,,,,,,,,,,,,,,,7/8 Mostly Cloudy,12000.0,,FEW,4000.0,BKN,12000.0,BKN,25000.0,,
KRDR,06-23-2006,20:00,METAR,,220,7.0,,,9999.0,,25.0,14.0,30.08,1018.8,,,,,,,,,,,,,,,7/8 Mostly Cloudy,25000.0,,FEW,4000.0,SCT,12000.0,BKN,25000.0,,
KRDR,06-23-2006,19:00,METAR,,,4.0,,,9999.0,,23.0,13.0,30.10,1019.5,,,,,,,,,,,,,,,7/8 Mostly Cloudy,25000.0,,FEW,4000.0,SCT,12000.0,BKN,25000.0,,
KRDR,06-23-2006,18:00,METAR,,,6.0,,,9999.0,,20.0,13.0,30.12,1021.8,,,,,,,,,,,,,TRACE,,7/8 Mostly Cloudy,12000.0,,FEW,300.0,FEW,4000.0,SCT,7900.0,BKN,12000.0
KRDR,06-23-2006,17:13,SPECI,,,6.0,,,9999.0,,19.0,12.0,30.14,,,,,,,,,,,,,,,,7/8 Mostly Cloudy,8500.0,,FEW,3600.0,BKN,8400.0,BKN,12000.0,BKN,25000.0
KRDR,06-23-2006,17:00,METAR,,340,9.0,,,9999.0,Light Rain Showers,19.0,13.0,30.16,1021.8,,,,80,,,,,,,,,,,7/8 Mostly Cloudy,8000.0,,FEW,4000.0,BKN,7900.0,BKN,12000.0,BKN,25000.0
KRDR,06-23-2006,16:00,METAR,,350,9.0,,,9999.0,,21.0,14.0,30.14,1021.0,,,,,,,,,,,,,,,7/8 Mostly Cloudy,12000.0,,FEW,4000.0,BKN,12000.0,BKN,25000.0,,
KRDR,06-23-2006,15:00,METAR,,330,15.0,21.0,,9999.0,,20.0,14.0,30.11,1020.1,,,,,,,,,,,,,,,7/8 Mostly Cloudy,12000.0,,SCT,4000.0,BKN,12000.0,BKN,25000.0,,
KRDR,06-23-2006,14:00,METAR,,230,7.0,,,9999.0,,20.0,14.0,30.11,1019.9,,,,,,,,,,,,,,,7/8 Mostly Cloudy,25000.0,,SCT,12000.0,BKN,25000.0,,,,
KRDR,06-23-2006,13:00,METAR,,200,4.0,,,9999.0,,17.0,14.0,30.11,1020.0,,,,,,,,,,,,,,,7/8 Mostly Cloudy,25000.0,,FEW,12000.0,BKN,25000.0,,,,
KRDR,06-23-2006,12:00,METAR,,190,4.0,,,9999.0,,14.0,12.0,30.12,1020.2,,,,,,,,,,,,,,,7/8 Mostly Cloudy,25000.0,,FEW,12000.0,BKN,25000.0,,,,
KRDR,06-23-2006,11:00,METAR,,190,4.0,,,9999.0,,12.0,10.0,30.13,1020.5,,,,,,,,,,,,,,,4/8 Partly Cloudy,72000.0,,FEW,12000.0,SCT,25000.0,,,,
KRDR,06-23-2006,10:00,METAR,,190,4.0,,,9999.0,,12.0,10.0,30.13,1020.5,,,,,,,,,,,,,,,4/8 Partly Cloudy,72000.0,,SCT,25000.0,,,,,,
KRDR,06-23-2006,09:00,METAR,,180,3.0,,,9999.0,,12.0,10.0,30.14,1020.6,,,,,,,,,,,,,,,2/8 Mostly Clear,72000.0,,FEW,25000.0,,,,,,
KRDR,06-23-2006,08:00,METAR,,190,4.0,,,9999.0,,13.0,10.0,30.14,1020.9,,,,,,,,,,,,,,,2/8 Mostly Clear,72000.0,,FEW,25000.0,,,,,,
KRDR,06-23-2006,07:00,METAR,,190,4.0,,,9999.0,,14.0,11.0,30.14,1020.9,,,,,,,,,,,,,,,2/8 Mostly Clear,72000.0,,FEW,25000.0,,,,,,
KRDR,06-23-2006,06:00,METAR,,210,2.0,,,9999.0,,13.0,11.0,30.15,1021.2,,,,,,,,,,,,,,,2/8 Mostly Clear,72000.0,,FEW,25000.0,,,,,,
KRDR,06-23-2006,05:00,METAR,,190,3.0,,,9999.0,,14.0,12.0,30.14,1021.0,,,,,,,,,,,,,,,2/8 Mostly Clear,72000.0,,FEW,25000.0,,,,,,
KRDR,06-23-2006,04:00,METAR,,,2.0,,,9999.0,,14.0,12.0,30.13,1021.0,,,,,,,,,,,,,,,2/8 Mostly Clear,72000.0,,FEW,5900.0,FEW,25000.0,,,,
KRDR,06-23-2006,03:00,METAR,,180,2.0,,,9999.0,,17.0,13.0,30.13,1020.8,,,,,,,,,,,,,,,2/8 Mostly Clear,72000.0,,FEW,5900.0,FEW,25000.0,,,,
KRDR,06-23-2006,02:00,METAR,,,2.0,,,9999.0,,21.0,12.0,30.13,1020.6,,,,,,,,,,,,,,,2/8 Mostly Clear,72000.0,,FEW,5900.0,FEW,25000.0,,,,
KRDR,06-23-2006,01:00,METAR,,,1.0,,,9999.0,,22.0,11.0,30.13,1020.7,,,,,,,,,,,,,,,2/8 Mostly Clear,72000.0,,FEW,5000.0,FEW,25000.0,,,,
KRDR,06-23-2006,00:00,METAR,,,2.0,,,9999.0,,23.0,10.0,30.13,1020.7,,,,,,,,,,,,,,,2/8 Mostly Clear,72000.0,,FEW,5000.0,FEW,9900.0,,,,
KRDR,06-22-2006,23:00,METAR,,,6.0,,,9999.0,,23.0,10.0,30.14,1020.9,,,,,,,,,,,,,,,2/8 Mostly Clear,72000.0,,FEW,5000.0,FEW,9900.0,,,,
KRDR,06-22-2006,22:00,METAR,,,1.0,,,9999.0,,22.0,11.0,30.15,1021.4,,,,,,,,,,,,,,,4/8 Partly Cloudy,72000.0,,FEW,4000.0,SCT,9900.0,,,,
KRDR,06-22-2006,21:00,METAR,,,1.0,,,9999.0,,22.0,12.0,30.16,1021.8,,,,,,,,,,,,,,,7/8 Mostly Cloudy,25000.0,,SCT,4000.0,SCT,9400.0,BKN,25000.0,,
KRDR,06-22-2006,20:00,METAR,,190,5.0,,,9999.0,,21.0,12.0,30.17,1022.1,,,,,,,,,,,,,,,7/8 Mostly Cloudy,9000.0,,SCT,3900.0,BKN,8900.0,BKN,25000.0,,
KRDR,06-22-2006,19:00,METAR,,250,3.0,,,9999.0,,20.0,11.0,30.16,1021.8,,,,,,,,,,,,,,,7/8 Mostly Cloudy,8500.0,,SCT,3600.0,BKN,8400.0,,,,
KRDR,06-22-2006,18:00,METAR,,240,4.0,,,9999.0,,19.0,8.0,30.16,1022.0,,,,,,,,,,,,,.01 IN,,7/8 Mostly Cloudy,3700.0,,BKN,3800.0,BKN,6900.0,BKN,25000.0,,
KRDR,06-22-2006,17:00,METAR,,260,2.0,,,9999.0,,17.0,8.0,30.16,1021.8,,,,,,,,,,,,,,,7/8 Mostly Cloudy,4400.0,,FEW,2000.0,BKN,4500.0,BKN,7400.0,BKN,25000.0
KRDR,06-22-2006,16:00,METAR,,220,3.0,,,9999.0,,16.0,8.0,30.16,1021.8,,,,,,,,,,,,,,,7/8 Mostly Cloudy,4400.0,,FEW,2000.0,BKN,4500.0,BKN,7400.0,BKN,25000.0
KRDR,06-22-2006,15:00,METAR,,250,4.0,,,9999.0,,14.0,9.0,30.15,1021.4,,,,,,,,,,,,TRACE,,,8/8 Overcast,4900.0,,FEW,2000.0,BKN,5000.0,OVC,7400.0,,
KRDR,06-22-2006,14:48,SPECI,,260,3.0,,,9999.0,,14.0,10.0,30.15,,,,,,,,,,,,,,,,8/8 Overcast,4900.0,,FEW,2000.0,BKN,5000.0,OVC,7400.0,,
KRDR,06-22-2006,14:00,METAR,,280,2.0,,,9999.0,Rain,13.0,10.0,30.14,1021.3,,,,61,,,,,,,,,,,8/8 Overcast,4900.0,,FEW,2000.0,BKN,5000.0,OVC,7400.0,,
KRDR,06-22-2006,13:00,METAR,,230,3.0,,,9999.0,Rain,13.0,11.0,30.12,1020.3,,,,61,,,,,,,,,,,8/8 Overcast,5500.0,,FEW,2500.0,BKN,5400.0,OVC,7400.0,,
KRDR,06-22-2006,12:00,METAR,,270,1.0,,,9999.0,Rain,12.0,10.0,30.11,1020.0,,,,61,,,,,,,,,.03 IN,.04 IN,8/8 Overcast,5500.0,,FEW,2500.0,BKN,5400.0,OVC,7400.0,,
KRDR,06-22-2006,11:00,METAR,,300,2.0,,,9999.0,Rain,12.0,10.0,30.09,1019.5,,,,61,,,,,,,,,,,8/8 Overcast,6500.0,,FEW,4500.0,BKN,6400.0,OVC,20000.0,,
KRDR,06-22-2006,10:00,METAR,,290,3.0,,,9999.0,,12.0,10.0,30.08,1019.0,,,,,,,,,,,,,,,8/8 Overcast,7000.0,,BKN,6900.0,OVC,20000.0,,,,
KRDR,06-22-2006,09:00,METAR,,310,2.0,,,9999.0,,11.0,9.0,30.05,1018.0,,,,,,,,,,,,,,,8/8 Overcast,8000.0,,FEW,5000.0,BKN,7900.0,OVC,20000.0,,
KRDR,06-22-2006,08:00,METAR,,330,2.0,,,9999.0,,12.0,10.0,30.03,1017.3,,,,,,,,,,,,,,,8/8 Overcast,11000.0,,FEW,5000.0,BKN,11000.0,OVC,20000.0,,
KRDR,06-22-2006,07:00,METAR,,310,4.0,,,9999.0,,13.0,11.0,30.01,1016.6,,,,,,,,,,,,,,,7/8 Mostly Cloudy,9500.0,,FEW,3500.0,BKN,9400.0,BKN,20000.0,,
KRDR,06-22-2006,06:00,METAR,,320,5.0,,,9999.0,,14.0,11.0,30.00,1016.2,,,,,,,,,,,,,,,7/8 Mostly Cloudy,20000.0,,FEW,3500.0,SCT,9900.0,BKN,20000.0,,
KRDR,06-22-2006,05:00,METAR,,330,7.0,,,9999.0,,15.0,12.0,29.98,1015.6,,,,,,,,,,,,,,,7/8 Mostly Cloudy,10000.0,,FEW,3500.0,BKN,9900.0,BKN,20000.0,,
KRDR,06-22-2006,04:00,METAR,,340,9.0,,,9999.0,,17.0,14.0,29.96,1014.8,,,,,,,,,,,,,,,7/8 Mostly Cloudy,10000.0,,SCT,3500.0,SCT,5000.0,BKN,9900.0,BKN,20000.0
KRDR,06-22-2006,03:00,METAR,,340,6.0,,,9999.0,,18.0,15.0,29.92,1013.4,,,,,,,,,,,,TRACE,,,7/8 Mostly Cloudy,9500.0,,SCT,3500.0,BKN,9400.0,BKN,20000.0,,
KRDR,06-22-2006,02:41,SPECI,,340,9.0,,,9999.0,,18.0,15.0,29.91,,,,,,,,,,,,,,,,7/8 Mostly Cloudy,6000.0,,SCT,3500.0,BKN,5900.0,BKN,9400.0,BKN,20000.0
KRDR,06-22-2006,02:00,METAR,,330,11.0,,,9999.0,Light Rain Showers,19.0,14.0,29.89,1012.4,,,,80,,,,,,,,,,,7/8 Mostly Cloudy,3800.0,,BKN,3900.0,BKN,5900.0,BKN,20000.0,,
KRDR,06-22-2006,01:46,SPECI,,330,11.0,,,9999.0,Light Rain Showers,20.0,14.0,29.89,,,,,80,,,,,,,,,,,7/8 Mostly Cloudy,6000.0,,SCT,3500.0,BKN,5900.0,BKN,9900.0,,
KRDR,06-22-2006,01:00,METAR,,290,12.0,,,9999.0,,21.0,14.0,29.85,1011.1,,,,,,,,,,,,,,,7/8 Mostly Cloudy,8500.0,,FEW,4000.0,BKN,8400.0,BKN,20000.0,,
KRDR,06-22-2006,00:00,METAR,,300,13.0,20.0,320/26KTS,9999.0,,22.0,14.0,29.82,1009.9,,,,,,,,,,,,,.01 IN,,7/8 Mostly Cloudy,20000.0,,FEW,3700.0,SCT,5900.0,BKN,20000.0,,
KRDR,06-21-2006,23:00,METAR,,300,12.0,,280/29KTS,9999.0,,21.0,15.0,29.80,1009.4,,,,,,,,,,,,,,,7/8 Mostly Cloudy,20000.0,,FEW,3500.0,SCT,5900.0,BKN,20000.0,,
KRDR,06-21-2006,22:16,SPECI,,290,11.0,29.0,,9999.0,Precipitation in the Vicinity,20.0,16.0,29.80,,,,,16,,,,,,,,,,,7/8 Mostly Cloudy,6000.0,,SCT,3500.0,BKN,5900.0,BKN,9900.0,,
KRDR,06-21-2006,22:07,SPECI,,300,15.0,22.0,,9999.0,Light Rain Showers,23.0,14.0,29.80,,,,,80,,,,,,,,,,,7/8 Mostly Cloudy,6000.0,,SCT,3500.0,BKN,5900.0,BKN,9900.0,,
KRDR,06-21-2006,22:00,METAR,,290,14.0,22.0,290/28KTS,9999.0,,24.0,14.0,29.79,1009.0,,,,,,,,,,,,,,,7/8 Mostly Cloudy,6000.0,,FEW,3500.0,BKN,5900.0,BKN,9900.0,,
KRDR,06-21-2006,21:00,METAR,,270,19.0,29.0,280/31KTS,9999.0,,24.0,13.0,29.77,1008.2,,,,,,,,,,,,,,,7/8 Mostly Cloudy,4900.0,,SCT,3500.0,BKN,5000.0,BKN,9900.0,,
KRDR,06-21-2006,20:00,METAR,,290,14.0,24.0,280/26KTS,9999.0,,23.0,14.0,29.75,1007.6,,,,,,,,,,,,,,,7/8 Mostly Cloudy,4900.0,,SCT,3500.0,BKN,5000.0,BKN,9900.0,,
KRDR,06-21-2006,19:00,METAR,,270,17.0,22.0,290/32KTS,9999.0,Precipitation in the Vicinity,22.0,14.0,29.75,1007.2,,,,16,,,,,,,,,,,7/8 Mostly Cloudy,10000.0,,FEW,3500.0,SCT,6400.0,BKN,9900.0,BKN,18000.0
KRDR,06-21-2006,18:00,METAR,,270,16.0,25.0,270/29KTS,9999.0,Precipitation in the Vicinity,22.0,13.0,29.73,1006.7,,,,16,,,,,,,,,TRACE,,7/8 Mostly Cloudy,10000.0,,FEW,3500.0,SCT,4500.0,BKN,9900.0,BKN,18000.0
KRDR,06-21-2006,17:00,METAR,,250,16.0,27.0,280/28KTS,9999.0,Precipitation in the Vicinity,20.0,13.0,29.73,1006.8,,,,16,,,,,,,,,,,7/8 Mostly Cloudy,9000.0,,FEW,3300.0,SCT,5000.0,BKN,8900.0,BKN,18000.0
KRDR,06-21-2006,16:20,METAR,,270,14.0,24.0,,9999.0,Precipitation in the Vicinity,20.0,12.0,29.72,,,,,16,,,,,,,,,,,7/8 Mostly Cloudy,4900.0,,SCT,3300.0,BKN,5000.0,BKN,18000.0,,
KRDR,06-21-2006,16:10,SPECI,,260,16.0,22.0,,9999.0,Light Rain Showers,20.0,12.0,29.72,,,,,80,,,,,,,,,,,7/8 Mostly Cloudy,5500.0,,SCT,3500.0,BKN,5400.0,BKN,18000.0,,
KRDR,06-21-2006,16:00,METAR,,260,16.0,22.0,290/31KTS,9999.0,,20.0,12.0,29.72,1006.3,,,,,,,,,,,,,,,7/8 Mostly Cloudy,6000.0,,SCT,3900.0,BKN,5900.0,BKN,18000.0,,
KRDR,06-21-2006,15:00,METAR,,280,16.0,26.0,280/28KTS,9999.0,,20.0,12.0,29.71,1006.0,,,,,,,,,,,,,,,7/8 Mostly Cloudy,3200.0,,BKN,3300.0,BKN,18000.0,,,,
KRDR,06-21-2006,14:00,METAR,,260,15.0,21.0,,9999.0,,18.0,11.0,29.70,1005.6,,,,,,,,,,,,,,,7/8 Mostly Cloudy,18000.0,,FEW,4000.0,SCT,9900.0,BKN,18000.0,,
KRDR,06-21-2006,13:00,METAR,,260,11.0,17.0,,9999.0,,17.0,11.0,29.70,1005.6,,,,,,,,,,,,,,,2/8 Mostly Clear,72000.0,,FEW,4000.0,FEW,9900.0,,,,
KRDR,06-21-2006,12:00,METAR,,240,11.0,,,9999.0,,16.0,10.0,29.71,1005.8,,,,,,,,,,,,,TRACE,,2/8 Mostly Clear,72000.0,,FEW,9900.0,,,,,,
KRDR,06-21-2006,11:00,METAR,,210,6.0,,,9999.0,,15.0,10.0,29.71,1006.2,,,,,,,,,,,,,,,Clear,72000.0,,,73000.0,,,,,,
KRDR,06-21-2006,10:00,METAR,,240,8.0,,,9999.0,,15.0,10.0,29.70,1005.9,,,,,,,,,,,,,,,Clear,72000.0,,,73000.0,,,,,,
KRDR,06-21-2006,09:00,METAR,,240,6.0,,,9999.0,,17.0,10.0,29.70,1005.8,,,,,,,,,,,,TRACE,,,2/8 Mostly Clear,72000.0,,FEW,9900.0,,,,,,
KRDR,06-21-2006,08:00,METAR,,240,8.0,,,9999.0,,16.0,12.0,29.71,1006.3,,,,,,,,,,,,,,,7/8 Mostly Cloudy,11000.0,,SCT,7900.0,BKN,11000.0,BKN,25000.0,,
KRDR,06-21-2006,07:15,SPECI,,240,4.0,,,9999.0,,17.0,11.0,29.70,,,,,,,,,,,,,,,,7/8 Mostly Cloudy,9000.0,,FEW,6900.0,BKN,8900.0,BKN,25000.0,,
KRDR,06-21-2006,07:05,SPECI,,230,5.0,,,9999.0,Light Rain Showers,17.0,12.0,29.71,,,,,80,,,,,,,,,,,7/8 Mostly Cloudy,9000.0,,FEW,6900.0,BKN,8900.0,BKN,25000.0,,
KRDR,06-21-2006,07:00,METAR,,220,5.0,,,9999.0,,17.0,12.0,29.71,1006.3,,,,,,,,,,,,,,,7/8 Mostly Cloudy,9500.0,,FEW,6900.0,BKN,9400.0,BKN,25000.0,,
KRDR,06-21-2006,06:41,SPECI,,230,5.0,,,9999.0,,17.0,11.0,29.71,,,,,,,,,,,,,,,,4/8 Partly Cloudy,72000.0,,FEW,6900.0,SCT,12000.0,SCT,25000.0,,
KRDR,06-21-2006,06:21,SPECI,,250,3.0,,,9999.0,Thunderstorm,17.0,11.0,29.71,,,,,17,,,,,,,,,,,4/8 Partly Cloudy,72000.0,,FEW,6900.0,SCT,12000.0,SCT,25000.0,,
KRDR,06-21-2006,06:00,METAR,,240,7.0,,,9999.0,,17.0,12.0,29.72,1006.7,,,,,,,,,,,,,,,4/8 Partly Cloudy,72000.0,,FEW,6900.0,SCT,12000.0,SCT,25000.0,,
KRDR,06-21-2006,05:00,METAR,,220,5.0,,,9999.0,,16.0,12.0,29.72,1006.8,,,,,,,,,,,,,,,4/8 Partly Cloudy,72000.0,,SCT,12000.0,SCT,25000.0,,,,
KRDR,06-21-2006,04:00,METAR,,220,6.0,,,9999.0,,17.0,12.0,29.72,1006.8,,,,,,,,,,,,,,,2/8 Mostly Clear,72000.0,,FEW,8900.0,FEW,25000.0,,,,
KRDR,06-21-2006,03:00,METAR,,220,5.0,,,9999.0,,19.0,13.0,29.71,1006.0,,,,,,,,,,,,,,,2/8 Mostly Clear,72000.0,,FEW,9900.0,FEW,25000.0,,,,
KRDR,06-21-2006,02:00,METAR,,250,6.0,,,9999.0,,24.0,12.0,29.70,1005.6,,,,,,,,,,,,,,,4/8 Partly Cloudy,72000.0,,FEW,6900.0,SCT,25000.0,,,,
KRDR,06-21-2006,01:00,METAR,,270,9.0,,,9999.0,,27.0,14.0,29.69,1005.2,,,,,,,,,,,,,,,4/8 Partly Cloudy,72000.0,,SCT,6900.0,,,,,,
KRDR,06-21-2006,00:00,METAR,,200,8.0,,,9999.0,,27.0,14.0,29.70,1005.4,,,,,,,,,,,,,,,4/8 Partly Cloudy,72000.0,,SCT,6900.0,,,,,,
KRDR,06-20-2006,23:00,METAR,,190,13.0,,,9999.0,,27.0,14.0,29.71,1005.8,,,,,,,,,,,,,,,4/8 Partly Cloudy,72000.0,,SCT,6900.0,,,,,,
KRDR,06-20-2006,22:00,METAR,,180,14.0,,,9999.0,,28.0,14.0,29.72,1006.3,,,,,,,,,,,,,,,4/8 Partly Cloudy,72000.0,,SCT,4000.0,,,,,,
KRDR,06-20-2006,21:00,METAR,,180,14.0,21.0,,9999.0,,27.0,14.0,29.75,1007.4,,,,,,,,,,,,,,,7/8 Mostly Cloudy,25000.0,,SCT,4000.0,SCT,11000.0,BKN,25000.0,,
KRDR,06-20-2006,20:00,METAR,,150,13.0,,,9999.0,,25.0,15.0,29.77,1008.0,,,,,,,,,,,,,,,4/8 Partly Cloudy,72000.0,,FEW,4000.0,SCT,8900.0,,,,
KRDR,06-20-2006,19:00,METAR,,170,16.0,23.0,,9999.0,,24.0,15.0,29.80,1008.9,,,,,,,,,,,,,,,4/8 Partly Cloudy,72000.0,,FEW,4000.0,SCT,8900.0,,,,
KRDR,06-20-2006,18:00,METAR,,160,16.0,,,9999.0,,21.0,15.0,29.83,1010.0,,,,,,,,,,,,,TRACE,,7/8 Mostly Cloudy,9000.0,,FEW,2500.0,BKN,8900.0,,,,
KRDR,06-20-2006,17:00,METAR,,150,10.0,,,9999.0,,18.0,15.0,29.85,1010.8,,,,,,,,,,,,,,,7/8 Mostly Cloudy,9000.0,,BKN,8900.0,BKN,12000.0,,,,
KRDR,06-20-2006,16:00,METAR,,170,8.0,,,9999.0,Rain,19.0,15.0,29.85,1010.8,,,,61,,,,,,,,,,,8/8 Overcast,8000.0,,BKN,7900.0,OVC,12000.0,,,,
KRDR,06-20-2006,15:39,SPECI,,180,9.0,,,9999.0,Rain,19.0,14.0,29.85,,,,,61,,,,,,,,,,,8/8 Overcast,7500.0,,BKN,7400.0,OVC,12000.0,,,,
KRDR,06-20-2006,15:00,METAR,,180,6.0,,,9999.0,Precipitation in the Vicinity,18.0,14.0,29.86,1011.2,,,,16,,,,,,,,TRACE,,,8/8 Overcast,7000.0,,FEW,5400.0,BKN,6900.0,OVC,12000.0,,
KRDR,06-20-2006,14:09,SPECI,,170,5.0,,,9999.0,Precipitation in the Vicinity,18.0,15.0,29.86,,,,,16,,,,,,,,,,,8/8 Overcast,7000.0,,FEW,5400.0,BKN,6900.0,OVC,12000.0,,
KRDR,06-20-2006,14:00,METAR,,170,5.0,,,9999.0,Rain,18.0,14.0,29.86,1011.1,,,,61,,,,,,,,,,,8/8 Overcast,7000.0,,FEW,5400.0,BKN,6900.0,OVC,12000.0,,
KRDR,06-20-2006,13:28,SPECI,,200,6.0,,,9999.0,Rain,18.0,14.0,29.87,,,,,61,,,,,,,,,,,8/8 Overcast,7000.0,,BKN,6900.0,OVC,12000.0,,,,
KRDR,06-20-2006,13:00,METAR,,200,7.0,,,9999.0,Precipitation in the Vicinity,18.0,13.0,29.86,1011.0,,,,16,,,,,,,,,,,8/8 Overcast,7000.0,,BKN,6900.0,OVC,12000.0,,,,
KRDR,06-20-2006,12:00,METAR,,170,7.0,,,9999.0,,18.0,14.0,29.85,1010.5,,,,,,,,,,,,,,,8/8 Overcast,12000.0,,SCT,7400.0,BKN,12000.0,OVC,25000.0,,
KRDR,06-20-2006,11:00,METAR,,170,7.0,,,9999.0,,17.0,13.0,29.84,1010.4,,,,,,,,,,,,,,,8/8 Overcast,25000.0,,SCT,6900.0,OVC,25000.0,,,,
KRDR,06-20-2006,10:00,METAR,,160,5.0,,,9999.0,,16.0,13.0,29.84,1010.6,,,,,,,,,,,,,,,7/8 Mostly Cloudy,25000.0,,BKN,25000.0,,,,,,
KRDR,06-20-2006,09:00,METAR,,150,5.0,,,9999.0,,16.0,13.0,29.88,1012.0,,,,,,,,,,,,,,,7/8 Mostly Cloudy,25000.0,,BKN,25000.0,,,,,,
KRDR,06-20-2006,08:00,METAR,,200,6.0,,,9999.0,,16.0,13.0,29.89,1012.4,,,,,,,,,,,,,,,7/8 Mostly Cloudy,25000.0,,BKN,25000.0,,,,,,
KRDR,06-20-2006,07:00,METAR,,210,4.0,,,9999.0,,18.0,14.0,29.91,1013.1,,,,,,,,,,,,,,,4/8 Partly Cloudy,72000.0,,SCT,25000.0,,,,,,
KRDR,06-20-2006,06:00,METAR,,190,6.0,,,9999.0,,17.0,13.0,29.90,1012.7,,,,,,,,,,,,,,,2/8 Mostly Clear,72000.0,,FEW,25000.0,,,,,,
KRDR,06-20-2006,05:00,METAR,,200,4.0,,,9999.0,,18.0,15.0,29.90,1012.8,,,,,,,,,,,,,,,4/8 Partly Cloudy,72000.0,,SCT,25000.0,,,,,,
KRDR,06-20-2006,04:00,METAR,,200,2.0,,,9999.0,,18.0,14.0,29.89,1012.5,,,,,,,,,,,,,,,7/8 Mostly Cloudy,25000.0,,FEW,9900.0,BKN,25000.0,,,,
KRDR,06-20-2006,03:00,METAR,,190,2.0,,,9999.0,,20.0,16.0,29.91,1012.7,,,,,,,,,,,,,,,7/8 Mostly Cloudy,25000.0,,FEW,9900.0,BKN,25000.0,,,,
KRDR,06-20-2006,02:00,METAR,,210,2.0,,,9999.0,,23.0,16.0,29.90,1012.5,,,,,,,,,,,,,,,7/8 Mostly Cloudy,25000.0,,BKN,25000.0,,,,,,
KRDR,06-20-2006,01:00,METAR,,280,3.0,,,9999.0,,25.0,15.0,29.91,1012.9,,,,,,,,,,,,,,,7/8 Mostly Cloudy,25000.0,,FEW,5900.0,BKN,25000.0,,,,
KRDR,06-20-2006,00:00,METAR,,280,5.0,,,9999.0,,26.0,14.0,29.92,1013.1,,,,,,,,,,,,,,,7/8 Mostly Cloudy,25000.0,,SCT,5900.0,BKN,25000.0,,,,
KRDR,06-19-2006,23:00,METAR,,240,5.0,,,9999.0,,27.0,14.0,29.93,1013.7,,,,,,,,,,,,,,,7/8 Mostly Cloudy,25000.0,,SCT,5900.0,BKN,25000.0,,,,
KRDR,06-19-2006,22:00,METAR,,240,5.0,,,9999.0,,27.0,14.0,29.94,1013.8,,,,,,,,,,,,,,,7/8 Mostly Cloudy,5500.0,,BKN,5400.0,BKN,25000.0,,,,
KRDR,06-19-2006,21:00,METAR,,280,9.0,,,9999.0,,26.0,14.0,29.95,1014.2,,,,,,,,,,,,,,,7/8 Mostly Cloudy,5500.0,,BKN,5400.0,BKN,25000.0,,,,
KRDR,06-19-2006,20:00,METAR,,270,7.0,,,9999.0,,26.0,14.0,29.96,1014.5,,,,,,,,,,,,,,,7/8 Mostly Cloudy,25000.0,,SCT,5400.0,BKN,25000.0,,,,
KRDR,06-19-2006,19:00,METAR,,230,7.0,,,9999.0,,25.0,14.0,30.00,1015.1,,,,,,,,,,,,,,,7/8 Mostly Cloudy,25000.0,,SCT,5400.0,BKN,25000.0,,,,
KRDR,06-19-2006,18:00,METAR,,230,9.0,,,9999.0,,25.0,14.0,30.00,1015.9,,,,,,,,,,,,,,,4/8 Partly Cloudy,72000.0,,SCT,5000.0,SCT,25000.0,,,,
KRDR,06-19-2006,17:00,METAR,,170,7.0,,,9999.0,,23.0,12.0,30.01,1016.4,,,,,,,,,,,,,,,4/8 Partly Cloudy,72000.0,,FEW,5400.0,SCT,25000.0,,,,
KRDR,06-19-2006,16:00,METAR,,,5.0,,,9999.0,,21.0,11.0,30.02,1016.5,,,,,,,,,,,,,,,2/8 Mostly Clear,72000.0,,FEW,4500.0,FEW,25000.0,,,,
KRDR,06-19-2006,15:00,METAR,,,4.0,,,9999.0,,20.0,11.0,30.02,1016.7,,,,,,,,,,,,,,,2/8 Mostly Clear,72000.0,,FEW,25000.0,,,,,,
KRDR,06-19-2006,14:00,METAR,,,3.0,,,9999.0,,18.0,11.0,30.02,1016.7,,,,,,,,,,,,,,,2/8 Mostly Clear,72000.0,,FEW,25000.0,,,,,,
KRDR,06-19-2006,13:00,METAR,,250,2.0,,,9999.0,,15.0,12.0,30.03,1017.2,,,,,,,,,,,,,,,2/8 Mostly Clear,72000.0,,FEW,12000.0,,,,,,
KRDR,06-19-2006,12:00,METAR,,250,2.0,,,9999.0,,13.0,10.0,30.01,1016.4,,,,,,,,,,,,,,.1 IN,2/8 Mostly Clear,72000.0,,FEW,5900.0,FEW,25000.0,,,,
KRDR,06-19-2006,11:00,METAR,,250,2.0,,,9999.0,,10.0,9.0,29.98,1015.7,,,,,,,,,,,,,,,2/8 Mostly Clear,72000.0,,FEW,8900.0,,,,,,
KRDR,06-19-2006,10:00,METAR,,300,5.0,,,9999.0,,11.0,10.0,29.96,1014.9,,,,,,,,,,,,,,,2/8 Mostly Clear,72000.0,,FEW,5000.0,,,,,,
KRDR,06-19-2006,09:00,METAR,,290,6.0,,,9999.0,,12.0,10.0,29.94,1014.4,,,,,,,,,,,,,,,2/8 Mostly Clear,72000.0,,FEW,5000.0,,,,,,
KRDR,06-19-2006,08:00,METAR,,290,6.0,,,9999.0,,13.0,10.0,29.93,1013.9,,,,,,,,,,,,,,,4/8 Partly Cloudy,72000.0,,FEW,5000.0,SCT,25000.0,,,,
KRDR,06-19-2006,07:00,METAR,,310,8.0,,,9999.0,,14.0,11.0,29.91,1013.4,,,,,,,,,,,,,,,4/8 Partly Cloudy,72000.0,,FEW,5000.0,SCT,25000.0,,,,
KRDR,06-19-2006,06:00,METAR,,300,8.0,,,9999.0,,14.0,11.0,29.90,1012.8,,,,,,,,,,,,,.1 IN,,4/8 Partly Cloudy,72000.0,,FEW,5000.0,SCT,25000.0,,,,
KRDR,06-19-2006,05:00,METAR,,300,8.0,,,9999.0,,15.0,12.0,29.88,1012.1,,,,,,,,,,,,,,,7/8 Mostly Cloudy,25000.0,,SCT,5000.0,BKN,25000.0,,,,
KRDR,06-19-2006,04:00,METAR,,320,10.0,,,9999.0,,17.0,13.0,29.86,1011.5,,,,,,,,,,,,,,,7/8 Mostly Cloudy,4900.0,,BKN,5000.0,BKN,25000.0,,,,
KRDR,06-19-2006,03:00,METAR,,330,8.0,,,9999.0,,17.0,14.0,29.84,1010.4,,,,,,,,,,,,.1 IN,,,7/8 Mostly Cloudy,4800.0,,BKN,4900.0,BKN,25000.0,,,,
KRDR,06-19-2006,02:18,SPECI,,330,17.0,,,9999.0,,17.0,13.0,29.82,,,,,,,,,,,,,,,,7/8 Mostly Cloudy,4800.0,,FEW,2400.0,BKN,4900.0,BKN,25000.0,,
KRDR,06-19-2006,02:00,METAR,,300,15.0,24.0,350/28KTS,9999.0,,17.0,14.0,29.82,1009.4,,,,,,,,,,,,,,,7/8 Mostly Cloudy,4400.0,,FEW,1200.0,SCT,2400.0,BKN,4500.0,BKN,25000.0
KRDR,06-19-2006,01:00,METAR,,300,11.0,,260/26KTS,9999.0,,17.0,15.0,29.78,1008.4,,,,,,,,,,,,,,,7/8 Mostly Cloudy,4600.0,,FEW,2800.0,SCT,3500.0,BKN,4700.0,BKN,25000.0
KRDR,06-19-2006,00:41,SPECI,,300,6.0,,,9999.0,,17.0,15.0,29.78,,,,,,,,,,,,,,,,7/8 Mostly Cloudy,4600.0,,FEW,2800.0,SCT,3500.0,BKN,4700.0,BKN,25000.0
KRDR,06-19-2006,00:17,SPECI,,260,9.0,,,6400.0,Rain,20.0,15.0,29.73,,,,,61,,,,,,,,,,,7/8 Mostly Cloudy,3400.0,,SCT,2800.0,BKN,3500.0,BKN,4700.0,,
KRDR,06-19-2006,00:07,SPECI,,260,21.0,26.0,,1600.0,Rain,20.0,15.0,29.73,,,,,63,,,,,,,,,,,7/8 Mostly Cloudy,3400.0,,FEW,300.0,SCT,2800.0,BKN,3500.0,BKN,4700.0
KRDR,06-19-2006,00:00,METAR,,260,16.0,22.0,290/27KTS,9999.0,Rain,20.0,15.0,29.73,1006.8,,,,61,,,,,,,,,TRACE,,7/8 Mostly Cloudy,3400.0,,SCT,2800.0,BKN,3500.0,BKN,4700.0,,
KRDR,06-18-2006,23:39,SPECI,,260,14.0,,,9999.0,Rain,20.0,15.0,29.73,,,,,61,,,,,,,,,,,7/8 Mostly Cloudy,4000.0,,SCT,2800.0,BKN,4100.0,,,,
KRDR,06-18-2006,23:00,METAR,,260,17.0,22.0,270/26KTS,9999.0,,21.0,14.0,29.72,1006.4,,,,,,,,,,,,,,,7/8 Mostly Cloudy,4000.0,,SCT,2800.0,BKN,4100.0,BKN,9900.0,,
KRDR,06-18-2006,22:00,METAR,,260,17.0,27.0,280/31KTS,9999.0,,21.0,14.0,29.71,1006.1,,,,,,,,,,,,,,,7/8 Mostly Cloudy,4000.0,,FEW,2800.0,BKN,4100.0,BKN,9900.0,,
KRDR,06-18-2006,21:00,METAR,,270,16.0,25.0,280/30KTS,9999.0,,20.0,13.0,29.70,1005.8,,,,,,,,,,,,TRACE,,,8/8 Overcast,4000.0,,FEW,2800.0,BKN,4100.0,OVC,6400.0,,
KRDR,06-18-2006,20:00,METAR,,270,16.0,25.0,280/31KTS,9999.0,,19.0,13.0,29.70,1005.8,,,,,,,,,,,,,,,8/8 Overcast,2900.0,,BKN,2900.0,OVC,9900.0,,,,
KRDR,06-18-2006,19:36,SPECI,,270,14.0,23.0,,9999.0,Rain,18.0,13.0,29.71,,,,,61,,,,,,,,,,,8/8 Overcast,3000.0,,OVC,3000.0,,,,,,
KRDR,06-18-2006,19:26,SPECI,,270,15.0,26.0,,9999.0,,18.0,13.0,29.70,,,,,,,,,,,,,,,,8/8 Overcast,3100.0,,BKN,3100.0,OVC,9900.0,,,,
KRDR,06-18-2006,19:00,METAR,,270,18.0,25.0,260/27KTS,9999.0,Rain,19.0,13.0,29.70,1005.3,,,,61,,,,,,,,,,,8/8 Overcast,3100.0,,BKN,3200.0,OVC,9900.0,,,,
KRDR,06-18-2006,18:00,METAR,,270,22.0,27.0,280/29KTS,9999.0,,19.0,11.0,29.68,1005.3,,,,,,,,,,,,,,,8/8 Overcast,4400.0,,BKN,4500.0,BKN,9900.0,OVC,25000.0,,
KRDR,06-18-2006,17:00,METAR,,280,21.0,28.0,,9999.0,,20.0,11.0,29.67,1004.8,,,,,,,,,,,,,,,7/8 Mostly Cloudy,4200.0,,BKN,4300.0,BKN,25000.0,,,,
KRDR,06-18-2006,16:00,METAR,,270,22.0,27.0,270/32KTS,9999.0,,19.0,10.0,29.67,1005.0,,,,,,,,,,,,,,,8/8 Overcast,4100.0,,BKN,4200.0,OVC,25000.0,,,,
KRDR,06-18-2006,15:00,METAR,,260,22.0,29.0,270/30KTS,9999.0,,20.0,10.0,29.66,1004.5,,,,,,,,,,,,,,,7/8 Mostly Cloudy,4400.0,,BKN,4500.0,BKN,25000.0,,,,
KRDR,06-18-2006,14:00,METAR,,270,21.0,28.0,,9999.0,,19.0,10.0,29.66,1004.4,,,,,,,,,,,,,,,4/8 Partly Cloudy,72000.0,,FEW,3000.0,SCT,25000.0,,,,
KRDR,06-18-2006,13:00,METAR,,260,16.0,23.0,,9999.0,,17.0,10.0,29.67,1004.7,,,,,,,,,,,,,,,4/8 Partly Cloudy,72000.0,,FEW,7900.0,SCT,25000.0,,,,
KRDR,06-18-2006,12:00,METAR,,250,13.0,,,9999.0,,17.0,11.0,29.67,1004.8,,,,,,,,,,,,,,,4/8 Partly Cloudy,72000.0,,FEW,7900.0,SCT,25000.0,,,,
KRDR,06-18-2006,11:00,METAR,,240,14.0,,,9999.0,,16.0,10.0,29.66,1004.4,,,,,,,,,,,,,,,4/8 Partly Cloudy,72000.0,,FEW,7900.0,SCT,25000.0,,,,
KRDR,06-18-2006,10:00,METAR,,240,11.0,17.0,,9999.0,,17.0,10.0,29.66,1004.2,,,,,,,,,,,,,,,2/8 Mostly Clear,72000.0,,FEW,7900.0,FEW,25000.0,,,,
KRDR,06-18-2006,09:00,METAR,,250,12.0,,,9999.0,,17.0,9.0,29.66,1004.2,,,,,,,,,,,,,,,2/8 Mostly Clear,72000.0,,FEW,25000.0,,,,,,
KRDR,06-18-2006,08:00,METAR,,250,10.0,21.0,,9999.0,,18.0,10.0,29.67,1004.6,,,,,,,,,,,,,,,2/8 Mostly Clear,72000.0,,FEW,25000.0,,,,,,
KRDR,06-18-2006,07:00,METAR,,230,10.0,,,9999.0,,17.0,11.0,29.67,1004.8,,,,,,,,,,,,,,,2/8 Mostly Clear,72000.0,,FEW,25000.0,,,,,,
KRDR,06-18-2006,06:00,METAR,,250,12.0,,,9999.0,,19.0,11.0,29.67,1004.7,,,,,,,,,,,,,,,Clear,72000.0,,,73000.0,,,,,,
KRDR,06-18-2006,05:00,METAR,,240,7.0,,,9999.0,,18.0,10.0,29.67,1004.6,,,,,,,,,,,,,,,Clear,72000.0,,,73000.0,,,,,,
KRDR,06-18-2006,04:00,METAR,,220,6.0,,,9999.0,,18.0,10.0,29.65,1004.1,,,,,,,,,,,,,,,2/8 Mostly Clear,72000.0,,FEW,5000.0,FEW,25000.0,,,,
KRDR,06-18-2006,03:00,METAR,,260,8.0,,,9999.0,,21.0,10.0,29.64,1003.7,,,,,,,,,,,,,,,2/8 Mostly Clear,72000.0,,FEW,5000.0,FEW,25000.0,,,,
KRDR,06-18-2006,02:00,METAR,,280,12.0,,,9999.0,,23.0,11.0,29.62,1003.0,,,,,,,,,,,,,,,4/8 Partly Cloudy,72000.0,,FEW,5000.0,SCT,25000.0,,,,
KRDR,06-18-2006,01:00,METAR,,260,9.0,,,9999.0,,25.0,10.0,29.60,1002.3,,,,,,,,,,,,,,,4/8 Partly Cloudy,72000.0,,FEW,5000.0,SCT,25000.0,,,,
KRDR,06-18-2006,00:00,METAR,,250,14.0,,,9999.0,,27.0,10.0,29.59,1002.2,,,,,,,,,,,,,,,7/8 Mostly Cloudy,25000.0,,FEW,5000.0,BKN,25000.0,,,,
KRDR,06-17-2006,23:00,METAR,,270,14.0,19.0,,9999.0,,28.0,11.0,29.60,1002.6,,,,,,,,,,,,,,,7/8 Mostly Cloudy,25000.0,,SCT,5000.0,BKN,25000.0,,,,
KRDR,06-17-2006,22:00,METAR,,250,12.0,,,9999.0,,29.0,12.0,29.60,1002.5,,,,,,,,,,,,,,,7/8 Mostly Cloudy,25000.0,,SCT,5000.0,BKN,25000.0,,,,
KRDR,06-17-2006,21:00,METAR,,240,11.0,,,9999.0,,29.0,12.0,29.63,1003.2,,,,,,,,,,,,,,,7/8 Mostly Cloudy,25000.0,,SCT,5000.0,BKN,25000.0,,,,
KRDR,06-17-2006,20:00,METAR,,250,12.0,21.0,,9999.0,,28.0,12.0,29.65,1003.9,,,,,,,,,,,,,,,7/8 Mostly Cloudy,25000.0,,SCT,5000.0,BKN,25000.0,,,,
KRDR,06-17-2006,19:00,METAR,,270,13.0,21.0,,9999.0,,28.0,11.0,29.65,1004.0,,,,,,,,,,,,,,,7/8 Mostly Cloudy,25000.0,,SCT,5000.0,BKN,25000.0,,,,
KRDR,06-17-2006,18:00,METAR,,280,13.0,,,9999.0,,28.0,12.0,29.66,1004.3,,,,,,,,,,,,,,,7/8 Mostly Cloudy,25000.0,,SCT,5000.0,BKN,25000.0,,,,
KRDR,06-17-2006,17:00,METAR,,260,13.0,19.0,,9999.0,,27.0,13.0,29.66,1004.3,,,,,,,,,,,,,,,7/8 Mostly Cloudy,25000.0,,BKN,25000.0,,,,,,
KRDR,06-17-2006,16:00,METAR,,230,11.0,,,9999.0,,26.0,14.0,29.67,1004.6,,,,,,,,,,,,,,,7/8 Mostly Cloudy,25000.0,,BKN,25000.0,,,,,,
KRDR,06-17-2006,15:00,METAR,,230,7.0,,,9999.0,,25.0,14.0,29.67,1004.7,,,,,,,,,,,,,,,7/8 Mostly Cloudy,25000.0,,BKN,25000.0,,,,,,
KRDR,06-17-2006,14:00,METAR,,220,6.0,,,9999.0,,24.0,15.0,29.69,1005.3,,,,,,,,,,,,,,,7/8 Mostly Cloudy,25000.0,,BKN,25000.0,,,,,,
KRDR,06-17-2006,13:00,METAR,,200,4.0,,,9999.0,,19.0,16.0,29.68,1005.1,,,,,,,,,,,,,,,4/8 Partly Cloudy,72000.0,,SCT,25000.0,,,,,,
KRDR,06-17-2006,12:00,METAR,,230,5.0,,,9999.0,,17.0,15.0,29.68,1005.0,,,,,,,,,,,,,,,7/8 Mostly Cloudy,25000.0,,BKN,25000.0,,,,,,
KRDR,06-17-2006,11:00,METAR,,220,5.0,,,9999.0,,15.0,13.0,29.67,1004.9,,,,,,,,,,,,,,,7/8 Mostly Cloudy,25000.0,,FEW,12000.0,BKN,25000.0,,,,
KRDR,06-17-2006,10:00,METAR,,220,3.0,,,9999.0,,17.0,14.0,29.66,1004.3,,,,,,,,,,,,,,,7/8 Mostly Cloudy,25000.0,,SCT,12000.0,BKN,25000.0,,,,
KRDR,06-17-2006,09:00,METAR,,230,5.0,,,9999.0,,18.0,15.0,29.65,1004.1,,,,,,,,,,,,,,,7/8 Mostly Cloudy,25000.0,,SCT,12000.0,BKN,25000.0,,,,
KRDR,06-17-2006,08:00,METAR,,240,6.0,,,9999.0,,18.0,16.0,29.67,1004.6,,,,,,,,,,,,,,,7/8 Mostly Cloudy,25000.0,,SCT,12000.0,BKN,25000.0,,,,
KRDR,06-17-2006,07:00,METAR,,220,5.0,,,9999.0,,18.0,17.0,29.67,1004.8,,,,,,,,,,,,,,,2/8 Mostly Clear,72000.0,,FEW,25000.0,,,,,,
KRDR,06-17-2006,06:00,METAR,,210,6.0,,,9999.0,,20.0,18.0,29.67,1004.7,,,,,,,,,,,,,,,4/8 Partly Cloudy,72000.0,,FEW,12000.0,SCT,25000.0,,,,
KRDR,06-17-2006,05:00,METAR,,200,4.0,,,9999.0,,21.0,18.0,29.68,1005.1,,,,,,,,,,,,,,,7/8 Mostly Cloudy,13000.0,,BKN,13000.0,BKN,20000.0,,,,
KRDR,06-17-2006,04:00,METAR,,170,5.0,,,9999.0,,21.0,18.0,29.68,1005.1,,,,,,,,,,,,,,,7/8 Mostly Cloudy,13000.0,,BKN,13000.0,BKN,20000.0,,,,
KRDR,06-17-2006,03:00,METAR,,200,4.0,,,9999.0,,21.0,17.0,29.67,1004.8,,,,,,,,,,,,,,,7/8 Mostly Cloudy,12000.0,,BKN,12000.0,BKN,20000.0,,,,
KRDR,06-17-2006,02:00,METAR,,210,4.0,,,9999.0,,23.0,17.0,29.67,1004.9,,,,,,,,,,,,,,,7/8 Mostly Cloudy,12000.0,,BKN,12000.0,BKN,20000.0,,,,
KRDR,06-17-2006,01:00,METAR,,250,4.0,,,9999.0,,24.0,17.0,29.65,1004.1,,,,,,,,,,,,,,,7/8 Mostly Cloudy,12000.0,,BKN,12000.0,BKN,20000.0,,,,
KRDR,06-17-2006,00:00,METAR,,260,5.0,,,9999.0,,26.0,19.0,29.65,1003.9,,,,,,,,,,,,,,,8/8 Overcast,12000.0,,FEW,5900.0,BKN,12000.0,OVC,20000.0,,
KRDR,06-16-2006,23:00,METAR,,240,7.0,,,9999.0,,26.0,20.0,29.68,1005.0,,,,,,,,,,,,,,,8/8 Overcast,12000.0,,FEW,5900.0,BKN,12000.0,OVC,20000.0,,
KRDR,06-16-2006,22:00,METAR,,200,8.0,,,9999.0,,27.0,20.0,29.68,1005.1,,,,,,,,,,,,,,,7/8 Mostly Cloudy,12000.0,,FEW,5900.0,BKN,12000.0,BKN,20000.0,,
KRDR,06-16-2006,21:00,METAR,,200,8.0,,,9999.0,,27.0,20.0,29.69,1005.5,,,,,,,,,,,,,,,8/8 Overcast,11000.0,,FEW,5900.0,BKN,11000.0,OVC,20000.0,,
KRDR,06-16-2006,20:00,METAR,,200,6.0,,,9999.0,,27.0,18.0,29.70,1005.6,,,,,,,,,,,,,,,8/8 Overcast,11000.0,,SCT,6900.0,BKN,11000.0,OVC,20000.0,,
KRDR,06-16-2006,19:00,METAR,,250,5.0,,,9999.0,,27.0,18.0,29.70,1005.5,,,,,,,,,,,,,,,8/8 Overcast,11000.0,,SCT,6900.0,BKN,11000.0,OVC,20000.0,,
KRDR,06-16-2006,18:00,METAR,,,2.0,,,9999.0,,26.0,18.0,29.70,1005.5,,,,,,,,,,,,,,,7/8 Mostly Cloudy,10000.0,,FEW,6400.0,BKN,9900.0,BKN,20000.0,,
KRDR,06-16-2006,17:00,METAR,,,4.0,,,9999.0,,25.0,18.0,29.69,1005.4,,,,,,,,,,,,,,,7/8 Mostly Cloudy,10000.0,,FEW,6400.0,BKN,9900.0,BKN,20000.0,,
KRDR,06-16-2006,16:00,METAR,,,4.0,,,9999.0,,23.0,18.0,29.69,1005.3,,,,,,,,,,,,,,,8/8 Overcast,10000.0,,FEW,6400.0,BKN,9900.0,OVC,25000.0,,
KRDR,06-16-2006,15:00,METAR,,,4.0,,,9999.0,,22.0,18.0,29.69,1005.3,,,,,,,,,,,,,,,8/8 Overcast,10000.0,,BKN,9900.0,OVC,20000.0,,,,
KRDR,06-16-2006,14:00,METAR,,,2.0,,,9999.0,,21.0,18.0,29.69,1005.4,,,,,,,,,,,,,,,8/8 Overcast,10000.0,,BKN,9900.0,OVC,20000.0,,,,
KRDR,06-16-2006,13:00,METAR,,360,2.0,,,9999.0,,20.0,17.0,29.69,1005.2,,,,,,,,,,,,,,,8/8 Overcast,20000.0,,SCT,11000.0,OVC,20000.0,,,,
KRDR,06-16-2006,12:00,METAR,,,2.0,,,9999.0,,19.0,17.0,29.68,1004.7,,,,,,,,,,,,,,,8/8 Overcast,25000.0,,FEW,11000.0,OVC,25000.0,,,,
KRDR,06-16-2006,11:00,METAR,,280,6.0,,,9999.0,,19.0,17.0,29.67,1004.5,,,,,,,,,,,,,,,7/8 Mostly Cloudy,25000.0,,SCT,12000.0,BKN,25000.0,,,,
KRDR,06-16-2006,10:00,METAR,,290,3.0,,,9999.0,,19.0,17.0,29.67,1004.3,,,,,,,,,,,,,,,7/8 Mostly Cloudy,10000.0,,BKN,9900.0,BKN,30000.0,,,,
KRDR,06-16-2006,09:00,METAR,,210,2.0,,,9999.0,,18.0,16.0,29.66,1004.1,,,,,,,,,,,,,,,7/8 Mostly Cloudy,25000.0,,FEW,17000.0,BKN,25000.0,,,,
KRDR,06-16-2006,08:00,METAR,,,3.0,,,9999.0,,21.0,17.0,29.66,1004.0,,,,,,,,,,,,,,,7/8 Mostly Cloudy,25000.0,,SCT,15000.0,BKN,25000.0,,,,
KRDR,06-16-2006,07:00,METAR,,110,4.0,,,9999.0,,23.0,17.0,29.68,1004.7,,,,,,,,,,,,,,,8/8 Overcast,15000.0,,FEW,6400.0,BKN,15000.0,OVC,25000.0,,
KRDR,06-16-2006,06:00,METAR,,,6.0,,,9999.0,,22.0,17.0,29.71,1006.0,,,,,,,,,,,,,,,8/8 Overcast,12000.0,,SCT,6400.0,BKN,12000.0,OVC,25000.0,,
KRDR,06-16-2006,05:00,METAR,,110,3.0,,,9999.0,,23.0,17.0,29.70,1005.5,,,,,,,,,,,,,,,7/8 Mostly Cloudy,12000.0,,SCT,6400.0,BKN,12000.0,BKN,25000.0,,
KRDR,06-16-2006,04:00,METAR,,140,5.0,,,9999.0,,24.0,18.0,29.66,1005.0,,,,,,,,,,,,,,,7/8 Mostly Cloudy,12000.0,,SCT,5900.0,BKN,12000.0,BKN,30000.0,,
KRDR,06-16-2006,03:00,METAR,,120,7.0,,,9999.0,,25.0,17.0,29.66,1004.2,,,,,,,,,,,,,,,7/8 Mostly Cloudy,12000.0,,SCT,5000.0,BKN,12000.0,BKN,25000.0,,
KRDR,06-16-2006,02:00,METAR,,120,7.0,,,9999.0,,26.0,18.0,29.67,1004.6,,,,,,,,,,,,,,,7/8 Mostly Cloudy,20000.0,,SCT,5000.0,SCT,9900.0,BKN,20000.0,,
KRDR,06-16-2006,01:00,METAR,,120,8.0,,,9999.0,,28.0,18.0,29.67,1004.6,,,,,,,,,,,,,,,7/8 Mostly Cloudy,20000.0,,SCT,5000.0,SCT,9900.0,BKN,20000.0,,
KRDR,06-16-2006,00:00,METAR,,120,9.0,,,9999.0,,29.0,19.0,29.66,1004.2,,,,,,,,,,,,,,,7/8 Mostly Cloudy,20000.0,,FEW,3000.0,SCT,9900.0,BKN,20000.0,,
KRDR,06-15-2006,23:00,METAR,,120,8.0,,,9999.0,,29.0,20.0,29.67,1004.7,,,,,,,,,,,,,,,7/8 Mostly Cloudy,20000.0,,FEW,3000.0,SCT,12000.0,BKN,20000.0,,
KRDR,06-15-2006,22:00,METAR,,130,12.0,,,9999.0,,28.0,20.0,29.68,1005.1,,,,,,,,,,,,,,,7/8 Mostly Cloudy,20000.0,,FEW,3000.0,SCT,12000.0,BKN,20000.0,,
KRDR,06-15-2006,21:00,METAR,,130,13.0,,,9999.0,,27.0,20.0,29.70,1005.8,,,,,,,,,,,,,,,7/8 Mostly Cloudy,12000.0,,FEW,3000.0,BKN,12000.0,BKN,20000.0,,
KRDR,06-15-2006,20:00,METAR,,120,12.0,,,9999.0,,25.0,19.0,29.71,1006.2,,,,,,,,,,,,,,,7/8 Mostly Cloudy,10000.0,,SCT,3100.0,BKN,9900.0,BKN,25000.0,,
KRDR,06-15-2006,19:00,METAR,,130,12.0,,,9999.0,,23.0,19.0,29.74,1007.0,,,,,,,,,,,,,,,8/8 Overcast,10000.0,,SCT,3100.0,BKN,9900.0,OVC,25000.0,,
KRDR,06-15-2006,18:00,METAR,,130,12.0,,,9999.0,,22.0,19.0,29.76,1007.7,,,,,,,,,,,,,TRACE,,8/8 Overcast,25000.0,,FEW,6900.0,SCT,9900.0,OVC,25000.0,,
KRDR,06-15-2006,17:00,METAR,,140,11.0,,,9999.0,,21.0,18.0,29.75,1007.4,,,,,,,,,,,,,,,8/8 Overcast,25000.0,,FEW,6900.0,SCT,9900.0,OVC,25000.0,,
KRDR,06-15-2006,16:14,SPECI,,150,12.0,,,9999.0,Light Rain Showers,21.0,18.0,29.76,,,,,80,,,,,,,,,,,8/8 Overcast,25000.0,,FEW,6900.0,SCT,9900.0,OVC,25000.0,,
KRDR,06-15-2006,16:07,SPECI,,160,12.0,,,9999.0,Light Rain Showers,21.0,18.0,29.76,,,,,80,,,,,,,,,,,8/8 Overcast,25000.0,,FEW,6900.0,SCT,9900.0,OVC,25000.0,,
KRDR,06-15-2006,16:00,METAR,,150,10.0,,,9999.0,,21.0,18.0,29.76,1007.6,,,,,,,,,,,,,,,8/8 Overcast,25000.0,,FEW,8900.0,SCT,12000.0,OVC,25000.0,,
KRDR,06-15-2006,15:00,METAR,,130,12.0,,,9999.0,,21.0,17.0,29.75,1007.3,,,,,,,,,,,,,,,8/8 Overcast,25000.0,,SCT,12000.0,OVC,25000.0,,,,
KRDR,06-15-2006,14:00,METAR,,140,11.0,,,9999.0,,20.0,16.0,29.76,1007.4,,,,,,,,,,,,,,,8/8 Overcast,25000.0,,SCT,12000.0,OVC,25000.0,,,,
KRDR,06-15-2006,13:00,METAR,,120,9.0,,,9999.0,,19.0,15.0,29.74,1007.0,,,,,,,,,,,,,,,8/8 Overcast,25000.0,,SCT,8900.0,OVC,25000.0,,,,
KRDR,06-15-2006,12:00,METAR,,110,6.0,,,9999.0,,18.0,15.0,29.77,1007.8,,,,,,,,,,,,,,,8/8 Overcast,9000.0,,BKN,8900.0,OVC,25000.0,,,,
KRDR,06-15-2006,11:00,METAR,,120,9.0,,,9999.0,,18.0,16.0,29.79,1008.6,,,,,,,,,,,,,,,7/8 Mostly Cloudy,9000.0,,BKN,8900.0,BKN,25000.0,,,,
KRDR,06-15-2006,10:00,METAR,,140,11.0,,,9999.0,,18.0,16.0,29.81,1009.2,,,,,,,,,,,,,,,7/8 Mostly Cloudy,15000.0,,SCT,9400.0,BKN,15000.0,BKN,25000.0,,
KRDR,06-15-2006,09:00,METAR,,120,13.0,,,9999.0,,18.0,14.0,29.80,1008.9,,,,,,,,,,,,,,,7/8 Mostly Cloudy,25000.0,,FEW,8400.0,SCT,15000.0,BKN,25000.0,,
KRDR,06-15-2006,08:00,METAR,,110,10.0,,,9999.0,,18.0,14.0,29.81,1009.2,,,,,,,,,,,,,,,7/8 Mostly Cloudy,25000.0,,SCT,8400.0,BKN,25000.0,,,,
KRDR,06-15-2006,07:00,METAR,,120,7.0,,,9999.0,,19.0,14.0,29.84,1010.1,,,,,,,,,,,,,,,7/8 Mostly Cloudy,25000.0,,FEW,7400.0,BKN,25000.0,,,,
KRDR,06-15-2006,06:00,METAR,,90,8.0,,,9999.0,,20.0,13.0,29.83,1010.0,,,,,,,,,,,,,,,7/8 Mostly Cloudy,25000.0,,FEW,7400.0,BKN,25000.0,,,,
KRDR,06-15-2006,05:00,METAR,,100,7.0,,,9999.0,,20.0,13.0,29.86,1010.9,,,,,,,,,,,,,,,4/8 Partly Cloudy,72000.0,,SCT,25000.0,,,,,,
KRDR,06-15-2006,04:00,METAR,,100,8.0,,,9999.0,,21.0,14.0,29.87,1011.4,,,,,,,,,,,,,,,4/8 Partly Cloudy,72000.0,,SCT,25000.0,,,,,,
KRDR,06-15-2006,03:00,METAR,,120,8.0,,,9999.0,,22.0,14.0,29.86,1011.1,,,,,,,,,,,,,,,2/8 Mostly Clear,72000.0,,FEW,25000.0,,,,,,
KRDR,06-15-2006,02:00,METAR,,110,11.0,,,9999.0,,24.0,13.0,29.84,1010.6,,,,,,,,,,,,,,,2/8 Mostly Clear,72000.0,,FEW,25000.0,,,,,,
KRDR,06-15-2006,01:00,METAR,,130,12.0,,,9999.0,,25.0,13.0,29.86,1011.2,,,,,,,,,,,,,,,2/8 Mostly Clear,72000.0,,FEW,25000.0,,,,,,
KRDR,06-15-2006,00:00,METAR,,110,14.0,19.0,,9999.0,,26.0,12.0,29.86,1011.3,,,,,,,,,,,,,,,2/8 Mostly Clear,72000.0,,FEW,25000.0,,,,,,
KRDR,06-14-2006,23:00,METAR,,130,15.0,,,9999.0,,27.0,12.0,29.87,1011.7,,,,,,,,,,,,,,,2/8 Mostly Clear,72000.0,,FEW,25000.0,,,,,,
KRDR,06-14-2006,22:00,METAR,,120,13.0,18.0,,9999.0,,27.0,11.0,29.87,1011.8,,,,,,,,,,,,,,,2/8 Mostly Clear,72000.0,,FEW,25000.0,,,,,,
KRDR,06-14-2006,21:00,METAR,,100,13.0,19.0,,9999.0,,27.0,12.0,29.89,1012.3,,,,,,,,,,,,,,,4/8 Partly Cloudy,72000.0,,FEW,5900.0,SCT,25000.0,,,,
KRDR,06-14-2006,20:00,METAR,,110,14.0,19.0,,9999.0,,27.0,12.0,29.91,1012.7,,,,,,,,,,,,,,,7/8 Mostly Cloudy,25000.0,,FEW,5900.0,BKN,25000.0,,,,
KRDR,06-14-2006,19:00,METAR,,110,12.0,23.0,,9999.0,,26.0,12.0,29.94,1013.7,,,,,,,,,,,,,,,7/8 Mostly Cloudy,25000.0,,FEW,5900.0,BKN,25000.0,,,,
KRDR,06-14-2006,18:00,METAR,,120,12.0,21.0,,9999.0,,26.0,12.0,29.96,1014.4,,,,,,,,,,,,,,,7/8 Mostly Cloudy,25000.0,,BKN,25000.0,,,,,,
KRDR,06-14-2006,17:00,METAR,,110,14.0,,,9999.0,,25.0,13.0,29.97,1015.0,,,,,,,,,,,,,,,7/8 Mostly Cloudy,25000.0,,FEW,3900.0,BKN,25000.0,,,,
KRDR,06-14-2006,16:00,METAR,,140,11.0,,,9999.0,,23.0,13.0,29.99,1015.6,,,,,,,,,,,,,,,7/8 Mostly Cloudy,25000.0,,FEW,3900.0,BKN,25000.0,,,,
KRDR,06-14-2006,15:00,METAR,,110,13.0,,,9999.0,,22.0,14.0,30.02,1016.5,,,,,,,,,,,,,,,7/8 Mostly Cloudy,25000.0,,BKN,25000.0,,,,,,
KRDR,06-14-2006,14:00,METAR,,110,6.0,,,9999.0,,19.0,14.0,30.04,1017.3,,,,,,,,,,,,,,,7/8 Mostly Cloudy,25000.0,,BKN,25000.0,,,,,,
KRDR,06-14-2006,13:00,METAR,,,4.0,,,9999.0,,16.0,12.0,30.05,1017.7,,,,,,,,,,,,,,,4/8 Partly Cloudy,72000.0,,SCT,25000.0,,,,,,
KRDR,06-14-2006,12:00,METAR,,,2.0,,,9999.0,,13.0,11.0,30.05,1017.6,,,,,,,,,,,,,,,4/8 Partly Cloudy,72000.0,,FEW,5000.0,SCT,25000.0,,,,
KRDR,06-14-2006,11:00,METAR,,,1.0,,,9999.0,,10.0,9.0,30.06,1018.1,,,,,,,,,,,,,,,4/8 Partly Cloudy,72000.0,,SCT,25000.0,,,,,,
KRDR,06-14-2006,10:00,METAR,,340,3.0,,,9999.0,,11.0,10.0,30.06,1018.0,,,,,,,,,,,,,,,2/8 Mostly Clear,72000.0,,FEW,25000.0,,,,,,
KRDR,06-14-2006,09:00,METAR,,330,3.0,,,9999.0,,11.0,10.0,30.07,1018.4,,,,,,,,,,,,,,,Clear,72000.0,,,73000.0,,,,,,
KRDR,06-14-2006,08:00,METAR,,300,2.0,,,9999.0,,11.0,10.0,30.08,1018.9,,,,,,,,,,,,,,,Clear,72000.0,,,73000.0,,,,,,
KRDR,06-14-2006,07:00,METAR,,,1.0,,,9999.0,,12.0,10.0,30.10,1019.3,,,,,,,,,,,,,,,Clear,72000.0,,,73000.0,,,,,,
KRDR,06-14-2006,06:00,METAR,,,1.0,,,9999.0,,12.0,10.0,30.11,1019.8,,,,,,,,,,,,,,,Clear,72000.0,,,73000.0,,,,,,
KRDR,06-14-2006,05:00,METAR,,30,5.0,,,9999.0,,14.0,11.0,30.11,1019.8,,,,,,,,,,,,,,,2/8 Mostly Clear,72000.0,,FEW,25000.0,,,,,,
KRDR,06-14-2006,04:00,METAR,,350,5.0,,,9999.0,,15.0,12.0,30.11,1020.1,,,,,,,,,,,,,,,2/8 Mostly Clear,72000.0,,FEW,12000.0,FEW,25000.0,,,,
KRDR,06-14-2006,03:00,METAR,,350,3.0,,,9999.0,,17.0,12.0,30.10,1019.7,,,,,,,,,,,,,,,4/8 Partly Cloudy,72000.0,,FEW,5000.0,FEW,12000.0,SCT,25000.0,,
KRDR,06-14-2006,02:00,METAR,,350,4.0,,,9999.0,,19.0,12.0,30.09,1019.4,,,,,,,,,,,,,,,4/8 Partly Cloudy,72000.0,,FEW,5000.0,FEW,9900.0,SCT,25000.0,,
KRDR,06-14-2006,01:00,METAR,,360,7.0,,,9999.0,,22.0,10.0,30.09,1019.1,,,,,,,,,,,,,,,4/8 Partly Cloudy,72000.0,,FEW,5000.0,SCT,25000.0,,,,
KRDR,06-14-2006,00:00,METAR,,10,10.0,,,9999.0,,22.0,10.0,30.09,1019.2,,,,,,,,,,,,,,,7/8 Mostly Cloudy,25000.0,,FEW,5000.0,BKN,25000.0,,,,
KRDR,06-13-2006,23:00,METAR,,360,8.0,,,9999.0,,23.0,11.0,30.09,1019.3,,,,,,,,,,,,,,,4/8 Partly Cloudy,72000.0,,FEW,5000.0,SCT,25000.0,,,,
KRDR,06-13-2006,22:00,METAR,,360,7.0,,,9999.0,,23.0,12.0,30.09,1019.4,,,,,,,,,,,,,,,7/8 Mostly Cloudy,25000.0,,SCT,4500.0,BKN,25000.0,,,,
KRDR,06-13-2006,21:00,METAR,,340,7.0,,,9999.0,,22.0,11.0,30.12,1020.2,,,,,,,,,,,,,,,4/8 Partly Cloudy,72000.0,,SCT,4500.0,,,,,,
KRDR,06-13-2006,20:00,METAR,,350,5.0,,,9999.0,,22.0,11.0,30.12,1020.4,,,,,,,,,,,,,,,7/8 Mostly Cloudy,4400.0,,BKN,4500.0,,,,,,
KRDR,06-13-2006,19:00,METAR,,10,7.0,,,9999.0,,22.0,11.0,30.13,1020.5,,,,,,,,,,,,,,,7/8 Mostly Cloudy,3900.0,,BKN,4000.0,,,,,,
KRDR,06-13-2006,18:00,METAR,,360,4.0,,,9999.0,,21.0,11.0,30.14,1020.9,,,,,,,,,,,,,,,7/8 Mostly Cloudy,3900.0,,BKN,4000.0,,,,,,
KRDR,06-13-2006,17:00,METAR,,350,7.0,,,9999.0,,20.0,11.0,30.15,1021.2,,,,,,,,,,,,,,,7/8 Mostly Cloudy,25000.0,,SCT,3500.0,BKN,25000.0,,,,
KRDR,06-13-2006,16:00,METAR,,340,7.0,,,9999.0,,20.0,11.0,30.16,1021.6,,,,,,,,,,,,,,,7/8 Mostly Cloudy,25000.0,,SCT,3500.0,BKN,25000.0,,,,
KRDR,06-13-2006,15:00,METAR,,350,9.0,,,9999.0,,19.0,11.0,30.16,1021.8,,,,,,,,,,,,,,,7/8 Mostly Cloudy,25000.0,,FEW,4000.0,BKN,25000.0,,,,
KRDR,06-13-2006,14:00,METAR,,360,9.0,,,9999.0,,18.0,11.0,30.15,1021.4,,,,,,,,,,,,,,,4/8 Partly Cloudy,72000.0,,SCT,25000.0,,,,,,
KRDR,06-13-2006,13:00,METAR,,330,10.0,,,9999.0,,16.0,10.0,30.16,1021.6,,,,,,,,,,,,,,,4/8 Partly Cloudy,72000.0,,SCT,25000.0,,,,,,
KRDR,06-13-2006,12:00,METAR,,320,6.0,,,9999.0,,14.0,10.0,30.14,1021.1,,,,,,,,,,,,,,,4/8 Partly Cloudy,72000.0,,FEW,4500.0,SCT,7400.0,SCT,20000.0,,
KRDR,06-13-2006,11:00,METAR,,300,3.0,,,9999.0,,12.0,10.0,30.14,1021.0,,,,,,,,,,,,,,,4/8 Partly Cloudy,72000.0,,SCT,4500.0,SCT,7400.0,,,,
KRDR,06-13-2006,10:00,METAR,,300,4.0,,,9999.0,,13.0,10.0,30.13,1020.8,,,,,,,,,,,,,,,4/8 Partly Cloudy,72000.0,,SCT,7400.0,,,,,,
KRDR,06-13-2006,09:00,METAR,,330,5.0,,,9999.0,,14.0,11.0,30.13,1020.6,,,,,,,,,,,,,,,4/8 Partly Cloudy,72000.0,,SCT,7400.0,,,,,,
KRDR,06-13-2006,08:00,METAR,,340,7.0,,,9999.0,,17.0,13.0,30.12,1020.4,,,,,,,,,,,,,,,7/8 Mostly Cloudy,7500.0,,BKN,7400.0,,,,,,
KRDR,06-13-2006,07:00,METAR,,,4.0,,,9999.0,,18.0,14.0,30.11,1019.8,,,,,,,,,,,,,,,8/8 Overcast,7500.0,,OVC,7400.0,,,,,,
KRDR,06-13-2006,06:00,METAR,,190,5.0,,,9999.0,,18.0,14.0,30.11,1019.8,,,,,,,,,,,,,,,8/8 Overcast,7500.0,,BKN,7400.0,OVC,9900.0,,,,
KRDR,06-13-2006,05:00,METAR,,200,4.0,,,9999.0,,19.0,14.0,30.11,1019.7,,,,,,,,,,,,,,,8/8 Overcast,7500.0,,BKN,7400.0,OVC,9900.0,,,,
KRDR,06-13-2006,04:00,METAR,,200,3.0,,,9999.0,,18.0,14.0,30.11,1020.0,,,,,,,,,,,,,,,8/8 Overcast,10000.0,,FEW,4500.0,OVC,9900.0,,,,
KRDR,06-13-2006,03:00,METAR,,210,3.0,,,9999.0,,19.0,15.0,30.10,1019.7,,,,,,,,,,,,,,,7/8 Mostly Cloudy,10000.0,,FEW,4500.0,BKN,9900.0,BKN,22000.0,,
KRDR,06-13-2006,02:00,METAR,,210,4.0,,,9999.0,,20.0,13.0,30.09,1019.4,,,,,,,,,,,,,,,7/8 Mostly Cloudy,11000.0,,FEW,4500.0,BKN,11000.0,BKN,22000.0,,
KRDR,06-13-2006,01:00,METAR,,210,6.0,,,9999.0,,21.0,14.0,30.10,1019.7,,,,,,,,,,,,,,,7/8 Mostly Cloudy,11000.0,,FEW,4500.0,BKN,11000.0,BKN,22000.0,,
KRDR,06-13-2006,00:00,METAR,,210,10.0,,,9999.0,,23.0,13.0,30.11,1019.8,,,,,,,,,,,,,,,7/8 Mostly Cloudy,11000.0,,FEW,4500.0,BKN,11000.0,BKN,22000.0,,
KRDR,06-12-2006,23:00,METAR,,210,9.0,,,9999.0,,23.0,13.0,30.12,1020.2,,,,,,,,,,,,,,,7/8 Mostly Cloudy,11000.0,,FEW,4500.0,BKN,11000.0,BKN,22000.0,,
KRDR,06-12-2006,22:00,METAR,,230,8.0,,,9999.0,,23.0,13.0,30.13,1020.6,,,,,,,,,,,,,,,7/8 Mostly Cloudy,4400.0,,BKN,4500.0,BKN,15000.0,BKN,22000.0,,
KRDR,06-12-2006,21:00,METAR,,210,7.0,,,9999.0,,22.0,13.0,30.13,1020.8,,,,,,,,,,,,,,,7/8 Mostly Cloudy,4400.0,,BKN,4500.0,BKN,15000.0,BKN,22000.0,,
KRDR,06-12-2006,20:00,METAR,,210,8.0,,,9999.0,,22.0,13.0,30.15,1021.3,,,,,,,,,,,,,,,7/8 Mostly Cloudy,4900.0,,BKN,5000.0,BKN,15000.0,BKN,22000.0,,
KRDR,06-12-2006,19:00,METAR,,220,7.0,,,9999.0,,22.0,13.0,30.15,1021.5,,,,,,,,,,,,,,,8/8 Overcast,4900.0,,BKN,5000.0,OVC,15000.0,,,,
KRDR,06-12-2006,18:00,METAR,,190,8.0,,,9999.0,,21.0,12.0,30.16,1021.6,,,,,,,,,,,,,,,7/8 Mostly Cloudy,3900.0,,BKN,4000.0,BKN,15000.0,,,,
KRDR,06-12-2006,17:00,METAR,,190,7.0,,,9999.0,,21.0,12.0,30.16,1021.6,,,,,,,,,,,,,,,7/8 Mostly Cloudy,15000.0,,SCT,5000.0,BKN,15000.0,BKN,25000.0,,
KRDR,06-12-2006,16:00,METAR,,190,6.0,,,9999.0,,20.0,12.0,30.16,1021.9,,,,,,,,,,,,,,,7/8 Mostly Cloudy,4900.0,,FEW,3000.0,BKN,5000.0,BKN,18000.0,,
KRDR,06-12-2006,15:00,METAR,,210,7.0,,,9999.0,,18.0,12.0,30.18,1022.4,,,,,,,,,,,,,,,8/8 Overcast,4900.0,,FEW,2500.0,OVC,5000.0,,,,
KRDR,06-12-2006,14:00,METAR,,200,6.0,,,9999.0,,17.0,12.0,30.16,1021.7,,,,,,,,,,,,,,,8/8 Overcast,4900.0,,FEW,3000.0,OVC,5000.0,,,,
KRDR,06-12-2006,13:00,METAR,,190,3.0,,,9999.0,,16.0,12.0,30.16,1021.7,,,,,,,,,,,,,,,7/8 Mostly Cloudy,3900.0,,SCT,3200.0,BKN,4000.0,,,,
KRDR,06-12-2006,12:00,METAR,,180,4.0,,,9999.0,,15.0,11.0,30.15,1021.4,,,,,,,,,,,,,,,7/8 Mostly Cloudy,6000.0,,BKN,5900.0,,,,,,
KRDR,06-12-2006,11:00,METAR,,190,4.0,,,9999.0,,14.0,11.0,30.15,1021.5,,,,,,,,,,,,,,,7/8 Mostly Cloudy,6000.0,,BKN,5900.0,,,,,,
KRDR,06-12-2006,10:00,METAR,,180,5.0,,,9999.0,,14.0,11.0,30.15,1021.4,,,,,,,,,,,,,,,8/8 Overcast,6000.0,,OVC,5900.0,,,,,,
KRDR,06-12-2006,09:00,METAR,,160,3.0,,,9999.0,,15.0,11.0,30.13,1020.9,,,,,,,,,,,,,,,8/8 Overcast,6000.0,,OVC,5900.0,,,,,,
KRDR,06-12-2006,08:00,METAR,,170,3.0,,,9999.0,,15.0,11.0,30.13,1020.8,,,,,,,,,,,,,,,8/8 Overcast,6000.0,,OVC,5900.0,,,,,,
KRDR,06-12-2006,07:00,METAR,,220,2.0,,,9999.0,,14.0,11.0,30.13,1020.7,,,,,,,,,,,,,,,8/8 Overcast,6500.0,,OVC,6400.0,,,,,,
KRDR,06-12-2006,06:00,METAR,,140,3.0,,,9999.0,,15.0,10.0,30.11,1020.0,,,,,,,,,,,,,,,8/8 Overcast,6500.0,,OVC,6400.0,,,,,,
KRDR,06-12-2006,05:00,METAR,,120,2.0,,,9999.0,,15.0,10.0,30.10,1019.8,,,,,,,,,,,,,,,8/8 Overcast,6500.0,,FEW,5000.0,OVC,6400.0,,,,
KRDR,06-12-2006,04:00,METAR,,210,2.0,,,9999.0,,14.0,11.0,30.10,1019.7,,,,,,,,,,,,,,,7/8 Mostly Cloudy,6500.0,,FEW,5400.0,BKN,6400.0,BKN,9900.0,,
KRDR,06-12-2006,03:00,METAR,,220,3.0,,,9999.0,,16.0,10.0,30.09,1019.1,,,,,,,,,,,,,,,7/8 Mostly Cloudy,7500.0,,FEW,5400.0,BKN,7400.0,BKN,9900.0,,
KRDR,06-12-2006,02:00,METAR,,200,5.0,,,9999.0,,17.0,9.0,30.07,1018.5,,,,,,,,,,,,,,,7/8 Mostly Cloudy,7000.0,,FEW,4000.0,BKN,6900.0,,,,
KRDR,06-12-2006,01:00,METAR,,200,6.0,,,9999.0,,18.0,8.0,30.06,1018.1,,,,,,,,,,,,,,,8/8 Overcast,7000.0,,FEW,4000.0,OVC,6900.0,,,,
KRDR,06-12-2006,00:00,METAR,,170,6.0,,,9999.0,,19.0,7.0,30.05,1017.9,,,,,,,,,,,,,,,7/8 Mostly Cloudy,9500.0,,FEW,5900.0,BKN,9400.0,BKN,15000.0,,
KRDR,06-11-2006,23:00,METAR,,160,11.0,,,9999.0,,19.0,8.0,30.05,1017.8,,,,,,,,,,,,,,,7/8 Mostly Cloudy,9500.0,,FEW,5000.0,BKN,9400.0,BKN,15000.0,,
KRDR,06-11-2006,22:00,METAR,,150,10.0,,,9999.0,,19.0,8.0,30.05,1017.9,,,,,,,,,,,,,,,8/8 Overcast,7500.0,,FEW,4500.0,BKN,7400.0,OVC,15000.0,,
KRDR,06-11-2006,21:00,METAR,,160,11.0,17.0,,9999.0,,18.0,7.0,30.05,1018.0,,,,,,,,,,,,,,,7/8 Mostly Cloudy,7500.0,,SCT,4500.0,BKN,7400.0,BKN,15000.0,,
KRDR,06-11-2006,20:00,METAR,,160,12.0,19.0,,9999.0,,19.0,8.0,30.04,1017.7,,,,,,,,,,,,,,,7/8 Mostly Cloudy,5500.0,,BKN,5400.0,BKN,15000.0,,,,
KRDR,06-11-2006,19:00,METAR,,180,10.0,,,9999.0,,18.0,8.0,30.05,1018.2,,,,,,,,,,,,,,,8/8 Overcast,4400.0,,BKN,4500.0,OVC,12000.0,,,,
KRDR,06-11-2006,18:00,METAR,,150,14.0,,,9999.0,,19.0,7.0,30.06,1018.5,,,,,,,,,,,,,,,7/8 Mostly Cloudy,4400.0,,BKN,4500.0,BKN,12000.0,,,,
KRDR,06-11-2006,17:00,METAR,,170,13.0,,,9999.0,,18.0,8.0,30.06,1018.5,,,,,,,,,,,,,,,7/8 Mostly Cloudy,12000.0,,FEW,3900.0,BKN,12000.0,BKN,25000.0,,
KRDR,06-11-2006,16:00,METAR,,170,11.0,,,9999.0,,17.0,8.0,30.06,1018.5,,,,,,,,,,,,,,,7/8 Mostly Cloudy,12000.0,,FEW,2000.0,BKN,12000.0,BKN,25000.0,,
KRDR,06-11-2006,15:00,METAR,,130,4.0,,,9999.0,,14.0,8.0,30.06,1018.5,,,,,,,,,,,,,,,7/8 Mostly Cloudy,12000.0,,BKN,12000.0,BKN,25000.0,,,,
KRDR,06-11-2006,14:00,METAR,,200,5.0,,,9999.0,,13.0,7.0,30.06,1018.5,,,,,,,,,,,,,,,7/8 Mostly Cloudy,12000.0,,BKN,12000.0,BKN,25000.0,,,,
KRDR,06-11-2006,13:00,METAR,,150,5.0,,,9999.0,,13.0,6.0,30.05,1018.1,,,,,,,,,,,,,,,7/8 Mostly Cloudy,12000.0,,BKN,12000.0,BKN,25000.0,,,,
KRDR,06-11-2006,12:00,METAR,,180,5.0,,,9999.0,,10.0,6.0,30.03,1017.5,,,,,,,,,,,,,,,7/8 Mostly Cloudy,12000.0,,BKN,12000.0,BKN,25000.0,,,,
KRDR,06-11-2006,11:00,METAR,,90,3.0,,,9999.0,,11.0,6.0,30.01,1016.6,,,,,,,,,,,,,,,7/8 Mostly Cloudy,14000.0,,BKN,14000.0,BKN,25000.0,,,,
KRDR,06-11-2006,10:00,METAR,,,0.0,,,9999.0,,11.0,7.0,30.01,1016.7,,,,,,,,,,,,,,,7/8 Mostly Cloudy,15000.0,,FEW,8900.0,BKN,15000.0,BKN,25000.0,,
KRDR,06-11-2006,09:00,METAR,,120,4.0,,,9999.0,,11.0,7.0,30.02,1017.1,,,,,,,,,,,,,,,7/8 Mostly Cloudy,15000.0,,FEW,9900.0,BKN,15000.0,BKN,25000.0,,
KRDR,06-11-2006,08:00,METAR,,100,3.0,,,9999.0,,12.0,8.0,30.02,1016.9,,,,,,,,,,,,,,,7/8 Mostly Cloudy,15000.0,,FEW,9900.0,BKN,15000.0,BKN,25000.0,,
KRDR,06-11-2006,07:00,METAR,,170,3.0,,,9999.0,,12.0,7.0,30.03,1017.3,,,,,,,,,,,,,,,8/8 Overcast,20000.0,,SCT,12000.0,OVC,20000.0,,,,
KRDR,06-11-2006,06:00,METAR,,180,2.0,,,9999.0,,13.0,7.0,30.03,1017.5,,,,,,,,,,,,,,,7/8 Mostly Cloudy,20000.0,,SCT,12000.0,BKN,20000.0,,,,
KRDR,06-11-2006,05:00,METAR,,190,6.0,,,9999.0,,13.0,7.0,30.03,1017.5,,,,,,,,,,,,,,,7/8 Mostly Cloudy,14000.0,,BKN,14000.0,BKN,25000.0,,,,
KRDR,06-11-2006,04:00,METAR,,120,4.0,,,9999.0,,15.0,5.0,30.03,1017.3,,,,,,,,,,,,,,,7/8 Mostly Cloudy,25000.0,,SCT,14000.0,BKN,25000.0,,,,
KRDR,06-11-2006,03:00,METAR,,140,4.0,,,9999.0,,16.0,5.0,30.01,1016.6,,,,,,,,,,,,,,,7/8 Mostly Cloudy,25000.0,,SCT,12000.0,BKN,25000.0,,,,
KRDR,06-11-2006,02:00,METAR,,110,6.0,,,9999.0,,17.0,4.0,29.99,1015.7,,,,,,,,,,,,,,,7/8 Mostly Cloudy,25000.0,,SCT,12000.0,BKN,25000.0,,,,
KRDR,06-11-2006,01:00,METAR,,120,8.0,,,9999.0,,19.0,4.0,29.98,1015.2,,,,,,,,,,,,,,,7/8 Mostly Cloudy,25000.0,,FEW,12000.0,BKN,25000.0,,,,
KRDR,06-11-2006,00:00,METAR,,100,16.0,,,9999.0,,20.0,3.0,29.98,1015.4,,,,,,,,,,,,,,,7/8 Mostly Cloudy,25000.0,,FEW,12000.0,BKN,25000.0,,,,
KRDR,06-10-2006,23:00,METAR,,110,11.0,18.0,,9999.0,,20.0,1.0,29.99,1015.8,,,,,,,,,,,,,,,7/8 Mostly Cloudy,25000.0,,SCT,12000.0,BKN,25000.0,,,,
KRDR,06-10-2006,22:00,METAR,,100,8.0,17.0,,9999.0,,20.0,3.0,30.00,1016.2,,,,,,,,,,,,,,,7/8 Mostly Cloudy,25000.0,,FEW,12000.0,BKN,25000.0,,,,
KRDR,06-10-2006,21:00,METAR,,90,13.0,22.0,,9999.0,,21.0,4.0,30.02,1016.9,,,,,,,,,,,,,,,7/8 Mostly Cloudy,25000.0,,FEW,12000.0,BKN,25000.0,,,,
KRDR,06-10-2006,20:00,METAR,,150,9.0,18.0,,9999.0,,20.0,4.0,30.05,1017.7,,,,,,,,,,,,,,,7/8 Mostly Cloudy,25000.0,,FEW,12000.0,BKN,25000.0,,,,
KRDR,06-10-2006,19:00,METAR,,110,11.0,,,9999.0,,18.0,3.0,30.07,1018.9,,,,,,,,,,,,,,,7/8 Mostly Cloudy,25000.0,,SCT,12000.0,BKN,25000.0,,,,
KRDR,06-10-2006,18:00,METAR,,100,9.0,19.0,120/25KTS,9999.0,,18.0,4.0,30.08,1019.2,,,,,,,,,,,,,,,7/8 Mostly Cloudy,25000.0,,FEW,7900.0,SCT,12000.0,BKN,25000.0,,
KRDR,06-10-2006,17:00,METAR,,130,13.0,21.0,,9999.0,,17.0,4.0,30.09,1019.6,,,,,,,,,,,,,,,7/8 Mostly Cloudy,12000.0,,FEW,7900.0,BKN,12000.0,BKN,25000.0,,
KRDR,06-10-2006,16:00,METAR,,130,13.0,,,9999.0,,16.0,3.0,30.10,1020.0,,,,,,,,,,,,,,,7/8 Mostly Cloudy,12000.0,,BKN,12000.0,BKN,20000.0,,,,
KRDR,06-10-2006,15:00,METAR,,100,11.0,,,9999.0,,15.0,5.0,30.11,1020.3,,,,,,,,,,,,,,,7/8 Mostly Cloudy,12000.0,,BKN,12000.0,BKN,20000.0,,,,
KRDR,06-10-2006,14:00,METAR,,100,9.0,,,9999.0,,14.0,5.0,30.12,1020.7,,,,,,,,,,,,,,,7/8 Mostly Cloudy,12000.0,,BKN,12000.0,,,,,,
KRDR,06-10-2006,13:00,METAR,,100,6.0,,,9999.0,,13.0,8.0,30.12,1020.7,,,,,,,,,,,,,,,8/8 Overcast,12000.0,,OVC,12000.0,,,,,,
KRDR,06-10-2006,12:00,METAR,,70,3.0,,,9999.0,,12.0,10.0,30.11,1020.4,,,,,,,,,,,,,,,8/8 Overcast,12000.0,,FEW,4000.0,OVC,12000.0,,,,
KRDR,06-10-2006,11:00,METAR,,30,3.0,,,9999.0,,12.0,10.0,30.13,1020.7,,,,,,,,,,,,,,,8/8 Overcast,10000.0,,BKN,9900.0,OVC,12000.0,,,,
KRDR,06-10-2006,10:00,METAR,,70,2.0,,,9999.0,,12.0,10.0,30.12,1020.5,,,,,,,,,,,,,,,8/8 Overcast,10000.0,,OVC,9900.0,,,,,,
KRDR,06-10-2006,09:00,METAR,,90,4.0,,,9999.0,,12.0,9.0,30.12,1020.5,,,,,,,,,,,,,,,8/8 Overcast,10000.0,,OVC,9900.0,,,,,,
KRDR,06-10-2006,08:00,METAR,,90,3.0,,,9999.0,,12.0,8.0,30.13,1020.6,,,,,,,,,,,,,,,8/8 Overcast,10000.0,,OVC,9900.0,,,,,,
KRDR,06-10-2006,07:00,METAR,,120,5.0,,,9999.0,,13.0,9.0,30.13,1020.6,,,,,,,,,,,,,,,8/8 Overcast,10000.0,,OVC,9900.0,,,,,,
KRDR,06-10-2006,06:00,METAR,,120,5.0,,,9999.0,,13.0,10.0,30.14,1020.9,,,,,,,,,,,,,,,8/8 Overcast,11000.0,,SCT,9900.0,OVC,11000.0,,,,
KRDR,06-10-2006,05:00,METAR,,80,3.0,,,9999.0,,13.0,9.0,30.14,1021.0,,,,,,,,,,,,,,,8/8 Overcast,10000.0,,OVC,9900.0,,,,,,
KRDR,06-10-2006,04:00,METAR,,90,3.0,,,9999.0,,13.0,9.0,30.15,1021.3,,,,,,,,,,,,,,,8/8 Overcast,9000.0,,BKN,8900.0,OVC,12000.0,,,,
KRDR,06-10-2006,03:00,METAR,,60,4.0,,,9999.0,,14.0,9.0,30.14,1021.1,,,,,,,,,,,,,,,8/8 Overcast,9000.0,,FEW,2800.0,BKN,8900.0,OVC,12000.0,,
KRDR,06-10-2006,02:00,METAR,,60,5.0,,,9999.0,,14.0,11.0,30.14,1020.9,,,,,,,,,,,,,,,8/8 Overcast,9000.0,,SCT,2900.0,BKN,8900.0,OVC,12000.0,,
KRDR,06-10-2006,01:00,METAR,,80,6.0,,,9999.0,,15.0,11.0,30.14,1021.0,,,,,,,,,,,,,,,8/8 Overcast,9000.0,,FEW,2200.0,BKN,8900.0,OVC,15000.0,,
KRDR,06-10-2006,00:00,METAR,,100,6.0,,,9999.0,,15.0,11.0,30.15,1021.2,,,,,,,,,,,,,TRACE,,8/8 Overcast,10000.0,,FEW,2200.0,BKN,9900.0,OVC,15000.0,,
KRDR,06-09-2006,23:00,METAR,,90,7.0,,,9999.0,,15.0,11.0,30.15,1021.3,,,,,,,,,,,,,,,8/8 Overcast,7000.0,,FEW,2200.0,BKN,6900.0,OVC,12000.0,,
KRDR,06-09-2006,22:00,METAR,,100,12.0,17.0,,9999.0,,15.0,10.0,30.15,1021.2,,,,,,,,,,,,,,,8/8 Overcast,8000.0,,FEW,1500.0,BKN,7900.0,OVC,12000.0,,
KRDR,06-09-2006,21:00,METAR,,80,13.0,18.0,,9999.0,,15.0,11.0,30.15,1021.3,,,,,,,,,,,,TRACE,,,8/8 Overcast,4900.0,,SCT,1300.0,BKN,5000.0,OVC,7400.0,,
KRDR,06-09-2006,20:32,SPECI,,70,9.0,,,9999.0,,14.0,12.0,30.15,,,,,,,,,,,,,,,,8/8 Overcast,3200.0,,FEW,1300.0,BKN,3300.0,OVC,5400.0,,
KRDR,06-09-2006,20:00,METAR,,60,13.0,,,9999.0,,14.0,12.0,30.15,1021.5,,,,,,,,,,,,,,,8/8 Overcast,2600.0,,SCT,1200.0,BKN,2600.0,OVC,7400.0,,
KRDR,06-09-2006,19:26,SPECI,,50,11.0,,,9999.0,,14.0,12.0,30.15,,,,,,,,,,,,,,,,8/8 Overcast,2400.0,,SCT,1800.0,BKN,2400.0,OVC,3800.0,,
KRDR,06-09-2006,19:00,METAR,,60,9.0,,,9999.0,Rain,14.0,12.0,30.15,1021.7,,,,61,,,,,,,,,,,8/8 Overcast,2500.0,,SCT,1800.0,BKN,2500.0,OVC,4000.0,,
KRDR,06-09-2006,18:15,SPECI,,60,11.0,,,9999.0,Light Rain Showers,14.0,12.0,30.15,,,,,80,,,,,,,,,,,8/8 Overcast,1500.0,,SCT,800.0,BKN,1500.0,OVC,4000.0,,
KRDR,06-09-2006,18:00,METAR,,60,11.0,,,9999.0,Light Rain Showers,14.0,12.0,30.15,1021.7,,,,80,,,,,,,,,TRACE,,8/8 Overcast,900.0,,BKN,900.0,BKN,4000.0,OVC,5900.0,,
KRDR,06-09-2006,17:32,SPECI,,70,7.0,,,9999.0,Light Rain Showers/Mist,13.0,12.0,30.15,,,,,80,10,,,,,,,,,,8/8 Overcast,900.0,,BKN,900.0,BKN,2500.0,OVC,5900.0,,
KRDR,06-09-2006,17:00,METAR,,80,10.0,,,9999.0,Light Rain Showers,13.0,12.0,30.14,1021.4,,,,80,,,,,,,,,,,8/8 Overcast,4900.0,,SCT,800.0,BKN,5000.0,OVC,8900.0,,
KRDR,06-09-2006,16:07,SPECI,,80,11.0,,,9999.0,Light Rain Showers/Mist,13.0,11.0,30.14,,,,,80,10,,,,,,,,,,8/8 Overcast,6000.0,,SCT,800.0,SCT,3500.0,OVC,5900.0,,
KRDR,06-09-2006,16:00,METAR,,70,13.0,,,9999.0,Light Rain Showers,13.0,11.0,30.14,1021.3,,,,80,,,,,,,,,,,8/8 Overcast,6000.0,,FEW,1200.0,SCT,4500.0,OVC,5900.0,,
KRDR,06-09-2006,15:00,METAR,,80,8.0,,,8000.0,Light Rain Showers,13.0,11.0,30.14,1021.3,,,,80,,,,,,,,TRACE,,,8/8 Overcast,6000.0,,FEW,3500.0,OVC,5900.0,,,,
KRDR,06-09-2006,14:00,METAR,,60,7.0,,,9999.0,Light Rain Showers,12.0,11.0,30.15,1021.6,,,,80,,,,,,,,,,,8/8 Overcast,8500.0,,FEW,3500.0,OVC,8400.0,,,,
KRDR,06-09-2006,13:00,METAR,,60,8.0,,,9999.0,Light Rain Showers,13.0,11.0,30.15,1021.5,,,,80,,,,,,,,,,,8/8 Overcast,9000.0,,FEW,3500.0,OVC,8900.0,,,,
KRDR,06-09-2006,12:00,METAR,,60,9.0,,,9999.0,Light Rain Showers,13.0,11.0,30.15,1021.5,,,,80,,,,,,,,,TRACE,,8/8 Overcast,9000.0,,FEW,2800.0,SCT,6400.0,OVC,8900.0,,
KRDR,06-09-2006,11:00,METAR,,50,7.0,,,9999.0,Light Rain Showers,14.0,10.0,30.16,1021.5,,,,80,,,,,,,,,,,8/8 Overcast,9000.0,,FEW,2800.0,SCT,6900.0,OVC,8900.0,,
KRDR,06-09-2006,10:00,METAR,,60,9.0,,,9999.0,,14.0,10.0,30.16,1021.5,,,,,,,,,,,,,,,8/8 Overcast,9000.0,,OVC,8900.0,,,,,,
KRDR,06-09-2006,09:00,METAR,,60,9.0,,,9999.0,,14.0,9.0,30.15,1021.2,,,,,,,,,,,,,,,8/8 Overcast,9000.0,,OVC,8900.0,,,,,,
KRDR,06-09-2006,08:00,METAR,,60,9.0,,,9999.0,,14.0,9.0,30.16,1021.6,,,,,,,,,,,,,,,8/8 Overcast,9000.0,,OVC,8900.0,,,,,,
KRDR,06-09-2006,07:00,METAR,,40,8.0,,,9999.0,,14.0,9.0,30.17,1022.0,,,,,,,,,,,,,,,8/8 Overcast,9000.0,,OVC,8900.0,,,,,,
KRDR,06-09-2006,06:00,METAR,,50,7.0,,,9999.0,,14.0,10.0,30.18,1022.2,,,,,,,,,,,,,TRACE,,8/8 Overcast,9500.0,,OVC,9400.0,,,,,,
KRDR,06-09-2006,05:00,METAR,,50,5.0,,,9999.0,,14.0,10.0,30.20,1022.8,,,,,,,,,,,,,,,8/8 Overcast,9000.0,,OVC,8900.0,,,,,,
KRDR,06-09-2006,04:00,METAR,,40,9.0,,,9999.0,,14.0,10.0,30.20,1023.0,,,,,,,,,,,,,,,8/8 Overcast,8500.0,,FEW,3900.0,OVC,8400.0,,,,
KRDR,06-09-2006,03:33,SPECI,,40,9.0,,,9999.0,,14.0,10.0,30.20,,,,,,,,,,,,,,,,8/8 Overcast,8500.0,,SCT,3900.0,OVC,8400.0,,,,
KRDR,06-09-2006,03:00,METAR,,40,7.0,,,9999.0,,14.0,10.0,30.20,1023.1,,,,,,,,,,,,TRACE,,,8/8 Overcast,9000.0,,FEW,5900.0,OVC,8900.0,,,,
KRDR,06-09-2006,02:00,METAR,,50,3.0,,,9999.0,Rain,15.0,11.0,30.18,1022.6,,,,61,,,,,,,,,,,8/8 Overcast,9000.0,,FEW,5900.0,OVC,8900.0,,,,
KRDR,06-09-2006,01:00,METAR,,40,8.0,,,9999.0,Rain,15.0,11.0,30.19,1022.8,,,,61,,,,,,,,,,,8/8 Overcast,10000.0,,SCT,4500.0,OVC,9900.0,,,,
KRDR,06-09-2006,00:11,SPECI,,30,7.0,,,9999.0,Rain,15.0,11.0,30.19,,,,,61,,,,,,,,,,,8/8 Overcast,10000.0,,SCT,4500.0,OVC,9900.0,,,,
KRDR,06-09-2006,00:00,METAR,,30,10.0,,,9999.0,Rain,16.0,10.0,30.18,1022.7,,,,61,,,,,,,,,TRACE,,8/8 Overcast,11000.0,,SCT,4500.0,OVC,11000.0,,,,
KRDR,06-08-2006,23:28,SPECI,,30,11.0,,,9999.0,Rain,17.0,9.0,30.18,,,,,61,,,,,,,,,,,8/8 Overcast,11000.0,,SCT,4500.0,OVC,11000.0,,,,
KRDR,06-08-2006,23:00,METAR,,30,9.0,,,9999.0,,17.0,8.0,30.18,1022.6,,,,,,,,,,,,,,,8/8 Overcast,11000.0,,FEW,4500.0,OVC,11000.0,,,,
KRDR,06-08-2006,22:00,METAR,,30,11.0,,,9999.0,,17.0,8.0,30.19,1023.0,,,,,,,,,,,,,,,8/8 Overcast,11000.0,,FEW,4000.0,OVC,11000.0,,,,
KRDR,06-08-2006,21:00,METAR,,360,11.0,,,9999.0,,17.0,9.0,30.19,1022.8,,,,,,,,,,,,,,,8/8 Overcast,12000.0,,FEW,4000.0,OVC,12000.0,,,,
KRDR,06-08-2006,20:00,METAR,,10,11.0,,,9999.0,,18.0,9.0,30.20,1023.3,,,,,,,,,,,,,,,8/8 Overcast,14000.0,,FEW,3000.0,BKN,14000.0,OVC,25000.0,,
KRDR,06-08-2006,19:00,METAR,,360,13.0,,,9999.0,,19.0,9.0,30.21,1023.5,,,,,,,,,,,,,,,7/8 Mostly Cloudy,15000.0,,FEW,3000.0,BKN,15000.0,BKN,25000.0,,
KRDR,06-08-2006,18:00,METAR,,360,13.0,16.0,,9999.0,,18.0,8.0,30.23,1024.1,,,,,,,,,,,,,,,7/8 Mostly Cloudy,18000.0,,FEW,2000.0,BKN,18000.0,,,,
KRDR,06-08-2006,17:00,METAR,,10,8.0,,,9999.0,,16.0,8.0,30.23,1024.3,,,,,,,,,,,,,,,7/8 Mostly Cloudy,18000.0,,FEW,2000.0,BKN,18000.0,BKN,25000.0,,
KRDR,06-08-2006,16:00,METAR,,360,8.0,,,9999.0,,16.0,7.0,30.25,1024.9,,,,,,,,,,,,,,,7/8 Mostly Cloudy,25000.0,,FEW,5000.0,SCT,15000.0,BKN,25000.0,,
KRDR,06-08-2006,15:00,METAR,,10,10.0,,,9999.0,,15.0,7.0,30.27,1025.6,,,,,,,,,,,,,,,4/8 Partly Cloudy,72000.0,,FEW,12000.0,SCT,25000.0,,,,
KRDR,06-08-2006,14:00,METAR,,360,7.0,,,9999.0,,13.0,7.0,30.28,1025.7,,,,,,,,,,,,,,,4/8 Partly Cloudy,72000.0,,FEW,12000.0,SCT,25000.0,,,,
KRDR,06-08-2006,13:00,METAR,,10,9.0,,,9999.0,,12.0,7.0,30.27,1025.5,,,,,,,,,,,,,,,4/8 Partly Cloudy,72000.0,,FEW,15000.0,SCT,25000.0,,,,
KRDR,06-08-2006,12:00,METAR,,340,7.0,,,9999.0,,11.0,7.0,30.27,1025.6,,,,,,,,,,,,,,,4/8 Partly Cloudy,72000.0,,FEW,15000.0,SCT,25000.0,,,,
KRDR,06-08-2006,11:00,METAR,,350,6.0,,,9999.0,,9.0,7.0,30.25,1024.5,,,,,,,,,,,,,,,4/8 Partly Cloudy,72000.0,,FEW,15000.0,SCT,25000.0,,,,
KRDR,06-08-2006,10:00,METAR,,360,7.0,,,9999.0,,10.0,7.0,30.24,1024.1,,,,,,,,,,,,,,,4/8 Partly Cloudy,72000.0,,SCT,25000.0,,,,,,
KRDR,06-08-2006,09:00,METAR,,350,6.0,,,9999.0,,11.0,7.0,30.22,1023.6,,,,,,,,,,,,,,,4/8 Partly Cloudy,72000.0,,SCT,25000.0,,,,,,
KRDR,06-08-2006,08:00,METAR,,350,7.0,,,9999.0,,11.0,7.0,30.20,1022.9,,,,,,,,,,,,,,,2/8 Mostly Clear,72000.0,,FEW,25000.0,,,,,,
KRDR,06-08-2006,07:00,METAR,,330,3.0,,,9999.0,,13.0,9.0,30.20,1022.7,,,,,,,,,,,,,,,2/8 Mostly Clear,72000.0,,FEW,25000.0,,,,,,
KRDR,06-08-2006,06:00,METAR,,330,4.0,,,9999.0,,13.0,10.0,30.19,1022.3,,,,,,,,,,,,,,,4/8 Partly Cloudy,72000.0,,SCT,25000.0,,,,,,
KRDR,06-08-2006,05:00,METAR,,20,6.0,,,9999.0,,14.0,10.0,30.16,1021.4,,,,,,,,,,,,,,,4/8 Partly Cloudy,72000.0,,SCT,25000.0,,,,,,
KRDR,06-08-2006,04:00,METAR,,30,7.0,,,9999.0,,17.0,10.0,30.13,1020.3,,,,,,,,,,,,,,,4/8 Partly Cloudy,72000.0,,SCT,25000.0,,,,,,
KRDR,06-08-2006,03:00,METAR,,,3.0,,,9999.0,,18.0,11.0,30.11,1019.8,,,,,,,,,,,,,,,4/8 Partly Cloudy,72000.0,,SCT,25000.0,,,,,,
KRDR,06-08-2006,02:00,METAR,,30,6.0,,,9999.0,,21.0,9.0,30.10,1019.4,,,,,,,,,,,,,,,4/8 Partly Cloudy,72000.0,,FEW,5900.0,SCT,25000.0,,,,
KRDR,06-08-2006,01:00,METAR,,10,9.0,,,9999.0,,24.0,9.0,30.09,1019.1,,,,,,,,,,,,,,,4/8 Partly Cloudy,72000.0,,FEW,5900.0,SCT,25000.0,,,,
KRDR,06-08-2006,00:00,METAR,,360,11.0,,,9999.0,,24.0,9.0,30.09,1019.2,,,,,,,,,,,,,,,2/8 Mostly Clear,72000.0,,FEW,5900.0,FEW,25000.0,,,,
KRDR,06-07-2006,23:00,METAR,,360,10.0,,,9999.0,,25.0,8.0,30.10,1019.4,,,,,,,,,,,,,,,2/8 Mostly Clear,72000.0,,FEW,5900.0,FEW,25000.0,,,,
KRDR,06-07-2006,22:00,METAR,,360,10.0,,,9999.0,,25.0,9.0,30.08,1018.9,,,,,,,,,,,,,,,2/8 Mostly Clear,72000.0,,FEW,5900.0,FEW,25000.0,,,,
KRDR,06-07-2006,21:00,METAR,,350,8.0,,,9999.0,,25.0,8.0,30.08,1018.9,,,,,,,,,,,,,,,4/8 Partly Cloudy,72000.0,,FEW,200.0,FEW,5000.0,SCT,25000.0,,
KRDR,06-07-2006,20:00,METAR,,340,9.0,,,9999.0,,25.0,8.0,30.09,1019.1,,,,,,,,,,,,,,,2/8 Mostly Clear,72000.0,,FEW,4500.0,FEW,25000.0,,,,
KRDR,06-07-2006,19:00,METAR,,360,10.0,,,9999.0,,24.0,8.0,30.08,1019.0,,,,,,,,,,,,,,,2/8 Mostly Clear,72000.0,,FEW,4500.0,FEW,25000.0,,,,
KRDR,06-07-2006,18:00,METAR,,350,9.0,,,9999.0,,23.0,8.0,30.09,1019.3,,,,,,,,,,,,,,,2/8 Mostly Clear,72000.0,,FEW,4500.0,FEW,25000.0,,,,
KRDR,06-07-2006,17:00,METAR,,350,11.0,,,9999.0,,22.0,9.0,30.10,1019.5,,,,,,,,,,,,,,,2/8 Mostly Clear,72000.0,,FEW,4500.0,FEW,9900.0,,,,
KRDR,06-07-2006,16:00,METAR,,10,12.0,,,9999.0,,22.0,10.0,30.09,1019.3,,,,,,,,,,,,,,,Clear,72000.0,,,73000.0,,,,,,
KRDR,06-07-2006,15:00,METAR,,350,11.0,,,9999.0,,20.0,12.0,30.10,1019.5,,,,,,,,,,,,,,,2/8 Mostly Clear,72000.0,,FEW,9900.0,,,,,,
KRDR,06-07-2006,14:00,METAR,,360,9.0,,,9999.0,,19.0,13.0,30.08,1018.9,,,,,,,,,,,,,,,2/8 Mostly Clear,72000.0,,FEW,9900.0,,,,,,
KRDR,06-07-2006,13:00,METAR,,350,11.0,,,9999.0,,18.0,13.0,30.08,1018.6,,,,,,,,,,,,,,,2/8 Mostly Clear,72000.0,,FEW,9900.0,,,,,,
KRDR,06-07-2006,12:00,METAR,,340,11.0,,,9999.0,,16.0,13.0,30.05,1017.6,,,,,,,,,,,,,,,2/8 Mostly Clear,72000.0,,FEW,9900.0,,,,,,
KRDR,06-07-2006,11:00,METAR,,330,8.0,,,9999.0,,15.0,12.0,30.04,1017.4,,,,,,,,,,,,,,,2/8 Mostly Clear,72000.0,,FEW,9900.0,,,,,,
KRDR,06-07-2006,10:00,METAR,,320,7.0,,,9999.0,,15.0,13.0,30.00,1016.0,,,,,,,,,,,,,,,2/8 Mostly Clear,72000.0,,FEW,9900.0,,,,,,
KRDR,06-07-2006,09:00,METAR,,300,8.0,,,9999.0,,15.0,12.0,29.97,1015.0,,,,,,,,,,,,,,,Clear,72000.0,,,73000.0,,,,,,
KRDR,06-07-2006,08:00,METAR,,300,5.0,,,9999.0,,15.0,12.0,29.94,1014.0,,,,,,,,,,,,,,,2/8 Mostly Clear,72000.0,,FEW,9900.0,,,,,,
KRDR,06-07-2006,07:00,METAR,,,0.0,,,9999.0,,15.0,13.0,29.92,1013.3,,,,,,,,,,,,,,,2/8 Mostly Clear,72000.0,,FEW,9900.0,,,,,,
KRDR,06-07-2006,06:00,METAR,,220,2.0,,,9999.0,,16.0,13.0,29.91,1013.0,,,,,,,,,,,,,,,Clear,72000.0,,,73000.0,,,,,,
KRDR,06-07-2006,05:00,METAR,,200,2.0,,,9999.0,,16.0,14.0,29.91,1013.0,,,,,,,,,,,,,,,Clear,72000.0,,,73000.0,,,,,,
KRDR,06-07-2006,04:00,METAR,,210,1.0,,,9999.0,,17.0,15.0,29.90,1012.7,,,,,,,,,,,,,,,Clear,72000.0,,,73000.0,,,,,,
KRDR,06-07-2006,03:00,METAR,,,2.0,,,9999.0,,19.0,14.0,29.88,1011.9,,,,,,,,,,,,,,,Clear,72000.0,,,73000.0,,,,,,
KRDR,06-07-2006,02:00,METAR,,340,4.0,,,9999.0,,22.0,14.0,29.87,1011.5,,,,,,,,,,,,,,,Clear,72000.0,,,73000.0,,,,,,
KRDR,06-07-2006,01:00,METAR,,330,12.0,,,9999.0,,26.0,12.0,29.86,1011.1,,,,,,,,,,,,,,,2/8 Mostly Clear,72000.0,,FEW,6400.0,,,,,,
KRDR,06-07-2006,00:00,METAR,,320,12.0,,,9999.0,,27.0,12.0,29.85,1010.9,,,,,,,,,,,,,,,2/8 Mostly Clear,72000.0,,FEW,6400.0,,,,,,
KRDR,06-06-2006,23:00,METAR,,320,13.0,,,9999.0,,27.0,12.0,29.85,1010.9,,,,,,,,,,,,,,,4/8 Partly Cloudy,72000.0,,SCT,6400.0,,,,,,
KRDR,06-06-2006,22:00,METAR,,320,13.0,,,9999.0,,27.0,14.0,29.84,1010.6,,,,,,,,,,,,,,,4/8 Partly Cloudy,72000.0,,SCT,5900.0,,,,,,
KRDR,06-06-2006,21:00,METAR,,310,13.0,,,9999.0,,26.0,16.0,29.84,1010.4,,,,,,,,,,,,,,,7/8 Mostly Cloudy,5500.0,,BKN,5400.0,,,,,,
KRDR,06-06-2006,20:00,METAR,,310,14.0,,,9999.0,,25.0,16.0,29.83,1010.3,,,,,,,,,,,,,,,7/8 Mostly Cloudy,4400.0,,BKN,4500.0,,,,,,
KRDR,06-06-2006,19:00,METAR,,300,14.0,18.0,,9999.0,,25.0,16.0,29.83,1010.2,,,,,,,,,,,,,,,7/8 Mostly Cloudy,3800.0,,BKN,3900.0,,,,,,
KRDR,06-06-2006,18:00,METAR,,300,13.0,18.0,,9999.0,,23.0,16.0,29.83,1010.0,,,,,,,,,,,,,,,7/8 Mostly Cloudy,3400.0,,BKN,3500.0,,,,,,
KRDR,06-06-2006,17:00,METAR,,280,11.0,19.0,,9999.0,,22.0,15.0,29.82,1009.6,,,,,,,,,,,,,,,7/8 Mostly Cloudy,3100.0,,BKN,3100.0,,,,,,
KRDR,06-06-2006,16:44,SPECI,,280,17.0,23.0,,9999.0,,22.0,16.0,29.82,1009.6,,,,,,,,,,,,,,,7/8 Mostly Cloudy,3100.0,,BKN,3100.0,,,,,,
KRDR,06-06-2006,16:00,METAR,,280,16.0,21.0,,9999.0,,21.0,16.0,29.79,1008.8,,,,,,,,,,,,,,,7/8 Mostly Cloudy,2400.0,,BKN,2400.0,,,,,,
KRDR,06-06-2006,15:40,SPECI,,290,13.0,23.0,,9999.0,,21.0,16.0,29.79,,,,,,,,,,,,,,,,7/8 Mostly Cloudy,2300.0,,BKN,2300.0,,,,,,
KRDR,06-06-2006,15:00,METAR,,270,13.0,18.0,,9999.0,,21.0,16.0,29.78,1008.3,,,,,,,,,,,,,,,4/8 Partly Cloudy,72000.0,,SCT,2200.0,,,,,,
KRDR,06-06-2006,14:00,METAR,,290,17.0,,,9999.0,,20.0,16.0,29.76,1007.7,,,,,,,,,,,,,,,2/8 Mostly Clear,72000.0,,FEW,1000.0,FEW,9900.0,,,,
KRDR,06-06-2006,13:00,METAR,,280,16.0,,,9999.0,,18.0,15.0,29.76,1007.4,,,,,,,,,,,,,,,Clear,72000.0,,,73000.0,,,,,,
KRDR,06-06-2006,12:00,METAR,,270,7.0,,,9999.0,,17.0,14.0,29.75,1007.1,,,,,,,,,,,,,,.45 IN,2/8 Mostly Clear,72000.0,,FEW,25000.0,,,,,,
KRDR,06-06-2006,11:00,METAR,,260,6.0,,,9999.0,,15.0,13.0,29.73,1006.9,,,,,,,,,,,,,,,2/8 Mostly Clear,72000.0,,FEW,9900.0,,,,,,
KRDR,06-06-2006,10:00,METAR,,270,7.0,,,9999.0,,15.0,13.0,29.71,1006.2,,,,,,,,,,,,,,,2/8 Mostly Clear,72000.0,,FEW,9900.0,,,,,,
KRDR,06-06-2006,09:00,METAR,,280,7.0,,,9999.0,,16.0,13.0,29.69,1005.5,,,,,,,,,,,,,,,2/8 Mostly Clear,72000.0,,FEW,9900.0,FEW,25000.0,,,,
KRDR,06-06-2006,08:00,METAR,,270,7.0,,,9999.0,,16.0,13.0,29.68,1005.3,,,,,,,,,,,,,,,2/8 Mostly Clear,72000.0,,FEW,25000.0,,,,,,
KRDR,06-06-2006,07:00,METAR,,230,5.0,,,9999.0,,16.0,13.0,29.68,1005.3,,,,,,,,,,,,,,,4/8 Partly Cloudy,72000.0,,FEW,9900.0,SCT,25000.0,,,,
KRDR,06-06-2006,06:00,METAR,,230,5.0,,,9999.0,,16.0,13.0,29.68,1005.2,,,,,,,,,,,,,.45 IN,,7/8 Mostly Cloudy,10000.0,,BKN,9900.0,BKN,25000.0,,,,
KRDR,06-06-2006,05:00,METAR,,240,4.0,,,9999.0,,16.0,15.0,29.69,1005.5,,,,,,,,,,,,,,,7/8 Mostly Cloudy,10000.0,,FEW,5900.0,BKN,9900.0,BKN,25000.0,,
KRDR,06-06-2006,04:00,METAR,,220,4.0,,,9999.0,,17.0,16.0,29.70,1005.9,,,,,,,,,,,,,,,7/8 Mostly Cloudy,10000.0,,FEW,5900.0,BKN,9900.0,BKN,25000.0,,
KRDR,06-06-2006,03:00,METAR,,190,5.0,,,9999.0,,17.0,16.0,29.69,1005.3,,,,,,,,,,,,TRACE,,,7/8 Mostly Cloudy,10000.0,,SCT,5900.0,BKN,9900.0,BKN,25000.0,,
KRDR,06-06-2006,02:08,SPECI,,300,9.0,14.0,,9999.0,,18.0,16.0,29.68,,,,,,,,,,,,,,,,7/8 Mostly Cloudy,10000.0,,SCT,5900.0,BKN,9900.0,BKN,25000.0,,
KRDR,06-06-2006,02:00,METAR,,,1.0,,,9999.0,Thunderstorm,18.0,16.0,29.67,1004.9,,,,17,,,,,,,,,,,7/8 Mostly Cloudy,10000.0,,SCT,5900.0,BKN,9900.0,BKN,25000.0,,
KRDR,06-06-2006,01:03,SPECI,,220,12.0,21.0,,9999.0,Thunderstorm with Rain or Snow/Light Rain Showers,20.0,16.0,29.67,,,,,95,80,,,,,,,,,,7/8 Mostly Cloudy,6000.0,,BKN,5900.0,BKN,25000.0,,,,
KRDR,06-06-2006,01:00,METAR,,260,23.0,29.0,,2400.0,Heavy Thunderstorm with Rain or Snow/Hail Showers/Heavy Rain Showers,23.0,15.0,29.68,1004.9,,,,97,82,90,,,,,,,,,7/8 Mostly Cloudy,6000.0,,BKN,5900.0,BKN,25000.0,,,,
KRDR,06-06-2006,00:41,SPECI,,300,6.0,,,9999.0,Thunderstorm with Rain or Snow/Light Rain Showers,25.0,15.0,29.67,,,,,95,80,,,,,,,,,,7/8 Mostly Cloudy,6000.0,,BKN,5900.0,BKN,25000.0,,,,
KRDR,06-06-2006,00:00,METAR,,260,8.0,,,9999.0,,26.0,15.0,29.67,1004.7,,,,,,,,,,,,,TRACE,,7/8 Mostly Cloudy,25000.0,,SCT,5900.0,SCT,11000.0,BKN,25000.0,,
KRDR,06-05-2006,23:00,METAR,,230,10.0,,,9999.0,,28.0,15.0,29.68,1005.0,,,,,,,,,,,,,,,7/8 Mostly Cloudy,25000.0,,FEW,5900.0,SCT,12000.0,BKN,25000.0,,
KRDR,06-05-2006,22:00,METAR,,190,7.0,,,9999.0,,27.0,16.0,29.70,1005.5,,,,,,,,,,,,,,,7/8 Mostly Cloudy,25000.0,,SCT,5900.0,SCT,12000.0,BKN,25000.0,,
KRDR,06-05-2006,21:00,METAR,,,3.0,,,9999.0,,26.0,16.0,29.69,1005.1,,,,,,,,,,,,TRACE,,,7/8 Mostly Cloudy,25000.0,,FEW,5900.0,FEW,12000.0,BKN,25000.0,,
KRDR,06-05-2006,20:00,METAR,,,5.0,,,9999.0,,23.0,19.0,29.72,1006.4,,,,,,,,,,,,,,,7/8 Mostly Cloudy,25000.0,,FEW,5900.0,SCT,12000.0,BKN,25000.0,,
KRDR,06-05-2006,19:44,SPECI,,,,,,,,23.0,19.0,29.73,,,,,,,,,,,,,,,,,25000.0,,FEW,5900.0,SCT,12000.0,BKN,25000.0,,
KRDR,06-05-2006,19:34,SPECI,,110,7.0,,,9999.0,,23.0,19.0,29.74,,,,,,,,,,,,,,,,7/8 Mostly Cloudy,25000.0,,SCT,5900.0,SCT,12000.0,BKN,25000.0,,
KRDR,06-05-2006,19:09,SPECI,,,2.0,,,9999.0,Thunderstorm,23.0,21.0,29.73,,,,,17,,,,,,,,,,,7/8 Mostly Cloudy,25000.0,,SCT,4000.0,SCT,8900.0,BKN,25000.0,,
KRDR,06-05-2006,19:02,SPECI,,230,5.0,,,9999.0,Thunderstorm,22.0,21.0,29.73,,,,,17,,,,,,,,,,,7/8 Mostly Cloudy,25000.0,,SCT,3700.0,SCT,8900.0,BKN,25000.0,,
KRDR,06-05-2006,19:00,METAR,,230,10.0,,,9999.0,Thunderstorm with Rain or Snow/Light Rain Showers,22.0,20.0,29.73,1006.7,,,,95,80,,,,,,,,,,7/8 Mostly Cloudy,25000.0,,SCT,3700.0,SCT,8900.0,BKN,25000.0,,
KRDR,06-05-2006,18:37,SPECI,,270,12.0,,,8000.0,Thunderstorm with Rain or Snow/Light Rain Showers/Mist,24.0,18.0,29.72,,,,,95,80,10,,,,,,,,,8/8 Overcast,5500.0,,BKN,5400.0,OVC,12000.0,,,,
KRDR,06-05-2006,18:19,SPECI,,,6.0,,,9999.0,Light Rain Showers,26.0,18.0,29.73,,,,,80,,,,,,,,,,,8/8 Overcast,12000.0,,SCT,5400.0,BKN,12000.0,OVC,25000.0,,
KRDR,06-05-2006,18:00,METAR,,,1.0,,,9999.0,,27.0,17.0,29.72,1006.2,,,,,,,,,,,,,,,8/8 Overcast,12000.0,,FEW,5000.0,BKN,12000.0,OVC,25000.0,,
KRDR,06-05-2006,17:00,METAR,,,5.0,,,9999.0,,26.0,18.0,29.74,1007.0,,,,,,,,,,,,,,,7/8 Mostly Cloudy,12000.0,,FEW,4000.0,BKN,12000.0,BKN,25000.0,,
KRDR,06-05-2006,16:00,METAR,,,2.0,,,9999.0,,24.0,18.0,29.75,1007.4,,,,,,,,,,,,,,,7/8 Mostly Cloudy,30000.0,,SCT,15000.0,BKN,30000.0,,,,
KRDR,06-05-2006,15:00,METAR,,,1.0,,,9999.0,,23.0,17.0,29.76,1007.5,,,,,,,,,,,,,,,7/8 Mostly Cloudy,30000.0,,SCT,15000.0,BKN,30000.0,,,,
KRDR,06-05-2006,14:00,METAR,,,1.0,,,9999.0,,21.0,16.0,29.77,1007.7,,,,,,,,,,,,,,,7/8 Mostly Cloudy,25000.0,,SCT,15000.0,BKN,25000.0,,,,
KRDR,06-05-2006,13:00,METAR,,,2.0,,,9999.0,,19.0,17.0,29.77,1007.7,,,,,,,,,,,,,,,7/8 Mostly Cloudy,25000.0,,SCT,15000.0,BKN,25000.0,,,,
KRDR,06-05-2006,12:00,METAR,,280,5.0,,,9999.0,,16.0,15.0,29.78,1008.6,,,,,,,,,,,,,,,7/8 Mostly Cloudy,25000.0,,FEW,5900.0,BKN,25000.0,,,,
KRDR,06-05-2006,11:00,METAR,,260,4.0,,,9999.0,,15.0,14.0,29.78,1008.7,,,,,,,,,,,,,,,7/8 Mostly Cloudy,25000.0,,FEW,5900.0,BKN,25000.0,,,,
KRDR,06-05-2006,10:00,METAR,,280,2.0,,,9999.0,,15.0,14.0,29.77,1008.3,,,,,,,,,,,,,,,7/8 Mostly Cloudy,25000.0,,FEW,5900.0,BKN,25000.0,,,,
KRDR,06-05-2006,08:00,METAR,,290,5.0,,,9999.0,,17.0,15.0,29.77,1008.2,,,,,,,,,,,,,,,7/8 Mostly Cloudy,25000.0,,BKN,25000.0,,,,,,
KRDR,06-05-2006,07:00,METAR,,320,1.0,,,9999.0,,17.0,15.0,29.77,1008.2,,,,,,,,,,,,,,,4/8 Partly Cloudy,72000.0,,SCT,25000.0,,,,,,
KRDR,06-05-2006,06:00,METAR,,340,3.0,,,9999.0,,18.0,16.0,29.78,1008.6,,,,,,,,,,,,,,,7/8 Mostly Cloudy,25000.0,,FEW,6400.0,BKN,25000.0,,,,
KRDR,06-05-2006,05:00,METAR,,330,2.0,,,9999.0,,19.0,16.0,29.79,1008.9,,,,,,,,,,,,,,,7/8 Mostly Cloudy,25000.0,,FEW,6400.0,BKN,25000.0,,,,
KRDR,06-05-2006,04:00,METAR,,330,6.0,,,9999.0,,20.0,16.0,29.78,1008.6,,,,,,,,,,,,,,,7/8 Mostly Cloudy,25000.0,,FEW,6400.0,BKN,25000.0,,,,
KRDR,06-05-2006,03:00,METAR,,210,5.0,,,9999.0,,22.0,15.0,29.77,1007.9,,,,,,,,,,,,,,,7/8 Mostly Cloudy,25000.0,,FEW,5900.0,FEW,8900.0,BKN,25000.0,,
KRDR,06-05-2006,02:00,METAR,,230,3.0,,,9999.0,,23.0,17.0,29.76,1007.4,,,,,,,,,,,,,,,7/8 Mostly Cloudy,25000.0,,FEW,5900.0,FEW,15000.0,BKN,25000.0,,
KRDR,06-05-2006,01:00,METAR,,290,5.0,,,9999.0,,26.0,16.0,29.76,1007.4,,,,,,,,,,,,,,,7/8 Mostly Cloudy,25000.0,,FEW,5900.0,BKN,25000.0,,,,
KRDR,06-05-2006,00:00,METAR,,280,7.0,,,9999.0,,28.0,16.0,29.76,1007.5,,,,,,,,,,,,,,,7/8 Mostly Cloudy,25000.0,,SCT,5900.0,BKN,25000.0,,,,
KRDR,06-04-2006,23:00,METAR,,240,5.0,,,9999.0,,28.0,16.0,29.76,1007.6,,,,,,,,,,,,,,,7/8 Mostly Cloudy,25000.0,,SCT,5900.0,BKN,25000.0,,,,
KRDR,06-04-2006,22:00,METAR,,260,10.0,,,9999.0,,30.0,15.0,29.77,1007.8,,,,,,,,,,,,,,,7/8 Mostly Cloudy,6000.0,,BKN,5900.0,,,,,,
KRDR,06-04-2006,21:00,METAR,,240,10.0,,,9999.0,,30.0,16.0,29.77,1007.9,,,,,,,,,,,,,,,7/8 Mostly Cloudy,6000.0,,BKN,5900.0,,,,,,
KRDR,06-04-2006,20:00,METAR,,250,9.0,,,9999.0,,29.0,16.0,29.78,1008.0,,,,,,,,,,,,,,,4/8 Partly Cloudy,72000.0,,SCT,5900.0,,,,,,
KRDR,06-04-2006,19:00,METAR,,200,7.0,,,9999.0,,29.0,16.0,29.79,1008.5,,,,,,,,,,,,,,,4/8 Partly Cloudy,72000.0,,FEW,4000.0,SCT,25000.0,,,,
KRDR,06-04-2006,18:00,METAR,,220,8.0,,,9999.0,,29.0,16.0,29.81,1009.0,,,,,,,,,,,,,,,4/8 Partly Cloudy,72000.0,,FEW,4000.0,SCT,25000.0,,,,
KRDR,06-04-2006,17:00,METAR,,220,8.0,,,9999.0,,27.0,16.0,29.82,1009.5,,,,,,,,,,,,,,,7/8 Mostly Cloudy,25000.0,,FEW,4000.0,SCT,12000.0,BKN,25000.0,,
KRDR,06-04-2006,16:00,METAR,,200,6.0,,,9999.0,,24.0,16.0,29.83,1009.9,,,,,,,,,,,,,,,7/8 Mostly Cloudy,25000.0,,SCT,12000.0,BKN,25000.0,,,,
KRDR,06-04-2006,15:00,METAR,,200,10.0,,,9999.0,,22.0,13.0,29.83,1009.9,,,,,,,,,,,,,,,7/8 Mostly Cloudy,25000.0,,SCT,12000.0,BKN,25000.0,,,,
KRDR,06-04-2006,14:00,METAR,,180,9.0,,,9999.0,,20.0,12.0,29.83,1010.1,,,,,,,,,,,,,,,7/8 Mostly Cloudy,25000.0,,SCT,12000.0,BKN,25000.0,,,,
KRDR,06-04-2006,13:00,METAR,,170,12.0,,,9999.0,,20.0,12.0,29.84,1010.0,,,,,,,,,,,,,,,7/8 Mostly Cloudy,25000.0,,SCT,12000.0,BKN,25000.0,,,,
KRDR,06-04-2006,12:00,METAR,,160,10.0,,,9999.0,,19.0,12.0,29.83,1010.0,,,,,,,,,,,,,,,7/8 Mostly Cloudy,25000.0,,SCT,12000.0,BKN,25000.0,,,,
KRDR,06-04-2006,11:00,METAR,,130,7.0,,,9999.0,,19.0,12.0,29.82,1009.6,,,,,,,,,,,,,,,7/8 Mostly Cloudy,25000.0,,FEW,5900.0,SCT,12000.0,BKN,25000.0,,
KRDR,06-04-2006,10:00,METAR,,150,8.0,,,9999.0,,19.0,12.0,29.81,1009.2,,,,,,,,,,,,,,,7/8 Mostly Cloudy,25000.0,,SCT,12000.0,BKN,25000.0,,,,
KRDR,06-04-2006,09:00,METAR,,140,4.0,,,9999.0,,18.0,13.0,29.81,1009.3,,,,,,,,,,,,,,,7/8 Mostly Cloudy,25000.0,,FEW,5900.0,SCT,12000.0,BKN,25000.0,,
KRDR,06-04-2006,08:00,METAR,,160,10.0,,,9999.0,,21.0,11.0,29.83,1009.9,,,,,,,,,,,,,,,7/8 Mostly Cloudy,25000.0,,FEW,5900.0,SCT,12000.0,BKN,25000.0,,
KRDR,06-04-2006,07:00,METAR,,190,6.0,,,9999.0,,20.0,12.0,29.86,1011.0,,,,,,,,,,,,,,,8/8 Overcast,12000.0,,FEW,6900.0,OVC,12000.0,,,,
KRDR,06-04-2006,06:00,METAR,,160,9.0,,,9999.0,,21.0,12.0,29.83,1010.1,,,,,,,,,,,,,,,7/8 Mostly Cloudy,12000.0,,BKN,12000.0,,,,,,
KRDR,06-04-2006,05:00,METAR,,120,10.0,,,9999.0,,21.0,12.0,29.81,1009.4,,,,,,,,,,,,,,,7/8 Mostly Cloudy,25000.0,,FEW,6900.0,FEW,15000.0,BKN,25000.0,,
KRDR,06-04-2006,04:00,METAR,,120,8.0,,,9999.0,,21.0,12.0,29.81,1009.5,,,,,,,,,,,,,,,7/8 Mostly Cloudy,25000.0,,FEW,15000.0,BKN,25000.0,,,,
KRDR,06-04-2006,03:00,METAR,,120,9.0,,,9999.0,,24.0,11.0,29.82,1009.6,,,,,,,,,,,,,,,4/8 Partly Cloudy,72000.0,,FEW,12000.0,SCT,25000.0,,,,
KRDR,06-04-2006,02:00,METAR,,130,8.0,,,9999.0,,25.0,11.0,29.83,1009.7,,,,,,,,,,,,,,,4/8 Partly Cloudy,72000.0,,FEW,12000.0,SCT,25000.0,,,,
KRDR,06-04-2006,01:00,METAR,,130,9.0,,,9999.0,,28.0,11.0,29.82,1009.4,,,,,,,,,,,,,,,2/8 Mostly Clear,72000.0,,FEW,25000.0,,,,,,
KRDR,06-04-2006,00:00,METAR,,120,12.0,,,9999.0,,29.0,10.0,29.83,1009.9,,,,,,,,,,,,,,,2/8 Mostly Clear,72000.0,,FEW,25000.0,,,,,,
