Platform Id,Date,Time (UTC),Report Type,Wind Condition,Wind Direction,Wind Speed (Knots),Wind Gust Speed,Peak Wind (Knots),Visibility (M),Weather,Air Temp (C),Dew Point (C),Altimeter (inHg),SLP (Millibars),Present Automated 1,Present Automated 2,Present Automated 3,Present Manual 1,Present Manual 2,Present Manual 3,Present Manual 4,Present Manual 5,Present Manual 6,Present Manual 7,Precip Hr1,Precip Hr3,Precip Hr6,Precip Hr24,Cloud Cover,Cloud Ceiling (Feet),Lowest Cloud Base Height (Feet),Cloud Cover1,Cloudbase 1,Cloud Cover2,Cloudbase 2,Cloud Cover3,Cloudbase 3,Cloud Cover4,Cloudbase 4
KRDR,11-22-2008,23:34,SPECI,,180,8,,,9999.0,,-2.0,-4.0,30.05,1018.6,,,,,,,,,,,,,,,8/8 Overcast,1100.0,,OVC,1100,,,,,,
KRDR,11-22-2008,23:30,SPECI,,180,8,,,9999.0,,-2.0,-4.0,30.05,1018.5,,,,,,,,,,,,,,,8/8 Overcast,1200.0,,OVC,1200,,,,,,
KRDR,11-22-2008,23:16,SPECI,,180,7,,,9999.0,,-2.0,-4.0,30.05,1018.6,,,,,,,,,,,,,,,8/8 Overcast,1000.0,,OVC,1000,,,,,,
KRDR,11-22-2008,23:00,METAR,,190,8,,,9999.0,,-2.0,-4.0,30.06,1018.8,,,,,,,,,,,,,,,8/8 Overcast,900.0,,OVC,900,,,,,,
KRDR,11-22-2008,22:40,SPECI,,190,7,,,9999.0,,-2.0,-4.0,30.07,1019.0,,,,,,,,,,,,,,,8/8 Overcast,900.0,,OVC,900,,,,,,
KRDR,11-22-2008,22:00,METAR,,190,7,,,9999.0,,-2.0,-4.0,30.07,1019.1,,,,,,,,,,,TRACE,,,,8/8 Overcast,1100.0,,OVC,1100,,,,,,
KRDR,11-22-2008,21:48,SPECI,,200,8,,,9999.0,,-2.0,-4.0,30.07,1019.2,,,,,,,,,,,,,,,8/8 Overcast,1100.0,,OVC,1100,,,,,,
KRDR,11-22-2008,21:06,SPECI,,230,8,,,9999.0,,-2.0,-5.0,30.08,1019.4,,,,,,,,,,,,,,,8/8 Overcast,1300.0,,OVC,1300,,,,,,
KRDR,11-22-2008,21:00,METAR,,230,8,,,9999.0,,-2.0,-5.0,30.08,1019.5,,,,,,,,,,,,,,,8/8 Overcast,1300.0,,OVC,1300,,,,,,
KRDR,11-22-2008,20:00,METAR,,210,10,,,9999.0,,-2.0,-5.0,30.08,1019.6,,,,,,,,,,,,,,,8/8 Overcast,1400.0,,OVC,1400,,,,,,
KRDR,11-22-2008,19:16,SPECI,,200,11,,,9999.0,,-2.0,-5.0,30.08,1019.5,,,,,,,,,,,,,,,8/8 Overcast,1400.0,,OVC,1400,,,,,,
KRDR,11-22-2008,19:00,METAR,,200,13,,,9999.0,,-2.0,-6.0,30.09,1019.8,,,,,,,,,,,,,,,8/8 Overcast,1600.0,,OVC,1600,,,,,,
KRDR,11-22-2008,18:00,METAR,,170,12,,,9999.0,,-3.0,-6.0,30.09,1019.7,,,,,,,,,,,,,,,8/8 Overcast,1200.0,,OVC,2200,,,,,,
KRDR,11-22-2008,17:23,SPECI,,160,10,,,9999.0,,-4.0,-7.0,30.11,1020.4,,,,,,,,,,,,,,,7/8 Mostly Cloudy,1500.0,,BKN,1500,,,,,,
KRDR,11-22-2008,17:13,SPECI,,170,10,,,9999.0,,-4.0,-7.0,30.11,1020.3,,,,,,,,,,,,,,,7/8 Mostly Cloudy,1300.0,,BKN,1300,,,,,,
KRDR,11-22-2008,17:00,METAR,,170,9,,,9999.0,,-5.0,-8.0,30.11,1020.6,,,,,,,,,,,,,,,7/8 Mostly Cloudy,1600.0,,BKN,1600,,,,,,
KRDR,11-22-2008,16:40,SPECI,,150,8,,,9999.0,,-5.0,-8.0,30.12,1020.6,,,,,,,,,,,,,,,4/8 Partly Cloudy,72000.0,,SCT,1600,,,,,,
KRDR,11-22-2008,16:23,SPECI,,150,7,,,9999.0,,-5.0,-8.0,30.13,1021.2,,,,,,,,,,,,,,,8/8 Overcast,1500.0,,OVC,1500,,,,,,
KRDR,11-22-2008,16:00,METAR,,170,5,,,9999.0,,-6.0,-9.0,30.15,1021.6,,,,,,,,,,,,,,,8/8 Overcast,1500.0,,OVC,1500,,,,,,
KRDR,11-22-2008,15:00,METAR,,,0,,,9999.0,,-7.0,-9.0,30.14,1021.3,,,,,,,,,,,,,,,8/8 Overcast,1700.0,,OVC,1700,,,,,,
KRDR,11-22-2008,14:00,METAR,,150,3,,,9999.0,,-8.0,-10.0,30.13,1021.1,,,,,,,,,,,,,,,8/8 Overcast,2800.0,,OVC,2800,,,,,,
KRDR,11-22-2008,13:41,SPECI,,150,3,,,9999.0,,-8.0,-10.0,30.13,1021.1,,,,,,,,,,,,,,,8/8 Overcast,2900.0,,OVC,2900,,,,,,
KRDR,11-22-2008,13:00,METAR,,140,3,,,9999.0,,-8.0,-11.0,30.13,1021.2,,,,,,,,,,,,,,,8/8 Overcast,3000.0,,OVC,3000,,,,,,
KRDR,11-22-2008,12:00,METAR,,,0,,,9999.0,,-9.0,-11.0,30.15,1021.6,,,,,,,,,,,,,,,8/8 Overcast,3300.0,,OVC,3400,,,,,,
KRDR,11-22-2008,11:00,METAR,,90,3,,,9999.0,,-10.0,-12.0,30.14,1021.3,,,,,,,,,,,,,,,8/8 Overcast,3500.0,,OVC,3600,,,,,,
KRDR,11-22-2008,10:00,METAR,,90,4,,,9999.0,,-11.0,-13.0,30.13,1021.2,,,,,,,,,,,,,,,8/8 Overcast,3000.0,,OVC,3000,,,,,,
KRDR,11-22-2008,09:00,METAR,,20,4,,,9999.0,,-14.0,-16.0,30.15,1021.7,,,,,,,,,,,,,,,4/8 Partly Cloudy,72000.0,,SCT,3300,,,,,,
KRDR,11-22-2008,08:00,METAR,,50,3,,,9999.0,,-14.0,-16.0,30.14,1021.5,,,,,,,,,,,,,,,Clear,72000.0,,,73000,,,,,,
KRDR,11-22-2008,07:00,METAR,,,0,,,9999.0,,-13.0,-16.0,30.15,1021.6,,,,,,,,,,,,,,,Clear,72000.0,,,73000,,,,,,
KRDR,11-22-2008,06:00,METAR,,150,4,,,9999.0,,-13.0,-15.0,30.15,1021.6,,,,,,,,,,,,,,,Clear,72000.0,,,73000,,,,,,
KRDR,11-22-2008,05:00,METAR,,130,6,,,9999.0,,-13.0,-15.0,30.16,1022.0,,,,,,,,,,,,,,,Clear,72000.0,,,73000,,,,,,
KRDR,11-22-2008,04:00,METAR,,90,3,,,9999.0,,-12.0,-15.0,30.17,1022.5,,,,,,,,,,,,,,,Clear,72000.0,,,73000,,,,,,
KRDR,11-22-2008,03:00,METAR,,130,6,,,9999.0,,-12.0,-15.0,30.18,1022.8,,,,,,,,,,,,,,,Clear,72000.0,,,73000,,,,,,
KRDR,11-22-2008,02:00,METAR,,120,5,,,9999.0,,-12.0,-14.0,30.21,1023.8,,,,,,,,,,,,,,,Clear,72000.0,,,73000,,,,,,
KRDR,11-22-2008,01:00,METAR,,140,6,,,9999.0,,-11.0,-14.0,30.23,1024.3,,,,,,,,,,,,,,,Clear,72000.0,,,73000,,,,,,
KRDR,11-22-2008,00:00,METAR,,130,5,,,9999.0,,-10.0,-13.0,30.24,1024.6,,,,,,,,,,,,,,,Clear,72000.0,,,73000,,,,,,
KRDR,11-21-2008,23:00,METAR,,130,7,,,9999.0,,-8.0,-13.0,30.24,1024.8,,,,,,,,,,,,,,,Clear,72000.0,,,73000,,,,,,
KRDR,11-21-2008,22:00,METAR,,130,12,,,9999.0,,-7.0,-13.0,30.25,1025.2,,,,,,,,,,,,,,,Clear,72000.0,,,73000,,,,,,
KRDR,11-21-2008,21:00,METAR,,150,12,,,9999.0,,-6.0,-13.0,30.28,1025.9,,,,,,,,,,,,,,,4/8 Partly Cloudy,72000.0,,SCT,20000,,,,,,
KRDR,11-21-2008,20:00,METAR,,150,11,,,9999.0,,-7.0,-13.0,30.30,1026.8,,,,,,,,,,,,,,,2/8 Mostly Clear,72000.0,,FEW,20000,,,,,,
KRDR,11-21-2008,19:00,METAR,,140,10,,,9999.0,,-8.0,-13.0,30.34,1028.0,,,,,,,,,,,,,,,2/8 Mostly Clear,72000.0,,FEW,20000,,,,,,
KRDR,11-21-2008,18:00,METAR,,160,12,,,9999.0,,-9.0,-13.0,30.37,1029.2,,,,,,,,,,,,,,,2/8 Mostly Clear,72000.0,,FEW,900,FEW,20000.0,,,,
KRDR,11-21-2008,17:00,METAR,,140,8,,,9999.0,,-10.0,-13.0,30.40,1030.1,,,,,,,,,,,,,,,2/8 Mostly Clear,72000.0,,FEW,900,FEW,20000.0,,,,
KRDR,11-21-2008,16:00,METAR,,150,8,,,9999.0,,-12.0,-15.0,30.42,1030.5,,,,,,,,,,,,,,,2/8 Mostly Clear,72000.0,,FEW,1100,FEW,20000.0,,,,
KRDR,11-21-2008,15:00,METAR,,150,5,,,9999.0,,-14.0,-16.0,30.42,1030.6,,,,,,,,,,,,,,,2/8 Mostly Clear,72000.0,,FEW,20000,,,,,,
KRDR,11-21-2008,14:00,METAR,,170,6,,,9999.0,,-16.0,-18.0,30.42,1030.7,,,,,,,,,,,,,,,2/8 Mostly Clear,72000.0,,FEW,20000,,,,,,
KRDR,11-21-2008,13:00,METAR,,160,7,,,9999.0,,-16.0,-18.0,30.44,1031.3,,,,,,,,,,,,,,,Clear,72000.0,,,73000,,,,,,
KRDR,11-21-2008,12:00,METAR,,180,6,,,9999.0,,-16.0,-19.0,30.45,1031.8,,,,,,,,,,,,,,,Clear,72000.0,,,73000,,,,,,
KRDR,11-21-2008,11:00,METAR,,180,5,,,9999.0,,-17.0,-19.0,30.48,1032.7,,,,,,,,,,,,,,,Clear,72000.0,,,73000,,,,,,
KRDR,11-21-2008,10:00,METAR,,170,3,,,9999.0,,-17.0,-19.0,30.52,1033.9,,,,,,,,,,,,,,,Clear,72000.0,,,73000,,,,,,
KRDR,11-21-2008,09:00,METAR,,200,4,,,9999.0,,-16.0,-19.0,30.55,1035.0,,,,,,,,,,,,,,,Clear,72000.0,,,73000,,,,,,
KRDR,11-21-2008,08:00,METAR,,220,3,,,9999.0,,-16.0,-19.0,30.58,1035.8,,,,,,,,,,,,,,,Clear,72000.0,,,73000,,,,,,
KRDR,11-21-2008,07:00,METAR,,250,2,,,9999.0,,-16.0,-18.0,30.60,1036.5,,,,,,,,,,,,,,,Clear,72000.0,,,73000,,,,,,
KRDR,11-21-2008,06:00,METAR,,250,2,,,9999.0,,-16.0,-18.0,30.61,1037.1,,,,,,,,,,,,,,,Clear,72000.0,,,73000,,,,,,
KRDR,11-21-2008,05:00,METAR,,,0,,,9999.0,,-16.0,-18.0,30.62,1037.3,,,,,,,,,,,,,,,Clear,72000.0,,,73000,,,,,,
KRDR,11-21-2008,04:00,METAR,,,0,,,9999.0,,-16.0,-18.0,30.65,1038.3,,,,,,,,,,,,,,,Clear,72000.0,,,73000,,,,,,
KRDR,11-21-2008,03:00,METAR,,,0,,,9999.0,,-16.0,-18.0,30.66,1038.7,,,,,,,,,,,,,,,Clear,72000.0,,,73000,,,,,,
KRDR,11-21-2008,02:00,METAR,,340,3,,,9999.0,,-15.0,-18.0,30.68,1039.4,,,,,,,,,,,,,,,Clear,72000.0,,,73000,,,,,,
KRDR,11-21-2008,01:00,METAR,,320,5,,,9999.0,,-14.0,-17.0,30.71,1040.3,,,,,,,,,,,,,,,Clear,72000.0,,,73000,,,,,,
KRDR,11-21-2008,00:00,METAR,,330,6,,,9999.0,,-13.0,-16.0,30.74,1041.2,,,,,,,,,,,,,TRACE,,2/8 Mostly Clear,72000.0,,FEW,1500,,,,,,
KRDR,11-20-2008,23:00,METAR,,340,8,,,9999.0,,-12.0,-15.0,30.75,1041.6,,,,,,,,,,,TRACE,,,,4/8 Partly Cloudy,72000.0,,FEW,1300,SCT,2200.0,,,,
KRDR,11-20-2008,22:17,SPECI,,340,9,,,9999.0,,-11.0,-16.0,30.76,,,,,,,,,,,,,,,,4/8 Partly Cloudy,72000.0,,SCT,2200,,,,,,
KRDR,11-20-2008,22:00,METAR,,350,10,,,9999.0,,-10.0,-16.0,30.76,1041.8,,,,,,,,,,,TRACE,,,,7/8 Mostly Cloudy,2400.0,,SCT,1700,BKN,2400.0,BKN,7900.0,,
KRDR,11-20-2008,21:00,METAR,,360,9,,,9999.0,Light Snow,-9.0,-15.0,30.75,1041.7,,,,71,,,,,,,TRACE,TRACE,,,7/8 Mostly Cloudy,2100.0,,BKN,2100,,,,,,
KRDR,11-20-2008,20:31,SPECI,,350,12,,,9999.0,,-10.0,-15.0,30.76,1041.8,,,,,,,,,,,,,,,4/8 Partly Cloudy,72000.0,,SCT,2200,,,,,,
KRDR,11-20-2008,20:29,SPECI,,350,11,,,9999.0,,-10.0,-15.0,30.76,,,,,,,,,,,,,,,,7/8 Mostly Cloudy,2300.0,,BKN,2300,,,,,,
KRDR,11-20-2008,20:00,METAR,,10,13,,,8000.0,Light Snow,-10.0,-15.0,30.76,1042.0,,,,71,,,,,,,TRACE,,,,7/8 Mostly Cloudy,2500.0,,BKN,2500,,,,,,
KRDR,11-20-2008,19:40,SPECI,,340,14,,,8000.0,Light Snow/Drifting Snow,-10.0,-16.0,30.77,,,,,71,36,,,,,,,,,,7/8 Mostly Cloudy,2500.0,,BKN,2500,,,,,,
KRDR,11-20-2008,19:29,SPECI,,350,12,,,9999.0,,-10.0,-15.0,30.77,1042.3,,,,,,,,,,,,,,,7/8 Mostly Cloudy,3000.0,,SCT,2500,BKN,3000.0,,,,
KRDR,11-20-2008,19:00,METAR,,360,15,19.0,,9999.0,,-9.0,-15.0,30.77,1042.3,,,,,,,,,,,TRACE,,,,7/8 Mostly Cloudy,2200.0,,BKN,2200,,,,,,
KRDR,11-20-2008,18:48,SPECI,,350,13,,,9999.0,,-10.0,-15.0,30.77,1042.3,,,,,,,,,,,,,,,7/8 Mostly Cloudy,2300.0,,BKN,2300,,,,,,
KRDR,11-20-2008,18:16,SPECI,,10,15,19.0,,8000.0,Light Snow,-10.0,-16.0,30.78,1042.4,,,,71,,,,,,,,,,,7/8 Mostly Cloudy,2700.0,,FEW,1800,BKN,2700.0,,,,
KRDR,11-20-2008,18:00,METAR,,10,15,20.0,,9999.0,,-10.0,-16.0,30.78,1042.6,,,,,,,,,,,TRACE,,TRACE,,7/8 Mostly Cloudy,2800.0,,BKN,2800,,,,,,
KRDR,11-20-2008,17:17,SPECI,,360,12,,,9999.0,,-10.0,-15.0,30.78,1042.6,,,,,,,,,,,,,,,7/8 Mostly Cloudy,2900.0,,FEW,2600,BKN,2900.0,,,,
KRDR,11-20-2008,17:00,METAR,,350,11,20.0,,9999.0,Light Snow,-10.0,-16.0,30.78,1042.6,,,,71,,,,,,,TRACE,,,,8/8 Overcast,2600.0,,BKN,2600,OVC,3000.0,,,,
KRDR,11-20-2008,16:46,SPECI,,340,13,20.0,,9999.0,Light Snow,-10.0,-16.0,30.78,1042.6,,,,71,,,,,,,,,,,7/8 Mostly Cloudy,2800.0,,BKN,2800,,,,,,
KRDR,11-20-2008,16:09,SPECI,,360,13,17.0,,9999.0,Drifting Snow,-11.0,-15.0,30.77,1042.3,,,,36,,,,,,,,,,,8/8 Overcast,2600.0,,SCT,1300,BKN,2600.0,OVC,3000.0,,
KRDR,11-20-2008,16:00,METAR,,360,13,,,8000.0,Light Snow/Drifting Snow,-11.0,-15.0,30.77,1042.2,,,,71,36,,,,,,TRACE,,,,7/8 Mostly Cloudy,1300.0,,FEW,700,BKN,1300.0,BKN,3100.0,,
KRDR,11-20-2008,15:50,SPECI,,10,12,,,4800.0,Light Snow/Drifting Snow,-11.0,-15.0,30.77,1042.2,,,,71,36,,,,,,,,,,8/8 Overcast,1300.0,,BKN,1300,OVC,2800.0,,,,
KRDR,11-20-2008,15:00,METAR,,360,18,23.0,,8000.0,Light Snow/Drifting Snow,-11.0,-15.0,30.76,1041.8,,,,71,36,,,,,,TRACE,TRACE,,,7/8 Mostly Cloudy,1900.0,,BKN,1900,BKN,3100.0,,,,
KRDR,11-20-2008,14:43,SPECI,,10,13,21.0,,4000.0,Light Snow/Drifting Snow,-11.0,-14.0,30.76,1041.7,,,,71,36,,,,,,,,,,8/8 Overcast,1600.0,,FEW,600,BKN,1600.0,OVC,3100.0,,
KRDR,11-20-2008,14:25,SPECI,,340,14,,,4800.0,Light Snow,-11.0,-14.0,30.73,1041.3,,,,71,,,,,,,,,,,8/8 Overcast,1200.0,,BKN,1200,OVC,3200.0,,,,
KRDR,11-20-2008,14:00,METAR,,340,14,19.0,,9999.0,Light Snow,-11.0,-14.0,30.72,1041.0,,,,71,,,,,,,TRACE,,,,8/8 Overcast,1800.0,,SCT,1100,BKN,1800.0,OVC,5900.0,,
KRDR,11-20-2008,13:00,METAR,,340,14,20.0,,9999.0,Light Snow,-11.0,-14.0,30.69,1040.0,,,,71,,,,,,,TRACE,,,,8/8 Overcast,2200.0,,FEW,500,OVC,2200.0,,,,
KRDR,11-20-2008,12:00,METAR,,350,14,20.0,,9999.0,Light Snow,-10.0,-13.0,30.67,1039.1,,,,71,,,,,,,TRACE,,TRACE,,8/8 Overcast,1800.0,,BKN,1800,OVC,2500.0,,,,
KRDR,11-20-2008,11:20,SPECI,,350,12,17.0,,8000.0,Light Snow,-9.0,-12.0,30.66,1038.5,,,,71,,,,,,,,,,,8/8 Overcast,1900.0,,FEW,800,SCT,1900.0,OVC,3000.0,,
KRDR,11-20-2008,11:00,METAR,,360,14,17.0,,9999.0,Light Snow,-9.0,-13.0,30.65,1038.2,,,,71,,,,,,,TRACE,,,,7/8 Mostly Cloudy,1900.0,,SCT,1900,BKN,3000.0,,,,
KRDR,11-20-2008,10:44,SPECI,,360,12,,,9999.0,Light Snow,-10.0,-13.0,30.65,,,,,71,,,,,,,,,,,4/8 Partly Cloudy,72000.0,,SCT,1800,,,,,,
KRDR,11-20-2008,10:00,METAR,,350,13,,,9999.0,,-9.0,-13.0,30.62,1037.3,,,,,,,,,,,,,,,2/8 Mostly Clear,72000.0,,FEW,2600,FEW,7900.0,,,,
KRDR,11-20-2008,09:00,METAR,,350,12,,,9999.0,,-9.0,-12.0,30.60,1036.6,,,,,,,,,,,,TRACE,,,2/8 Mostly Clear,72000.0,,FEW,2500,FEW,8400.0,,,,
KRDR,11-20-2008,08:00,METAR,,360,12,,,9999.0,,-9.0,-12.0,30.58,1036.0,,,,,,,,,,,TRACE,,,,4/8 Partly Cloudy,72000.0,,FEW,2500,SCT,8400.0,,,,
KRDR,11-20-2008,07:41,SPECI,,360,13,17.0,,9999.0,,-9.0,-12.0,30.58,,,,,,,,,,,,,,,,7/8 Mostly Cloudy,2500.0,,BKN,2500,BKN,5000.0,,,,
KRDR,11-20-2008,07:00,METAR,,10,14,,,9999.0,Light Snow,-7.0,-10.0,30.56,1035.4,,,,71,,,,,,,TRACE,,,,8/8 Overcast,2200.0,,OVC,2200,,,,,,
KRDR,11-20-2008,06:00,METAR,,10,11,,,9999.0,Light Snow,-6.0,-9.0,30.54,1034.5,,,,71,,,,,,,TRACE,,TRACE,,8/8 Overcast,2500.0,,OVC,2500,,,,,,
KRDR,11-20-2008,05:17,SPECI,,360,9,,,9999.0,Light Snow,-6.0,-9.0,30.52,,,,,71,,,,,,,,,,,8/8 Overcast,2200.0,,OVC,2200,,,,,,
KRDR,11-20-2008,05:05,SPECI,,360,9,,,9999.0,,-6.0,-9.0,30.51,,,,,,,,,,,,,,,,8/8 Overcast,2400.0,,OVC,2400,,,,,,
KRDR,11-20-2008,05:00,METAR,,360,9,,,9999.0,Light Snow,-6.0,-9.0,30.51,1033.6,,,,71,,,,,,,TRACE,,,,8/8 Overcast,2500.0,,OVC,2500,,,,,,
KRDR,11-20-2008,04:00,METAR,,350,6,,,9999.0,,-6.0,-9.0,30.49,1033.0,,,,,,,,,,,,,,,7/8 Mostly Cloudy,7000.0,,BKN,6900,,,,,,
KRDR,11-20-2008,03:00,METAR,,350,7,,,9999.0,,-6.0,-9.0,30.47,1032.5,,,,,,,,,,,,TRACE,,,7/8 Mostly Cloudy,2500.0,,BKN,2500,BKN,9900.0,,,,
KRDR,11-20-2008,02:00,METAR,,20,10,,,9999.0,,-5.0,-9.0,30.45,1031.6,,,,,,,,,,,,,,,7/8 Mostly Cloudy,2500.0,,BKN,2500,BKN,15000.0,,,,
KRDR,11-20-2008,01:00,METAR,,10,9,,,9999.0,,-4.0,-8.0,30.43,1031.2,,,,,,,,,,,TRACE,,,,8/8 Overcast,2100.0,,OVC,2100,,,,,,
KRDR,11-20-2008,00:15,SPECI,,360,13,,,9999.0,Light Snow,-4.0,-8.0,30.42,,,,,71,,,,,,,,,,,8/8 Overcast,1900.0,,OVC,1900,,,,,,
KRDR,11-20-2008,00:00,METAR,,350,11,17.0,,9999.0,,-4.0,-8.0,30.42,1030.6,,,,,,,,,,,,,TRACE,,8/8 Overcast,2000.0,,OVC,2000,,,,,,
KRDR,11-19-2008,23:00,METAR,,10,14,20.0,,9999.0,,-3.0,-8.0,30.39,1029.6,,,,,,,,,,,TRACE,,,,8/8 Overcast,2100.0,,OVC,2100,,,,,,
KRDR,11-19-2008,22:00,METAR,,10,14,18.0,,9999.0,,-3.0,-7.0,30.35,1028.3,,,,,,,,,,,TRACE,,,,8/8 Overcast,2400.0,,OVC,2400,,,,,,
KRDR,11-19-2008,21:25,SPECI,,350,14,19.0,,9999.0,,-3.0,-7.0,30.34,1028.0,,,,,,,,,,,,,,,8/8 Overcast,2400.0,,OVC,2400,,,,,,
KRDR,11-19-2008,21:00,METAR,,350,15,22.0,,9999.0,,-2.0,-7.0,30.32,1027.5,,,,,,,,,,,TRACE,TRACE,,,8/8 Overcast,2400.0,,OVC,2400,,,,,,
KRDR,11-19-2008,20:00,METAR,,350,15,,,9999.0,,-2.0,-7.0,30.30,1026.7,,,,,,,,,,,TRACE,,,,8/8 Overcast,2500.0,,OVC,2500,,,,,,
KRDR,11-19-2008,19:00,METAR,,340,15,22.0,,9999.0,,-2.0,-7.0,30.27,1025.8,,,,,,,,,,,,,,,8/8 Overcast,2300.0,,OVC,2300,,,,,,
KRDR,11-19-2008,18:00,METAR,,350,13,20.0,,9999.0,,-2.0,-6.0,30.25,1025.1,,,,,,,,,,,,,,,8/8 Overcast,1900.0,,BKN,1900,OVC,2800.0,,,,
KRDR,11-19-2008,17:00,METAR,,350,14,19.0,,9999.0,,-2.0,-7.0,30.22,1024.2,,,,,,,,,,,,,,,8/8 Overcast,2800.0,,OVC,2800,,,,,,
KRDR,11-19-2008,16:00,METAR,,340,16,24.0,,9999.0,,-2.0,-6.0,30.18,1022.8,,,,,,,,,,,,,,,8/8 Overcast,1700.0,,OVC,1700,,,,,,
KRDR,11-19-2008,15:00,METAR,,340,12,19.0,,9999.0,,-2.0,-6.0,30.14,1021.6,,,,,,,,,,,,,,,8/8 Overcast,2300.0,,OVC,2300,,,,,,
KRDR,11-19-2008,14:00,METAR,,340,12,18.0,,9999.0,,-2.0,-5.0,30.11,1020.3,,,,,,,,,,,,,,,8/8 Overcast,2200.0,,FEW,1500,OVC,2200.0,,,,
KRDR,11-19-2008,13:00,METAR,,340,12,22.0,,9999.0,,-2.0,-5.0,30.07,1019.0,,,,,,,,,,,,,,,8/8 Overcast,2000.0,,OVC,2000,,,,,,
KRDR,11-19-2008,12:00,METAR,,340,17,23.0,350/26KTS,9999.0,,-2.0,-5.0,30.03,1017.7,,,,,,,,,,,,,,,8/8 Overcast,1800.0,,OVC,1800,,,,,,
KRDR,11-19-2008,11:00,METAR,,330,18,,,9999.0,,-2.0,-5.0,30.00,1016.7,,,,,,,,,,,,,,,8/8 Overcast,1700.0,,OVC,1700,,,,,,
KRDR,11-19-2008,10:00,METAR,,340,14,,,9999.0,,-2.0,-5.0,29.95,1015.2,,,,,,,,,,,,,,,8/8 Overcast,1600.0,,OVC,1600,,,,,,
KRDR,11-19-2008,09:00,METAR,,340,16,,340/31KTS,9999.0,,-1.0,-5.0,29.90,1013.4,,,,,,,,,,,,,,,8/8 Overcast,1800.0,,OVC,1800,,,,,,
KRDR,11-19-2008,08:00,METAR,,330,21,28.0,330/28KTS,9999.0,,-1.0,-4.0,29.86,1012.1,,,,,,,,,,,,,,,8/8 Overcast,1500.0,,OVC,1500,,,,,,
KRDR,11-19-2008,07:00,METAR,,330,13,,,9999.0,,-2.0,-4.0,29.81,1010.5,,,,,,,,,,,,,,,7/8 Mostly Cloudy,1500.0,,BKN,1500,,,,,,
KRDR,11-19-2008,06:48,SPECI,,330,14,,,9999.0,,-2.0,-4.0,29.81,1010.5,,,,,,,,,,,,,,,7/8 Mostly Cloudy,1500.0,,BKN,1500,,,,,,
KRDR,11-19-2008,06:00,METAR,,320,13,,,9999.0,,-3.0,-4.0,29.78,1009.4,,,,,,,,,,,,,,,Clear,72000.0,,,73000,,,,,,
KRDR,11-19-2008,05:19,SPECI,,280,7,,,9999.0,,-6.0,-7.0,29.75,1008.6,,,,,,,,,,,,,,,Clear,72000.0,,,73000,,,,,,
KRDR,11-19-2008,05:00,METAR,,280,3,,,9999.0,,-7.0,-8.0,29.74,1008.4,,,,,,,,,,,,,,,Clear,72000.0,,,73000,,,,,,
KRDR,11-19-2008,04:00,METAR,,180,6,,,9999.0,,-4.0,-5.0,29.73,1007.8,,,,,,,,,,,,,,,Clear,72000.0,,,73000,,,,,,
KRDR,11-19-2008,00:00,METAR,,170,16,,,9999.0,,-1.0,-4.0,29.80,1010.4,,,,,,,,,,,,,,,7/8 Mostly Cloudy,25000.0,,FEW,2500,BKN,25000.0,,,,
KRDR,11-18-2008,23:00,METAR,,180,17,,170/26KTS,9999.0,,-1.0,-5.0,29.83,1011.2,,,,,,,,,,,,,,,7/8 Mostly Cloudy,25000.0,,SCT,2600,BKN,25000.0,,,,
KRDR,11-18-2008,22:00,METAR,,170,18,23.0,170/26KTS,9999.0,,0.0,-5.0,29.87,1012.4,,,,,,,,,,,,,,,8/8 Overcast,2500.0,,OVC,2500,,,,,,
KRDR,11-18-2008,21:00,METAR,,170,20,24.0,,9999.0,,-1.0,-5.0,29.90,1013.5,,,,,,,,,,,,,,,8/8 Overcast,2200.0,,OVC,2200,,,,,,
KRDR,11-18-2008,20:00,METAR,,170,20,26.0,160/28KTS,9999.0,,-1.0,-6.0,29.95,1015.3,,,,,,,,,,,,,,,8/8 Overcast,25000.0,,SCT,2300,OVC,25000.0,,,,
KRDR,11-18-2008,19:00,METAR,,160,18,26.0,170/31KTS,9999.0,,-2.0,-7.0,29.98,1016.3,,,,,,,,,,,,,,,8/8 Overcast,25000.0,,OVC,25000,,,,,,
KRDR,11-18-2008,18:00,METAR,,160,22,29.0,150/29KTS,9999.0,,-3.0,-8.0,30.06,1018.8,,,,,,,,,,,,,,,8/8 Overcast,25000.0,,OVC,25000,,,,,,
KRDR,11-18-2008,17:00,METAR,,160,18,24.0,,9999.0,,-4.0,-8.0,30.14,1021.3,,,,,,,,,,,,,,,8/8 Overcast,25000.0,,OVC,25000,,,,,,
KRDR,11-18-2008,16:00,METAR,,160,16,25.0,,9999.0,,-5.0,-8.0,30.19,1023.2,,,,,,,,,,,,,,,8/8 Overcast,25000.0,,FEW,5400,OVC,25000.0,,,,
KRDR,11-18-2008,15:00,METAR,,170,18,23.0,,9999.0,,-5.0,-9.0,30.23,1024.4,,,,,,,,,,,,,,,8/8 Overcast,6000.0,,OVC,5900,,,,,,
KRDR,11-18-2008,14:00,METAR,,180,13,18.0,,9999.0,,-6.0,-9.0,30.28,1026.2,,,,,,,,,,,,,,,8/8 Overcast,15000.0,,FEW,5900,BKN,15000.0,OVC,25000.0,,
KRDR,11-18-2008,13:00,METAR,,180,13,,,9999.0,,-6.0,-9.0,30.31,1027.2,,,,,,,,,,,,,,,7/8 Mostly Cloudy,15000.0,,BKN,15000,,,,,,
KRDR,11-18-2008,12:00,METAR,,170,11,,,9999.0,,-7.0,-9.0,30.34,1028.1,,,,,,,,,,,,,,,Clear,72000.0,,,73000,,,,,,
KRDR,11-18-2008,11:00,METAR,,170,11,,,9999.0,,-7.0,-9.0,30.39,1029.8,,,,,,,,,,,,,,,Clear,72000.0,,,73000,,,,,,
KRDR,11-18-2008,10:00,METAR,,180,9,,,9999.0,,-7.0,-10.0,30.42,1030.6,,,,,,,,,,,,,,,2/8 Mostly Clear,72000.0,,FEW,11000,,,,,,
KRDR,11-18-2008,09:00,METAR,,170,10,,,9999.0,,-7.0,-10.0,30.44,1031.4,,,,,,,,,,,,,,,8/8 Overcast,11000.0,,OVC,11000,,,,,,
KRDR,11-18-2008,08:00,METAR,,180,8,,,9999.0,,-7.0,-10.0,30.46,1032.0,,,,,,,,,,,,,,,7/8 Mostly Cloudy,12000.0,,BKN,12000,,,,,,
KRDR,11-18-2008,07:00,METAR,,160,6,,,9999.0,,-7.0,-10.0,30.48,1032.7,,,,,,,,,,,,,,,4/8 Partly Cloudy,72000.0,,SCT,12000,,,,,,
KRDR,11-18-2008,06:00,METAR,,170,4,,,9999.0,,-9.0,-11.0,30.52,1033.9,,,,,,,,,,,,,,,Clear,72000.0,,,73000,,,,,,
KRDR,11-18-2008,05:00,METAR,,190,3,,,9999.0,,-9.0,-11.0,30.51,1033.8,,,,,,,,,,,,,,,2/8 Mostly Clear,72000.0,,FEW,19000,,,,,,
KRDR,11-18-2008,04:00,METAR,,180,3,,,9999.0,,-11.0,-13.0,30.52,1034.5,,,,,,,,,,,,,,,2/8 Mostly Clear,72000.0,,FEW,20000,,,,,,
KRDR,11-18-2008,03:00,METAR,,,0,,,9999.0,,-10.0,-12.0,30.53,1034.6,,,,,,,,,,,,,,,Clear,72000.0,,,73000,,,,,,
KRDR,11-18-2008,02:00,METAR,,,0,,,9999.0,,-11.0,-12.0,30.55,1034.8,,,,,,,,,,,,,,,Clear,72000.0,,,73000,,,,,,
KRDR,11-18-2008,01:00,METAR,,20,5,,,9999.0,,-10.0,-12.0,30.54,1034.9,,,,,,,,,,,,,,,4/8 Partly Cloudy,72000.0,,FEW,1900,SCT,25000.0,,,,
KRDR,11-18-2008,00:00,METAR,,360,5,,,9999.0,,-10.0,-12.0,30.54,1035.1,,,,,,,,,,,,,IN,,4/8 Partly Cloudy,72000.0,,FEW,1900,SCT,25000.0,,,,
KRDR,11-17-2008,23:00,METAR,,20,6,,,9999.0,,-7.0,-11.0,30.54,1034.8,,,,,,,,,,,,,,,4/8 Partly Cloudy,72000.0,,SCT,1900,SCT,25000.0,,,,
KRDR,11-17-2008,22:00,METAR,,360,8,,,9999.0,,-5.0,-11.0,30.53,1034.6,,,,,,,,,,,,,,,7/8 Mostly Cloudy,25000.0,,SCT,2100,BKN,25000.0,,,,
KRDR,11-17-2008,21:00,METAR,,360,10,,,9999.0,,-4.0,-11.0,30.52,1034.4,,,,,,,,,,,,IN,,,7/8 Mostly Cloudy,3000.0,,FEW,1500,SCT,2300.0,BKN,3000.0,,
KRDR,11-17-2008,20:00,METAR,,350,12,,,9999.0,,-4.0,-11.0,30.52,1034.3,,,,,,,,,,,,,,,4/8 Partly Cloudy,72000.0,,FEW,1700,SCT,2500.0,,,,
KRDR,11-17-2008,19:00,METAR,,350,11,,,9999.0,,-5.0,-11.0,30.53,1034.3,,,,,,,,,,,TRACE,,,,4/8 Partly Cloudy,72000.0,,SCT,2500,,,,,,
KRDR,11-17-2008,18:38,SPECI,,360,11,,,9999.0,Light Snow,-4.0,-10.0,30.53,,,,,71,,,,,,,,,,,7/8 Mostly Cloudy,2400.0,,BKN,2400,,,,,,
KRDR,11-17-2008,18:00,METAR,,350,10,,,9999.0,,-5.0,-11.0,30.53,1034.4,,,,,,,,,,,,,,,4/8 Partly Cloudy,72000.0,,SCT,4400,,,,,,
KRDR,11-17-2008,17:00,METAR,,340,13,,,9999.0,,-5.0,-10.0,30.53,1034.5,,,,,,,,,,,,,,,4/8 Partly Cloudy,72000.0,,SCT,2200,,,,,,
KRDR,11-17-2008,16:00,METAR,,350,9,,,9999.0,,-6.0,-10.0,30.52,1033.9,,,,,,,,,,,.02 IN,,,,7/8 Mostly Cloudy,3400.0,,SCT,1900,BKN,3500.0,,,,
KRDR,11-17-2008,15:34,SPECI,,360,9,,,8000.0,Light Snow/Mist,-6.0,-8.0,30.51,,,,,71,10,,,,,,,,,,7/8 Mostly Cloudy,6500.0,,SCT,1700,BKN,6400.0,,,,
KRDR,11-17-2008,15:28,SPECI,,350,8,,,1600.0,Light Snow/Mist,-5.0,-8.0,30.51,,,,,71,10,,,,,,,,,,8/8 Overcast,3200.0,,SCT,1500,OVC,3300.0,,,,
KRDR,11-17-2008,15:19,SPECI,,340,9,,,1600.0,Light Snow/Mist,-5.0,-8.0,30.50,,,,,71,10,,,,,,,,,,8/8 Overcast,3400.0,,SCT,2200,OVC,3500.0,,,,
KRDR,11-17-2008,15:12,SPECI,,350,8,,,1600.0,Light Snow/Mist,-5.0,-8.0,30.50,,,,,71,10,,,,,,,,,,8/8 Overcast,4400.0,,SCT,2200,OVC,4500.0,,,,
KRDR,11-17-2008,15:00,METAR,,350,9,,,9999.0,Light Snow,-6.0,-8.0,30.49,1033.1,,,,71,,,,,,,TRACE,TRACE,,,7/8 Mostly Cloudy,4900.0,,SCT,3400,BKN,5000.0,,,,
KRDR,11-17-2008,14:00,METAR,,360,9,,,9999.0,Light Snow,-6.0,-8.0,30.47,1032.2,,,,71,,,,,,,TRACE,,,,7/8 Mostly Cloudy,4900.0,,SCT,1800,BKN,5000.0,,,,
KRDR,11-17-2008,13:00,METAR,,340,11,,,9999.0,Light Snow,-6.0,-8.0,30.45,1031.5,,,,71,,,,,,,TRACE,,,,7/8 Mostly Cloudy,4900.0,,FEW,2000,SCT,3700.0,BKN,5000.0,,
KRDR,11-17-2008,12:45,SPECI,,340,10,,,9999.0,Light Snow,-5.0,-7.0,30.44,,,,,71,,,,,,,,,,,7/8 Mostly Cloudy,3000.0,,SCT,2200,BKN,3000.0,BKN,5000.0,,
KRDR,11-17-2008,12:30,SPECI,,340,9,,,9999.0,Light Snow,-5.0,-7.0,30.44,1031.4,,,,71,,,,,,,,,,,8/8 Overcast,1800.0,,SCT,1500,OVC,2200.0,,,,
KRDR,11-17-2008,12:00,METAR,,340,5,,,9999.0,,-5.0,-7.0,30.42,1030.8,,,,,,,,,,,TRACE,,TRACE,,7/8 Mostly Cloudy,3000.0,,BKN,3000,,,,,,
KRDR,11-17-2008,11:48,SPECI,,340,5,,,9999.0,,-5.0,-7.0,30.42,1030.7,,,,,,,,,,,,,,,7/8 Mostly Cloudy,3000.0,,BKN,3000,,,,,,
KRDR,11-17-2008,11:23,SPECI,,350,6,,,9999.0,Light Snow,-5.0,-7.0,30.41,1030.4,71,,,,,,,,,,,,,,7/8 Mostly Cloudy,3600.0,,FEW,1500,SCT,2000.0,BKN,3700.0,,
KRDR,11-17-2008,11:19,SPECI,,340,6,,,9999.0,Light Snow,-5.0,-7.0,30.41,1030.3,71,,,,,,,,,,,,,,7/8 Mostly Cloudy,2300.0,,BKN,2300,,,,,,
KRDR,11-17-2008,11:00,METAR,,330,6,,,9999.0,,-5.0,-7.0,30.40,1030.0,,,,,,,,,,,TRACE,,,,7/8 Mostly Cloudy,3300.0,,BKN,3400,,,,,,
KRDR,11-17-2008,10:26,SPECI,,320,7,,,9999.0,Light Snow,-6.0,-8.0,30.39,1029.7,71,,,,,,,,,,,,,,4/8 Partly Cloudy,72000.0,,SCT,5000,,,,,,
KRDR,11-17-2008,10:00,METAR,,320,6,,,9999.0,,-6.0,-8.0,30.38,1029.4,,,,,,,,,,,,,,,7/8 Mostly Cloudy,6000.0,,BKN,5900,,,,,,
KRDR,11-17-2008,09:22,SPECI,,320,7,,,9999.0,,-6.0,-8.0,30.37,1029.1,,,,,,,,,,,,,,,4/8 Partly Cloudy,72000.0,,SCT,2800,,,,,,
KRDR,11-17-2008,09:10,SPECI,,320,6,,,9999.0,,-6.0,-8.0,30.37,1029.1,,,,,,,,,,,,,,,7/8 Mostly Cloudy,2900.0,,BKN,2900,,,,,,
KRDR,11-17-2008,09:01,SPECI,,320,7,,,9999.0,,-6.0,-8.0,30.37,1029.1,,,,,,,,,,,,,,,7/8 Mostly Cloudy,3600.0,,SCT,2700,BKN,3700.0,,,,
KRDR,11-17-2008,09:00,METAR,,320,6,,,9999.0,,-6.0,-8.0,30.37,1029.1,,,,,,,,,,,,,,,8/8 Overcast,3300.0,,FEW,2000,OVC,3400.0,,,,
KRDR,11-17-2008,08:53,SPECI,,320,6,,,9999.0,,-6.0,-8.0,30.37,1029.1,,,,,,,,,,,,,,,8/8 Overcast,2600.0,,FEW,2000,BKN,2600.0,OVC,4000.0,,
KRDR,11-17-2008,08:00,METAR,,320,6,,,9999.0,,-7.0,-9.0,30.34,1028.2,,,,,,,,,,,,,,,8/8 Overcast,4200.0,,OVC,4300,,,,,,
KRDR,11-17-2008,07:00,METAR,,330,6,,,9999.0,,-6.0,-9.0,30.33,1027.6,,,,,,,,,,,,,,,4/8 Partly Cloudy,72000.0,,SCT,4400,,,,,,
KRDR,11-17-2008,06:00,METAR,,340,6,,,9999.0,,-6.0,-9.0,30.31,1027.1,,,,,,,,,,,,,,,2/8 Mostly Clear,72000.0,,FEW,5400,,,,,,
KRDR,11-17-2008,05:00,METAR,,340,7,,,9999.0,,-5.0,-8.0,30.29,1026.3,,,,,,,,,,,,,,,7/8 Mostly Cloudy,4000.0,,BKN,4100,,,,,,
KRDR,11-17-2008,04:00,METAR,,350,9,,,9999.0,,-4.0,-8.0,30.27,1025.8,,,,,,,,,,,,,,,7/8 Mostly Cloudy,4900.0,,BKN,5000,,,,,,
KRDR,11-17-2008,03:00,METAR,,340,9,,,9999.0,,-3.0,-7.0,30.25,1025.1,,,,,,,,,,,,,,,8/8 Overcast,4500.0,,OVC,4600,,,,,,
KRDR,11-17-2008,02:00,METAR,,330,7,,,9999.0,,-4.0,-6.0,30.24,1024.8,,,,,,,,,,,,,,,7/8 Mostly Cloudy,4200.0,,BKN,4300,,,,,,
KRDR,11-17-2008,01:00,METAR,,320,6,,,9999.0,,-4.0,-6.0,30.23,1024.3,,,,,,,,,,,,,,,2/8 Mostly Clear,72000.0,,FEW,4400,,,,,,
KRDR,11-17-2008,00:00,METAR,,340,8,,,9999.0,,-2.0,-6.0,30.21,1023.7,,,,,,,,,,,,,TRACE,,7/8 Mostly Cloudy,4200.0,,SCT,2500,BKN,4300.0,,,,
KRDR,11-16-2008,23:38,SPECI,,340,7,,,9999.0,,-2.0,-6.0,30.20,1023.5,,,,,,,,,,,,,,,7/8 Mostly Cloudy,4200.0,,SCT,2500,BKN,4300.0,,,,
KRDR,11-16-2008,23:00,METAR,,340,10,,,9999.0,,-1.0,-6.0,30.18,1022.9,,,,,,,,,,,TRACE,,,,7/8 Mostly Cloudy,2500.0,,BKN,2500,BKN,3000.0,,,,
KRDR,11-16-2008,22:46,SPECI,,330,10,,,9999.0,,-1.0,-6.0,30.18,1022.8,,,,,,,,,,,,,,,7/8 Mostly Cloudy,2500.0,,BKN,2500,,,,,,
KRDR,11-16-2008,22:16,SPECI,,350,11,,,9999.0,,-1.0,-6.0,30.16,1022.5,,,,,,,,,,,,,,,7/8 Mostly Cloudy,3100.0,,FEW,2400,BKN,3200.0,,,,
KRDR,11-16-2008,22:00,METAR,,350,14,19.0,,9999.0,Unknown Precipitation,-1.0,-5.0,30.17,1022.3,40,,,,,,,,,,TRACE,,,,8/8 Overcast,2600.0,,OVC,2600,,,,,,
KRDR,11-16-2008,21:47,SPECI,,350,13,,,9999.0,Unknown Precipitation,-1.0,-5.0,30.16,1022.2,40,,,,,,,,,,,,,,8/8 Overcast,2100.0,,OVC,2700,,,,,,
KRDR,11-16-2008,21:41,SPECI,,340,11,,,9999.0,,-1.0,-5.0,30.16,1022.1,,,,,,,,,,,,,,,8/8 Overcast,2800.0,,OVC,2800,,,,,,
KRDR,11-16-2008,21:15,SPECI,,360,11,,,9999.0,,-1.0,-4.0,30.15,1021.8,,,,,,,,,,,,,,,8/8 Overcast,1600.0,,FEW,1800,OVC,3100.0,,,,
KRDR,11-16-2008,21:06,SPECI,,350,9,,,9999.0,,-1.0,-4.0,30.15,1021.7,,,,,,,,,,,,,,,8/8 Overcast,1500.0,,OVC,2700,,,,,,
KRDR,11-16-2008,21:00,METAR,,360,10,,,9999.0,Unknown Precipitation,-1.0,-4.0,30.14,1021.3,40,,,,,,,,,,TRACE,TRACE,,,8/8 Overcast,1500.0,,OVC,2200,,,,,,
KRDR,11-16-2008,20:50,SPECI,,360,10,,,9999.0,Unknown Precipitation,-1.0,-4.0,30.14,1021.3,40,,,,,,,,,,,,,,8/8 Overcast,1500.0,,OVC,2300,,,,,,
KRDR,11-16-2008,20:45,SPECI,,360,11,,,9999.0,,-1.0,-4.0,30.13,1021.2,,,,,,,,,,,,,,,8/8 Overcast,2300.0,,SCT,1600,BKN,2300.0,OVC,3800.0,,
KRDR,11-16-2008,20:39,SPECI,,360,10,,,9999.0,Unknown Precipitation,-1.0,-4.0,30.13,1021.1,40,,,,,,,,,,,,,,8/8 Overcast,1400.0,,FEW,1600,SCT,2400.0,OVC,3600.0,,
KRDR,11-16-2008,20:26,SPECI,,340,8,,,9999.0,Unknown Precipitation,-1.0,-4.0,30.12,1021.0,40,,,,,,,,,,,,,,8/8 Overcast,2600.0,,OVC,2600,,,,,,
KRDR,11-16-2008,20:23,SPECI,,340,8,,,9999.0,Unknown Precipitation,-1.0,-4.0,30.12,1020.9,40,,,,,,,,,,,,,,8/8 Overcast,1500.0,,FEW,1600,OVC,3100.0,,,,
KRDR,11-16-2008,20:21,SPECI,,340,10,,,9999.0,Unknown Precipitation,-1.0,-4.0,30.12,1020.9,40,,,,,,,,,,,,,,8/8 Overcast,2800.0,,OVC,2800,,,,,,
KRDR,11-16-2008,20:19,SPECI,,350,10,,,9999.0,Unknown Precipitation,-1.0,-4.0,30.12,1020.9,40,,,,,,,,,,,,,,8/8 Overcast,3100.0,,FEW,1500,OVC,3100.0,,,,
KRDR,11-16-2008,20:16,SPECI,,350,9,,,9999.0,Unknown Precipitation,-1.0,-4.0,30.12,1020.9,40,,,,,,,,,,,,,,8/8 Overcast,3100.0,,FEW,1500,OVC,3100.0,,,,
KRDR,11-16-2008,20:12,SPECI,,350,9,,,9999.0,,-1.0,-4.0,30.12,1020.9,,,,,,,,,,,,,,,8/8 Overcast,3200.0,,FEW,1500,SCT,2000.0,OVC,3300.0,,
KRDR,11-16-2008,20:05,SPECI,,350,10,,,9999.0,Unknown Precipitation,-1.0,-4.0,30.12,1020.8,40,,,,,,,,,,,,,,8/8 Overcast,3300.0,,FEW,1500,SCT,2000.0,OVC,3400.0,,
KRDR,11-16-2008,20:00,METAR,,360,11,,,9999.0,Unknown Precipitation,-1.0,-4.0,30.11,1020.6,40,,,,,,,,,,TRACE,,,,8/8 Overcast,1900.0,,SCT,1400,BKN,1900.0,OVC,3000.0,,
KRDR,11-16-2008,19:53,SPECI,,350,10,,,9999.0,,-1.0,-4.0,30.11,1020.6,,,,,,,,,,,,,,,8/8 Overcast,1900.0,,SCT,1400,BKN,1900.0,OVC,3000.0,,
KRDR,11-16-2008,19:47,SPECI,,350,11,,,9999.0,Unknown Precipitation,-1.0,-4.0,30.11,1020.5,40,,,,,,,,,,,,,,8/8 Overcast,1900.0,,SCT,1400,BKN,1900.0,OVC,3800.0,,
KRDR,11-16-2008,19:44,SPECI,,360,11,,,9999.0,Unknown Precipitation,-1.0,-4.0,30.11,1020.5,40,,,,,,,,,,,,,,8/8 Overcast,1400.0,,BKN,1400,BKN,1900.0,OVC,3800.0,,
KRDR,11-16-2008,19:40,SPECI,,360,13,,,9999.0,,0.0,-4.0,30.11,1020.4,,,,,,,,,,,,,,,8/8 Overcast,1400.0,,BKN,1400,BKN,1900.0,OVC,3900.0,,
KRDR,11-16-2008,19:23,SPECI,,350,11,,,9999.0,,0.0,-4.0,30.11,1020.4,,,,,,,,,,,,,,,8/8 Overcast,1900.0,,SCT,1400,BKN,1900.0,OVC,4100.0,,
KRDR,11-16-2008,19:14,SPECI,,350,10,,,9999.0,Unknown Precipitation,0.0,-4.0,30.11,1020.4,40,,,,,,,,,,,,,,8/8 Overcast,1400.0,,OVC,1900,,,,,,
KRDR,11-16-2008,19:00,METAR,,360,11,,,9999.0,,0.0,-4.0,30.10,1020.0,,,,,,,,,,,,,,,8/8 Overcast,1500.0,,OVC,1800,,,,,,
KRDR,11-16-2008,18:26,SPECI,,350,10,16.0,,9999.0,,0.0,-4.0,30.09,1019.7,,,,,,,,,,,,,,,8/8 Overcast,2900.0,,OVC,2900,,,,,,
KRDR,11-16-2008,18:00,METAR,,360,10,,,9999.0,,0.0,-4.0,30.07,1019.3,,,,,,,,,,,,,TRACE,,4/8 Partly Cloudy,72000.0,,SCT,3600,,,,,,
KRDR,11-16-2008,17:38,SPECI,,350,10,,,9999.0,,0.0,-4.0,30.07,1019.2,,,,,,,,,,,,,,,4/8 Partly Cloudy,72000.0,,SCT,1000,,,,,,
KRDR,11-16-2008,17:18,SPECI,,350,11,,,9999.0,,-1.0,-4.0,30.07,1019.1,,,,,,,,,,,,,,,8/8 Overcast,1000.0,,OVC,1000,,,,,,
KRDR,11-16-2008,17:05,SPECI,,350,9,,,9999.0,,-1.0,-3.0,30.07,1019.1,,,,,,,,,,,,,,,8/8 Overcast,1400.0,,OVC,1400,,,,,,
KRDR,11-16-2008,17:00,METAR,,360,11,,,9999.0,,-1.0,-3.0,30.06,1018.9,,,,,,,,,,,,,,,8/8 Overcast,1900.0,,OVC,1900,,,,,,
KRDR,11-16-2008,16:00,METAR,,10,10,,,9999.0,,-2.0,-3.0,30.04,1018.1,,,,,,,,,,,,,,,8/8 Overcast,2700.0,,SCT,800,SCT,1300.0,OVC,2700.0,,
KRDR,11-16-2008,15:47,SPECI,,10,11,,,9999.0,,-2.0,-3.0,30.04,,,,,,,,,,,,,,,,8/8 Overcast,2700.0,,OVC,2700,,,,,,
KRDR,11-16-2008,15:00,METAR,,10,12,,,9999.0,,-2.0,-2.0,30.01,1017.0,,,,,,,,,,,,TRACE,,,8/8 Overcast,1000.0,,OVC,1000,,,,,,
KRDR,11-16-2008,14:26,SPECI,,360,9,,,9999.0,,-2.0,-2.0,30.00,,,,,,,,,,,,,,,,8/8 Overcast,1000.0,,SCT,800,OVC,1000.0,,,,
KRDR,11-16-2008,14:00,METAR,,10,10,,,9999.0,Light Snow,-2.0,-2.0,29.98,1016.0,,,,71,,,,,,,,,,,8/8 Overcast,600.0,,BKN,600,BKN,1000.0,OVC,2600.0,,
KRDR,11-16-2008,13:43,SPECI,,10,10,,,9999.0,Light Snow,-2.0,-2.0,29.97,,,,,71,,,,,,,,,,,8/8 Overcast,900.0,,SCT,500,BKN,900.0,OVC,2400.0,,
KRDR,11-16-2008,13:29,SPECI,,20,10,,,9999.0,,-2.0,-2.0,29.96,,,,,,,,,,,,,,,,8/8 Overcast,3000.0,,FEW,900,OVC,3000.0,,,,
KRDR,11-16-2008,13:00,METAR,,10,8,,,9999.0,Light Snow,-2.0,-3.0,29.95,1015.1,,,,71,,,,,,,TRACE,,,,8/8 Overcast,3000.0,,FEW,900,OVC,3000.0,,,,
KRDR,11-16-2008,12:33,SPECI,,20,7,,,9999.0,Light Snow,-2.0,-3.0,29.94,,,,,71,,,,,,,,,,,8/8 Overcast,3100.0,,FEW,500,SCT,900.0,OVC,3200.0,,
KRDR,11-16-2008,12:00,METAR,,350,9,,,9999.0,,-3.0,-3.0,29.93,1014.5,,,,,,,,,,,,,,,8/8 Overcast,900.0,,BKN,900,OVC,7900.0,,,,
KRDR,11-16-2008,11:42,SPECI,,350,7,,,9999.0,,-3.0,-3.0,29.92,,,,,,,,,,,,,,,,8/8 Overcast,500.0,,BKN,500,BKN,900.0,OVC,7900.0,,
KRDR,11-16-2008,11:26,SPECI,,350,6,,,9999.0,,-3.0,-4.0,29.91,1013.8,,,,,,,,,,,,,,,8/8 Overcast,8000.0,,FEW,700,OVC,7900.0,,,,
KRDR,11-16-2008,11:00,METAR,,310,4,,,9999.0,,-3.0,-4.0,29.89,1013.3,,,,,,,,,,,,,,,8/8 Overcast,5500.0,,OVC,5400,,,,,,
KRDR,11-16-2008,10:00,METAR,,360,3,,,9999.0,,-3.0,-3.0,29.89,1013.1,,,,,,,,,,,,,,,8/8 Overcast,4100.0,,OVC,4200,,,,,,
KRDR,11-16-2008,09:00,METAR,,,0,,,9999.0,,-3.0,-3.0,29.87,1012.5,,,,,,,,,,,,,,,8/8 Overcast,3800.0,,OVC,3900,,,,,,
KRDR,11-16-2008,08:00,METAR,,110,5,,,9999.0,,-3.0,-4.0,29.85,1011.8,,,,,,,,,,,,,,,7/8 Mostly Cloudy,8000.0,,BKN,7900,,,,,,
KRDR,11-16-2008,07:00,METAR,,120,3,,,9999.0,,-2.0,-3.0,29.86,1012.2,,,,,,,,,,,,,,,8/8 Overcast,8500.0,,OVC,8400,,,,,,
KRDR,11-16-2008,06:00,METAR,,140,4,,,9999.0,,-2.0,-3.0,29.87,1012.7,,,,,,,,,,,,,TRACE,,8/8 Overcast,8000.0,,OVC,7900,,,,,,
KRDR,11-16-2008,05:00,METAR,,140,5,,,9999.0,,-1.0,-3.0,29.89,1013.2,,,,,,,,,,,TRACE,,,,7/8 Mostly Cloudy,8000.0,,BKN,7900,,,,,,
KRDR,11-16-2008,04:47,SPECI,,140,6,,,9999.0,,-1.0,-3.0,29.89,1013.1,,,,,,,,,,,,,,,7/8 Mostly Cloudy,8000.0,,BKN,7900,,,,,,
KRDR,11-16-2008,04:35,SPECI,,150,5,,,9999.0,Unknown Precipitation,-1.0,-3.0,29.90,1013.4,40,,,,,,,,,,,,,,7/8 Mostly Cloudy,8000.0,,BKN,7900,,,,,,
KRDR,11-16-2008,04:00,METAR,,190,5,,,9999.0,,-1.0,-3.0,29.93,1014.5,,,,,,,,,,,TRACE,,,,Clear,72000.0,,,73000,,,,,,
KRDR,11-16-2008,03:31,SPECI,,180,4,,,9999.0,,-1.0,-3.0,29.95,1015.1,,,,,,,,,,,,,,,Clear,72000.0,,,73000,,,,,,
KRDR,11-16-2008,03:00,SPECI,,200,4,,,9999.0,Unknown Precipitation,-2.0,-3.0,29.96,1015.5,40,,,,,,,,,,,,,,7/8 Mostly Cloudy,8000.0,,BKN,7900,,,,,,
KRDR,11-16-2008,03:00,METAR,,190,4,,,9999.0,,-2.0,-3.0,29.96,1015.5,,,,,,,,,,,,,,,7/8 Mostly Cloudy,8000.0,,BKN,7900,,,,,,
KRDR,11-16-2008,02:00,METAR,,180,5,,,9999.0,,-2.0,-3.0,29.97,1015.8,,,,,,,,,,,,,,,7/8 Mostly Cloudy,8000.0,,BKN,7900,,,,,,
KRDR,11-16-2008,01:00,METAR,,180,5,,,9999.0,,-2.0,-3.0,30.00,1017.0,,,,,,,,,,,,,,,7/8 Mostly Cloudy,8000.0,,BKN,7900,,,,,,
KRDR,11-16-2008,00:00,METAR,,180,5,,,9999.0,,-2.0,-3.0,30.02,1017.5,,,,,,,,,,,,,,,8/8 Overcast,3600.0,,OVC,3700,,,,,,
KRDR,11-15-2008,23:00,METAR,,170,6,,,9999.0,,-1.0,-4.0,30.04,1018.3,,,,,,,,,,,,,,,8/8 Overcast,3600.0,,OVC,3700,,,,,,
KRDR,11-15-2008,22:00,METAR,,220,4,,,9999.0,,-1.0,-5.0,30.08,1019.4,,,,,,,,,,,,,,,8/8 Overcast,4200.0,,OVC,4300,,,,,,
KRDR,11-15-2008,21:19,SPECI,,200,3,,,9999.0,,-1.0,-5.0,30.08,1019.5,,,,,,,,,,,,,,,8/8 Overcast,2200.0,,OVC,3000,,,,,,
KRDR,11-15-2008,21:05,SPECI,,240,3,,,9999.0,,-1.0,-5.0,30.09,1019.7,,,,,,,,,,,,,,,8/8 Overcast,2900.0,,FEW,1700,OVC,2900.0,,,,
KRDR,11-15-2008,21:00,METAR,,240,4,,,9999.0,,-1.0,-5.0,30.08,1019.6,,,,,,,,,,,,,,,8/8 Overcast,3400.0,,SCT,1700,OVC,3500.0,,,,
KRDR,11-15-2008,20:50,SPECI,,230,5,,,9999.0,,-1.0,-5.0,30.08,1019.6,,,,,,,,,,,,,,,8/8 Overcast,3200.0,,SCT,1700,OVC,3300.0,,,,
KRDR,11-15-2008,20:00,SPECI,,260,4,,,9999.0,,-2.0,-6.0,30.11,1020.4,,,,,,,,,,,,,,,8/8 Overcast,1900.0,,BKN,1900,OVC,3900.0,,,,
KRDR,11-15-2008,20:00,METAR,,260,4,,,9999.0,,-2.0,-7.0,30.11,1020.5,,,,,,,,,,,,,,,8/8 Overcast,3800.0,,SCT,2000,OVC,3900.0,,,,
KRDR,11-15-2008,19:00,METAR,,290,4,,,9999.0,,-2.0,-7.0,30.13,1021.2,,,,,,,,,,,,,,,8/8 Overcast,4100.0,,OVC,4200,,,,,,
KRDR,11-15-2008,18:00,METAR,,,3,,,9999.0,,-3.0,-8.0,30.15,1021.8,,,,,,,,,,,,,,,8/8 Overcast,4200.0,,OVC,4300,,,,,,
KRDR,11-15-2008,17:00,METAR,,340,7,,,9999.0,,-3.0,-8.0,30.19,1023.0,,,,,,,,,,,,,,,Clear,72000.0,,,73000,,,,,,
KRDR,11-15-2008,16:00,METAR,,330,6,,,9999.0,,-4.0,-8.0,30.21,1023.7,,,,,,,,,,,,,,,2/8 Mostly Clear,72000.0,,FEW,4200,,,,,,
KRDR,11-15-2008,15:00,METAR,,300,5,,,9999.0,,-6.0,-9.0,30.21,1023.8,,,,,,,,,,,,,,,Clear,72000.0,,,73000,,,,,,
KRDR,11-15-2008,14:00,METAR,,330,6,,,9999.0,,-8.0,-10.0,30.21,1023.9,,,,,,,,,,,,,,,Clear,72000.0,,,73000,,,,,,
KRDR,11-15-2008,13:00,METAR,,330,8,,,9999.0,,-7.0,-9.0,30.20,1023.5,,,,,,,,,,,,,,,Clear,72000.0,,,73000,,,,,,
KRDR,11-15-2008,12:00,METAR,,330,7,,,9999.0,,-7.0,-9.0,30.20,1023.5,,,,,,,,,,,,,,.01 IN,Clear,72000.0,,,73000,,,,,,
KRDR,11-15-2008,11:00,METAR,,330,9,,,9999.0,,-7.0,-9.0,30.20,1023.5,,,,,,,,,,,,,,,Clear,72000.0,,,73000,,,,,,
KRDR,11-15-2008,10:00,METAR,,320,8,,,9999.0,,-6.0,-9.0,30.20,1023.5,,,,,,,,,,,,,,,Clear,72000.0,,,73000,,,,,,
KRDR,11-15-2008,09:00,METAR,,320,12,,,9999.0,,-6.0,-9.0,30.20,1023.5,,,,,,,,,,,,,,,Clear,72000.0,,,73000,,,,,,
KRDR,11-15-2008,08:00,METAR,,320,9,,,9999.0,,-5.0,-8.0,30.19,1023.2,,,,,,,,,,,,,,,Clear,72000.0,,,73000,,,,,,
KRDR,11-15-2008,07:00,METAR,,320,10,,,9999.0,,-4.0,-7.0,30.20,1023.5,,,,,,,,,,,,,,,8/8 Overcast,6000.0,,OVC,5900,,,,,,
KRDR,11-15-2008,06:00,METAR,,310,8,,,9999.0,,-5.0,-7.0,30.19,1023.1,,,,,,,,,,,,,TRACE,,7/8 Mostly Cloudy,6000.0,,BKN,5900,,,,,,
KRDR,11-15-2008,05:00,METAR,,330,12,,,9999.0,,-4.0,-7.0,30.19,1023.1,,,,,,,,,,,,,,,4/8 Partly Cloudy,72000.0,,SCT,3000,,,,,,
KRDR,11-15-2008,04:00,METAR,,330,10,,,9999.0,Light Snow,-2.0,-6.0,30.19,1023.2,,,,71,,,,,,,,,,,8/8 Overcast,2400.0,,OVC,2400,,,,,,
KRDR,11-15-2008,03:00,METAR,,330,11,,,9999.0,Light Snow,-2.0,-6.0,30.18,1022.7,,,,71,,,,,,,TRACE,TRACE,,,8/8 Overcast,2300.0,,FEW,1600,BKN,2300.0,OVC,5900.0,,
KRDR,11-15-2008,02:00,METAR,,320,14,,,9999.0,Light Snow,-2.0,-5.0,30.17,1022.4,,,,71,,,,,,,TRACE,,,,8/8 Overcast,2300.0,,SCT,1600,BKN,2300.0,OVC,2900.0,,
KRDR,11-15-2008,01:00,METAR,,330,9,,,9999.0,Light Snow,-2.0,-5.0,30.16,1022.0,,,,71,,,,,,,TRACE,,,,8/8 Overcast,2200.0,,BKN,2200,OVC,3700.0,,,,
KRDR,11-15-2008,00:00,METAR,,330,14,19.0,,9999.0,Light Snow,-2.0,-5.0,30.13,1021.2,,,,71,,,,,,,TRACE,,TRACE,,8/8 Overcast,2800.0,,OVC,2800,,,,,,
KRDR,11-14-2008,23:00,METAR,,330,15,21.0,,9999.0,Light Snow,-2.0,-5.0,30.09,1019.9,,,,71,,,,,,,TRACE,,,,8/8 Overcast,2500.0,,BKN,2500,OVC,5000.0,,,,
KRDR,11-14-2008,22:00,METAR,,340,14,21.0,340/26KTS,9999.0,Light Snow,-1.0,-5.0,30.06,1018.8,,,,71,,,,,,,TRACE,,,,8/8 Overcast,2700.0,,BKN,2700,OVC,5000.0,,,,
KRDR,11-14-2008,21:00,METAR,,340,17,22.0,,9999.0,Light Snow,-1.0,-5.0,30.02,1017.6,,,,71,,,,,,,TRACE,TRACE,,,8/8 Overcast,2400.0,,OVC,2400,,,,,,
KRDR,11-14-2008,20:00,METAR,,330,16,21.0,,9999.0,Light Snow,-1.0,-4.0,29.98,1016.5,,,,71,,,,,,,TRACE,,,,8/8 Overcast,1900.0,,OVC,1900,,,,,,
KRDR,11-14-2008,19:00,METAR,,340,17,23.0,,9999.0,,-1.0,-5.0,29.94,1015.1,,,,,,,,,,,TRACE,,,,8/8 Overcast,1800.0,,OVC,1800,,,,,,
KRDR,11-14-2008,18:00,METAR,,340,17,23.0,350/26KTS,9999.0,,-2.0,-4.0,29.93,1014.5,,,,,,,,,,,TRACE,,.01 IN,,8/8 Overcast,1900.0,,OVC,1900,,,,,,
KRDR,11-14-2008,17:00,METAR,,350,13,20.0,350/28KTS,9999.0,,-2.0,-5.0,29.91,1013.8,,,,,,,,,,,TRACE,,,,8/8 Overcast,1500.0,,FEW,800,BKN,1500.0,OVC,2400.0,,
KRDR,11-14-2008,16:13,SPECI,,350,18,24.0,,9999.0,,-2.0,-4.0,29.88,,,,,,,,,,,,,,,,8/8 Overcast,1400.0,,FEW,800,OVC,1400.0,,,,
KRDR,11-14-2008,16:00,METAR,,360,15,25.0,,9999.0,Light Snow,-1.0,-3.0,29.86,1012.3,,,,71,,,,,,,TRACE,,,,8/8 Overcast,1100.0,,OVC,1100,,,,,,
KRDR,11-14-2008,15:21,SPECI,,360,15,24.0,,6400.0,Light Snow,0.0,-2.0,29.84,,,,,71,,,,,,,,,,,7/8 Mostly Cloudy,1400.0,,BKN,1400,,,,,,
KRDR,11-14-2008,15:00,METAR,,350,15,20.0,,1600.0,Light Snow/Mist,0.0,-1.0,29.81,1010.5,,,,71,10,,,,,,TRACE,.01 IN,,,7/8 Mostly Cloudy,1600.0,,BKN,1600,,,,,,
KRDR,11-14-2008,14:00,METAR,,360,9,,,8000.0,Light Snow,0.0,-1.0,29.76,1009.0,,,,71,,,,,,,TRACE,,,,8/8 Overcast,1300.0,,FEW,800,OVC,1300.0,,,,
KRDR,11-14-2008,13:00,METAR,,340,9,,,9999.0,Light Snow,0.0,-1.0,29.72,1007.5,,,,71,,,,,,,.01 IN,,,,8/8 Overcast,1100.0,,OVC,1100,,,,,,
KRDR,11-14-2008,12:00,METAR,,340,7,,,8000.0,Light Snow,0.0,-1.0,29.69,1006.5,,,,71,,,,,,,TRACE,,TRACE,,8/8 Overcast,1600.0,,OVC,1600,,,,,,
KRDR,11-14-2008,11:08,SPECI,,340,6,,,9999.0,Light Snow,0.0,0.0,29.66,,,,,71,,,,,,,,,,,8/8 Overcast,1400.0,,OVC,1400,,,,,,
KRDR,11-14-2008,11:00,SPECI,,340,5,,,9999.0,Light Snow,0.0,0.0,29.66,1005.6,71,,,,,,,,,,,,,,4/8 Partly Cloudy,72000.0,,SCT,1000,,,,,,
KRDR,11-14-2008,11:00,METAR,,340,5,,,9999.0,Light Snow,0.0,0.0,29.65,1005.5,71,,,,,,,,,,TRACE,,,,7/8 Mostly Cloudy,1000.0,,BKN,1000,,,,,,
KRDR,11-14-2008,10:48,SPECI,,340,5,,,9999.0,Light Snow,0.0,0.0,29.65,1005.4,71,,,,,,,,,,,,,,7/8 Mostly Cloudy,1000.0,,BKN,1000,,,,,,
KRDR,11-14-2008,10:35,SPECI,,350,5,,,8000.0,Light Snow/Mist,0.0,0.0,29.64,1005.1,71,10,,,,,,,,,,,,,8/8 Overcast,1100.0,,OVC,1100,,,,,,
KRDR,11-14-2008,10:14,SPECI,,10,8,,,9999.0,Light Snow,0.0,0.0,29.63,1004.7,71,,,,,,,,,,,,,,8/8 Overcast,1400.0,,OVC,1400,,,,,,
KRDR,11-14-2008,10:00,METAR,,10,4,,,9999.0,Unknown Precipitation,0.0,0.0,29.62,1004.3,40,,,,,,,,,,TRACE,,,,8/8 Overcast,2100.0,,OVC,2100,,,,,,
KRDR,11-14-2008,09:49,SPECI,,10,4,,,9999.0,Unknown Precipitation,0.0,0.0,29.62,1004.2,40,,,,,,,,,,,,,,8/8 Overcast,2300.0,,FEW,900,OVC,2300.0,,,,
KRDR,11-14-2008,09:34,SPECI,,360,3,,,9999.0,Unknown Precipitation,0.0,0.0,29.61,1004.0,40,,,,,,,,,,,,,,8/8 Overcast,2100.0,,FEW,400,SCT,1400.0,OVC,2100.0,,
KRDR,11-14-2008,09:30,SPECI,,10,4,,,9999.0,,0.0,0.0,29.61,1003.9,,,,,,,,,,,,,,,8/8 Overcast,2100.0,,SCT,400,SCT,1000.0,OVC,2100.0,,
KRDR,11-14-2008,09:25,SPECI,,10,4,,,9999.0,Unknown Precipitation,0.0,0.0,29.61,1003.9,40,,,,,,,,,,,,,,8/8 Overcast,1000.0,,SCT,400,BKN,1000.0,OVC,2100.0,,
KRDR,11-14-2008,09:18,SPECI,,10,4,,,9999.0,Unknown Precipitation,0.0,0.0,29.60,1003.8,40,,,,,,,,,,,,,,8/8 Overcast,400.0,,BKN,400,OVC,1000.0,,,,
KRDR,11-14-2008,09:10,SPECI,,350,3,,,9999.0,,0.0,0.0,29.60,1003.7,,,,,,,,,,,,,,,8/8 Overcast,400.0,,OVC,400,,,,,,
KRDR,11-14-2008,09:00,METAR,,360,4,,,9999.0,,1.0,0.0,29.59,1003.3,,,,,,,,,,,,TRACE,,,8/8 Overcast,700.0,,OVC,700,,,,,,
KRDR,11-14-2008,08:53,SPECI,,10,4,,,9999.0,,1.0,0.0,29.59,1003.3,,,,,,,,,,,,,,,8/8 Overcast,600.0,,OVC,600,,,,,,
KRDR,11-14-2008,08:41,SPECI,,10,5,,,9999.0,,1.0,0.0,29.58,1003.1,,,,,,,,,,,,,,,8/8 Overcast,400.0,,BKN,400,OVC,1500.0,,,,
KRDR,11-14-2008,08:29,SPECI,,360,4,,,9999.0,,0.0,0.0,29.58,1003.0,,,,,,,,,,,,,,,8/8 Overcast,1600.0,,FEW,400,OVC,1600.0,,,,
KRDR,11-14-2008,08:13,SPECI,,10,5,,,9999.0,,1.0,0.0,29.57,1002.7,,,,,,,,,,,,,,,8/8 Overcast,1300.0,,OVC,1300,,,,,,
KRDR,11-14-2008,08:07,SPECI,,10,6,,,9999.0,,1.0,0.0,29.57,1002.6,,,,,,,,,,,,,,,8/8 Overcast,700.0,,OVC,1100,,,,,,
KRDR,11-14-2008,08:00,METAR,,10,6,,,9999.0,,1.0,0.0,29.56,1002.4,,,,,,,,,,,TRACE,,,,8/8 Overcast,700.0,,OVC,700,,,,,,
KRDR,11-14-2008,07:42,SPECI,,360,7,,,9999.0,Unknown Precipitation,2.0,1.0,29.56,1002.4,40,,,,,,,,,,,,,,8/8 Overcast,700.0,,OVC,700,,,,,,
KRDR,11-14-2008,07:29,SPECI,,320,5,,,9999.0,,2.0,1.0,29.56,1002.3,,,,,,,,,,,,,,,7/8 Mostly Cloudy,900.0,,BKN,900,,,,,,
KRDR,11-14-2008,07:25,SPECI,,320,5,,,9999.0,,2.0,1.0,29.56,1002.2,,,,,,,,,,,,,,,7/8 Mostly Cloudy,1100.0,,BKN,1100,,,,,,
KRDR,11-14-2008,07:23,SPECI,,320,6,,,9999.0,,2.0,1.0,29.56,1002.2,,,,,,,,,,,,,,,7/8 Mostly Cloudy,1400.0,,BKN,1400,,,,,,
KRDR,11-14-2008,07:00,METAR,,290,5,,,9999.0,,2.0,1.0,29.55,1001.9,,,,,,,,,,,TRACE,,,,7/8 Mostly Cloudy,3600.0,,BKN,3700,,,,,,
KRDR,11-14-2008,06:25,SPECI,,280,6,,,9999.0,,2.0,1.0,29.54,,,,,,,,,,,,,,,,8/8 Overcast,2700.0,,BKN,2700,OVC,3900.0,,,,
KRDR,11-14-2008,06:00,METAR,,280,5,,,9999.0,Rain,2.0,1.0,29.53,1001.2,,,,61,,,,,,,TRACE,,TRACE,,8/8 Overcast,1900.0,,OVC,1900,,,,,,
KRDR,11-14-2008,05:35,SPECI,,270,4,,,9999.0,Rain,2.0,1.0,29.52,,,,,61,,,,,,,,,,,8/8 Overcast,1800.0,,OVC,1800,,,,,,
KRDR,11-14-2008,05:00,METAR,,270,3,,,9999.0,,2.0,0.0,29.51,,,,,,,,,,,,,,,,8/8 Overcast,2300.0,,SCT,1400,OVC,2300.0,,,,
KRDR,11-14-2008,04:00,METAR,,280,4,,,9999.0,,2.0,0.0,29.50,1000.3,,,,,,,,,,,,,,,8/8 Overcast,1400.0,,OVC,1400,,,,,,
KRDR,11-14-2008,03:00,METAR,,290,4,,,9999.0,,2.0,0.0,29.49,1000.0,,,,,,,,,,,,,,,8/8 Overcast,1600.0,,OVC,1600,,,,,,
KRDR,11-14-2008,02:00,METAR,,280,4,,,9999.0,,2.0,0.0,29.47,999.5,,,,,,,,,,,,,,,8/8 Overcast,1600.0,,OVC,1600,,,,,,
KRDR,11-14-2008,01:00,METAR,,310,4,,,9999.0,,2.0,0.0,29.45,998.8,,,,,,,,,,,,,,,8/8 Overcast,1600.0,,OVC,1600,,,,,,
KRDR,11-14-2008,00:00,METAR,,310,6,,,9999.0,,2.0,0.0,29.43,998.0,,,,,,,,,,,,,,,8/8 Overcast,1500.0,,OVC,1500,,,,,,
KRDR,11-13-2008,23:00,METAR,,310,7,,,9999.0,,2.0,0.0,29.42,997.6,,,,,,,,,,,,,,,8/8 Overcast,1600.0,,OVC,1600,,,,,,
KRDR,11-13-2008,22:00,METAR,,320,9,,,9999.0,,3.0,0.0,29.39,996.6,,,,,,,,,,,,,,,8/8 Overcast,1600.0,,OVC,1600,,,,,,
KRDR,11-13-2008,21:00,METAR,,320,13,18.0,,9999.0,,3.0,0.0,29.37,996.0,,,,,,,,,,,,,,,8/8 Overcast,1500.0,,OVC,1500,,,,,,
KRDR,11-13-2008,20:00,METAR,,340,13,17.0,,9999.0,,4.0,0.0,29.34,995.2,,,,,,,,,,,,,,,8/8 Overcast,1500.0,,OVC,1500,,,,,,
KRDR,11-13-2008,19:00,METAR,,310,13,17.0,,9999.0,,3.0,1.0,29.34,995.0,,,,,,,,,,,,,,,8/8 Overcast,1600.0,,OVC,1600,,,,,,
KRDR,11-13-2008,18:00,METAR,,310,14,20.0,,9999.0,,4.0,1.0,29.33,994.8,,,,,,,,,,,,,,,8/8 Overcast,1700.0,,OVC,1700,,,,,,
KRDR,11-13-2008,17:00,METAR,,310,14,,,9999.0,,4.0,1.0,29.32,994.4,,,,,,,,,,,,,,,8/8 Overcast,1600.0,,OVC,1600,,,,,,
KRDR,11-13-2008,16:00,METAR,,300,12,20.0,,9999.0,,4.0,1.0,29.29,993.4,,,,,,,,,,,,,,,8/8 Overcast,2000.0,,OVC,2000,,,,,,
KRDR,11-13-2008,15:00,METAR,,300,13,19.0,,9999.0,,4.0,1.0,29.27,992.9,,,,,,,,,,,,,,,7/8 Mostly Cloudy,2000.0,,BKN,2000,,,,,,
KRDR,11-13-2008,14:00,METAR,,300,14,21.0,,9999.0,,4.0,2.0,29.24,991.9,,,,,,,,,,,,,,,8/8 Overcast,2700.0,,BKN,2700,OVC,4000.0,,,,
KRDR,11-13-2008,13:00,METAR,,290,9,,,9999.0,,3.0,2.0,29.22,991.1,,,,,,,,,,,,,,,7/8 Mostly Cloudy,1500.0,,BKN,1500,BKN,3000.0,,,,
KRDR,11-13-2008,12:49,SPECI,,290,8,,,9999.0,,3.0,2.0,29.22,991.1,,,,,,,,,,,,,,,7/8 Mostly Cloudy,1500.0,,BKN,1500,BKN,3000.0,,,,
KRDR,11-13-2008,12:14,SPECI,,290,13,,,9999.0,,2.0,2.0,29.21,990.8,,,,,,,,,,,,,,,7/8 Mostly Cloudy,1000.0,,FEW,800,BKN,1000.0,BKN,3000.0,,
KRDR,11-13-2008,12:01,SPECI,,290,10,,,9999.0,,2.0,1.0,29.20,990.6,,,,,,,,,,,,,,,7/8 Mostly Cloudy,1100.0,,BKN,1100,BKN,5000.0,,,,
KRDR,11-13-2008,12:00,METAR,,300,8,,,9999.0,,2.0,2.0,29.19,990.1,,,,,,,,,,,,,.03 IN,.08 IN,8/8 Overcast,1300.0,,OVC,1300,,,,,,
KRDR,11-13-2008,11:34,SPECI,,280,8,,,9999.0,,2.0,1.0,29.18,989.9,,,,,,,,,,,,,,,7/8 Mostly Cloudy,1300.0,,BKN,1300,,,,,,
KRDR,11-13-2008,11:00,METAR,,200,8,,,9999.0,,1.0,1.0,29.17,989.6,,,,,,,,,,,,,,,Clear,72000.0,,,73000,,,,,,
KRDR,11-13-2008,10:00,METAR,,200,11,,,9999.0,,2.0,1.0,29.19,990.1,,,,,,,,,,,,,,,4/8 Partly Cloudy,72000.0,,SCT,900,,,,,,
KRDR,11-13-2008,09:46,SPECI,,200,12,,,9999.0,,2.0,1.0,29.19,990.2,,,,,,,,,,,,,,,4/8 Partly Cloudy,72000.0,,SCT,900,,,,,,
KRDR,11-13-2008,09:11,SPECI,,190,12,,,9999.0,,2.0,2.0,29.20,990.6,,,,,,,,,,,,,,,8/8 Overcast,900.0,,OVC,900,,,,,,
KRDR,11-13-2008,09:00,METAR,,190,13,,,9999.0,,2.0,2.0,29.22,991.1,,,,,,,,,,,,.03 IN,,,8/8 Overcast,900.0,,OVC,900,,,,,,
KRDR,11-13-2008,08:54,SPECI,,190,14,,,9999.0,,2.0,2.0,29.22,991.0,,,,,,,,,,,,,,,8/8 Overcast,1100.0,,OVC,1100,,,,,,
KRDR,11-13-2008,08:25,SPECI,,180,13,,,9999.0,,2.0,2.0,29.23,991.4,,,,,,,,,,,,,,,8/8 Overcast,700.0,,OVC,700,,,,,,
KRDR,11-13-2008,08:15,SPECI,,180,14,,,9999.0,,2.0,2.0,29.24,991.6,,,,,,,,,,,,,,,8/8 Overcast,600.0,,OVC,600,,,,,,
KRDR,11-13-2008,08:05,SPECI,,180,17,,,9999.0,,2.0,2.0,29.24,991.8,,,,,,,,,,,,,,,8/8 Overcast,800.0,,OVC,800,,,,,,
KRDR,11-13-2008,08:00,METAR,,190,15,,,9999.0,,2.0,2.0,29.25,992.0,,,,,,,,,,,,,,,8/8 Overcast,600.0,,OVC,600,,,,,,
KRDR,11-13-2008,07:45,SPECI,,190,17,,,9999.0,,2.0,2.0,29.25,992.2,,,,,,,,,,,,,,,8/8 Overcast,600.0,,OVC,600,,,,,,
KRDR,11-13-2008,07:00,METAR,,180,16,,,9999.0,,1.0,1.0,29.28,993.0,,,,,,,,,,,.03 IN,,,,8/8 Overcast,500.0,,OVC,500,,,,,,
KRDR,11-13-2008,06:30,SPECI,,180,13,,,9999.0,,1.0,1.0,29.30,993.8,,,,,,,,,,,,,,,8/8 Overcast,500.0,,OVC,500,,,,,,
KRDR,11-13-2008,06:20,SPECI,,170,13,,,9999.0,Light Rain,1.0,1.0,29.30,993.7,61,,,,,,,,,,,,,,8/8 Overcast,600.0,,OVC,600,,,,,,
KRDR,11-13-2008,06:15,SPECI,,170,13,,,9999.0,Light Rain,1.0,1.0,29.30,993.6,61,,,,,,,,,,,,,,8/8 Overcast,500.0,,OVC,500,,,,,,
KRDR,11-13-2008,06:00,METAR,,170,16,,,9999.0,Unknown Precipitation,1.0,1.0,29.32,994.4,40,,,,,,,,,,.04 IN,,.05 IN,,8/8 Overcast,400.0,,OVC,400,,,,,,
KRDR,11-13-2008,05:54,SPECI,,160,15,,,9999.0,Unknown Precipitation/Mist,1.0,1.0,29.32,994.3,40,10,,,,,,,,,,,,,8/8 Overcast,500.0,,OVC,500,,,,,,
KRDR,11-13-2008,05:46,SPECI,,170,15,,,9999.0,Unknown Precipitation,1.0,1.0,29.33,994.6,40,,,,,,,,,,,,,,8/8 Overcast,400.0,,OVC,400,,,,,,
KRDR,11-13-2008,05:20,SPECI,,160,15,,,9999.0,Light Rain,1.0,1.0,29.35,995.2,61,,,,,,,,,,,,,,8/8 Overcast,500.0,,OVC,500,,,,,,
KRDR,11-13-2008,05:00,METAR,,170,15,,,9999.0,Light Rain,1.0,1.0,29.37,996.2,61,,,,,,,,,,.01 IN,,,,8/8 Overcast,400.0,,OVC,400,,,,,,
KRDR,11-13-2008,04:00,METAR,,180,15,,,8000.0,Rain/Mist,1.0,1.0,29.44,998.4,,,,61,10,,,,,,TRACE,,,,8/8 Overcast,400.0,,OVC,400,,,,,,
KRDR,11-13-2008,03:00,METAR,,190,16,,,9999.0,,1.0,0.0,29.47,999.4,,,,,,,,,,,,,,,8/8 Overcast,400.0,,OVC,400,,,,,,
KRDR,11-13-2008,02:00,METAR,,190,17,,,9999.0,,1.0,0.0,29.52,1000.9,,,,,,,,,,,,,,,8/8 Overcast,500.0,,OVC,500,,,,,,
KRDR,11-13-2008,01:00,METAR,,190,15,,,9999.0,,1.0,0.0,29.56,1002.3,,,,,,,,,,,,,,,8/8 Overcast,500.0,,OVC,500,,,,,,
KRDR,11-13-2008,00:00,METAR,,190,13,,,9999.0,Mist,1.0,0.0,29.60,1003.7,,,,10,,,,,,,,,,,8/8 Overcast,600.0,,OVC,600,,,,,,
KRDR,11-12-2008,23:00,METAR,,190,9,,,9999.0,Mist,2.0,0.0,29.64,1005.0,,,,10,,,,,,,,,,,8/8 Overcast,700.0,,OVC,700,,,,,,
KRDR,11-12-2008,22:00,METAR,,180,14,,,9999.0,Mist,2.0,0.0,29.67,1005.9,,,,10,,,,,,,,,,,8/8 Overcast,700.0,,OVC,700,,,,,,
KRDR,11-12-2008,21:00,METAR,,180,12,,,8000.0,Mist,2.0,0.0,29.67,1006.0,,,,10,,,,,,,,,,,8/8 Overcast,700.0,,OVC,700,,,,,,
KRDR,11-12-2008,20:00,METAR,,180,14,,,9999.0,Mist,2.0,0.0,29.70,1007.0,,,,10,,,,,,,,,,,8/8 Overcast,700.0,,OVC,700,,,,,,
KRDR,11-12-2008,19:00,METAR,,170,11,,,9999.0,Mist,2.0,0.0,29.74,1008.7,,,,10,,,,,,,,,,,8/8 Overcast,800.0,,OVC,800,,,,,,
KRDR,11-12-2008,18:00,METAR,,200,10,,,9999.0,Mist,1.0,0.0,29.79,1010.3,,,,10,,,,,,,,,,,8/8 Overcast,700.0,,OVC,700,,,,,,
KRDR,11-12-2008,17:33,SPECI,,200,11,,,9999.0,Mist,1.0,0.0,29.79,1010.3,,,,10,,,,,,,,,,,8/8 Overcast,700.0,,OVC,700,,,,,,
KRDR,11-12-2008,17:00,METAR,,180,11,,,9999.0,Mist,1.0,0.0,29.81,1010.4,,,,10,,,,,,,,,,,8/8 Overcast,600.0,,OVC,600,,,,,,
KRDR,11-12-2008,16:17,SPECI,,180,10,,,8000.0,Mist,1.0,-1.0,29.81,1010.7,,,,10,,,,,,,,,,,8/8 Overcast,700.0,,OVC,700,,,,,,
KRDR,11-12-2008,16:00,METAR,,180,13,,,8000.0,Mist,1.0,-1.0,29.81,1010.7,,,,10,,,,,,,,,,,8/8 Overcast,600.0,,OVC,600,,,,,,
KRDR,11-12-2008,15:12,SPECI,,190,8,,,6400.0,Mist,0.0,-1.0,29.84,1011.5,,,,10,,,,,,,,,,,8/8 Overcast,600.0,,OVC,600,,,,,,
KRDR,11-12-2008,15:00,METAR,,170,8,,,6400.0,Mist,1.0,0.0,29.85,1011.7,,,,10,,,,,,,,,,,8/8 Overcast,700.0,,OVC,700,,,,,,
KRDR,11-12-2008,14:00,METAR,,180,8,,,6400.0,Mist,0.0,-1.0,29.85,1011.9,,,,10,,,,,,,,,,,8/8 Overcast,700.0,,OVC,700,,,,,,
KRDR,11-12-2008,13:31,SPECI,,190,8,,,6400.0,Mist,0.0,-1.0,29.85,1012.0,,,,10,,,,,,,,,,,8/8 Overcast,700.0,,OVC,700,,,,,,
KRDR,11-12-2008,13:00,METAR,,180,9,,,6400.0,Mist,0.0,-1.0,29.84,1011.7,,,,10,,,,,,,,,,,8/8 Overcast,600.0,,OVC,600,,,,,,
KRDR,11-12-2008,12:31,SPECI,,180,11,17.0,,6400.0,Mist,0.0,-1.0,29.84,1011.4,,,,10,,,,,,,,,,,8/8 Overcast,500.0,,OVC,500,,,,,,
KRDR,11-12-2008,12:07,SPECI,,160,11,,,6400.0,Mist,0.0,-1.0,29.84,1011.6,,,,10,,,,,,,,,,,8/8 Overcast,600.0,,OVC,600,,,,,,
KRDR,11-12-2008,12:00,METAR,,170,10,,,8000.0,Mist,0.0,-1.0,29.85,1011.9,,,,10,,,,,,,,,,,8/8 Overcast,800.0,,OVC,800,,,,,,
KRDR,11-12-2008,11:00,METAR,,190,8,,,8000.0,Mist,0.0,-1.0,29.88,1012.8,,,,10,,,,,,,,,,,8/8 Overcast,700.0,,OVC,700,,,,,,
KRDR,11-12-2008,10:46,SPECI,,190,10,,,8000.0,Mist,0.0,-1.0,29.88,1012.7,,,,10,,,,,,,,,,,8/8 Overcast,700.0,,OVC,700,,,,,,
KRDR,11-12-2008,10:00,METAR,,170,10,,,8000.0,Mist,0.0,-1.0,29.89,1013.1,,,,10,,,,,,,,,,,8/8 Overcast,600.0,,OVC,600,,,,,,
KRDR,11-12-2008,09:00,METAR,,170,10,,,8000.0,Mist,0.0,-1.0,29.91,1013.9,,,,10,,,,,,,,,,,8/8 Overcast,700.0,,SCT,500,OVC,700.0,,,,
KRDR,11-12-2008,08:33,SPECI,,170,8,,,8000.0,Mist,0.0,-1.0,29.91,1014.0,,,,10,,,,,,,,,,,8/8 Overcast,700.0,,OVC,700,,,,,,
KRDR,11-12-2008,08:24,SPECI,,170,9,,,8000.0,Mist,0.0,-1.0,29.92,1014.1,10,,,,,,,,,,,,,,8/8 Overcast,600.0,,BKN,600,OVC,1000.0,,,,
KRDR,11-12-2008,08:00,METAR,,170,8,,,9999.0,Mist,0.0,-1.0,29.93,1014.5,10,,,,,,,,,,,,,,8/8 Overcast,700.0,,OVC,700,,,,,,
KRDR,11-12-2008,07:00,METAR,,210,9,,,9999.0,,0.0,-1.0,29.94,1015.0,,,,,,,,,,,,,,,8/8 Overcast,800.0,,OVC,800,,,,,,
KRDR,11-12-2008,06:00,METAR,,190,8,,,9999.0,,0.0,-1.0,29.93,1014.5,,,,,,,,,,,,,,,8/8 Overcast,900.0,,OVC,900,,,,,,
KRDR,11-12-2008,05:21,SPECI,,180,11,,,9999.0,,0.0,-1.0,29.93,1014.5,,,,,,,,,,,,,,,8/8 Overcast,900.0,,OVC,900,,,,,,
KRDR,11-12-2008,05:00,METAR,,190,13,,,9999.0,,0.0,-1.0,29.94,1014.9,,,,,,,,,,,,,,,8/8 Overcast,900.0,,OVC,900,,,,,,
KRDR,11-12-2008,04:42,SPECI,,180,12,,,9999.0,,0.0,-1.0,29.94,1014.7,,,,,,,,,,,,,,,8/8 Overcast,900.0,,OVC,900,,,,,,
KRDR,11-12-2008,04:00,METAR,,170,13,,,9999.0,,0.0,-1.0,29.94,1014.8,,,,,,,,,,,,,,,8/8 Overcast,1000.0,,OVC,1000,,,,,,
KRDR,11-12-2008,03:41,SPECI,,170,12,,,9999.0,,0.0,-1.0,29.94,1014.8,,,,,,,,,,,,,,,8/8 Overcast,1100.0,,OVC,1100,,,,,,
KRDR,11-12-2008,03:18,SPECI,,180,10,,,9999.0,,0.0,-1.0,29.95,1015.1,,,,,,,,,,,,,,,8/8 Overcast,1400.0,,OVC,1400,,,,,,
KRDR,11-12-2008,03:00,METAR,,170,10,,,9999.0,,0.0,-1.0,29.95,1015.1,,,,,,,,,,,,,,,8/8 Overcast,1400.0,,FEW,900,OVC,1400.0,,,,
KRDR,11-12-2008,02:13,SPECI,,170,13,,,9999.0,,0.0,-1.0,29.96,1015.4,,,,,,,,,,,,,,,8/8 Overcast,1300.0,,OVC,1300,,,,,,
KRDR,11-12-2008,02:00,METAR,,170,12,,,9999.0,,0.0,-1.0,29.96,1015.6,,,,,,,,,,,,,,,8/8 Overcast,1100.0,,OVC,1100,,,,,,
KRDR,11-12-2008,01:48,SPECI,,170,11,,,9999.0,,0.0,-1.0,29.97,1015.7,,,,,,,,,,,,,,,8/8 Overcast,1100.0,,OVC,1100,,,,,,
KRDR,11-12-2008,01:34,SPECI,,170,9,,,9999.0,,0.0,-1.0,29.97,1016.0,,,,,,,,,,,,,,,8/8 Overcast,1200.0,,OVC,1200,,,,,,
KRDR,11-12-2008,01:15,SPECI,,160,7,,,9999.0,,0.0,-1.0,29.98,1016.2,,,,,,,,,,,,,,,8/8 Overcast,1300.0,,OVC,1300,,,,,,
KRDR,11-12-2008,01:00,METAR,,170,8,,,9999.0,,0.0,-1.0,29.99,1016.4,,,,,,,,,,,,,,,8/8 Overcast,1000.0,,OVC,1000,,,,,,
KRDR,11-12-2008,00:28,SPECI,,160,6,,,9999.0,,0.0,-1.0,29.99,1016.4,,,,,,,,,,,,,,,8/8 Overcast,700.0,,OVC,700,,,,,,
KRDR,11-12-2008,00:03,SPECI,,160,10,,,9999.0,,0.0,-1.0,29.99,1016.4,,,,,,,,,,,,,,,8/8 Overcast,600.0,,OVC,600,,,,,,
KRDR,11-12-2008,00:00,METAR,,150,9,,,9999.0,,0.0,-2.0,29.99,1016.5,,,,,,,,,,,,,,,8/8 Overcast,700.0,,OVC,700,,,,,,
KRDR,11-11-2008,23:43,SPECI,,160,7,,,9999.0,,0.0,-2.0,29.99,1016.6,,,,,,,,,,,,,,,8/8 Overcast,700.0,,OVC,700,,,,,,
KRDR,11-11-2008,23:18,SPECI,,150,10,,,9999.0,,0.0,-2.0,29.99,1016.5,,,,,,,,,,,,,,,8/8 Overcast,900.0,,OVC,900,,,,,,
KRDR,11-11-2008,23:08,SPECI,,150,10,,,9999.0,,0.0,-2.0,29.99,1016.6,,,,,,,,,,,,,,,8/8 Overcast,1100.0,,OVC,1100,,,,,,
KRDR,11-11-2008,23:00,METAR,,160,9,,,9999.0,,0.0,-2.0,30.00,1016.8,,,,,,,,,,,,,,,8/8 Overcast,1700.0,,OVC,1700,,,,,,
KRDR,11-11-2008,22:45,SPECI,,150,10,,,9999.0,,0.0,-2.0,30.00,1016.8,,,,,,,,,,,,,,,8/8 Overcast,2100.0,,FEW,1000,OVC,2100.0,,,,
KRDR,11-11-2008,22:05,SPECI,,160,14,,,9999.0,,0.0,-2.0,30.01,1017.1,,,,,,,,,,,,,,,8/8 Overcast,2100.0,,OVC,2800,,,,,,
KRDR,11-11-2008,22:00,METAR,,160,11,,,9999.0,,0.0,-2.0,30.01,1017.2,,,,,,,,,,,,,,,8/8 Overcast,3500.0,,FEW,1100,OVC,3600.0,,,,
KRDR,11-11-2008,21:50,SPECI,,170,12,,,9999.0,,0.0,-2.0,30.01,1017.2,,,,,,,,,,,,,,,8/8 Overcast,3600.0,,FEW,1100,OVC,3700.0,,,,
KRDR,11-11-2008,21:37,SPECI,,170,11,,,9999.0,,0.0,-2.0,30.01,1017.2,,,,,,,,,,,,,,,8/8 Overcast,3600.0,,SCT,1300,OVC,3700.0,,,,
KRDR,11-11-2008,21:24,SPECI,,160,13,,,9999.0,,0.0,-2.0,30.01,1017.3,,,,,,,,,,,,,,,8/8 Overcast,1100.0,,OVC,1600,,,,,,
KRDR,11-11-2008,21:12,SPECI,,160,11,16.0,,9999.0,,0.0,-2.0,30.01,1017.2,,,,,,,,,,,,,,,8/8 Overcast,1200.0,,OVC,1400,,,,,,
KRDR,11-11-2008,21:00,METAR,,160,11,,,9999.0,,0.0,-3.0,30.02,1017.4,,,,,,,,,,,,,,,7/8 Mostly Cloudy,1500.0,,BKN,1500,,,,,,
KRDR,11-11-2008,20:47,SPECI,,170,10,,,9999.0,,1.0,-3.0,30.02,1017.5,,,,,,,,,,,,,,,7/8 Mostly Cloudy,1500.0,,BKN,1500,,,,,,
KRDR,11-11-2008,20:00,METAR,,170,10,,,9999.0,,0.0,-3.0,30.04,1018.0,,,,,,,,,,,,,,,Clear,72000.0,,,73000,,,,,,
KRDR,11-11-2008,19:00,METAR,,170,10,,,9999.0,,-1.0,-3.0,30.06,1018.9,,,,,,,,,,,,,,,Clear,72000.0,,,73000,,,,,,
KRDR,11-11-2008,17:00,METAR,,160,10,,,9999.0,Mist,-3.0,-5.0,30.10,1020.1,,,,10,,,,,,,,,,,7/8 Mostly Cloudy,20000.0,,FEW,3000,SCT,15000.0,BKN,20000.0,,
KRDR,11-11-2008,16:00,METAR,,180,8,,,9999.0,Mist,-3.0,-5.0,30.11,1020.5,,,,10,,,,,,,,,,,7/8 Mostly Cloudy,20000.0,,FEW,15000,BKN,20000.0,,,,
KRDR,11-11-2008,15:00,METAR,,170,12,,,9999.0,Mist,-5.0,-6.0,30.12,1020.7,,,,10,,,,,,,,,,,7/8 Mostly Cloudy,20000.0,,SCT,15000,BKN,20000.0,,,,
KRDR,11-11-2008,14:00,METAR,,150,7,,,9999.0,,-8.0,-9.0,30.11,1020.8,,,,,,,,,,,,,,,7/8 Mostly Cloudy,20000.0,,SCT,12000,BKN,20000.0,,,,
KRDR,11-11-2008,13:00,METAR,,150,5,,,9999.0,,-9.0,-10.0,30.12,1020.8,,,,,,,,,,,,,,,Clear,72000.0,,,73000,,,,,,
KRDR,11-11-2008,12:00,METAR,,130,4,,,9999.0,,-8.0,-10.0,30.12,1020.7,,,,,,,,,,,,,,,Clear,72000.0,,,73000,,,,,,
KRDR,11-11-2008,11:00,METAR,,150,5,,,9999.0,,-9.0,-10.0,30.13,1021.1,,,,,,,,,,,,,,,Clear,72000.0,,,73000,,,,,,
KRDR,11-11-2008,10:00,METAR,,150,4,,,9999.0,,-9.0,-10.0,30.13,1021.1,,,,,,,,,,,,,,,Clear,72000.0,,,73000,,,,,,
KRDR,11-11-2008,09:00,METAR,,130,4,,,9999.0,,-8.0,-9.0,30.14,1021.5,,,,,,,,,,,,,,,Clear,72000.0,,,73000,,,,,,
KRDR,11-11-2008,08:00,METAR,,150,5,,,9999.0,,-8.0,-9.0,30.15,1021.6,,,,,,,,,,,,,,,Clear,72000.0,,,73000,,,,,,
KRDR,11-11-2008,07:00,METAR,,140,5,,,9999.0,,-8.0,-10.0,30.16,1022.0,,,,,,,,,,,,,,,Clear,72000.0,,,73000,,,,,,
KRDR,11-11-2008,06:00,METAR,,150,5,,,9999.0,,-9.0,-10.0,30.16,1022.1,,,,,,,,,,,,,,,Clear,72000.0,,,73000,,,,,,
KRDR,11-11-2008,05:00,METAR,,140,4,,,9999.0,,-8.0,-10.0,30.17,1022.5,,,,,,,,,,,,,,,Clear,72000.0,,,73000,,,,,,
KRDR,11-11-2008,04:00,METAR,,150,4,,,9999.0,,-8.0,-9.0,30.17,1022.5,,,,,,,,,,,,,,,Clear,72000.0,,,73000,,,,,,
KRDR,11-11-2008,03:00,METAR,,150,5,,,9999.0,,-8.0,-9.0,30.18,1022.8,,,,,,,,,,,,,,,Clear,72000.0,,,73000,,,,,,
KRDR,11-11-2008,02:00,METAR,,170,6,,,9999.0,,-8.0,-9.0,30.19,1023.0,,,,,,,,,,,,,,,7/8 Mostly Cloudy,25000.0,,SCT,1300,BKN,25000.0,,,,
KRDR,11-11-2008,01:00,METAR,,160,6,,,9999.0,,-8.0,-9.0,30.19,1023.0,,,,,,,,,,,,,,,7/8 Mostly Cloudy,25000.0,,SCT,1300,BKN,25000.0,,,,
KRDR,11-11-2008,00:00,METAR,,130,5,,,9999.0,,-7.0,-9.0,30.17,1022.5,,,,,,,,,,,,,,,7/8 Mostly Cloudy,25000.0,,SCT,1200,BKN,25000.0,,,,
KRDR,11-10-2008,23:00,METAR,,130,5,,,9999.0,,-6.0,-8.0,30.16,1022.2,,,,,,,,,,,,,,,7/8 Mostly Cloudy,25000.0,,SCT,1200,BKN,25000.0,,,,
KRDR,11-10-2008,22:00,METAR,,120,7,,,9999.0,,-5.0,-8.0,30.16,1022.0,,,,,,,,,,,,,,,4/8 Partly Cloudy,72000.0,,SCT,1300,SCT,25000.0,,,,
KRDR,11-10-2008,21:00,METAR,,120,4,,,9999.0,,-4.0,-8.0,30.16,1022.2,,,,,,,,,,,,,,,7/8 Mostly Cloudy,1200.0,,BKN,1200,,,,,,
KRDR,11-10-2008,20:15,SPECI,,160,7,,,9999.0,,-5.0,-8.0,30.17,1022.6,,,,,,,,,,,,,,,7/8 Mostly Cloudy,1200.0,,BKN,1200,,,,,,
KRDR,11-10-2008,20:00,METAR,,170,5,,,9999.0,,-5.0,-8.0,30.18,1022.7,,,,,,,,,,,,,,,8/8 Overcast,1000.0,,OVC,1100,,,,,,
KRDR,11-10-2008,19:00,METAR,,150,5,,,9999.0,,-5.0,-8.0,30.18,1022.9,,,,,,,,,,,,,,,8/8 Overcast,1100.0,,OVC,1100,,,,,,
KRDR,11-10-2008,18:00,METAR,,150,4,,,9999.0,,-6.0,-9.0,30.20,1023.3,,,,,,,,,,,,,,,8/8 Overcast,1100.0,,OVC,1100,,,,,,
KRDR,11-10-2008,17:00,METAR,,110,5,,,9999.0,,-6.0,-9.0,30.20,1023.4,,,,,,,,,,,,,,,8/8 Overcast,1100.0,,OVC,1100,,,,,,
KRDR,11-10-2008,16:00,METAR,,,0,,,9999.0,,-7.0,-9.0,30.20,1023.5,,,,,,,,,,,,,,,8/8 Overcast,1000.0,,OVC,1000,,,,,,
KRDR,11-10-2008,15:00,METAR,,170,4,,,9999.0,,-7.0,-10.0,30.21,1023.8,,,,,,,,,,,,,,,8/8 Overcast,1000.0,,OVC,1000,,,,,,
KRDR,11-10-2008,14:00,METAR,,90,4,,,9999.0,,-7.0,-10.0,30.20,1023.4,,,,,,,,,,,,,,,8/8 Overcast,1000.0,,OVC,1000,,,,,,
KRDR,11-10-2008,13:00,METAR,,110,3,,,9999.0,,-7.0,-10.0,30.19,1023.2,,,,,,,,,,,,,,,8/8 Overcast,1000.0,,OVC,1000,,,,,,
KRDR,11-10-2008,12:00,METAR,,,0,,,9999.0,,-7.0,-10.0,30.19,1023.1,,,,,,,,,,,,,,,8/8 Overcast,1100.0,,OVC,1100,,,,,,
KRDR,11-10-2008,11:00,METAR,,,0,,,9999.0,,-7.0,-10.0,30.20,1023.4,,,,,,,,,,,,,,,8/8 Overcast,1100.0,,OVC,1100,,,,,,
KRDR,11-10-2008,10:00,METAR,,290,3,,,9999.0,,-7.0,-10.0,30.18,1022.8,,,,,,,,,,,,,,,8/8 Overcast,1100.0,,OVC,1100,,,,,,
KRDR,11-10-2008,09:25,SPECI,,290,3,,,9999.0,,-7.0,-10.0,30.18,1022.8,,,,,,,,,,,,,,,8/8 Overcast,1100.0,,OVC,1100,,,,,,
KRDR,11-10-2008,09:00,METAR,,,0,,,9999.0,,-7.0,-10.0,30.18,1022.8,,,,,,,,,,,,,,,8/8 Overcast,1200.0,,OVC,1200,,,,,,
KRDR,11-10-2008,08:00,METAR,,,0,,,9999.0,,-7.0,-10.0,30.17,1022.4,,,,,,,,,,,,,,,8/8 Overcast,1200.0,,OVC,1200,,,,,,
KRDR,11-10-2008,07:00,METAR,,10,3,,,9999.0,,-7.0,-10.0,30.17,1022.3,,,,,,,,,,,,,,,8/8 Overcast,1300.0,,OVC,1300,,,,,,
KRDR,11-10-2008,06:00,METAR,,360,6,,,9999.0,,-7.0,-10.0,30.16,1022.1,,,,,,,,,,,,,,,8/8 Overcast,1300.0,,OVC,1300,,,,,,
KRDR,11-10-2008,05:00,METAR,,10,7,,,9999.0,,-7.0,-10.0,30.15,1021.7,,,,,,,,,,,,,,,8/8 Overcast,1300.0,,OVC,1300,,,,,,
KRDR,11-10-2008,04:00,METAR,,20,5,,,9999.0,,-7.0,-10.0,30.14,1021.6,,,,,,,,,,,,,,,8/8 Overcast,1400.0,,OVC,1400,,,,,,
KRDR,11-10-2008,03:00,METAR,,10,6,,,9999.0,,-7.0,-10.0,30.14,1021.4,,,,,,,,,,,,,,,8/8 Overcast,1400.0,,OVC,1400,,,,,,
KRDR,11-10-2008,02:14,SPECI,,360,7,,,9999.0,,-7.0,-10.0,30.14,1021.4,,,,,,,,,,,,,,,8/8 Overcast,1400.0,,OVC,1400,,,,,,
KRDR,11-10-2008,02:00,METAR,,340,7,,,9999.0,,-7.0,-10.0,30.14,1021.5,,,,,,,,,,,,,,,8/8 Overcast,1500.0,,OVC,1500,,,,,,
KRDR,11-10-2008,01:00,METAR,,10,9,,,9999.0,,-7.0,-10.0,30.14,1021.3,,,,,,,,,,,,,,,8/8 Overcast,1700.0,,OVC,1700,,,,,,
KRDR,11-10-2008,00:00,METAR,,340,10,,,9999.0,,-6.0,-10.0,30.13,1021.1,,,,,,,,,,,,,TRACE,,8/8 Overcast,1700.0,,OVC,1700,,,,,,
KRDR,11-09-2008,23:00,METAR,,10,9,,,9999.0,,-6.0,-10.0,30.12,1020.6,,,,,,,,,,,,,,,8/8 Overcast,1700.0,,OVC,1700,,,,,,
KRDR,11-09-2008,22:00,METAR,,360,10,,,9999.0,,-5.0,-9.0,30.11,1020.5,,,,,,,,,,,TRACE,,,,8/8 Overcast,1800.0,,OVC,1800,,,,,,
KRDR,11-09-2008,21:04,SPECI,,10,11,,,9999.0,,-5.0,-9.0,30.11,1020.4,,,,,,,,,,,,,,,8/8 Overcast,1800.0,,OVC,1800,,,,,,
KRDR,11-09-2008,21:00,METAR,,340,9,,,9999.0,,-5.0,-9.0,30.11,1020.3,,,,,,,,,,,TRACE,TRACE,,,8/8 Overcast,1900.0,,OVC,1900,,,,,,
KRDR,11-09-2008,20:16,SPECI,,360,10,17.0,,9999.0,,-5.0,-9.0,30.10,1020.2,,,,,,,,,,,,,,,8/8 Overcast,1900.0,,OVC,1900,,,,,,
KRDR,11-09-2008,20:07,SPECI,,10,9,,,9999.0,Unknown Precipitation,-4.0,-9.0,30.10,1020.2,40,,,,,,,,,,,,,,8/8 Overcast,1900.0,,OVC,1900,,,,,,
KRDR,11-09-2008,20:00,METAR,,340,10,,,9999.0,,-4.0,-9.0,30.10,1020.3,,,,,,,,,,,,,,,8/8 Overcast,1900.0,,OVC,1900,,,,,,
KRDR,11-09-2008,19:00,METAR,,350,11,,,9999.0,,-5.0,-9.0,30.10,1020.3,,,,,,,,,,,TRACE,,,,8/8 Overcast,1700.0,,OVC,1700,,,,,,
KRDR,11-09-2008,18:39,SPECI,,330,12,,,9999.0,,-5.0,-9.0,30.10,1020.1,,,,,,,,,,,,,,,8/8 Overcast,1600.0,,OVC,1600,,,,,,
KRDR,11-09-2008,18:18,SPECI,,340,9,,,9999.0,Unknown Precipitation,-4.0,-9.0,30.10,1020.1,40,,,,,,,,,,,,,,8/8 Overcast,1600.0,,OVC,1600,,,,,,
KRDR,11-09-2008,18:14,SPECI,,340,9,,,9999.0,,-4.0,-9.0,30.10,1020.1,,,,,,,,,,,,,,,8/8 Overcast,1700.0,,OVC,1700,,,,,,
KRDR,11-09-2008,18:02,SPECI,,360,9,,,9999.0,Unknown Precipitation,-4.0,-9.0,30.10,1020.1,40,,,,,,,,,,,,,,8/8 Overcast,1800.0,,OVC,1800,,,,,,
KRDR,11-09-2008,18:00,METAR,,350,8,,,9999.0,,-4.0,-9.0,30.10,1020.2,,,,,,,,,,,TRACE,,TRACE,,8/8 Overcast,1800.0,,OVC,1800,,,,,,
KRDR,11-09-2008,17:41,SPECI,,350,9,,,9999.0,,-5.0,-9.0,30.10,1020.2,,,,,,,,,,,,,,,8/8 Overcast,1700.0,,OVC,1700,,,,,,
KRDR,11-09-2008,17:31,SPECI,,10,11,,,9999.0,Unknown Precipitation,-5.0,-9.0,30.10,1020.1,40,,,,,,,,,,,,,,8/8 Overcast,1700.0,,OVC,1700,,,,,,
KRDR,11-09-2008,17:13,SPECI,,10,10,,,9999.0,,-5.0,-9.0,30.10,1020.1,,,,,,,,,,,,,,,8/8 Overcast,1800.0,,OVC,1800,,,,,,
KRDR,11-09-2008,17:02,SPECI,,350,10,,,9999.0,Unknown Precipitation,-4.0,-9.0,30.10,1020.2,40,,,,,,,,,,,,,,8/8 Overcast,1900.0,,OVC,1900,,,,,,
KRDR,11-09-2008,17:00,METAR,,360,9,,,9999.0,,-4.0,-9.0,30.10,1020.3,,,,,,,,,,,TRACE,,,,8/8 Overcast,2000.0,,OVC,2000,,,,,,
KRDR,11-09-2008,16:05,SPECI,,10,9,,,9999.0,,-5.0,-9.0,30.10,1020.2,,,,,,,,,,,,,,,8/8 Overcast,1800.0,,OVC,1800,,,,,,
KRDR,11-09-2008,16:00,METAR,,360,9,,,9999.0,Unknown Precipitation,-5.0,-9.0,30.10,1020.1,40,,,,,,,,,,TRACE,,,,8/8 Overcast,1800.0,,OVC,1800,,,,,,
KRDR,11-09-2008,15:45,SPECI,,350,8,,,9999.0,Unknown Precipitation,-5.0,-9.0,30.10,1020.1,40,,,,,,,,,,,,,,8/8 Overcast,1800.0,,OVC,1800,,,,,,
KRDR,11-09-2008,15:41,SPECI,,350,8,,,9999.0,,-5.0,-9.0,30.10,1020.1,,,,,,,,,,,,,,,8/8 Overcast,1900.0,,OVC,1900,,,,,,
KRDR,11-09-2008,15:40,SPECI,,350,7,,,9999.0,Unknown Precipitation,-5.0,-9.0,30.10,1020.1,40,,,,,,,,,,,,,,8/8 Overcast,1900.0,,OVC,1900,,,,,,
KRDR,11-09-2008,15:20,SPECI,,350,8,,,9999.0,Unknown Precipitation,-5.0,-9.0,30.10,1020.2,40,,,,,,,,,,,,,,8/8 Overcast,2000.0,,OVC,2000,,,,,,
KRDR,11-09-2008,15:03,SPECI,,360,8,,,9999.0,,-5.0,-9.0,30.10,1020.1,,,,,,,,,,,,,,,8/8 Overcast,2000.0,,OVC,2000,,,,,,
KRDR,11-09-2008,15:00,METAR,,10,8,,,9999.0,,-5.0,-10.0,30.10,1020.1,,,,,,,,,,,TRACE,TRACE,,,8/8 Overcast,2000.0,,OVC,2000,,,,,,
KRDR,11-09-2008,14:53,SPECI,,10,8,,,9999.0,Unknown Precipitation,-5.0,-10.0,30.10,1020.1,40,,,,,,,,,,,,,,8/8 Overcast,2000.0,,OVC,2000,,,,,,
KRDR,11-09-2008,14:39,SPECI,,350,10,,,9999.0,,-5.0,-10.0,30.10,1020.1,,,,,,,,,,,,,,,8/8 Overcast,2000.0,,OVC,2000,,,,,,
KRDR,11-09-2008,14:35,SPECI,,350,11,,,9999.0,Unknown Precipitation,-5.0,-9.0,30.10,1020.1,40,,,,,,,,,,,,,,8/8 Overcast,2000.0,,OVC,2000,,,,,,
KRDR,11-09-2008,14:33,SPECI,,350,11,,,9999.0,,-5.0,-9.0,30.10,1020.1,,,,,,,,,,,,,,,8/8 Overcast,2000.0,,OVC,2000,,,,,,
KRDR,11-09-2008,14:29,SPECI,,360,9,,,9999.0,Unknown Precipitation,-5.0,-9.0,30.10,1020.1,40,,,,,,,,,,,,,,8/8 Overcast,2000.0,,OVC,2000,,,,,,
KRDR,11-09-2008,14:00,METAR,,360,9,,,9999.0,,-6.0,-10.0,30.09,1019.9,,,,,,,,,,,,,,,8/8 Overcast,2000.0,,OVC,2000,,,,,,
KRDR,11-09-2008,13:00,METAR,,360,13,,,9999.0,,-6.0,-10.0,30.09,1019.7,,,,,,,,,,,,,,,8/8 Overcast,2000.0,,OVC,2000,,,,,,
KRDR,11-09-2008,12:00,METAR,,360,11,,,9999.0,,-5.0,-10.0,30.08,1019.6,,,,,,,,,,,TRACE,,TRACE,,8/8 Overcast,2100.0,,OVC,2100,,,,,,
KRDR,11-09-2008,11:25,SPECI,,10,12,,,9999.0,,-5.0,-10.0,30.08,1019.5,,,,,,,,,,,,,,,8/8 Overcast,2100.0,,OVC,2100,,,,,,
KRDR,11-09-2008,11:11,SPECI,,10,9,,,9999.0,Unknown Precipitation,-5.0,-9.0,30.08,1019.5,40,,,,,,,,,,,,,,8/8 Overcast,2000.0,,OVC,2000,,,,,,
KRDR,11-09-2008,11:00,METAR,,350,10,,,9999.0,,-5.0,-9.0,30.09,1019.6,,,,,,,,,,,TRACE,,,,8/8 Overcast,1900.0,,OVC,1900,,,,,,
KRDR,11-09-2008,10:22,SPECI,,340,12,,,9999.0,,-5.0,-9.0,30.08,1019.6,,,,,,,,,,,,,,,8/8 Overcast,1800.0,,OVC,1800,,,,,,
KRDR,11-09-2008,10:10,SPECI,,350,8,,,9999.0,Unknown Precipitation,-5.0,-9.0,30.08,1019.5,40,,,,,,,,,,,,,,8/8 Overcast,1800.0,,OVC,1800,,,,,,
KRDR,11-09-2008,10:00,METAR,,340,13,17.0,,9999.0,,-5.0,-9.0,30.08,1019.6,,,,,,,,,,,TRACE,,,,8/8 Overcast,1900.0,,OVC,1900,,,,,,
KRDR,11-09-2008,09:13,SPECI,,360,11,,,9999.0,,-5.0,-9.0,30.09,1019.7,,,,,,,,,,,,,,,8/8 Overcast,2000.0,,OVC,2000,,,,,,
KRDR,11-09-2008,09:03,SPECI,,360,11,,,9999.0,Light Snow,-5.0,-9.0,30.09,1019.8,71,,,,,,,,,,,,,,8/8 Overcast,2000.0,,OVC,2000,,,,,,
KRDR,11-09-2008,09:00,METAR,,360,12,17.0,,9999.0,,-6.0,-9.0,30.09,1019.7,,,,,,,,,,,TRACE,TRACE,,,8/8 Overcast,2000.0,,OVC,2000,,,,,,
KRDR,11-09-2008,08:32,SPECI,,360,12,,,9999.0,,-5.0,-9.0,30.09,1019.9,,,,,,,,,,,,,,,8/8 Overcast,1900.0,,OVC,1900,,,,,,
KRDR,11-09-2008,08:22,SPECI,,10,13,,,9999.0,Unknown Precipitation,-5.0,-9.0,30.09,1019.7,40,,,,,,,,,,,,,,8/8 Overcast,1800.0,,OVC,1800,,,,,,
KRDR,11-09-2008,08:00,METAR,,10,9,,,9999.0,Unknown Precipitation,-5.0,-9.0,30.08,1019.5,40,,,,,,,,,,TRACE,,,,8/8 Overcast,1900.0,,OVC,1900,,,,,,
KRDR,11-09-2008,07:54,SPECI,,360,9,,,9999.0,,-5.0,-9.0,30.08,1019.5,,,,,,,,,,,,,,,8/8 Overcast,1900.0,,OVC,1900,,,,,,
KRDR,11-09-2008,07:34,SPECI,,340,11,,,9999.0,Unknown Precipitation,-5.0,-9.0,30.08,1019.5,40,,,,,,,,,,,,,,8/8 Overcast,1900.0,,OVC,1900,,,,,,
KRDR,11-09-2008,07:14,SPECI,,360,8,,,9999.0,Unknown Precipitation,-5.0,-9.0,30.08,1019.5,40,,,,,,,,,,,,,,8/8 Overcast,1900.0,,OVC,1900,,,,,,
KRDR,11-09-2008,07:10,SPECI,,350,7,,,9999.0,,-5.0,-9.0,30.08,1019.5,,,,,,,,,,,,,,,8/8 Overcast,2000.0,,OVC,2000,,,,,,
KRDR,11-09-2008,07:00,METAR,,360,9,,,9999.0,Unknown Precipitation,-5.0,-9.0,30.08,1019.4,40,,,,,,,,,,TRACE,,,,8/8 Overcast,1900.0,,OVC,1900,,,,,,
KRDR,11-09-2008,06:33,SPECI,,360,11,,,9999.0,Unknown Precipitation,-5.0,-9.0,30.08,1019.4,40,,,,,,,,,,,,,,8/8 Overcast,1900.0,,OVC,1900,,,,,,
KRDR,11-09-2008,06:19,SPECI,,350,12,,,9999.0,,-5.0,-9.0,30.08,1019.4,,,,,,,,,,,,,,,8/8 Overcast,1900.0,,OVC,1900,,,,,,
KRDR,11-09-2008,06:00,METAR,,350,9,,,9999.0,,-6.0,-9.0,30.08,1019.6,,,,,,,,,,,TRACE,,TRACE,,8/8 Overcast,2000.0,,OVC,2000,,,,,,
KRDR,11-09-2008,05:42,SPECI,,350,9,,,9999.0,Light Snow,-6.0,-9.0,30.08,1019.6,71,,,,,,,,,,,,,,8/8 Overcast,1900.0,,OVC,1900,,,,,,
KRDR,11-09-2008,05:00,METAR,,10,12,20.0,,9999.0,Light Snow,-6.0,-9.0,30.09,1019.8,71,,,,,,,,,,TRACE,,,,8/8 Overcast,1700.0,,OVC,1700,,,,,,
KRDR,11-09-2008,04:54,SPECI,,10,12,20.0,,9999.0,,-6.0,-9.0,30.09,1019.8,,,,,,,,,,,,,,,8/8 Overcast,1700.0,,OVC,1700,,,,,,
KRDR,11-09-2008,04:23,SPECI,,10,10,,,9999.0,Unknown Precipitation,-6.0,-9.0,30.09,1019.8,40,,,,,,,,,,,,,,8/8 Overcast,1600.0,,OVC,1600,,,,,,
KRDR,11-09-2008,04:14,SPECI,,10,14,,,9999.0,,-6.0,-9.0,30.09,1019.7,,,,,,,,,,,,,,,8/8 Overcast,1600.0,,OVC,1600,,,,,,
KRDR,11-09-2008,04:00,METAR,,10,15,19.0,,9999.0,,-6.0,-9.0,30.09,1019.9,,,,,,,,,,,TRACE,,,,8/8 Overcast,1600.0,,OVC,1600,,,,,,
KRDR,11-09-2008,03:01,SPECI,,10,13,20.0,,9999.0,,-6.0,-9.0,30.10,1020.1,,,,,,,,,,,,,,,8/8 Overcast,1500.0,,OVC,1500,,,,,,
KRDR,11-09-2008,03:00,METAR,,360,13,17.0,,9999.0,Unknown Precipitation,-6.0,-9.0,30.10,1020.1,40,,,,,,,,,,TRACE,TRACE,,,8/8 Overcast,1500.0,,OVC,1500,,,,,,
KRDR,11-09-2008,02:38,SPECI,,350,15,,,9999.0,Unknown Precipitation,-6.0,-9.0,30.09,1020.0,40,,,,,,,,,,,,,,8/8 Overcast,1600.0,,OVC,1600,,,,,,
KRDR,11-09-2008,02:27,SPECI,,10,16,19.0,,9999.0,,-6.0,-9.0,30.10,1020.1,,,,,,,,,,,,,,,8/8 Overcast,1600.0,,OVC,1600,,,,,,
KRDR,11-09-2008,02:03,SPECI,,360,14,19.0,,9999.0,Unknown Precipitation,-6.0,-9.0,30.10,1020.1,40,,,,,,,,,,,,,,8/8 Overcast,1600.0,,OVC,1600,,,,,,
KRDR,11-09-2008,02:00,METAR,,360,12,20.0,,9999.0,,-6.0,-9.0,30.10,1020.1,,,,,,,,,,,TRACE,,,,8/8 Overcast,1600.0,,OVC,1600,,,,,,
KRDR,11-09-2008,01:50,SPECI,,360,11,20.0,,9999.0,,-6.0,-9.0,30.10,1020.1,,,,,,,,,,,,,,,8/8 Overcast,1600.0,,OVC,1600,,,,,,
KRDR,11-09-2008,01:28,SPECI,,350,15,20.0,,9999.0,Unknown Precipitation,-6.0,-9.0,30.10,1020.2,40,,,,,,,,,,,,,,8/8 Overcast,1600.0,,OVC,1600,,,,,,
KRDR,11-09-2008,01:26,SPECI,,350,16,20.0,,9999.0,,-6.0,-9.0,30.10,1020.2,,,,,,,,,,,,,,,8/8 Overcast,1600.0,,OVC,1600,,,,,,
KRDR,11-09-2008,01:00,METAR,,360,12,19.0,,9999.0,Unknown Precipitation,-6.0,-9.0,30.11,1020.3,40,,,,,,,,,,TRACE,,,,8/8 Overcast,1600.0,,OVC,1600,,,,,,
KRDR,11-09-2008,00:13,SPECI,,350,18,,,9999.0,Unknown Precipitation,-6.0,-9.0,30.10,1020.1,40,,,,,,,,,,,,,,8/8 Overcast,1500.0,,OVC,1500,,,,,,
KRDR,11-09-2008,00:11,SPECI,,350,14,20.0,,9999.0,,-6.0,-9.0,30.10,1020.1,,,,,,,,,,,,,,,8/8 Overcast,1500.0,,OVC,1500,,,,,,
KRDR,11-09-2008,00:09,SPECI,,350,13,20.0,,9999.0,Unknown Precipitation,-6.0,-9.0,30.10,1020.1,40,,,,,,,,,,,,,,8/8 Overcast,1500.0,,OVC,1500,,,,,,
KRDR,11-09-2008,00:00,METAR,,350,14,22.0,,9999.0,Unknown Precipitation,-6.0,-9.0,30.10,1020.1,40,,,,,,,,,,TRACE,,TRACE,,8/8 Overcast,1400.0,,OVC,1400,,,,,,
KRDR,11-08-2008,23:00,METAR,,360,17,23.0,010/26KTS,9999.0,,-6.0,-9.0,30.10,1020.1,,,,,,,,,,,TRACE,,,,8/8 Overcast,1200.0,,OVC,1200,,,,,,
KRDR,11-08-2008,22:43,SPECI,,360,18,26.0,010/26KTS,9999.0,,-6.0,-9.0,30.10,1020.0,,,,,,,,,,,,,,,8/8 Overcast,1200.0,,OVC,1200,,,,,,
KRDR,11-08-2008,22:34,SPECI,,360,15,,,9999.0,Unknown Precipitation,-6.0,-9.0,30.09,1019.9,40,,,,,,,,,,,,,,8/8 Overcast,1300.0,,OVC,1300,,,,,,
KRDR,11-08-2008,22:10,SPECI,,360,17,23.0,,9999.0,,-6.0,-9.0,30.09,1019.9,,,,,,,,,,,,,,,8/8 Overcast,1300.0,,OVC,1300,,,,,,
KRDR,11-08-2008,22:00,METAR,,350,16,,,9999.0,Unknown Precipitation,-5.0,-8.0,30.09,1019.8,40,,,,,,,,,,TRACE,,,,8/8 Overcast,1300.0,,OVC,1300,,,,,,
KRDR,11-08-2008,21:39,SPECI,,350,17,21.0,,9999.0,,-5.0,-8.0,30.09,1019.7,,,,,,,,,,,,,,,8/8 Overcast,1200.0,,OVC,1200,,,,,,
KRDR,11-08-2008,21:29,SPECI,,360,13,21.0,,9999.0,Unknown Precipitation,-5.0,-8.0,30.08,1019.5,40,,,,,,,,,,,,,,8/8 Overcast,1300.0,,OVC,1300,,,,,,
KRDR,11-08-2008,21:00,METAR,,360,19,23.0,350/26KTS,9999.0,Unknown Precipitation,-5.0,-8.0,30.08,1019.4,40,,,,,,,,,,TRACE,TRACE,,,8/8 Overcast,1300.0,,OVC,1300,,,,,,
KRDR,11-08-2008,20:42,SPECI,,360,14,20.0,350/26KTS,9999.0,Unknown Precipitation,-5.0,-8.0,30.07,1019.2,40,,,,,,,,,,,,,,8/8 Overcast,1400.0,,OVC,1400,,,,,,
KRDR,11-08-2008,20:07,SPECI,,360,19,22.0,350/26KTS,9999.0,,-5.0,-8.0,30.07,1019.1,,,,,,,,,,,,,,,8/8 Overcast,1300.0,,OVC,1300,,,,,,
KRDR,11-08-2008,20:00,METAR,,360,16,,010/27KTS,9999.0,,-5.0,-8.0,30.07,1019.1,,,,,,,,,,,TRACE,,,,8/8 Overcast,1400.0,,OVC,1400,,,,,,
KRDR,11-08-2008,19:43,SPECI,,360,17,25.0,010/27KTS,9999.0,Unknown Precipitation,-5.0,-8.0,30.07,1019.0,40,,,,,,,,,,,,,,8/8 Overcast,1300.0,,OVC,1300,,,,,,
KRDR,11-08-2008,19:00,METAR,,10,20,25.0,360/26KTS,9999.0,Unknown Precipitation,-5.0,-8.0,30.06,1018.7,40,,,,,,,,,,TRACE,,,,8/8 Overcast,1200.0,,OVC,1200,,,,,,
KRDR,11-08-2008,18:00,METAR,,10,20,27.0,350/31KTS,9999.0,Unknown Precipitation,-5.0,-8.0,30.06,1018.7,40,,,,,,,,,,TRACE,,TRACE,,8/8 Overcast,1300.0,,OVC,1300,,,,,,
KRDR,11-08-2008,17:00,METAR,,350,19,29.0,010/29KTS,9999.0,Unknown Precipitation,-5.0,-7.0,30.06,1018.8,40,,,,,,,,,,TRACE,,,,8/8 Overcast,1300.0,,OVC,1300,,,,,,
KRDR,11-08-2008,16:23,SPECI,,360,18,27.0,350/27KTS,9999.0,Unknown Precipitation,-5.0,-7.0,30.06,1018.7,40,,,,,,,,,,,,,,8/8 Overcast,1200.0,,OVC,1200,,,,,,
KRDR,11-08-2008,16:00,METAR,,10,18,26.0,350/30KTS,9999.0,Unknown Precipitation,-5.0,-7.0,30.05,1018.6,40,,,,,,,,,,TRACE,,,,8/8 Overcast,1000.0,,OVC,1000,,,,,,
KRDR,11-08-2008,15:42,SPECI,,10,21,28.0,350/30KTS,9999.0,Unknown Precipitation,-5.0,-7.0,30.05,1018.4,40,,,,,,,,,,,,,,8/8 Overcast,1000.0,,OVC,1000,,,,,,
KRDR,11-08-2008,15:09,SPECI,,360,21,27.0,350/30KTS,9999.0,Unknown Precipitation,-5.0,-7.0,30.05,1018.3,40,,,,,,,,,,,,,,8/8 Overcast,900.0,,OVC,900,,,,,,
KRDR,11-08-2008,15:00,METAR,,360,22,27.0,360/28KTS,9999.0,Unknown Precipitation,-5.0,-7.0,30.04,1018.3,40,,,,,,,,,,TRACE,TRACE,,,8/8 Overcast,900.0,,OVC,900,,,,,,
KRDR,11-08-2008,14:50,SPECI,,360,19,27.0,360/28KTS,9999.0,Unknown Precipitation,-5.0,-7.0,30.05,1018.4,40,,,,,,,,,,,,,,8/8 Overcast,900.0,,OVC,900,,,,,,
KRDR,11-08-2008,14:45,SPECI,,360,16,23.0,360/28KTS,9999.0,Unknown Precipitation,-5.0,-7.0,30.05,1018.4,40,,,,,,,,,,,,,,8/8 Overcast,1000.0,,OVC,1000,,,,,,
KRDR,11-08-2008,14:37,SPECI,,360,17,27.0,360/28KTS,9999.0,Unknown Precipitation,-5.0,-7.0,30.04,1018.3,40,,,,,,,,,,,,,,8/8 Overcast,1000.0,,OVC,1000,,,,,,
KRDR,11-08-2008,14:19,SPECI,,360,19,28.0,360/28KTS,9999.0,Unknown Precipitation,-5.0,-7.0,30.04,1018.2,40,,,,,,,,,,,,,,8/8 Overcast,900.0,,OVC,900,,,,,,
KRDR,11-08-2008,14:00,METAR,,360,18,28.0,010/31KTS,9999.0,Unknown Precipitation,-5.0,-7.0,30.04,1018.0,40,,,,,,,,,,TRACE,,,,8/8 Overcast,1000.0,,OVC,1000,,,,,,
KRDR,11-08-2008,13:37,SPECI,,10,18,28.0,010/31KTS,9999.0,Unknown Precipitation,-5.0,-7.0,30.03,1017.8,40,,,,,,,,,,,,,,8/8 Overcast,1000.0,,OVC,1000,,,,,,
KRDR,11-08-2008,13:31,SPECI,,10,17,27.0,010/31KTS,9999.0,Unknown Precipitation,-5.0,-7.0,30.03,1017.7,40,,,,,,,,,,,,,,8/8 Overcast,900.0,,OVC,900,,,,,,
KRDR,11-08-2008,13:28,SPECI,,10,21,27.0,010/31KTS,9999.0,,-5.0,-7.0,30.02,1017.6,,,,,,,,,,,,,,,8/8 Overcast,900.0,,OVC,900,,,,,,
KRDR,11-08-2008,13:27,SPECI,,10,19,27.0,010/31KTS,9999.0,Unknown Precipitation,-5.0,-7.0,30.03,1017.7,40,,,,,,,,,,,,,,8/8 Overcast,900.0,,OVC,900,,,,,,
KRDR,11-08-2008,13:16,SPECI,,10,20,28.0,010/31KTS,9999.0,Unknown Precipitation,-5.0,-7.0,30.02,1017.4,40,,,,,,,,,,,,,,8/8 Overcast,900.0,,OVC,900,,,,,,
KRDR,11-08-2008,13:08,SPECI,,360,19,31.0,010/31KTS,9999.0,,-5.0,-7.0,30.02,1017.4,,,,,,,,,,,,,,,8/8 Overcast,900.0,,OVC,900,,,,,,
KRDR,11-08-2008,13:03,SPECI,,360,20,31.0,010/31KTS,9999.0,,-5.0,-7.0,30.01,1017.3,,,,,,,,,,,,,,,8/8 Overcast,1000.0,,OVC,1000,,,,,,
KRDR,11-08-2008,13:00,METAR,,10,23,32.0,010/32KTS,9999.0,Unknown Precipitation,-5.0,-7.0,30.01,1017.0,40,,,,,,,,,,TRACE,,,,8/8 Overcast,1100.0,,OVC,1100,,,,,,
KRDR,11-08-2008,12:46,SPECI,,10,24,32.0,010/32KTS,9999.0,Unknown Precipitation,-5.0,-7.0,30.00,1017.0,40,,,,,,,,,,,,,,8/8 Overcast,1100.0,,OVC,1100,,,,,,
KRDR,11-08-2008,12:21,SPECI,,360,18,29.0,010/31KTS,9999.0,,-4.0,-6.0,30.00,1016.9,,,,,,,,,,,,,,,8/8 Overcast,1000.0,,OVC,1000,,,,,,
KRDR,11-08-2008,12:11,SPECI,,10,22,26.0,010/31KTS,9999.0,Unknown Precipitation,-4.0,-6.0,30.00,1016.7,40,,,,,,,,,,,,,,8/8 Overcast,1000.0,,OVC,1000,,,,,,
KRDR,11-08-2008,12:00,METAR,,360,21,33.0,010/33KTS,9999.0,,-4.0,-6.0,29.99,1016.5,,,,,,,,,,,TRACE,,TRACE,,8/8 Overcast,1200.0,,OVC,1200,,,,,,
KRDR,11-08-2008,12:00,SPECI,,360,21,33.0,010/31KTS,9999.0,,-4.0,-6.0,29.99,1016.6,,,,,,,,,,,,,,,8/8 Overcast,1100.0,,OVC,1100,,,,,,
KRDR,11-08-2008,11:27,SPECI,,360,24,31.0,010/31KTS,9999.0,,-4.0,-6.0,29.99,1016.4,,,,,,,,,,,,,,,8/8 Overcast,1200.0,,OVC,1200,,,,,,
KRDR,11-08-2008,11:06,SPECI,,360,23,31.0,010/31KTS,9999.0,Unknown Precipitation,-4.0,-6.0,29.98,1016.2,40,,,,,,,,,,,,,,8/8 Overcast,1200.0,,OVC,1200,,,,,,
KRDR,11-08-2008,11:00,METAR,,360,23,32.0,010/34KTS,9999.0,Unknown Precipitation,-4.0,-6.0,29.98,1016.0,40,,,,,,,,,,TRACE,,,,8/8 Overcast,1100.0,,OVC,1100,,,,,,
KRDR,11-08-2008,10:47,SPECI,,360,21,31.0,010/34KTS,9999.0,Unknown Precipitation,-4.0,-6.0,29.97,1016.0,40,,,,,,,,,,,,,,8/8 Overcast,1100.0,,OVC,1100,,,,,,
KRDR,11-08-2008,10:42,SPECI,,360,21,31.0,010/34KTS,9999.0,,-4.0,-6.0,29.97,1015.9,,,,,,,,,,,,,,,8/8 Overcast,1100.0,,OVC,1100,,,,,,
KRDR,11-08-2008,10:33,SPECI,,10,23,33.0,010/34KTS,9999.0,,-4.0,-6.0,29.97,1015.9,,,,,,,,,,,,,,,8/8 Overcast,1200.0,,OVC,1200,,,,,,
KRDR,11-08-2008,10:30,SPECI,,360,24,33.0,010/34KTS,9999.0,,-4.0,-6.0,29.97,1015.8,,,,,,,,,,,,,,,8/8 Overcast,1100.0,,OVC,1100,,,,,,
KRDR,11-08-2008,10:20,SPECI,,360,24,32.0,010/34KTS,9999.0,Unknown Precipitation,-4.0,-6.0,29.97,1015.7,40,,,,,,,,,,,,,,8/8 Overcast,1100.0,,OVC,1100,,,,,,
KRDR,11-08-2008,10:11,SPECI,,360,22,34.0,010/34KTS,9999.0,,-4.0,-6.0,29.96,1015.7,,,,,,,,,,,,,,,8/8 Overcast,1200.0,,OVC,1200,,,,,,
KRDR,11-08-2008,10:08,SPECI,,360,21,34.0,010/34KTS,9999.0,,-4.0,-6.0,29.97,1015.7,,,,,,,,,,,,,,,8/8 Overcast,1200.0,,OVC,1200,,,,,,
KRDR,11-08-2008,10:02,SPECI,,360,27,34.0,010/34KTS,9999.0,Unknown Precipitation,-4.0,-6.0,29.96,1015.6,40,,,,,,,,,,,,,,8/8 Overcast,1100.0,,OVC,1100,,,,,,
KRDR,11-08-2008,10:00,METAR,,360,26,31.0,010/31KTS,9999.0,,-4.0,-6.0,29.96,1015.4,,,,,,,,,,,,,,,8/8 Overcast,1100.0,,OVC,1100,,,,,,
KRDR,11-08-2008,09:35,SPECI,,360,19,30.0,010/31KTS,9999.0,,-4.0,-5.0,29.95,1015.3,,,,,,,,,,,,,,,8/8 Overcast,1000.0,,OVC,1000,,,,,,
KRDR,11-08-2008,09:28,SPECI,,10,21,31.0,010/31KTS,9999.0,,-4.0,-5.0,29.95,1015.2,,,,,,,,,,,,,,,8/8 Overcast,900.0,,OVC,900,,,,,,
KRDR,11-08-2008,09:11,SPECI,,360,19,31.0,010/31KTS,9999.0,,-4.0,-5.0,29.95,1015.1,,,,,,,,,,,,,,,8/8 Overcast,1000.0,,OVC,1000,,,,,,
KRDR,11-08-2008,09:00,METAR,,360,23,31.0,010/33KTS,9999.0,,-4.0,-5.0,29.94,1014.8,,,,,,,,,,,TRACE,TRACE,,,8/8 Overcast,900.0,,OVC,900,,,,,,
KRDR,11-08-2008,08:18,SPECI,,360,23,33.0,010/33KTS,9999.0,,-3.0,-5.0,29.93,1014.7,,,,,,,,,,,,,,,8/8 Overcast,900.0,,OVC,900,,,,,,
KRDR,11-08-2008,08:14,SPECI,,360,24,33.0,010/33KTS,9999.0,Unknown Precipitation,-3.0,-5.0,29.93,1014.6,40,,,,,,,,,,,,,,8/8 Overcast,900.0,,OVC,900,,,,,,
KRDR,11-08-2008,08:11,SPECI,,360,20,28.0,010/30KTS,9999.0,,-3.0,-5.0,29.94,1014.7,,,,,,,,,,,,,,,8/8 Overcast,900.0,,OVC,900,,,,,,
KRDR,11-08-2008,08:00,METAR,,360,22,28.0,010/32KTS,9999.0,Unknown Precipitation,-3.0,-5.0,29.93,1014.5,40,,,,,,,,,,TRACE,,,,8/8 Overcast,800.0,,OVC,800,,,,,,
KRDR,11-08-2008,07:37,SPECI,,360,23,30.0,010/32KTS,9999.0,Unknown Precipitation,-3.0,-5.0,29.93,1014.4,40,,,,,,,,,,,,,,8/8 Overcast,900.0,,OVC,900,,,,,,
KRDR,11-08-2008,07:32,SPECI,,360,22,31.0,010/32KTS,9999.0,Unknown Precipitation,-3.0,-5.0,29.93,1014.4,40,,,,,,,,,,,,,,8/8 Overcast,1000.0,,OVC,1000,,,,,,
KRDR,11-08-2008,07:29,SPECI,,360,25,31.0,010/32KTS,9999.0,,-3.0,-5.0,29.93,1014.4,,,,,,,,,,,,,,,8/8 Overcast,1000.0,,OVC,1000,,,,,,
KRDR,11-08-2008,07:10,SPECI,,360,20,30.0,360/30KTS,9999.0,Unknown Precipitation,-3.0,-5.0,29.92,1014.2,40,,,,,,,,,,,,,,8/8 Overcast,1100.0,,OVC,1100,,,,,,
KRDR,11-08-2008,07:02,SPECI,,360,23,30.0,360/30KTS,9999.0,Unknown Precipitation,-3.0,-5.0,29.92,1014.2,40,,,,,,,,,,,,,,8/8 Overcast,1200.0,,OVC,1200,,,,,,
KRDR,11-08-2008,07:00,METAR,,360,20,27.0,360/31KTS,9999.0,,-3.0,-5.0,29.92,1014.1,,,,,,,,,,,,,,,8/8 Overcast,1300.0,,OVC,1300,,,,,,
KRDR,11-08-2008,06:00,METAR,,360,18,28.0,350/29KTS,9999.0,,-3.0,-5.0,29.90,1013.6,,,,,,,,,,,TRACE,,TRACE,,8/8 Overcast,1300.0,,OVC,1300,,,,,,
KRDR,11-08-2008,05:07,SPECI,,360,18,27.0,350/27KTS,9999.0,,-3.0,-5.0,29.89,1013.3,,,,,,,,,,,,,,,8/8 Overcast,1200.0,,OVC,1200,,,,,,
KRDR,11-08-2008,05:05,SPECI,,360,19,27.0,350/27KTS,9999.0,Unknown Precipitation,-3.0,-5.0,29.89,1013.3,40,,,,,,,,,,,,,,8/8 Overcast,1200.0,,OVC,1200,,,,,,
KRDR,11-08-2008,05:00,METAR,,360,19,33.0,360/33KTS,9999.0,Light Snow,-3.0,-5.0,29.89,1013.2,,,,71,,,,,,,TRACE,,,,8/8 Overcast,1000.0,,OVC,1200,,,,,,
KRDR,11-08-2008,04:00,METAR,,350,20,27.0,360/30KTS,9999.0,Light Snow,-3.0,-4.0,29.89,1013.1,,,,71,,,,,,,TRACE,,,,8/8 Overcast,1000.0,,OVC,1300,,,,,,
KRDR,11-08-2008,03:44,SPECI,,350,20,28.0,360/30KTS,9999.0,Light Snow,-3.0,-4.0,29.88,1013.0,,,,71,,,,,,,,,,,8/8 Overcast,1000.0,,OVC,1400,,,,,,
KRDR,11-08-2008,03:33,SPECI,,360,19,27.0,360/30KTS,9999.0,Light Snow,-3.0,-4.0,29.88,1013.0,,,,71,,,,,,,,,,,8/8 Overcast,1000.0,,OVC,1500,,,,,,
KRDR,11-08-2008,03:00,METAR,,350,21,27.0,360/27KTS,9999.0,Light Snow,-3.0,-4.0,29.88,1013.0,,,,71,,,,,,,TRACE,TRACE,,,8/8 Overcast,1400.0,,BKN,1400,OVC,4400.0,,,,
KRDR,11-08-2008,02:00,METAR,,360,19,28.0,350/28KTS,9999.0,Light Snow,-3.0,-4.0,29.88,1012.8,,,,71,,,,,,,TRACE,,,,8/8 Overcast,1000.0,,OVC,1200,,,,,,
KRDR,11-08-2008,01:38,SPECI,,350,18,25.0,360/26KTS,9999.0,Light Snow,-3.0,-4.0,29.88,1012.7,,,,71,,,,,,,,,,,8/8 Overcast,1000.0,,OVC,1300,,,,,,
KRDR,11-08-2008,01:23,SPECI,,350,16,21.0,360/26KTS,9999.0,Light Snow,-3.0,-4.0,29.87,1012.7,,,,71,,,,,,,,,,,8/8 Overcast,1000.0,,OVC,1000,,,,,,
KRDR,11-08-2008,01:00,METAR,,360,19,22.0,,9999.0,Light Snow,-3.0,-4.0,29.87,1012.6,,,,71,,,,,,,TRACE,,,,8/8 Overcast,900.0,,OVC,900,,,,,,
KRDR,11-08-2008,00:00,METAR,,350,16,23.0,,9999.0,Light Snow,-2.0,-3.0,29.86,1012.3,,,,71,,,,,,,TRACE,,TRACE,,8/8 Overcast,800.0,,OVC,800,,,,,,
KRDR,11-07-2008,23:07,SPECI,,360,17,24.0,,6400.0,Light Snow/Drifting Snow,-2.0,-3.0,29.85,1011.9,,,,71,36,,,,,,,,,,8/8 Overcast,900.0,,OVC,900,,,,,,
KRDR,11-07-2008,23:02,SPECI,,350,14,24.0,,4800.0,Light Snow/Mist,-2.0,-3.0,29.85,1011.9,,,,71,10,,,,,,,,,,8/8 Overcast,1000.0,,SCT,800,OVC,1000.0,,,,
KRDR,11-07-2008,23:00,METAR,,360,16,22.0,350/26KTS,4000.0,Light Snow/Drifting Snow,-2.0,-3.0,29.85,1011.9,,,,71,36,,,,,,TRACE,,,,8/8 Overcast,1000.0,,SCT,900,OVC,1000.0,,,,
KRDR,11-07-2008,22:45,SPECI,,350,16,23.0,350/26KTS,4000.0,Light Snow/Drifting Snow,-2.0,-3.0,29.85,1011.7,,,,71,36,,,,,,,,,,8/8 Overcast,800.0,,OVC,800,,,,,,
KRDR,11-07-2008,22:00,METAR,,360,19,24.0,350/29KTS,8000.0,,-2.0,-2.0,29.83,1011.2,,,,,,,,,,,TRACE,,,,8/8 Overcast,600.0,,OVC,600,,,,,,
KRDR,11-07-2008,21:33,SPECI,,350,15,26.0,350/29KTS,9999.0,,-2.0,-3.0,29.82,1010.9,,,,,,,,,,,,,,,8/8 Overcast,600.0,,OVC,600,,,,,,
KRDR,11-07-2008,21:00,SPECI,,350,23,29.0,350/29KTS,9999.0,,-2.0,-2.0,29.79,1010.3,,,,,,,,,,,,,,,8/8 Overcast,700.0,,OVC,700,,,,,,
KRDR,11-07-2008,20:57,METAR,,360,18,28.0,360/31KTS,9999.0,,-2.0,-3.0,29.79,1010.2,,,,,,,,,,,,,,,8/8 Overcast,700.0,,OVC,700,,,,,,
KRDR,11-07-2008,20:00,METAR,,360,21,28.0,010/28KTS,9999.0,,-1.0,-2.0,29.78,1010.0,,,,,,,,,,,,,,,8/8 Overcast,800.0,,OVC,800,,,,,,
KRDR,11-07-2008,19:00,METAR,,350,21,26.0,350/29KTS,9999.0,,-1.0,-2.0,29.79,1009.8,,,,,,,,,,,,,,,8/8 Overcast,900.0,,OVC,900,,,,,,
KRDR,11-07-2008,18:00,METAR,,360,21,26.0,350/27KTS,9999.0,,-1.0,-2.0,29.79,1009.9,,,,,,,,,,,,,TRACE,,8/8 Overcast,900.0,,OVC,900,,,,,,
KRDR,11-07-2008,17:00,METAR,,360,18,26.0,350/32KTS,9999.0,,-1.0,-2.0,29.79,1009.8,,,,,,,,,,,TRACE,,,,8/8 Overcast,900.0,,OVC,900,,,,,,
KRDR,11-07-2008,16:24,SPECI,,350,19,24.0,,9999.0,Light Snow,-1.0,-2.0,29.78,,,,,71,,,,,,,,,,,8/8 Overcast,900.0,,OVC,900,,,,,,
KRDR,11-07-2008,16:13,SPECI,,350,22,27.0,350/32KTS,9999.0,,-1.0,-2.0,29.78,1009.6,,,,,,,,,,,,,,,8/8 Overcast,1100.0,,OVC,1100,,,,,,
KRDR,11-07-2008,16:05,SPECI,,350,20,31.0,350/32KTS,9999.0,,-1.0,-2.0,29.78,1009.5,,,,,,,,,,,,,,,8/8 Overcast,900.0,,OVC,900,,,,,,
KRDR,11-07-2008,16:00,METAR,,350,24,32.0,350/32KTS,9999.0,,-2.0,-2.0,29.78,1009.5,,,,,,,,,,,,,,,8/8 Overcast,900.0,,OVC,900,,,,,,
KRDR,11-07-2008,15:00,METAR,,70,5,,,9999.0,,-1.0,-2.0,29.77,1009.2,,,,,,,,,,,,TRACE,,,8/8 Overcast,900.0,,OVC,900,,,,,,
KRDR,11-07-2008,14:00,METAR,,360,19,25.0,,9999.0,,-1.0,-2.0,29.76,1009.0,,,,,,,,,,,,,,,8/8 Overcast,900.0,,OVC,900,,,,,,
KRDR,11-07-2008,13:00,METAR,,340,15,25.0,,9999.0,,-1.0,-1.0,29.74,1008.2,,,,,,,,,,,TRACE,,,,8/8 Overcast,900.0,,OVC,900,,,,,,
KRDR,11-07-2008,12:16,SPECI,,360,7,,,9999.0,,-1.0,-1.0,29.74,,,,,,,,,,,,,,,,8/8 Overcast,600.0,,OVC,600,,,,,,
KRDR,11-07-2008,12:00,METAR,,360,7,,,9999.0,Light Freezing Rain,-1.0,-1.0,29.74,1008.2,,,,66,,,,,,,TRACE,,TRACE,.83 IN,8/8 Overcast,600.0,,OVC,600,,,,,,
KRDR,11-07-2008,11:54,SPECI,,360,7,,,9999.0,Light Freezing Rain,-1.0,-1.0,29.74,1008.1,,,,66,,,,,,,,,,,8/8 Overcast,600.0,,OVC,600,,,,,,
KRDR,11-07-2008,11:49,SPECI,,360,7,,,9999.0,Light Freezing Rain,-1.0,-1.0,29.74,1008.1,,,,66,,,,,,,,,,,8/8 Overcast,600.0,,OVC,600,,,,,,
KRDR,11-07-2008,10:00,METAR,,360,18,24.0,,9999.0,,0.0,0.0,29.71,1007.4,,,,,,,,,,,,,,,8/8 Overcast,400.0,,OVC,400,,,,,,
KRDR,11-07-2008,09:54,SPECI,,360,18,25.0,,9999.0,Unknown Precipitation,0.0,0.0,29.71,1007.4,40,,,,,,,,,,,,,,8/8 Overcast,500.0,,OVC,500,,,,,,
KRDR,11-07-2008,09:42,SPECI,,350,19,24.0,020/29KTS,9999.0,,0.0,0.0,29.71,1007.3,,,,,,,,,,,,,,,8/8 Overcast,500.0,,OVC,500,,,,,,
KRDR,11-07-2008,09:36,SPECI,,360,17,27.0,020/29KTS,9999.0,,0.0,0.0,29.71,1007.3,,,,,,,,,,,,,,,8/8 Overcast,500.0,,OVC,500,,,,,,
KRDR,11-07-2008,09:18,SPECI,,10,22,29.0,020/29KTS,9999.0,,0.0,0.0,29.70,1007.1,,,,,,,,,,,,,,,8/8 Overcast,600.0,,OVC,600,,,,,,
KRDR,11-07-2008,09:11,SPECI,,10,21,29.0,020/29KTS,9999.0,,0.0,0.0,29.70,1007.0,,,,,,,,,,,,,,,8/8 Overcast,500.0,,OVC,500,,,,,,
KRDR,11-07-2008,09:01,SPECI,,360,20,25.0,,9999.0,,0.0,0.0,29.70,1007.0,,,,,,,,,,,,,,,8/8 Overcast,600.0,,OVC,600,,,,,,
KRDR,11-07-2008,09:00,METAR,,10,19,26.0,010/31KTS,9999.0,,0.0,0.0,29.70,1007.1,,,,,,,,,,,TRACE,TRACE,,,8/8 Overcast,500.0,,OVC,500,,,,,,
KRDR,11-07-2008,08:54,SPECI,,10,20,26.0,,9999.0,,0.0,0.0,29.70,1007.0,,,,,,,,,,,,,,,8/8 Overcast,500.0,,OVC,500,,,,,,
KRDR,11-07-2008,08:46,SPECI,,10,23,27.0,010/31KTS,9999.0,,0.0,0.0,29.70,1007.0,,,,,,,,,,,,,,,8/8 Overcast,600.0,,OVC,600,,,,,,
KRDR,11-07-2008,08:36,SPECI,,360,20,29.0,010/31KTS,9999.0,,0.0,0.0,29.70,1007.0,,,,,,,,,,,,,,,8/8 Overcast,500.0,,OVC,500,,,,,,
KRDR,11-07-2008,08:23,SPECI,,10,21,28.0,010/30KTS,9999.0,,0.0,0.0,29.69,1006.7,,,,,,,,,,,,,,,8/8 Overcast,500.0,,OVC,500,,,,,,
KRDR,11-07-2008,08:18,SPECI,,10,21,28.0,010/30KTS,9999.0,,0.0,0.0,29.69,1006.6,,,,,,,,,,,,,,,8/8 Overcast,500.0,,OVC,500,,,,,,
KRDR,11-07-2008,08:05,SPECI,,10,21,30.0,010/30KTS,9999.0,,0.0,0.0,29.69,1006.5,,,,,,,,,,,,,,,8/8 Overcast,400.0,,OVC,400,,,,,,
KRDR,11-07-2008,08:00,SPECI,,360,21,30.0,010/30KTS,9999.0,,0.0,0.0,29.69,1006.5,,,,,,,,,,,,,,,8/8 Overcast,400.0,,OVC,400,,,,,,
KRDR,11-07-2008,08:00,METAR,,360,19,28.0,010/30KTS,9999.0,,0.0,0.0,29.69,1006.5,,,,,,,,,,,TRACE,,,,8/8 Overcast,400.0,,OVC,400,,,,,,
KRDR,11-07-2008,07:56,SPECI,,10,21,28.0,360/26KTS,9999.0,,0.0,0.0,29.68,1006.4,,,,,,,,,,,,,,,8/8 Overcast,400.0,,OVC,400,,,,,,
KRDR,11-07-2008,07:49,SPECI,,10,23,28.0,010/30KTS,9999.0,,0.0,0.0,29.68,1006.4,,,,,,,,,,,,,,,8/8 Overcast,400.0,,OVC,400,,,,,,
KRDR,11-07-2008,07:38,SPECI,,10,21,27.0,010/30KTS,9999.0,Mist,0.0,0.0,29.68,1006.2,,10,,,,,,,,,,,,,8/8 Overcast,400.0,,OVC,400,,,,,,
KRDR,11-07-2008,07:35,SPECI,,360,19,26.0,010/30KTS,9999.0,Mist,0.0,0.0,29.68,1006.2,10,,,,,,,,,,,,,,8/8 Overcast,400.0,,OVC,400,,,,,,
KRDR,11-07-2008,07:32,SPECI,,360,22,30.0,010/30KTS,9999.0,,0.0,0.0,29.68,1006.3,,,,,,,,,,,,,,,8/8 Overcast,400.0,,OVC,400,,,,,,
KRDR,11-07-2008,07:22,SPECI,,360,19,28.0,010/29KTS,9999.0,,0.0,0.0,29.68,1006.3,,,,,,,,,,,,,,,8/8 Overcast,400.0,,OVC,400,,,,,,
KRDR,11-07-2008,07:20,SPECI,,10,20,28.0,010/29KTS,9999.0,,0.0,0.0,29.68,1006.2,,,,,,,,,,,,,,,8/8 Overcast,400.0,,OVC,400,,,,,,
KRDR,11-07-2008,07:15,SPECI,,10,20,28.0,010/29KTS,9999.0,Light Snow,0.0,0.0,29.68,1006.2,71,,,,,,,,,,,,,,8/8 Overcast,500.0,,OVC,500,,,,,,
KRDR,11-07-2008,07:01,SPECI,,10,19,28.0,350/28KTS,9999.0,,0.0,0.0,29.67,1006.1,,,,,,,,,,,,,,,8/8 Overcast,400.0,,OVC,400,,,,,,
KRDR,11-07-2008,07:00,METAR,,10,20,28.0,010/29KTS,9999.0,,1.0,0.0,29.67,1006.0,,,,,,,,,,,TRACE,,,,8/8 Overcast,400.0,,OVC,400,,,,,,
KRDR,11-07-2008,06:15,SPECI,,360,21,27.0,010/29KTS,9999.0,,1.0,0.0,29.67,1005.8,,,,,,,,,,,,,,,8/8 Overcast,400.0,,OVC,400,,,,,,
KRDR,11-07-2008,06:09,SPECI,,10,21,27.0,010/29KTS,9999.0,,1.0,0.0,29.67,1005.9,,,,,,,,,,,,,,,8/8 Overcast,400.0,,OVC,400,,,,,,
KRDR,11-07-2008,06:05,SPECI,,10,22,29.0,010/29KTS,9999.0,,1.0,0.0,29.67,1005.8,,,,,,,,,,,,,,,8/8 Overcast,400.0,,OVC,400,,,,,,
KRDR,11-07-2008,06:00,SPECI,,360,18,29.0,010/29KTS,9999.0,,1.0,0.0,29.66,1005.8,,,,,,,,,,,,,,,8/8 Overcast,400.0,,OVC,400,,,,,,
KRDR,11-07-2008,06:00,METAR,,10,23,30.0,010/33KTS,9999.0,,1.0,1.0,29.66,1005.6,,,,,,,,,,,.01 IN,,.17 IN,,8/8 Overcast,500.0,,OVC,500,,,,,,
KRDR,11-07-2008,05:53,SPECI,,360,19,30.0,,9999.0,,1.0,1.0,29.66,1005.6,,,,,,,,,,,,,,,8/8 Overcast,400.0,,OVC,400,,,,,,
KRDR,11-07-2008,05:50,SPECI,,10,20,30.0,010/33KTS,9999.0,,1.0,1.0,29.66,1005.5,,,,,,,,,,,,,,,8/8 Overcast,500.0,,OVC,500,,,,,,
KRDR,11-07-2008,05:22,SPECI,,10,21,33.0,010/33KTS,9999.0,Light Snow,1.0,1.0,29.65,1005.5,71,,,,,,,,,,,,,,8/8 Overcast,600.0,,OVC,600,,,,,,
KRDR,11-07-2008,05:18,SPECI,,10,25,33.0,010/33KTS,9999.0,Light Snow,1.0,1.0,29.65,1005.2,71,,,,,,,,,,,,,,8/8 Overcast,600.0,,OVC,600,,,,,,
KRDR,11-07-2008,05:00,METAR,,10,21,29.0,010/35KTS,9999.0,Ice Pellets/Rain/Mist,1.0,1.0,29.64,1005.0,,,,61,79,10,,,,,.01 IN,,,,8/8 Overcast,600.0,,OVC,600,,,,,,
KRDR,11-07-2008,04:47,SPECI,,10,22,31.0,010/35KTS,9999.0,Ice Pellets/Rain,1.0,1.0,29.64,1004.9,,,,61,79,,,,,,,,,,8/8 Overcast,500.0,,OVC,500,,,,,,
KRDR,11-07-2008,04:31,SPECI,,10,24,34.0,010/35KTS,9999.0,Ice Pellets/Rain/Mist,1.0,1.0,29.63,1004.7,,,,61,79,10,,,,,,,,,8/8 Overcast,600.0,,OVC,600,,,,,,
KRDR,11-07-2008,04:00,METAR,,10,25,33.0,360/36KTS,6400.0,Ice Pellets/Rain,1.0,1.0,29.62,1004.4,,,,61,79,,,,,,.03 IN,,,,8/8 Overcast,800.0,,BKN,800,OVC,1000.0,,,,
KRDR,11-07-2008,03:35,SPECI,,10,22,31.0,360/36KTS,8000.0,Light Snow/Rain,1.0,1.0,29.62,1004.3,,,,61,71,,,,,,,,,,8/8 Overcast,800.0,,BKN,800,OVC,1000.0,,,,
KRDR,11-07-2008,03:00,METAR,,10,23,32.0,360/38KTS,9999.0,Ice Pellets/Rain,1.0,1.0,29.60,1003.8,,,,61,79,,,,,,TRACE,.12 IN,,,8/8 Overcast,600.0,,OVC,600,,,,,,
KRDR,11-07-2008,02:00,METAR,,10,27,36.0,010/39KTS,9999.0,Light Snow/Rain,1.0,1.0,29.56,1002.8,,,,61,71,,,,,,.02 IN,,,,8/8 Overcast,800.0,,BKN,800,OVC,1400.0,,,,
KRDR,11-07-2008,01:19,SPECI,,10,29,36.0,010/37KTS,9999.0,Light Snow/Rain,1.0,1.0,29.56,1002.7,,,,61,71,,,,,,,,,,8/8 Overcast,900.0,,SCT,600,OVC,900.0,,,,
KRDR,11-07-2008,01:00,METAR,,360,27,37.0,360/41KTS,8000.0,Light Snow/Rain,1.0,1.0,29.56,1002.7,,,,61,71,,,,,,.1 IN,,,,8/8 Overcast,1100.0,,OVC,1100,,,,,,
KRDR,11-07-2008,00:00,METAR,,10,30,42.0,360/42KTS,4800.0,Light Snow/Rain/Mist,1.0,1.0,29.55,1002.2,,,,61,71,10,,,,,.02 IN,,.29 IN,,8/8 Overcast,1000.0,,SCT,800,OVC,1000.0,,,,
KRDR,11-06-2008,23:28,SPECI,,10,27,37.0,010/39KTS,4800.0,Light Snow/Rain/Mist,1.0,1.0,29.55,1001.9,,,,61,71,10,,,,,,,,,8/8 Overcast,800.0,,BKN,800,OVC,1000.0,,,,
KRDR,11-06-2008,23:00,METAR,,360,28,38.0,010/38KTS,4800.0,Rain/Mist,1.0,1.0,29.55,1001.9,,,,61,10,,,,,,.04 IN,,,,8/8 Overcast,1100.0,,OVC,1100,,,,,,
KRDR,11-06-2008,22:32,SPECI,,360,29,38.0,010/38KTS,4800.0,Rain/Mist,1.0,1.0,29.55,1002.0,,,,61,10,,,,,,,,,,8/8 Overcast,900.0,,SCT,900,OVC,1000.0,,,,
KRDR,11-06-2008,22:22,SPECI,,10,30,38.0,010/38KTS,4000.0,Rain/Mist,1.0,1.0,29.55,1001.9,,,,61,10,,,,,,,,,,8/8 Overcast,900.0,,OVC,900,,,,,,
KRDR,11-06-2008,22:12,SPECI,,10,28,37.0,010/37KTS,2800.0,Rain/Mist,1.0,1.0,29.55,1001.9,,,,61,10,,,,,,,,,,8/8 Overcast,900.0,,OVC,900,,,,,,
KRDR,11-06-2008,22:00,METAR,,10,27,38.0,010/38KTS,4800.0,Rain/Mist,1.0,0.0,29.54,1001.8,,,,61,10,,,,,,.02 IN,,,,8/8 Overcast,800.0,,SCT,600,OVC,800.0,,,,
KRDR,11-06-2008,21:23,SPECI,,10,27,35.0,,6400.0,Rain/Mist,1.0,1.0,29.55,,,,,61,10,,,,,,,,,,8/8 Overcast,800.0,,BKN,800,OVC,1100.0,,,,
KRDR,11-06-2008,21:00,METAR,,10,28,36.0,010/36KTS,6400.0,Rain/Mist,1.0,1.0,29.55,1002.1,,,,61,10,,,,,,.1 IN,.21 IN,,,8/8 Overcast,700.0,,SCT,700,OVC,1000.0,,,,
KRDR,11-06-2008,20:21,SPECI,,10,27,33.0,360/35KTS,4800.0,Rain/Mist,1.0,1.0,29.55,1002.1,,,,61,10,,,,,,,,,,8/8 Overcast,1100.0,,SCT,800,OVC,1100.0,,,,
KRDR,11-06-2008,20:10,SPECI,,10,25,35.0,360/35KTS,2800.0,Rain/Mist,1.0,1.0,29.55,1002.1,,,,61,10,,,,,,,,,,8/8 Overcast,1100.0,,SCT,600,OVC,1100.0,,,,
KRDR,11-06-2008,20:00,METAR,,10,24,35.0,360/35KTS,4000.0,Rain/Mist,1.0,1.0,29.56,1002.2,,,,61,10,,,,,,.07 IN,,,,8/8 Overcast,1100.0,,OVC,1100,,,,,,
KRDR,11-06-2008,19:29,SPECI,,10,25,34.0,360/34KTS,4000.0,Rain/Mist,2.0,1.0,29.56,1002.3,,,,61,10,,,,,,,,,,8/8 Overcast,900.0,,OVC,900,,,,,,
KRDR,11-06-2008,18:00,METAR,,10,21,32.0,360/32KTS,9999.0,Rain/Mist,2.0,2.0,29.57,1003.1,,,,61,10,,,,,,.02 IN,,.37 IN,,8/8 Overcast,600.0,,OVC,600,,,,,,
KRDR,11-06-2008,17:47,SPECI,,360,21,32.0,360/32KTS,8000.0,Rain/Mist,2.0,2.0,29.57,1003.1,,,,61,10,,,,,,,,,,8/8 Overcast,600.0,,OVC,600,,,,,,
KRDR,11-06-2008,17:00,METAR,,10,21,29.0,010/29KTS,8000.0,Rain/Mist,3.0,3.0,29.60,1003.5,,,,61,10,,,,,,.06 IN,,,,8/8 Overcast,700.0,,OVC,700,,,,,,
KRDR,11-06-2008,16:00,METAR,,10,20,27.0,010/28KTS,8000.0,Rain/Mist,3.0,3.0,29.59,1003.6,,,,61,10,,,,,,.09 IN,,,,8/8 Overcast,600.0,,OVC,600,,,,,,
KRDR,11-06-2008,15:43,SPECI,,360,19,27.0,010/28KTS,8000.0,Rain/Mist,3.0,3.0,29.59,1003.6,,,,61,10,,,,,,,,,,8/8 Overcast,600.0,,OVC,600,,,,,,
KRDR,11-06-2008,15:00,METAR,,10,20,28.0,010/33KTS,9999.0,Rain,3.0,3.0,29.59,1003.5,,,,61,,,,,,,TRACE,.2 IN,,,8/8 Overcast,700.0,,OVC,700,,,,,,
KRDR,11-06-2008,14:29,SPECI,,10,22,28.0,010/33KTS,9999.0,Rain/Mist,3.0,3.0,29.58,1003.3,,,,61,10,,,,,,,,,,8/8 Overcast,400.0,,OVC,400,,,,,,
KRDR,11-06-2008,14:21,SPECI,,10,20,28.0,010/33KTS,9999.0,,3.0,3.0,29.58,1003.2,,,,,,,,,,,,,,,8/8 Overcast,500.0,,OVC,500,,,,,,
KRDR,11-06-2008,14:07,SPECI,,10,21,33.0,010/33KTS,9999.0,,3.0,3.0,29.58,1003.2,,,,,,,,,,,,,,,8/8 Overcast,500.0,,OVC,500,,,,,,
KRDR,11-06-2008,14:00,METAR,,10,20,26.0,010/29KTS,9999.0,Rain,4.0,3.0,29.57,1003.1,,,,61,,,,,,,.14 IN,,,,8/8 Overcast,800.0,,OVC,800,,,,,,
KRDR,11-06-2008,13:35,SPECI,,10,20,26.0,010/29KTS,6400.0,Rain/Mist,4.0,3.0,29.57,1003.1,,,,61,10,,,,,,,,,,8/8 Overcast,800.0,,OVC,800,,,,,,
KRDR,11-06-2008,13:17,SPECI,,10,17,29.0,010/29KTS,8000.0,Fog or Ice Fog/Mist,4.0,3.0,29.58,1003.0,,,,40,10,,,,,,,,,,8/8 Overcast,900.0,,OVC,900,,,,,,
KRDR,11-06-2008,13:03,SPECI,,10,20,26.0,020/26KTS,9999.0,Fog or Ice Fog,4.0,3.0,29.58,1003.0,,,,40,,,,,,,,,,,8/8 Overcast,900.0,,OVC,900,,,,,,
KRDR,11-06-2008,13:00,SPECI,,360,17,25.0,,9999.0,Fog or Ice Fog/Mist,4.0,3.0,29.58,1003.0,,,,40,10,,,,,,,,,,8/8 Overcast,1000.0,,OVC,1000,,,,,,
KRDR,11-06-2008,12:55,METAR,,10,20,27.0,010/27KTS,9999.0,Rain/Mist,4.0,3.0,29.58,1003.0,,,,61,10,,,,,,.06 IN,,,,8/8 Overcast,800.0,,OVC,800,,,,,,
KRDR,11-06-2008,12:54,SPECI,,10,19,27.0,,9999.0,Fog or Ice Fog/Mist,4.0,3.0,29.58,1003.0,,,,40,10,,,,,,,,,,8/8 Overcast,1000.0,,OVC,1000,,,,,,
KRDR,11-06-2008,12:46,SPECI,,360,19,26.0,010/26KTS,6400.0,Rain/Mist,4.0,4.0,29.58,1003.0,,,,61,10,,,,,,,,,,8/8 Overcast,700.0,,OVC,700,,,,,,
KRDR,11-06-2008,12:31,SPECI,,10,20,23.0,010/26KTS,9999.0,Fog or Ice Fog,4.0,4.0,29.58,1003.0,,,,40,,,,,,,,,,,8/8 Overcast,600.0,,OVC,600,,,,,,
KRDR,11-06-2008,12:00,METAR,,10,22,28.0,010/28KTS,9999.0,Rain,4.0,4.0,29.57,1002.6,,,,61,,,,,,,.12 IN,,.37 IN,1.28 IN,8/8 Overcast,600.0,,OVC,600,,,,,,
KRDR,11-06-2008,11:37,SPECI,,10,20,27.0,010/28KTS,9999.0,Fog or Ice Fog,4.0,4.0,29.57,1002.7,,,,40,,,,,,,,,,,8/8 Overcast,800.0,,OVC,800,,,,,,
KRDR,11-06-2008,11:24,SPECI,,10,17,25.0,010/28KTS,9999.0,,4.0,4.0,29.58,1002.9,,,,,,,,,,,,,,,8/8 Overcast,600.0,,OVC,600,,,,,,
KRDR,11-06-2008,11:10,SPECI,,10,19,28.0,010/28KTS,4800.0,Fog or Ice Fog/Mist,4.0,4.0,29.57,1002.7,,,,40,10,,,,,,,,,,8/8 Overcast,800.0,,OVC,800,,,,,,
KRDR,11-06-2008,11:06,SPECI,,10,20,28.0,010/28KTS,4000.0,Fog or Ice Fog/Mist,4.0,4.0,29.57,1002.5,,,,40,10,,,,,,,,,,8/8 Overcast,800.0,,OVC,800,,,,,,
KRDR,11-06-2008,11:00,METAR,,10,20,26.0,020/27KTS,6400.0,Fog or Ice Fog/Mist,4.0,4.0,29.56,1002.5,,,,40,10,,,,,,.18 IN,,,,8/8 Overcast,700.0,,OVC,700,,,,,,
KRDR,11-06-2008,10:45,SPECI,,10,19,27.0,020/27KTS,9999.0,Unknown Precipitation/Mist,4.0,4.0,29.57,1002.6,40,10,,,,,,,,,,,,,8/8 Overcast,800.0,,OVC,800,,,,,,
KRDR,11-06-2008,10:40,SPECI,,10,18,26.0,020/27KTS,9999.0,Unknown Precipitation/Mist,4.0,4.0,29.57,1002.5,40,10,,,,,,,,,,,,,8/8 Overcast,700.0,,OVC,700,,,,,,
KRDR,11-06-2008,10:31,SPECI,,10,19,26.0,020/27KTS,6400.0,Unknown Precipitation/Mist,4.0,4.0,29.56,1002.5,40,10,,,,,,,,,,,,,8/8 Overcast,700.0,,OVC,700,,,,,,
KRDR,11-06-2008,10:27,SPECI,,10,20,26.0,020/27KTS,4800.0,Unknown Precipitation/Mist,4.0,4.0,29.56,1002.4,40,10,,,,,,,,,,,,,8/8 Overcast,600.0,,OVC,600,,,,,,
KRDR,11-06-2008,10:23,SPECI,,10,19,26.0,020/27KTS,4800.0,Unknown Precipitation/Mist,4.0,4.0,29.56,1002.4,40,10,,,,,,,,,,,,,8/8 Overcast,600.0,,OVC,600,,,,,,
KRDR,11-06-2008,10:20,SPECI,,10,21,27.0,020/27KTS,8000.0,Unknown Precipitation/Mist,4.0,4.0,29.56,1002.3,40,10,,,,,,,,,,,,,8/8 Overcast,600.0,,OVC,600,,,,,,
KRDR,11-06-2008,10:07,SPECI,,20,18,25.0,,9999.0,Light Rain,4.0,4.0,29.56,1002.2,61,,,,,,,,,,,,,,8/8 Overcast,500.0,,OVC,500,,,,,,
KRDR,11-06-2008,10:00,METAR,,10,21,27.0,020/27KTS,9999.0,Unknown Precipitation,5.0,4.0,29.56,1002.3,40,,,,,,,,,,.02 IN,,,,8/8 Overcast,600.0,,OVC,600,,,,,,
KRDR,11-06-2008,09:42,SPECI,,10,21,27.0,020/27KTS,4800.0,Unknown Precipitation/Mist,5.0,4.0,29.56,1002.4,40,10,,,,,,,,,,,,,8/8 Overcast,600.0,,OVC,600,,,,,,
KRDR,11-06-2008,09:34,SPECI,,20,19,26.0,020/27KTS,4800.0,Unknown Precipitation/Mist,5.0,4.0,29.57,1002.5,40,10,,,,,,,,,,,,,8/8 Overcast,500.0,,OVC,500,,,,,,
KRDR,11-06-2008,09:18,SPECI,,10,21,,020/27KTS,6400.0,Unknown Precipitation/Mist,5.0,5.0,29.57,1002.7,40,10,,,,,,,,,,,,,8/8 Overcast,400.0,,OVC,400,,,,,,
KRDR,11-06-2008,09:00,METAR,,20,20,28.0,020/28KTS,6400.0,Unknown Precipitation/Mist,5.0,5.0,29.57,1002.6,40,10,,,,,,,,,.01 IN,.05 IN,,,8/8 Overcast,600.0,,OVC,600,,,,,,
KRDR,11-06-2008,09:00,SPECI,,10,19,27.0,020/27KTS,6400.0,Unknown Precipitation/Mist,5.0,5.0,29.57,1002.5,40,10,,,,,,,,,,,,,8/8 Overcast,500.0,,OVC,500,,,,,,
KRDR,11-06-2008,08:44,SPECI,,20,21,26.0,020/28KTS,4800.0,Unknown Precipitation/Mist,5.0,5.0,29.56,1002.4,40,10,,,,,,,,,,,,,8/8 Overcast,500.0,,OVC,500,,,,,,
KRDR,11-06-2008,08:38,SPECI,,20,19,27.0,020/28KTS,6400.0,Unknown Precipitation/Mist,5.0,5.0,29.57,1002.6,40,10,,,,,,,,,,,,,8/8 Overcast,400.0,,OVC,400,,,,,,
KRDR,11-06-2008,08:19,SPECI,,20,21,28.0,020/28KTS,9999.0,Light Rain,5.0,5.0,29.56,1002.3,61,,,,,,,,,,,,,,8/8 Overcast,400.0,,OVC,400,,,,,,
KRDR,11-06-2008,08:00,METAR,,20,20,27.0,020/27KTS,9999.0,Light Rain,5.0,5.0,29.57,1002.5,61,,,,,,,,,,TRACE,,,,8/8 Overcast,400.0,,OVC,400,,,,,,
KRDR,11-06-2008,07:53,SPECI,,20,20,27.0,,9999.0,Light Rain,5.0,5.0,29.57,1002.5,61,,,,,,,,,,,,,,8/8 Overcast,400.0,,OVC,400,,,,,,
KRDR,11-06-2008,07:31,SPECI,,20,19,25.0,,9999.0,Light Rain,5.0,5.0,29.56,1002.4,61,,,,,,,,,,,,,,8/8 Overcast,400.0,,OVC,400,,,,,,
KRDR,11-06-2008,07:18,SPECI,,10,18,25.0,,9999.0,Light Rain,5.0,5.0,29.58,1002.9,61,,,,,,,,,,,,,,8/8 Overcast,400.0,,OVC,400,,,,,,
KRDR,11-06-2008,07:13,SPECI,,10,17,25.0,,9999.0,Light Rain,5.0,5.0,29.57,1002.7,61,,,,,,,,,,,,,,8/8 Overcast,400.0,,OVC,400,,,,,,
KRDR,11-06-2008,07:05,SPECI,,20,21,25.0,,9999.0,,5.0,5.0,29.56,1002.5,,,,,,,,,,,,,,,8/8 Overcast,500.0,,OVC,500,,,,,,
KRDR,11-06-2008,07:00,METAR,,20,18,24.0,,9999.0,,5.0,5.0,29.57,1002.5,,,,,,,,,,,,,,,8/8 Overcast,600.0,,OVC,600,,,,,,
KRDR,11-06-2008,06:40,SPECI,,30,17,30.0,020/30KTS,4800.0,Unknown Precipitation/Mist,5.0,5.0,29.56,1002.3,40,10,,,,,,,,,,,,,8/8 Overcast,700.0,,OVC,700,,,,,,
KRDR,11-06-2008,06:32,SPECI,,20,23,29.0,030/29KTS,4800.0,Unknown Precipitation/Mist,5.0,5.0,29.54,1001.5,40,10,,,,,,,,,,,,,8/8 Overcast,700.0,,OVC,700,,,,,,
KRDR,11-06-2008,06:21,SPECI,,20,18,23.0,,6400.0,Light Rain/Mist,5.0,5.0,29.56,1002.3,61,10,,,,,,,,,,,,,8/8 Overcast,500.0,,OVC,500,,,,,,
KRDR,11-06-2008,06:00,METAR,,20,18,24.0,,9999.0,Light Rain/Mist,6.0,5.0,29.58,1002.9,61,10,,,,,,,,,TRACE,,.71 IN,,8/8 Overcast,400.0,,OVC,400,,,,,,
KRDR,11-06-2008,05:33,SPECI,,20,20,25.0,,9999.0,Light Rain,6.0,6.0,29.58,1002.9,61,,,,,,,,,,,,,,8/8 Overcast,400.0,,OVC,400,,,,,,
KRDR,11-06-2008,05:13,SPECI,,20,20,,,9999.0,Light Rain,6.0,6.0,29.59,1003.2,61,,,,,,,,,,,,,,8/8 Overcast,500.0,,OVC,500,,,,,,
KRDR,11-06-2008,05:07,SPECI,,20,17,23.0,,9999.0,Rain/Mist,6.0,6.0,29.59,1003.2,,,,61,10,,,,,,,,,,8/8 Overcast,600.0,,OVC,600,,,,,,
KRDR,11-06-2008,05:00,METAR,,20,18,,,6400.0,Rain/Mist,6.0,6.0,29.58,1003.4,,,,61,10,,,,,,.06 IN,,,,8/8 Overcast,400.0,,OVC,700,,,,,,
KRDR,11-06-2008,04:57,SPECI,,20,17,,,8000.0,Fog or Ice Fog/Mist,6.0,6.0,29.59,1003.3,,,,40,10,,,,,,,,,,8/8 Overcast,700.0,,OVC,700,,,,,,
KRDR,11-06-2008,04:00,METAR,,10,15,,,8000.0,Rain/Mist,5.0,5.0,29.57,1003.1,,,,63,10,,,,,,.14 IN,,,,8/8 Overcast,400.0,,BKN,500,OVC,700.0,,,,
KRDR,11-06-2008,03:43,SPECI,,10,13,22.0,,8000.0,Rain/Mist,5.0,5.0,29.57,1003.1,,,,61,10,,,,,,,,,,8/8 Overcast,300.0,,OVC,500,,,,,,
KRDR,11-06-2008,03:37,SPECI,,10,13,22.0,,8000.0,Rain/Mist,5.0,5.0,29.58,1003.1,,,,61,10,,,,,,,,,,8/8 Overcast,400.0,,OVC,400,,,,,,
KRDR,11-06-2008,03:09,SPECI,,20,18,,,9999.0,Rain/Mist,5.0,5.0,29.56,1002.8,,,,61,10,,,,,,,,,,8/8 Overcast,300.0,,OVC,300,,,,,,
KRDR,11-06-2008,03:00,METAR,,10,19,24.0,010/28KTS,6400.0,Rain/Mist,5.0,4.0,29.56,1002.7,,,,61,10,,,,,,.03 IN,.51 IN,,,8/8 Overcast,400.0,,OVC,400,,,,,,
KRDR,11-06-2008,02:48,SPECI,,10,18,26.0,010/28KTS,9999.0,Rain,5.0,4.0,29.56,1002.7,,,,61,,,,,,,,,,,8/8 Overcast,400.0,,OVC,400,,,,,,
KRDR,11-06-2008,02:12,SPECI,,10,22,28.0,010/28KTS,9999.0,Rain,4.0,4.0,29.58,1003.2,,,,61,,,,,,,,,,,8/8 Overcast,500.0,,SCT,400,OVC,500.0,,,,
KRDR,11-06-2008,02:00,METAR,,10,20,25.0,010/27KTS,9999.0,Rain,4.0,4.0,29.59,1003.5,,,,61,,,,,,,.26 IN,,,,8/8 Overcast,600.0,,OVC,600,,,,,,
KRDR,11-06-2008,01:38,SPECI,,10,21,26.0,010/26KTS,6400.0,Rain/Mist,5.0,5.0,29.59,1003.5,,,,61,10,,,,,,,,,,8/8 Overcast,800.0,,OVC,800,,,,,,
KRDR,11-06-2008,01:14,SPECI,,350,14,,,4000.0,Rain/Mist,5.0,5.0,29.62,1004.4,,,,63,10,,,,,,,,,,8/8 Overcast,700.0,,OVC,700,,,,,,
KRDR,11-06-2008,01:00,METAR,,10,11,19.0,030/27KTS,8000.0,Rain,6.0,5.0,29.63,1004.6,,,,61,,,,,,,.22 IN,,,,8/8 Overcast,700.0,,SCT,400,OVC,700.0,,,,
KRDR,11-06-2008,00:35,SPECI,,20,18,23.0,030/27KTS,6400.0,Thunderstorm with Rain or Snow/Light Rain Showers/Mist,6.0,6.0,29.59,1003.6,,,,95,80,10,,,,,,,,,8/8 Overcast,600.0,,OVC,600,,,,,,
KRDR,11-06-2008,00:04,SPECI,,20,20,30.0,030/27KTS,4000.0,Thunderstorm with Rain or Snow/Rain Showers/Mist,6.0,6.0,29.58,1003.3,,,,95,81,10,,,,,,,,,8/8 Overcast,400.0,,BKN,400,OVC,800.0,,,,
KRDR,11-06-2008,00:00,METAR,,20,22,30.0,020/30KTS,2800.0,Thunderstorm with Rain or Snow/Rain Showers,6.0,6.0,29.56,1002.8,,,,95,81,,,,,,.19 IN,,.2 IN,,8/8 Overcast,600.0,,OVC,600,,,,,,
KRDR,11-05-2008,23:38,SPECI,,20,16,22.0,,9999.0,Thunderstorm with Rain or Snow/Light Rain Showers,6.0,6.0,29.59,,,,,95,80,,,,,,,,,,8/8 Overcast,400.0,,OVC,400,,,,,,
KRDR,11-05-2008,23:04,SPECI,,20,20,27.0,010/27KTS,9999.0,Rain,6.0,6.0,29.55,1002.4,,,,61,,,,,,,,,,,8/8 Overcast,400.0,,OVC,400,,,,,,
KRDR,11-05-2008,23:00,METAR,,10,22,28.0,020/28KTS,9999.0,Rain,6.0,6.0,29.55,1002.1,,,,61,,,,,,,TRACE,,,,8/8 Overcast,500.0,,OVC,500,,,,,,
KRDR,11-05-2008,22:00,METAR,,10,18,25.0,,6400.0,Rain/Mist,7.0,6.0,29.55,1002.3,,,,61,10,,,,,,.01 IN,,,,8/8 Overcast,500.0,,OVC,500,,,,,,
KRDR,11-05-2008,21:19,SPECI,,10,17,22.0,,3200.0,,7.0,7.0,29.56,1002.6,,,,,,,,,,,,,,,8/8 Overcast,500.0,,OVC,500,,,,,,
KRDR,11-05-2008,21:00,METAR,,10,17,24.0,,9999.0,,7.0,7.0,29.55,1002.2,,,,,,,,,,,,,,,8/8 Overcast,500.0,,OVC,500,,,,,,
KRDR,11-05-2008,20:00,SPECI,,20,16,23.0,,9999.0,,7.0,7.0,29.55,1002.0,,,,,,,,,,,,,,,8/8 Overcast,500.0,,OVC,500,,,,,,
KRDR,11-05-2008,19:55,METAR,,20,18,23.0,,9999.0,,7.0,7.0,29.55,1002.1,,,,,,,,,,,,,,,8/8 Overcast,400.0,,OVC,400,,,,,,
KRDR,11-05-2008,19:00,METAR,,20,17,22.0,,9999.0,,7.0,7.0,29.53,1001.5,,,,,,,,,,,,,,,8/8 Overcast,500.0,,OVC,500,,,,,,
KRDR,11-05-2008,18:00,METAR,,20,17,22.0,,9999.0,,7.0,7.0,29.54,1001.8,,,,,,,,,,,,,TRACE,,8/8 Overcast,500.0,,OVC,500,,,,,,
KRDR,11-05-2008,17:01,SPECI,,10,15,,,9999.0,,8.0,7.0,29.54,1001.8,,,,,,,,,,,,,,,8/8 Overcast,500.0,,OVC,500,,,,,,
KRDR,11-05-2008,17:00,METAR,,20,13,,,9999.0,,8.0,7.0,29.54,1001.7,,,,,,,,,,,,,,,8/8 Overcast,600.0,,OVC,600,,,,,,
KRDR,11-05-2008,16:00,METAR,,10,14,,,9999.0,,8.0,8.0,29.54,1001.8,,,,,,,,,,,,,TRACE,,8/8 Overcast,600.0,,OVC,600,,,,,,
KRDR,11-05-2008,15:31,SPECI,,10,12,19.0,,9999.0,,8.0,8.0,29.54,1001.6,,,,,,,,,,,,,,,8/8 Overcast,600.0,,OVC,600,,,,,,
KRDR,11-05-2008,15:00,METAR,,20,14,,,9999.0,Drizzle,8.0,8.0,29.54,1001.6,,,,51,,,,,,,,,,,8/8 Overcast,400.0,,OVC,400,,,,,,
KRDR,11-05-2008,14:41,SPECI,,10,11,,,9999.0,Drizzle,8.0,8.0,29.54,1001.5,,,,51,,,,,,,,,,,8/8 Overcast,400.0,,BKN,400,OVC,900.0,,,,
KRDR,11-05-2008,14:00,METAR,,10,14,,,9999.0,,9.0,9.0,29.52,1001.0,,,,,,,,,,,,,,,8/8 Overcast,300.0,,OVC,300,,,,,,
KRDR,11-05-2008,13:00,METAR,,10,13,,,9999.0,,10.0,10.0,29.51,1000.7,,,,,,,,,,,,,,,8/8 Overcast,300.0,,OVC,300,,,,,,
KRDR,11-05-2008,12:18,SPECI,,20,14,18.0,,9999.0,,10.0,10.0,29.50,1000.5,,,,,,,,,,,,,,,8/8 Overcast,400.0,,OVC,400,,,,,,
KRDR,11-05-2008,12:00,METAR,,20,11,,,9999.0,,10.0,10.0,29.51,1000.6,,,,,,,,,,,,,.33 IN,.54 IN,8/8 Overcast,300.0,,BKN,300,OVC,600.0,,,,
KRDR,11-05-2008,11:33,SPECI,,10,12,,,9999.0,,11.0,11.0,29.50,1000.5,,,,,,,,,,,,,,,8/8 Overcast,300.0,,OVC,300,,,,,,
KRDR,11-05-2008,11:25,SPECI,,360,11,,,9999.0,,11.0,11.0,29.50,1000.4,,,,,,,,,,,,,,,8/8 Overcast,400.0,,OVC,400,,,,,,
KRDR,11-05-2008,11:15,SPECI,,10,12,,,9999.0,,11.0,11.0,29.50,1000.5,,,,,,,,,,,,,,,8/8 Overcast,500.0,,OVC,500,,,,,,
KRDR,11-05-2008,11:05,SPECI,,10,12,,,9999.0,,11.0,11.0,29.50,1000.4,,,,,,,,,,,,,,,8/8 Overcast,600.0,,OVC,600,,,,,,
KRDR,11-05-2008,11:00,METAR,,30,12,,,9999.0,,11.0,11.0,29.49,1000.2,,,,,,,,,,,TRACE,,,,8/8 Overcast,600.0,,OVC,600,,,,,,
KRDR,11-05-2008,11:00,SPECI,,20,11,,,9999.0,,11.0,11.0,29.50,1000.2,,,,,,,,,,,,,,,8/8 Overcast,700.0,,OVC,700,,,,,,
KRDR,11-05-2008,10:39,SPECI,,20,12,,,9999.0,,11.0,11.0,29.50,1000.4,,,,,,,,,,,,,,,8/8 Overcast,600.0,,OVC,600,,,,,,
KRDR,11-05-2008,10:29,SPECI,,30,12,,,9999.0,Light Drizzle,11.0,11.0,29.50,1000.4,51,,,,,,,,,,,,,,8/8 Overcast,600.0,,OVC,600,,,,,,
KRDR,11-05-2008,10:27,SPECI,,30,11,,,9999.0,,11.0,11.0,29.50,1000.3,,,,,,,,,,,,,,,8/8 Overcast,600.0,,OVC,600,,,,,,
KRDR,11-05-2008,10:18,SPECI,,20,12,,,9999.0,,11.0,11.0,29.49,1000.1,,,,,,,,,,,,,,,8/8 Overcast,500.0,,OVC,500,,,,,,
KRDR,11-05-2008,10:09,SPECI,,30,11,,,9999.0,,11.0,11.0,29.50,1000.3,,,,,,,,,,,,,,,8/8 Overcast,400.0,,OVC,400,,,,,,
KRDR,11-05-2008,10:00,METAR,,30,10,,,9999.0,,11.0,11.0,29.50,1000.2,,,,,,,,,,,TRACE,,,,8/8 Overcast,300.0,,OVC,300,,,,,,
KRDR,11-05-2008,09:45,SPECI,,30,8,,,9999.0,,11.0,11.0,29.50,1000.2,,,,,,,,,,,,,,,8/8 Overcast,300.0,,OVC,300,,,,,,
KRDR,11-05-2008,09:37,SPECI,,30,10,,,9999.0,,11.0,11.0,29.50,1000.3,,,,,,,,,,,,,,,8/8 Overcast,400.0,,OVC,400,,,,,,
KRDR,11-05-2008,09:31,SPECI,,30,8,,,9999.0,,11.0,11.0,29.50,1000.3,,,,,,,,,,,,,,,8/8 Overcast,300.0,,OVC,300,,,,,,
KRDR,11-05-2008,09:22,SPECI,,40,8,,,9999.0,Light Drizzle,11.0,11.0,29.50,1000.2,51,,,,,,,,,,,,,,8/8 Overcast,300.0,,OVC,300,,,,,,
KRDR,11-05-2008,09:17,SPECI,,40,10,,,9999.0,,11.0,11.0,29.49,1000.1,,,,,,,,,,,,,,,8/8 Overcast,300.0,,OVC,300,,,,,,
KRDR,11-05-2008,09:07,SPECI,,50,11,,,9999.0,,11.0,11.0,29.49,1000.0,,,,,,,,,,,,,,,8/8 Overcast,400.0,,OVC,400,,,,,,
KRDR,11-05-2008,09:00,METAR,,50,8,,,9999.0,,11.0,11.0,29.49,1000.1,,,,,,,,,,,.02 IN,.33 IN,,,8/8 Overcast,500.0,,OVC,500,,,,,,
KRDR,11-05-2008,08:48,SPECI,,50,9,,,9999.0,,11.0,11.0,29.49,1000.1,,,,,,,,,,,,,,,8/8 Overcast,500.0,,OVC,500,,,,,,
KRDR,11-05-2008,08:45,SPECI,,40,9,,,9999.0,,11.0,11.0,29.49,1000.1,,,,,,,,,,,,,,,8/8 Overcast,700.0,,OVC,700,,,,,,
KRDR,11-05-2008,08:43,SPECI,,50,9,,,9999.0,,11.0,11.0,29.49,1000.0,,,,,,,,,,,,,,,8/8 Overcast,700.0,,OVC,700,,,,,,
KRDR,11-05-2008,08:32,SPECI,,40,8,,,9999.0,Light Rain/Mist,11.0,11.0,29.49,1000.1,61,10,,,,,,,,,,,,,8/8 Overcast,900.0,,OVC,900,,,,,,
KRDR,11-05-2008,08:28,SPECI,,40,8,,,9999.0,Light Rain,11.0,11.0,29.49,1000.0,61,,,,,,,,,,,,,,8/8 Overcast,1400.0,,OVC,1400,,,,,,
KRDR,11-05-2008,08:08,SPECI,,50,8,,,9999.0,Light Rain,11.0,11.0,29.50,1000.2,61,,,,,,,,,,,,,,8/8 Overcast,2900.0,,OVC,2900,,,,,,
KRDR,11-05-2008,08:02,SPECI,,50,9,,,9999.0,Light Drizzle,11.0,11.0,29.50,1000.3,51,,,,,,,,,,,,,,8/8 Overcast,3100.0,,OVC,3100,,,,,,
KRDR,11-05-2008,08:00,METAR,,60,10,,,9999.0,Light Rain,11.0,11.0,29.50,1000.3,61,,,,,,,,,,.12 IN,,,,8/8 Overcast,3200.0,,OVC,3300,,,,,,
KRDR,11-05-2008,07:54,SPECI,,50,9,,,9999.0,Light Rain,11.0,11.0,29.50,1000.3,61,,,,,,,,,,,,,,8/8 Overcast,2900.0,,OVC,2900,,,,,,
KRDR,11-05-2008,07:33,SPECI,,50,7,,,9999.0,Light Rain/Mist,11.0,11.0,29.51,1000.6,61,10,,,,,,,,,,,,,8/8 Overcast,6000.0,,SCT,1100,OVC,5900.0,,,,
KRDR,11-05-2008,07:31,SPECI,,60,7,,,8000.0,Light Rain/Mist,11.0,11.0,29.51,1000.6,61,10,,,,,,,,,,,,,8/8 Overcast,1200.0,,BKN,1200,OVC,5900.0,,,,
KRDR,11-05-2008,07:24,SPECI,,50,9,,,6400.0,Light Rain/Mist,11.0,11.0,29.51,1000.7,61,10,,,,,,,,,,,,,7/8 Mostly Cloudy,1100.0,,BKN,1100,BKN,5900.0,,,,
KRDR,11-05-2008,07:20,SPECI,,40,7,,,4800.0,Light Rain/Mist,11.0,11.0,29.51,1000.8,61,10,,,,,,,,,,,,,7/8 Mostly Cloudy,1200.0,,BKN,1200,,,,,,
KRDR,11-05-2008,07:16,SPECI,,50,5,,,4000.0,Light Rain/Mist,11.0,11.0,29.52,1000.9,61,10,,,,,,,,,,,,,7/8 Mostly Cloudy,1400.0,,BKN,1400,BKN,5900.0,,,,
KRDR,11-05-2008,07:12,SPECI,,50,7,,,4000.0,Light Rain/Mist,11.0,11.0,29.52,1001.0,61,10,,,,,,,,,,,,,7/8 Mostly Cloudy,1600.0,,BKN,1600,BKN,5900.0,,,,
KRDR,11-05-2008,07:07,SPECI,,70,7,,,6400.0,Heavy Rain/Mist,10.0,10.0,29.52,1001.1,63,10,,,,,,,,,,,,,7/8 Mostly Cloudy,1700.0,,BKN,1700,BKN,5900.0,,,,
KRDR,11-05-2008,07:03,SPECI,,60,5,,,6400.0,Light Rain/Mist,10.0,10.0,29.53,1001.3,61,10,,,,,,,,,,,,,7/8 Mostly Cloudy,6000.0,,SCT,1900,BKN,5900.0,,,,
KRDR,11-05-2008,07:00,METAR,,50,6,,,9999.0,Light Rain,10.0,10.0,29.53,1001.2,61,,,,,,,,,,.19 IN,,,,7/8 Mostly Cloudy,6000.0,,SCT,2500,BKN,5900.0,,,,
KRDR,11-05-2008,06:48,SPECI,,50,6,,,9999.0,Light Rain,10.0,10.0,29.53,1001.2,61,,,,,,,,,,,,,,8/8 Overcast,6000.0,,SCT,2300,OVC,5900.0,,,,
KRDR,11-05-2008,06:44,SPECI,,40,5,,,9999.0,Light Rain,10.0,10.0,29.52,1001.2,61,,,,,,,,,,,,,,8/8 Overcast,2300.0,,BKN,2300,OVC,5900.0,,,,
KRDR,11-05-2008,06:41,SPECI,,40,5,,,9999.0,Light Rain/Mist,10.0,10.0,29.53,1001.2,61,10,,,,,,,,,,,,,7/8 Mostly Cloudy,3200.0,,BKN,3300,,,,,,
KRDR,11-05-2008,06:34,SPECI,,50,7,,,6400.0,Light Rain/Mist,10.0,10.0,29.53,1001.3,61,10,,,,,,,,,,,,,8/8 Overcast,2500.0,,OVC,2500,,,,,,
KRDR,11-05-2008,06:29,SPECI,,40,7,,,4800.0,Rain/Mist,10.0,10.0,29.53,1001.4,62,10,,,,,,,,,,,,,8/8 Overcast,2400.0,,OVC,2400,,,,,,
KRDR,11-05-2008,06:19,SPECI,,30,6,,,4000.0,Heavy Rain/Mist,10.0,9.0,29.54,1001.6,63,10,,,,,,,,,,,,,8/8 Overcast,2600.0,,OVC,2600,,,,,,
KRDR,11-05-2008,06:00,METAR,,40,6,,,9999.0,Light Rain/Mist,9.0,9.0,29.54,1001.5,61,10,,,,,,,,,.21 IN,,.21 IN,,8/8 Overcast,2000.0,,OVC,2000,,,,,,
KRDR,11-05-2008,05:43,SPECI,,40,5,,,6400.0,Light Rain/Mist,9.0,9.0,29.54,1001.8,61,10,,,,,,,,,,,,,8/8 Overcast,2400.0,,OVC,2400,,,,,,
KRDR,11-05-2008,05:30,SPECI,,360,4,,,6400.0,Heavy Rain/Mist,9.0,8.0,29.55,1002.1,63,10,,,,,,,,,,,,,7/8 Mostly Cloudy,2500.0,,BKN,2500,,,,,,
KRDR,11-05-2008,05:23,SPECI,,360,3,,,9999.0,Heavy Rain/Mist,9.0,8.0,29.56,1002.3,63,10,,,,,,,,,,,,,7/8 Mostly Cloudy,2800.0,,BKN,2800,,,,,,
KRDR,11-05-2008,05:14,SPECI,,30,4,,,9999.0,Rain,9.0,8.0,29.56,1002.4,62,,,,,,,,,,,,,,2/8 Mostly Clear,72000.0,,FEW,2000,,,,,,
KRDR,11-05-2008,05:12,SPECI,,40,4,,,9999.0,Rain,9.0,8.0,29.56,1002.4,62,,,,,,,,,,,,,,2/8 Mostly Clear,72000.0,,FEW,600,,,,,,
KRDR,11-05-2008,05:00,METAR,,30,4,,,9999.0,,9.0,8.0,29.56,1002.4,,,,,,,,,,,TRACE,,,,Clear,72000.0,,,73000,,,,,,
KRDR,11-05-2008,04:37,SPECI,,10,5,,,9999.0,Rain,9.0,7.0,29.56,1002.4,,,,61,,,,,,,,,,,8/8 Overcast,12000.0,,OVC,12000,,,,,,
KRDR,11-05-2008,04:00,METAR,,360,5,,,9999.0,,8.0,6.0,29.58,1003.1,,,,,,,,,,,,,,,Clear,72000.0,,,73000,,,,,,
KRDR,11-05-2008,03:00,METAR,,360,5,,,9999.0,,9.0,7.0,29.62,1004.2,,,,,,,,,,,,,,,Clear,72000.0,,,73000,,,,,,
KRDR,11-05-2008,02:00,METAR,,30,3,,,9999.0,,10.0,7.0,29.62,1004.3,,,,,,,,,,,,,,,Clear,72000.0,,,73000,,,,,,
KRDR,11-05-2008,01:00,METAR,,70,4,,,9999.0,,12.0,7.0,29.61,1004.1,,,,,,,,,,,,,,,4/8 Partly Cloudy,72000.0,,SCT,8900,,,,,,
KRDR,11-05-2008,00:00,METAR,,110,6,,,9999.0,,11.0,7.0,29.63,1004.6,,,,,,,,,,,,,,,2/8 Mostly Clear,72000.0,,FEW,9900,,,,,,
KRDR,11-04-2008,23:00,METAR,,140,6,,,9999.0,,13.0,7.0,29.65,1005.3,,,,,,,,,,,,,,,8/8 Overcast,20000.0,,SCT,11000,OVC,20000.0,,,,
KRDR,11-04-2008,22:00,METAR,,160,7,,,9999.0,,14.0,7.0,29.66,1005.6,,,,,,,,,,,,,,,8/8 Overcast,20000.0,,SCT,11000,OVC,20000.0,,,,
KRDR,11-04-2008,21:00,METAR,,160,9,,,9999.0,,14.0,7.0,29.66,1005.8,,,,,,,,,,,,,,,8/8 Overcast,20000.0,,SCT,12000,OVC,20000.0,,,,
KRDR,11-04-2008,20:00,METAR,,180,9,,,9999.0,,14.0,6.0,29.68,1006.3,,,,,,,,,,,,,,,7/8 Mostly Cloudy,18000.0,,BKN,18000,,,,,,
KRDR,11-04-2008,19:00,METAR,,160,9,,,9999.0,,14.0,5.0,29.70,1007.0,,,,,,,,,,,,,,,Clear,72000.0,,,73000,,,,,,
KRDR,11-04-2008,18:00,METAR,,150,6,,,9999.0,,14.0,4.0,29.74,1008.4,,,,,,,,,,,,,,,Clear,72000.0,,,73000,,,,,,
KRDR,11-04-2008,17:00,METAR,,160,3,,,9999.0,,13.0,3.0,29.76,1008.8,,,,,,,,,,,,,,,7/8 Mostly Cloudy,20000.0,,FEW,11000,BKN,20000.0,,,,
KRDR,11-04-2008,16:00,METAR,,230,3,,,9999.0,,10.0,2.0,29.76,1008.9,,,,,,,,,,,,,,,4/8 Partly Cloudy,72000.0,,FEW,11000,SCT,20000.0,,,,
KRDR,11-04-2008,15:00,METAR,,220,7,,,9999.0,,9.0,2.0,29.75,1008.8,,,,,,,,,,,,,,,4/8 Partly Cloudy,72000.0,,SCT,9900,SCT,20000.0,,,,
KRDR,11-04-2008,14:00,METAR,,240,6,,,9999.0,,7.0,2.0,29.75,1008.7,,,,,,,,,,,,,,,4/8 Partly Cloudy,72000.0,,FEW,9900,SCT,20000.0,,,,
KRDR,11-04-2008,13:00,METAR,,220,11,,,9999.0,,6.0,2.0,29.75,1008.7,,,,,,,,,,,,,,,Clear,72000.0,,,73000,,,,,,
KRDR,11-04-2008,12:00,METAR,,220,9,,,9999.0,,6.0,1.0,29.75,1008.6,,,,,,,,,,,,,,,4/8 Partly Cloudy,72000.0,,FEW,9900,SCT,20000.0,,,,
KRDR,11-04-2008,11:00,METAR,,230,12,,,9999.0,,7.0,2.0,29.74,1008.2,,,,,,,,,,,,,,,Clear,72000.0,,,73000,,,,,,
KRDR,11-04-2008,10:00,METAR,,220,9,,,9999.0,,6.0,2.0,29.73,1007.9,,,,,,,,,,,,,,,Clear,72000.0,,,73000,,,,,,
KRDR,11-04-2008,09:00,METAR,,220,9,,,9999.0,,7.0,2.0,29.73,1007.8,,,,,,,,,,,,,,,Clear,72000.0,,,73000,,,,,,
KRDR,11-04-2008,08:00,METAR,,220,11,,,9999.0,,8.0,3.0,29.71,1007.4,,,,,,,,,,,,,,,Clear,72000.0,,,73000,,,,,,
KRDR,11-04-2008,07:00,METAR,,220,9,,,9999.0,,8.0,3.0,29.69,1006.7,,,,,,,,,,,,,,,Clear,72000.0,,,73000,,,,,,
KRDR,11-04-2008,06:00,METAR,,230,7,,,9999.0,,10.0,3.0,29.69,1006.5,,,,,,,,,,,,,,,Clear,72000.0,,,73000,,,,,,
KRDR,11-04-2008,05:00,METAR,,220,11,,,9999.0,,9.0,3.0,29.68,1006.2,,,,,,,,,,,,,,,Clear,72000.0,,,73000,,,,,,
KRDR,11-04-2008,04:00,METAR,,240,11,,,9999.0,,12.0,4.0,29.66,1005.8,,,,,,,,,,,,,,,Clear,72000.0,,,73000,,,,,,
KRDR,11-04-2008,03:00,METAR,,240,10,,,9999.0,,14.0,6.0,29.65,1005.4,,,,,,,,,,,,,,,Clear,72000.0,,,73000,,,,,,
KRDR,11-04-2008,02:00,METAR,,240,9,,,9999.0,,14.0,6.0,29.64,1004.8,,,,,,,,,,,,,,,Clear,72000.0,,,73000,,,,,,
KRDR,11-04-2008,01:00,METAR,,230,8,,,9999.0,,13.0,7.0,29.63,1004.6,,,,,,,,,,,,,,,Clear,72000.0,,,73000,,,,,,
KRDR,11-04-2008,00:00,METAR,,220,6,,,9999.0,,15.0,8.0,29.59,1003.4,,,,,,,,,,,,,,,7/8 Mostly Cloudy,25000.0,,BKN,25000,,,,,,
KRDR,11-03-2008,23:00,METAR,,230,9,,,9999.0,,16.0,7.0,29.57,1002.8,,,,,,,,,,,,,,,7/8 Mostly Cloudy,25000.0,,BKN,25000,,,,,,
KRDR,11-03-2008,22:00,METAR,,200,15,,,9999.0,,19.0,9.0,29.55,1001.9,,,,,,,,,,,,,,,7/8 Mostly Cloudy,25000.0,,BKN,25000,,,,,,
KRDR,11-03-2008,21:00,METAR,,180,16,,,9999.0,,19.0,10.0,29.53,1001.3,,,,,,,,,,,,,,,7/8 Mostly Cloudy,25000.0,,BKN,25000,,,,,,
KRDR,11-03-2008,20:00,METAR,,180,18,23.0,,9999.0,,19.0,10.0,29.54,1001.5,,,,,,,,,,,,,,,7/8 Mostly Cloudy,25000.0,,FEW,12000,BKN,25000.0,,,,
KRDR,11-03-2008,19:00,METAR,,180,15,,,9999.0,,18.0,10.0,29.55,1001.9,,,,,,,,,,,,,,,7/8 Mostly Cloudy,22000.0,,BKN,22000,,,,,,
KRDR,11-03-2008,18:00,METAR,,180,18,,190/26KTS,9999.0,,17.0,10.0,29.56,1002.4,,,,,,,,,,,,,,,4/8 Partly Cloudy,72000.0,,SCT,22000,,,,,,
KRDR,11-03-2008,17:00,METAR,,170,17,,,9999.0,,15.0,9.0,29.57,1002.6,,,,,,,,,,,,,,,4/8 Partly Cloudy,72000.0,,SCT,22000,,,,,,
KRDR,11-03-2008,16:00,METAR,,170,14,,,9999.0,,13.0,9.0,29.60,1003.8,,,,,,,,,,,,,,,4/8 Partly Cloudy,72000.0,,SCT,22000,,,,,,
KRDR,11-03-2008,15:00,METAR,,170,13,20.0,,9999.0,,10.0,8.0,29.63,1004.6,,,,,,,,,,,,,,,2/8 Mostly Clear,72000.0,,FEW,9900,FEW,20000.0,,,,
KRDR,11-03-2008,14:00,METAR,,160,11,,,9999.0,,8.0,7.0,29.63,1004.7,,,,,,,,,,,,,,,2/8 Mostly Clear,72000.0,,FEW,9900,FEW,20000.0,,,,
KRDR,11-03-2008,13:00,METAR,,150,10,,,9999.0,,8.0,6.0,29.64,1004.9,,,,,,,,,,,,,,,4/8 Partly Cloudy,72000.0,,FEW,12000,SCT,20000.0,,,,
KRDR,11-03-2008,12:00,METAR,,150,9,,,9999.0,,6.0,6.0,29.66,1005.6,,,,,,,,,,,,,,,2/8 Mostly Clear,72000.0,,FEW,20000,,,,,,
KRDR,11-03-2008,11:00,METAR,,140,4,,,9999.0,,4.0,4.0,29.68,1006.4,,,,,,,,,,,,,,,Clear,72000.0,,,73000,,,,,,
KRDR,11-03-2008,10:00,METAR,,,0,,,9999.0,,4.0,3.0,29.70,1007.0,,,,,,,,,,,,,,,Clear,72000.0,,,73000,,,,,,
KRDR,11-03-2008,09:00,METAR,,,0,,,9999.0,,3.0,3.0,29.73,1007.9,,,,,,,,,,,,,,,Clear,72000.0,,,73000,,,,,,
KRDR,11-03-2008,08:00,METAR,,,0,,,9999.0,,2.0,2.0,29.75,1008.7,,,,,,,,,,,,,,,Clear,72000.0,,,73000,,,,,,
KRDR,11-03-2008,07:00,METAR,,,0,,,9999.0,,2.0,1.0,29.77,1009.4,,,,,,,,,,,,,,,Clear,72000.0,,,73000,,,,,,
KRDR,11-03-2008,06:00,METAR,,60,3,,,9999.0,,1.0,1.0,29.80,1010.1,,,,,,,,,,,,,,,Clear,72000.0,,,73000,,,,,,
KRDR,11-03-2008,05:00,METAR,,130,3,,,9999.0,,2.0,0.0,29.82,1010.8,,,,,,,,,,,,,,,Clear,72000.0,,,73000,,,,,,
KRDR,11-03-2008,04:00,METAR,,,0,,,9999.0,,3.0,1.0,29.84,1011.4,,,,,,,,,,,,,,,Clear,72000.0,,,73000,,,,,,
KRDR,11-03-2008,03:00,METAR,,,0,,,9999.0,,2.0,0.0,29.84,1011.6,,,,,,,,,,,,,,,Clear,72000.0,,,73000,,,,,,
KRDR,11-03-2008,02:00,METAR,,,0,,,9999.0,,4.0,2.0,29.85,1012.0,,,,,,,,,,,,,,,Clear,72000.0,,,73000,,,,,,
KRDR,11-03-2008,01:00,METAR,,90,4,,,9999.0,,7.0,3.0,29.86,1012.2,,,,,,,,,,,,,,,Clear,72000.0,,,73000,,,,,,
KRDR,11-03-2008,00:00,METAR,,100,4,,,9999.0,,11.0,4.0,29.86,1012.3,,,,,,,,,,,,,,,Clear,72000.0,,,73000,,,,,,
KRDR,11-02-2008,23:00,METAR,,120,4,,,9999.0,,14.0,5.0,29.86,1012.1,,,,,,,,,,,,,,,Clear,72000.0,,,73000,,,,,,
KRDR,11-02-2008,22:00,METAR,,80,4,,,9999.0,,17.0,5.0,29.85,1011.9,,,,,,,,,,,,,,,Clear,72000.0,,,73000,,,,,,
KRDR,11-02-2008,21:00,METAR,,,0,,,9999.0,,17.0,5.0,29.85,1011.9,,,,,,,,,,,,,,,Clear,72000.0,,,73000,,,,,,
KRDR,11-02-2008,20:00,METAR,,120,3,,,9999.0,,16.0,5.0,29.86,1012.1,,,,,,,,,,,,,,,2/8 Mostly Clear,72000.0,,FEW,20000,,,,,,
KRDR,11-02-2008,19:00,METAR,,,0,,,9999.0,,15.0,4.0,29.87,1012.6,,,,,,,,,,,,,,,2/8 Mostly Clear,72000.0,,FEW,20000,,,,,,
KRDR,11-02-2008,18:00,METAR,,,2,,,9999.0,,14.0,4.0,29.88,1012.9,,,,,,,,,,,,,,,2/8 Mostly Clear,72000.0,,FEW,25000,,,,,,
KRDR,11-02-2008,17:00,METAR,,,3,,,9999.0,,12.0,4.0,29.89,1013.1,,,,,,,,,,,,,,,2/8 Mostly Clear,72000.0,,FEW,20000,,,,,,
KRDR,11-02-2008,16:00,METAR,,220,5,,,9999.0,,9.0,3.0,29.88,1012.9,,,,,,,,,,,,,,,2/8 Mostly Clear,72000.0,,FEW,20000,,,,,,
KRDR,11-02-2008,15:00,METAR,,240,5,,,9999.0,,7.0,3.0,29.88,1013.0,,,,,,,,,,,,,,,2/8 Mostly Clear,72000.0,,FEW,20000,,,,,,
KRDR,11-02-2008,14:00,METAR,,200,6,,,9999.0,,1.0,1.0,29.86,1012.3,,,,,,,,,,,,,,,2/8 Mostly Clear,72000.0,,FEW,12000,,,,,,
KRDR,11-02-2008,13:00,METAR,,190,4,,,9999.0,Mist,1.0,1.0,29.87,1012.6,,,,10,,,,,,,,,,,Clear,72000.0,,,73000,,,,,,
KRDR,11-02-2008,12:50,SPECI,,190,4,,,9999.0,,1.0,0.0,29.87,1012.6,,,,,,,,,,,,,,,Clear,72000.0,,,73000,,,,,,
KRDR,11-02-2008,12:39,SPECI,,190,5,,,9999.0,,1.0,1.0,29.87,1012.5,,,,,,,,,,,,,,,Clear,72000.0,,,73000,,,,,,
KRDR,11-02-2008,12:00,METAR,,180,7,,,9999.0,,2.0,2.0,29.88,1013.0,,,,,,,,,,,,,,,Clear,72000.0,,,73000,,,,,,
KRDR,11-02-2008,11:00,METAR,,190,7,,,9999.0,,2.0,1.0,29.90,1013.4,,,,,,,,,,,,,,,Clear,72000.0,,,73000,,,,,,
KRDR,11-02-2008,10:00,METAR,,190,7,,,9999.0,,4.0,3.0,29.91,1013.7,,,,,,,,,,,,,,,Clear,72000.0,,,73000,,,,,,
KRDR,11-02-2008,09:00,METAR,,190,7,,,9999.0,,6.0,3.0,29.93,1014.4,,,,,,,,,,,,,,,Clear,72000.0,,,73000,,,,,,
KRDR,11-02-2008,08:00,METAR,,180,9,,,9999.0,,7.0,3.0,29.95,1015.1,,,,,,,,,,,,,,,Clear,72000.0,,,73000,,,,,,
KRDR,11-02-2008,07:00,METAR,,190,11,,,9999.0,,8.0,3.0,29.97,1015.9,,,,,,,,,,,,,,,Clear,72000.0,,,73000,,,,,,
KRDR,11-02-2008,06:00,METAR,,190,11,,,9999.0,,9.0,3.0,29.99,1016.4,,,,,,,,,,,,,,,Clear,72000.0,,,73000,,,,,,
KRDR,11-02-2008,05:00,METAR,,180,11,,,9999.0,,9.0,1.0,30.01,1017.3,,,,,,,,,,,,,,,Clear,72000.0,,,73000,,,,,,
KRDR,11-02-2008,04:00,METAR,,160,7,,,9999.0,,8.0,-1.0,30.03,1018.0,,,,,,,,,,,,,,,Clear,72000.0,,,73000,,,,,,
KRDR,11-02-2008,03:00,METAR,,120,5,,,9999.0,,7.0,-2.0,30.06,1019.0,,,,,,,,,,,,,,,Clear,72000.0,,,73000,,,,,,
KRDR,11-02-2008,02:00,METAR,,,0,,,9999.0,,8.0,0.0,30.08,1019.5,,,,,,,,,,,,,,,Clear,72000.0,,,73000,,,,,,
KRDR,11-02-2008,01:55,SPECI,,,0,,,9999.0,,8.0,0.0,30.08,1019.5,,,,,,,,,,,,,,,Clear,72000.0,,,73000,,,,,,
KRDR,11-02-2008,01:43,SPECI,,180,4,,,9999.0,,8.0,0.0,30.09,1019.6,,,,,,,,,,,,,,,Clear,72000.0,,,73000,,,,,,
KRDR,11-02-2008,01:36,SPECI,,,0,,,9999.0,,8.0,0.0,30.09,1019.9,,,,,,,,,,,,,,,Clear,72000.0,,,73000,,,,,,
KRDR,11-02-2008,01:25,SPECI,,160,8,,,9999.0,,9.0,0.0,30.08,1019.6,,,,,,,,,,,,,,,Clear,72000.0,,,73000,,,,,,
KRDR,11-02-2008,01:14,SPECI,,180,5,,,9999.0,,9.0,0.0,30.09,1019.9,,,,,,,,,,,,,,,Clear,72000.0,,,73000,,,,,,
KRDR,11-02-2008,01:00,METAR,,150,7,,,9999.0,,8.0,0.0,30.09,1019.9,,,,,,,,,,,,,,,Clear,72000.0,,,73000,,,,,,
KRDR,11-02-2008,00:00,METAR,,150,7,,,9999.0,,9.0,0.0,30.11,1020.5,,,,,,,,,,,,,,,Clear,72000.0,,,73000,,,,,,
KRDR,11-01-2008,23:00,METAR,,150,7,,,9999.0,,12.0,0.0,30.13,1021.1,,,,,,,,,,,,,,,Clear,72000.0,,,73000,,,,,,
KRDR,11-01-2008,22:00,METAR,,160,8,,,9999.0,,12.0,-2.0,30.17,1022.4,,,,,,,,,,,,,,,Clear,72000.0,,,73000,,,,,,
KRDR,11-01-2008,21:00,METAR,,170,8,,,9999.0,,13.0,-1.0,30.18,1022.9,,,,,,,,,,,,,,,Clear,72000.0,,,73000,,,,,,
KRDR,11-01-2008,20:00,METAR,,160,14,,,9999.0,,14.0,-2.0,30.20,1023.5,,,,,,,,,,,,,,,Clear,72000.0,,,73000,,,,,,
KRDR,11-01-2008,19:00,METAR,,160,13,,,9999.0,,13.0,0.0,30.23,1024.4,,,,,,,,,,,,,,,Clear,72000.0,,,73000,,,,,,
KRDR,11-01-2008,18:00,METAR,,160,12,,,9999.0,,11.0,-1.0,30.27,1025.7,,,,,,,,,,,,,,,Clear,72000.0,,,73000,,,,,,
KRDR,11-01-2008,17:00,METAR,,170,11,,,9999.0,,7.0,0.0,30.30,1026.7,,,,,,,,,,,,,,,Clear,72000.0,,,73000,,,,,,
KRDR,11-01-2008,16:00,METAR,,170,6,,,9999.0,,4.0,0.0,30.32,1027.2,,,,,,,,,,,,,,,Clear,72000.0,,,73000,,,,,,
KRDR,11-01-2008,15:00,METAR,,160,4,,,9999.0,,1.0,-1.0,30.33,1027.7,,,,,,,,,,,,,,,Clear,72000.0,,,73000,,,,,,
KRDR,11-01-2008,14:00,METAR,,130,6,,,9999.0,,-1.0,-3.0,30.34,1027.9,,,,,,,,,,,,,,,Clear,72000.0,,,73000,,,,,,
KRDR,11-01-2008,13:00,METAR,,160,5,,,9999.0,,-2.0,-4.0,30.33,1027.8,,,,,,,,,,,,,,,Clear,72000.0,,,73000,,,,,,
KRDR,11-01-2008,12:00,METAR,,130,5,,,9999.0,,-2.0,-4.0,30.34,1028.1,,,,,,,,,,,,,,,Clear,72000.0,,,73000,,,,,,
KRDR,11-01-2008,11:00,METAR,,130,4,,,9999.0,,0.0,-3.0,30.35,1028.4,,,,,,,,,,,,,,,Clear,72000.0,,,73000,,,,,,
KRDR,11-01-2008,10:00,METAR,,150,6,,,9999.0,,-1.0,-3.0,30.36,1028.6,,,,,,,,,,,,,,,Clear,72000.0,,,73000,,,,,,
KRDR,11-01-2008,09:00,METAR,,,0,,,9999.0,,-3.0,-4.0,30.37,1029.1,,,,,,,,,,,,,,,Clear,72000.0,,,73000,,,,,,
KRDR,11-01-2008,08:00,METAR,,160,4,,,9999.0,,-1.0,-3.0,30.38,1029.3,,,,,,,,,,,,,,,4/8 Partly Cloudy,72000.0,,SCT,12000,,,,,,
KRDR,11-01-2008,07:00,METAR,,140,3,,,9999.0,,-2.0,-4.0,30.40,1029.9,,,,,,,,,,,,,,,Clear,72000.0,,,73000,,,,,,
KRDR,11-01-2008,06:00,METAR,,,0,,,9999.0,,-2.0,-3.0,30.41,1030.3,,,,,,,,,,,,,,,Clear,72000.0,,,73000,,,,,,
KRDR,11-01-2008,05:00,METAR,,,0,,,9999.0,,-1.0,-3.0,30.41,1030.2,,,,,,,,,,,,,,,Clear,72000.0,,,73000,,,,,,
KRDR,11-01-2008,04:00,METAR,,,0,,,9999.0,,0.0,-3.0,30.41,1030.3,,,,,,,,,,,,,,,Clear,72000.0,,,73000,,,,,,
KRDR,11-01-2008,03:00,METAR,,,0,,,9999.0,,0.0,-3.0,30.42,1030.6,,,,,,,,,,,,,,,Clear,72000.0,,,73000,,,,,,
KRDR,11-01-2008,02:00,METAR,,,0,,,9999.0,,0.0,-3.0,30.43,1031.0,,,,,,,,,,,,,,,Clear,72000.0,,,73000,,,,,,
KRDR,11-01-2008,01:00,METAR,,,0,,,9999.0,,3.0,-2.0,30.44,1031.5,,,,,,,,,,,,,,,2/8 Mostly Clear,72000.0,,FEW,25000,,,,,,
KRDR,11-01-2008,00:00,METAR,,90,3,,,9999.0,,7.0,-2.0,30.44,1031.4,,,,,,,,,,,,,,,Clear,72000.0,,,73000,,,,,,
KRDR,10-31-2008,23:00,METAR,,80,3,,,9999.0,,9.0,-2.0,30.44,1031.3,,,,,,,,,,,,,,,2/8 Mostly Clear,72000.0,,FEW,25000,,,,,,
KRDR,10-31-2008,22:00,METAR,,,0,,,9999.0,,10.0,-2.0,30.44,1031.4,,,,,,,,,,,,,,,4/8 Partly Cloudy,72000.0,,SCT,25000,,,,,,
KRDR,10-31-2008,21:00,METAR,,,0,,,9999.0,,11.0,-2.0,30.44,1031.4,,,,,,,,,,,,,,,7/8 Mostly Cloudy,25000.0,,BKN,25000,,,,,,
KRDR,10-31-2008,20:00,METAR,,,0,,,9999.0,,10.0,-2.0,30.46,1031.9,,,,,,,,,,,,,,,7/8 Mostly Cloudy,25000.0,,BKN,25000,,,,,,
KRDR,10-31-2008,19:00,METAR,,,0,,,9999.0,,9.0,-2.0,30.47,1032.3,,,,,,,,,,,,,,,7/8 Mostly Cloudy,25000.0,,BKN,25000,,,,,,
KRDR,10-31-2008,18:00,METAR,,50,4,,,9999.0,,9.0,-1.0,30.48,1032.6,,,,,,,,,,,,,,,7/8 Mostly Cloudy,25000.0,,BKN,25000,,,,,,
KRDR,10-31-2008,17:00,METAR,,30,4,,,9999.0,,7.0,-1.0,30.48,1032.7,,,,,,,,,,,,,,,7/8 Mostly Cloudy,25000.0,,BKN,25000,,,,,,
KRDR,10-31-2008,16:00,METAR,,30,4,,,9999.0,,5.0,-2.0,30.47,1032.3,,,,,,,,,,,,,,,7/8 Mostly Cloudy,25000.0,,BKN,25000,,,,,,
KRDR,10-31-2008,15:00,METAR,,10,4,,,9999.0,,3.0,-2.0,30.45,1031.7,,,,,,,,,,,,,,,7/8 Mostly Cloudy,25000.0,,BKN,25000,,,,,,
KRDR,10-31-2008,14:00,METAR,,330,5,,,9999.0,,-1.0,-4.0,30.43,1031.0,,,,,,,,,,,,,,,Clear,72000.0,,,73000,,,,,,
KRDR,10-31-2008,13:00,METAR,,340,7,,,9999.0,,0.0,-4.0,30.40,1029.9,,,,,,,,,,,,,,,2/8 Mostly Clear,72000.0,,FEW,25000,,,,,,
KRDR,10-31-2008,12:00,METAR,,340,8,,,9999.0,,-1.0,-3.0,30.38,1029.3,,,,,,,,,,,,,,,2/8 Mostly Clear,72000.0,,FEW,25000,,,,,,
KRDR,10-31-2008,11:00,METAR,,340,4,,,9999.0,,1.0,-3.0,30.34,1028.3,,,,,,,,,,,,,,,Clear,72000.0,,,73000,,,,,,
KRDR,10-31-2008,10:00,METAR,,310,5,,,9999.0,,0.0,-3.0,30.32,1027.4,,,,,,,,,,,,,,,Clear,72000.0,,,73000,,,,,,
KRDR,10-31-2008,09:00,METAR,,330,6,,,9999.0,,1.0,-2.0,30.30,1026.8,,,,,,,,,,,,,,,Clear,72000.0,,,73000,,,,,,
KRDR,10-31-2008,08:00,METAR,,330,5,,,9999.0,,2.0,0.0,30.27,1025.7,,,,,,,,,,,,,,,Clear,72000.0,,,73000,,,,,,
KRDR,10-31-2008,07:00,METAR,,330,7,,,9999.0,,3.0,0.0,30.24,1024.6,,,,,,,,,,,,,,,Clear,72000.0,,,73000,,,,,,
KRDR,10-31-2008,06:00,METAR,,340,7,,,9999.0,,3.0,0.0,30.21,1023.7,,,,,,,,,,,,,,,Clear,72000.0,,,73000,,,,,,
KRDR,10-31-2008,05:00,METAR,,340,7,,,9999.0,,6.0,1.0,30.17,1022.5,,,,,,,,,,,,,,,Clear,72000.0,,,73000,,,,,,
KRDR,10-31-2008,04:00,METAR,,320,7,,,9999.0,,6.0,1.0,30.14,1021.4,,,,,,,,,,,,,,,Clear,72000.0,,,73000,,,,,,
KRDR,10-31-2008,03:00,METAR,,320,6,,,9999.0,,7.0,1.0,30.10,1020.0,,,,,,,,,,,,,,,Clear,72000.0,,,73000,,,,,,
KRDR,10-31-2008,02:00,METAR,,330,6,,,9999.0,,7.0,1.0,30.06,1018.8,,,,,,,,,,,,,,,Clear,72000.0,,,73000,,,,,,
KRDR,10-31-2008,01:00,METAR,,10,7,,,9999.0,,9.0,2.0,30.03,1017.7,,,,,,,,,,,,,,,Clear,72000.0,,,73000,,,,,,
KRDR,10-31-2008,00:00,METAR,,340,8,,,9999.0,,12.0,2.0,29.98,1016.2,,,,,,,,,,,,,,,Clear,72000.0,,,73000,,,,,,
KRDR,10-30-2008,23:00,METAR,,330,7,,,9999.0,,16.0,2.0,29.93,1014.5,,,,,,,,,,,,,,,Clear,72000.0,,,73000,,,,,,
KRDR,10-30-2008,22:00,METAR,,300,13,22.0,,9999.0,,19.0,1.0,29.88,1012.9,,,,,,,,,,,,,,,2/8 Mostly Clear,72000.0,,FEW,25000,,,,,,
KRDR,10-30-2008,20:54,METAR,,310,13,,,9999.0,,21.0,2.0,29.84,1011.6,,,,,,,,,,,,,,,4/8 Partly Cloudy,72000.0,,SCT,25000,,,,,,
KRDR,10-30-2008,20:00,METAR,,280,13,,,9999.0,,22.0,2.0,29.83,1011.1,,,,,,,,,,,,,,,4/8 Partly Cloudy,72000.0,,SCT,25000,,,,,,
KRDR,10-30-2008,19:00,METAR,,270,12,,,9999.0,,21.0,2.0,29.81,1010.5,,,,,,,,,,,,,,,2/8 Mostly Clear,72000.0,,FEW,25000,,,,,,
KRDR,10-30-2008,18:00,METAR,,250,10,,,9999.0,,20.0,2.0,29.81,1010.4,,,,,,,,,,,,,,,2/8 Mostly Clear,72000.0,,FEW,25000,,,,,,
KRDR,10-30-2008,17:00,METAR,,220,7,,,9999.0,,18.0,3.0,29.80,1010.3,,,,,,,,,,,,,,,Clear,72000.0,,,73000,,,,,,
KRDR,10-30-2008,16:00,METAR,,210,9,,,9999.0,,13.0,2.0,29.77,1009.7,,,,,,,,,,,,,,,Clear,72000.0,,,73000,,,,,,
KRDR,10-30-2008,15:00,METAR,,210,7,,,9999.0,,9.0,1.0,29.77,1009.4,,,,,,,,,,,,,,,Clear,72000.0,,,73000,,,,,,
KRDR,10-30-2008,14:00,METAR,,190,7,,,9999.0,,5.0,0.0,29.76,1009.0,,,,,,,,,,,,,,,Clear,72000.0,,,73000,,,,,,
KRDR,10-30-2008,13:00,METAR,,200,9,,,9999.0,,4.0,0.0,29.75,1008.8,,,,,,,,,,,,,,,Clear,72000.0,,,73000,,,,,,
KRDR,10-30-2008,12:00,METAR,,190,8,,,9999.0,,2.0,-1.0,29.75,1009.1,,,,,,,,,,,,,,,Clear,72000.0,,,73000,,,,,,
KRDR,10-30-2008,11:00,METAR,,,0,,,9999.0,,4.0,-1.0,29.77,1009.3,,,,,,,,,,,,,,,Clear,72000.0,,,73000,,,,,,
KRDR,10-30-2008,10:00,METAR,,180,12,,,9999.0,,6.0,0.0,29.76,1008.9,,,,,,,,,,,,,,,Clear,72000.0,,,73000,,,,,,
KRDR,10-30-2008,09:00,METAR,,180,11,,,9999.0,,5.0,0.0,29.76,1009.1,,,,,,,,,,,,,,,Clear,72000.0,,,73000,,,,,,
KRDR,10-30-2008,08:00,METAR,,190,11,,,9999.0,,7.0,0.0,29.77,1009.5,,,,,,,,,,,,,,,Clear,72000.0,,,73000,,,,,,
KRDR,10-30-2008,06:00,METAR,,200,13,,,9999.0,,8.0,0.0,29.80,1010.1,,,,,,,,,,,,,,,Clear,72000.0,,,73000,,,,,,
KRDR,10-30-2008,05:00,METAR,,200,11,,,9999.0,,8.0,0.0,29.81,1010.4,,,,,,,,,,,,,,,Clear,72000.0,,,73000,,,,,,
KRDR,10-30-2008,04:00,METAR,,190,11,,,9999.0,,9.0,0.0,29.81,1010.7,,,,,,,,,,,,,,,Clear,72000.0,,,73000,,,,,,
KRDR,10-30-2008,03:00,METAR,,180,10,,,9999.0,,10.0,-1.0,29.82,1011.0,,,,,,,,,,,,,,,Clear,72000.0,,,73000,,,,,,
KRDR,10-30-2008,02:00,METAR,,190,13,,,9999.0,,12.0,-1.0,29.84,1011.4,,,,,,,,,,,,,,,2/8 Mostly Clear,72000.0,,FEW,25000,,,,,,
KRDR,10-30-2008,01:00,METAR,,190,11,,,9999.0,,10.0,-1.0,29.85,1012.1,,,,,,,,,,,,,,,2/8 Mostly Clear,72000.0,,FEW,25000,,,,,,
KRDR,10-30-2008,00:00,METAR,,180,8,,,9999.0,,10.0,0.0,29.88,1012.8,,,,,,,,,,,,,,,2/8 Mostly Clear,72000.0,,FEW,25000,,,,,,
KRDR,10-29-2008,22:00,METAR,,180,10,,,9999.0,,14.0,0.0,29.92,1014.4,,,,,,,,,,,,,,,2/8 Mostly Clear,72000.0,,FEW,25000,,,,,,
KRDR,10-29-2008,20:00,METAR,,190,14,,,9999.0,,15.0,-2.0,29.99,1016.4,,,,,,,,,,,,,,,4/8 Partly Cloudy,72000.0,,SCT,25000,,,,,,
KRDR,10-29-2008,19:00,METAR,,190,14,,,9999.0,,13.0,-2.0,30.02,1017.5,,,,,,,,,,,,,,,4/8 Partly Cloudy,72000.0,,FEW,18000,SCT,25000.0,,,,
KRDR,10-29-2008,18:00,METAR,,190,12,,,9999.0,,11.0,-2.0,30.07,1019.0,,,,,,,,,,,,,,,4/8 Partly Cloudy,72000.0,,FEW,15000,SCT,30000.0,,,,
KRDR,10-29-2008,17:00,METAR,,210,13,,,9999.0,,10.0,-3.0,30.10,1020.2,,,,,,,,,,,,,,,4/8 Partly Cloudy,72000.0,,SCT,30000,,,,,,
KRDR,10-29-2008,16:00,METAR,,190,7,,,9999.0,,6.0,-2.0,30.12,1021.0,,,,,,,,,,,,,,,4/8 Partly Cloudy,72000.0,,FEW,15000,SCT,30000.0,,,,
KRDR,10-29-2008,15:00,METAR,,200,4,,,9999.0,,3.0,-1.0,30.13,1021.3,,,,,,,,,,,,,,,2/8 Mostly Clear,72000.0,,FEW,15000,,,,,,
KRDR,10-29-2008,14:00,METAR,,190,3,,,9999.0,,-3.0,-4.0,30.14,1021.3,,,,,,,,,,,,,,,2/8 Mostly Clear,72000.0,,FEW,15000,,,,,,
KRDR,10-29-2008,13:00,METAR,,210,4,,,9999.0,,-3.0,-5.0,30.14,1021.3,,,,,,,,,,,,,,,2/8 Mostly Clear,72000.0,,FEW,30000,,,,,,
KRDR,10-29-2008,12:00,METAR,,230,4,,,9999.0,,-4.0,-6.0,30.15,1021.8,,,,,,,,,,,,,,,Clear,72000.0,,,73000,,,,,,
KRDR,10-29-2008,11:00,METAR,,,0,,,9999.0,,-4.0,-6.0,30.18,1022.8,,,,,,,,,,,,,,,Clear,72000.0,,,73000,,,,,,
KRDR,10-29-2008,10:00,METAR,,,0,,,9999.0,,-4.0,-5.0,30.17,1022.3,,,,,,,,,,,,,,,Clear,72000.0,,,73000,,,,,,
KRDR,10-29-2008,09:00,METAR,,230,3,,,9999.0,,-3.0,-5.0,30.16,1022.3,,,,,,,,,,,,,,,Clear,72000.0,,,73000,,,,,,
KRDR,10-29-2008,08:00,METAR,,,0,,,9999.0,,-3.0,-5.0,30.18,1022.8,,,,,,,,,,,,,,,Clear,72000.0,,,73000,,,,,,
KRDR,10-29-2008,07:00,METAR,,,0,,,9999.0,,-3.0,-5.0,30.18,1022.8,,,,,,,,,,,,,,,Clear,72000.0,,,73000,,,,,,
KRDR,10-29-2008,06:00,METAR,,300,3,,,9999.0,,-3.0,-5.0,30.19,1023.2,,,,,,,,,,,,,,,Clear,72000.0,,,73000,,,,,,
KRDR,10-29-2008,05:00,METAR,,300,3,,,9999.0,,-2.0,-5.0,30.20,1023.5,,,,,,,,,,,,,,,Clear,72000.0,,,73000,,,,,,
KRDR,10-29-2008,04:00,METAR,,340,6,,,9999.0,,0.0,-4.0,30.21,1023.7,,,,,,,,,,,,,,,Clear,72000.0,,,73000,,,,,,
KRDR,10-29-2008,03:00,METAR,,340,4,,,9999.0,,2.0,-4.0,30.21,1023.6,,,,,,,,,,,,,,,Clear,72000.0,,,73000,,,,,,
KRDR,10-29-2008,02:00,METAR,,340,6,,,9999.0,,4.0,-3.0,30.20,1023.5,,,,,,,,,,,,,,,Clear,72000.0,,,73000,,,,,,
KRDR,10-29-2008,01:00,METAR,,280,5,,,9999.0,,4.0,-4.0,30.19,1023.0,,,,,,,,,,,,,,,Clear,72000.0,,,73000,,,,,,
KRDR,10-29-2008,00:00,METAR,,270,7,,,9999.0,,7.0,-4.0,30.18,1022.8,,,,,,,,,,,,,,,Clear,72000.0,,,73000,,,,,,
KRDR,10-28-2008,23:00,METAR,,280,5,,,9999.0,,11.0,-4.0,30.19,1023.0,,,,,,,,,,,,,,,4/8 Partly Cloudy,72000.0,,SCT,20000,,,,,,
KRDR,10-28-2008,22:00,METAR,,300,7,,,9999.0,,14.0,-5.0,30.19,1023.0,,,,,,,,,,,,,,,Clear,72000.0,,,73000,,,,,,
KRDR,10-28-2008,21:00,METAR,,310,9,,,9999.0,,14.0,-5.0,30.18,1022.9,,,,,,,,,,,,,,,2/8 Mostly Clear,72000.0,,FEW,20000,,,,,,
KRDR,10-28-2008,20:00,METAR,,270,8,,,9999.0,,14.0,-5.0,30.20,1023.3,,,,,,,,,,,,,,,2/8 Mostly Clear,72000.0,,FEW,20000,,,,,,
KRDR,10-28-2008,19:00,METAR,,250,9,,,9999.0,,11.0,-5.0,30.21,1023.9,,,,,,,,,,,,,,,2/8 Mostly Clear,72000.0,,FEW,20000,,,,,,
KRDR,10-28-2008,18:00,METAR,,250,9,,,9999.0,,10.0,-6.0,30.24,1024.8,,,,,,,,,,,,,,,7/8 Mostly Cloudy,30000.0,,BKN,30000,,,,,,
KRDR,10-28-2008,17:00,METAR,,260,6,,,9999.0,,8.0,-7.0,30.26,1025.3,,,,,,,,,,,,,,,7/8 Mostly Cloudy,30000.0,,BKN,30000,,,,,,
KRDR,10-28-2008,16:00,METAR,,250,9,,,9999.0,,5.0,-8.0,30.26,1025.3,,,,,,,,,,,,,,,7/8 Mostly Cloudy,30000.0,,BKN,30000,,,,,,
KRDR,10-28-2008,15:00,METAR,,230,3,,,9999.0,,2.0,-7.0,30.28,1026.0,,,,,,,,,,,,,,,2/8 Mostly Clear,72000.0,,FEW,30000,,,,,,
KRDR,10-28-2008,14:00,METAR,,220,7,,,9999.0,,-2.0,-9.0,30.27,1025.7,,,,,,,,,,,,,,,2/8 Mostly Clear,72000.0,,FEW,30000,,,,,,
KRDR,10-28-2008,13:00,METAR,,220,6,,,9999.0,,-4.0,-9.0,30.28,1026.1,,,,,,,,,,,,,,,Clear,72000.0,,,73000,,,,,,
KRDR,10-28-2008,12:00,METAR,,220,5,,,9999.0,,-4.0,-9.0,30.30,1027.0,,,,,,,,,,,,,,,Clear,72000.0,,,73000,,,,,,
KRDR,10-28-2008,11:00,METAR,,210,4,,,9999.0,,-5.0,-9.0,30.32,1027.5,,,,,,,,,,,,,,,Clear,72000.0,,,73000,,,,,,
KRDR,10-28-2008,10:00,METAR,,210,4,,,9999.0,,-4.0,-10.0,30.34,1027.9,,,,,,,,,,,,,,,Clear,72000.0,,,73000,,,,,,
KRDR,10-28-2008,09:00,METAR,,200,4,,,9999.0,,-4.0,-10.0,30.34,1028.2,,,,,,,,,,,,,,,Clear,72000.0,,,73000,,,,,,
KRDR,10-28-2008,08:00,METAR,,220,7,,,9999.0,,-4.0,-9.0,30.35,1028.5,,,,,,,,,,,,,,,Clear,72000.0,,,73000,,,,,,
KRDR,10-28-2008,07:00,METAR,,230,7,,,9999.0,,-5.0,-9.0,30.37,1029.0,,,,,,,,,,,,,,,Clear,72000.0,,,73000,,,,,,
KRDR,10-28-2008,06:00,METAR,,230,5,,,9999.0,,-5.0,-9.0,30.39,1029.7,,,,,,,,,,,,,,,Clear,72000.0,,,73000,,,,,,
KRDR,10-28-2008,05:00,METAR,,230,3,,,9999.0,,-5.0,-8.0,30.40,1030.1,,,,,,,,,,,,,,,Clear,72000.0,,,73000,,,,,,
KRDR,10-28-2008,04:00,METAR,,,0,,,9999.0,,-4.0,-9.0,30.41,1030.3,,,,,,,,,,,,,,,Clear,72000.0,,,73000,,,,,,
KRDR,10-28-2008,03:00,METAR,,,0,,,9999.0,,-4.0,-9.0,30.41,1030.4,,,,,,,,,,,,,,,Clear,72000.0,,,73000,,,,,,
KRDR,10-28-2008,02:00,METAR,,240,3,,,9999.0,,-4.0,-8.0,30.42,1030.6,,,,,,,,,,,,,,,Clear,72000.0,,,73000,,,,,,
KRDR,10-28-2008,01:00,METAR,,270,5,,,9999.0,,-3.0,-8.0,30.43,1031.0,,,,,,,,,,,,,,,Clear,72000.0,,,73000,,,,,,
KRDR,10-28-2008,00:00,METAR,,270,5,,,9999.0,,-2.0,-9.0,30.42,1030.8,,,,,,,,,,,,,,,Clear,72000.0,,,73000,,,,,,
KRDR,10-27-2008,23:00,METAR,,290,8,,,9999.0,,2.0,-11.0,30.43,1031.0,,,,,,,,,,,,,,,Clear,72000.0,,,73000,,,,,,
KRDR,10-27-2008,22:00,METAR,,310,10,,,9999.0,,3.0,-10.0,30.43,1031.2,,,,,,,,,,,,,,,Clear,72000.0,,,73000,,,,,,
KRDR,10-27-2008,21:00,METAR,,310,10,,,9999.0,,3.0,-10.0,30.44,1031.3,,,,,,,,,,,,,,,Clear,72000.0,,,73000,,,,,,
KRDR,10-27-2008,20:00,METAR,,290,11,15.0,,9999.0,,3.0,-8.0,30.44,1031.4,,,,,,,,,,,,,,,Clear,72000.0,,,73000,,,,,,
KRDR,10-27-2008,19:00,METAR,,290,12,,,9999.0,,2.0,-8.0,30.46,1031.9,,,,,,,,,,,,,,,2/8 Mostly Clear,72000.0,,FEW,20000,,,,,,
KRDR,10-27-2008,18:00,METAR,,320,10,,,9999.0,,1.0,-8.0,30.48,1032.5,,,,,,,,,,,,,,,2/8 Mostly Clear,72000.0,,FEW,3000,,,,,,
KRDR,10-27-2008,17:00,METAR,,310,9,,,9999.0,,0.0,-8.0,30.48,1033.0,,,,,,,,,,,,,,,2/8 Mostly Clear,72000.0,,FEW,3000,,,,,,
KRDR,10-27-2008,16:00,METAR,,320,10,,,9999.0,,-1.0,-8.0,30.48,1032.8,,,,,,,,,,,,,,,2/8 Mostly Clear,72000.0,,FEW,20000,,,,,,
KRDR,10-27-2008,15:00,METAR,,310,11,,,9999.0,,-2.0,-8.0,30.47,1032.4,,,,,,,,,,,,,,,2/8 Mostly Clear,72000.0,,FEW,20000,,,,,,
KRDR,10-27-2008,14:00,METAR,,310,7,,,9999.0,,-4.0,-7.0,30.46,1031.9,,,,,,,,,,,,,,,2/8 Mostly Clear,72000.0,,FEW,20000,,,,,,
KRDR,10-27-2008,13:00,METAR,,320,9,,,9999.0,,-3.0,-7.0,30.44,1031.5,,,,,,,,,,,,,,,Clear,72000.0,,,73000,,,,,,
KRDR,10-27-2008,12:00,METAR,,320,7,,,9999.0,,-3.0,-7.0,30.42,1030.8,,,,,,,,,,,,,,.01 IN,Clear,72000.0,,,73000,,,,,,
KRDR,10-27-2008,11:00,METAR,,320,7,,,9999.0,,-3.0,-7.0,30.42,1030.8,,,,,,,,,,,,,,,Clear,72000.0,,,73000,,,,,,
KRDR,10-27-2008,10:00,METAR,,320,9,,,9999.0,,-2.0,-7.0,30.40,1030.1,,,,,,,,,,,,,,,Clear,72000.0,,,73000,,,,,,
KRDR,10-27-2008,09:00,METAR,,330,11,,,9999.0,,-1.0,-7.0,30.39,1029.5,,,,,,,,,,,,,,,8/8 Overcast,6000.0,,OVC,5900,,,,,,
KRDR,10-27-2008,08:00,METAR,,320,13,19.0,,9999.0,,-1.0,-7.0,30.37,1029.1,,,,,,,,,,,,,,,4/8 Partly Cloudy,72000.0,,SCT,5900,,,,,,
KRDR,10-27-2008,07:00,METAR,,330,13,21.0,,9999.0,,0.0,-7.0,30.34,1028.1,,,,,,,,,,,,,,,8/8 Overcast,6000.0,,OVC,5900,,,,,,
KRDR,10-27-2008,06:00,METAR,,330,16,22.0,,9999.0,,1.0,-6.0,30.33,1027.6,,,,,,,,,,,TRACE,,TRACE,,8/8 Overcast,5500.0,,OVC,5400,,,,,,
KRDR,10-27-2008,05:37,SPECI,,330,16,23.0,,9999.0,,1.0,-6.0,30.33,1027.6,,,,,,,,,,,,,,,8/8 Overcast,5500.0,,OVC,5400,,,,,,
KRDR,10-27-2008,05:02,SPECI,,330,21,25.0,,9999.0,Light Rain,1.0,-6.0,30.32,1027.3,61,,,,,,,,,,,,,,2/8 Mostly Clear,72000.0,,FEW,5000,,,,,,
KRDR,10-27-2008,05:00,METAR,,330,15,23.0,320/27KTS,9999.0,,1.0,-6.0,30.31,1027.2,,,,,,,,,,,,,,,2/8 Mostly Clear,72000.0,,FEW,4000,,,,,,
KRDR,10-27-2008,04:00,METAR,,320,16,24.0,320/29KTS,9999.0,,1.0,-5.0,30.29,1026.5,,,,,,,,,,,,,,,8/8 Overcast,3900.0,,OVC,4000,,,,,,
KRDR,10-27-2008,03:00,METAR,,320,22,26.0,320/34KTS,9999.0,,2.0,-5.0,30.27,1025.7,,,,,,,,,,,,,,,8/8 Overcast,4600.0,,OVC,4700,,,,,,
KRDR,10-27-2008,02:00,METAR,,320,19,30.0,320/30KTS,9999.0,,3.0,-4.0,30.25,1025.1,,,,,,,,,,,,,,,8/8 Overcast,4700.0,,OVC,4800,,,,,,
KRDR,10-27-2008,01:00,METAR,,320,16,24.0,320/28KTS,9999.0,,3.0,-4.0,30.23,1024.6,,,,,,,,,,,,,,,8/8 Overcast,4300.0,,OVC,4400,,,,,,
KRDR,10-27-2008,00:00,METAR,,310,21,30.0,330/35KTS,9999.0,,3.0,-3.0,30.21,1023.9,,,,,,,,,,,,,,,8/8 Overcast,4300.0,,OVC,4400,,,,,,
KRDR,10-26-2008,23:00,METAR,,320,21,33.0,320/34KTS,9999.0,,4.0,-3.0,30.18,1022.8,,,,,,,,,,,,,,,8/8 Overcast,4100.0,,OVC,4200,,,,,,
KRDR,10-26-2008,22:00,METAR,,320,23,30.0,310/32KTS,9999.0,,4.0,-3.0,30.14,1021.6,,,,,,,,,,,,,,,8/8 Overcast,4200.0,,OVC,4300,,,,,,
KRDR,10-26-2008,21:00,METAR,,330,25,32.0,320/33KTS,9999.0,,4.0,-3.0,30.12,1020.6,,,,,,,,,,,,,,,7/8 Mostly Cloudy,3800.0,,BKN,3900,,,,,,
KRDR,10-26-2008,20:00,METAR,,330,23,32.0,330/36KTS,9999.0,,4.0,-4.0,30.08,1019.6,,,,,,,,,,,,,,,7/8 Mostly Cloudy,3600.0,,BKN,3700,,,,,,
KRDR,10-26-2008,19:00,METAR,,320,22,34.0,310/37KTS,9999.0,,4.0,-4.0,30.04,1018.2,,,,,,,,,,,,,,,4/8 Partly Cloudy,72000.0,,SCT,3600,,,,,,
KRDR,10-26-2008,18:00,METAR,,330,25,34.0,320/40KTS,9999.0,,3.0,-3.0,30.00,1016.7,,,,,,,,,,,,,.02 IN,,7/8 Mostly Cloudy,20000.0,,SCT,3100,BKN,20000.0,,,,
KRDR,10-26-2008,17:00,METAR,,330,24,35.0,330/39KTS,9999.0,,2.0,-3.0,29.94,1015.3,,,,,,,,,,,,,,,7/8 Mostly Cloudy,4900.0,,SCT,3600,BKN,5000.0,BKN,20000.0,,
KRDR,10-26-2008,16:00,METAR,,320,25,35.0,320/43KTS,9999.0,,1.0,-3.0,29.91,1013.8,,,,,,,,,,,TRACE,,,,7/8 Mostly Cloudy,3800.0,,FEW,1600,BKN,3900.0,BKN,6900.0,,
KRDR,10-26-2008,15:49,SPECI,,320,28,39.0,320/43KTS,9999.0,,1.0,-3.0,29.90,1013.6,,,,,,,,,,,,,,,7/8 Mostly Cloudy,3900.0,,FEW,1600,BKN,4000.0,BKN,6900.0,,
KRDR,10-26-2008,15:40,SPECI,,330,28,39.0,320/43KTS,9999.0,Light Snow,1.0,-3.0,29.89,1013.3,,,,71,,,,,,,,,,,8/8 Overcast,3900.0,,SCT,1600,BKN,4000.0,OVC,6900.0,,
KRDR,10-26-2008,15:00,METAR,,320,24,37.0,320/47KTS,9999.0,Light Snow,0.0,-2.0,29.86,1012.2,,,,71,,,,,,,TRACE,.01 IN,,,8/8 Overcast,1600.0,,SCT,800,OVC,1600.0,,,,
KRDR,10-26-2008,14:37,SPECI,,320,24,33.0,320/47KTS,6400.0,Light Snow/Mist,0.0,-2.0,29.85,1011.7,,,,71,10,,,,,,,,,,8/8 Overcast,1100.0,,SCT,800,OVC,1100.0,,,,
KRDR,10-26-2008,14:24,SPECI,,320,26,36.0,320/47KTS,1600.0,Light Snow/Mist,0.0,-2.0,29.83,1011.3,,,,71,10,,,,,,,,,,8/8 Overcast,800.0,,BKN,800,OVC,900.0,,,,
KRDR,10-26-2008,14:12,SPECI,,320,25,37.0,320/37KTS,1200.0,Light Snow/Mist,0.0,-2.0,29.83,1011.1,,,,71,10,,,,,,,,,,8/8 Overcast,900.0,,SCT,700,BKN,900.0,OVC,1200.0,,
KRDR,10-26-2008,14:00,METAR,,320,28,40.0,310/42KTS,2000.0,Light Snow/Mist,0.0,-2.0,29.81,1010.7,,,,71,10,,,,,,TRACE,,,,8/8 Overcast,1200.0,,FEW,700,BKN,1200.0,OVC,2000.0,,
KRDR,10-26-2008,13:33,SPECI,,320,24,36.0,310/42KTS,4000.0,Light Snow/Mist,1.0,-2.0,29.78,1010.0,,,,71,10,,,,,,,,,,8/8 Overcast,1300.0,,BKN,1300,OVC,2000.0,,,,
KRDR,10-26-2008,13:16,SPECI,,320,24,39.0,310/42KTS,6400.0,Light Snow,1.0,-1.0,29.76,1009.3,,,,71,,,,,,,,,,,8/8 Overcast,2000.0,,SCT,900,OVC,2000.0,,,,
KRDR,10-26-2008,13:00,METAR,,320,27,34.0,310/45KTS,4800.0,Light Snow,1.0,-1.0,29.75,1008.8,,,,71,,,,,,,.01 IN,,,,8/8 Overcast,1900.0,,BKN,1900,OVC,2500.0,,,,
KRDR,10-26-2008,12:00,METAR,,320,27,41.0,300/43KTS,8000.0,Light Snow,1.0,-1.0,29.71,1007.2,,,,71,,,,,,,.01 IN,,.05 IN,.05 IN,8/8 Overcast,1800.0,,SCT,1000,BKN,1800.0,OVC,2500.0,,
KRDR,10-26-2008,11:29,SPECI,,310,26,39.0,310/43KTS,4800.0,Light Snow/Rain/Mist,1.0,-1.0,29.68,1006.4,,,,61,71,10,,,,,,,,,8/8 Overcast,1500.0,,BKN,1500,OVC,2100.0,,,,
KRDR,10-26-2008,11:22,SPECI,,310,28,40.0,310/43KTS,3200.0,Light Snow/Rain/Mist,1.0,-1.0,29.68,1006.3,,,,61,71,10,,,,,,,,,8/8 Overcast,1000.0,,BKN,1000,OVC,1600.0,,,,
KRDR,10-26-2008,11:06,SPECI,,310,30,43.0,310/43KTS,3200.0,Light Snow/Rain/Mist,1.0,0.0,29.68,1006.2,,,,61,71,10,,,,,,,,,8/8 Overcast,1000.0,,SCT,900,OVC,1000.0,,,,
KRDR,10-26-2008,11:00,METAR,,310,30,43.0,310/43KTS,4800.0,Light Snow/Rain/Mist,1.0,0.0,29.67,1005.8,,,,61,71,10,,,,,.04 IN,,,,8/8 Overcast,1100.0,,FEW,700,OVC,1100.0,,,,
KRDR,10-26-2008,10:35,SPECI,,310,23,36.0,300/36KTS,9999.0,Light Snow/Rain,2.0,0.0,29.65,1005.4,,,,61,71,,,,,,,,,,8/8 Overcast,1300.0,,FEW,700,SCT,1100.0,OVC,1300.0,,
KRDR,10-26-2008,10:00,METAR,,310,21,34.0,300/40KTS,9999.0,Rain,3.0,1.0,29.64,1004.8,,,,61,,,,,,,TRACE,,,,8/8 Overcast,1400.0,,BKN,1400,OVC,4900.0,,,,
KRDR,10-26-2008,09:30,SPECI,,310,21,34.0,,9999.0,Rain,3.0,0.0,29.62,,,,,61,,,,,,,,,,,8/8 Overcast,2100.0,,BKN,2100,OVC,4800.0,,,,
KRDR,10-26-2008,09:00,METAR,,300,19,36.0,320/48KTS,9999.0,Rain,4.0,0.0,29.62,1004.4,,,,61,,,,,,,,TRACE,,,8/8 Overcast,3900.0,,FEW,2400,BKN,4000.0,OVC,6900.0,,
KRDR,10-26-2008,08:00,METAR,,310,24,33.0,310/33KTS,9999.0,,5.0,-1.0,29.59,1003.5,,,,,,,,,,,,,,,2/8 Mostly Clear,72000.0,,FEW,3800,,,,,,
KRDR,10-26-2008,07:00,METAR,,310,19,29.0,310/36KTS,9999.0,,6.0,-1.0,29.57,1002.8,,,,,,,,,,,TRACE,,,,8/8 Overcast,4400.0,,OVC,4500,,,,,,
KRDR,10-26-2008,06:32,SPECI,,310,22,36.0,310/36KTS,9999.0,,6.0,0.0,29.57,1002.6,,,,,,,,,,,,,,,8/8 Overcast,4300.0,,OVC,4400,,,,,,
KRDR,10-26-2008,06:27,SPECI,,310,24,36.0,310/36KTS,9999.0,Unknown Precipitation,6.0,0.0,29.56,1002.5,40,,,,,,,,,,,,,,8/8 Overcast,4100.0,,OVC,4200,,,,,,
KRDR,10-26-2008,06:00,METAR,,310,20,29.0,310/31KTS,9999.0,,7.0,0.0,29.55,1001.9,,,,,,,,,,,,,TRACE,,8/8 Overcast,6000.0,,OVC,5900,,,,,,
KRDR,10-26-2008,05:00,METAR,,310,15,26.0,310/26KTS,9999.0,,8.0,-1.0,29.52,1001.1,,,,,,,,,,,TRACE,,,,8/8 Overcast,6000.0,,OVC,5900,,,,,,
KRDR,10-26-2008,04:36,SPECI,,300,12,24.0,,9999.0,,8.0,-1.0,29.52,1000.9,,,,,,,,,,,,,,,8/8 Overcast,6000.0,,OVC,5900,,,,,,
KRDR,10-26-2008,04:27,SPECI,,290,15,21.0,,9999.0,,8.0,-1.0,29.52,1000.9,,,,,,,,,,,,,,,8/8 Overcast,6000.0,,FEW,4700,OVC,5900.0,,,,
KRDR,10-26-2008,04:00,METAR,,300,13,24.0,,9999.0,,8.0,-1.0,29.51,1000.8,,,,,,,,,,,,,,,8/8 Overcast,7000.0,,OVC,6900,,,,,,
KRDR,10-26-2008,03:00,METAR,,310,13,18.0,,9999.0,,8.0,-2.0,29.50,1000.5,,,,,,,,,,,,,,,7/8 Mostly Cloudy,9500.0,,FEW,6400,SCT,7400.0,BKN,9400.0,,
KRDR,10-26-2008,02:00,METAR,,300,12,21.0,310/30KTS,9999.0,,9.0,-2.0,29.48,999.8,,,,,,,,,,,,,,,2/8 Mostly Clear,72000.0,,FEW,8400,,,,,,
KRDR,10-26-2008,01:00,METAR,,310,9,,320/30KTS,9999.0,,8.0,0.0,29.49,1000.0,,,,,,,,,,,,,,,4/8 Partly Cloudy,72000.0,,SCT,5900,,,,,,
KRDR,10-26-2008,00:00,METAR,,290,16,24.0,,9999.0,,10.0,-1.0,29.46,999.0,,,,,,,,,,,,,TRACE,,Clear,72000.0,,,73000,,,,,,
KRDR,10-25-2008,23:00,METAR,,300,17,26.0,290/31KTS,9999.0,,11.0,-1.0,29.45,998.8,,,,,,,,,,,,,,,Clear,72000.0,,,73000,,,,,,
KRDR,10-25-2008,22:00,METAR,,290,18,26.0,290/34KTS,9999.0,,12.0,0.0,29.44,998.3,,,,,,,,,,,,,,,Clear,72000.0,,,73000,,,,,,
KRDR,10-25-2008,21:00,METAR,,290,20,31.0,300/33KTS,9999.0,,13.0,0.0,29.43,998.0,,,,,,,,,,,,TRACE,,,Clear,72000.0,,,73000,,,,,,
KRDR,10-25-2008,20:00,METAR,,300,18,34.0,310/34KTS,9999.0,,14.0,0.0,29.42,997.7,,,,,,,,,,,TRACE,,,,Clear,72000.0,,,73000,,,,,,
KRDR,10-25-2008,19:22,SPECI,,290,21,32.0,310/33KTS,9999.0,,15.0,0.0,29.42,997.8,,,,,,,,,,,,,,,Clear,72000.0,,,73000,,,,,,
KRDR,10-25-2008,19:18,SPECI,,300,19,32.0,310/33KTS,9999.0,,14.0,0.0,29.42,997.8,,,,,,,,,,,,,,,Clear,72000.0,,,73000,,,,,,
KRDR,10-25-2008,19:13,SPECI,,300,19,32.0,310/33KTS,9999.0,,14.0,0.0,29.42,997.7,,,,,,,,,,,,,,,Clear,72000.0,,,73000,,,,,,
KRDR,10-25-2008,19:00,METAR,,300,22,29.0,300/29KTS,9999.0,,15.0,0.0,29.42,997.7,,,,,,,,,,,,,,,Clear,72000.0,,,73000,,,,,,
KRDR,10-25-2008,18:00,METAR,,300,18,24.0,320/26KTS,9999.0,,14.0,1.0,29.42,997.9,,,,,,,,,,,,,TRACE,,Clear,72000.0,,,73000,,,,,,
KRDR,10-25-2008,17:00,METAR,,300,11,,,9999.0,,13.0,2.0,29.44,998.3,,,,,,,,,,,,,,,Clear,72000.0,,,73000,,,,,,
KRDR,10-25-2008,16:00,METAR,,300,10,,,9999.0,,11.0,1.0,29.44,998.2,,,,,,,,,,,,,,,Clear,72000.0,,,73000,,,,,,
KRDR,10-25-2008,15:00,METAR,,300,8,,,9999.0,,7.0,1.0,29.41,997.5,,,,,,,,,,,,TRACE,,,Clear,72000.0,,,73000,,,,,,
KRDR,10-25-2008,14:00,METAR,,290,12,,,9999.0,,6.0,0.0,29.42,997.8,,,,,,,,,,,,,,,2/8 Mostly Clear,72000.0,,FEW,12000,,,,,,
KRDR,10-25-2008,13:00,METAR,,260,9,,,9999.0,,5.0,-1.0,29.40,997.0,,,,,,,,,,,TRACE,,,,Clear,72000.0,,,73000,,,,,,
KRDR,10-25-2008,12:38,SPECI,,260,11,,,9999.0,,6.0,-1.0,29.40,997.2,,,,,,,,,,,,,,,Clear,72000.0,,,73000,,,,,,
KRDR,10-25-2008,12:00,METAR,,260,10,,,9999.0,,5.0,-1.0,29.42,997.8,,,,,,,,,,,TRACE,,TRACE,,Clear,72000.0,,,73000,,,,,,
KRDR,10-25-2008,11:00,METAR,,240,9,,,9999.0,,5.0,-1.0,29.46,998.9,,,,,,,,,,,,,,,Clear,72000.0,,,73000,,,,,,
KRDR,10-25-2008,10:00,METAR,,220,9,,,9999.0,,4.0,-1.0,29.48,999.7,,,,,,,,,,,,,,,Clear,72000.0,,,73000,,,,,,
KRDR,10-25-2008,09:00,METAR,,220,9,,,9999.0,,5.0,-1.0,29.52,1001.1,,,,,,,,,,,,,,,Clear,72000.0,,,73000,,,,,,
KRDR,10-25-2008,08:00,METAR,,220,9,,,9999.0,,5.0,-1.0,29.57,1002.5,,,,,,,,,,,,,,,Clear,72000.0,,,73000,,,,,,
KRDR,10-25-2008,07:00,METAR,,210,5,,,9999.0,,2.0,-1.0,29.61,1003.9,,,,,,,,,,,,,,,Clear,72000.0,,,73000,,,,,,
KRDR,10-25-2008,06:00,METAR,,220,7,,,9999.0,,2.0,-1.0,29.65,1005.4,,,,,,,,,,,,,,,Clear,72000.0,,,73000,,,,,,
KRDR,10-25-2008,05:00,METAR,,210,5,,,9999.0,,1.0,-1.0,29.68,1006.3,,,,,,,,,,,,,,,Clear,72000.0,,,73000,,,,,,
KRDR,10-25-2008,04:00,METAR,,270,4,,,9999.0,,0.0,-1.0,29.71,1007.2,,,,,,,,,,,,,,,Clear,72000.0,,,73000,,,,,,
KRDR,10-25-2008,03:00,METAR,,230,3,,,9999.0,,2.0,0.0,29.73,1007.8,,,,,,,,,,,,,,,Clear,72000.0,,,73000,,,,,,
KRDR,10-25-2008,02:00,METAR,,270,5,,,9999.0,,2.0,0.0,29.75,1008.6,,,,,,,,,,,,,,,Clear,72000.0,,,73000,,,,,,
KRDR,10-25-2008,01:00,METAR,,290,5,,,9999.0,,2.0,1.0,29.77,1009.3,,,,,,,,,,,,,,,2/8 Mostly Clear,72000.0,,FEW,20000,,,,,,
KRDR,10-25-2008,00:00,METAR,,,0,,,9999.0,,9.0,4.0,29.78,1009.6,,,,,,,,,,,,,,,2/8 Mostly Clear,72000.0,,FEW,20000,,,,,,
KRDR,10-24-2008,23:00,METAR,,10,6,,,9999.0,,10.0,3.0,29.80,1010.2,,,,,,,,,,,,,,,4/8 Partly Cloudy,72000.0,,SCT,20000,,,,,,
KRDR,10-24-2008,22:00,METAR,,10,7,,,9999.0,,13.0,2.0,29.81,1010.6,,,,,,,,,,,,,,,4/8 Partly Cloudy,72000.0,,SCT,20000,,,,,,
KRDR,10-24-2008,21:00,METAR,,20,7,,,9999.0,,14.0,3.0,29.81,1010.6,,,,,,,,,,,,,,,Clear,72000.0,,,73000,,,,,,
KRDR,10-24-2008,20:00,METAR,,330,6,,,9999.0,,13.0,3.0,29.82,1010.9,,,,,,,,,,,,,,,7/8 Mostly Cloudy,20000.0,,SCT,7900,BKN,20000.0,,,,
KRDR,10-24-2008,19:00,METAR,,270,4,,,9999.0,,12.0,3.0,29.86,1012.1,,,,,,,,,,,,,,,7/8 Mostly Cloudy,20000.0,,SCT,7900,BKN,20000.0,,,,
KRDR,10-24-2008,18:00,METAR,,260,6,,,9999.0,,11.0,3.0,29.88,1012.8,,,,,,,,,,,,,,,7/8 Mostly Cloudy,20000.0,,SCT,7900,BKN,20000.0,,,,
KRDR,10-24-2008,17:00,METAR,,210,3,,,9999.0,,8.0,4.0,29.90,1013.6,,,,,,,,,,,,,,,8/8 Overcast,20000.0,,FEW,7900,SCT,9900.0,OVC,20000.0,,
KRDR,10-24-2008,16:00,METAR,,250,6,,,9999.0,,7.0,4.0,29.90,1013.6,,,,,,,,,,,,,,,8/8 Overcast,12000.0,,SCT,6400,BKN,12000.0,OVC,20000.0,,
KRDR,10-24-2008,15:00,METAR,,220,7,,,9999.0,,6.0,4.0,29.92,1014.6,,,,,,,,,,,,,,,8/8 Overcast,8000.0,,BKN,7900,BKN,14000.0,OVC,20000.0,,
KRDR,10-24-2008,14:00,METAR,,220,4,,,9999.0,,5.0,4.0,29.92,1014.5,,,,,,,,,,,,,,,7/8 Mostly Cloudy,14000.0,,SCT,3900,SCT,11000.0,BKN,14000.0,,
KRDR,10-24-2008,13:00,METAR,,200,7,,,9999.0,,5.0,4.0,29.92,1014.2,,,,,,,,,,,,,,,7/8 Mostly Cloudy,12000.0,,SCT,3900,BKN,12000.0,,,,
KRDR,10-24-2008,12:42,SPECI,,190,8,,,9999.0,,5.0,4.0,29.93,1014.6,,,,,,,,,,,,,,,Clear,72000.0,,,73000,,,,,,
KRDR,10-24-2008,12:00,METAR,,190,7,,,9999.0,,5.0,4.0,29.92,1014.7,,,,,,,,,,,,,,,7/8 Mostly Cloudy,12000.0,,SCT,3700,BKN,12000.0,,,,
KRDR,10-24-2008,11:00,METAR,,180,8,,,9999.0,,5.0,4.0,29.95,1015.2,,,,,,,,,,,,,,,8/8 Overcast,3600.0,,OVC,3700,,,,,,
KRDR,10-24-2008,10:00,METAR,,160,9,,,9999.0,,5.0,4.0,29.94,1015.1,,,,,,,,,,,,,,,7/8 Mostly Cloudy,12000.0,,BKN,12000,,,,,,
KRDR,10-24-2008,09:00,METAR,,210,4,,,9999.0,,6.0,4.0,29.96,1015.7,,,,,,,,,,,,,,,7/8 Mostly Cloudy,10000.0,,BKN,9900,,,,,,
KRDR,10-24-2008,08:00,METAR,,220,7,,,9999.0,,7.0,4.0,29.99,1016.5,,,,,,,,,,,,,,,8/8 Overcast,7000.0,,FEW,3800,OVC,6900.0,,,,
KRDR,10-24-2008,07:00,METAR,,220,9,,,9999.0,,7.0,4.0,30.02,1017.5,,,,,,,,,,,,,,,7/8 Mostly Cloudy,6500.0,,BKN,6400,BKN,20000.0,,,,
KRDR,10-24-2008,06:00,METAR,,180,13,,,9999.0,,8.0,3.0,30.00,1016.8,,,,,,,,,,,,,,,7/8 Mostly Cloudy,9500.0,,BKN,9400,BKN,20000.0,,,,
KRDR,10-24-2008,05:00,METAR,,170,15,,,9999.0,,8.0,4.0,30.02,1017.4,,,,,,,,,,,,,,,7/8 Mostly Cloudy,20000.0,,SCT,5400,BKN,20000.0,,,,
KRDR,10-24-2008,04:00,METAR,,170,9,,,9999.0,,7.0,5.0,30.04,1018.1,,,,,,,,,,,,,,,8/8 Overcast,9000.0,,OVC,8900,,,,,,
KRDR,10-24-2008,03:00,METAR,,180,5,,,9999.0,,6.0,5.0,30.04,1018.0,,,,,,,,,,,,,,,7/8 Mostly Cloudy,20000.0,,SCT,7400,BKN,20000.0,,,,
KRDR,10-24-2008,02:00,METAR,,210,4,,,9999.0,,5.0,4.0,30.05,1018.6,,,,,,,,,,,,,,,7/8 Mostly Cloudy,20000.0,,FEW,5900,SCT,7900.0,BKN,20000.0,,
KRDR,10-24-2008,01:00,METAR,,,0,,,9999.0,,4.0,3.0,30.08,1019.5,,,,,,,,,,,,,,,Clear,72000.0,,,73000,,,,,,
KRDR,10-24-2008,00:00,METAR,,210,3,,,9999.0,,6.0,4.0,30.08,1019.6,,,,,,,,,,,,,,,2/8 Mostly Clear,72000.0,,FEW,5900,,,,,,
KRDR,10-23-2008,23:00,METAR,,200,4,,,9999.0,,9.0,5.0,30.09,1019.8,,,,,,,,,,,,,,,2/8 Mostly Clear,72000.0,,FEW,5900,,,,,,
KRDR,10-23-2008,22:00,METAR,,210,7,,,9999.0,,10.0,4.0,30.10,1020.1,,,,,,,,,,,,,,,2/8 Mostly Clear,72000.0,,FEW,7900,,,,,,
KRDR,10-23-2008,21:00,METAR,,210,8,,,9999.0,,11.0,4.0,30.13,1021.1,,,,,,,,,,,,,,,4/8 Partly Cloudy,72000.0,,FEW,5000,SCT,20000.0,,,,
KRDR,10-23-2008,20:00,METAR,,190,9,,,9999.0,,11.0,4.0,30.14,1021.5,,,,,,,,,,,,,,,2/8 Mostly Clear,72000.0,,FEW,3000,,,,,,
KRDR,10-23-2008,19:00,METAR,,170,8,,,9999.0,,10.0,4.0,30.16,1022.2,,,,,,,,,,,,,,,4/8 Partly Cloudy,72000.0,,SCT,2200,,,,,,
KRDR,10-23-2008,18:10,SPECI,,150,7,,,9999.0,,9.0,4.0,30.18,,,,,,,,,,,,,,,,4/8 Partly Cloudy,72000.0,,SCT,1500,,,,,,
KRDR,10-23-2008,18:00,METAR,,150,6,,,9999.0,,8.0,4.0,30.19,1023.0,,,,,,,,,,,,,,,7/8 Mostly Cloudy,1500.0,,BKN,1500,,,,,,
KRDR,10-23-2008,17:00,METAR,,170,4,,,9999.0,,7.0,3.0,30.23,1024.4,,,,,,,,,,,,,,,4/8 Partly Cloudy,72000.0,,SCT,1300,SCT,20000.0,,,,
KRDR,10-23-2008,16:00,METAR,,160,5,,,9999.0,,6.0,4.0,30.25,1025.0,,,,,,,,,,,,,,,4/8 Partly Cloudy,72000.0,,FEW,500,SCT,1600.0,SCT,5900.0,,
KRDR,10-23-2008,15:00,METAR,,170,9,,,9999.0,,5.0,5.0,30.28,1026.2,,,,,,,,,,,,,,,4/8 Partly Cloudy,72000.0,,SCT,1600,SCT,5400.0,,,,
KRDR,10-23-2008,14:00,METAR,,180,4,,,9999.0,Mist,3.0,3.0,30.28,1026.0,,,,10,,,,,,,,,,,4/8 Partly Cloudy,72000.0,,SCT,5400,SCT,20000.0,,,,
KRDR,10-23-2008,13:00,METAR,,150,6,,,8000.0,Mist,3.0,3.0,30.28,1026.2,,,,10,,,,,,,,,,,7/8 Mostly Cloudy,5500.0,,BKN,5400,,,,,,
KRDR,10-23-2008,12:48,SPECI,,140,6,,,2800.0,Mist,3.0,3.0,30.29,1026.2,,,,10,,,,,,,,,,,7/8 Mostly Cloudy,6000.0,,BKN,5900,,,,,,
KRDR,10-23-2008,12:45,SPECI,,140,6,,,4800.0,Mist,3.0,3.0,30.29,1026.3,,,,10,,,,,,,,,,,7/8 Mostly Cloudy,5500.0,,BKN,5400,,,,,,
KRDR,10-23-2008,12:44,SPECI,,140,6,,,2400.0,Mist,3.0,3.0,30.29,1026.3,,,,10,,,,,,,,,,,7/8 Mostly Cloudy,6000.0,,BKN,5900,,,,,,
KRDR,10-23-2008,12:40,SPECI,,140,5,,,1600.0,Mist,3.0,3.0,30.29,,,,,10,,,,,,,,,,,7/8 Mostly Cloudy,6000.0,,BKN,5900,,,,,,
KRDR,10-23-2008,12:13,SPECI,,120,3,,,800.0,Fog or Ice Fog,2.0,2.0,30.29,1026.6,,,,44,,,,,,,,,,,4/8 Partly Cloudy,72000.0,,SCT,5900,,,,,,
KRDR,10-23-2008,12:07,SPECI,,120,3,,,1200.0,Mist,2.0,2.0,30.29,1026.6,,,,10,,,,,,,,,,,4/8 Partly Cloudy,72000.0,,SCT,5900,,,,,,
KRDR,10-23-2008,12:00,METAR,,130,4,,,1600.0,Mist,3.0,3.0,30.30,1026.6,,,,10,,,,,,,,,,.04 IN,4/8 Partly Cloudy,72000.0,,FEW,3900,SCT,9400.0,,,,
KRDR,10-23-2008,11:44,SPECI,,130,4,,,1600.0,Mist,3.0,3.0,30.29,1026.5,,,,10,,,,,,,,,,,4/8 Partly Cloudy,72000.0,,SCT,9400,,,,,,
KRDR,10-23-2008,11:00,METAR,,,0,,,9999.0,Mist,4.0,4.0,30.30,1026.7,10,,,,,,,,,,,,,,8/8 Overcast,9500.0,,FEW,3700,OVC,9400.0,,,,
KRDR,10-23-2008,10:02,SPECI,,140,3,,,9999.0,Mist,4.0,4.0,30.31,1027.0,10,,,,,,,,,,,,,,8/8 Overcast,3700.0,,FEW,300,OVC,3800.0,,,,
KRDR,10-23-2008,10:00,METAR,,,0,,,9999.0,,4.0,4.0,30.31,1027.1,,,,,,,,,,,,,,,8/8 Overcast,3600.0,,OVC,3700,,,,,,
KRDR,10-23-2008,09:53,SPECI,,,0,,,9999.0,,4.0,4.0,30.31,1027.0,,,,,,,,,,,,,,,8/8 Overcast,3600.0,,FEW,300,OVC,3700.0,,,,
KRDR,10-23-2008,09:31,SPECI,,150,4,,,9999.0,,4.0,4.0,30.32,1027.3,,,,,,,,,,,,,,,8/8 Overcast,3500.0,,OVC,3600,,,,,,
KRDR,10-23-2008,09:07,SPECI,,170,5,,,9999.0,,4.0,4.0,30.33,1027.6,,,,,,,,,,,,,,,7/8 Mostly Cloudy,3400.0,,SCT,2300,BKN,3500.0,,,,
KRDR,10-23-2008,09:04,SPECI,,170,5,,,9999.0,,4.0,4.0,30.33,1027.7,,,,,,,,,,,,,,,7/8 Mostly Cloudy,2100.0,,BKN,2700,,,,,,
KRDR,10-23-2008,09:02,SPECI,,170,5,,,9999.0,,4.0,4.0,30.33,1027.7,,,,,,,,,,,,,,,7/8 Mostly Cloudy,2000.0,,BKN,2700,,,,,,
KRDR,10-23-2008,09:00,METAR,,180,4,,,9999.0,,5.0,4.0,30.33,1027.8,,,,,,,,,,,,,,,8/8 Overcast,2100.0,,OVC,2100,,,,,,
KRDR,10-23-2008,08:00,METAR,,180,5,,,9999.0,,5.0,4.0,30.34,1028.0,,,,,,,,,,,,,,,8/8 Overcast,2000.0,,FEW,1000,OVC,2000.0,,,,
KRDR,10-23-2008,07:28,SPECI,,,0,,,9999.0,,5.0,4.0,30.34,1028.0,,,,,,,,,,,,,,,8/8 Overcast,1600.0,,FEW,400,OVC,1600.0,,,,
KRDR,10-23-2008,07:02,SPECI,,170,4,,,9999.0,,5.0,4.0,30.34,1028.1,,,,,,,,,,,,,,,8/8 Overcast,1800.0,,OVC,1800,,,,,,
KRDR,10-23-2008,07:00,METAR,,180,5,,,9999.0,,5.0,4.0,30.35,1028.3,,,,,,,,,,,,,,,8/8 Overcast,1900.0,,OVC,1900,,,,,,
KRDR,10-23-2008,06:00,METAR,,170,5,,,9999.0,,5.0,4.0,30.35,1028.3,,,,,,,,,,,,,TRACE,,8/8 Overcast,1800.0,,OVC,1800,,,,,,
KRDR,10-23-2008,05:00,METAR,,180,5,,,9999.0,,5.0,4.0,30.35,1028.3,,,,,,,,,,,,,,,8/8 Overcast,1500.0,,FEW,800,OVC,1500.0,,,,
KRDR,10-23-2008,04:00,METAR,,150,5,,,9999.0,,5.0,5.0,30.35,1028.3,,,,,,,,,,,TRACE,,,,8/8 Overcast,900.0,,FEW,500,OVC,900.0,,,,
KRDR,10-23-2008,03:15,SPECI,,180,4,,,9999.0,,5.0,4.0,30.35,1028.3,,,,,,,,,,,,,,,8/8 Overcast,800.0,,FEW,400,OVC,800.0,,,,
KRDR,10-23-2008,03:05,SPECI,,180,5,,,9999.0,Drizzle,5.0,4.0,30.34,1028.1,,,,51,,,,,,,,,,,8/8 Overcast,800.0,,FEW,400,OVC,800.0,,,,
KRDR,10-23-2008,03:00,METAR,,190,5,,,9999.0,Drizzle,5.0,4.0,30.34,1028.0,,,,51,,,,,,,TRACE,TRACE,,,8/8 Overcast,400.0,,OVC,400,,,,,,
KRDR,10-23-2008,02:47,SPECI,,160,3,,,9999.0,Drizzle,5.0,5.0,30.34,1028.0,,,,51,,,,,,,,,,,8/8 Overcast,400.0,,OVC,400,,,,,,
KRDR,10-23-2008,02:35,SPECI,,150,7,,,9999.0,Drizzle,5.0,5.0,30.34,1028.1,,,,51,,,,,,,,,,,8/8 Overcast,600.0,,FEW,400,OVC,600.0,,,,
KRDR,10-23-2008,02:00,METAR,,170,6,,,9999.0,Drizzle,5.0,5.0,30.34,1028.0,,,,51,,,,,,,TRACE,,,,8/8 Overcast,800.0,,FEW,400,OVC,800.0,,,,
KRDR,10-23-2008,01:41,SPECI,,180,10,,,9999.0,Drizzle,6.0,5.0,30.35,1028.2,,,,51,,,,,,,,,,,8/8 Overcast,800.0,,FEW,400,OVC,800.0,,,,
KRDR,10-23-2008,01:07,SPECI,,150,5,,,9999.0,Mist,6.0,6.0,30.34,1028.1,,,,10,,,,,,,,,,,8/8 Overcast,800.0,,FEW,400,OVC,800.0,,,,
KRDR,10-23-2008,01:00,METAR,,160,4,,,9999.0,Mist,6.0,6.0,30.34,1028.1,,,,10,,,,,,,TRACE,,,,8/8 Overcast,1000.0,,FEW,400,OVC,1000.0,,,,
KRDR,10-23-2008,00:50,SPECI,,160,4,,,9999.0,Mist,6.0,6.0,30.34,1028.1,,,,10,,,,,,,,,,,8/8 Overcast,1000.0,,SCT,400,BKN,1000.0,OVC,2000.0,,
KRDR,10-23-2008,00:42,SPECI,,130,4,,,9999.0,Mist,6.0,6.0,30.34,1028.0,,,,10,,,,,,,,,,,8/8 Overcast,1300.0,,FEW,500,OVC,1300.0,,,,
KRDR,10-23-2008,00:31,SPECI,,120,6,,,9999.0,Fog or Ice Fog,6.0,6.0,30.34,1028.0,,,,40,,,,,,,,,,,8/8 Overcast,2100.0,,OVC,2100,,,,,,
KRDR,10-23-2008,00:00,METAR,,50,6,,,6400.0,Mist,6.0,6.0,30.33,1027.7,,,,10,,,,,,,TRACE,,TRACE,,8/8 Overcast,1500.0,,FEW,600,BKN,1500.0,OVC,3000.0,,
KRDR,10-22-2008,23:47,SPECI,,40,6,,,6400.0,Mist,6.0,6.0,30.33,1027.7,,,,10,,,,,,,,,,,8/8 Overcast,1500.0,,FEW,800,BKN,1500.0,OVC,3500.0,,
KRDR,10-22-2008,23:33,SPECI,,40,6,,,4800.0,Mist,6.0,6.0,30.32,1027.5,,,,10,,,,,,,,,,,8/8 Overcast,1700.0,,FEW,800,OVC,1700.0,,,,
KRDR,10-22-2008,23:03,SPECI,,30,6,,,2400.0,Rain/Mist,6.0,6.0,30.32,1027.4,,,,61,10,,,,,,,,,,8/8 Overcast,1000.0,,SCT,600,OVC,1000.0,,,,
KRDR,10-22-2008,23:00,METAR,,30,6,,,3200.0,Drizzle/Mist,6.0,6.0,30.32,1027.4,,,,51,10,,,,,,TRACE,,,,8/8 Overcast,1400.0,,SCT,600,OVC,1400.0,,,,
KRDR,10-22-2008,22:45,SPECI,,40,6,,,4000.0,Rain/Mist,7.0,6.0,30.32,1027.3,,,,61,10,,,,,,,,,,8/8 Overcast,1700.0,,SCT,700,OVC,1700.0,,,,
KRDR,10-22-2008,22:36,SPECI,,50,8,,,6400.0,Rain/Mist,7.0,5.0,30.31,1027.1,,,,61,10,,,,,,,,,,8/8 Overcast,1500.0,,FEW,800,OVC,1500.0,,,,
KRDR,10-22-2008,22:35,SPECI,,50,8,,,6400.0,Rain/Mist,7.0,5.0,30.31,1027.1,,,,61,10,,,,,,,,,,8/8 Overcast,1500.0,,FEW,800,OVC,1500.0,,,,
KRDR,10-22-2008,22:00,METAR,,40,5,,,9999.0,,7.0,5.0,30.31,1026.9,,,,,,,,,,,,,,,8/8 Overcast,3000.0,,SCT,1500,OVC,3000.0,,,,
KRDR,10-22-2008,21:00,METAR,,30,8,,,9999.0,,8.0,5.0,30.30,1026.7,,,,,,,,,,,,,,,8/8 Overcast,3000.0,,SCT,1800,OVC,3000.0,,,,
KRDR,10-22-2008,20:00,METAR,,30,6,,,9999.0,,8.0,5.0,30.30,1026.6,,,,,,,,,,,,,,,8/8 Overcast,1800.0,,BKN,1800,OVC,3000.0,,,,
KRDR,10-22-2008,19:00,METAR,,350,5,,,9999.0,,8.0,5.0,30.29,1026.5,,,,,,,,,,,,,,,8/8 Overcast,1600.0,,BKN,1600,OVC,3000.0,,,,
KRDR,10-22-2008,18:26,SPECI,,10,4,,,9999.0,,8.0,5.0,30.30,,,,,,,,,,,,,,,,8/8 Overcast,1800.0,,BKN,1800,OVC,3900.0,,,,
KRDR,10-22-2008,18:00,METAR,,360,5,,,9999.0,,8.0,5.0,30.30,1026.7,,,,,,,,,,,,,.04 IN,,8/8 Overcast,3000.0,,FEW,1200,OVC,3000.0,,,,
KRDR,10-22-2008,17:03,SPECI,,320,5,,,9999.0,,7.0,5.0,30.31,,,,,,,,,,,,,,,,8/8 Overcast,2700.0,,SCT,1200,OVC,2700.0,,,,
KRDR,10-22-2008,17:00,METAR,,320,3,,,9999.0,,7.0,5.0,30.31,1026.9,,,,,,,,,,,TRACE,,,,8/8 Overcast,900.0,,BKN,900,BKN,1300.0,OVC,3400.0,,
KRDR,10-22-2008,16:00,METAR,,210,5,,,8000.0,Rain/Mist,6.0,5.0,30.30,1026.6,,,,61,10,,,,,,.03 IN,,,,8/8 Overcast,800.0,,BKN,800,OVC,1300.0,,,,
KRDR,10-22-2008,15:00,METAR,,190,7,,,6400.0,Rain/Mist,5.0,5.0,30.29,1026.2,,,,61,10,,,,,,.01 IN,.01 IN,,,8/8 Overcast,600.0,,OVC,600,,,,,,
KRDR,10-22-2008,14:00,METAR,,200,5,,,8000.0,Drizzle/Mist,5.0,5.0,30.27,1025.7,,,,51,10,,,,,,TRACE,,,,8/8 Overcast,800.0,,BKN,800,OVC,1400.0,,,,
KRDR,10-22-2008,13:00,METAR,,190,5,,,6400.0,Rain/Mist,5.0,4.0,30.25,1025.0,,,,61,10,,,,,,,,,,8/8 Overcast,500.0,,OVC,500,,,,,,
KRDR,10-22-2008,12:00,METAR,,180,7,,,8000.0,Mist,4.0,4.0,30.24,1024.6,,,,10,,,,,,,,,TRACE,.13 IN,8/8 Overcast,600.0,,OVC,600,,,,,,
KRDR,10-22-2008,11:29,SPECI,,170,6,,,8000.0,Drizzle/Mist,4.0,4.0,30.23,,,,,51,10,,,,,,,,,,8/8 Overcast,800.0,,OVC,800,,,,,,
KRDR,10-22-2008,11:00,METAR,,160,6,,,9999.0,,4.0,4.0,30.22,1024.2,,,,,,,,,,,,,,,8/8 Overcast,600.0,,OVC,600,,,,,,
KRDR,10-22-2008,10:45,SPECI,,160,8,,,9999.0,,4.0,4.0,30.22,1024.1,,,,,,,,,,,,,,,8/8 Overcast,600.0,,OVC,600,,,,,,
KRDR,10-22-2008,10:00,METAR,,170,8,,,9999.0,,4.0,4.0,30.21,1023.7,,,,,,,,,,,,,,,8/8 Overcast,1000.0,,OVC,1000,,,,,,
KRDR,10-22-2008,09:43,SPECI,,180,11,,,9999.0,,4.0,4.0,30.21,1023.8,,,,,,,,,,,,,,,8/8 Overcast,1100.0,,OVC,1100,,,,,,
KRDR,10-22-2008,09:39,SPECI,,170,8,,,9999.0,,4.0,4.0,30.21,1023.8,,,,,,,,,,,,,,,8/8 Overcast,1200.0,,OVC,1200,,,,,,
KRDR,10-22-2008,09:26,SPECI,,170,10,,,9999.0,,4.0,4.0,30.21,1023.7,,,,,,,,,,,,,,,8/8 Overcast,1100.0,,OVC,1100,,,,,,
KRDR,10-22-2008,09:00,METAR,,160,9,,,9999.0,,4.0,3.0,30.17,1022.6,,,,,,,,,,,,TRACE,,,8/8 Overcast,1200.0,,OVC,1200,,,,,,
KRDR,10-22-2008,08:47,SPECI,,170,9,,,9999.0,,4.0,3.0,30.18,1022.7,,,,,,,,,,,,,,,8/8 Overcast,1400.0,,OVC,1400,,,,,,
KRDR,10-22-2008,08:13,SPECI,,170,11,,,9999.0,,4.0,3.0,30.19,1023.2,,,,,,,,,,,,,,,7/8 Mostly Cloudy,1600.0,,BKN,1600,,,,,,
KRDR,10-22-2008,08:00,METAR,,170,11,18.0,,9999.0,,4.0,3.0,30.20,1023.3,,,,,,,,,,,,,,,8/8 Overcast,1400.0,,OVC,1400,,,,,,
KRDR,10-22-2008,07:39,SPECI,,170,13,,,9999.0,,4.0,3.0,30.19,1023.2,,,,,,,,,,,,,,,8/8 Overcast,1400.0,,OVC,1400,,,,,,
KRDR,10-22-2008,07:00,METAR,,170,17,,,9999.0,,4.0,3.0,30.19,1023.0,,,,,,,,,,,TRACE,,,,8/8 Overcast,1500.0,,OVC,1500,,,,,,
KRDR,10-22-2008,06:08,SPECI,,170,17,,,9999.0,,4.0,3.0,30.17,1022.4,,,,,,,,,,,,,,,8/8 Overcast,1600.0,,OVC,1600,,,,,,
KRDR,10-22-2008,06:01,SPECI,,170,14,25.0,,9999.0,Light Rain,4.0,3.0,30.17,1022.5,61,,,,,,,,,,,,,,8/8 Overcast,1800.0,,FEW,1100,OVC,1800.0,,,,
KRDR,10-22-2008,06:00,METAR,,170,17,24.0,,9999.0,Light Rain,4.0,3.0,30.17,1022.6,61,,,,,,,,,,.04 IN,,.13 IN,,8/8 Overcast,1600.0,,OVC,1600,,,,,,
KRDR,10-22-2008,05:49,SPECI,,160,14,20.0,,9999.0,Light Rain,4.0,3.0,30.17,1022.6,61,,,,,,,,,,,,,,8/8 Overcast,1400.0,,OVC,1400,,,,,,
KRDR,10-22-2008,05:00,METAR,,160,16,21.0,,9999.0,Light Rain,5.0,3.0,30.17,1022.6,61,,,,,,,,,,.02 IN,,,,8/8 Overcast,1300.0,,OVC,1300,,,,,,
KRDR,10-22-2008,04:38,SPECI,,150,15,,,9999.0,Light Rain,5.0,4.0,30.17,1022.5,61,,,,,,,,,,,,,,8/8 Overcast,1300.0,,OVC,1300,,,,,,
KRDR,10-22-2008,04:28,SPECI,,150,11,,,9999.0,Light Rain,5.0,4.0,30.17,1022.5,61,,,,,,,,,,,,,,7/8 Mostly Cloudy,1400.0,,BKN,1400,,,,,,
KRDR,10-22-2008,04:26,SPECI,,150,11,,,9999.0,Light Rain,5.0,4.0,30.17,1022.5,61,,,,,,,,,,,,,,7/8 Mostly Cloudy,1400.0,,BKN,1400,,,,,,
KRDR,10-22-2008,04:20,SPECI,,160,11,22.0,,9999.0,Light Rain,5.0,4.0,30.17,1022.5,61,,,,,,,,,,,,,,7/8 Mostly Cloudy,1700.0,,BKN,1700,,,,,,
KRDR,10-22-2008,04:00,METAR,,160,16,21.0,,9999.0,Rain,5.0,3.0,30.17,1022.3,,,,61,,,,,,,.01 IN,,,,8/8 Overcast,3000.0,,FEW,1500,BKN,3000.0,OVC,5900.0,,
KRDR,10-22-2008,03:00,METAR,,160,13,21.0,,9999.0,Rain,5.0,4.0,30.16,1022.1,,,,61,,,,,,,.02 IN,.07 IN,,,8/8 Overcast,6500.0,,FEW,1800,SCT,3500.0,OVC,6400.0,,
KRDR,10-22-2008,02:00,METAR,,170,11,,,9999.0,Light Rain Showers,5.0,4.0,30.16,1022.2,,,,80,,,,,,,.03 IN,,,,8/8 Overcast,3000.0,,SCT,1800,BKN,3000.0,OVC,6400.0,,
KRDR,10-22-2008,01:00,METAR,,180,16,23.0,180/27KTS,9999.0,Light Rain Showers,6.0,3.0,30.16,1022.1,,,,80,,,,,,,.02 IN,,,,8/8 Overcast,7000.0,,FEW,1700,SCT,3600.0,OVC,6900.0,,
KRDR,10-22-2008,00:00,METAR,,200,6,,,9999.0,,7.0,2.0,30.13,1021.1,,,,,,,,,,,TRACE,,TRACE,,8/8 Overcast,10000.0,,SCT,5400,OVC,9900.0,,,,
KRDR,10-22-2008,00:00,SPECI,,200,7,,,9999.0,Light Rain Showers,7.0,2.0,30.14,1021.3,,,,80,,,,,,,,,,,8/8 Overcast,8000.0,,SCT,5000,OVC,7900.0,,,,
KRDR,10-21-2008,23:14,SPECI,,170,11,,,9999.0,,8.0,0.0,30.13,1021.0,,,,,,,,,,,,,,,Clear,72000.0,,,73000,,,,,,
KRDR,10-21-2008,23:00,METAR,,170,12,,,9999.0,,8.0,0.0,30.12,1020.9,,,,,,,,,,,,,,,8/8 Overcast,10000.0,,FEW,5900,BKN,9900.0,OVC,20000.0,,
KRDR,10-21-2008,22:00,METAR,,160,12,20.0,150/27KTS,9999.0,,9.0,0.0,30.11,1020.6,,,,,,,,,,,,,,,8/8 Overcast,10000.0,,FEW,6900,BKN,9900.0,OVC,20000.0,,
KRDR,10-21-2008,21:00,METAR,,160,17,27.0,150/27KTS,9999.0,,9.0,0.0,30.10,1020.2,,,,,,,,,,,,,,,8/8 Overcast,10000.0,,FEW,7900,BKN,9900.0,OVC,20000.0,,
KRDR,10-21-2008,20:00,METAR,,160,16,22.0,170/30KTS,9999.0,,9.0,0.0,30.11,1020.5,,,,,,,,,,,,,,,8/8 Overcast,10000.0,,FEW,7900,BKN,9900.0,OVC,20000.0,,
KRDR,10-21-2008,19:00,METAR,,170,17,29.0,170/31KTS,9999.0,,9.0,-1.0,30.12,1020.9,,,,,,,,,,,,,,,8/8 Overcast,12000.0,,FEW,7900,BKN,12000.0,OVC,20000.0,,
KRDR,10-21-2008,18:00,METAR,,160,19,30.0,160/31KTS,9999.0,,8.0,-1.0,30.14,1021.6,,,,,,,,,,,,,,,8/8 Overcast,25000.0,,SCT,12000,OVC,25000.0,,,,
KRDR,10-21-2008,17:00,METAR,,160,22,28.0,170/29KTS,9999.0,,7.0,0.0,30.16,1022.2,,,,,,,,,,,,,,,8/8 Overcast,25000.0,,SCT,12000,OVC,25000.0,,,,
KRDR,10-21-2008,16:00,METAR,,170,19,26.0,160/26KTS,9999.0,,5.0,0.0,30.19,1023.1,,,,,,,,,,,,,,,8/8 Overcast,25000.0,,SCT,12000,OVC,25000.0,,,,
KRDR,10-21-2008,15:00,METAR,,160,13,22.0,,9999.0,,3.0,-1.0,30.21,1023.7,,,,,,,,,,,,,,,8/8 Overcast,25000.0,,SCT,12000,OVC,25000.0,,,,
KRDR,10-21-2008,14:00,METAR,,150,13,,,9999.0,,1.0,-2.0,30.22,1024.1,,,,,,,,,,,,,,,7/8 Mostly Cloudy,25000.0,,FEW,12000,BKN,25000.0,,,,
KRDR,10-21-2008,13:00,METAR,,150,9,,,9999.0,,0.0,-2.0,30.23,1024.3,,,,,,,,,,,,,,,7/8 Mostly Cloudy,25000.0,,BKN,25000,,,,,,
KRDR,10-21-2008,12:00,METAR,,150,9,,,9999.0,,-1.0,-3.0,30.24,1024.9,,,,,,,,,,,,,,,Clear,72000.0,,,73000,,,,,,
KRDR,10-21-2008,11:00,METAR,,150,7,,,9999.0,,-2.0,-3.0,30.27,1025.6,,,,,,,,,,,,,,,Clear,72000.0,,,73000,,,,,,
KRDR,10-21-2008,10:00,METAR,,150,8,,,9999.0,,-2.0,-3.0,30.28,1026.0,,,,,,,,,,,,,,,Clear,72000.0,,,73000,,,,,,
KRDR,10-21-2008,09:00,METAR,,140,7,,,9999.0,,-1.0,-3.0,30.30,1026.8,,,,,,,,,,,,,,,Clear,72000.0,,,73000,,,,,,
KRDR,10-21-2008,08:00,METAR,,160,8,,,9999.0,,0.0,-3.0,30.33,1027.6,,,,,,,,,,,,,,,Clear,72000.0,,,73000,,,,,,
KRDR,10-21-2008,07:00,METAR,,140,7,,,9999.0,,-1.0,-4.0,30.33,1027.6,,,,,,,,,,,,,,,Clear,72000.0,,,73000,,,,,,
KRDR,10-21-2008,06:00,METAR,,160,7,,,9999.0,,0.0,-4.0,30.33,1027.7,,,,,,,,,,,,,,,Clear,72000.0,,,73000,,,,,,
KRDR,10-21-2008,05:00,METAR,,170,6,,,9999.0,,0.0,-4.0,30.35,1028.4,,,,,,,,,,,,,,,Clear,72000.0,,,73000,,,,,,
KRDR,10-21-2008,04:00,METAR,,170,5,,,9999.0,,0.0,-4.0,30.35,1028.8,,,,,,,,,,,,,,,Clear,72000.0,,,73000,,,,,,
KRDR,10-21-2008,03:00,METAR,,140,6,,,9999.0,,1.0,-4.0,30.37,1029.0,,,,,,,,,,,,,,,Clear,72000.0,,,73000,,,,,,
KRDR,10-21-2008,02:00,METAR,,140,6,,,9999.0,,2.0,-3.0,30.38,1029.3,,,,,,,,,,,,,,,Clear,72000.0,,,73000,,,,,,
KRDR,10-21-2008,01:00,METAR,,130,5,,,9999.0,,4.0,-3.0,30.39,1029.7,,,,,,,,,,,,,,,Clear,72000.0,,,73000,,,,,,
KRDR,10-21-2008,00:00,METAR,,140,5,,,9999.0,,4.0,-3.0,30.40,1029.9,,,,,,,,,,,,,,,2/8 Mostly Clear,72000.0,,FEW,9900,FEW,25000.0,,,,
KRDR,10-20-2008,23:00,METAR,,170,3,,,9999.0,,8.0,-4.0,30.41,1030.3,,,,,,,,,,,,,,,2/8 Mostly Clear,72000.0,,FEW,4000,,,,,,
KRDR,10-20-2008,22:00,METAR,,,0,,,9999.0,,9.0,-4.0,30.42,1030.6,,,,,,,,,,,,,,,2/8 Mostly Clear,72000.0,,FEW,4000,,,,,,
KRDR,10-20-2008,21:00,METAR,,,0,,,9999.0,,9.0,-4.0,30.43,1031.0,,,,,,,,,,,,,,,2/8 Mostly Clear,72000.0,,FEW,4000,,,,,,
KRDR,10-20-2008,20:00,METAR,,160,3,,,9999.0,,9.0,-4.0,30.44,1031.4,,,,,,,,,,,,,,,2/8 Mostly Clear,72000.0,,FEW,4000,,,,,,
KRDR,10-20-2008,19:00,METAR,,,3,,,9999.0,,8.0,-4.0,30.46,1032.0,,,,,,,,,,,,,,,2/8 Mostly Clear,72000.0,,FEW,4000,,,,,,
KRDR,10-20-2008,18:00,METAR,,,5,,,9999.0,,8.0,-4.0,30.48,1032.6,,,,,,,,,,,,,,,2/8 Mostly Clear,72000.0,,FEW,4000,,,,,,
KRDR,10-20-2008,17:00,METAR,,40,4,,,9999.0,,7.0,-2.0,30.48,1032.8,,,,,,,,,,,,,,,2/8 Mostly Clear,72000.0,,FEW,4000,,,,,,
KRDR,10-20-2008,16:00,METAR,,10,3,,,9999.0,,5.0,-1.0,30.49,1032.8,,,,,,,,,,,,,,,4/8 Partly Cloudy,72000.0,,SCT,4000,,,,,,
KRDR,10-20-2008,15:00,METAR,,350,4,,,9999.0,,3.0,-2.0,30.48,1032.6,,,,,,,,,,,,,,,2/8 Mostly Clear,72000.0,,FEW,4000,,,,,,
KRDR,10-20-2008,14:00,METAR,,300,3,,,9999.0,,-1.0,-3.0,30.46,1032.1,,,,,,,,,,,,,,,2/8 Mostly Clear,72000.0,,FEW,5900,,,,,,
KRDR,10-20-2008,13:00,METAR,,310,5,,,9999.0,,-3.0,-4.0,30.45,1031.6,,,,,,,,,,,,,,,Clear,72000.0,,,73000,,,,,,
KRDR,10-20-2008,12:00,METAR,,310,5,,,9999.0,,-2.0,-3.0,30.43,1031.1,,,,,,,,,,,,,,,Clear,72000.0,,,73000,,,,,,
KRDR,10-20-2008,11:00,METAR,,320,6,,,9999.0,,-1.0,-3.0,30.42,1030.6,,,,,,,,,,,,,,,Clear,72000.0,,,73000,,,,,,
KRDR,10-20-2008,10:00,METAR,,330,6,,,9999.0,,0.0,-2.0,30.40,1030.2,,,,,,,,,,,,,,,Clear,72000.0,,,73000,,,,,,
KRDR,10-20-2008,09:00,METAR,,320,7,,,9999.0,,1.0,-2.0,30.39,1029.6,,,,,,,,,,,,,,,Clear,72000.0,,,73000,,,,,,
KRDR,10-20-2008,08:00,METAR,,310,8,,,9999.0,,1.0,-1.0,30.37,1029.1,,,,,,,,,,,,,,,2/8 Mostly Clear,72000.0,,FEW,5900,,,,,,
KRDR,10-20-2008,07:00,METAR,,330,9,,,9999.0,,2.0,-1.0,30.34,1028.1,,,,,,,,,,,,,,,Clear,72000.0,,,73000,,,,,,
KRDR,10-20-2008,06:00,METAR,,330,8,,,9999.0,,4.0,-1.0,30.32,1027.3,,,,,,,,,,,,,,,2/8 Mostly Clear,72000.0,,FEW,7900,,,,,,
KRDR,10-20-2008,05:00,METAR,,330,10,,,9999.0,,5.0,-1.0,30.29,1026.5,,,,,,,,,,,,,,,Clear,72000.0,,,73000,,,,,,
KRDR,10-20-2008,04:00,METAR,,320,9,,,9999.0,,5.0,-1.0,30.27,1025.7,,,,,,,,,,,,,,,2/8 Mostly Clear,72000.0,,FEW,7900,,,,,,
KRDR,10-20-2008,03:00,METAR,,280,6,,,9999.0,,2.0,-1.0,30.24,1024.9,,,,,,,,,,,,,,,Clear,72000.0,,,73000,,,,,,
KRDR,10-20-2008,02:00,METAR,,300,5,,,9999.0,,4.0,0.0,30.23,1024.4,,,,,,,,,,,,,,,Clear,72000.0,,,73000,,,,,,
KRDR,10-20-2008,01:00,METAR,,320,5,,,9999.0,,6.0,0.0,30.22,1023.9,,,,,,,,,,,,,,,Clear,72000.0,,,73000,,,,,,
KRDR,10-20-2008,00:00,METAR,,320,7,,,9999.0,,9.0,0.0,30.20,1023.3,,,,,,,,,,,,,,,Clear,72000.0,,,73000,,,,,,
KRDR,10-19-2008,23:00,METAR,,340,9,,,9999.0,,12.0,1.0,30.17,1022.5,,,,,,,,,,,,,,,Clear,72000.0,,,73000,,,,,,
KRDR,10-19-2008,22:00,METAR,,330,14,,,9999.0,,13.0,1.0,30.15,1021.8,,,,,,,,,,,,,,,Clear,72000.0,,,73000,,,,,,
KRDR,10-19-2008,21:00,METAR,,340,14,18.0,,9999.0,,13.0,2.0,30.14,1021.4,,,,,,,,,,,,,,,Clear,72000.0,,,73000,,,,,,
KRDR,10-19-2008,20:00,METAR,,340,12,16.0,,9999.0,,13.0,4.0,30.12,1020.8,,,,,,,,,,,,,,,2/8 Mostly Clear,72000.0,,FEW,3400,,,,,,
KRDR,10-19-2008,19:00,METAR,,330,14,19.0,,9999.0,,12.0,4.0,30.11,1020.4,,,,,,,,,,,,,,,Clear,72000.0,,,73000,,,,,,
KRDR,10-19-2008,18:00,METAR,,350,15,,,9999.0,,12.0,5.0,30.09,1019.9,,,,,,,,,,,,,,,2/8 Mostly Clear,72000.0,,FEW,2500,,,,,,
KRDR,10-19-2008,17:00,METAR,,360,16,21.0,,9999.0,,11.0,6.0,30.07,1019.1,,,,,,,,,,,,,,,2/8 Mostly Clear,72000.0,,FEW,1900,,,,,,
KRDR,10-19-2008,16:00,METAR,,350,15,,,9999.0,,11.0,6.0,30.04,1018.3,,,,,,,,,,,,,,,Clear,72000.0,,,73000,,,,,,
KRDR,10-19-2008,15:00,METAR,,360,17,22.0,,9999.0,,9.0,7.0,30.01,1017.0,,,,,,,,,,,,,,,4/8 Partly Cloudy,72000.0,,SCT,900,,,,,,
KRDR,10-19-2008,14:50,SPECI,,350,16,,,9999.0,,9.0,7.0,30.01,1017.0,,,,,,,,,,,,,,,4/8 Partly Cloudy,72000.0,,SCT,800,,,,,,
KRDR,10-19-2008,14:00,METAR,,340,15,,,9999.0,,8.0,7.0,29.97,1015.8,,,,,,,,,,,,,,,7/8 Mostly Cloudy,900.0,,BKN,900,,,,,,
KRDR,10-19-2008,13:45,SPECI,,340,13,18.0,,9999.0,,8.0,7.0,29.97,1015.7,,,,,,,,,,,,,,,7/8 Mostly Cloudy,900.0,,BKN,900,,,,,,
KRDR,10-19-2008,13:38,SPECI,,340,15,,,9999.0,,7.0,7.0,29.96,1015.4,,,,,,,,,,,,,,,4/8 Partly Cloudy,72000.0,,SCT,1100,,,,,,
KRDR,10-19-2008,13:00,METAR,,340,13,,,9999.0,,8.0,7.0,29.93,1014.4,,,,,,,,,,,,,,,Clear,72000.0,,,73000,,,,,,
KRDR,10-19-2008,12:00,METAR,,350,13,,,9999.0,,9.0,8.0,29.89,1013.2,,,,,,,,,,,,,,,Clear,72000.0,,,73000,,,,,,
KRDR,10-19-2008,11:00,METAR,,310,6,,,9999.0,,5.0,5.0,29.85,1011.8,,,,,,,,,,,,,,,Clear,72000.0,,,73000,,,,,,
KRDR,10-19-2008,10:33,SPECI,,240,3,,,9999.0,,5.0,5.0,29.84,1011.5,,,,,,,,,,,,,,,Clear,72000.0,,,73000,,,,,,
KRDR,10-19-2008,10:30,SPECI,,,0,,,9999.0,,6.0,5.0,29.84,1011.5,,,,,,,,,,,,,,,Clear,72000.0,,,73000,,,,,,
KRDR,10-19-2008,10:00,METAR,,220,5,,,9999.0,,6.0,6.0,29.82,1010.9,,,,,,,,,,,,,,,Clear,72000.0,,,73000,,,,,,
KRDR,10-19-2008,09:00,METAR,,250,3,,,9999.0,,8.0,7.0,29.82,1010.8,,,,,,,,,,,,,,,7/8 Mostly Cloudy,10000.0,,BKN,9900,,,,,,
KRDR,10-19-2008,08:00,METAR,,170,10,,,9999.0,,8.0,7.0,29.79,1010.1,,,,,,,,,,,,,,,8/8 Overcast,10000.0,,OVC,9900,,,,,,
KRDR,10-19-2008,06:00,METAR,,170,9,,,9999.0,,11.0,8.0,29.80,1010.3,,,,,,,,,,,,,,,Clear,72000.0,,,73000,,,,,,
KRDR,10-19-2008,05:00,METAR,,190,8,,,9999.0,,12.0,8.0,29.82,1010.9,,,,,,,,,,,,,,,Clear,72000.0,,,73000,,,,,,
KRDR,10-19-2008,04:00,METAR,,190,12,,,9999.0,,13.0,8.0,29.80,1010.3,,,,,,,,,,,,,,,7/8 Mostly Cloudy,10000.0,,BKN,9900,,,,,,
KRDR,10-19-2008,03:00,METAR,,180,15,,,9999.0,,14.0,8.0,29.80,1010.3,,,,,,,,,,,,,,,8/8 Overcast,11000.0,,OVC,11000,,,,,,
KRDR,10-19-2008,02:00,METAR,,190,14,,,9999.0,,15.0,8.0,29.81,1010.5,,,,,,,,,,,,,,,7/8 Mostly Cloudy,10000.0,,BKN,9900,,,,,,
KRDR,10-19-2008,01:00,METAR,,180,14,,,9999.0,,15.0,8.0,29.81,1010.4,,,,,,,,,,,,,,,4/8 Partly Cloudy,72000.0,,SCT,11000,,,,,,
KRDR,10-19-2008,00:00,METAR,,180,13,,,9999.0,,14.0,8.0,29.81,1010.5,,,,,,,,,,,,,,,Clear,72000.0,,,73000,,,,,,
KRDR,10-18-2008,23:00,METAR,,180,11,,,9999.0,,15.0,8.0,29.83,1011.2,,,,,,,,,,,,,,,Clear,72000.0,,,73000,,,,,,
KRDR,10-18-2008,22:00,METAR,,190,15,,,9999.0,,16.0,8.0,29.84,1011.5,,,,,,,,,,,,,,,Clear,72000.0,,,73000,,,,,,
KRDR,10-18-2008,21:00,METAR,,190,16,23.0,,9999.0,,16.0,8.0,29.84,1011.7,,,,,,,,,,,,,,,Clear,72000.0,,,73000,,,,,,
KRDR,10-18-2008,20:00,METAR,,180,16,,,9999.0,,15.0,7.0,29.87,1012.6,,,,,,,,,,,,,,,Clear,72000.0,,,73000,,,,,,
KRDR,10-18-2008,19:00,METAR,,200,17,21.0,,9999.0,,14.0,7.0,29.89,1013.3,,,,,,,,,,,,,,,Clear,72000.0,,,73000,,,,,,
KRDR,10-18-2008,18:00,METAR,,190,16,,,9999.0,,13.0,6.0,29.93,1014.5,,,,,,,,,,,,,,,Clear,72000.0,,,73000,,,,,,
KRDR,10-18-2008,17:00,METAR,,190,16,,200/26KTS,9999.0,,11.0,6.0,29.94,1014.8,,,,,,,,,,,,,,,Clear,72000.0,,,73000,,,,,,
KRDR,10-18-2008,16:00,METAR,,180,19,26.0,180/26KTS,9999.0,,9.0,5.0,29.94,1014.9,,,,,,,,,,,,,,,Clear,72000.0,,,73000,,,,,,
KRDR,10-18-2008,15:00,METAR,,180,16,21.0,,9999.0,,7.0,5.0,29.97,1015.8,,,,,,,,,,,,,,,2/8 Mostly Clear,72000.0,,FEW,9400,,,,,,
KRDR,10-18-2008,14:00,METAR,,180,15,,,9999.0,,5.0,4.0,29.98,1016.2,,,,,,,,,,,,,,,Clear,72000.0,,,73000,,,,,,
KRDR,10-18-2008,13:00,METAR,,180,17,,,9999.0,,5.0,4.0,29.99,1016.4,,,,,,,,,,,,,,,Clear,72000.0,,,73000,,,,,,
KRDR,10-18-2008,12:00,METAR,,180,16,,,9999.0,,5.0,4.0,30.01,1017.0,,,,,,,,,,,,,,,Clear,72000.0,,,73000,,,,,,
KRDR,10-18-2008,11:00,METAR,,180,16,,,9999.0,,6.0,4.0,30.02,1017.4,,,,,,,,,,,,,,,Clear,72000.0,,,73000,,,,,,
KRDR,10-18-2008,10:00,METAR,,190,18,22.0,,9999.0,,6.0,4.0,30.04,1018.0,,,,,,,,,,,,,,,Clear,72000.0,,,73000,,,,,,
KRDR,10-18-2008,09:00,METAR,,180,14,,,9999.0,,7.0,4.0,30.05,1018.6,,,,,,,,,,,,,,,8/8 Overcast,8000.0,,OVC,7900,,,,,,
KRDR,10-18-2008,08:00,METAR,,180,12,,,9999.0,,7.0,4.0,30.08,1019.5,,,,,,,,,,,,,,,8/8 Overcast,8000.0,,OVC,7900,,,,,,
KRDR,10-18-2008,07:00,METAR,,180,12,,,9999.0,,6.0,4.0,30.09,1020.0,,,,,,,,,,,,,,,8/8 Overcast,9000.0,,OVC,8900,,,,,,
KRDR,10-18-2008,06:00,METAR,,180,11,,,9999.0,,6.0,4.0,30.11,1020.5,,,,,,,,,,,,,TRACE,,Clear,72000.0,,,73000,,,,,,
KRDR,10-18-2008,05:00,METAR,,180,12,,,9999.0,,6.0,4.0,30.13,1021.1,,,,,,,,,,,TRACE,,,,Clear,72000.0,,,73000,,,,,,
KRDR,10-18-2008,04:32,SPECI,,170,11,,,9999.0,,7.0,4.0,30.13,1021.1,,,,,,,,,,,,,,,Clear,72000.0,,,73000,,,,,,
KRDR,10-18-2008,04:22,SPECI,,170,11,,,9999.0,,7.0,4.0,30.13,1021.2,,,,,,,,,,,,,,,Clear,72000.0,,,73000,,,,,,
KRDR,10-18-2008,04:00,METAR,,170,8,,,9999.0,,6.0,4.0,30.15,1021.8,,,,,,,,,,,,,,,2/8 Mostly Clear,72000.0,,FEW,20000,,,,,,
KRDR,10-18-2008,03:00,METAR,,170,8,,,9999.0,,6.0,4.0,30.15,1022.3,,,,,,,,,,,,,,,2/8 Mostly Clear,72000.0,,FEW,20000,,,,,,
KRDR,10-18-2008,02:00,METAR,,160,10,,,9999.0,,7.0,5.0,30.16,1022.5,,,,,,,,,,,,,,,2/8 Mostly Clear,72000.0,,FEW,20000,,,,,,
KRDR,10-18-2008,01:00,METAR,,150,9,,,9999.0,,7.0,5.0,30.19,1023.2,,,,,,,,,,,,,,,4/8 Partly Cloudy,72000.0,,SCT,20000,,,,,,
KRDR,10-18-2008,00:00,METAR,,150,7,,,9999.0,,8.0,5.0,30.19,1023.2,,,,,,,,,,,,,,,4/8 Partly Cloudy,72000.0,,FEW,3600,FEW,9900.0,SCT,20000.0,,
KRDR,10-17-2008,23:00,METAR,,170,10,,,9999.0,,10.0,5.0,30.20,1023.4,,,,,,,,,,,,,,,7/8 Mostly Cloudy,20000.0,,SCT,3000,BKN,20000.0,,,,
KRDR,10-17-2008,22:00,METAR,,160,8,,,9999.0,,10.0,5.0,30.20,1023.5,,,,,,,,,,,,,,,7/8 Mostly Cloudy,20000.0,,SCT,2900,BKN,20000.0,,,,
KRDR,10-17-2008,21:00,METAR,,190,9,,,9999.0,,11.0,5.0,30.22,1023.9,,,,,,,,,,,,,,,7/8 Mostly Cloudy,3300.0,,BKN,3400,,,,,,
KRDR,10-17-2008,20:00,METAR,,180,8,,,9999.0,,12.0,5.0,30.23,1024.4,,,,,,,,,,,,,,,7/8 Mostly Cloudy,3100.0,,BKN,3100,,,,,,
KRDR,10-17-2008,19:15,SPECI,,190,9,,,9999.0,,11.0,4.0,30.24,1024.8,,,,,,,,,,,,,,,7/8 Mostly Cloudy,3000.0,,BKN,3000,,,,,,
KRDR,10-17-2008,19:09,SPECI,,170,7,,,9999.0,,11.0,4.0,30.24,1024.8,,,,,,,,,,,,,,,7/8 Mostly Cloudy,2900.0,,BKN,2900,,,,,,
KRDR,10-17-2008,19:00,METAR,,180,9,,,9999.0,,11.0,4.0,30.24,1024.7,,,,,,,,,,,,,,,7/8 Mostly Cloudy,3000.0,,BKN,3000,,,,,,
KRDR,10-17-2008,18:00,METAR,,170,9,,,9999.0,,10.0,4.0,30.26,1025.5,,,,,,,,,,,,,TRACE,,7/8 Mostly Cloudy,3400.0,,FEW,2500,BKN,3500.0,,,,
KRDR,10-17-2008,17:00,METAR,,170,10,,,9999.0,,9.0,5.0,30.27,1025.7,,,,,,,,,,,,,,,7/8 Mostly Cloudy,3700.0,,FEW,2000,BKN,3800.0,,,,
KRDR,10-17-2008,16:00,METAR,,190,6,,,9999.0,,8.0,5.0,30.28,1025.9,,,,,,,,,,,,,,,7/8 Mostly Cloudy,3600.0,,FEW,2000,BKN,3700.0,,,,
KRDR,10-17-2008,15:00,METAR,,180,5,,,9999.0,,6.0,5.0,30.27,1025.7,,,,,,,,,,,,TRACE,,,7/8 Mostly Cloudy,3700.0,,BKN,3800,,,,,,
KRDR,10-17-2008,14:00,METAR,,160,3,,,9999.0,,4.0,4.0,30.26,1025.3,,,,,,,,,,,,,,,7/8 Mostly Cloudy,3900.0,,BKN,4000,BKN,9900.0,,,,
KRDR,10-17-2008,13:00,METAR,,130,5,,,9999.0,,5.0,4.0,30.25,1024.9,,,,,,,,,,,TRACE,,,,7/8 Mostly Cloudy,3900.0,,BKN,4000,BKN,9900.0,,,,
KRDR,10-17-2008,12:07,SPECI,,130,4,,,9999.0,,5.0,4.0,30.25,1025.0,,,,,,,,,,,,,,,7/8 Mostly Cloudy,3900.0,,BKN,4000,,,,,,
KRDR,10-17-2008,12:00,METAR,,,0,,,9999.0,Drizzle,5.0,4.0,30.25,1025.1,,,,51,,,,,,,TRACE,,.01 IN,.01 IN,7/8 Mostly Cloudy,3900.0,,BKN,4000,,,,,,
KRDR,10-17-2008,11:00,METAR,,,0,,,9999.0,Drizzle,4.0,3.0,30.25,1025.0,,,,51,,,,,,,.01 IN,,,,7/8 Mostly Cloudy,4400.0,,BKN,4500,,,,,,
KRDR,10-17-2008,10:24,SPECI,,170,3,,,9999.0,,4.0,3.0,30.25,1025.1,,,,,,,,,,,,,,,Clear,72000.0,,,73000,,,,,,
KRDR,10-17-2008,10:00,METAR,,130,3,,,9999.0,Light Rain,5.0,3.0,30.25,1025.2,61,,,,,,,,,,TRACE,,,,2/8 Mostly Clear,72000.0,,FEW,4300,,,,,,
KRDR,10-17-2008,09:41,SPECI,,160,3,,,9999.0,,5.0,3.0,30.25,1025.2,,,,,,,,,,,,,,,2/8 Mostly Clear,72000.0,,FEW,4200,,,,,,
KRDR,10-17-2008,09:29,SPECI,,230,3,,,9999.0,,5.0,3.0,30.25,1025.2,,,,,,,,,,,,,,,Clear,72000.0,,,73000,,,,,,
KRDR,10-17-2008,09:00,METAR,,320,3,,,9999.0,,5.0,3.0,30.26,1025.4,,,,,,,,,,,TRACE,TRACE,,,Clear,72000.0,,,73000,,,,,,
KRDR,10-17-2008,08:47,SPECI,,,0,,,9999.0,,5.0,3.0,30.26,1025.5,,,,,,,,,,,,,,,Clear,72000.0,,,73000,,,,,,
KRDR,10-17-2008,08:21,SPECI,,,0,,,9999.0,,5.0,2.0,30.27,1025.7,,,,,,,,,,,,,,,Clear,72000.0,,,73000,,,,,,
KRDR,10-17-2008,08:04,SPECI,,,0,,,9999.0,,5.0,2.0,30.27,1025.7,,,,,,,,,,,,,,,Clear,72000.0,,,73000,,,,,,
KRDR,10-17-2008,08:00,METAR,,170,3,,,9999.0,,5.0,2.0,30.26,1025.6,,,,,,,,,,,,,,,Clear,72000.0,,,73000,,,,,,
KRDR,10-17-2008,07:53,SPECI,,170,3,,,9999.0,,5.0,2.0,30.27,1025.6,,,,,,,,,,,,,,,Clear,72000.0,,,73000,,,,,,
KRDR,10-17-2008,07:18,SPECI,,230,3,,,6400.0,Haze Smoke or Dust,5.0,2.0,30.27,1025.6,4,,,,,,,,,,,,,,Clear,72000.0,,,73000,,,,,,
KRDR,10-17-2008,07:14,SPECI,,210,4,,,6400.0,Haze Smoke or Dust,5.0,2.0,30.26,1025.5,4,,,,,,,,,,,,,,Clear,72000.0,,,73000,,,,,,
KRDR,10-17-2008,07:04,SPECI,,200,5,,,8000.0,Haze Smoke or Dust,5.0,2.0,30.26,1025.5,4,,,,,,,,,,,,,,Clear,72000.0,,,73000,,,,,,
KRDR,10-17-2008,07:00,METAR,,200,6,,,8000.0,Haze Smoke or Dust,5.0,2.0,30.26,1025.4,4,,,,,,,,,,,,,,Clear,72000.0,,,73000,,,,,,
KRDR,10-17-2008,06:53,SPECI,,200,5,,,6400.0,Haze Smoke or Dust,5.0,2.0,30.26,1025.5,4,,,,,,,,,,,,,,Clear,72000.0,,,73000,,,,,,
KRDR,10-17-2008,06:42,SPECI,,200,6,,,6400.0,Haze Smoke or Dust,5.0,2.0,30.26,1025.5,4,,,,,,,,,,,,,,Clear,72000.0,,,73000,,,,,,
KRDR,10-17-2008,06:01,SPECI,,170,4,,,6400.0,Haze Smoke or Dust,5.0,2.0,30.26,1025.3,4,,,,,,,,,,,,,,Clear,72000.0,,,73000,,,,,,
KRDR,10-17-2008,06:00,METAR,,160,4,,,9999.0,,5.0,2.0,30.25,1025.2,,,,,,,,,,,,,,,Clear,72000.0,,,73000,,,,,,
KRDR,10-17-2008,05:11,SPECI,,160,4,,,9999.0,Haze Smoke or Dust,5.0,2.0,30.26,1025.3,4,,,,,,,,,,,,,,Clear,72000.0,,,73000,,,,,,
KRDR,10-17-2008,05:00,METAR,,160,4,,,9999.0,,4.0,1.0,30.26,1025.4,,,,,,,,,,,,,,,2/8 Mostly Clear,72000.0,,FEW,11000,,,,,,
KRDR,10-17-2008,04:38,SPECI,,150,4,,,9999.0,,4.0,1.0,30.27,1025.6,,,,,,,,,,,,,,,4/8 Partly Cloudy,72000.0,,SCT,11000,,,,,,
KRDR,10-17-2008,04:29,SPECI,,150,3,,,6400.0,Mist,3.0,2.0,30.27,1025.7,10,,,,,,,,,,,,,,4/8 Partly Cloudy,72000.0,,SCT,9900,,,,,,
KRDR,10-17-2008,04:26,SPECI,,160,3,,,6400.0,Mist,3.0,2.0,30.27,1025.7,10,,,,,,,,,,,,,,2/8 Mostly Clear,72000.0,,FEW,9900,,,,,,
KRDR,10-17-2008,04:05,SPECI,,170,3,,,6400.0,Mist,3.0,1.0,30.27,1025.8,10,,,,,,,,,,,,,,Clear,72000.0,,,73000,,,,,,
KRDR,10-17-2008,04:00,METAR,,170,3,,,9999.0,,3.0,1.0,30.27,1025.8,,,,,,,,,,,,,,,4/8 Partly Cloudy,72000.0,,SCT,15000,,,,,,
KRDR,10-17-2008,03:54,SPECI,,160,3,,,6400.0,Mist,3.0,1.0,30.27,1025.7,10,,,,,,,,,,,,,,Clear,72000.0,,,73000,,,,,,
KRDR,10-17-2008,03:00,METAR,,150,5,,,9999.0,,2.0,0.0,30.27,1025.7,,,,,,,,,,,,,,,4/8 Partly Cloudy,72000.0,,SCT,25000,,,,,,
KRDR,10-17-2008,02:00,METAR,,150,4,,,9999.0,,3.0,-1.0,30.26,1025.5,,,,,,,,,,,,,,,4/8 Partly Cloudy,72000.0,,FEW,12000,SCT,25000.0,,,,
KRDR,10-17-2008,01:00,METAR,,120,3,,,9999.0,,6.0,-1.0,30.26,1025.4,,,,,,,,,,,,,,,4/8 Partly Cloudy,72000.0,,SCT,25000,,,,,,
KRDR,10-17-2008,00:00,METAR,,140,4,,,9999.0,,7.0,-1.0,30.25,1025.1,,,,,,,,,,,,,,,4/8 Partly Cloudy,72000.0,,SCT,25000,,,,,,
KRDR,10-16-2008,23:00,METAR,,140,6,,,9999.0,,10.0,0.0,30.25,1024.9,,,,,,,,,,,,,,,4/8 Partly Cloudy,72000.0,,FEW,5000,SCT,20000.0,,,,
KRDR,10-16-2008,22:00,METAR,,,0,,,9999.0,,11.0,-1.0,30.25,1025.2,,,,,,,,,,,,,,,4/8 Partly Cloudy,72000.0,,FEW,5400,SCT,20000.0,,,,
KRDR,10-16-2008,21:21,SPECI,,180,5,,,9999.0,,11.0,-1.0,30.25,1025.2,,,,,,,,,,,,,,,4/8 Partly Cloudy,72000.0,,FEW,5000,SCT,20000.0,,,,
KRDR,10-16-2008,21:00,METAR,,,0,,,9999.0,,11.0,0.0,30.26,1025.4,,,,,,,,,,,,,,,4/8 Partly Cloudy,72000.0,,FEW,4800,SCT,20000.0,,,,
KRDR,10-16-2008,20:00,METAR,,240,3,,,9999.0,,11.0,-1.0,30.27,1025.8,,,,,,,,,,,,,,,7/8 Mostly Cloudy,20000.0,,SCT,4800,BKN,20000.0,,,,
KRDR,10-16-2008,19:00,METAR,,,0,,,9999.0,,10.0,-1.0,30.28,1026.2,,,,,,,,,,,,,,,4/8 Partly Cloudy,72000.0,,SCT,4500,SCT,20000.0,,,,
KRDR,10-16-2008,18:00,METAR,,,0,,,9999.0,,10.0,-1.0,30.31,1026.9,,,,,,,,,,,,,,,4/8 Partly Cloudy,72000.0,,SCT,4500,SCT,20000.0,,,,
KRDR,10-16-2008,17:00,METAR,,220,3,,,9999.0,,9.0,0.0,30.32,1027.3,,,,,,,,,,,,,,,4/8 Partly Cloudy,72000.0,,FEW,4000,SCT,20000.0,,,,
KRDR,10-16-2008,16:00,METAR,,200,4,,,9999.0,,9.0,1.0,30.32,1027.4,,,,,,,,,,,,,,,4/8 Partly Cloudy,72000.0,,SCT,20000,,,,,,
KRDR,10-16-2008,15:00,METAR,,250,4,,,9999.0,,6.0,2.0,30.32,1027.5,,,,,,,,,,,,,,,4/8 Partly Cloudy,72000.0,,FEW,15000,SCT,20000.0,,,,
KRDR,10-16-2008,14:00,METAR,,250,4,,,9999.0,,2.0,0.0,30.32,1027.3,,,,,,,,,,,,,,,7/8 Mostly Cloudy,20000.0,,FEW,15000,BKN,20000.0,,,,
KRDR,10-16-2008,13:00,METAR,,260,4,,,9999.0,,0.0,-1.0,30.31,1026.9,,,,,,,,,,,,,,,7/8 Mostly Cloudy,20000.0,,SCT,15000,BKN,20000.0,,,,
KRDR,10-16-2008,12:00,METAR,,260,4,,,9999.0,,0.0,-1.0,30.30,1026.7,,,,,,,,,,,,,,,7/8 Mostly Cloudy,20000.0,,SCT,15000,BKN,20000.0,,,,
KRDR,10-16-2008,11:00,METAR,,280,5,,,9999.0,,0.0,-1.0,30.29,1026.4,,,,,,,,,,,,,,,4/8 Partly Cloudy,72000.0,,SCT,18000,,,,,,
KRDR,10-16-2008,10:00,METAR,,250,4,,,9999.0,,1.0,0.0,30.29,1026.4,,,,,,,,,,,,,,,2/8 Mostly Clear,72000.0,,FEW,3300,,,,,,
KRDR,10-16-2008,09:00,METAR,,300,4,,,9999.0,,1.0,0.0,30.28,1026.1,,,,,,,,,,,,,,,Clear,72000.0,,,73000,,,,,,
KRDR,10-16-2008,08:00,METAR,,290,6,,,9999.0,,2.0,0.0,30.29,1026.5,,,,,,,,,,,,,,,7/8 Mostly Cloudy,4700.0,,BKN,4800,,,,,,
KRDR,10-16-2008,07:00,METAR,,280,5,,,9999.0,,2.0,0.0,30.28,1026.2,,,,,,,,,,,,,,,8/8 Overcast,4400.0,,OVC,4500,,,,,,
KRDR,10-16-2008,06:00,METAR,,270,5,,,9999.0,,1.0,0.0,30.28,1026.1,,,,,,,,,,,,,,,Clear,72000.0,,,73000,,,,,,
KRDR,10-16-2008,05:00,METAR,,270,4,,,9999.0,,4.0,2.0,30.28,1025.9,,,,,,,,,,,,,,,8/8 Overcast,4000.0,,OVC,4100,,,,,,
KRDR,10-16-2008,04:00,METAR,,290,5,,,9999.0,,2.0,0.0,30.25,1025.2,,,,,,,,,,,,,,,8/8 Overcast,3900.0,,OVC,4000,,,,,,
KRDR,10-16-2008,03:00,METAR,,280,4,,,9999.0,,1.0,-1.0,30.24,1024.8,,,,,,,,,,,,,,,4/8 Partly Cloudy,72000.0,,SCT,3700,,,,,,
KRDR,10-16-2008,02:00,METAR,,320,4,,,9999.0,,3.0,0.0,30.23,1024.4,,,,,,,,,,,,,,,2/8 Mostly Clear,72000.0,,FEW,4000,,,,,,
KRDR,10-16-2008,01:00,METAR,,330,6,,,9999.0,,4.0,0.0,30.22,1024.0,,,,,,,,,,,,,,,Clear,72000.0,,,73000,,,,,,
KRDR,10-16-2008,00:00,METAR,,330,8,,,9999.0,,7.0,0.0,30.20,1023.4,,,,,,,,,,,,,,,2/8 Mostly Clear,72000.0,,FEW,5000,,,,,,
KRDR,10-15-2008,23:00,METAR,,340,14,,,9999.0,,9.0,0.0,30.18,1022.7,,,,,,,,,,,,,,,2/8 Mostly Clear,72000.0,,FEW,5000,,,,,,
KRDR,10-15-2008,22:00,METAR,,330,13,,,9999.0,,10.0,-1.0,30.16,1022.2,,,,,,,,,,,,,,,2/8 Mostly Clear,72000.0,,FEW,4700,,,,,,
KRDR,10-15-2008,21:00,METAR,,310,11,23.0,,9999.0,,11.0,-1.0,30.15,1021.9,,,,,,,,,,,,,,,2/8 Mostly Clear,72000.0,,FEW,4800,,,,,,
KRDR,10-15-2008,20:00,METAR,,310,17,24.0,300/26KTS,9999.0,,11.0,0.0,30.15,1021.7,,,,,,,,,,,,,,,2/8 Mostly Clear,72000.0,,FEW,4500,,,,,,
KRDR,10-15-2008,19:00,METAR,,320,15,22.0,300/27KTS,9999.0,,10.0,0.0,30.14,1021.5,,,,,,,,,,,,,,,2/8 Mostly Clear,72000.0,,FEW,3000,,,,,,
KRDR,10-15-2008,18:00,METAR,,300,16,26.0,310/29KTS,9999.0,,9.0,-1.0,30.13,1021.1,,,,,,,,,,,,,,,2/8 Mostly Clear,72000.0,,FEW,3000,,,,,,
KRDR,10-15-2008,17:00,METAR,,300,19,27.0,300/28KTS,9999.0,,8.0,-2.0,30.12,1020.8,,,,,,,,,,,,,,,2/8 Mostly Clear,72000.0,,FEW,3000,,,,,,
KRDR,10-15-2008,16:00,METAR,,300,21,27.0,290/27KTS,9999.0,,7.0,-1.0,30.11,1020.4,,,,,,,,,,,,,,,Clear,72000.0,,,73000,,,,,,
KRDR,10-15-2008,15:00,METAR,,310,16,23.0,290/26KTS,9999.0,,6.0,-1.0,30.10,1020.0,,,,,,,,,,,,,,,Clear,72000.0,,,73000,,,,,,
KRDR,10-15-2008,14:00,METAR,,290,16,21.0,,9999.0,,4.0,-1.0,30.08,1019.4,,,,,,,,,,,,,,,Clear,72000.0,,,73000,,,,,,
KRDR,10-15-2008,13:00,METAR,,290,12,,,9999.0,,3.0,-1.0,30.06,1018.8,,,,,,,,,,,,,,,Clear,72000.0,,,73000,,,,,,
KRDR,10-15-2008,12:00,METAR,,290,14,20.0,,9999.0,,4.0,1.0,30.04,1018.0,,,,,,,,,,,,,,,Clear,72000.0,,,73000,,,,,,
KRDR,10-15-2008,11:00,METAR,,290,14,18.0,,9999.0,,5.0,2.0,30.02,1017.4,,,,,,,,,,,,,,,Clear,72000.0,,,73000,,,,,,
KRDR,10-15-2008,10:18,SPECI,,300,11,,,9999.0,,6.0,2.0,30.01,1017.1,,,,,,,,,,,,,,,4/8 Partly Cloudy,72000.0,,SCT,2900,,,,,,
KRDR,10-15-2008,10:00,METAR,,300,13,,,9999.0,,6.0,3.0,30.00,1016.7,,,,,,,,,,,,,,,8/8 Overcast,2500.0,,OVC,2500,,,,,,
KRDR,10-15-2008,09:11,SPECI,,300,10,,,9999.0,,6.0,3.0,29.98,1016.2,,,,,,,,,,,,,,,7/8 Mostly Cloudy,2400.0,,BKN,2400,,,,,,
KRDR,10-15-2008,09:00,METAR,,300,11,,,9999.0,,6.0,3.0,29.98,1016.1,,,,,,,,,,,,,,,Clear,72000.0,,,73000,,,,,,
KRDR,10-15-2008,08:00,METAR,,290,10,17.0,310/27KTS,9999.0,,6.0,3.0,29.97,1015.8,,,,,,,,,,,,,,,Clear,72000.0,,,73000,,,,,,
KRDR,10-15-2008,07:25,SPECI,,310,15,23.0,310/27KTS,9999.0,,6.0,2.0,29.96,1015.7,,,,,,,,,,,,,,,4/8 Partly Cloudy,72000.0,,SCT,2500,,,,,,
KRDR,10-15-2008,07:00,METAR,,310,17,27.0,300/32KTS,9999.0,,7.0,2.0,29.95,1015.1,,,,,,,,,,,,,,,8/8 Overcast,2300.0,,OVC,2300,,,,,,
KRDR,10-15-2008,06:00,METAR,,290,15,,,9999.0,,6.0,3.0,29.91,1013.8,,,,,,,,,,,,,,,7/8 Mostly Cloudy,2500.0,,BKN,2500,,,,,,
KRDR,10-15-2008,05:50,SPECI,,290,15,20.0,,9999.0,,6.0,3.0,29.91,1013.8,,,,,,,,,,,,,,,7/8 Mostly Cloudy,2600.0,,BKN,2600,,,,,,
KRDR,10-15-2008,05:00,METAR,,280,14,26.0,280/26KTS,9999.0,,8.0,4.0,29.87,1012.7,,,,,,,,,,,,,,,Clear,72000.0,,,73000,,,,,,
KRDR,10-15-2008,04:00,METAR,,280,9,,,9999.0,,9.0,5.0,29.86,1012.2,,,,,,,,,,,,,,,2/8 Mostly Clear,72000.0,,FEW,25000,,,,,,
KRDR,10-15-2008,03:00,METAR,,210,12,18.0,200/26KTS,9999.0,,10.0,5.0,29.83,1011.2,,,,,,,,,,,,,,,2/8 Mostly Clear,72000.0,,FEW,25000,,,,,,
KRDR,10-15-2008,02:00,METAR,,180,14,,,9999.0,,10.0,6.0,29.83,1011.3,,,,,,,,,,,,,,,2/8 Mostly Clear,72000.0,,FEW,25000,,,,,,
KRDR,10-15-2008,01:00,METAR,,170,11,,,9999.0,,10.0,6.0,29.85,1011.8,,,,,,,,,,,,,,,2/8 Mostly Clear,72000.0,,FEW,12000,,,,,,
KRDR,10-15-2008,00:00,METAR,,170,13,,,9999.0,,12.0,6.0,29.87,1012.7,,,,,,,,,,,,,,,4/8 Partly Cloudy,72000.0,,FEW,12000,SCT,25000.0,,,,
KRDR,10-14-2008,23:00,METAR,,180,16,,,9999.0,,14.0,6.0,29.89,1013.3,,,,,,,,,,,,,,,4/8 Partly Cloudy,72000.0,,FEW,12000,SCT,25000.0,,,,
KRDR,10-14-2008,22:00,METAR,,170,14,,,9999.0,,14.0,6.0,29.92,1014.0,,,,,,,,,,,,,,,7/8 Mostly Cloudy,25000.0,,FEW,12000,BKN,25000.0,,,,
KRDR,10-14-2008,21:00,METAR,,180,13,,,9999.0,,15.0,6.0,29.94,1014.7,,,,,,,,,,,,,,,2/8 Mostly Clear,72000.0,,FEW,25000,,,,,,
KRDR,10-14-2008,20:00,METAR,,190,14,,,9999.0,,14.0,5.0,29.96,1015.6,,,,,,,,,,,,,,,Clear,72000.0,,,73000,,,,,,
KRDR,10-14-2008,19:00,METAR,,190,15,,,9999.0,,13.0,5.0,29.97,1016.1,,,,,,,,,,,,,,,Clear,72000.0,,,73000,,,,,,
KRDR,10-14-2008,18:00,METAR,,180,15,,,9999.0,,12.0,4.0,30.04,1018.2,,,,,,,,,,,,,,,Clear,72000.0,,,73000,,,,,,
KRDR,10-14-2008,17:00,METAR,,190,15,,,9999.0,,10.0,2.0,30.07,1019.1,,,,,,,,,,,,,,,Clear,72000.0,,,73000,,,,,,
KRDR,10-14-2008,16:00,METAR,,170,9,,,9999.0,,6.0,2.0,30.09,1019.8,,,,,,,,,,,,,,,Clear,72000.0,,,73000,,,,,,
KRDR,10-14-2008,15:00,METAR,,200,9,,,9999.0,,4.0,0.0,30.09,1019.9,,,,,,,,,,,,,,,Clear,72000.0,,,73000,,,,,,
KRDR,10-14-2008,14:00,METAR,,190,5,,,9999.0,,2.0,-1.0,30.09,1019.8,,,,,,,,,,,,,,,Clear,72000.0,,,73000,,,,,,
KRDR,10-14-2008,13:00,METAR,,210,7,,,9999.0,,0.0,-2.0,30.11,1020.3,,,,,,,,,,,,,,,Clear,72000.0,,,73000,,,,,,
KRDR,10-14-2008,12:00,METAR,,230,8,,,9999.0,,0.0,-2.0,30.11,1020.4,,,,,,,,,,,,,,,Clear,72000.0,,,73000,,,,,,
KRDR,10-14-2008,11:00,METAR,,240,8,,,9999.0,,0.0,-1.0,30.10,1020.2,,,,,,,,,,,,,,,Clear,72000.0,,,73000,,,,,,
KRDR,10-14-2008,10:00,METAR,,250,8,,,9999.0,,0.0,-1.0,30.10,1020.1,,,,,,,,,,,,,,,Clear,72000.0,,,73000,,,,,,
KRDR,10-14-2008,09:00,METAR,,260,7,,,9999.0,,0.0,-1.0,30.09,1019.7,,,,,,,,,,,,,,,Clear,72000.0,,,73000,,,,,,
KRDR,10-14-2008,08:00,METAR,,260,8,,,9999.0,,0.0,-1.0,30.09,1019.7,,,,,,,,,,,,,,,Clear,72000.0,,,73000,,,,,,
KRDR,10-14-2008,07:00,METAR,,240,6,,,9999.0,,0.0,-1.0,30.07,1019.3,,,,,,,,,,,,,,,Clear,72000.0,,,73000,,,,,,
KRDR,10-14-2008,06:00,METAR,,260,6,,,9999.0,,1.0,-1.0,30.06,1018.9,,,,,,,,,,,,,,,Clear,72000.0,,,73000,,,,,,
KRDR,10-14-2008,05:00,METAR,,270,7,,,9999.0,,3.0,0.0,30.06,1018.7,,,,,,,,,,,,,,,Clear,72000.0,,,73000,,,,,,
KRDR,10-14-2008,04:00,METAR,,250,8,,,9999.0,,3.0,0.0,30.04,1018.0,,,,,,,,,,,,,,,4/8 Partly Cloudy,72000.0,,SCT,3500,,,,,,
KRDR,10-14-2008,03:00,METAR,,260,9,,,9999.0,,3.0,1.0,30.03,1017.7,,,,,,,,,,,,,,,2/8 Mostly Clear,72000.0,,FEW,4600,,,,,,
KRDR,10-14-2008,02:00,METAR,,260,11,,,9999.0,,4.0,1.0,30.01,1017.2,,,,,,,,,,,,,,,2/8 Mostly Clear,72000.0,,FEW,5000,,,,,,
KRDR,10-14-2008,01:00,METAR,,260,12,,,9999.0,,5.0,1.0,30.01,1017.1,,,,,,,,,,,,,,,7/8 Mostly Cloudy,6000.0,,BKN,5900,,,,,,
KRDR,10-14-2008,00:00,METAR,,260,10,,,9999.0,,6.0,-1.0,30.00,1016.7,,,,,,,,,,,,,,,8/8 Overcast,4900.0,,OVC,5000,,,,,,
KRDR,10-13-2008,23:00,METAR,,260,10,,,9999.0,,6.0,-1.0,29.99,1016.7,,,,,,,,,,,,,,,8/8 Overcast,6000.0,,OVC,5900,,,,,,
KRDR,10-13-2008,22:00,METAR,,260,11,,,9999.0,,6.0,-1.0,30.00,1016.8,,,,,,,,,,,,,,,8/8 Overcast,4500.0,,OVC,4600,,,,,,
KRDR,10-13-2008,21:00,METAR,,270,12,,,9999.0,,6.0,-1.0,30.01,1017.2,,,,,,,,,,,,,,,8/8 Overcast,4600.0,,OVC,4700,,,,,,
KRDR,10-13-2008,20:00,METAR,,270,18,22.0,,9999.0,,5.0,-1.0,30.02,1017.5,,,,,,,,,,,,,,,8/8 Overcast,3300.0,,OVC,3400,,,,,,
KRDR,10-13-2008,19:00,METAR,,250,18,22.0,,9999.0,,6.0,0.0,30.03,1017.7,,,,,,,,,,,,,,,8/8 Overcast,3000.0,,OVC,3000,,,,,,
KRDR,10-13-2008,18:08,SPECI,,260,12,18.0,,9999.0,,6.0,0.0,30.03,1017.9,,,,,,,,,,,,,,,7/8 Mostly Cloudy,2700.0,,BKN,2700,,,,,,
KRDR,10-13-2008,18:00,METAR,,260,14,21.0,,9999.0,,6.0,0.0,30.03,1017.9,,,,,,,,,,,,,,,7/8 Mostly Cloudy,2700.0,,BKN,2700,,,,,,
KRDR,10-13-2008,17:42,SPECI,,270,13,22.0,,9999.0,,5.0,-1.0,30.04,1018.1,,,,,,,,,,,,,,,7/8 Mostly Cloudy,2600.0,,BKN,2600,,,,,,
KRDR,10-13-2008,17:37,SPECI,,270,15,22.0,,9999.0,,6.0,0.0,30.04,1018.2,,,,,,,,,,,,,,,4/8 Partly Cloudy,72000.0,,SCT,2600,,,,,,
KRDR,10-13-2008,17:12,SPECI,,280,14,20.0,,9999.0,,5.0,-1.0,30.05,1018.5,,,,,,,,,,,,,,,7/8 Mostly Cloudy,2500.0,,BKN,2500,,,,,,
KRDR,10-13-2008,17:00,METAR,,270,14,19.0,,9999.0,,5.0,0.0,30.05,1018.6,,,,,,,,,,,,,,,7/8 Mostly Cloudy,2300.0,,BKN,2300,,,,,,
KRDR,10-13-2008,17:00,SPECI,,260,17,23.0,,9999.0,,5.0,0.0,30.05,1018.5,,,,,,,,,,,,,,,4/8 Partly Cloudy,72000.0,,SCT,2300,,,,,,
KRDR,10-13-2008,16:00,METAR,,270,15,24.0,,9999.0,,4.0,0.0,30.06,1018.8,,,,,,,,,,,,,,,8/8 Overcast,1800.0,,OVC,1800,,,,,,
KRDR,10-13-2008,15:00,METAR,,280,12,17.0,,9999.0,,4.0,1.0,30.06,1018.8,,,,,,,,,,,,,,,8/8 Overcast,1400.0,,OVC,1400,,,,,,
KRDR,10-13-2008,14:00,METAR,,260,12,,,9999.0,,4.0,2.0,30.05,1018.6,,,,,,,,,,,,,,,8/8 Overcast,1300.0,,OVC,1300,,,,,,
KRDR,10-13-2008,13:00,METAR,,270,12,,,9999.0,,5.0,3.0,30.02,1017.5,,,,,,,,,,,,,,,8/8 Overcast,1200.0,,OVC,1200,,,,,,
KRDR,10-13-2008,12:29,SPECI,,260,10,,,9999.0,,5.0,3.0,30.01,1017.2,,,,,,,,,,,,,,,8/8 Overcast,1200.0,,OVC,1400,,,,,,
KRDR,10-13-2008,12:02,SPECI,,270,5,,,9999.0,,5.0,4.0,30.00,1016.8,,,,,,,,,,,,,,,7/8 Mostly Cloudy,2500.0,,BKN,2500,,,,,,
KRDR,10-13-2008,12:00,METAR,,280,7,,,9999.0,,5.0,4.0,29.99,1016.6,,,,,,,,,,,TRACE,,.03 IN,.54 IN,2/8 Mostly Clear,72000.0,,FEW,9900,,,,,,
KRDR,10-13-2008,11:50,SPECI,,290,7,,,9999.0,,5.0,4.0,29.99,1016.4,,,,,,,,,,,,,,,2/8 Mostly Clear,72000.0,,FEW,9900,,,,,,
KRDR,10-13-2008,11:02,SPECI,,290,12,,,9999.0,Light Rain,6.0,4.0,30.00,1016.8,61,,,,,,,,,,,,,,7/8 Mostly Cloudy,1300.0,,BKN,3000,,,,,,
KRDR,10-13-2008,11:00,METAR,,290,7,,,9999.0,Unknown Precipitation,6.0,4.0,30.00,1017.0,40,,,,,,,,,,,,,,7/8 Mostly Cloudy,2900.0,,BKN,2900,,,,,,
KRDR,10-13-2008,10:53,SPECI,,290,9,,,9999.0,Unknown Precipitation,6.0,4.0,30.00,1017.0,40,,,,,,,,,,,,,,7/8 Mostly Cloudy,3100.0,,BKN,3200,,,,,,
KRDR,10-13-2008,10:40,SPECI,,290,11,,,9999.0,,6.0,4.0,30.01,1017.0,,,,,,,,,,,,,,,8/8 Overcast,1100.0,,OVC,3100,,,,,,
KRDR,10-13-2008,10:36,SPECI,,270,10,,,9999.0,,6.0,4.0,30.01,1017.3,,,,,,,,,,,,,,,8/8 Overcast,1800.0,,OVC,1800,,,,,,
KRDR,10-13-2008,10:15,SPECI,,280,10,16.0,,9999.0,,6.0,5.0,30.00,1016.9,,,,,,,,,,,,,,,8/8 Overcast,1400.0,,OVC,1400,,,,,,
KRDR,10-13-2008,10:00,METAR,,270,9,,,9999.0,,6.0,5.0,29.99,1016.5,,,,,,,,,,,.01 IN,,,,7/8 Mostly Cloudy,1700.0,,FEW,900,BKN,1700.0,,,,
KRDR,10-13-2008,09:46,SPECI,,270,7,,,9999.0,Light Rain,6.0,5.0,29.99,1016.5,61,,,,,,,,,,,,,,8/8 Overcast,1400.0,,FEW,900,OVC,1400.0,,,,
KRDR,10-13-2008,09:40,SPECI,,260,10,,,9999.0,Light Rain,6.0,5.0,30.00,1016.9,61,,,,,,,,,,,,,,8/8 Overcast,1200.0,,OVC,1200,,,,,,
KRDR,10-13-2008,09:31,SPECI,,280,8,,,9999.0,Light Rain,6.0,5.0,29.98,1016.2,61,,,,,,,,,,,,,,8/8 Overcast,1100.0,,OVC,1100,,,,,,
KRDR,10-13-2008,09:05,SPECI,,270,9,,,9999.0,Light Rain,7.0,5.0,29.99,1016.4,61,,,,,,,,,,,,,,8/8 Overcast,900.0,,OVC,900,,,,,,
KRDR,10-13-2008,09:01,SPECI,,260,8,,,9999.0,,7.0,5.0,29.99,1016.6,,,,,,,,,,,,,,,8/8 Overcast,900.0,,OVC,900,,,,,,
KRDR,10-13-2008,09:00,METAR,,260,7,,,9999.0,,7.0,5.0,29.99,1016.4,,,,,,,,,,,TRACE,.02 IN,,,8/8 Overcast,1100.0,,OVC,1100,,,,,,
KRDR,10-13-2008,08:45,SPECI,,270,8,,,9999.0,,7.0,5.0,29.98,1016.1,,,,,,,,,,,,,,,8/8 Overcast,1100.0,,OVC,1100,,,,,,
KRDR,10-13-2008,08:38,SPECI,,270,9,,,9999.0,,7.0,6.0,29.98,1016.3,,,,,,,,,,,,,,,8/8 Overcast,1300.0,,OVC,1300,,,,,,
KRDR,10-13-2008,08:32,SPECI,,260,11,,,9999.0,Light Rain,7.0,6.0,29.99,1016.3,61,,,,,,,,,,,,,,8/8 Overcast,1300.0,,OVC,1300,,,,,,
KRDR,10-13-2008,08:29,SPECI,,260,9,,,9999.0,Light Rain,7.0,6.0,29.98,1016.3,61,,,,,,,,,,,,,,8/8 Overcast,1600.0,,OVC,1600,,,,,,
KRDR,10-13-2008,08:22,SPECI,,250,5,,,9999.0,Light Rain,7.0,6.0,29.99,1016.4,61,,,,,,,,,,,,,,7/8 Mostly Cloudy,1400.0,,BKN,1400,,,,,,
KRDR,10-13-2008,08:12,SPECI,,260,5,,,9999.0,,7.0,6.0,29.98,1016.2,,,,,,,,,,,,,,,7/8 Mostly Cloudy,1300.0,,FEW,1000,BKN,1300.0,BKN,5400.0,,
KRDR,10-13-2008,08:06,SPECI,,280,7,,,9999.0,,7.0,6.0,29.97,1016.0,,,,,,,,,,,,,,,7/8 Mostly Cloudy,6500.0,,SCT,1300,BKN,6400.0,,,,
KRDR,10-13-2008,08:00,METAR,,260,7,,,9999.0,Light Rain,7.0,6.0,29.98,1016.1,61,,,,,,,,,,.01 IN,,,,7/8 Mostly Cloudy,2800.0,,BKN,2800,,,,,,
KRDR,10-13-2008,07:35,SPECI,,270,9,,,9999.0,Light Rain,7.0,6.0,29.97,1015.8,61,,,,,,,,,,,,,,7/8 Mostly Cloudy,1600.0,,BKN,1600,,,,,,
KRDR,10-13-2008,07:32,SPECI,,260,9,,,9999.0,Light Rain,7.0,6.0,29.97,1015.8,61,,,,,,,,,,,,,,7/8 Mostly Cloudy,1200.0,,BKN,1200,,,,,,
KRDR,10-13-2008,07:24,SPECI,,260,10,,,9999.0,Light Rain,7.0,7.0,29.97,1015.9,61,,,,,,,,,,,,,,2/8 Mostly Clear,72000.0,,FEW,800,,,,,,
KRDR,10-13-2008,07:00,METAR,,270,9,,,9999.0,,8.0,7.0,29.97,1015.8,,,,,,,,,,,.01 IN,,,,Clear,72000.0,,,73000,,,,,,
KRDR,10-13-2008,06:32,SPECI,,280,5,,,9999.0,Light Rain,8.0,7.0,29.95,1015.3,61,,,,,,,,,,,,,,4/8 Partly Cloudy,72000.0,,SCT,1700,,,,,,
KRDR,10-13-2008,06:17,SPECI,,280,9,,,9999.0,Light Rain,8.0,7.0,29.95,1015.2,61,,,,,,,,,,,,,,8/8 Overcast,1600.0,,OVC,1600,,,,,,
KRDR,10-13-2008,06:14,SPECI,,270,9,15.0,,9999.0,Light Rain,8.0,7.0,29.96,1015.4,61,,,,,,,,,,,,,,8/8 Overcast,1200.0,,OVC,1200,,,,,,
KRDR,10-13-2008,06:12,SPECI,,270,9,,,9999.0,Light Rain,8.0,7.0,29.96,1015.4,61,,,,,,,,,,,,,,8/8 Overcast,1000.0,,OVC,1000,,,,,,
KRDR,10-13-2008,06:00,METAR,,270,12,,,9999.0,,8.0,7.0,29.95,1015.1,,,,,,,,,,,,,.05 IN,,8/8 Overcast,1000.0,,OVC,1000,,,,,,
KRDR,10-13-2008,05:47,SPECI,,270,11,,,9999.0,,8.0,7.0,29.95,1015.1,,,,,,,,,,,,,,,8/8 Overcast,1000.0,,OVC,1000,,,,,,
KRDR,10-13-2008,05:26,SPECI,,260,12,18.0,,9999.0,,8.0,7.0,29.96,1015.4,,,,,,,,,,,,,,,8/8 Overcast,900.0,,OVC,900,,,,,,
KRDR,10-13-2008,05:18,SPECI,,270,13,,,9999.0,,8.0,7.0,29.94,1014.8,,,,,,,,,,,,,,,8/8 Overcast,1100.0,,OVC,1100,,,,,,
KRDR,10-13-2008,05:14,SPECI,,280,11,,,9999.0,,8.0,7.0,29.93,1014.5,,,,,,,,,,,,,,,8/8 Overcast,1400.0,,OVC,1400,,,,,,
KRDR,10-13-2008,05:10,SPECI,,270,8,,,9999.0,,8.0,7.0,29.93,1014.6,,,,,,,,,,,,,,,8/8 Overcast,900.0,,BKN,900,BKN,1400.0,OVC,9900.0,,
KRDR,10-13-2008,05:00,METAR,,270,15,18.0,,9999.0,,8.0,7.0,29.93,1014.4,,,,,,,,,,,,,,,7/8 Mostly Cloudy,9500.0,,SCT,1300,SCT,5900.0,BKN,9400.0,,
KRDR,10-13-2008,04:35,SPECI,,260,11,,,9999.0,,9.0,7.0,29.92,1014.3,,,,,,,,,,,,,,,7/8 Mostly Cloudy,6000.0,,FEW,1100,BKN,5900.0,BKN,12000.0,,
KRDR,10-13-2008,04:13,SPECI,,250,11,,,9999.0,,9.0,7.0,29.92,1014.2,,,,,,,,,,,,,,,8/8 Overcast,3800.0,,FEW,1100,OVC,3900.0,,,,
KRDR,10-13-2008,04:00,METAR,,260,9,,,9999.0,,9.0,8.0,29.91,1013.9,,,,,,,,,,,,,,,8/8 Overcast,3200.0,,OVC,3300,,,,,,
KRDR,10-13-2008,03:00,METAR,,260,13,,,9999.0,,10.0,9.0,29.90,1013.4,,,,,,,,,,,.05 IN,.05 IN,,,4/8 Partly Cloudy,72000.0,,SCT,5900,,,,,,
KRDR,10-13-2008,02:42,SPECI,,250,9,,,9999.0,,11.0,9.0,29.89,1013.2,,,,,,,,,,,,,,,2/8 Mostly Clear,72000.0,,FEW,1300,,,,,,
KRDR,10-13-2008,02:21,SPECI,,260,13,,,9999.0,Light Rain,11.0,10.0,29.88,1013.0,61,,,,,,,,,,,,,,7/8 Mostly Cloudy,3900.0,,SCT,1300,BKN,4000.0,,,,
KRDR,10-13-2008,02:15,SPECI,,250,15,20.0,,9999.0,Light Rain/Mist,12.0,10.0,29.89,1013.1,61,10,,,,,,,,,,,,,8/8 Overcast,1300.0,,BKN,1300,OVC,3800.0,,,,
KRDR,10-13-2008,02:02,SPECI,,250,14,20.0,,9999.0,Unknown Precipitation,13.0,11.0,29.88,1012.8,40,,,,,,,,,,,,,,8/8 Overcast,3700.0,,OVC,3800,,,,,,
KRDR,10-13-2008,02:00,METAR,,250,11,16.0,,9999.0,,14.0,12.0,29.87,1012.5,,,,,,,,,,,,,,,8/8 Overcast,3500.0,,FEW,1600,OVC,3600.0,,,,
KRDR,10-13-2008,01:45,SPECI,,240,8,,,9999.0,,14.0,12.0,29.86,1012.4,,,,,,,,,,,,,,,8/8 Overcast,1000.0,,OVC,3000,,,,,,
KRDR,10-13-2008,01:41,SPECI,,240,7,,,9999.0,,14.0,13.0,29.86,1012.3,,,,,,,,,,,,,,,8/8 Overcast,900.0,,FEW,1000,OVC,2800.0,,,,
KRDR,10-13-2008,01:29,SPECI,,240,9,,,9999.0,,14.0,13.0,29.86,1012.3,,,,,,,,,,,,,,,8/8 Overcast,1600.0,,OVC,1600,,,,,,
KRDR,10-13-2008,01:14,SPECI,,240,16,,,9999.0,,16.0,15.0,29.85,1011.9,,,,,,,,,,,,,,,8/8 Overcast,1400.0,,OVC,1400,,,,,,
KRDR,10-13-2008,01:08,SPECI,,220,11,,,9999.0,,17.0,16.0,29.84,1011.6,,,,,,,,,,,,,,,8/8 Overcast,1600.0,,FEW,900,OVC,1600.0,,,,
KRDR,10-13-2008,01:00,METAR,,210,12,,,9999.0,,17.0,17.0,29.83,1011.2,,,,,,,,,,,TRACE,,,,8/8 Overcast,1300.0,,OVC,1300,,,,,,
KRDR,10-13-2008,01:00,SPECI,,220,11,,,9999.0,,17.0,17.0,29.84,1011.5,,,,,,,,,,,,,,,8/8 Overcast,1400.0,,FEW,400,OVC,1400.0,,,,
KRDR,10-13-2008,00:54,SPECI,,210,12,,,9999.0,,17.0,17.0,29.83,1011.3,,,,,,,,,,,,,,,8/8 Overcast,1500.0,,FEW,400,OVC,1500.0,,,,
KRDR,10-13-2008,00:49,SPECI,,210,12,,,9999.0,,17.0,17.0,29.83,1011.2,,,,,,,,,,,,,,,8/8 Overcast,1200.0,,FEW,400,BKN,1200.0,OVC,1900.0,,
KRDR,10-13-2008,00:46,SPECI,,200,14,,,9999.0,Light Drizzle,17.0,17.0,29.83,1011.1,51,,,,,,,,,,,,,,8/8 Overcast,1200.0,,OVC,1200,,,,,,
KRDR,10-13-2008,00:44,SPECI,,200,14,,,8000.0,Light Drizzle/Mist,17.0,17.0,29.83,1011.1,51,10,,,,,,,,,,,,,8/8 Overcast,1100.0,,OVC,1100,,,,,,
KRDR,10-13-2008,00:39,SPECI,,200,11,,,6400.0,Light Rain/Mist,17.0,17.0,29.83,1011.1,61,10,,,,,,,,,,,,,8/8 Overcast,1100.0,,OVC,1100,,,,,,
KRDR,10-13-2008,00:33,SPECI,,200,11,,,6400.0,Light Rain/Mist,17.0,17.0,29.82,1011.0,61,10,,,,,,,,,,,,,8/8 Overcast,1100.0,,OVC,1100,,,,,,
KRDR,10-13-2008,00:24,SPECI,,180,11,,,6400.0,Light Drizzle/Mist,17.0,17.0,29.81,1010.7,51,10,,,,,,,,,,,,,8/8 Overcast,1300.0,,OVC,1300,,,,,,
KRDR,10-13-2008,00:21,SPECI,,180,11,,,6400.0,Mist,17.0,17.0,29.81,1010.7,10,,,,,,,,,,,,,,8/8 Overcast,1300.0,,OVC,1300,,,,,,
KRDR,10-13-2008,00:14,SPECI,,180,12,,,6400.0,Light Drizzle/Mist,17.0,17.0,29.82,1010.8,51,10,,,,,,,,,,,,,8/8 Overcast,1300.0,,OVC,1300,,,,,,
KRDR,10-13-2008,00:07,SPECI,,180,12,,,9999.0,Light Drizzle/Mist,17.0,17.0,29.81,1010.7,51,10,,,,,,,,,,,,,8/8 Overcast,1300.0,,OVC,1300,,,,,,
KRDR,10-13-2008,00:00,METAR,,170,11,,,9999.0,Mist,17.0,17.0,29.80,1010.3,10,,,,,,,,,,,,.05 IN,,8/8 Overcast,1300.0,,OVC,1300,,,,,,
KRDR,10-12-2008,23:22,SPECI,,180,12,,,9999.0,,17.0,17.0,29.80,1010.2,,,,,,,,,,,,,,,8/8 Overcast,1300.0,,SCT,900,OVC,1300.0,,,,
KRDR,10-12-2008,23:00,METAR,,180,13,,,9999.0,,17.0,17.0,29.80,1010.2,,,,,,,,,,,,,,,8/8 Overcast,1300.0,,OVC,1300,,,,,,
KRDR,10-12-2008,22:00,METAR,,180,14,,,9999.0,,17.0,17.0,29.80,1010.4,,,,,,,,,,,,,,,8/8 Overcast,1300.0,,OVC,1300,,,,,,
KRDR,10-12-2008,21:48,SPECI,,180,12,21.0,,9999.0,,17.0,17.0,29.80,1010.4,,,,,,,,,,,,,,,8/8 Overcast,1100.0,,OVC,1100,,,,,,
KRDR,10-12-2008,21:40,SPECI,,180,14,21.0,,9999.0,,17.0,17.0,29.80,1010.3,,,,,,,,,,,,,,,8/8 Overcast,1200.0,,OVC,1200,,,,,,
KRDR,10-12-2008,21:00,METAR,,160,13,,,9999.0,,16.0,16.0,29.79,1010.0,,,,,,,,,,,.02 IN,.05 IN,,,8/8 Overcast,900.0,,OVC,900,,,,,,
KRDR,10-12-2008,20:43,SPECI,,160,16,,,9999.0,,16.0,16.0,29.80,1010.1,,,,,,,,,,,,,,,8/8 Overcast,900.0,,OVC,900,,,,,,
KRDR,10-12-2008,20:40,SPECI,,160,13,,,9999.0,Light Drizzle,16.0,16.0,29.80,1010.1,51,,,,,,,,,,,,,,8/8 Overcast,900.0,,OVC,900,,,,,,
KRDR,10-12-2008,20:31,SPECI,,160,12,,,8000.0,Light Rain/Mist,16.0,16.0,29.80,1010.2,61,10,,,,,,,,,,,,,7/8 Mostly Cloudy,1000.0,,BKN,1000,,,,,,
KRDR,10-12-2008,20:19,SPECI,,160,12,,,8000.0,Light Rain/Mist,16.0,16.0,29.80,1010.2,61,10,,,,,,,,,,,,,7/8 Mostly Cloudy,800.0,,BKN,800,,,,,,
KRDR,10-12-2008,20:15,SPECI,,160,13,,,8000.0,Unknown Precipitation/Mist,16.0,16.0,29.79,1010.0,40,10,,,,,,,,,,,,,4/8 Partly Cloudy,72000.0,,SCT,1000,,,,,,
KRDR,10-12-2008,20:13,SPECI,,150,13,,,8000.0,Mist,16.0,16.0,29.80,1010.1,10,,,,,,,,,,,,,,4/8 Partly Cloudy,72000.0,,SCT,1100,,,,,,
KRDR,10-12-2008,20:09,SPECI,,170,11,,,8000.0,Mist,16.0,16.0,29.80,1010.4,,10,,,,,,,,,,,,,2/8 Mostly Clear,72000.0,,FEW,1100,,,,,,
KRDR,10-12-2008,20:00,METAR,,160,9,,,9999.0,Mist,15.0,15.0,29.80,1010.3,,10,,,,,,,,,.03 IN,,,,4/8 Partly Cloudy,72000.0,,SCT,1200,,,,,,
KRDR,10-12-2008,19:48,SPECI,,150,8,,,9999.0,Unknown Precipitation,15.0,15.0,29.80,1010.3,40,,,,,,,,,,,,,,4/8 Partly Cloudy,72000.0,,SCT,1200,,,,,,
KRDR,10-12-2008,19:43,SPECI,,150,6,,,9999.0,,15.0,15.0,29.80,1010.4,,,,,,,,,,,,,,,2/8 Mostly Clear,72000.0,,FEW,1200,,,,,,
KRDR,10-12-2008,19:01,SPECI,,50,3,,,4800.0,Light Rain/Mist,11.0,11.0,29.83,1011.1,61,10,,,,,,,,,,,,,4/8 Partly Cloudy,72000.0,,SCT,1000,SCT,1800.0,,,,
KRDR,10-12-2008,19:00,METAR,,30,3,,,9999.0,Light Rain/Mist,11.0,11.0,29.83,1011.4,61,10,,,,,,,,,TRACE,,,,7/8 Mostly Cloudy,1700.0,,SCT,800,BKN,1700.0,,,,
KRDR,10-12-2008,18:48,SPECI,,30,3,,,9999.0,,11.0,11.0,29.84,1011.4,,,,,,,,,,,,,,,7/8 Mostly Cloudy,1700.0,,SCT,600,BKN,1700.0,,,,
KRDR,10-12-2008,18:46,SPECI,,,0,,,9999.0,,11.0,11.0,29.84,1011.5,,,,,,,,,,,,,,,7/8 Mostly Cloudy,1300.0,,BKN,1300,,,,,,
KRDR,10-12-2008,18:38,SPECI,,,0,,,9999.0,,12.0,11.0,29.84,1011.7,,,,,,,,,,,,,,,7/8 Mostly Cloudy,900.0,,BKN,900,,,,,,
KRDR,10-12-2008,18:00,METAR,,20,3,,,9999.0,,10.0,10.0,29.85,1012.0,,,,,,,,,,,.01 IN,,.41 IN,,8/8 Overcast,600.0,,OVC,600,,,,,,
KRDR,10-12-2008,17:42,SPECI,,20,3,,,9999.0,,10.0,10.0,29.85,1012.0,,,,,,,,,,,,,,,7/8 Mostly Cloudy,600.0,,BKN,600,,,,,,
KRDR,10-12-2008,17:36,SPECI,,,0,,,9999.0,Light Rain,10.0,10.0,29.85,1012.0,61,,,,,,,,,,,,,,7/8 Mostly Cloudy,600.0,,BKN,600,,,,,,
KRDR,10-12-2008,17:18,SPECI,,20,6,,,9999.0,Light Rain/Mist,9.0,9.0,29.85,1012.0,61,10,,,,,,,,,,,,,7/8 Mostly Cloudy,500.0,,BKN,500,,,,,,
KRDR,10-12-2008,17:00,METAR,,350,5,,,9999.0,,9.0,9.0,29.87,1012.4,,,,,,,,,,,TRACE,,,,8/8 Overcast,600.0,,OVC,600,,,,,,
KRDR,10-12-2008,16:09,SPECI,,30,8,,,9999.0,,8.0,8.0,29.86,1012.2,,,,,,,,,,,,,,,8/8 Overcast,600.0,,OVC,600,,,,,,
KRDR,10-12-2008,16:00,METAR,,360,6,,,9999.0,Light Rain,8.0,8.0,29.88,1013.0,61,,,,,,,,,,.01 IN,,,,8/8 Overcast,600.0,,OVC,600,,,,,,
KRDR,10-12-2008,15:31,SPECI,,350,5,,,9999.0,Light Rain,8.0,8.0,29.90,1013.4,61,,,,,,,,,,,,,,8/8 Overcast,600.0,,OVC,600,,,,,,
KRDR,10-12-2008,15:23,SPECI,,350,4,,,9999.0,Light Drizzle,8.0,8.0,29.90,1013.6,51,,,,,,,,,,,,,,8/8 Overcast,500.0,,OVC,500,,,,,,
KRDR,10-12-2008,15:17,SPECI,,340,4,,,9999.0,,8.0,8.0,29.90,1013.6,,,,,,,,,,,,,,,8/8 Overcast,500.0,,OVC,500,,,,,,
KRDR,10-12-2008,15:13,SPECI,,350,5,,,9999.0,,8.0,8.0,29.90,1013.6,,,,,,,,,,,,,,,8/8 Overcast,700.0,,SCT,300,OVC,700.0,,,,
KRDR,10-12-2008,15:00,METAR,,10,7,,,9999.0,,8.0,8.0,29.89,1013.3,,,,,,,,,,,.05 IN,.39 IN,,,8/8 Overcast,300.0,,OVC,300,,,,,,
KRDR,10-12-2008,14:41,SPECI,,10,9,,,9999.0,,8.0,7.0,29.89,1013.2,,,,,,,,,,,,,,,8/8 Overcast,300.0,,OVC,300,,,,,,
KRDR,10-12-2008,14:36,SPECI,,10,8,,,9999.0,,8.0,7.0,29.89,1013.2,,,,,,,,,,,,,,,8/8 Overcast,400.0,,OVC,400,,,,,,
KRDR,10-12-2008,14:28,SPECI,,10,7,,,9999.0,Light Rain,8.0,7.0,29.90,1013.5,61,,,,,,,,,,,,,,8/8 Overcast,400.0,,OVC,400,,,,,,
KRDR,10-12-2008,14:06,SPECI,,10,8,,,8000.0,Light Rain/Mist,7.0,7.0,29.91,1013.9,61,10,,,,,,,,,,,,,8/8 Overcast,500.0,,OVC,500,,,,,,
KRDR,10-12-2008,14:01,SPECI,,360,5,,,8000.0,Rain/Mist,7.0,7.0,29.92,1014.3,62,10,,,,,,,,,,,,,8/8 Overcast,600.0,,OVC,600,,,,,,
KRDR,10-12-2008,14:00,METAR,,360,5,,,9999.0,Light Rain,7.0,7.0,29.92,1014.3,61,,,,,,,,,,.16 IN,,,,8/8 Overcast,700.0,,SCT,300,OVC,700.0,,,,
KRDR,10-12-2008,13:43,SPECI,,20,10,,,9999.0,Light Rain,7.0,7.0,29.90,1013.7,61,,,,,,,,,,,,,,8/8 Overcast,700.0,,SCT,300,OVC,700.0,,,,
KRDR,10-12-2008,13:26,SPECI,,30,11,,,9999.0,Unknown Precipitation,7.0,7.0,29.91,1013.9,40,,,,,,,,,,,,,,8/8 Overcast,500.0,,OVC,500,,,,,,
KRDR,10-12-2008,13:20,SPECI,,30,10,,,9999.0,Unknown Precipitation,7.0,7.0,29.91,1014.0,40,,,,,,,,,,,,,,8/8 Overcast,600.0,,OVC,600,,,,,,
KRDR,10-12-2008,13:00,METAR,,30,10,,,6400.0,Rain/Mist,7.0,7.0,29.93,1014.5,62,10,,,,,,,,,.18 IN,,,,8/8 Overcast,700.0,,OVC,700,,,,,,
KRDR,10-12-2008,12:39,SPECI,,30,12,,,9999.0,Rain,7.0,7.0,29.93,1014.6,62,,,,,,,,,,,,,,8/8 Overcast,600.0,,OVC,600,,,,,,
KRDR,10-12-2008,12:21,SPECI,,20,11,,,9999.0,Rain,7.0,7.0,29.95,1015.1,62,,,,,,,,,,,,,,8/8 Overcast,500.0,,OVC,500,,,,,,
KRDR,10-12-2008,12:17,SPECI,,20,10,,,9999.0,Rain,7.0,7.0,29.96,1015.4,62,,,,,,,,,,,,,,8/8 Overcast,600.0,,OVC,600,,,,,,
KRDR,10-12-2008,12:10,SPECI,,20,10,,,9999.0,Rain,7.0,7.0,29.96,1015.6,62,,,,,,,,,,,,,,8/8 Overcast,700.0,,SCT,300,OVC,700.0,,,,
KRDR,10-12-2008,12:06,SPECI,,20,10,,,9999.0,Rain,7.0,7.0,29.96,1015.5,62,,,,,,,,,,,,,,8/8 Overcast,700.0,,SCT,300,OVC,700.0,,,,
KRDR,10-12-2008,12:00,METAR,,20,13,,,9999.0,Light Rain,7.0,7.0,29.97,1015.8,61,,,,,,,,,,.06 IN,,.72 IN,1.08 IN,8/8 Overcast,300.0,,BKN,300,OVC,700.0,,,,
KRDR,10-12-2008,11:47,SPECI,,20,12,,,9999.0,Unknown Precipitation,7.0,6.0,29.98,1016.0,40,,,,,,,,,,,,,,8/8 Overcast,300.0,,BKN,300,OVC,700.0,,,,
KRDR,10-12-2008,11:45,SPECI,,20,12,,,9999.0,Unknown Precipitation,7.0,6.0,29.97,1015.9,40,,,,,,,,,,,,,,8/8 Overcast,400.0,,OVC,400,,,,,,
KRDR,10-12-2008,11:31,SPECI,,20,13,,,9999.0,Light Rain,7.0,6.0,29.98,1016.1,61,,,,,,,,,,,,,,8/8 Overcast,300.0,,OVC,300,,,,,,
KRDR,10-12-2008,11:15,SPECI,,10,14,,,9999.0,Light Rain,7.0,6.0,29.98,1016.1,61,,,,,,,,,,,,,,8/8 Overcast,400.0,,OVC,400,,,,,,
KRDR,10-12-2008,11:09,SPECI,,20,12,,,9999.0,Unknown Precipitation,7.0,6.0,29.98,1016.2,40,,,,,,,,,,,,,,8/8 Overcast,500.0,,OVC,500,,,,,,
KRDR,10-12-2008,11:07,SPECI,,20,12,,,9999.0,Unknown Precipitation,7.0,6.0,29.98,1016.2,40,,,,,,,,,,,,,,8/8 Overcast,600.0,,OVC,600,,,,,,
KRDR,10-12-2008,11:00,METAR,,20,11,,,9999.0,Rain/Mist,7.0,6.0,29.99,1016.5,62,10,,,,,,,,,.14 IN,,,,8/8 Overcast,500.0,,OVC,500,,,,,,
KRDR,10-12-2008,10:44,SPECI,,20,11,,,9999.0,Rain/Mist,6.0,6.0,29.99,1016.6,62,10,,,,,,,,,,,,,8/8 Overcast,600.0,,OVC,600,,,,,,
KRDR,10-12-2008,10:26,SPECI,,10,13,,,9999.0,Rain/Mist,6.0,6.0,30.01,1017.0,62,10,,,,,,,,,,,,,8/8 Overcast,500.0,,OVC,500,,,,,,
KRDR,10-12-2008,10:12,SPECI,,10,10,,,9999.0,Unknown Precipitation,6.0,6.0,30.01,1017.0,40,,,,,,,,,,,,,,8/8 Overcast,600.0,,OVC,600,,,,,,
KRDR,10-12-2008,10:00,METAR,,360,13,,,9999.0,Heavy Rain/Mist,6.0,6.0,30.01,1017.2,63,10,,,,,,,,,.19 IN,,,,8/8 Overcast,700.0,,OVC,700,,,,,,
KRDR,10-12-2008,09:19,SPECI,,360,10,,,8000.0,Heavy Rain/Mist,7.0,6.0,30.03,1018.0,63,10,,,,,,,,,,,,,8/8 Overcast,700.0,,OVC,700,,,,,,
KRDR,10-12-2008,09:05,SPECI,,10,7,,,9999.0,Rain/Mist,7.0,6.0,30.04,1018.2,62,10,,,,,,,,,,,,,8/8 Overcast,600.0,,OVC,600,,,,,,
KRDR,10-12-2008,09:00,METAR,,10,9,,,8000.0,Rain/Mist,7.0,6.0,30.03,1017.8,62,10,,,,,,,,,.07 IN,.33 IN,,,8/8 Overcast,700.0,,SCT,300,OVC,700.0,,,,
KRDR,10-12-2008,08:40,SPECI,,10,9,,,9999.0,Light Rain/Mist,7.0,6.0,30.02,1017.6,61,10,,,,,,,,,,,,,8/8 Overcast,700.0,,SCT,300,OVC,700.0,,,,
KRDR,10-12-2008,08:22,SPECI,,10,9,,,9999.0,Light Rain/Mist,6.0,6.0,30.02,1017.6,61,10,,,,,,,,,,,,,8/8 Overcast,300.0,,BKN,300,OVC,700.0,,,,
KRDR,10-12-2008,08:00,METAR,,10,9,,,9999.0,Light Rain,6.0,6.0,30.04,1018.2,61,,,,,,,,,,.15 IN,,,,8/8 Overcast,500.0,,OVC,500,,,,,,
KRDR,10-12-2008,07:42,SPECI,,20,10,,,9999.0,Light Rain,6.0,6.0,30.04,1018.2,61,,,,,,,,,,,,,,8/8 Overcast,500.0,,OVC,500,,,,,,
KRDR,10-12-2008,07:26,SPECI,,30,9,,,9999.0,Rain/Mist,6.0,6.0,30.05,1018.6,62,10,,,,,,,,,,,,,8/8 Overcast,500.0,,OVC,500,,,,,,
KRDR,10-12-2008,07:03,SPECI,,20,9,,,8000.0,Rain/Mist,6.0,6.0,30.07,1019.2,62,10,,,,,,,,,,,,,8/8 Overcast,600.0,,OVC,600,,,,,,
KRDR,10-12-2008,07:00,METAR,,30,9,,,9999.0,Light Rain/Mist,6.0,6.0,30.07,1019.2,61,10,,,,,,,,,.11 IN,,,,8/8 Overcast,500.0,,OVC,500,,,,,,
KRDR,10-12-2008,06:50,SPECI,,30,10,,,9999.0,Light Rain/Mist,6.0,6.0,30.07,1019.2,61,10,,,,,,,,,,,,,8/8 Overcast,500.0,,OVC,500,,,,,,
KRDR,10-12-2008,06:39,SPECI,,30,11,,,9999.0,Light Rain,6.0,6.0,30.07,1019.2,61,,,,,,,,,,,,,,8/8 Overcast,400.0,,OVC,400,,,,,,
KRDR,10-12-2008,06:35,SPECI,,20,12,,,9999.0,Unknown Precipitation,6.0,6.0,30.07,1019.2,40,,,,,,,,,,,,,,8/8 Overcast,400.0,,OVC,400,,,,,,
KRDR,10-12-2008,06:24,SPECI,,30,11,,,6400.0,Unknown Precipitation/Mist,6.0,6.0,30.07,1019.1,40,10,,,,,,,,,,,,,8/8 Overcast,500.0,,OVC,500,,,,,,
KRDR,10-12-2008,06:03,SPECI,,20,12,18.0,,4800.0,Unknown Precipitation/Mist,6.0,6.0,30.08,1019.6,40,10,,,,,,,,,,,,,8/8 Overcast,500.0,,OVC,500,,,,,,
KRDR,10-12-2008,06:00,METAR,,30,14,,,6400.0,Mist,6.0,6.0,30.08,1019.5,10,,,,,,,,,,,,.03 IN,,8/8 Overcast,300.0,,OVC,300,,,,,,
KRDR,10-12-2008,05:53,SPECI,,30,14,,,6400.0,Light Rain/Mist,6.0,6.0,30.08,1019.5,61,10,,,,,,,,,,,,,8/8 Overcast,300.0,,OVC,300,,,,,,
KRDR,10-12-2008,05:35,SPECI,,20,11,,,8000.0,Mist,6.0,6.0,30.11,1020.3,10,,,,,,,,,,,,,,8/8 Overcast,300.0,,OVC,300,,,,,,
KRDR,10-12-2008,05:01,SPECI,,20,13,,,8000.0,Mist,6.0,5.0,30.11,1020.4,10,,,,,,,,,,,,,,8/8 Overcast,300.0,,OVC,300,,,,,,
KRDR,10-12-2008,05:00,METAR,,20,15,,,8000.0,Mist,6.0,5.0,30.11,1020.5,10,,,,,,,,,,TRACE,,,,8/8 Overcast,300.0,,OVC,300,,,,,,
KRDR,10-12-2008,04:32,SPECI,,20,11,,,8000.0,Mist,6.0,5.0,30.14,1021.5,10,,,,,,,,,,,,,,8/8 Overcast,300.0,,OVC,300,,,,,,
KRDR,10-12-2008,04:30,SPECI,,30,12,,,8000.0,Light Rain/Mist,5.0,5.0,30.14,1021.4,61,10,,,,,,,,,,,,,8/8 Overcast,300.0,,OVC,300,,,,,,
KRDR,10-12-2008,04:28,SPECI,,20,12,,,8000.0,Light Rain/Mist,5.0,5.0,30.14,1021.5,61,10,,,,,,,,,,,,,8/8 Overcast,300.0,,OVC,300,,,,,,
KRDR,10-12-2008,04:18,SPECI,,20,16,,,9999.0,Light Rain/Mist,5.0,5.0,30.14,1021.3,61,10,,,,,,,,,,,,,8/8 Overcast,300.0,,OVC,300,,,,,,
KRDR,10-12-2008,04:01,SPECI,,20,14,,,9999.0,Mist,5.0,5.0,30.14,1021.4,10,,,,,,,,,,,,,,8/8 Overcast,300.0,,OVC,300,,,,,,
KRDR,10-12-2008,04:00,METAR,,20,16,21.0,,8000.0,Light Rain/Mist,5.0,5.0,30.14,1021.5,61,10,,,,,,,,,.02 IN,,,,8/8 Overcast,400.0,,OVC,400,,,,,,
KRDR,10-12-2008,03:53,SPECI,,20,15,21.0,,8000.0,Light Rain/Mist,5.0,5.0,30.14,1021.5,61,10,,,,,,,,,,,,,8/8 Overcast,300.0,,OVC,300,,,,,,
KRDR,10-12-2008,03:41,SPECI,,20,13,,,6400.0,Light Rain/Mist,5.0,5.0,30.15,1021.6,61,10,,,,,,,,,,,,,8/8 Overcast,400.0,,OVC,400,,,,,,
KRDR,10-12-2008,03:02,SPECI,,10,14,,,6400.0,Light Rain/Mist,5.0,5.0,30.16,1022.0,61,10,,,,,,,,,,,,,8/8 Overcast,400.0,,OVC,400,,,,,,
KRDR,10-12-2008,03:00,METAR,,20,17,,,6400.0,Light Rain/Mist,5.0,5.0,30.15,1021.9,61,10,,,,,,,,,.01 IN,.01 IN,,,8/8 Overcast,500.0,,OVC,500,,,,,,
KRDR,10-12-2008,02:37,SPECI,,10,17,22.0,,6400.0,Light Rain/Mist,5.0,4.0,30.15,1021.9,61,10,,,,,,,,,,,,,8/8 Overcast,500.0,,OVC,500,,,,,,
KRDR,10-12-2008,02:27,SPECI,,10,14,21.0,,6400.0,Unknown Precipitation/Mist,5.0,4.0,30.16,1022.1,40,10,,,,,,,,,,,,,8/8 Overcast,600.0,,OVC,600,,,,,,
KRDR,10-12-2008,02:20,SPECI,,10,14,21.0,,4800.0,Unknown Precipitation/Mist,5.0,4.0,30.16,1022.2,40,10,,,,,,,,,,,,,8/8 Overcast,500.0,,OVC,500,,,,,,
KRDR,10-12-2008,02:14,SPECI,,10,15,21.0,,6400.0,Unknown Precipitation/Mist,5.0,4.0,30.17,1022.3,40,10,,,,,,,,,,,,,8/8 Overcast,600.0,,OVC,600,,,,,,
KRDR,10-12-2008,02:11,SPECI,,10,16,21.0,,6400.0,Unknown Precipitation/Mist,5.0,4.0,30.17,1022.3,40,10,,,,,,,,,,,,,8/8 Overcast,600.0,,OVC,600,,,,,,
KRDR,10-12-2008,02:00,METAR,,10,14,20.0,,9999.0,Light Rain/Mist,5.0,4.0,30.17,1022.5,61,10,,,,,,,,,,,,,8/8 Overcast,700.0,,OVC,700,,,,,,
KRDR,10-12-2008,01:39,SPECI,,10,13,19.0,,9999.0,,5.0,4.0,30.17,1022.4,,,,,,,,,,,,,,,8/8 Overcast,900.0,,OVC,900,,,,,,
KRDR,10-12-2008,01:30,SPECI,,10,14,19.0,,9999.0,,5.0,4.0,30.17,1022.4,,,,,,,,,,,,,,,8/8 Overcast,1000.0,,OVC,1000,,,,,,
KRDR,10-12-2008,01:26,SPECI,,10,12,20.0,,9999.0,Light Rain,5.0,4.0,30.17,1022.4,61,,,,,,,,,,,,,,8/8 Overcast,1100.0,,OVC,1100,,,,,,
KRDR,10-12-2008,01:19,SPECI,,10,14,20.0,,9999.0,Light Rain,5.0,4.0,30.16,1022.2,61,,,,,,,,,,,,,,8/8 Overcast,1400.0,,FEW,500,OVC,1400.0,,,,
KRDR,10-12-2008,01:11,SPECI,,10,16,21.0,,9999.0,Light Rain,5.0,4.0,30.16,1022.1,61,,,,,,,,,,,,,,8/8 Overcast,1600.0,,OVC,1600,,,,,,
KRDR,10-12-2008,01:08,SPECI,,10,15,21.0,,9999.0,,5.0,4.0,30.16,1022.1,,,,,,,,,,,,,,,8/8 Overcast,1600.0,,OVC,1600,,,,,,
KRDR,10-12-2008,01:06,SPECI,,10,15,21.0,,9999.0,Unknown Precipitation,5.0,4.0,30.16,1022.2,40,,,,,,,,,,,,,,8/8 Overcast,1600.0,,OVC,1600,,,,,,
KRDR,10-12-2008,01:00,METAR,,10,14,19.0,,9999.0,,5.0,4.0,30.16,1022.2,,,,,,,,,,,TRACE,,,,8/8 Overcast,1600.0,,OVC,1600,,,,,,
KRDR,10-12-2008,00:50,SPECI,,10,13,,,9999.0,,5.0,4.0,30.16,1022.2,,,,,,,,,,,,,,,8/8 Overcast,1600.0,,OVC,1600,,,,,,
KRDR,10-12-2008,00:34,SPECI,,10,13,,,9999.0,,5.0,4.0,30.17,1022.5,,,,,,,,,,,,,,,8/8 Overcast,1500.0,,OVC,1500,,,,,,
KRDR,10-12-2008,00:30,SPECI,,10,14,17.0,,9999.0,,5.0,4.0,30.18,1022.6,,,,,,,,,,,,,,,8/8 Overcast,1500.0,,OVC,1500,,,,,,
KRDR,10-12-2008,00:18,SPECI,,10,12,,,9999.0,Light Drizzle,5.0,4.0,30.17,1022.6,51,,,,,,,,,,,,,,8/8 Overcast,1400.0,,OVC,1400,,,,,,
KRDR,10-12-2008,00:16,SPECI,,10,14,,,9999.0,Light Drizzle,5.0,4.0,30.17,1022.5,51,,,,,,,,,,,,,,8/8 Overcast,1600.0,,OVC,1600,,,,,,
KRDR,10-12-2008,00:00,METAR,,10,11,,,9999.0,Light Rain,5.0,4.0,30.18,1022.7,61,,,,,,,,,,.01 IN,,.2 IN,,8/8 Overcast,1800.0,,OVC,1800,,,,,,
KRDR,10-11-2008,23:36,SPECI,,10,11,,,9999.0,Light Rain,5.0,4.0,30.17,1022.6,61,,,,,,,,,,,,,,8/8 Overcast,1700.0,,OVC,1700,,,,,,
KRDR,10-11-2008,23:18,SPECI,,20,13,,,9999.0,,6.0,4.0,30.17,1022.3,,,,,,,,,,,,,,,8/8 Overcast,1700.0,,OVC,1700,,,,,,
KRDR,10-11-2008,23:00,METAR,,20,14,,,9999.0,,6.0,4.0,30.16,1022.3,,,,,,,,,,,.05 IN,,,,8/8 Overcast,1800.0,,OVC,1800,,,,,,
KRDR,10-11-2008,22:54,SPECI,,20,15,,,9999.0,Light Rain,6.0,4.0,30.16,1022.2,61,,,,,,,,,,,,,,8/8 Overcast,1800.0,,OVC,1800,,,,,,
KRDR,10-11-2008,22:32,SPECI,,10,13,21.0,,9999.0,,6.0,4.0,30.16,1022.2,,,,,,,,,,,,,,,8/8 Overcast,1900.0,,OVC,1900,,,,,,
KRDR,10-11-2008,22:00,METAR,,360,10,,,9999.0,Unknown Precipitation,6.0,4.0,30.19,1023.0,40,,,,,,,,,,.05 IN,,,,8/8 Overcast,2000.0,,OVC,2000,,,,,,
KRDR,10-11-2008,21:27,SPECI,,10,11,,,9999.0,Light Rain,6.0,5.0,30.17,1022.5,61,,,,,,,,,,,,,,8/8 Overcast,2000.0,,OVC,2000,,,,,,
KRDR,10-11-2008,21:17,SPECI,,20,15,19.0,,9999.0,,6.0,5.0,30.16,1022.0,,,,,,,,,,,,,,,8/8 Overcast,2000.0,,OVC,2000,,,,,,
KRDR,10-11-2008,21:02,SPECI,,30,13,,,4800.0,Unknown Precipitation/Mist,6.0,4.0,30.15,1021.8,40,10,,,,,,,,,,,,,7/8 Mostly Cloudy,1900.0,,BKN,1900,,,,,,
KRDR,10-11-2008,21:00,METAR,,20,15,22.0,,4800.0,Unknown Precipitation/Mist,6.0,4.0,30.17,1022.4,40,10,,,,,,,,,.07 IN,.09 IN,,,8/8 Overcast,1900.0,,OVC,1900,,,,,,
KRDR,10-11-2008,20:54,SPECI,,10,15,22.0,,4000.0,Unknown Precipitation/Mist,6.0,4.0,30.16,1022.2,40,10,,,,,,,,,,,,,8/8 Overcast,1900.0,,OVC,1900,,,,,,
KRDR,10-11-2008,20:13,SPECI,,20,14,,,9999.0,Light Rain,7.0,5.0,30.17,1022.3,61,,,,,,,,,,,,,,8/8 Overcast,1800.0,,OVC,1800,,,,,,
KRDR,10-11-2008,20:00,METAR,,20,15,,,9999.0,,7.0,5.0,30.16,1022.2,,,,,,,,,,,TRACE,,,,8/8 Overcast,1700.0,,OVC,1700,,,,,,
KRDR,10-11-2008,19:26,SPECI,,20,17,,,9999.0,,7.0,6.0,30.16,1022.2,,,,,,,,,,,,,,,8/8 Overcast,1600.0,,FEW,1000,OVC,1600.0,,,,
KRDR,10-11-2008,19:20,SPECI,,20,17,,,9999.0,Light Rain,7.0,6.0,30.16,1022.3,61,,,,,,,,,,,,,,8/8 Overcast,1500.0,,OVC,1500,,,,,,
KRDR,10-11-2008,19:10,SPECI,,20,19,,,9999.0,,7.0,6.0,30.17,1022.4,,,,,,,,,,,,,,,8/8 Overcast,1600.0,,OVC,1600,,,,,,
KRDR,10-11-2008,19:00,METAR,,20,14,,,9999.0,,7.0,6.0,30.19,1023.0,,,,,,,,,,,.02 IN,,,,8/8 Overcast,1100.0,,OVC,1100,,,,,,
KRDR,10-11-2008,18:53,SPECI,,20,14,,,9999.0,,7.0,6.0,30.18,1022.9,,,,,,,,,,,,,,,8/8 Overcast,1300.0,,OVC,1300,,,,,,
KRDR,10-11-2008,18:50,SPECI,,20,15,,,9999.0,,7.0,6.0,30.19,1023.0,,,,,,,,,,,,,,,8/8 Overcast,1100.0,,OVC,1100,,,,,,
KRDR,10-11-2008,18:41,SPECI,,20,15,23.0,,9999.0,,7.0,6.0,30.19,1023.0,,,,,,,,,,,,,,,8/8 Overcast,1200.0,,OVC,1200,,,,,,
KRDR,10-11-2008,18:38,SPECI,,20,17,23.0,,9999.0,,7.0,6.0,30.19,1023.0,,,,,,,,,,,,,,,7/8 Mostly Cloudy,1000.0,,BKN,1000,,,,,,
KRDR,10-11-2008,18:30,SPECI,,20,13,20.0,,9999.0,Light Rain,7.0,6.0,30.18,1022.9,61,,,,,,,,,,,,,,7/8 Mostly Cloudy,1100.0,,BKN,1100,,,,,,
KRDR,10-11-2008,18:28,SPECI,,20,13,20.0,,9999.0,Light Rain,7.0,6.0,30.19,1023.0,61,,,,,,,,,,,,,,7/8 Mostly Cloudy,1300.0,,BKN,1300,,,,,,
KRDR,10-11-2008,18:24,SPECI,,20,14,20.0,,9999.0,Light Rain,7.0,6.0,30.18,1022.9,61,,,,,,,,,,,,,,7/8 Mostly Cloudy,2900.0,,FEW,700,BKN,2900.0,,,,
KRDR,10-11-2008,18:00,METAR,,30,14,,,9999.0,Light Drizzle,7.0,6.0,30.19,1023.1,51,,,,,,,,,,.07 IN,,.13 IN,,7/8 Mostly Cloudy,2800.0,,BKN,2800,,,,,,
KRDR,10-11-2008,17:53,SPECI,,30,14,,,9999.0,,7.0,6.0,30.19,1023.0,,,,,,,,,,,,,,,7/8 Mostly Cloudy,3100.0,,BKN,3200,,,,,,
KRDR,10-11-2008,17:25,SPECI,,10,12,,,9999.0,Unknown Precipitation,6.0,6.0,30.22,1024.2,40,,,,,,,,,,,,,,8/8 Overcast,1500.0,,OVC,1500,,,,,,
KRDR,10-11-2008,17:00,METAR,,350,7,,,9999.0,Rain,6.0,5.0,30.23,1024.5,62,,,,,,,,,,.06 IN,,,,8/8 Overcast,1200.0,,OVC,1200,,,,,,
KRDR,10-11-2008,16:38,SPECI,,10,12,,,9999.0,Unknown Precipitation,6.0,6.0,30.21,1023.7,40,,,,,,,,,,,,,,8/8 Overcast,1400.0,,OVC,1400,,,,,,
KRDR,10-11-2008,16:06,SPECI,,20,12,,,9999.0,Rain,7.0,5.0,30.21,1023.7,,,,61,,,,,,,,,,,8/8 Overcast,1600.0,,SCT,1300,OVC,1600.0,,,,
KRDR,10-11-2008,16:00,METAR,,10,13,,,9999.0,,7.0,5.0,30.22,1024.1,,,,,,,,,,,,,,,8/8 Overcast,1700.0,,SCT,1300,OVC,1700.0,,,,
KRDR,10-11-2008,15:00,METAR,,20,15,20.0,,9999.0,,6.0,5.0,30.19,1023.1,,,,,,,,,,,TRACE,,,,8/8 Overcast,1700.0,,SCT,1000,OVC,1700.0,,,,
KRDR,10-11-2008,14:00,METAR,,20,14,,,9999.0,Drizzle,6.0,5.0,30.20,1023.4,,,,51,,,,,,,TRACE,,,,8/8 Overcast,1900.0,,SCT,900,BKN,1900.0,OVC,2500.0,,
KRDR,10-11-2008,13:24,SPECI,,10,11,,,9999.0,Drizzle,6.0,5.0,30.22,1024.1,,,,51,,,,,,,,,,,8/8 Overcast,1800.0,,FEW,1000,BKN,1800.0,OVC,2000.0,,
KRDR,10-11-2008,13:16,SPECI,,10,11,,,9999.0,,6.0,5.0,30.21,1023.9,,,,,,,,,,,,,,,8/8 Overcast,1700.0,,FEW,1000,BKN,1700.0,OVC,2100.0,,
KRDR,10-11-2008,13:00,METAR,,20,11,,,9999.0,,6.0,5.0,30.20,1023.4,,,,,,,,,,,,,,,8/8 Overcast,2000.0,,BKN,2000,OVC,2900.0,,,,
KRDR,10-11-2008,12:00,METAR,,10,10,,,9999.0,,6.0,4.0,30.20,1023.5,,,,,,,,,,,,,.13 IN,.22 IN,8/8 Overcast,2600.0,,OVC,2600,,,,,,
KRDR,10-11-2008,11:49,SPECI,,10,10,,,9999.0,,6.0,4.0,30.20,1023.5,,,,,,,,,,,,,,,8/8 Overcast,2800.0,,OVC,2800,,,,,,
KRDR,10-11-2008,11:00,METAR,,20,11,,,9999.0,,6.0,4.0,30.18,1022.8,,,,,,,,,,,,,,,8/8 Overcast,3200.0,,OVC,3300,,,,,,
KRDR,10-11-2008,10:00,METAR,,10,10,,,9999.0,,6.0,4.0,30.17,1022.4,,,,,,,,,,,TRACE,,,,8/8 Overcast,3300.0,,OVC,3400,,,,,,
KRDR,10-11-2008,09:00,METAR,,20,8,,,9999.0,Light Drizzle,5.0,4.0,30.17,1022.3,51,,,,,,,,,,.02 IN,.13 IN,,,8/8 Overcast,3900.0,,OVC,4000,,,,,,
KRDR,10-11-2008,08:54,SPECI,,30,7,,,9999.0,,5.0,4.0,30.16,1022.2,,,,,,,,,,,,,,,8/8 Overcast,3800.0,,OVC,3900,,,,,,
KRDR,10-11-2008,08:00,SPECI,,30,10,,,9999.0,Light Rain,5.0,5.0,30.18,1022.8,61,,,,,,,,,,,,,,4/8 Partly Cloudy,72000.0,,SCT,2000,SCT,3500.0,,,,
KRDR,10-11-2008,08:00,METAR,,360,7,,,9999.0,Rain,5.0,5.0,30.18,1022.9,62,,,,,,,,,,.06 IN,,,,2/8 Mostly Clear,72000.0,,FEW,3500,,,,,,
KRDR,10-11-2008,07:56,SPECI,,20,9,,,9999.0,Light Rain,5.0,5.0,30.18,1022.7,61,,,,,,,,,,,,,,4/8 Partly Cloudy,72000.0,,FEW,1800,SCT,3500.0,,,,
KRDR,10-11-2008,07:00,METAR,,360,8,,,9999.0,,5.0,5.0,30.20,1023.5,,,,,,,,,,,.05 IN,,,,Clear,72000.0,,,73000,,,,,,
KRDR,10-11-2008,06:00,METAR,,360,7,,,9999.0,,5.0,5.0,30.20,1023.3,,,,,,,,,,,.04 IN,,.09 IN,,Clear,72000.0,,,73000,,,,,,
KRDR,10-11-2008,05:00,METAR,,30,3,,,9999.0,Light Rain,6.0,5.0,30.20,1023.6,61,,,,,,,,,,.03 IN,,,,4/8 Partly Cloudy,72000.0,,SCT,3100,,,,,,
KRDR,10-11-2008,04:31,SPECI,,50,5,,,9999.0,Light Rain,6.0,5.0,30.19,1023.2,61,,,,,,,,,,,,,,7/8 Mostly Cloudy,3000.0,,FEW,1400,BKN,3000.0,,,,
KRDR,10-11-2008,04:23,SPECI,,50,4,,,9999.0,Light Rain,6.0,5.0,30.19,1023.2,61,,,,,,,,,,,,,,7/8 Mostly Cloudy,2900.0,,FEW,1400,BKN,2900.0,,,,
KRDR,10-11-2008,04:00,METAR,,80,7,,,9999.0,Rain,6.0,5.0,30.18,1022.7,,,,61,,,,,,,TRACE,,,,8/8 Overcast,3200.0,,BKN,3300,OVC,5000.0,,,,
KRDR,10-11-2008,03:37,SPECI,,110,5,,,9999.0,,6.0,5.0,30.19,,,,,,,,,,,,,,,,8/8 Overcast,3100.0,,OVC,3200,,,,,,
KRDR,10-11-2008,03:05,SPECI,,100,5,,,9999.0,Rain,6.0,5.0,30.18,1022.6,,,,61,,,,,,,,,,,8/8 Overcast,3100.0,,OVC,3200,,,,,,
KRDR,10-11-2008,03:00,METAR,,10,6,,,9999.0,,6.0,5.0,30.17,1022.5,,,,,,,,,,,TRACE,.02 IN,,,8/8 Overcast,3100.0,,BKN,3200,OVC,5900.0,,,,
KRDR,10-11-2008,02:14,SPECI,,,0,,,9999.0,,6.0,5.0,30.17,1022.4,,,,,,,,,,,,,,,7/8 Mostly Cloudy,6000.0,,FEW,3500,BKN,5900.0,,,,
KRDR,10-11-2008,02:00,METAR,,320,4,,,9999.0,Rain,6.0,5.0,30.17,1022.5,,,,61,,,,,,,.02 IN,,,,8/8 Overcast,6000.0,,FEW,3500,BKN,5900.0,OVC,8900.0,,
KRDR,10-11-2008,01:00,METAR,,,0,,,9999.0,Rain,6.0,4.0,30.18,1022.7,,,,61,,,,,,,TRACE,,,,8/8 Overcast,6000.0,,FEW,3500,BKN,5900.0,OVC,7900.0,,
KRDR,10-11-2008,00:35,SPECI,,,0,,,9999.0,Rain,6.0,4.0,30.18,1022.8,,,,61,,,,,,,,,,,8/8 Overcast,6500.0,,SCT,4000,OVC,6400.0,,,,
KRDR,10-11-2008,00:00,METAR,,140,4,,,9999.0,,6.0,4.0,30.17,1022.3,,,,,,,,,,,,,,,8/8 Overcast,6000.0,,FEW,4000,OVC,5900.0,,,,
KRDR,10-10-2008,23:00,METAR,,140,4,,,9999.0,,7.0,3.0,30.15,1021.8,,,,,,,,,,,,,,,8/8 Overcast,6500.0,,FEW,3500,BKN,6400.0,OVC,9900.0,,
KRDR,10-10-2008,22:00,METAR,,120,4,,,9999.0,,8.0,4.0,30.13,1021.2,,,,,,,,,,,,,,,8/8 Overcast,6000.0,,FEW,3500,BKN,5900.0,OVC,9900.0,,
KRDR,10-10-2008,21:00,METAR,,160,6,,,9999.0,,8.0,3.0,30.14,1021.3,,,,,,,,,,,,,,,8/8 Overcast,6500.0,,FEW,3000,BKN,6400.0,OVC,9900.0,,
KRDR,10-10-2008,20:00,METAR,,200,6,,,9999.0,,8.0,3.0,30.14,1021.5,,,,,,,,,,,,,,,8/8 Overcast,3200.0,,BKN,3300,BKN,7400.0,OVC,12000.0,,
KRDR,10-10-2008,19:00,METAR,,200,10,,,9999.0,,8.0,4.0,30.15,1021.6,,,,,,,,,,,,,,,8/8 Overcast,12000.0,,SCT,2000,BKN,12000.0,OVC,20000.0,,
KRDR,10-10-2008,18:00,METAR,,,0,,,9999.0,,8.0,3.0,30.16,1022.0,,,,,,,,,,,,,,,8/8 Overcast,20000.0,,SCT,12000,OVC,20000.0,,,,
KRDR,10-10-2008,17:00,METAR,,,0,,,9999.0,,7.0,3.0,30.14,1021.6,,,,,,,,,,,,,,,Clear,72000.0,,,73000,,,,,,
KRDR,10-10-2008,16:00,METAR,,,0,,,9999.0,,6.0,4.0,30.13,1021.3,,,,,,,,,,,,,,,8/8 Overcast,20000.0,,SCT,12000,OVC,20000.0,,,,
KRDR,10-10-2008,15:00,METAR,,,0,,,9999.0,,5.0,3.0,30.13,1021.2,,,,,,,,,,,,,,,8/8 Overcast,20000.0,,SCT,12000,OVC,20000.0,,,,
KRDR,10-10-2008,14:00,METAR,,,0,,,9999.0,,4.0,3.0,30.12,1020.7,,,,,,,,,,,,,,,8/8 Overcast,20000.0,,SCT,12000,OVC,20000.0,,,,
KRDR,10-10-2008,13:00,METAR,,10,5,,,9999.0,,2.0,2.0,30.11,1020.4,,,,,,,,,,,,,,,8/8 Overcast,20000.0,,SCT,12000,OVC,20000.0,,,,
KRDR,10-10-2008,12:00,METAR,,,0,,,9999.0,,2.0,1.0,30.10,1020.1,,,,,,,,,,,,,,,Clear,72000.0,,,73000,,,,,,
KRDR,10-10-2008,11:00,METAR,,,0,,,9999.0,,2.0,1.0,30.10,1020.1,,,,,,,,,,,,,,,7/8 Mostly Cloudy,9000.0,,BKN,8900,,,,,,
KRDR,10-10-2008,10:00,METAR,,,0,,,9999.0,,2.0,2.0,30.09,1019.7,,,,,,,,,,,,,,,4/8 Partly Cloudy,72000.0,,SCT,9400,,,,,,
KRDR,10-10-2008,09:00,METAR,,,0,,,9999.0,,4.0,3.0,30.07,1019.1,,,,,,,,,,,,,,,Clear,72000.0,,,73000,,,,,,
KRDR,10-10-2008,08:00,METAR,,,0,,,9999.0,,5.0,3.0,30.09,1019.8,,,,,,,,,,,,,,,Clear,72000.0,,,73000,,,,,,
KRDR,10-10-2008,07:00,METAR,,220,4,,,9999.0,,5.0,3.0,30.10,1020.2,,,,,,,,,,,,,,,8/8 Overcast,15000.0,,BKN,15000,OVC,25000.0,,,,
KRDR,10-10-2008,06:00,METAR,,,0,,,9999.0,,5.0,3.0,30.10,1020.0,,,,,,,,,,,,,,,8/8 Overcast,15000.0,,BKN,15000,OVC,25000.0,,,,
KRDR,10-10-2008,05:00,METAR,,230,3,,,9999.0,,5.0,2.0,30.09,1019.9,,,,,,,,,,,,,,,8/8 Overcast,15000.0,,BKN,15000,OVC,25000.0,,,,
KRDR,10-10-2008,04:00,METAR,,310,3,,,9999.0,,5.0,2.0,30.06,1018.8,,,,,,,,,,,,,,,8/8 Overcast,15000.0,,BKN,15000,OVC,25000.0,,,,
KRDR,10-10-2008,03:00,METAR,,280,3,,,9999.0,,6.0,2.0,30.05,1018.5,,,,,,,,,,,,,,,8/8 Overcast,15000.0,,BKN,15000,OVC,25000.0,,,,
KRDR,10-10-2008,02:00,METAR,,290,5,,,9999.0,,7.0,2.0,30.03,1018.0,,,,,,,,,,,,,,,8/8 Overcast,15000.0,,BKN,15000,OVC,25000.0,,,,
KRDR,10-10-2008,01:00,METAR,,240,6,,,9999.0,,6.0,2.0,30.02,1017.5,,,,,,,,,,,,,,,7/8 Mostly Cloudy,25000.0,,BKN,25000,,,,,,
KRDR,10-10-2008,00:00,METAR,,300,6,,,9999.0,,9.0,1.0,30.01,1017.2,,,,,,,,,,,,,,,7/8 Mostly Cloudy,25000.0,,FEW,4000,BKN,25000.0,,,,
KRDR,10-09-2008,23:00,METAR,,310,7,,,9999.0,,11.0,0.0,30.00,1016.8,,,,,,,,,,,,,,,7/8 Mostly Cloudy,25000.0,,FEW,4000,BKN,25000.0,,,,
KRDR,10-09-2008,22:00,METAR,,310,13,18.0,,9999.0,,13.0,0.0,29.99,1016.6,,,,,,,,,,,,,,,Clear,72000.0,,,73000,,,,,,
KRDR,10-09-2008,21:00,METAR,,290,15,21.0,,9999.0,,13.0,1.0,29.99,1016.6,,,,,,,,,,,,,,,2/8 Mostly Clear,72000.0,,FEW,4000,,,,,,
KRDR,10-09-2008,20:00,METAR,,280,15,21.0,,9999.0,,13.0,2.0,29.98,1016.3,,,,,,,,,,,,,,,2/8 Mostly Clear,72000.0,,FEW,4000,,,,,,
KRDR,10-09-2008,19:00,METAR,,280,18,24.0,280/26KTS,9999.0,,12.0,1.0,29.99,1016.4,,,,,,,,,,,,,,,2/8 Mostly Clear,72000.0,,FEW,4000,,,,,,
KRDR,10-09-2008,18:00,METAR,,280,17,22.0,,9999.0,,11.0,1.0,29.98,1016.3,,,,,,,,,,,,,,,2/8 Mostly Clear,72000.0,,FEW,4000,,,,,,
KRDR,10-09-2008,17:00,METAR,,300,15,21.0,290/26KTS,9999.0,,10.0,2.0,29.98,1016.0,,,,,,,,,,,,,,,2/8 Mostly Clear,72000.0,,FEW,4000,,,,,,
KRDR,10-09-2008,16:00,METAR,,290,17,24.0,290/27KTS,9999.0,,10.0,2.0,29.96,,,,,,,,,,,,,,,,2/8 Mostly Clear,72000.0,,FEW,4000,,,,,,
KRDR,10-09-2008,15:00,METAR,,290,18,23.0,,9999.0,,8.0,2.0,29.91,,,,,,,,,,,,,,,,2/8 Mostly Clear,72000.0,,FEW,4000,,,,,,
KRDR,10-09-2008,14:00,METAR,,290,19,24.0,,9999.0,,7.0,1.0,29.91,,,,,,,,,,,,,,,,2/8 Mostly Clear,72000.0,,FEW,4000,,,,,,
KRDR,10-09-2008,13:00,METAR,,290,15,,,9999.0,,5.0,0.0,29.89,1013.3,,,,,,,,,,,,,,,2/8 Mostly Clear,72000.0,,FEW,4000,,,,,,
KRDR,10-09-2008,12:00,METAR,,300,13,18.0,,9999.0,,6.0,0.0,29.86,1012.3,,,,,,,,,,,,,,,Clear,72000.0,,,73000,,,,,,
KRDR,10-09-2008,11:00,METAR,,290,15,24.0,300/31KTS,9999.0,,7.0,0.0,29.85,1011.7,,,,,,,,,,,,,,,Clear,72000.0,,,73000,,,,,,
KRDR,10-09-2008,10:00,METAR,,290,20,28.0,290/31KTS,9999.0,,8.0,-1.0,29.82,1010.9,,,,,,,,,,,,,,,Clear,72000.0,,,73000,,,,,,
KRDR,10-09-2008,09:00,METAR,,290,17,32.0,280/33KTS,9999.0,,9.0,-1.0,29.79,1010.0,,,,,,,,,,,,,,,Clear,72000.0,,,73000,,,,,,
KRDR,10-09-2008,08:00,METAR,,290,21,27.0,280/34KTS,9999.0,,9.0,-2.0,29.78,1009.4,,,,,,,,,,,,,,,Clear,72000.0,,,73000,,,,,,
KRDR,10-09-2008,07:00,METAR,,290,22,30.0,290/30KTS,9999.0,,10.0,-2.0,29.77,1009.3,,,,,,,,,,,,,,,Clear,72000.0,,,73000,,,,,,
KRDR,10-09-2008,06:00,METAR,,290,17,26.0,290/26KTS,9999.0,,10.0,-2.0,29.78,1009.7,,,,,,,,,,,,,,,Clear,72000.0,,,73000,,,,,,
KRDR,10-09-2008,05:00,METAR,,270,14,19.0,,9999.0,,9.0,-2.0,29.78,1009.6,,,,,,,,,,,,,,,Clear,72000.0,,,73000,,,,,,
KRDR,10-09-2008,04:00,METAR,,270,14,,,9999.0,,10.0,-2.0,29.77,1009.4,,,,,,,,,,,,,,,2/8 Mostly Clear,72000.0,,FEW,6400,,,,,,
KRDR,10-09-2008,03:00,METAR,,280,13,19.0,,9999.0,,11.0,-2.0,29.77,1009.2,,,,,,,,,,,,,,,2/8 Mostly Clear,72000.0,,FEW,6400,,,,,,
KRDR,10-09-2008,02:00,METAR,,280,13,19.0,,9999.0,,12.0,-1.0,29.76,1009.1,,,,,,,,,,,,,,,2/8 Mostly Clear,72000.0,,FEW,6400,,,,,,
KRDR,10-09-2008,01:00,METAR,,270,8,,,9999.0,,12.0,1.0,29.75,1008.7,,,,,,,,,,,,,,,2/8 Mostly Clear,72000.0,,FEW,6400,,,,,,
KRDR,10-09-2008,00:00,METAR,,280,11,,,9999.0,,14.0,2.0,29.73,1008.3,,,,,,,,,,,,,,,2/8 Mostly Clear,72000.0,,FEW,6400,,,,,,
KRDR,10-08-2008,23:00,METAR,,300,10,16.0,290/28KTS,9999.0,,15.0,4.0,29.73,1007.9,,,,,,,,,,,,,,,4/8 Partly Cloudy,72000.0,,SCT,6400,,,,,,
KRDR,10-08-2008,22:00,METAR,,290,17,24.0,280/30KTS,9999.0,,15.0,4.0,29.73,1007.8,,,,,,,,,,,,,,,7/8 Mostly Cloudy,6500.0,,BKN,6400,,,,,,
KRDR,10-08-2008,21:00,METAR,,280,21,31.0,280/33KTS,9999.0,,17.0,5.0,29.71,1007.3,,,,,,,,,,,,,,,4/8 Partly Cloudy,72000.0,,SCT,5900,,,,,,
KRDR,10-08-2008,20:00,METAR,,270,20,29.0,280/32KTS,9999.0,,17.0,5.0,29.69,1006.8,,,,,,,,,,,,,,,2/8 Mostly Clear,72000.0,,FEW,5000,,,,,,
KRDR,10-08-2008,19:00,METAR,,290,19,29.0,290/30KTS,9999.0,,17.0,5.0,29.69,1006.7,,,,,,,,,,,,,,,2/8 Mostly Clear,72000.0,,FEW,5000,,,,,,
KRDR,10-08-2008,18:00,METAR,,290,16,23.0,,9999.0,,16.0,5.0,29.71,1007.2,,,,,,,,,,,,,,,Clear,72000.0,,,73000,,,,,,
KRDR,10-08-2008,17:00,METAR,,270,14,23.0,,9999.0,,16.0,4.0,29.71,1007.3,,,,,,,,,,,,,,,Clear,72000.0,,,73000,,,,,,
KRDR,10-08-2008,16:00,METAR,,280,15,25.0,,9999.0,,14.0,5.0,29.71,1007.4,,,,,,,,,,,,,,,Clear,72000.0,,,73000,,,,,,
KRDR,10-08-2008,15:00,METAR,,270,15,20.0,,9999.0,,13.0,6.0,29.70,1007.0,,,,,,,,,,,,,,,2/8 Mostly Clear,72000.0,,FEW,5900,,,,,,
KRDR,10-08-2008,14:00,METAR,,260,15,,,9999.0,,10.0,5.0,29.70,1007.1,,,,,,,,,,,,,,,4/8 Partly Cloudy,72000.0,,FEW,5900,SCT,11000.0,,,,
KRDR,10-08-2008,13:00,METAR,,260,10,,,9999.0,,10.0,4.0,29.68,1006.4,,,,,,,,,,,,,,,4/8 Partly Cloudy,72000.0,,FEW,7900,SCT,11000.0,,,,
KRDR,10-08-2008,12:00,METAR,,220,7,,,9999.0,,8.0,4.0,29.70,1006.8,,,,,,,,,,,,,,,4/8 Partly Cloudy,72000.0,,SCT,11000,,,,,,
KRDR,10-08-2008,11:00,METAR,,180,8,,,9999.0,,9.0,3.0,29.70,1007.0,,,,,,,,,,,,,,,Clear,72000.0,,,73000,,,,,,
KRDR,10-08-2008,10:00,METAR,,180,7,,,9999.0,,9.0,3.0,29.74,1008.4,,,,,,,,,,,,,,,4/8 Partly Cloudy,72000.0,,SCT,9900,,,,,,
KRDR,10-08-2008,09:00,METAR,,190,8,,,9999.0,,11.0,2.0,29.75,1008.8,,,,,,,,,,,,,,,7/8 Mostly Cloudy,12000.0,,BKN,12000,,,,,,
KRDR,10-08-2008,08:00,METAR,,180,8,,,9999.0,,9.0,4.0,29.78,1009.7,,,,,,,,,,,,,,,2/8 Mostly Clear,72000.0,,FEW,11000,,,,,,
KRDR,10-08-2008,07:00,METAR,,200,5,,,9999.0,,9.0,4.0,29.81,1010.6,,,,,,,,,,,,,,,2/8 Mostly Clear,72000.0,,FEW,7900,,,,,,
KRDR,10-08-2008,06:00,METAR,,220,5,,,9999.0,,8.0,4.0,29.83,1011.4,,,,,,,,,,,,,,,Clear,72000.0,,,73000,,,,,,
KRDR,10-08-2008,05:00,METAR,,230,7,,,9999.0,,5.0,3.0,29.84,1011.7,,,,,,,,,,,,,,,7/8 Mostly Cloudy,12000.0,,BKN,12000,BKN,25000.0,,,,
KRDR,10-08-2008,04:00,METAR,,200,5,,,9999.0,,5.0,3.0,29.86,1012.2,,,,,,,,,,,,,,,7/8 Mostly Cloudy,25000.0,,SCT,9900,BKN,25000.0,,,,
KRDR,10-08-2008,03:00,METAR,,220,4,,,9999.0,,6.0,3.0,29.87,1012.5,,,,,,,,,,,,,,,7/8 Mostly Cloudy,25000.0,,BKN,25000,,,,,,
KRDR,10-08-2008,02:00,METAR,,210,3,,,9999.0,,7.0,3.0,29.88,1013.0,,,,,,,,,,,,,,,7/8 Mostly Cloudy,25000.0,,BKN,25000,,,,,,
KRDR,10-08-2008,01:00,METAR,,260,5,,,9999.0,,7.0,5.0,29.90,1013.6,,,,,,,,,,,,,,,4/8 Partly Cloudy,72000.0,,SCT,25000,,,,,,
KRDR,10-08-2008,00:00,METAR,,270,4,,,9999.0,,12.0,4.0,29.90,1013.6,,,,,,,,,,,,,,,4/8 Partly Cloudy,72000.0,,SCT,25000,,,,,,
KRDR,10-07-2008,23:00,METAR,,300,7,,,9999.0,,15.0,3.0,29.91,1013.9,,,,,,,,,,,,,,,2/8 Mostly Clear,72000.0,,FEW,25000,,,,,,
KRDR,10-07-2008,22:00,METAR,,300,9,,,9999.0,,16.0,4.0,29.91,1014.0,,,,,,,,,,,,,,,2/8 Mostly Clear,72000.0,,FEW,12000,FEW,25000.0,,,,
KRDR,10-07-2008,21:00,METAR,,320,10,,,9999.0,,16.0,5.0,29.93,1014.4,,,,,,,,,,,,,,,2/8 Mostly Clear,72000.0,,FEW,3500,FEW,12000.0,,,,
KRDR,10-07-2008,20:00,METAR,,300,13,,,9999.0,,16.0,7.0,29.94,1014.7,,,,,,,,,,,,,,,2/8 Mostly Clear,72000.0,,FEW,3500,,,,,,
KRDR,10-07-2008,19:00,METAR,,290,12,,,9999.0,,14.0,7.0,29.94,1015.3,,,,,,,,,,,,,,,4/8 Partly Cloudy,72000.0,,SCT,3100,,,,,,
KRDR,10-07-2008,18:00,METAR,,320,11,15.0,,9999.0,,14.0,7.0,29.98,1016.1,,,,,,,,,,,,,,,2/8 Mostly Clear,72000.0,,FEW,2600,,,,,,
KRDR,10-07-2008,17:00,METAR,,310,9,,,9999.0,,12.0,6.0,29.99,1016.4,,,,,,,,,,,,,,,2/8 Mostly Clear,72000.0,,FEW,5000,FEW,20000.0,,,,
KRDR,10-07-2008,16:00,METAR,,300,9,,,9999.0,,11.0,6.0,30.00,1016.9,,,,,,,,,,,,,,,2/8 Mostly Clear,72000.0,,FEW,5000,FEW,20000.0,,,,
KRDR,10-07-2008,15:00,METAR,,280,6,,,9999.0,,8.0,5.0,30.01,1017.0,,,,,,,,,,,,,,,4/8 Partly Cloudy,72000.0,,FEW,12000,SCT,20000.0,,,,
KRDR,10-07-2008,14:00,METAR,,260,6,,,9999.0,,8.0,5.0,30.00,1017.0,,,,,,,,,,,,,,,4/8 Partly Cloudy,72000.0,,SCT,20000,,,,,,
KRDR,10-07-2008,13:00,METAR,,280,7,,,9999.0,,7.0,5.0,29.99,1016.4,,,,,,,,,,,,,,,7/8 Mostly Cloudy,18000.0,,BKN,18000,,,,,,
KRDR,10-07-2008,12:00,METAR,,270,8,,,9999.0,,9.0,5.0,29.99,1016.7,,,,,,,,,,,,,,1.37 IN,7/8 Mostly Cloudy,18000.0,,FEW,12000,BKN,18000.0,,,,
KRDR,10-07-2008,11:00,METAR,,260,5,,,9999.0,,9.0,6.0,30.00,1016.8,,,,,,,,,,,,,,,7/8 Mostly Cloudy,17000.0,,BKN,17000,,,,,,
KRDR,10-07-2008,10:00,METAR,,270,6,,,9999.0,,9.0,6.0,30.00,1016.9,,,,,,,,,,,,,,,Clear,72000.0,,,73000,,,,,,
KRDR,10-07-2008,09:00,METAR,,260,9,,,9999.0,,10.0,7.0,30.00,1016.8,,,,,,,,,,,,,,,Clear,72000.0,,,73000,,,,,,
KRDR,10-07-2008,08:00,METAR,,230,5,,,9999.0,,10.0,8.0,30.01,1017.0,,,,,,,,,,,,,,,Clear,72000.0,,,73000,,,,,,
KRDR,10-07-2008,07:00,METAR,,240,4,,,9999.0,,10.0,9.0,30.01,1017.2,,,,,,,,,,,,,,,Clear,72000.0,,,73000,,,,,,
KRDR,10-07-2008,06:00,METAR,,270,5,,,9999.0,,10.0,9.0,30.01,1017.3,,,,,,,,,,,,,,,Clear,72000.0,,,73000,,,,,,
KRDR,10-07-2008,05:00,METAR,,280,5,,,9999.0,,11.0,9.0,30.02,1017.6,,,,,,,,,,,,,,,Clear,72000.0,,,73000,,,,,,
KRDR,10-07-2008,04:00,METAR,,280,5,,,9999.0,,12.0,9.0,30.01,1017.1,,,,,,,,,,,,,,,7/8 Mostly Cloudy,11000.0,,BKN,11000,,,,,,
KRDR,10-07-2008,03:00,METAR,,240,6,,,9999.0,,11.0,10.0,29.98,1016.4,,,,,,,,,,,,,,,7/8 Mostly Cloudy,10000.0,,BKN,9900,,,,,,
KRDR,10-07-2008,02:00,METAR,,230,5,,,9999.0,,11.0,10.0,29.96,1015.9,,,,,,,,,,,,,,,7/8 Mostly Cloudy,10000.0,,BKN,9900,,,,,,
KRDR,10-07-2008,01:00,METAR,,230,5,,,9999.0,,13.0,10.0,29.95,1015.4,,,,,,,,,,,,,,,7/8 Mostly Cloudy,10000.0,,FEW,5000,BKN,9900.0,,,,
KRDR,10-07-2008,00:00,METAR,,230,4,,,9999.0,,13.0,11.0,29.92,1014.6,,,,,,,,,,,,,.4 IN,,7/8 Mostly Cloudy,10000.0,,FEW,4500,SCT,5000.0,BKN,9900.0,,
KRDR,10-06-2008,23:00,METAR,,260,5,,,9999.0,,14.0,12.0,29.91,1013.7,,,,,,,,,,,TRACE,,,,7/8 Mostly Cloudy,4900.0,,FEW,4500,BKN,5000.0,BKN,9900.0,,
KRDR,10-06-2008,22:22,SPECI,,280,5,,,9999.0,Rain,14.0,12.0,29.89,1013.4,,,,61,,,,,,,,,,,7/8 Mostly Cloudy,7000.0,,FEW,3900,BKN,6900.0,BKN,9900.0,,
KRDR,10-06-2008,22:00,METAR,,290,5,,,9999.0,,15.0,14.0,29.87,1012.6,,,,,,,,,,,.01 IN,,,,7/8 Mostly Cloudy,7000.0,,FEW,2900,BKN,6900.0,BKN,9900.0,,
KRDR,10-06-2008,21:00,METAR,,260,5,,,9999.0,Rain,15.0,14.0,29.86,1012.3,,,,61,,,,,,,.02 IN,.39 IN,,,8/8 Overcast,2900.0,,FEW,2500,BKN,2900.0,OVC,5400.0,,
KRDR,10-06-2008,20:00,METAR,,300,8,,,9999.0,Rain,14.0,14.0,29.84,1011.6,,,,61,,,,,,,.28 IN,,,,8/8 Overcast,2500.0,,BKN,2500,BKN,3100.0,OVC,5000.0,,
KRDR,10-06-2008,19:49,SPECI,,300,9,,,9999.0,Rain,14.0,14.0,29.84,1011.7,,,,61,,,,,,,,,,,8/8 Overcast,1500.0,,BKN,1500,OVC,3000.0,,,,
KRDR,10-06-2008,19:20,SPECI,,300,10,,,3200.0,Heavy Rain/Mist,15.0,15.0,29.83,1011.2,,,,65,10,,,,,,,,,,7/8 Mostly Cloudy,1000.0,,BKN,1000,,,,,,
KRDR,10-06-2008,19:18,SPECI,,290,13,,,2400.0,Heavy Rain/Mist,16.0,15.0,29.83,1011.2,,,,65,10,,,,,,,,,,7/8 Mostly Cloudy,1200.0,,FEW,300,BKN,1200.0,,,,
KRDR,10-06-2008,19:00,METAR,,180,8,,,3200.0,Rain/Mist,16.0,16.0,29.81,1010.7,,,,61,10,,,,,,.09 IN,,,,8/8 Overcast,1200.0,,FEW,500,SCT,900.0,OVC,1200.0,,
KRDR,10-06-2008,18:00,METAR,,170,9,,,3200.0,Rain/Mist,15.0,15.0,29.81,1010.6,,,,61,10,,,,,,.12 IN,,.97 IN,,8/8 Overcast,900.0,,OVC,900,,,,,,
KRDR,10-06-2008,17:00,METAR,,160,10,,,3200.0,Rain/Mist,15.0,15.0,29.81,1010.7,,,,61,10,,,,,,.14 IN,,,,8/8 Overcast,800.0,,FEW,500,OVC,800.0,,,,
KRDR,10-06-2008,16:31,SPECI,,160,11,21.0,,4000.0,Rain/Mist,15.0,15.0,29.81,,,,,61,10,,,,,,,,,,8/8 Overcast,900.0,,OVC,900,,,,,,
KRDR,10-06-2008,16:00,METAR,,160,11,,,2400.0,Rain/Mist,15.0,15.0,29.81,1010.6,,,,63,10,,,,,,.3 IN,,,,8/8 Overcast,900.0,,OVC,900,,,,,,
KRDR,10-06-2008,15:13,SPECI,,180,9,,,2000.0,Rain/Mist,15.0,15.0,29.81,,,,,61,10,,,,,,,,,,8/8 Overcast,900.0,,OVC,900,,,,,,
KRDR,10-06-2008,15:00,METAR,,170,10,,,1600.0,Rain/Mist,15.0,15.0,29.80,1010.3,,,,63,10,,,,,,.36 IN,.41 IN,,,8/8 Overcast,800.0,,OVC,800,,,,,,
KRDR,10-06-2008,14:38,SPECI,,160,12,,,2000.0,Rain/Mist,15.0,15.0,29.79,1010.1,,,,63,10,,,,,,,,,,8/8 Overcast,700.0,,OVC,700,,,,,,
KRDR,10-06-2008,14:31,SPECI,,180,9,,,2400.0,Rain/Mist,15.0,15.0,29.80,1010.2,,,,63,10,,,,,,,,,,8/8 Overcast,600.0,,FEW,300,OVC,600.0,,,,
KRDR,10-06-2008,14:28,SPECI,,180,11,,,3200.0,Rain/Mist,15.0,14.0,29.80,1010.1,,,,61,10,,,,,,,,,,8/8 Overcast,800.0,,OVC,800,,,,,,
KRDR,10-06-2008,14:14,SPECI,,160,10,,,2400.0,Rain/Mist,14.0,14.0,29.79,1009.8,,,,61,10,,,,,,,,,,8/8 Overcast,800.0,,OVC,800,,,,,,
KRDR,10-06-2008,14:05,SPECI,,160,10,,,3200.0,Rain/Mist,14.0,14.0,29.79,1009.8,,,,61,10,,,,,,,,,,8/8 Overcast,700.0,,OVC,700,,,,,,
KRDR,10-06-2008,14:00,SPECI,,150,13,,,4800.0,Rain/Mist,14.0,14.0,29.78,1009.7,,,,61,10,,,,,,,,,,8/8 Overcast,700.0,,OVC,700,,,,,,
KRDR,10-06-2008,14:00,METAR,,150,12,,,4000.0,Rain/Mist,14.0,14.0,29.78,1009.6,,,,61,10,,,,,,.05 IN,,,,8/8 Overcast,700.0,,OVC,700,,,,,,
KRDR,10-06-2008,13:43,SPECI,,150,11,,,4000.0,Rain/Mist,14.0,14.0,29.78,1009.5,,,,61,10,,,,,,,,,,8/8 Overcast,800.0,,OVC,800,,,,,,
KRDR,10-06-2008,13:13,SPECI,,140,13,,,8000.0,Rain/Mist,14.0,13.0,29.78,1009.5,,,,61,10,,,,,,,,,,8/8 Overcast,900.0,,OVC,900,,,,,,
KRDR,10-06-2008,13:00,METAR,,150,12,,,9999.0,,14.0,13.0,29.78,1009.4,,,,,,,,,,,TRACE,,,,8/8 Overcast,1000.0,,OVC,1000,,,,,,
KRDR,10-06-2008,12:39,SPECI,,140,14,19.0,,9999.0,,14.0,13.0,29.77,1009.4,,,,,,,,,,,,,,,8/8 Overcast,1000.0,,OVC,1000,,,,,,
KRDR,10-06-2008,12:31,SPECI,,140,14,,,9999.0,Rain,14.0,14.0,29.77,1009.2,,,,61,,,,,,,,,,,8/8 Overcast,800.0,,OVC,800,,,,,,
KRDR,10-06-2008,12:00,METAR,,150,15,21.0,,8000.0,Rain/Mist,14.0,13.0,29.77,1009.1,,,,61,10,,,,,,.01 IN,,.04 IN,1.11 IN,8/8 Overcast,600.0,,OVC,600,,,,,,
KRDR,10-06-2008,11:28,SPECI,,150,13,23.0,,9999.0,,14.0,13.0,29.76,1009.1,,,,,,,,,,,,,,,8/8 Overcast,600.0,,OVC,600,,,,,,
KRDR,10-06-2008,11:22,SPECI,,140,15,23.0,,9999.0,,14.0,13.0,29.77,1009.1,,,,,,,,,,,,,,,8/8 Overcast,700.0,,OVC,700,,,,,,
KRDR,10-06-2008,11:00,METAR,,140,12,,,9999.0,Light Rain/Mist,13.0,13.0,29.77,1009.1,61,10,,,,,,,,,.01 IN,,,,8/8 Overcast,800.0,,OVC,800,,,,,,
KRDR,10-06-2008,10:37,SPECI,,140,14,18.0,,9999.0,Light Rain,13.0,13.0,29.77,1009.3,61,,,,,,,,,,,,,,8/8 Overcast,900.0,,OVC,900,,,,,,
KRDR,10-06-2008,10:33,SPECI,,140,12,18.0,,9999.0,Light Rain,13.0,13.0,29.77,1009.2,61,,,,,,,,,,,,,,8/8 Overcast,900.0,,OVC,900,,,,,,
KRDR,10-06-2008,10:30,SPECI,,140,11,,,9999.0,,13.0,13.0,29.77,1009.2,,,,,,,,,,,,,,,8/8 Overcast,900.0,,OVC,900,,,,,,
KRDR,10-06-2008,10:17,SPECI,,140,12,,,9999.0,Light Rain,13.0,13.0,29.77,1009.3,61,,,,,,,,,,,,,,8/8 Overcast,900.0,,OVC,900,,,,,,
KRDR,10-06-2008,10:09,SPECI,,140,12,,,9999.0,,13.0,13.0,29.77,1009.3,,,,,,,,,,,,,,,8/8 Overcast,1000.0,,OVC,1000,,,,,,
KRDR,10-06-2008,10:05,SPECI,,140,14,,,6400.0,Unknown Precipitation/Mist,13.0,13.0,29.77,1009.4,40,10,,,,,,,,,,,,,8/8 Overcast,1000.0,,OVC,1000,,,,,,
KRDR,10-06-2008,10:00,METAR,,140,13,20.0,,9999.0,Light Rain,13.0,12.0,29.78,1009.5,61,,,,,,,,,,.01 IN,,,,8/8 Overcast,1100.0,,OVC,1100,,,,,,
KRDR,10-06-2008,09:38,SPECI,,140,13,20.0,,9999.0,Light Rain,13.0,12.0,29.78,1009.5,61,,,,,,,,,,,,,,8/8 Overcast,1100.0,,OVC,1100,,,,,,
KRDR,10-06-2008,09:18,SPECI,,140,12,,,9999.0,,13.0,12.0,29.78,1009.6,,,,,,,,,,,,,,,8/8 Overcast,1000.0,,OVC,1000,,,,,,
KRDR,10-06-2008,09:11,SPECI,,140,13,19.0,,9999.0,Unknown Precipitation,13.0,12.0,29.78,1009.6,40,,,,,,,,,,,,,,8/8 Overcast,1000.0,,OVC,1000,,,,,,
KRDR,10-06-2008,09:00,METAR,,140,14,21.0,,9999.0,,13.0,12.0,29.79,1009.8,,,,,,,,,,,,.01 IN,,,8/8 Overcast,1000.0,,OVC,1000,,,,,,
KRDR,10-06-2008,08:42,SPECI,,140,14,22.0,,9999.0,,13.0,12.0,29.79,1009.9,,,,,,,,,,,,,,,8/8 Overcast,1100.0,,OVC,1100,,,,,,
KRDR,10-06-2008,08:17,SPECI,,140,14,23.0,,9999.0,,13.0,12.0,29.80,1010.1,,,,,,,,,,,,,,,8/8 Overcast,1200.0,,OVC,1200,,,,,,
KRDR,10-06-2008,08:00,METAR,,140,13,,,9999.0,,13.0,12.0,29.80,1010.3,,,,,,,,,,,TRACE,,,,8/8 Overcast,1000.0,,OVC,1000,,,,,,
KRDR,10-06-2008,07:45,SPECI,,140,14,19.0,,9999.0,,12.0,12.0,29.81,1010.4,,,,,,,,,,,,,,,8/8 Overcast,1000.0,,OVC,1000,,,,,,
KRDR,10-06-2008,07:38,SPECI,,140,13,,,9999.0,,12.0,12.0,29.81,1010.5,,,,,,,,,,,,,,,8/8 Overcast,900.0,,OVC,900,,,,,,
KRDR,10-06-2008,07:36,SPECI,,130,13,,,9999.0,,12.0,12.0,29.81,1010.6,,,,,,,,,,,,,,,8/8 Overcast,1000.0,,OVC,1000,,,,,,
KRDR,10-06-2008,07:28,SPECI,,130,13,18.0,,9999.0,,12.0,12.0,29.81,1010.5,,,,,,,,,,,,,,,8/8 Overcast,900.0,,OVC,900,,,,,,
KRDR,10-06-2008,07:16,SPECI,,140,12,19.0,,9999.0,,12.0,12.0,29.81,1010.6,,,,,,,,,,,,,,,8/8 Overcast,1000.0,,OVC,1000,,,,,,
KRDR,10-06-2008,07:13,SPECI,,140,14,19.0,,9999.0,,12.0,12.0,29.81,1010.6,,,,,,,,,,,,,,,8/8 Overcast,1000.0,,OVC,1000,,,,,,
KRDR,10-06-2008,07:03,SPECI,,130,15,20.0,,9999.0,,12.0,12.0,29.81,1010.7,,,,,,,,,,,,,,,8/8 Overcast,900.0,,OVC,900,,,,,,
KRDR,10-06-2008,07:00,METAR,,140,12,,,9999.0,,12.0,12.0,29.82,1010.8,,,,,,,,,,,.01 IN,,,,8/8 Overcast,1000.0,,OVC,1000,,,,,,
KRDR,10-06-2008,06:47,SPECI,,140,14,20.0,,9999.0,,12.0,12.0,29.82,1010.8,,,,,,,,,,,,,,,8/8 Overcast,1000.0,,OVC,1000,,,,,,
KRDR,10-06-2008,06:25,SPECI,,130,15,,,9999.0,,12.0,12.0,29.82,1011.0,,,,,,,,,,,,,,,8/8 Overcast,700.0,,OVC,700,,,,,,
KRDR,10-06-2008,06:19,SPECI,,130,13,18.0,,9999.0,,12.0,12.0,29.82,1010.9,,,,,,,,,,,,,,,8/8 Overcast,600.0,,OVC,600,,,,,,
KRDR,10-06-2008,06:02,SPECI,,130,14,18.0,,9999.0,Unknown Precipitation,12.0,12.0,29.82,1011.0,40,,,,,,,,,,,,,,8/8 Overcast,500.0,,OVC,500,,,,,,
KRDR,10-06-2008,06:00,METAR,,130,11,,,9999.0,,12.0,12.0,29.83,1011.1,,,,,,,,,,,.05 IN,,.99 IN,,8/8 Overcast,500.0,,OVC,500,,,,,,
KRDR,10-06-2008,05:49,SPECI,,130,11,,,9999.0,,12.0,12.0,29.82,1011.1,,,,,,,,,,,,,,,8/8 Overcast,500.0,,OVC,500,,,,,,
KRDR,10-06-2008,05:34,SPECI,,130,13,18.0,,9999.0,,12.0,12.0,29.83,1011.2,,,,,,,,,,,,,,,8/8 Overcast,400.0,,OVC,400,,,,,,
KRDR,10-06-2008,05:25,SPECI,,130,13,18.0,,9999.0,Light Rain,12.0,12.0,29.83,1011.2,61,,,,,,,,,,,,,,8/8 Overcast,500.0,,OVC,500,,,,,,
KRDR,10-06-2008,05:19,SPECI,,130,11,,,9999.0,Light Rain,12.0,12.0,29.83,1011.3,61,,,,,,,,,,,,,,8/8 Overcast,600.0,,OVC,600,,,,,,
KRDR,10-06-2008,05:07,SPECI,,130,12,,,4800.0,Light Rain/Mist,12.0,12.0,29.83,1011.4,61,10,,,,,,,,,,,,,8/8 Overcast,800.0,,OVC,800,,,,,,
KRDR,10-06-2008,05:00,METAR,,130,14,19.0,,4800.0,Rain/Mist,12.0,11.0,29.84,1011.6,62,10,,,,,,,,,.22 IN,,,,8/8 Overcast,600.0,,OVC,600,,,,,,
KRDR,10-06-2008,04:45,SPECI,,130,14,19.0,,4800.0,Light Rain/Mist,12.0,11.0,29.84,1011.6,61,10,,,,,,,,,,,,,8/8 Overcast,600.0,,OVC,600,,,,,,
KRDR,10-06-2008,04:36,SPECI,,140,13,,,6400.0,Rain/Mist,12.0,11.0,29.84,1011.7,62,10,,,,,,,,,,,,,8/8 Overcast,500.0,,OVC,500,,,,,,
KRDR,10-06-2008,04:17,SPECI,,130,14,19.0,,4800.0,Rain/Mist,12.0,11.0,29.85,1012.0,62,10,,,,,,,,,,,,,8/8 Overcast,600.0,,OVC,600,,,,,,
KRDR,10-06-2008,04:12,SPECI,,130,12,19.0,,8000.0,Light Rain/Mist,12.0,11.0,29.85,1011.9,61,10,,,,,,,,,,,,,8/8 Overcast,600.0,,OVC,600,,,,,,
KRDR,10-06-2008,04:02,SPECI,,120,14,20.0,,6400.0,Light Rain/Mist,12.0,12.0,29.85,1011.9,61,10,,,,,,,,,,,,,8/8 Overcast,800.0,,OVC,800,,,,,,
KRDR,10-06-2008,04:00,METAR,,120,12,20.0,,4800.0,Light Rain/Mist,12.0,12.0,29.85,1012.0,61,10,,,,,,,,,.34 IN,,,,8/8 Overcast,800.0,,OVC,800,,,,,,
KRDR,10-06-2008,03:46,SPECI,,130,14,20.0,,4800.0,Rain/Mist,12.0,12.0,29.85,1012.0,62,10,,,,,,,,,,,,,8/8 Overcast,800.0,,OVC,800,,,,,,
KRDR,10-06-2008,03:39,SPECI,,130,12,21.0,,3200.0,Light Rain/Mist,12.0,12.0,29.86,1012.1,61,10,,,,,,,,,,,,,8/8 Overcast,800.0,,OVC,800,,,,,,
KRDR,10-06-2008,03:35,SPECI,,130,16,21.0,,4000.0,Rain/Mist,12.0,12.0,29.86,1012.2,62,10,,,,,,,,,,,,,8/8 Overcast,800.0,,OVC,800,,,,,,
KRDR,10-06-2008,03:22,SPECI,,120,15,21.0,,4000.0,Heavy Rain/Mist,12.0,11.0,29.86,1012.2,63,10,,,,,,,,,,,,,8/8 Overcast,700.0,,OVC,700,,,,,,
KRDR,10-06-2008,03:20,SPECI,,120,16,21.0,,4800.0,Heavy Rain/Mist,12.0,11.0,29.86,1012.1,63,10,,,,,,,,,,,,,8/8 Overcast,700.0,,OVC,700,,,,,,
KRDR,10-06-2008,03:12,SPECI,,120,14,19.0,,9999.0,Rain/Mist,12.0,12.0,29.86,1012.2,62,10,,,,,,,,,,,,,8/8 Overcast,700.0,,OVC,700,,,,,,
KRDR,10-06-2008,03:00,METAR,,120,16,23.0,,6400.0,Light Rain/Mist,12.0,12.0,29.86,1012.2,61,10,,,,,,,,,.15 IN,.38 IN,,,8/8 Overcast,800.0,,OVC,800,,,,,,
KRDR,10-06-2008,02:50,SPECI,,120,16,23.0,,6400.0,Light Rain/Mist,12.0,12.0,29.86,1012.2,61,10,,,,,,,,,,,,,8/8 Overcast,800.0,,OVC,800,,,,,,
KRDR,10-06-2008,02:37,SPECI,,120,13,,,6400.0,Light Rain/Mist,12.0,12.0,29.87,1012.5,61,10,,,,,,,,,,,,,8/8 Overcast,800.0,,OVC,800,,,,,,
KRDR,10-06-2008,02:22,SPECI,,120,11,,,6400.0,Light Rain/Mist,12.0,12.0,29.87,1012.5,61,10,,,,,,,,,,,,,8/8 Overcast,700.0,,OVC,700,,,,,,
KRDR,10-06-2008,02:00,METAR,,120,12,,,6400.0,Light Rain/Mist,12.0,12.0,29.87,1012.7,61,10,,,,,,,,,.19 IN,,,,8/8 Overcast,700.0,,OVC,700,,,,,,
KRDR,10-06-2008,01:49,SPECI,,120,11,,,6400.0,Light Rain/Mist,12.0,12.0,29.88,1012.7,61,10,,,,,,,,,,,,,8/8 Overcast,700.0,,OVC,700,,,,,,
KRDR,10-06-2008,01:45,SPECI,,130,13,,,6400.0,Rain/Mist,12.0,12.0,29.88,1012.8,62,10,,,,,,,,,,,,,8/8 Overcast,600.0,,OVC,600,,,,,,
KRDR,10-06-2008,01:42,SPECI,,130,11,,,8000.0,Rain/Mist,12.0,12.0,29.88,1012.8,62,10,,,,,,,,,,,,,8/8 Overcast,600.0,,OVC,600,,,,,,
KRDR,10-06-2008,01:34,SPECI,,120,11,,,8000.0,Light Rain/Mist,12.0,12.0,29.88,1012.9,61,10,,,,,,,,,,,,,8/8 Overcast,700.0,,OVC,700,,,,,,
KRDR,10-06-2008,01:14,SPECI,,120,13,,,6400.0,Light Rain/Mist,13.0,12.0,29.88,1012.9,61,10,,,,,,,,,,,,,8/8 Overcast,900.0,,OVC,900,,,,,,
KRDR,10-06-2008,01:11,SPECI,,120,11,,,6400.0,Rain/Mist,13.0,12.0,29.88,1012.8,62,10,,,,,,,,,,,,,8/8 Overcast,1100.0,,OVC,1100,,,,,,
KRDR,10-06-2008,01:09,SPECI,,120,10,,,8000.0,Rain/Mist,13.0,12.0,29.88,1012.8,62,10,,,,,,,,,,,,,8/8 Overcast,1100.0,,OVC,1100,,,,,,
KRDR,10-06-2008,01:00,METAR,,120,12,,,9999.0,Light Rain,13.0,12.0,29.88,1012.9,61,,,,,,,,,,.04 IN,,,,8/8 Overcast,1400.0,,OVC,1400,,,,,,
KRDR,10-06-2008,00:49,SPECI,,120,12,,,9999.0,Light Rain/Mist,13.0,12.0,29.88,1012.9,61,10,,,,,,,,,,,,,8/8 Overcast,1400.0,,OVC,1400,,,,,,
KRDR,10-06-2008,00:47,SPECI,,120,11,,,9999.0,Light Rain/Mist,13.0,12.0,29.88,1012.9,61,10,,,,,,,,,,,,,8/8 Overcast,1500.0,,OVC,1500,,,,,,
KRDR,10-06-2008,00:22,SPECI,,130,13,,,9999.0,Light Rain,13.0,12.0,29.88,1012.9,61,,,,,,,,,,,,,,8/8 Overcast,1300.0,,OVC,1300,,,,,,
KRDR,10-06-2008,00:07,SPECI,,140,11,21.0,,9999.0,Light Rain,13.0,12.0,29.89,1013.1,61,,,,,,,,,,,,,,8/8 Overcast,1100.0,,OVC,1100,,,,,,
KRDR,10-06-2008,00:02,SPECI,,140,11,21.0,,9999.0,Light Rain,13.0,12.0,29.88,1013.0,61,,,,,,,,,,,,,,8/8 Overcast,1300.0,,OVC,1300,,,,,,
KRDR,10-06-2008,00:00,METAR,,130,13,20.0,,9999.0,Light Rain,13.0,12.0,29.88,1013.0,61,,,,,,,,,,.03 IN,,.08 IN,,8/8 Overcast,1500.0,,OVC,1500,,,,,,
KRDR,10-05-2008,23:54,SPECI,,130,13,20.0,,9999.0,Light Rain,13.0,12.0,29.88,1013.0,61,,,,,,,,,,,,,,8/8 Overcast,1400.0,,OVC,1400,,,,,,
KRDR,10-05-2008,23:00,METAR,,130,13,,110/29KTS,9999.0,Light Rain,14.0,12.0,29.88,1012.9,61,,,,,,,,,,.01 IN,,,,8/8 Overcast,2000.0,,OVC,2000,,,,,,
KRDR,10-05-2008,22:26,SPECI,,130,17,24.0,110/29KTS,9999.0,Light Rain,14.0,12.0,29.88,1012.7,61,,,,,,,,,,,,,,7/8 Mostly Cloudy,2900.0,,FEW,1400,BKN,2900.0,,,,
KRDR,10-05-2008,22:13,SPECI,,120,18,26.0,110/29KTS,9999.0,Light Rain,14.0,12.0,29.87,1012.6,61,,,,,,,,,,,,,,4/8 Partly Cloudy,72000.0,,SCT,2300,,,,,,
KRDR,10-05-2008,22:00,METAR,,120,12,19.0,,9999.0,Light Rain,15.0,13.0,29.87,1012.6,61,,,,,,,,,,.01 IN,,,,8/8 Overcast,2100.0,,OVC,2100,,,,,,
KRDR,10-05-2008,21:48,SPECI,,120,12,,,9999.0,Light Drizzle,15.0,12.0,29.88,1012.9,51,,,,,,,,,,,,,,8/8 Overcast,2200.0,,OVC,2200,,,,,,
KRDR,10-05-2008,21:00,METAR,,120,10,,,9999.0,Light Rain,15.0,12.0,29.88,1013.0,61,,,,,,,,,,TRACE,.03 IN,,,7/8 Mostly Cloudy,2400.0,,BKN,2400,,,,,,
KRDR,10-05-2008,20:49,SPECI,,120,11,,,9999.0,,15.0,13.0,29.89,1013.1,,,,,,,,,,,,,,,7/8 Mostly Cloudy,2400.0,,BKN,2400,,,,,,
KRDR,10-05-2008,20:43,SPECI,,130,11,,,9999.0,Light Rain,15.0,12.0,29.89,1013.1,61,,,,,,,,,,,,,,7/8 Mostly Cloudy,2400.0,,BKN,2400,,,,,,
KRDR,10-05-2008,20:29,SPECI,,130,9,,,9999.0,Unknown Precipitation,15.0,12.0,29.89,1013.2,40,,,,,,,,,,,,,,2/8 Mostly Clear,72000.0,,FEW,2400,,,,,,
KRDR,10-05-2008,20:12,SPECI,,120,10,,,9999.0,,14.0,12.0,29.89,1013.2,,,,,,,,,,,,,,,Clear,72000.0,,,73000,,,,,,
KRDR,10-05-2008,20:00,METAR,,130,12,,,9999.0,,14.0,12.0,29.89,1013.3,,,,,,,,,,,.01 IN,,,,Clear,72000.0,,,73000,,,,,,
KRDR,10-05-2008,19:20,SPECI,,120,9,,,9999.0,Light Rain,13.0,11.0,29.90,1013.7,61,,,,,,,,,,,,,,4/8 Partly Cloudy,72000.0,,SCT,2300,,,,,,
KRDR,10-05-2008,19:00,METAR,,120,13,,,9999.0,Rain,13.0,11.0,29.92,1014.1,,,,61,,,,,,,.02 IN,,,,8/8 Overcast,2300.0,,BKN,2300,OVC,7900.0,,,,
KRDR,10-05-2008,18:20,SPECI,,110,10,,,9999.0,Rain,15.0,9.0,29.92,1014.2,,,,61,,,,,,,,,,,8/8 Overcast,2500.0,,OVC,2500,,,,,,
KRDR,10-05-2008,18:00,METAR,,140,9,,,9999.0,,15.0,9.0,29.94,1014.7,,,,,,,,,,,,,,,7/8 Mostly Cloudy,3100.0,,BKN,3200,BKN,12000.0,,,,
KRDR,10-05-2008,17:00,METAR,,130,9,,,9999.0,,15.0,9.0,29.95,1015.1,,,,,,,,,,,,,,,8/8 Overcast,3000.0,,BKN,3000,OVC,12000.0,,,,
KRDR,10-05-2008,16:00,METAR,,90,13,,,9999.0,,14.0,8.0,29.91,1013.9,,,,,,,,,,,,,,,7/8 Mostly Cloudy,20000.0,,SCT,12000,BKN,20000.0,,,,
KRDR,10-05-2008,15:00,METAR,,100,10,,,9999.0,,11.0,6.0,29.94,1014.9,,,,,,,,,,,,,,,7/8 Mostly Cloudy,20000.0,,SCT,11000,BKN,20000.0,,,,
KRDR,10-05-2008,14:00,METAR,,90,7,,,9999.0,,10.0,5.0,29.96,1015.6,,,,,,,,,,,,,,,7/8 Mostly Cloudy,12000.0,,BKN,12000,,,,,,
KRDR,10-05-2008,13:00,METAR,,90,5,,,9999.0,,8.0,4.0,29.98,1016.2,,,,,,,,,,,,,,,7/8 Mostly Cloudy,11000.0,,BKN,11000,,,,,,
KRDR,10-05-2008,12:00,METAR,,110,3,,,9999.0,,7.0,3.0,29.99,1016.4,,,,,,,,,,,,,,,4/8 Partly Cloudy,72000.0,,SCT,9900,,,,,,
KRDR,10-05-2008,10:00,METAR,,110,6,,,9999.0,,8.0,3.0,29.99,1016.5,,,,,,,,,,,,,,,Clear,72000.0,,,73000,,,,,,
KRDR,10-05-2008,09:00,METAR,,110,6,,,9999.0,,8.0,3.0,30.00,1016.7,,,,,,,,,,,,,,,Clear,72000.0,,,73000,,,,,,
KRDR,10-05-2008,08:00,METAR,,90,6,,,9999.0,,8.0,2.0,30.01,1017.3,,,,,,,,,,,,,,,Clear,72000.0,,,73000,,,,,,
KRDR,10-05-2008,07:00,METAR,,110,7,,,9999.0,,8.0,3.0,30.02,1017.6,,,,,,,,,,,,,,,Clear,72000.0,,,73000,,,,,,
KRDR,10-05-2008,06:00,METAR,,120,7,,,9999.0,,9.0,3.0,30.03,1017.9,,,,,,,,,,,,,,,Clear,72000.0,,,73000,,,,,,
KRDR,10-05-2008,05:00,METAR,,140,11,,,9999.0,,10.0,3.0,30.02,1017.3,,,,,,,,,,,,,,,Clear,72000.0,,,73000,,,,,,
KRDR,10-05-2008,04:00,METAR,,140,9,,,9999.0,,10.0,3.0,30.01,1017.3,,,,,,,,,,,,,,,Clear,72000.0,,,73000,,,,,,
KRDR,10-05-2008,03:00,METAR,,140,9,,,9999.0,,12.0,3.0,30.01,1017.1,,,,,,,,,,,,,,,Clear,72000.0,,,73000,,,,,,
KRDR,10-05-2008,02:00,METAR,,130,10,,,9999.0,,12.0,3.0,30.01,1017.1,,,,,,,,,,,,,,,Clear,72000.0,,,73000,,,,,,
KRDR,10-05-2008,01:00,METAR,,120,8,,,9999.0,,14.0,4.0,30.01,1017.0,,,,,,,,,,,,,,,Clear,72000.0,,,73000,,,,,,
KRDR,10-05-2008,00:00,METAR,,130,11,,,9999.0,,16.0,5.0,30.00,1016.8,,,,,,,,,,,,,,,Clear,72000.0,,,73000,,,,,,
KRDR,10-04-2008,23:00,METAR,,140,12,,,9999.0,,19.0,5.0,30.00,1016.9,,,,,,,,,,,,,,,Clear,72000.0,,,73000,,,,,,
KRDR,10-04-2008,22:00,METAR,,130,17,22.0,,9999.0,,20.0,5.0,30.00,1016.8,,,,,,,,,,,,,,,Clear,72000.0,,,73000,,,,,,
KRDR,10-04-2008,21:00,METAR,,150,14,21.0,,9999.0,,20.0,5.0,30.00,1016.9,,,,,,,,,,,,,,,Clear,72000.0,,,73000,,,,,,
KRDR,10-04-2008,20:00,METAR,,140,13,,,9999.0,,20.0,4.0,30.01,1017.2,,,,,,,,,,,,,,,Clear,72000.0,,,73000,,,,,,
KRDR,10-04-2008,19:00,METAR,,140,14,,,9999.0,,19.0,4.0,30.03,1017.8,,,,,,,,,,,,,,,Clear,72000.0,,,73000,,,,,,
KRDR,10-04-2008,18:00,METAR,,150,14,,,9999.0,,17.0,3.0,30.04,1018.3,,,,,,,,,,,,,,,Clear,72000.0,,,73000,,,,,,
KRDR,10-04-2008,17:00,METAR,,150,14,,,9999.0,,15.0,3.0,30.06,1018.7,,,,,,,,,,,,,,,Clear,72000.0,,,73000,,,,,,
KRDR,10-04-2008,16:00,METAR,,140,11,,,9999.0,,13.0,2.0,30.06,1018.9,,,,,,,,,,,,,,,Clear,72000.0,,,73000,,,,,,
KRDR,10-04-2008,15:00,METAR,,150,11,,,9999.0,,10.0,2.0,30.07,1019.1,,,,,,,,,,,,,,,Clear,72000.0,,,73000,,,,,,
KRDR,10-04-2008,14:00,METAR,,170,10,,,9999.0,,6.0,2.0,30.07,1019.1,,,,,,,,,,,,,,,Clear,72000.0,,,73000,,,,,,
KRDR,10-04-2008,13:00,METAR,,160,7,,,9999.0,,3.0,1.0,30.07,1019.3,,,,,,,,,,,,,,,Clear,72000.0,,,73000,,,,,,
KRDR,10-04-2008,12:00,METAR,,150,6,,,9999.0,,2.0,0.0,30.09,1019.6,,,,,,,,,,,,,,,Clear,72000.0,,,73000,,,,,,
KRDR,10-04-2008,11:00,METAR,,150,6,,,9999.0,,2.0,1.0,30.09,1019.7,,,,,,,,,,,,,,,Clear,72000.0,,,73000,,,,,,
KRDR,10-04-2008,10:00,METAR,,150,6,,,9999.0,,2.0,0.0,30.09,1019.9,,,,,,,,,,,,,,,Clear,72000.0,,,73000,,,,,,
KRDR,10-04-2008,09:00,METAR,,130,5,,,9999.0,,3.0,0.0,30.10,1020.0,,,,,,,,,,,,,,,Clear,72000.0,,,73000,,,,,,
KRDR,10-04-2008,08:00,METAR,,130,5,,,9999.0,,3.0,0.0,30.10,1020.2,,,,,,,,,,,,,,,Clear,72000.0,,,73000,,,,,,
KRDR,10-04-2008,07:00,METAR,,150,5,,,9999.0,,4.0,0.0,30.10,1020.1,,,,,,,,,,,,,,,Clear,72000.0,,,73000,,,,,,
KRDR,10-04-2008,06:00,METAR,,150,5,,,9999.0,,5.0,0.0,30.10,1020.0,,,,,,,,,,,,,,,Clear,72000.0,,,73000,,,,,,
KRDR,10-04-2008,05:00,METAR,,140,6,,,9999.0,,6.0,1.0,30.09,1019.9,,,,,,,,,,,,,,,Clear,72000.0,,,73000,,,,,,
KRDR,10-04-2008,04:00,METAR,,130,7,,,9999.0,,6.0,0.0,30.09,1019.9,,,,,,,,,,,,,,,Clear,72000.0,,,73000,,,,,,
KRDR,10-04-2008,03:00,METAR,,130,5,,,9999.0,,8.0,0.0,30.09,1019.7,,,,,,,,,,,,,,,Clear,72000.0,,,73000,,,,,,
KRDR,10-04-2008,02:00,METAR,,130,5,,,9999.0,,9.0,0.0,30.08,1019.5,,,,,,,,,,,,,,,Clear,72000.0,,,73000,,,,,,
KRDR,10-04-2008,01:00,METAR,,120,5,,,9999.0,,10.0,0.0,30.07,1019.3,,,,,,,,,,,,,,,Clear,72000.0,,,73000,,,,,,
KRDR,10-04-2008,00:00,METAR,,120,5,,,9999.0,,13.0,0.0,30.08,1019.4,,,,,,,,,,,,,,,Clear,72000.0,,,73000,,,,,,
KRDR,10-03-2008,23:00,METAR,,130,9,,,9999.0,,15.0,0.0,30.07,1019.2,,,,,,,,,,,,,,,Clear,72000.0,,,73000,,,,,,
KRDR,10-03-2008,22:00,METAR,,140,6,,,9999.0,,15.0,0.0,30.08,1019.4,,,,,,,,,,,,,,,2/8 Mostly Clear,72000.0,,FEW,9900,,,,,,
KRDR,10-03-2008,21:00,METAR,,110,6,,,9999.0,,15.0,0.0,30.09,1019.7,,,,,,,,,,,,,,,2/8 Mostly Clear,72000.0,,FEW,9900,,,,,,
KRDR,10-03-2008,20:00,METAR,,,6,,,9999.0,,15.0,1.0,30.10,1020.3,,,,,,,,,,,,,,,2/8 Mostly Clear,72000.0,,FEW,9900,,,,,,
KRDR,10-03-2008,19:00,METAR,,160,6,,,9999.0,,14.0,2.0,30.11,1020.9,,,,,,,,,,,,,,,2/8 Mostly Clear,72000.0,,FEW,8900,,,,,,
KRDR,10-03-2008,18:00,METAR,,130,8,,,9999.0,,13.0,4.0,30.12,1021.1,,,,,,,,,,,,,,,2/8 Mostly Clear,72000.0,,FEW,7900,,,,,,
KRDR,10-03-2008,17:00,METAR,,120,6,,,9999.0,,12.0,4.0,30.11,1020.9,,,,,,,,,,,,,,,2/8 Mostly Clear,72000.0,,FEW,7900,,,,,,
KRDR,10-03-2008,16:00,METAR,,160,5,,,9999.0,,9.0,4.0,30.11,1020.8,,,,,,,,,,,,,,,2/8 Mostly Clear,72000.0,,FEW,7900,,,,,,
KRDR,10-03-2008,15:00,METAR,,140,5,,,9999.0,,6.0,3.0,30.11,1020.6,,,,,,,,,,,,,,,2/8 Mostly Clear,72000.0,,FEW,12000,,,,,,
KRDR,10-03-2008,14:00,METAR,,,0,,,9999.0,,2.0,2.0,30.10,1020.1,,,,,,,,,,,,,,,2/8 Mostly Clear,72000.0,,FEW,12000,,,,,,
KRDR,10-03-2008,13:00,METAR,,,0,,,9999.0,Shallow Fog or Ice Fog,-1.0,-2.0,30.09,1019.8,,,,12,,,,,,,,,,,Clear,72000.0,,,73000,,,,,,
KRDR,10-03-2008,12:00,METAR,,,0,,,9999.0,Shallow Fog or Ice Fog,-1.0,-1.0,30.08,1019.4,,,,12,,,,,,,,,,,Clear,72000.0,,,73000,,,,,,
KRDR,10-03-2008,11:00,METAR,,,0,,,9999.0,,-1.0,-1.0,30.06,1019.0,,,,,,,,,,,,,,,Clear,72000.0,,,73000,,,,,,
KRDR,10-03-2008,10:00,METAR,,80,3,,,9999.0,,1.0,0.0,30.06,1018.8,,,,,,,,,,,,,,,Clear,72000.0,,,73000,,,,,,
KRDR,10-03-2008,09:00,METAR,,50,3,,,9999.0,,1.0,0.0,30.05,1018.4,,,,,,,,,,,,,,,Clear,72000.0,,,73000,,,,,,
KRDR,10-03-2008,08:00,METAR,,30,4,,,9999.0,,2.0,0.0,30.04,1018.3,,,,,,,,,,,,,,,Clear,72000.0,,,73000,,,,,,
KRDR,10-03-2008,07:00,METAR,,350,4,,,9999.0,,2.0,1.0,30.04,1018.3,,,,,,,,,,,,,,,Clear,72000.0,,,73000,,,,,,
KRDR,10-03-2008,06:00,METAR,,,0,,,9999.0,,3.0,1.0,30.03,1017.7,,,,,,,,,,,,,,,Clear,72000.0,,,73000,,,,,,
KRDR,10-03-2008,05:00,METAR,,360,3,,,9999.0,,5.0,2.0,30.01,1017.3,,,,,,,,,,,,,,,Clear,72000.0,,,73000,,,,,,
KRDR,10-03-2008,04:00,METAR,,20,6,,,9999.0,,5.0,2.0,30.00,1016.9,,,,,,,,,,,,,,,Clear,72000.0,,,73000,,,,,,
KRDR,10-03-2008,03:00,METAR,,10,7,,,9999.0,,7.0,3.0,29.98,1016.2,,,,,,,,,,,,,,,Clear,72000.0,,,73000,,,,,,
KRDR,10-03-2008,02:00,METAR,,10,8,,,9999.0,,8.0,3.0,29.97,1015.9,,,,,,,,,,,,,,,Clear,72000.0,,,73000,,,,,,
KRDR,10-03-2008,01:00,METAR,,20,8,,,9999.0,,10.0,3.0,29.96,1015.5,,,,,,,,,,,,,,,2/8 Mostly Clear,72000.0,,FEW,25000,,,,,,
KRDR,10-03-2008,00:00,METAR,,10,8,,,9999.0,,14.0,7.0,29.96,1015.4,,,,,,,,,,,,,,,2/8 Mostly Clear,72000.0,,FEW,25000,,,,,,
KRDR,10-02-2008,23:00,METAR,,20,12,,,9999.0,,18.0,8.0,29.94,1014.7,,,,,,,,,,,,,,,2/8 Mostly Clear,72000.0,,FEW,25000,,,,,,
KRDR,10-02-2008,22:00,METAR,,20,12,,,9999.0,,19.0,9.0,29.93,1014.4,,,,,,,,,,,,,,,Clear,72000.0,,,73000,,,,,,
KRDR,10-02-2008,21:00,METAR,,10,10,,,9999.0,,19.0,8.0,29.92,1014.3,,,,,,,,,,,,,,,Clear,72000.0,,,73000,,,,,,
KRDR,10-02-2008,20:00,METAR,,10,11,,,9999.0,,19.0,7.0,29.92,1014.3,,,,,,,,,,,,,,,Clear,72000.0,,,73000,,,,,,
KRDR,10-02-2008,19:00,METAR,,360,10,,,9999.0,,19.0,8.0,29.92,1014.4,,,,,,,,,,,,,,,Clear,72000.0,,,73000,,,,,,
KRDR,10-02-2008,18:00,METAR,,10,11,15.0,,9999.0,,18.0,7.0,29.93,1014.7,,,,,,,,,,,,,,,2/8 Mostly Clear,72000.0,,FEW,6900,,,,,,
KRDR,10-02-2008,17:00,METAR,,360,9,,,9999.0,,18.0,7.0,29.92,1014.7,,,,,,,,,,,,,,,4/8 Partly Cloudy,72000.0,,SCT,8900,,,,,,
KRDR,10-02-2008,16:00,METAR,,360,9,,,9999.0,,17.0,7.0,29.92,1014.5,,,,,,,,,,,,,,,2/8 Mostly Clear,72000.0,,FEW,8900,,,,,,
KRDR,10-02-2008,15:00,METAR,,310,8,,,9999.0,,15.0,7.0,29.93,1014.7,,,,,,,,,,,,,,,2/8 Mostly Clear,72000.0,,FEW,8400,,,,,,
KRDR,10-02-2008,14:00,METAR,,280,8,,,9999.0,,12.0,7.0,29.93,1014.7,,,,,,,,,,,,,,,2/8 Mostly Clear,72000.0,,FEW,8400,,,,,,
KRDR,10-02-2008,13:00,METAR,,280,7,,,9999.0,,9.0,5.0,29.93,1014.9,,,,,,,,,,,,,,,2/8 Mostly Clear,72000.0,,FEW,8900,,,,,,
KRDR,10-02-2008,12:00,METAR,,280,7,,,9999.0,,8.0,5.0,29.94,1015.3,,,,,,,,,,,,,,,Clear,72000.0,,,73000,,,,,,
KRDR,10-02-2008,11:00,METAR,,270,8,,,9999.0,,8.0,4.0,29.95,1015.6,,,,,,,,,,,,,,,Clear,72000.0,,,73000,,,,,,
KRDR,10-02-2008,10:15,SPECI,,260,5,,,9999.0,,6.0,3.0,29.97,1015.8,,,,,,,,,,,,,,,Clear,72000.0,,,73000,,,,,,
KRDR,10-02-2008,10:00,METAR,,250,6,,,9999.0,,6.0,3.0,29.98,1016.0,,,,,,,,,,,,,,,Clear,72000.0,,,73000,,,,,,
KRDR,10-02-2008,09:26,SPECI,,260,6,,,9999.0,,6.0,4.0,29.98,1016.1,,,,,,,,,,,,,,,Clear,72000.0,,,73000,,,,,,
KRDR,10-02-2008,09:00,METAR,,260,7,,,9999.0,,7.0,4.0,29.99,1016.4,,,,,,,,,,,,,,,Clear,72000.0,,,73000,,,,,,
KRDR,10-02-2008,08:40,SPECI,,260,7,,,9999.0,,7.0,4.0,29.99,1016.6,,,,,,,,,,,,,,,Clear,72000.0,,,73000,,,,,,
KRDR,10-02-2008,08:11,SPECI,,250,6,,,9999.0,,7.0,4.0,30.00,1016.7,,,,,,,,,,,,,,,Clear,72000.0,,,73000,,,,,,
KRDR,10-02-2008,08:00,METAR,,260,6,,,9999.0,,7.0,4.0,30.00,1016.9,,,,,,,,,,,,,,,Clear,72000.0,,,73000,,,,,,
KRDR,10-02-2008,07:11,SPECI,,260,8,,,9999.0,,7.0,4.0,30.01,1017.1,,,,,,,,,,,,,,,Clear,72000.0,,,73000,,,,,,
KRDR,10-02-2008,07:09,SPECI,,260,8,,,9999.0,,7.0,4.0,30.01,1017.1,,,,,,,,,,,,,,,Clear,72000.0,,,73000,,,,,,
KRDR,10-02-2008,07:00,METAR,,260,7,,,9999.0,,6.0,4.0,30.01,1017.2,,,,,,,,,,,,,,,Clear,72000.0,,,73000,,,,,,
KRDR,10-02-2008,06:00,METAR,,240,5,,,9999.0,,6.0,3.0,30.03,1017.8,,,,,,,,,,,,,,,Clear,72000.0,,,73000,,,,,,
KRDR,10-02-2008,05:00,METAR,,250,5,,,9999.0,,6.0,4.0,30.04,1018.3,,,,,,,,,,,,,,,Clear,72000.0,,,73000,,,,,,
KRDR,10-02-2008,04:00,METAR,,220,3,,,9999.0,,5.0,4.0,30.06,1018.7,,,,,,,,,,,,,,,Clear,72000.0,,,73000,,,,,,
KRDR,10-02-2008,03:00,METAR,,210,4,,,9999.0,,7.0,4.0,30.07,1019.1,,,,,,,,,,,,,,,Clear,72000.0,,,73000,,,,,,
KRDR,10-02-2008,02:00,METAR,,200,4,,,9999.0,,8.0,5.0,30.09,1019.8,,,,,,,,,,,,,,,Clear,72000.0,,,73000,,,,,,
KRDR,10-02-2008,01:00,METAR,,200,3,,,9999.0,,9.0,5.0,30.10,1020.2,,,,,,,,,,,,,,,Clear,72000.0,,,73000,,,,,,
KRDR,10-02-2008,00:00,METAR,,,0,,,9999.0,,15.0,5.0,30.11,1020.4,,,,,,,,,,,,,,,Clear,72000.0,,,73000,,,,,,
KRDR,10-01-2008,23:00,METAR,,,0,,,9999.0,,16.0,5.0,30.13,1021.1,,,,,,,,,,,,,,,Clear,72000.0,,,73000,,,,,,
KRDR,10-01-2008,22:00,METAR,,,0,,,9999.0,,16.0,4.0,30.15,1021.8,,,,,,,,,,,,,,,Clear,72000.0,,,73000,,,,,,
KRDR,10-01-2008,21:00,METAR,,,3,,,9999.0,,15.0,4.0,30.17,1022.4,,,,,,,,,,,,,,,Clear,72000.0,,,73000,,,,,,
KRDR,10-01-2008,20:00,METAR,,,3,,,9999.0,,15.0,5.0,30.19,1023.1,,,,,,,,,,,,,,,2/8 Mostly Clear,72000.0,,FEW,4000,,,,,,
KRDR,10-01-2008,19:00,METAR,,,4,,,9999.0,,14.0,5.0,30.21,1023.9,,,,,,,,,,,,,,,4/8 Partly Cloudy,72000.0,,SCT,3500,,,,,,
KRDR,10-01-2008,18:00,METAR,,,3,,,9999.0,,12.0,5.0,30.24,1024.7,,,,,,,,,,,,,,,7/8 Mostly Cloudy,3500.0,,BKN,3600,,,,,,
KRDR,10-01-2008,17:00,METAR,,,5,,,9999.0,,12.0,7.0,30.25,1025.2,,,,,,,,,,,,,,,7/8 Mostly Cloudy,2000.0,,BKN,2000,,,,,,
KRDR,10-01-2008,16:00,METAR,,,0,,,9999.0,,9.0,6.0,30.27,1025.7,,,,,,,,,,,,,,,4/8 Partly Cloudy,72000.0,,SCT,4400,SCT,15000.0,,,,
KRDR,10-01-2008,15:00,METAR,,350,3,,,9999.0,,7.0,6.0,30.27,1025.9,,,,,,,,,,,,,,,7/8 Mostly Cloudy,25000.0,,SCT,4400,BKN,25000.0,,,,
KRDR,10-01-2008,14:00,METAR,,,0,,,9999.0,,5.0,5.0,30.26,1025.4,,,,,,,,,,,,,,,8/8 Overcast,4100.0,,OVC,4200,,,,,,
KRDR,10-01-2008,13:00,METAR,,310,3,,,9999.0,,2.0,2.0,30.25,1025.0,,,,,,,,,,,,,,,7/8 Mostly Cloudy,4100.0,,BKN,4200,,,,,,
KRDR,10-01-2008,12:00,METAR,,310,5,,,9999.0,,1.0,1.0,30.24,1024.8,,,,,,,,,,,,,,,Clear,72000.0,,,73000,,,,,,
KRDR,10-01-2008,11:00,METAR,,330,5,,,9999.0,,2.0,1.0,30.24,1024.6,,,,,,,,,,,,,,,Clear,72000.0,,,73000,,,,,,
KRDR,10-01-2008,10:00,METAR,,330,6,,,9999.0,,2.0,2.0,30.23,1024.3,,,,,,,,,,,,,,,Clear,72000.0,,,73000,,,,,,
KRDR,10-01-2008,09:00,METAR,,310,4,,,9999.0,,2.0,2.0,30.21,1023.9,,,,,,,,,,,,,,,Clear,72000.0,,,73000,,,,,,
KRDR,10-01-2008,08:00,METAR,,310,3,,,9999.0,,2.0,1.0,30.20,1023.5,,,,,,,,,,,,,,,Clear,72000.0,,,73000,,,,,,
KRDR,10-01-2008,07:00,METAR,,330,4,,,9999.0,,3.0,2.0,30.20,1023.4,,,,,,,,,,,,,,,Clear,72000.0,,,73000,,,,,,
KRDR,10-01-2008,06:00,METAR,,330,5,,,9999.0,,3.0,2.0,30.19,1023.2,,,,,,,,,,,,,,,Clear,72000.0,,,73000,,,,,,
KRDR,10-01-2008,05:00,METAR,,10,4,,,9999.0,,5.0,4.0,30.18,1022.9,,,,,,,,,,,,,,,Clear,72000.0,,,73000,,,,,,
KRDR,10-01-2008,04:00,METAR,,10,8,,,9999.0,,7.0,5.0,30.17,1022.5,,,,,,,,,,,,,,,Clear,72000.0,,,73000,,,,,,
KRDR,10-01-2008,03:00,METAR,,350,5,,,9999.0,,7.0,5.0,30.16,1022.0,,,,,,,,,,,,,,,Clear,72000.0,,,73000,,,,,,
KRDR,10-01-2008,02:00,METAR,,360,4,,,9999.0,,8.0,5.0,30.14,1021.5,,,,,,,,,,,,,,,Clear,72000.0,,,73000,,,,,,
KRDR,10-01-2008,01:00,METAR,,360,6,,,9999.0,,9.0,5.0,30.13,1021.0,,,,,,,,,,,,,,,2/8 Mostly Clear,72000.0,,FEW,25000,,,,,,
KRDR,10-01-2008,00:00,METAR,,10,7,,,9999.0,,13.0,7.0,30.11,1020.3,,,,,,,,,,,,,,,2/8 Mostly Clear,72000.0,,FEW,25000,,,,,,
KRDR,09-30-2008,23:00,METAR,,10,9,,,9999.0,,16.0,6.0,30.08,1019.6,,,,,,,,,,,,,,,2/8 Mostly Clear,72000.0,,FEW,25000,,,,,,
KRDR,09-30-2008,22:00,METAR,,20,13,17.0,,9999.0,,17.0,7.0,30.06,1018.7,,,,,,,,,,,,,,,2/8 Mostly Clear,72000.0,,FEW,6900,FEW,25000.0,,,,
KRDR,09-30-2008,21:00,METAR,,350,12,18.0,,9999.0,,17.0,7.0,30.05,1018.3,,,,,,,,,,,,,,,Clear,72000.0,,,73000,,,,,,
KRDR,09-30-2008,20:00,METAR,,20,11,16.0,,9999.0,,18.0,8.0,30.03,1017.9,,,,,,,,,,,,,,,Clear,72000.0,,,73000,,,,,,
KRDR,09-30-2008,19:00,METAR,,20,12,17.0,,9999.0,,19.0,7.0,30.01,1017.3,,,,,,,,,,,,,,,Clear,72000.0,,,73000,,,,,,
KRDR,09-30-2008,18:00,METAR,,310,10,,,9999.0,,18.0,7.0,30.01,1017.2,,,,,,,,,,,,,,,Clear,72000.0,,,73000,,,,,,
KRDR,09-30-2008,17:00,METAR,,300,3,,,9999.0,,16.0,7.0,30.03,1017.9,,,,,,,,,,,,,,,Clear,72000.0,,,73000,,,,,,
KRDR,09-30-2008,16:00,METAR,,,6,,,9999.0,,14.0,7.0,30.03,1018.0,,,,,,,,,,,,,,,Clear,72000.0,,,73000,,,,,,
KRDR,09-30-2008,15:00,METAR,,180,5,,,9999.0,,9.0,7.0,30.05,1018.6,,,,,,,,,,,,,,,4/8 Partly Cloudy,72000.0,,SCT,8900,,,,,,
KRDR,09-30-2008,14:00,METAR,,160,5,,,9999.0,,7.0,6.0,30.08,1019.5,,,,,,,,,,,,,,,7/8 Mostly Cloudy,9000.0,,BKN,8900,,,,,,
KRDR,09-30-2008,13:00,METAR,,180,4,,,9999.0,,6.0,5.0,30.11,1020.3,,,,,,,,,,,,,,,8/8 Overcast,9000.0,,OVC,8900,,,,,,
KRDR,09-30-2008,12:00,METAR,,170,3,,,9999.0,,5.0,4.0,30.12,1020.9,,,,,,,,,,,,,,,8/8 Overcast,8500.0,,OVC,8400,,,,,,
KRDR,09-30-2008,11:00,METAR,,190,3,,,9999.0,,4.0,4.0,30.14,1021.3,,,,,,,,,,,,,,,4/8 Partly Cloudy,72000.0,,SCT,8900,,,,,,
KRDR,09-30-2008,10:00,METAR,,,0,,,9999.0,,3.0,3.0,30.14,1021.5,,,,,,,,,,,,,,,8/8 Overcast,9000.0,,OVC,8900,,,,,,
KRDR,09-30-2008,09:00,METAR,,,0,,,9999.0,,1.0,1.0,30.15,1021.8,,,,,,,,,,,,,,,4/8 Partly Cloudy,72000.0,,SCT,8900,,,,,,
KRDR,09-30-2008,08:00,METAR,,,0,,,9999.0,,1.0,0.0,30.16,1022.1,,,,,,,,,,,,,,,Clear,72000.0,,,73000,,,,,,
KRDR,09-30-2008,07:00,METAR,,,0,,,9999.0,,0.0,0.0,30.17,1022.3,,,,,,,,,,,,,,,Clear,72000.0,,,73000,,,,,,
KRDR,09-30-2008,06:00,METAR,,,0,,,9999.0,,1.0,1.0,30.17,1022.4,,,,,,,,,,,,,,,Clear,72000.0,,,73000,,,,,,
KRDR,09-30-2008,05:00,METAR,,,0,,,9999.0,,1.0,1.0,30.18,1022.7,,,,,,,,,,,,,,,Clear,72000.0,,,73000,,,,,,
KRDR,09-30-2008,04:00,METAR,,,0,,,9999.0,,1.0,1.0,30.18,1022.9,,,,,,,,,,,,,,,Clear,72000.0,,,73000,,,,,,
KRDR,09-30-2008,03:00,METAR,,,0,,,9999.0,,2.0,1.0,30.19,1023.1,,,,,,,,,,,,,,,Clear,72000.0,,,73000,,,,,,
KRDR,09-30-2008,02:00,METAR,,,0,,,9999.0,,3.0,2.0,30.20,1023.3,,,,,,,,,,,,,,,Clear,72000.0,,,73000,,,,,,
KRDR,09-30-2008,01:00,METAR,,,0,,,9999.0,,8.0,3.0,30.19,1023.3,,,,,,,,,,,,,,,Clear,72000.0,,,73000,,,,,,
KRDR,09-30-2008,00:00,METAR,,40,4,,,9999.0,,9.0,5.0,30.19,1023.0,,,,,,,,,,,,,,,Clear,72000.0,,,73000,,,,,,
KRDR,09-29-2008,23:00,METAR,,360,5,,,9999.0,,11.0,4.0,30.19,1023.1,,,,,,,,,,,,,,,2/8 Mostly Clear,72000.0,,FEW,3700,,,,,,
KRDR,09-29-2008,22:00,METAR,,10,8,,,9999.0,,12.0,4.0,30.20,1023.4,,,,,,,,,,,,,,,8/8 Overcast,3600.0,,OVC,3700,,,,,,
KRDR,09-29-2008,21:00,METAR,,340,8,,,9999.0,,11.0,5.0,30.20,1023.5,,,,,,,,,,,,,,,8/8 Overcast,3400.0,,OVC,3500,,,,,,
KRDR,09-29-2008,20:00,METAR,,320,10,,,9999.0,,11.0,4.0,30.21,1023.7,,,,,,,,,,,,,,,8/8 Overcast,3500.0,,OVC,3600,,,,,,
KRDR,09-29-2008,19:00,METAR,,20,8,,,9999.0,,11.0,5.0,30.22,1024.0,,,,,,,,,,,,,,,8/8 Overcast,3000.0,,OVC,3000,,,,,,
KRDR,09-29-2008,18:00,METAR,,320,9,,,9999.0,,11.0,4.0,30.22,1024.0,,,,,,,,,,,,,,,8/8 Overcast,3500.0,,OVC,3600,,,,,,
KRDR,09-29-2008,17:00,METAR,,310,10,,,9999.0,,10.0,5.0,30.22,1024.2,,,,,,,,,,,,,,,8/8 Overcast,3700.0,,OVC,3800,,,,,,
KRDR,09-29-2008,16:00,METAR,,320,12,,,9999.0,,9.0,4.0,30.23,1024.3,,,,,,,,,,,,,,,8/8 Overcast,3700.0,,OVC,3800,,,,,,
KRDR,09-29-2008,15:00,METAR,,300,8,,,9999.0,,8.0,4.0,30.22,1024.0,,,,,,,,,,,,,,,8/8 Overcast,4000.0,,OVC,4100,,,,,,
KRDR,09-29-2008,14:00,METAR,,310,7,,,9999.0,,7.0,4.0,30.20,1023.3,,,,,,,,,,,,,,,8/8 Overcast,4000.0,,OVC,4100,,,,,,
KRDR,09-29-2008,13:00,METAR,,300,9,,,9999.0,,6.0,3.0,30.19,1023.2,,,,,,,,,,,,,,,7/8 Mostly Cloudy,4000.0,,BKN,4100,,,,,,
KRDR,09-29-2008,12:00,METAR,,290,7,,,9999.0,,4.0,3.0,30.17,1022.6,,,,,,,,,,,,,,,Clear,72000.0,,,73000,,,,,,
KRDR,09-29-2008,11:00,METAR,,300,7,,,9999.0,,6.0,3.0,30.16,1022.2,,,,,,,,,,,,,,,Clear,72000.0,,,73000,,,,,,
KRDR,09-29-2008,10:00,METAR,,310,8,,,9999.0,,7.0,4.0,30.14,1021.5,,,,,,,,,,,,,,,Clear,72000.0,,,73000,,,,,,
KRDR,09-29-2008,09:00,METAR,,300,8,,,9999.0,,8.0,4.0,30.13,1021.1,,,,,,,,,,,,,,,2/8 Mostly Clear,72000.0,,FEW,5000,,,,,,
KRDR,09-29-2008,08:00,METAR,,300,9,,,9999.0,,8.0,4.0,30.12,1020.8,,,,,,,,,,,,,,,7/8 Mostly Cloudy,5500.0,,BKN,5400,,,,,,
KRDR,09-29-2008,07:00,METAR,,290,9,,,9999.0,,7.0,4.0,30.12,1020.8,,,,,,,,,,,,,,,Clear,72000.0,,,73000,,,,,,
KRDR,09-29-2008,06:00,METAR,,290,8,,,9999.0,,8.0,4.0,30.12,1020.7,,,,,,,,,,,,,,,Clear,72000.0,,,73000,,,,,,
KRDR,09-29-2008,05:00,METAR,,280,9,,,9999.0,,9.0,5.0,30.11,1020.3,,,,,,,,,,,,,,,Clear,72000.0,,,73000,,,,,,
KRDR,09-29-2008,04:00,METAR,,230,7,,,9999.0,,7.0,5.0,30.10,1020.1,,,,,,,,,,,,,,,Clear,72000.0,,,73000,,,,,,
KRDR,09-29-2008,03:00,METAR,,230,8,,,9999.0,,8.0,6.0,30.10,1020.0,,,,,,,,,,,,,,,Clear,72000.0,,,73000,,,,,,
KRDR,09-29-2008,02:00,METAR,,240,7,,,9999.0,,8.0,5.0,30.10,1020.0,,,,,,,,,,,,,,,Clear,72000.0,,,73000,,,,,,
KRDR,09-29-2008,01:00,METAR,,260,4,,,9999.0,,10.0,5.0,30.09,1020.0,,,,,,,,,,,,,,,Clear,72000.0,,,73000,,,,,,
KRDR,09-29-2008,00:00,METAR,,310,10,,,9999.0,,15.0,6.0,30.08,1019.3,,,,,,,,,,,,,TRACE,,Clear,72000.0,,,73000,,,,,,
KRDR,09-28-2008,23:00,METAR,,300,8,,,9999.0,,16.0,8.0,30.07,1019.0,,,,,,,,,,,TRACE,,,,Clear,72000.0,,,73000,,,,,,
KRDR,09-28-2008,22:00,METAR,,250,3,,,9999.0,,16.0,9.0,30.07,1019.2,,,,,,,,,,,TRACE,,,,Clear,72000.0,,,73000,,,,,,
KRDR,09-28-2008,21:26,SPECI,,290,7,,,9999.0,,16.0,9.0,30.08,1019.6,,,,,,,,,,,,,,,Clear,72000.0,,,73000,,,,,,
KRDR,09-28-2008,21:00,METAR,,300,11,,,9999.0,,17.0,9.0,30.09,1019.6,,,,,,,,,,,,,,,Clear,72000.0,,,73000,,,,,,
KRDR,09-28-2008,20:00,METAR,,300,11,,,9999.0,,17.0,10.0,30.06,1018.7,,,,,,,,,,,,,,,Clear,72000.0,,,73000,,,,,,
KRDR,09-28-2008,19:07,SPECI,,300,13,,,9999.0,,18.0,10.0,30.05,1018.6,,,,,,,,,,,,,,,2/8 Mostly Clear,72000.0,,FEW,3800,,,,,,
KRDR,09-28-2008,19:00,METAR,,270,10,,,9999.0,,19.0,11.0,30.05,1018.4,,,,,,,,,,,,,,,4/8 Partly Cloudy,72000.0,,SCT,3800,,,,,,
KRDR,09-28-2008,18:00,METAR,,210,14,,,9999.0,,19.0,11.0,30.04,1018.2,,,,,,,,,,,,,,,Clear,72000.0,,,73000,,,,,,
KRDR,09-28-2008,17:00,METAR,,200,19,,,9999.0,,17.0,11.0,30.04,1018.0,,,,,,,,,,,,,,,Clear,72000.0,,,73000,,,,,,
KRDR,09-28-2008,16:00,METAR,,190,16,,,9999.0,,15.0,10.0,30.04,1018.3,,,,,,,,,,,,,,,Clear,72000.0,,,73000,,,,,,
KRDR,09-28-2008,15:00,METAR,,180,18,,,9999.0,,14.0,10.0,30.04,1018.3,,,,,,,,,,,,,,,Clear,72000.0,,,73000,,,,,,
KRDR,09-28-2008,14:00,METAR,,170,16,,,9999.0,,11.0,9.0,30.05,1018.6,,,,,,,,,,,,,,,Clear,72000.0,,,73000,,,,,,
KRDR,09-28-2008,13:00,METAR,,160,12,19.0,,9999.0,,9.0,7.0,30.06,1019.0,,,,,,,,,,,,,,,Clear,72000.0,,,73000,,,,,,
KRDR,09-28-2008,12:00,METAR,,160,11,,,9999.0,,10.0,7.0,30.07,1019.3,,,,,,,,,,,,,TRACE,,8/8 Overcast,10000.0,,OVC,9900,,,,,,
KRDR,09-28-2008,11:00,METAR,,140,6,,,9999.0,,9.0,6.0,30.09,1019.7,,,,,,,,,,,,,,,8/8 Overcast,9000.0,,OVC,8900,,,,,,
KRDR,09-28-2008,10:00,METAR,,150,7,,,9999.0,,7.0,5.0,30.10,1020.2,,,,,,,,,,,TRACE,,,,Clear,72000.0,,,73000,,,,,,
KRDR,09-28-2008,09:29,SPECI,,150,6,,,9999.0,,7.0,5.0,30.10,1020.1,,,,,,,,,,,,,,,Clear,72000.0,,,73000,,,,,,
KRDR,09-28-2008,09:20,SPECI,,150,6,,,9999.0,Fog or Ice Fog,7.0,5.0,30.10,1020.2,,,,40,,,,,,,,,,,Clear,72000.0,,,73000,,,,,,
KRDR,09-28-2008,09:08,SPECI,,150,7,,,9999.0,,6.0,5.0,30.10,1020.3,,,,,,,,,,,,,,,Clear,72000.0,,,73000,,,,,,
KRDR,09-28-2008,09:00,METAR,,160,9,,,9999.0,Fog or Ice Fog,7.0,5.0,30.11,1020.4,,,,40,,,,,,,TRACE,TRACE,,,Clear,72000.0,,,73000,,,,,,
KRDR,09-28-2008,08:00,METAR,,150,9,,,9999.0,,7.0,4.0,30.13,1021.0,,,,,,,,,,,,,,,Clear,72000.0,,,73000,,,,,,
KRDR,09-28-2008,07:00,METAR,,140,8,,,9999.0,,7.0,3.0,30.14,1021.5,,,,,,,,,,,,,,,Clear,72000.0,,,73000,,,,,,
KRDR,09-28-2008,06:00,METAR,,150,7,,,9999.0,,6.0,3.0,30.18,1022.6,,,,,,,,,,,,,,,Clear,72000.0,,,73000,,,,,,
KRDR,09-28-2008,05:00,METAR,,130,5,,,9999.0,,6.0,3.0,30.18,1022.9,,,,,,,,,,,,,,,Clear,72000.0,,,73000,,,,,,
KRDR,09-28-2008,04:00,METAR,,,0,,,9999.0,,5.0,3.0,30.20,1023.4,,,,,,,,,,,,,,,Clear,72000.0,,,73000,,,,,,
KRDR,09-28-2008,03:03,SPECI,,,0,,,6400.0,Haze,6.0,3.0,30.20,1023.5,,,,5,,,,,,,,,,,Clear,72000.0,,,73000,,,,,,
KRDR,09-28-2008,03:00,METAR,,,0,,,8000.0,Haze,6.0,3.0,30.20,1023.5,,,,5,,,,,,,,,,,Clear,72000.0,,,73000,,,,,,
KRDR,09-28-2008,02:29,SPECI,,,0,,,6400.0,Haze,6.0,3.0,30.21,1023.7,,,,5,,,,,,,,,,,Clear,72000.0,,,73000,,,,,,
KRDR,09-28-2008,02:00,METAR,,,0,,,6400.0,Haze Smoke or Dust,7.0,2.0,30.20,1023.5,4,,,,,,,,,,,,,,Clear,72000.0,,,73000,,,,,,
KRDR,09-28-2008,01:38,SPECI,,,0,,,6400.0,Haze Smoke or Dust,8.0,3.0,30.20,1023.5,4,,,,,,,,,,,,,,Clear,72000.0,,,73000,,,,,,
KRDR,09-28-2008,01:08,SPECI,,,0,,,9999.0,,9.0,1.0,30.20,1023.6,,,,,,,,,,,,,,,Clear,72000.0,,,73000,,,,,,
KRDR,09-28-2008,01:00,METAR,,,0,,,8000.0,Haze Smoke or Dust,9.0,3.0,30.21,1023.7,4,,,,,,,,,,,,,,Clear,72000.0,,,73000,,,,,,
KRDR,09-28-2008,00:45,SPECI,,,0,,,9999.0,Haze Smoke or Dust,10.0,3.0,30.21,1023.7,4,,,,,,,,,,,,,,Clear,72000.0,,,73000,,,,,,
KRDR,09-28-2008,00:00,METAR,,100,3,,,9999.0,,14.0,1.0,30.22,1024.1,,,,,,,,,,,TRACE,,TRACE,,Clear,72000.0,,,73000,,,,,,
KRDR,09-27-2008,23:38,SPECI,,100,5,,,9999.0,,14.0,1.0,30.22,1024.1,,,,,,,,,,,,,,,Clear,72000.0,,,73000,,,,,,
KRDR,09-27-2008,23:30,SPECI,,100,5,,,9999.0,,15.0,1.0,30.22,1024.1,,,,,,,,,,,,,,,Clear,72000.0,,,73000,,,,,,
KRDR,09-27-2008,23:00,METAR,,70,6,,,9999.0,,16.0,0.0,30.23,1024.3,,,,,,,,,,,,,,,Clear,72000.0,,,73000,,,,,,
KRDR,09-27-2008,22:00,METAR,,,3,,,9999.0,,16.0,0.0,30.24,1024.8,,,,,,,,,,,,,,,Clear,72000.0,,,73000,,,,,,
KRDR,09-27-2008,21:00,METAR,,70,5,,,9999.0,,16.0,0.0,30.26,1025.4,,,,,,,,,,,,,,,Clear,72000.0,,,73000,,,,,,
KRDR,09-27-2008,20:00,METAR,,70,6,,,9999.0,,16.0,1.0,30.27,1025.8,,,,,,,,,,,,,,,Clear,72000.0,,,73000,,,,,,
KRDR,09-27-2008,19:00,METAR,,70,7,,,9999.0,,15.0,0.0,30.29,1026.3,,,,,,,,,,,,,,,Clear,72000.0,,,73000,,,,,,
KRDR,09-27-2008,18:00,METAR,,50,6,,,9999.0,,14.0,1.0,30.31,1026.9,,,,,,,,,,,,,,,2/8 Mostly Clear,72000.0,,FEW,25000,,,,,,
KRDR,09-27-2008,17:00,METAR,,30,9,,,9999.0,,13.0,3.0,30.31,1026.9,,,,,,,,,,,,,,,2/8 Mostly Clear,72000.0,,FEW,25000,,,,,,
KRDR,09-27-2008,16:00,METAR,,20,7,,,9999.0,,10.0,3.0,30.32,1027.4,,,,,,,,,,,,,,,2/8 Mostly Clear,72000.0,,FEW,25000,,,,,,
KRDR,09-27-2008,15:00,METAR,,360,8,,,9999.0,,8.0,3.0,30.32,1027.3,,,,,,,,,,,,,,,2/8 Mostly Clear,72000.0,,FEW,25000,,,,,,
KRDR,09-27-2008,14:00,METAR,,360,9,,,9999.0,,6.0,2.0,30.30,1026.8,,,,,,,,,,,,,,,2/8 Mostly Clear,72000.0,,FEW,25000,,,,,,
KRDR,09-27-2008,13:00,METAR,,350,5,,,9999.0,,3.0,2.0,30.30,1026.6,,,,,,,,,,,,,,,Clear,72000.0,,,73000,,,,,,
KRDR,09-27-2008,12:00,METAR,,350,6,,,9999.0,,4.0,2.0,30.29,1026.4,,,,,,,,,,,,,,.01 IN,Clear,72000.0,,,73000,,,,,,
KRDR,09-27-2008,11:00,METAR,,330,7,,,9999.0,,4.0,2.0,30.29,1026.4,,,,,,,,,,,,,,,Clear,72000.0,,,73000,,,,,,
KRDR,09-27-2008,10:00,METAR,,340,7,,,9999.0,,5.0,2.0,30.26,1025.4,,,,,,,,,,,,,,,Clear,72000.0,,,73000,,,,,,
KRDR,09-27-2008,09:00,METAR,,340,8,,,9999.0,,6.0,2.0,30.25,1025.2,,,,,,,,,,,,,,,Clear,72000.0,,,73000,,,,,,
KRDR,09-27-2008,08:00,METAR,,360,10,,,9999.0,,7.0,2.0,30.24,1024.9,,,,,,,,,,,,,,,Clear,72000.0,,,73000,,,,,,
KRDR,09-27-2008,07:00,METAR,,350,10,,,9999.0,,7.0,2.0,30.24,1024.6,,,,,,,,,,,,,,,Clear,72000.0,,,73000,,,,,,
KRDR,09-27-2008,06:00,METAR,,360,11,,,9999.0,,8.0,1.0,30.23,1024.3,,,,,,,,,,,,,,,Clear,72000.0,,,73000,,,,,,
KRDR,09-27-2008,05:00,METAR,,360,13,17.0,,9999.0,,9.0,1.0,30.21,1023.9,,,,,,,,,,,,,,,Clear,72000.0,,,73000,,,,,,
KRDR,09-27-2008,03:00,METAR,,360,12,17.0,,9999.0,,12.0,3.0,30.17,1022.3,,,,,,,,,,,,,,,7/8 Mostly Cloudy,3500.0,,BKN,3600,,,,,,
KRDR,09-27-2008,02:00,METAR,,360,12,,,9999.0,,12.0,4.0,30.13,1021.1,,,,,,,,,,,,,,,2/8 Mostly Clear,72000.0,,FEW,12000,,,,,,
KRDR,09-27-2008,01:00,METAR,,360,9,,,9999.0,,12.0,8.0,30.11,1020.6,,,,,,,,,,,,,,,4/8 Partly Cloudy,72000.0,,SCT,9900,,,,,,
KRDR,09-27-2008,00:00,METAR,,10,13,,,9999.0,,14.0,10.0,30.09,1019.9,,,,,,,,,,,,,.01 IN,,7/8 Mostly Cloudy,12000.0,,SCT,2600,BKN,12000.0,,,,
KRDR,09-26-2008,23:00,METAR,,360,10,,,9999.0,,16.0,11.0,30.07,1019.3,,,,,,,,,,,,,,,7/8 Mostly Cloudy,2700.0,,BKN,2700,BKN,20000.0,,,,
KRDR,09-26-2008,22:00,METAR,,360,10,21.0,,9999.0,,15.0,12.0,30.06,1018.9,,,,,,,,,,,,,,,7/8 Mostly Cloudy,1900.0,,BKN,1900,,,,,,
KRDR,09-26-2008,21:00,METAR,,350,14,20.0,,9999.0,,14.0,12.0,30.01,1017.2,,,,,,,,,,,,.01 IN,,,8/8 Overcast,1400.0,,OVC,1400,,,,,,
KRDR,09-26-2008,20:00,METAR,,350,14,21.0,,9999.0,,13.0,11.0,30.00,1016.7,,,,,,,,,,,TRACE,,,,8/8 Overcast,1200.0,,OVC,1200,,,,,,
KRDR,09-26-2008,19:33,SPECI,,360,14,21.0,,9999.0,,12.0,11.0,29.99,,,,,,,,,,,,,,,,8/8 Overcast,900.0,,OVC,900,,,,,,
KRDR,09-26-2008,19:00,METAR,,360,13,,,9999.0,Light Rain Showers,14.0,13.0,29.96,1015.6,,,,80,,,,,,,.01 IN,,,,8/8 Overcast,500.0,,OVC,500,,,,,,
KRDR,09-26-2008,18:25,SPECI,,20,17,,,9999.0,Light Rain Showers,15.0,14.0,29.92,1014.3,,,,80,,,,,,,,,,,8/8 Overcast,500.0,,OVC,500,,,,,,
KRDR,09-26-2008,18:06,SPECI,,40,16,,,9999.0,,15.0,14.0,29.92,1014.1,,,,,,,,,,,,,,,8/8 Overcast,500.0,,OVC,500,,,,,,
KRDR,09-26-2008,18:00,METAR,,30,13,,,9999.0,Mist,15.0,13.0,29.94,1015.0,,,,10,,,,,,,,,,,8/8 Overcast,600.0,,OVC,600,,,,,,
KRDR,09-26-2008,17:00,METAR,,10,11,,,9999.0,Mist,15.0,14.0,30.01,1017.1,,,,10,,,,,,,,,,,8/8 Overcast,700.0,,OVC,700,,,,,,
KRDR,09-26-2008,16:07,SPECI,,10,11,,,8000.0,Mist,15.0,15.0,29.99,1016.6,,,,10,,,,,,,,,,,8/8 Overcast,500.0,,OVC,500,,,,,,
KRDR,09-26-2008,16:00,METAR,,10,12,16.0,,8000.0,Mist,14.0,14.0,29.99,1016.4,,,,10,,,,,,,,,,,8/8 Overcast,500.0,,OVC,500,,,,,,
KRDR,09-26-2008,15:35,SPECI,,10,13,17.0,,6400.0,Mist,14.0,14.0,29.98,1016.1,,,,10,,,,,,,,,,,8/8 Overcast,500.0,,BKN,500,OVC,1000.0,,,,
KRDR,09-26-2008,15:00,METAR,,350,13,18.0,,9999.0,,14.0,14.0,29.97,1015.8,,,,,,,,,,,,,,,7/8 Mostly Cloudy,3000.0,,SCT,600,BKN,3000.0,,,,
KRDR,09-26-2008,14:41,SPECI,,10,14,20.0,,9999.0,,14.0,14.0,29.97,1015.8,,,,,,,,,,,,,,,7/8 Mostly Cloudy,3000.0,,SCT,600,BKN,3000.0,,,,
KRDR,09-26-2008,14:33,SPECI,,360,14,,,9999.0,,14.0,14.0,29.96,1015.7,,,,,,,,,,,,,,,7/8 Mostly Cloudy,12000.0,,FEW,800,SCT,3000.0,BKN,12000.0,,
KRDR,09-26-2008,14:00,METAR,,360,15,22.0,,9999.0,,16.0,16.0,29.92,1014.2,,,,,,,,,,,,,,,7/8 Mostly Cloudy,12000.0,,FEW,1500,SCT,5900.0,BKN,12000.0,,
KRDR,09-26-2008,13:36,SPECI,,10,12,,,9999.0,,16.0,16.0,29.89,1013.1,,,,,,,,,,,,,,,7/8 Mostly Cloudy,12000.0,,FEW,1000,BKN,12000.0,,,,
KRDR,09-26-2008,13:00,METAR,,20,3,,,8000.0,Mist,14.0,14.0,29.88,1012.9,,,,10,,,,,,,,,,,7/8 Mostly Cloudy,15000.0,,SCT,9900,BKN,15000.0,,,,
KRDR,09-26-2008,12:48,SPECI,,20,4,,,4800.0,Mist,14.0,14.0,29.88,1012.8,,,,10,,,,,,,,,,,7/8 Mostly Cloudy,14000.0,,BKN,14000,,,,,,
KRDR,09-26-2008,12:45,SPECI,,10,3,,,800.0,Fog or Ice Fog,14.0,14.0,29.88,1012.8,,,,44,,,,,,,,,,,Clear,72000.0,,,73000,,,,,,
KRDR,09-26-2008,12:15,SPECI,,10,3,,,1600.0,Mist,14.0,14.0,29.87,1012.6,,,,10,,,,,,,,,,,7/8 Mostly Cloudy,14000.0,,BKN,14000,,,,,,
KRDR,09-26-2008,12:13,SPECI,,20,3,,,1200.0,,14.0,14.0,29.87,1012.6,,,,,,,,,,,,,,,7/8 Mostly Cloudy,14000.0,,BKN,14000,,,,,,
KRDR,09-26-2008,12:00,METAR,,320,3,,,800.0,Fog or Ice Fog,13.0,13.0,29.86,1012.4,,,,44,,,,,,,,,,,7/8 Mostly Cloudy,15000.0,,BKN,15000,,,,,,
KRDR,09-26-2008,11:28,SPECI,,,0,,,1200.0,Mist,14.0,14.0,29.85,1011.9,,,,10,,,,,,,,,,,7/8 Mostly Cloudy,15000.0,,BKN,15000,,,,,,
KRDR,09-26-2008,11:16,SPECI,,,0,,,800.0,Fog or Ice Fog,14.0,14.0,29.84,1011.6,,,,44,,,,,,,,,,,7/8 Mostly Cloudy,15000.0,,BKN,15000,,,,,,
KRDR,09-26-2008,11:00,METAR,,,0,,,1200.0,Mist,14.0,14.0,29.85,1011.9,,,,10,,,,,,,,,,,7/8 Mostly Cloudy,15000.0,,BKN,15000,,,,,,
KRDR,09-26-2008,10:46,SPECI,,,0,,,800.0,Fog or Ice Fog,15.0,15.0,29.85,1011.8,,,,44,,,,,,,,,,,7/8 Mostly Cloudy,15000.0,,BKN,15000,,,,,,
KRDR,09-26-2008,10:32,SPECI,,,0,,,1200.0,Mist,14.0,14.0,29.84,1011.7,,,,10,,,,,,,,,,,Clear,72000.0,,,73000,,,,,,
KRDR,09-26-2008,10:26,SPECI,,,0,,,800.0,Fog or Ice Fog,14.0,14.0,29.85,1011.8,,,,44,,,,,,,,,,,Clear,72000.0,,,73000,,,,,,
KRDR,09-26-2008,10:23,SPECI,,,0,,,800.0,Fog,14.0,14.0,29.84,1011.7,30,,,,,,,,,,,,,,Clear,72000.0,,,73000,,,,,,
KRDR,09-26-2008,10:21,SPECI,,,0,,,1200.0,Mist,14.0,14.0,29.84,1011.6,10,,,,,,,,,,,,,,Clear,72000.0,,,73000,,,,,,
KRDR,09-26-2008,10:11,SPECI,,,0,,,2000.0,Mist,15.0,15.0,29.84,1011.5,10,,,,,,,,,,,,,,Clear,72000.0,,,73000,,,,,,
KRDR,09-26-2008,10:08,SPECI,,,0,,,1600.0,Mist,15.0,15.0,29.84,1011.4,10,,,,,,,,,,,,,,Clear,72000.0,,,73000,,,,,,
KRDR,09-26-2008,10:06,SPECI,,,0,,,2000.0,Mist,15.0,15.0,29.84,1011.5,10,,,,,,,,,,,,,,Clear,72000.0,,,73000,,,,,,
KRDR,09-26-2008,10:02,SPECI,,,0,,,1600.0,Mist,15.0,15.0,29.84,1011.4,10,,,,,,,,,,,,,,Clear,72000.0,,,73000,,,,,,
KRDR,09-26-2008,10:00,SPECI,,,0,,,1600.0,Mist,14.0,14.0,29.84,1011.4,10,,,,,,,,,,,,,,Clear,72000.0,,,73000,,,,,,
KRDR,09-26-2008,10:00,METAR,,,0,,,2400.0,Mist,15.0,15.0,29.84,1011.6,10,,,,,,,,,,,,,,Clear,72000.0,,,73000,,,,,,
KRDR,09-26-2008,09:57,SPECI,,,0,,,2000.0,Mist,14.0,14.0,29.84,1011.5,10,,,,,,,,,,,,,,Clear,72000.0,,,73000,,,,,,
KRDR,09-26-2008,09:50,SPECI,,,0,,,2400.0,Mist,14.0,14.0,29.84,1011.6,10,,,,,,,,,,,,,,Clear,72000.0,,,73000,,,,,,
KRDR,09-26-2008,09:46,SPECI,,,0,,,2000.0,Mist,14.0,14.0,29.84,1011.6,10,,,,,,,,,,,,,,Clear,72000.0,,,73000,,,,,,
KRDR,09-26-2008,09:40,SPECI,,,0,,,1600.0,Mist,15.0,15.0,29.84,1011.6,10,,,,,,,,,,,,,,Clear,72000.0,,,73000,,,,,,
KRDR,09-26-2008,09:37,SPECI,,,0,,,1200.0,Mist,15.0,15.0,29.84,1011.5,10,,,,,,,,,,,,,,Clear,72000.0,,,73000,,,,,,
KRDR,09-26-2008,09:32,SPECI,,,0,,,800.0,Fog,16.0,16.0,29.84,1011.5,30,,,,,,,,,,,,,,Clear,72000.0,,,73000,,,,,,
KRDR,09-26-2008,09:29,SPECI,,,0,,,400.0,Fog,16.0,16.0,29.84,1011.4,30,,,,,,,,,,,,,,Clear,72000.0,,,73000,,,,,,
KRDR,09-26-2008,09:25,SPECI,,,0,,,800.0,Fog,15.0,15.0,29.83,1011.4,30,,,,,,,,,,,,,,Clear,72000.0,,,73000,,,,,,
KRDR,09-26-2008,09:23,SPECI,,190,3,,,1600.0,Mist,15.0,15.0,29.83,1011.4,10,,,,,,,,,,,,,,Clear,72000.0,,,73000,,,,,,
KRDR,09-26-2008,09:21,SPECI,,190,3,,,2800.0,Mist,15.0,15.0,29.83,1011.3,10,,,,,,,,,,,,,,Clear,72000.0,,,73000,,,,,,
KRDR,09-26-2008,09:18,SPECI,,190,3,,,6400.0,Mist,15.0,14.0,29.83,1011.3,10,,,,,,,,,,,,,,Clear,72000.0,,,73000,,,,,,
KRDR,09-26-2008,09:00,METAR,,200,3,,,6400.0,Mist,15.0,14.0,29.83,1011.4,10,,,,,,,,,,,,,,Clear,72000.0,,,73000,,,,,,
KRDR,09-26-2008,08:34,SPECI,,,0,,,6400.0,Mist,15.0,15.0,29.83,1011.1,10,,,,,,,,,,,,,,Clear,72000.0,,,73000,,,,,,
KRDR,09-26-2008,08:00,METAR,,160,5,,,9999.0,Mist,16.0,16.0,29.82,1011.0,10,,,,,,,,,,,,,,Clear,72000.0,,,73000,,,,,,
KRDR,09-26-2008,07:00,METAR,,190,4,,,9999.0,,15.0,15.0,29.83,1011.3,,,,,,,,,,,,,,,Clear,72000.0,,,73000,,,,,,
KRDR,09-26-2008,06:45,SPECI,,190,4,,,3200.0,Mist,15.0,15.0,29.83,1011.3,10,,,,,,,,,,,,,,Clear,72000.0,,,73000,,,,,,
KRDR,09-26-2008,06:43,SPECI,,180,4,,,2400.0,Mist,15.0,15.0,29.83,1011.2,10,,,,,,,,,,,,,,Clear,72000.0,,,73000,,,,,,
KRDR,09-26-2008,06:41,SPECI,,180,4,,,2000.0,Mist,15.0,15.0,29.83,1011.2,10,,,,,,,,,,,,,,Clear,72000.0,,,73000,,,,,,
KRDR,09-26-2008,06:40,SPECI,,180,5,,,1600.0,Mist,15.0,15.0,29.83,1011.2,10,,,,,,,,,,,,,,Clear,72000.0,,,73000,,,,,,
KRDR,09-26-2008,06:36,SPECI,,170,3,,,1600.0,Mist,14.0,14.0,29.83,1011.2,10,,,,,,,,,,,,,,Clear,72000.0,,,73000,,,,,,
KRDR,09-26-2008,06:33,SPECI,,,0,,,2000.0,Mist,14.0,14.0,29.83,1011.2,10,,,,,,,,,,,,,,Clear,72000.0,,,73000,,,,,,
KRDR,09-26-2008,06:31,SPECI,,,0,,,2800.0,Mist,15.0,14.0,29.83,1011.2,10,,,,,,,,,,,,,,Clear,72000.0,,,73000,,,,,,
KRDR,09-26-2008,06:24,SPECI,,,0,,,4800.0,Mist,15.0,15.0,29.83,1011.2,10,,,,,,,,,,,,,,Clear,72000.0,,,73000,,,,,,
KRDR,09-26-2008,06:22,SPECI,,,0,,,3200.0,Mist,15.0,15.0,29.83,1011.3,10,,,,,,,,,,,,,,Clear,72000.0,,,73000,,,,,,
KRDR,09-26-2008,06:19,SPECI,,,0,,,2400.0,Mist,15.0,15.0,29.83,1011.2,10,,,,,,,,,,,,,,Clear,72000.0,,,73000,,,,,,
KRDR,09-26-2008,06:16,SPECI,,150,3,,,1200.0,Mist,15.0,15.0,29.83,1011.3,10,,,,,,,,,,,,,,Clear,72000.0,,,73000,,,,,,
KRDR,09-26-2008,06:00,METAR,,,0,,,2000.0,Mist,14.0,14.0,29.84,1011.6,10,,,,,,,,,,,,,,Clear,72000.0,,,73000,,,,,,
KRDR,09-26-2008,05:54,SPECI,,150,3,,,1200.0,Mist,14.0,14.0,29.84,1011.6,10,,,,,,,,,,,,,,Clear,72000.0,,,73000,,,,,,
KRDR,09-26-2008,05:50,SPECI,,,0,,,2000.0,Mist,14.0,14.0,29.84,1011.6,10,,,,,,,,,,,,,,Clear,72000.0,,,73000,,,,,,
KRDR,09-26-2008,05:47,SPECI,,,0,,,1600.0,Mist,14.0,14.0,29.84,1011.6,10,,,,,,,,,,,,,,Clear,72000.0,,,73000,,,,,,
KRDR,09-26-2008,05:44,SPECI,,,0,,,1200.0,Mist,14.0,14.0,29.84,1011.6,10,,,,,,,,,,,,,,Clear,72000.0,,,73000,,,,,,
KRDR,09-26-2008,05:00,METAR,,,0,,,9999.0,,16.0,16.0,29.85,1011.7,,,,,,,,,,,,,,,4/8 Partly Cloudy,72000.0,,SCT,11000,SCT,20000.0,,,,
KRDR,09-26-2008,04:00,METAR,,160,5,,,9999.0,,18.0,17.0,29.85,1011.8,,,,,,,,,,,,,,,4/8 Partly Cloudy,72000.0,,SCT,11000,SCT,25000.0,,,,
KRDR,09-26-2008,03:00,METAR,,150,6,,,9999.0,,19.0,17.0,29.86,1012.2,,,,,,,,,,,,,,,4/8 Partly Cloudy,72000.0,,SCT,11000,SCT,20000.0,,,,
KRDR,09-26-2008,02:00,METAR,,150,7,,,9999.0,,19.0,17.0,29.86,1012.3,,,,,,,,,,,,,,,7/8 Mostly Cloudy,20000.0,,SCT,11000,BKN,20000.0,,,,
KRDR,09-26-2008,01:00,METAR,,150,7,,,9999.0,,21.0,18.0,29.87,1012.6,,,,,,,,,,,,,,,7/8 Mostly Cloudy,20000.0,,FEW,4000,SCT,11000.0,BKN,20000.0,,
KRDR,09-26-2008,00:00,METAR,,150,6,,,9999.0,,23.0,18.0,29.88,1012.8,,,,,,,,,,,,,,,8/8 Overcast,20000.0,,SCT,3800,SCT,11000.0,OVC,20000.0,,
KRDR,09-25-2008,23:00,METAR,,160,10,,,9999.0,,24.0,18.0,29.89,1013.1,,,,,,,,,,,,,,,7/8 Mostly Cloudy,20000.0,,FEW,2900,SCT,11000.0,BKN,20000.0,,
KRDR,09-25-2008,22:00,METAR,,170,13,,,9999.0,,24.0,17.0,29.90,1013.6,,,,,,,,,,,,,,,7/8 Mostly Cloudy,20000.0,,FEW,2500,SCT,11000.0,BKN,20000.0,,
KRDR,09-25-2008,21:08,SPECI,,180,15,,,9999.0,,23.0,17.0,29.92,1014.1,,,,,,,,,,,,,,,7/8 Mostly Cloudy,20000.0,,SCT,2500,BKN,20000.0,,,,
KRDR,09-25-2008,21:00,METAR,,170,15,,,9999.0,,22.0,17.0,29.93,1014.4,,,,,,,,,,,,,,,7/8 Mostly Cloudy,2300.0,,BKN,2300,BKN,20000.0,,,,
KRDR,09-25-2008,20:00,METAR,,180,14,,,9999.0,,21.0,16.0,29.95,1015.4,,,,,,,,,,,,,,,8/8 Overcast,2200.0,,OVC,2200,,,,,,
KRDR,09-25-2008,19:00,METAR,,170,14,,,9999.0,,20.0,15.0,29.97,1016.1,,,,,,,,,,,,,,,8/8 Overcast,2200.0,,OVC,2200,,,,,,
KRDR,09-25-2008,18:00,METAR,,170,14,,,9999.0,,19.0,15.0,30.00,1016.7,,,,,,,,,,,,,,,8/8 Overcast,2700.0,,OVC,2700,,,,,,
KRDR,09-25-2008,17:00,METAR,,180,16,20.0,,9999.0,,18.0,14.0,30.02,1017.4,,,,,,,,,,,,,,,7/8 Mostly Cloudy,2900.0,,BKN,2900,,,,,,
KRDR,09-25-2008,16:00,METAR,,170,15,,,9999.0,,17.0,12.0,30.03,1017.9,,,,,,,,,,,,,,,4/8 Partly Cloudy,72000.0,,SCT,25000,,,,,,
KRDR,09-25-2008,15:00,METAR,,170,10,,,9999.0,,15.0,11.0,30.04,1018.2,,,,,,,,,,,,,,,2/8 Mostly Clear,72000.0,,FEW,25000,,,,,,
KRDR,09-25-2008,14:00,METAR,,170,9,,,9999.0,,11.0,8.0,30.05,1018.5,,,,,,,,,,,,,,,4/8 Partly Cloudy,72000.0,,SCT,25000,,,,,,
KRDR,09-25-2008,13:00,METAR,,160,6,,,9999.0,,9.0,7.0,30.06,1018.7,,,,,,,,,,,,,,,4/8 Partly Cloudy,72000.0,,SCT,25000,,,,,,
KRDR,09-25-2008,12:00,METAR,,160,7,,,9999.0,,8.0,6.0,30.07,1019.0,,,,,,,,,,,,,,,Clear,72000.0,,,73000,,,,,,
KRDR,09-25-2008,11:00,METAR,,160,8,,,9999.0,,9.0,6.0,30.07,1019.2,,,,,,,,,,,,,,,Clear,72000.0,,,73000,,,,,,
KRDR,09-25-2008,10:00,METAR,,160,8,,,9999.0,,10.0,6.0,30.09,1020.0,,,,,,,,,,,,,,,Clear,72000.0,,,73000,,,,,,
KRDR,09-25-2008,09:00,METAR,,170,10,,,9999.0,,10.0,7.0,30.13,1021.1,,,,,,,,,,,,,,,Clear,72000.0,,,73000,,,,,,
KRDR,09-25-2008,08:00,METAR,,160,8,,,9999.0,,11.0,7.0,30.15,1021.8,,,,,,,,,,,,,,,Clear,72000.0,,,73000,,,,,,
KRDR,09-25-2008,07:00,METAR,,180,7,,,9999.0,,13.0,7.0,30.16,1022.2,,,,,,,,,,,,,,,Clear,72000.0,,,73000,,,,,,
KRDR,09-25-2008,06:00,METAR,,190,7,,,9999.0,,13.0,7.0,30.16,1022.6,,,,,,,,,,,,,,,7/8 Mostly Cloudy,14000.0,,BKN,14000,BKN,20000.0,,,,
KRDR,09-25-2008,05:00,METAR,,180,7,,,9999.0,,12.0,7.0,30.19,1023.0,,,,,,,,,,,,,,,7/8 Mostly Cloudy,15000.0,,BKN,15000,BKN,20000.0,,,,
KRDR,09-25-2008,04:00,METAR,,190,7,,,9999.0,,11.0,7.0,30.19,1023.0,,,,,,,,,,,,,,,7/8 Mostly Cloudy,15000.0,,BKN,15000,BKN,20000.0,,,,
KRDR,09-25-2008,03:00,METAR,,180,5,,,9999.0,,12.0,7.0,30.18,1022.9,,,,,,,,,,,,,,,7/8 Mostly Cloudy,20000.0,,SCT,15000,BKN,20000.0,,,,
KRDR,09-25-2008,02:00,METAR,,190,4,,,9999.0,,11.0,7.0,30.18,1022.8,,,,,,,,,,,,,,,7/8 Mostly Cloudy,20000.0,,FEW,12000,SCT,18000.0,BKN,20000.0,,
KRDR,09-25-2008,01:00,METAR,,250,9,,,9999.0,,12.0,6.0,30.19,1023.1,,,,,,,,,,,,,,,4/8 Partly Cloudy,72000.0,,SCT,12000,SCT,20000.0,,,,
KRDR,09-25-2008,00:00,METAR,,250,9,,,9999.0,,15.0,7.0,30.20,1023.5,,,,,,,,,,,,,,,4/8 Partly Cloudy,72000.0,,SCT,12000,SCT,22000.0,,,,
KRDR,09-24-2008,23:00,METAR,,260,10,,,9999.0,,18.0,5.0,30.21,1023.8,,,,,,,,,,,,,,,4/8 Partly Cloudy,72000.0,,FEW,5900,FEW,15000.0,SCT,22000.0,,
KRDR,09-24-2008,22:00,METAR,,250,10,,,9999.0,,19.0,4.0,30.22,1024.0,,,,,,,,,,,,,,,7/8 Mostly Cloudy,22000.0,,FEW,5900,SCT,15000.0,BKN,22000.0,,
KRDR,09-24-2008,21:00,METAR,,280,9,,,9999.0,,19.0,4.0,30.22,1024.1,,,,,,,,,,,,,,,7/8 Mostly Cloudy,22000.0,,FEW,5900,BKN,22000.0,,,,
KRDR,09-24-2008,20:00,METAR,,280,12,,,9999.0,,18.0,5.0,30.23,1024.4,,,,,,,,,,,,,,,7/8 Mostly Cloudy,22000.0,,SCT,5900,BKN,22000.0,,,,
KRDR,09-24-2008,19:00,METAR,,280,10,,,9999.0,,18.0,5.0,30.24,1024.8,,,,,,,,,,,,,,,4/8 Partly Cloudy,72000.0,,FEW,5400,SCT,22000.0,,,,
KRDR,09-24-2008,18:00,METAR,,270,11,,,9999.0,,18.0,6.0,30.25,1024.9,,,,,,,,,,,,,,,2/8 Mostly Clear,72000.0,,FEW,5000,FEW,20000.0,,,,
KRDR,09-24-2008,17:00,METAR,,270,11,,,9999.0,,17.0,8.0,30.23,1024.4,,,,,,,,,,,,,,,2/8 Mostly Clear,72000.0,,FEW,20000,,,,,,
KRDR,09-24-2008,16:00,METAR,,280,10,,,9999.0,,15.0,7.0,30.22,1024.1,,,,,,,,,,,,,,,2/8 Mostly Clear,72000.0,,FEW,20000,,,,,,
KRDR,09-24-2008,15:00,METAR,,280,9,16.0,,9999.0,,14.0,7.0,30.21,1023.7,,,,,,,,,,,,,,,2/8 Mostly Clear,72000.0,,FEW,22000,,,,,,
KRDR,09-24-2008,14:00,METAR,,280,12,,,9999.0,,11.0,7.0,30.18,1022.9,,,,,,,,,,,,,,,Clear,72000.0,,,73000,,,,,,
KRDR,09-24-2008,13:00,METAR,,280,9,,,9999.0,,10.0,7.0,30.15,1021.9,,,,,,,,,,,,,,,Clear,72000.0,,,73000,,,,,,
KRDR,09-24-2008,12:00,METAR,,270,10,,,9999.0,,10.0,8.0,30.12,1020.9,,,,,,,,,,,,,,.19 IN,2/8 Mostly Clear,72000.0,,FEW,12000,,,,,,
KRDR,09-24-2008,11:00,METAR,,280,11,,,9999.0,,10.0,8.0,30.09,1019.8,,,,,,,,,,,,,,,4/8 Partly Cloudy,72000.0,,SCT,12000,,,,,,
KRDR,09-24-2008,10:00,METAR,,270,9,,,9999.0,,10.0,8.0,30.06,1018.9,,,,,,,,,,,,,,,8/8 Overcast,7500.0,,OVC,7400,,,,,,
KRDR,09-24-2008,09:00,METAR,,260,9,,,9999.0,,9.0,7.0,30.04,1018.3,,,,,,,,,,,,,,,4/8 Partly Cloudy,72000.0,,SCT,7400,,,,,,
KRDR,09-24-2008,08:00,METAR,,260,9,,,9999.0,,9.0,6.0,30.04,1018.2,,,,,,,,,,,,,,,Clear,72000.0,,,73000,,,,,,
KRDR,09-24-2008,07:00,METAR,,250,6,,,9999.0,,9.0,7.0,30.03,1017.8,,,,,,,,,,,,,,,Clear,72000.0,,,73000,,,,,,
KRDR,09-24-2008,06:00,METAR,,270,11,,,9999.0,,11.0,8.0,30.02,1017.5,,,,,,,,,,,,,.19 IN,,Clear,72000.0,,,73000,,,,,,
KRDR,09-24-2008,05:00,METAR,,240,7,,,9999.0,,11.0,10.0,30.01,1017.2,,,,,,,,,,,,,,,Clear,72000.0,,,73000,,,,,,
KRDR,09-24-2008,04:00,METAR,,180,5,,,9999.0,,12.0,11.0,30.01,1017.1,,,,,,,,,,,,,,,7/8 Mostly Cloudy,6000.0,,SCT,4600,BKN,5900.0,,,,
KRDR,09-24-2008,03:00,METAR,,200,7,,,9999.0,,12.0,12.0,30.02,1017.5,,,,,,,,,,,.01 IN,.19 IN,,,8/8 Overcast,4500.0,,BKN,4600,OVC,5900.0,,,,
KRDR,09-24-2008,02:07,SPECI,,230,3,,,9999.0,,13.0,12.0,30.01,1017.2,,,,,,,,,,,,,,,8/8 Overcast,3200.0,,BKN,3300,OVC,6900.0,,,,
KRDR,09-24-2008,02:00,METAR,,110,9,,,9999.0,Rain,13.0,12.0,30.00,1016.7,,,,61,,,,,,,.09 IN,,,,8/8 Overcast,4000.0,,FEW,500,BKN,4100.0,OVC,6900.0,,
KRDR,09-24-2008,01:39,SPECI,,,0,,,9999.0,Rain,13.0,12.0,30.01,1017.3,,,,61,,,,,,,,,,,8/8 Overcast,4300.0,,BKN,4400,OVC,6900.0,,,,
KRDR,09-24-2008,01:34,SPECI,,150,4,,,6400.0,Rain,13.0,12.0,30.01,1017.3,,,,63,,,,,,,,,,,8/8 Overcast,3800.0,,BKN,3900,OVC,6900.0,,,,
KRDR,09-24-2008,01:00,METAR,,320,9,,280/28KTS,9999.0,Drizzle,13.0,11.0,29.98,1016.6,,,,51,,,,,,,.09 IN,,,,7/8 Mostly Cloudy,3100.0,,BKN,3100,BKN,6900.0,,,,
KRDR,09-24-2008,00:40,SPECI,,320,10,,280/28KTS,9999.0,Rain,12.0,11.0,29.99,1016.6,,,,63,,,,,,,,,,,8/8 Overcast,3000.0,,BKN,3000,OVC,4500.0,,,,
KRDR,09-24-2008,00:02,SPECI,,290,21,28.0,280/28KTS,9999.0,Rain,15.0,10.0,29.99,1016.4,,,,61,,,,,,,,,,,8/8 Overcast,4200.0,,BKN,4300,BKN,5000.0,OVC,9900.0,,
KRDR,09-24-2008,00:00,METAR,,280,20,24.0,,9999.0,,17.0,12.0,29.97,1015.8,,,,,,,,,,,,,,,7/8 Mostly Cloudy,4900.0,,SCT,3700,BKN,5000.0,BKN,9900.0,,
KRDR,09-23-2008,23:00,METAR,,240,5,,,9999.0,,20.0,10.0,29.93,1014.9,,,,,,,,,,,,,,,4/8 Partly Cloudy,72000.0,,FEW,4600,FEW,6900.0,SCT,25000.0,,
KRDR,09-23-2008,22:00,METAR,,290,5,,,9999.0,,21.0,9.0,29.94,1015.2,,,,,,,,,,,,,,,4/8 Partly Cloudy,72000.0,,SCT,4600,SCT,20000.0,,,,
KRDR,09-23-2008,21:00,METAR,,290,7,,,9999.0,,20.0,10.0,29.95,1015.5,,,,,,,,,,,,,,,4/8 Partly Cloudy,72000.0,,SCT,4600,SCT,18000.0,,,,
KRDR,09-23-2008,20:00,METAR,,310,9,,,9999.0,,20.0,11.0,29.95,1015.5,,,,,,,,,,,,,,,4/8 Partly Cloudy,72000.0,,SCT,3200,,,,,,
KRDR,09-23-2008,19:00,METAR,,330,11,,,9999.0,,18.0,11.0,29.95,1015.4,,,,,,,,,,,,,,,4/8 Partly Cloudy,72000.0,,SCT,2900,,,,,,
KRDR,09-23-2008,17:00,METAR,,340,12,,,9999.0,,18.0,13.0,29.92,1014.3,,,,,,,,,,,,,,,7/8 Mostly Cloudy,3700.0,,FEW,1500,SCT,2700.0,BKN,3800.0,,
KRDR,09-23-2008,16:00,METAR,,320,13,,,9999.0,,17.0,13.0,29.89,1013.3,,,,,,,,,,,,,,,7/8 Mostly Cloudy,2200.0,,SCT,1500,BKN,2200.0,,,,
KRDR,09-23-2008,15:00,METAR,,300,11,,,9999.0,,16.0,14.0,29.86,1012.4,,,,,,,,,,,TRACE,TRACE,,,8/8 Overcast,1400.0,,BKN,1400,OVC,2200.0,,,,
KRDR,09-23-2008,14:35,SPECI,,280,12,19.0,,9999.0,,17.0,16.0,29.84,,,,,,,,,,,,,,,,8/8 Overcast,1400.0,,OVC,1400,,,,,,
KRDR,09-23-2008,14:08,SPECI,,280,8,,,3200.0,Mist,16.0,15.0,29.83,,,,,,10,,,,,,,,,,8/8 Overcast,1400.0,,OVC,1400,,,,,,
KRDR,09-23-2008,14:00,METAR,,270,9,,,3200.0,Mist,18.0,16.0,29.83,1011.3,,,,10,,,,,,,,,,,8/8 Overcast,1500.0,,OVC,1500,,,,,,
KRDR,09-23-2008,13:00,METAR,,200,11,,,9999.0,,18.0,16.0,29.82,1010.8,,,,,,,,,,,,,,,8/8 Overcast,3300.0,,OVC,3400,,,,,,
KRDR,09-23-2008,12:00,METAR,,180,15,,,9999.0,,18.0,16.0,29.79,1010.0,,,,,,,,,,,,,.47 IN,.77 IN,7/8 Mostly Cloudy,11000.0,,FEW,5000,BKN,11000.0,,,,
KRDR,09-23-2008,11:00,METAR,,220,6,,,9999.0,,17.0,16.0,29.78,1009.5,,,,,,,,,,,,,,,4/8 Partly Cloudy,72000.0,,SCT,12000,,,,,,
KRDR,09-23-2008,10:00,METAR,,130,4,,,9999.0,,17.0,15.0,29.75,1008.6,,,,,,,,,,,.03 IN,,,,Clear,72000.0,,,73000,,,,,,
KRDR,09-23-2008,09:28,SPECI,,340,12,,,9999.0,,17.0,15.0,29.67,1006.1,,,,,,,,,,,,,,,Clear,72000.0,,,73000,,,,,,
KRDR,09-23-2008,09:01,SPECI,,290,10,,,9999.0,Light Rain,18.0,17.0,29.75,1008.6,61,,,,,,,,,,,,,,2/8 Mostly Clear,72000.0,,FEW,1300,,,,,,
KRDR,09-23-2008,09:00,METAR,,260,9,,,9999.0,Light Rain,19.0,17.0,29.79,1010.0,61,,,,,,,,,,.16 IN,.44 IN,,,4/8 Partly Cloudy,72000.0,,FEW,1300,SCT,8400.0,,,,
KRDR,09-23-2008,08:41,SPECI,,230,14,21.0,,9999.0,Light Rain,19.0,17.0,29.80,1010.3,61,,,,,,,,,,,,,,4/8 Partly Cloudy,72000.0,,SCT,1200,SCT,7900.0,,,,
KRDR,09-23-2008,08:32,SPECI,,220,14,23.0,,9999.0,Light Rain,19.0,17.0,29.80,1010.2,61,,,,,,,,,,,,,,4/8 Partly Cloudy,72000.0,,FEW,1100,SCT,7900.0,,,,
KRDR,09-23-2008,08:17,SPECI,,210,12,18.0,,9999.0,Light Rain,19.0,18.0,29.76,1009.1,61,,,,,,,,,,,,,,4/8 Partly Cloudy,72000.0,,FEW,1300,SCT,7400.0,,,,
KRDR,09-23-2008,08:00,METAR,,180,13,,160/29KTS,9999.0,Thunderstorm with Rain or Snow/Light Rain Showers,19.0,18.0,29.79,1010.1,,,,95,80,,,,,,.27 IN,,,,8/8 Overcast,3000.0,,SCT,1800,BKN,3000.0,OVC,4100.0,,
KRDR,09-23-2008,07:34,SPECI,,210,11,24.0,160/29KTS,4800.0,Thunderstorm with Rain or Snow/Rain Showers/Mist,19.0,18.0,29.79,1009.8,,,,95,81,10,,,,,,,,,8/8 Overcast,2400.0,,FEW,300,OVC,2400.0,,,,
KRDR,09-23-2008,07:21,SPECI,,160,21,29.0,,3200.0,Thunderstorm with Rain or Snow/Rain Showers,20.0,18.0,29.76,1009.1,,,,95,81,,,,,,,,,,8/8 Overcast,2400.0,,BKN,2400,OVC,3100.0,,,,
KRDR,09-23-2008,07:10,SPECI,,150,13,,,9999.0,Rain,20.0,17.0,29.75,1008.8,,,,61,,,,,,,,,,,8/8 Overcast,2600.0,,BKN,2600,OVC,3400.0,,,,
KRDR,09-23-2008,07:00,METAR,,140,13,,,9999.0,,20.0,17.0,29.75,1009.1,,,,,,,,,,,.01 IN,,,,8/8 Overcast,2600.0,,BKN,2600,OVC,5400.0,,,,
KRDR,09-23-2008,06:37,SPECI,,140,12,,,9999.0,Rain,20.0,17.0,29.77,1009.3,,,,61,,,,,,,,,,,8/8 Overcast,3300.0,,SCT,2600,OVC,3400.0,,,,
KRDR,09-23-2008,06:00,METAR,,140,10,,,8000.0,Thunderstorm with Rain or Snow/Light Rain Showers,19.0,17.0,29.81,1010.6,,,,95,80,,,,,,.2 IN,,.2 IN,,8/8 Overcast,3600.0,,FEW,200,SCT,2100.0,OVC,3700.0,,
KRDR,09-23-2008,05:43,SPECI,,160,13,,,4800.0,Thunderstorm with Rain or Snow/Rain Showers,20.0,18.0,29.82,1011.0,,,,95,81,,,,,,,,,,8/8 Overcast,3400.0,,FEW,300,SCT,2400.0,BKN,3500.0,OVC,5000.0
KRDR,09-23-2008,05:22,SPECI,,150,11,,,9999.0,Thunderstorm with Rain or Snow/Light Rain Showers,21.0,17.0,29.82,1010.8,,,,95,80,,,,,,,,,,8/8 Overcast,3600.0,,BKN,3700,OVC,6900.0,,,,
KRDR,09-23-2008,05:10,SPECI,,150,9,,,9999.0,,20.0,17.0,29.82,1011.0,,,,,,,,,,,,,,,8/8 Overcast,3600.0,,BKN,3700,OVC,6900.0,,,,
KRDR,09-23-2008,05:00,METAR,,150,10,,,9999.0,,20.0,17.0,29.84,1011.5,,,,,,,,,,,TRACE,,,,7/8 Mostly Cloudy,3700.0,,BKN,3800,,,,,,
KRDR,09-23-2008,04:21,SPECI,,150,11,,,9999.0,Rain,21.0,17.0,29.85,1012.0,,,,61,,,,,,,,,,,8/8 Overcast,4100.0,,FEW,2300,BKN,4200.0,OVC,5400.0,,
KRDR,09-23-2008,04:00,METAR,,150,10,,,9999.0,,22.0,17.0,29.84,1011.7,,,,,,,,,,,,,,,8/8 Overcast,4200.0,,BKN,4300,OVC,6900.0,,,,
KRDR,09-23-2008,03:00,METAR,,140,10,,,9999.0,,22.0,17.0,29.87,1012.7,,,,,,,,,,,,,,,8/8 Overcast,4800.0,,BKN,4900,OVC,6900.0,,,,
KRDR,09-23-2008,02:00,METAR,,140,7,,,9999.0,,22.0,18.0,29.87,1012.5,,,,,,,,,,,,,,,8/8 Overcast,6000.0,,OVC,5900,,,,,,
KRDR,09-23-2008,01:00,METAR,,150,6,,,9999.0,,22.0,19.0,29.88,1012.9,,,,,,,,,,,,,,,8/8 Overcast,3800.0,,BKN,3900,OVC,6900.0,,,,
KRDR,09-23-2008,00:00,METAR,,150,6,,,9999.0,,23.0,19.0,29.88,1012.8,,,,,,,,,,,,,,,8/8 Overcast,3900.0,,BKN,4000,OVC,6900.0,,,,
KRDR,09-22-2008,23:00,METAR,,160,7,,,9999.0,,24.0,19.0,29.88,1013.0,,,,,,,,,,,,,,,8/8 Overcast,4200.0,,BKN,4300,OVC,5400.0,,,,
KRDR,09-22-2008,22:00,METAR,,170,10,,,9999.0,,24.0,18.0,29.88,1013.0,,,,,,,,,,,,,,,8/8 Overcast,3500.0,,OVC,3600,,,,,,
KRDR,09-22-2008,21:00,METAR,,170,12,,,9999.0,,24.0,18.0,29.87,1012.7,,,,,,,,,,,,,,,8/8 Overcast,3500.0,,SCT,3000,OVC,3600.0,,,,
KRDR,09-22-2008,20:00,METAR,,170,16,,,9999.0,,23.0,18.0,29.87,1012.7,,,,,,,,,,,,,,,8/8 Overcast,2700.0,,SCT,2900,OVC,3100.0,,,,
KRDR,09-22-2008,19:30,SPECI,,170,16,,,9999.0,,23.0,17.0,29.87,1012.5,,,,,,,,,,,,,,,7/8 Mostly Cloudy,2800.0,,BKN,3000,,,,,,
KRDR,09-22-2008,19:00,METAR,,170,13,,,9999.0,,23.0,17.0,29.87,1012.5,,,,,,,,,,,,,,,7/8 Mostly Cloudy,2900.0,,BKN,2900,,,,,,
KRDR,09-22-2008,18:55,METAR,,170,13,,,9999.0,,23.0,17.0,29.87,1012.5,,,,,,,,,,,,,,,7/8 Mostly Cloudy,3000.0,,BKN,3000,,,,,,
KRDR,09-22-2008,18:00,METAR,,180,18,,180/30KTS,9999.0,,22.0,17.0,29.88,1012.8,,,,,,,,,,,,,,,8/8 Overcast,3000.0,,OVC,3000,,,,,,
KRDR,09-22-2008,17:15,SPECI,,190,17,27.0,,9999.0,,22.0,17.0,29.88,,,,,,,,,,,,,,,,8/8 Overcast,3100.0,,OVC,3100,,,,,,
KRDR,09-22-2008,17:00,METAR,,180,21,29.0,190/30KTS,9999.0,,22.0,16.0,29.88,1012.8,,,,,,,,,,,,,,,7/8 Mostly Cloudy,2900.0,,BKN,2900,,,,,,
KRDR,09-22-2008,16:04,SPECI,,190,21,27.0,,9999.0,,22.0,16.0,29.88,,,,,,,,,,,,,,,,8/8 Overcast,2600.0,,OVC,2600,,,,,,
KRDR,09-22-2008,16:00,METAR,,190,20,30.0,190/30KTS,9999.0,,22.0,16.0,29.88,1013.0,,,,,,,,,,,,,,,8/8 Overcast,3900.0,,SCT,2600,OVC,4000.0,,,,
KRDR,09-22-2008,15:00,METAR,,160,20,24.0,,9999.0,,20.0,16.0,29.88,1012.8,,,,,,,,,,,,,,,4/8 Partly Cloudy,72000.0,,SCT,4000,,,,,,
KRDR,09-22-2008,14:00,METAR,,160,12,,,9999.0,,18.0,16.0,29.87,1012.7,,,,,,,,,,,,,,,7/8 Mostly Cloudy,3300.0,,BKN,3400,,,,,,
KRDR,09-22-2008,13:00,METAR,,150,13,20.0,,9999.0,,18.0,15.0,29.88,1012.9,,,,,,,,,,,,,,,8/8 Overcast,3300.0,,OVC,3400,,,,,,
KRDR,09-22-2008,12:00,METAR,,150,17,23.0,160/30KTS,9999.0,,18.0,15.0,29.89,1013.3,,,,,,,,,,,,,.5 IN,.58 IN,7/8 Mostly Cloudy,3700.0,,BKN,3800,,,,,,
KRDR,09-22-2008,11:00,METAR,,160,19,22.0,,9999.0,,18.0,15.0,29.90,1013.4,,,,,,,,,,,,,,,8/8 Overcast,3200.0,,OVC,3300,,,,,,
KRDR,09-22-2008,10:00,METAR,,200,8,,,9999.0,,17.0,15.0,29.90,1013.4,,,,,,,,,,,TRACE,,,,8/8 Overcast,4000.0,,OVC,4100,,,,,,
KRDR,09-22-2008,09:15,SPECI,,180,12,,,9999.0,,17.0,15.0,29.89,1013.1,,,,,,,,,,,,,,,8/8 Overcast,4800.0,,OVC,4900,,,,,,
KRDR,09-22-2008,09:01,SPECI,,190,11,,,9999.0,Light Rain,17.0,15.0,29.89,1013.2,61,,,,,,,,,,,,,,8/8 Overcast,4900.0,,OVC,5000,,,,,,
KRDR,09-22-2008,09:00,METAR,,180,10,,,9999.0,,17.0,15.0,29.89,1013.3,,,,,,,,,,,,.5 IN,,,8/8 Overcast,4900.0,,OVC,5000,,,,,,
KRDR,09-22-2008,08:00,METAR,,130,10,,,9999.0,,17.0,15.0,29.90,1013.7,,,,,,,,,,,.06 IN,,,,7/8 Mostly Cloudy,4600.0,,BKN,4700,,,,,,
KRDR,09-22-2008,07:15,SPECI,,,6,,,9999.0,,17.0,16.0,29.92,1014.2,,,,,,,,,,,,,,,8/8 Overcast,6000.0,,SCT,2000,SCT,3200.0,OVC,5900.0,,
KRDR,09-22-2008,07:09,SPECI,,110,8,19.0,,9999.0,Light Rain,17.0,16.0,29.91,1013.9,61,,,,,,,,,,,,,,8/8 Overcast,6000.0,,SCT,2200,OVC,5900.0,,,,
KRDR,09-22-2008,07:01,SPECI,,120,14,,,6400.0,Light Rain/Mist,17.0,16.0,29.90,1013.6,61,10,,,,,,,,,,,,,8/8 Overcast,2500.0,,BKN,2500,OVC,5900.0,,,,
KRDR,09-22-2008,07:00,METAR,,130,15,,,3200.0,Heavy Rain/Mist,17.0,16.0,29.91,1013.9,63,10,,,,,,,,,.44 IN,,,,8/8 Overcast,2800.0,,OVC,2800,,,,,,
KRDR,09-22-2008,06:49,SPECI,,140,18,,,4000.0,Heavy Rain/Mist,17.0,16.0,29.92,1014.2,63,10,,,,,,,,,,,,,8/8 Overcast,3100.0,,OVC,3100,,,,,,
KRDR,09-22-2008,06:45,SPECI,,150,14,,,6400.0,Heavy Rain/Mist,17.0,16.0,29.93,1014.5,63,10,,,,,,,,,,,,,8/8 Overcast,3100.0,,OVC,3100,,,,,,
KRDR,09-22-2008,06:28,SPECI,,160,12,,,9999.0,Light Rain/Mist,17.0,16.0,29.94,1014.9,61,10,,,,,,,,,,,,,7/8 Mostly Cloudy,3000.0,,BKN,3000,,,,,,
KRDR,09-22-2008,06:20,SPECI,,160,12,,,8000.0,Rain/Mist,17.0,16.0,29.95,1015.1,62,10,,,,,,,,,,,,,7/8 Mostly Cloudy,1800.0,,BKN,1800,,,,,,
KRDR,09-22-2008,06:11,SPECI,,170,8,,,8000.0,Rain/Mist,17.0,16.0,29.95,1015.1,62,10,,,,,,,,,,,,,2/8 Mostly Clear,72000.0,,FEW,900,,,,,,
KRDR,09-22-2008,06:00,METAR,,180,8,,,9999.0,Mist,17.0,16.0,29.96,1015.5,,10,,,,,,,,,.08 IN,,.08 IN,,Clear,72000.0,,,73000,,,,,,
KRDR,09-22-2008,05:44,SPECI,,190,9,,,9999.0,,17.0,16.0,29.96,1015.6,,,,,,,,,,,,,,,Clear,72000.0,,,73000,,,,,,
KRDR,09-22-2008,05:18,SPECI,,180,9,,,9999.0,Light Rain,18.0,16.0,29.96,1015.4,61,,,,,,,,,,,,,,2/8 Mostly Clear,72000.0,,FEW,8900,,,,,,
KRDR,09-22-2008,05:01,SPECI,,200,12,19.0,,9999.0,Rain,19.0,16.0,29.96,1015.5,62,,,,,,,,,,,,,,4/8 Partly Cloudy,72000.0,,FEW,5000,SCT,8900.0,,,,
KRDR,09-22-2008,05:00,METAR,,190,12,20.0,,9999.0,Unknown Precipitation,19.0,15.0,29.96,1015.5,40,,,,,,,,,,TRACE,,,,7/8 Mostly Cloudy,9000.0,,FEW,5400,BKN,8900.0,,,,
KRDR,09-22-2008,04:46,SPECI,,180,17,20.0,,9999.0,,19.0,14.0,29.96,1015.4,,,,,,,,,,,,,,,4/8 Partly Cloudy,72000.0,,SCT,7400,,,,,,
KRDR,09-22-2008,04:29,SPECI,,170,8,,,9999.0,,19.0,14.0,29.95,1015.1,,,,,,,,,,,,,,,2/8 Mostly Clear,72000.0,,FEW,6900,,,,,,
KRDR,09-22-2008,04:00,METAR,,170,8,,,9999.0,,20.0,14.0,29.93,1014.7,,,,,,,,,,,,,,,Clear,72000.0,,,73000,,,,,,
KRDR,09-22-2008,03:00,METAR,,150,13,,,9999.0,,20.0,14.0,29.94,1014.8,,,,,,,,,,,,TRACE,,,Clear,72000.0,,,73000,,,,,,
KRDR,09-22-2008,02:00,METAR,,140,8,,,9999.0,,20.0,13.0,29.95,1015.1,,,,,,,,,,,,,,,2/8 Mostly Clear,72000.0,,FEW,6900,,,,,,
KRDR,09-22-2008,01:00,METAR,,150,9,,,9999.0,,22.0,13.0,29.94,1015.0,,,,,,,,,,,TRACE,,,,Clear,72000.0,,,73000,,,,,,
KRDR,09-22-2008,00:32,SPECI,,150,8,,,9999.0,,22.0,13.0,29.94,1014.9,,,,,,,,,,,,,,,Clear,72000.0,,,73000,,,,,,
KRDR,09-22-2008,00:22,SPECI,,150,9,,,9999.0,,23.0,13.0,29.94,1014.9,,,,,,,,,,,,,,,Clear,72000.0,,,73000,,,,,,
KRDR,09-22-2008,00:00,METAR,,160,10,,,9999.0,,24.0,12.0,29.94,1014.9,,,,,,,,,,,,,,,Clear,72000.0,,,73000,,,,,,
KRDR,09-21-2008,23:00,METAR,,170,12,24.0,170/27KTS,9999.0,,25.0,12.0,29.94,1014.8,,,,,,,,,,,,,,,Clear,72000.0,,,73000,,,,,,
KRDR,09-21-2008,22:00,METAR,,170,16,24.0,170/26KTS,9999.0,,26.0,13.0,29.95,1015.0,,,,,,,,,,,,,,,Clear,72000.0,,,73000,,,,,,
KRDR,09-21-2008,21:00,METAR,,170,22,27.0,170/27KTS,9999.0,,26.0,13.0,29.95,1015.3,,,,,,,,,,,,,,,Clear,72000.0,,,73000,,,,,,
KRDR,09-21-2008,20:00,METAR,,170,20,25.0,,9999.0,,26.0,14.0,29.97,1015.8,,,,,,,,,,,,,,,Clear,72000.0,,,73000,,,,,,
KRDR,09-21-2008,19:00,METAR,,170,15,21.0,,9999.0,,25.0,15.0,29.99,1016.6,,,,,,,,,,,,,,,Clear,72000.0,,,73000,,,,,,
KRDR,09-21-2008,18:00,METAR,,170,13,,,9999.0,,23.0,15.0,30.02,1017.5,,,,,,,,,,,,,,,Clear,72000.0,,,73000,,,,,,
KRDR,09-21-2008,17:00,METAR,,160,9,,,9999.0,,21.0,14.0,30.04,1018.3,,,,,,,,,,,,,,,Clear,72000.0,,,73000,,,,,,
KRDR,09-21-2008,16:00,METAR,,170,12,,,9999.0,,18.0,13.0,30.06,1018.7,,,,,,,,,,,,,,,Clear,72000.0,,,73000,,,,,,
KRDR,09-21-2008,15:00,METAR,,160,10,,,9999.0,,15.0,12.0,30.07,1019.1,,,,,,,,,,,,,,,Clear,72000.0,,,73000,,,,,,
KRDR,09-21-2008,14:00,METAR,,150,8,,,9999.0,,11.0,10.0,30.07,1019.2,,,,,,,,,,,,,,,Clear,72000.0,,,73000,,,,,,
KRDR,09-21-2008,13:00,METAR,,140,7,,,9999.0,,10.0,9.0,30.08,1019.3,,,,,,,,,,,,,,,Clear,72000.0,,,73000,,,,,,
KRDR,09-21-2008,12:00,METAR,,140,6,,,9999.0,,10.0,9.0,30.08,1019.4,,,,,,,,,,,,,,,Clear,72000.0,,,73000,,,,,,
KRDR,09-21-2008,11:00,METAR,,130,4,,,9999.0,,9.0,8.0,30.08,1019.4,,,,,,,,,,,,,,,Clear,72000.0,,,73000,,,,,,
KRDR,09-21-2008,10:00,METAR,,,0,,,9999.0,,9.0,8.0,30.08,1019.6,,,,,,,,,,,,,,,Clear,72000.0,,,73000,,,,,,
KRDR,09-21-2008,09:00,METAR,,130,3,,,9999.0,,10.0,7.0,30.09,1019.7,,,,,,,,,,,,,,,Clear,72000.0,,,73000,,,,,,
KRDR,09-21-2008,08:00,METAR,,140,3,,,9999.0,,6.0,5.0,30.10,1020.0,,,,,,,,,,,,,,,Clear,72000.0,,,73000,,,,,,
KRDR,09-21-2008,07:00,METAR,,,0,,,9999.0,,6.0,5.0,30.11,1020.5,,,,,,,,,,,,,,,Clear,72000.0,,,73000,,,,,,
KRDR,09-21-2008,06:00,METAR,,,0,,,9999.0,,6.0,4.0,30.12,1020.9,,,,,,,,,,,,,,,Clear,72000.0,,,73000,,,,,,
KRDR,09-21-2008,05:00,METAR,,70,4,,,9999.0,,7.0,5.0,30.14,1021.3,,,,,,,,,,,,,,,Clear,72000.0,,,73000,,,,,,
KRDR,09-21-2008,04:00,METAR,,80,3,,,9999.0,,11.0,7.0,30.14,1021.5,,,,,,,,,,,,,,,Clear,72000.0,,,73000,,,,,,
KRDR,09-21-2008,03:00,METAR,,100,6,,,9999.0,,12.0,7.0,30.14,1021.5,,,,,,,,,,,,,,,Clear,72000.0,,,73000,,,,,,
KRDR,09-21-2008,02:00,METAR,,100,7,,,9999.0,,13.0,6.0,30.14,1021.6,,,,,,,,,,,,,,,Clear,72000.0,,,73000,,,,,,
KRDR,09-21-2008,01:00,METAR,,80,7,,,9999.0,,14.0,5.0,30.15,1021.7,,,,,,,,,,,,,,,Clear,72000.0,,,73000,,,,,,
KRDR,09-21-2008,00:00,METAR,,90,9,,,9999.0,,16.0,5.0,30.15,1021.9,,,,,,,,,,,,,,,Clear,72000.0,,,73000,,,,,,
KRDR,09-20-2008,23:00,METAR,,80,10,,,9999.0,,17.0,7.0,30.15,1021.9,,,,,,,,,,,,,,,Clear,72000.0,,,73000,,,,,,
KRDR,09-20-2008,22:00,METAR,,90,8,,,9999.0,,18.0,6.0,30.16,1022.2,,,,,,,,,,,,,,,Clear,72000.0,,,73000,,,,,,
KRDR,09-20-2008,21:00,METAR,,100,8,,,9999.0,,18.0,5.0,30.18,1022.9,,,,,,,,,,,,,,,Clear,72000.0,,,73000,,,,,,
KRDR,09-20-2008,20:00,METAR,,90,8,,,9999.0,,17.0,6.0,30.20,1023.3,,,,,,,,,,,,,,,Clear,72000.0,,,73000,,,,,,
KRDR,09-20-2008,19:00,METAR,,90,8,,,9999.0,,16.0,6.0,30.21,1023.9,,,,,,,,,,,,,,,Clear,72000.0,,,73000,,,,,,
KRDR,09-20-2008,18:00,METAR,,80,8,,,9999.0,,14.0,7.0,30.23,1024.5,,,,,,,,,,,,,,,Clear,72000.0,,,73000,,,,,,
KRDR,09-20-2008,17:00,METAR,,90,8,,,9999.0,,14.0,7.0,30.25,1025.1,,,,,,,,,,,,,,,Clear,72000.0,,,73000,,,,,,
KRDR,09-20-2008,16:00,METAR,,60,7,,,9999.0,,12.0,6.0,30.27,1025.9,,,,,,,,,,,,,,,Clear,72000.0,,,73000,,,,,,
KRDR,09-20-2008,15:00,METAR,,90,11,,,9999.0,,10.0,5.0,30.23,1024.3,,,,,,,,,,,,,,,Clear,72000.0,,,73000,,,,,,
KRDR,09-20-2008,14:00,METAR,,10,8,,,9999.0,,7.0,4.0,30.27,1025.7,,,,,,,,,,,,,,,Clear,72000.0,,,73000,,,,,,
KRDR,09-20-2008,13:00,METAR,,360,6,,,9999.0,,6.0,4.0,30.25,1025.1,,,,,,,,,,,,,,,Clear,72000.0,,,73000,,,,,,
KRDR,09-20-2008,12:00,METAR,,20,7,,,9999.0,,5.0,3.0,30.23,1024.6,,,,,,,,,,,,,,,Clear,72000.0,,,73000,,,,,,
KRDR,09-20-2008,11:00,METAR,,10,8,,,9999.0,,7.0,4.0,30.23,1024.5,,,,,,,,,,,,,,,Clear,72000.0,,,73000,,,,,,
KRDR,09-20-2008,10:00,METAR,,10,7,,,9999.0,,8.0,4.0,30.22,1023.9,,,,,,,,,,,,,,,Clear,72000.0,,,73000,,,,,,
KRDR,09-20-2008,09:00,METAR,,20,9,,,9999.0,,8.0,4.0,30.19,1023.0,,,,,,,,,,,,,,,Clear,72000.0,,,73000,,,,,,
KRDR,09-20-2008,08:00,METAR,,20,11,,,9999.0,,9.0,5.0,30.18,1022.7,,,,,,,,,,,,,,,Clear,72000.0,,,73000,,,,,,
KRDR,09-20-2008,07:00,METAR,,20,12,,,9999.0,,10.0,6.0,30.16,1022.3,,,,,,,,,,,,,,,Clear,72000.0,,,73000,,,,,,
KRDR,09-20-2008,06:00,METAR,,20,13,,,9999.0,,11.0,8.0,30.14,1021.6,,,,,,,,,,,,,,,Clear,72000.0,,,73000,,,,,,
KRDR,09-20-2008,05:00,METAR,,20,11,,,9999.0,,12.0,7.0,30.12,1021.0,,,,,,,,,,,,,,,Clear,72000.0,,,73000,,,,,,
KRDR,09-20-2008,04:00,METAR,,10,6,,,9999.0,,11.0,6.0,30.11,1020.4,,,,,,,,,,,,,,,7/8 Mostly Cloudy,20000.0,,SCT,12000,BKN,20000.0,,,,
KRDR,09-20-2008,03:00,METAR,,30,7,,,9999.0,,14.0,7.0,30.08,1019.5,,,,,,,,,,,,,,,4/8 Partly Cloudy,72000.0,,SCT,12000,,,,,,
KRDR,09-20-2008,02:00,METAR,,30,9,,,9999.0,,16.0,6.0,30.05,1018.5,,,,,,,,,,,,,,,4/8 Partly Cloudy,72000.0,,SCT,15000,,,,,,
KRDR,09-20-2008,01:00,METAR,,20,9,,,9999.0,,18.0,7.0,30.02,1017.6,,,,,,,,,,,,,,,4/8 Partly Cloudy,72000.0,,SCT,22000,,,,,,
KRDR,09-20-2008,00:00,METAR,,20,9,,,9999.0,,21.0,9.0,30.00,1016.9,,,,,,,,,,,,,,,4/8 Partly Cloudy,72000.0,,SCT,25000,,,,,,
KRDR,09-19-2008,23:00,METAR,,20,11,,,9999.0,,23.0,10.0,29.98,1016.1,,,,,,,,,,,,,,,Clear,72000.0,,,73000,,,,,,
KRDR,09-19-2008,22:00,METAR,,30,13,,,9999.0,,25.0,10.0,29.96,1015.4,,,,,,,,,,,,,,,Clear,72000.0,,,73000,,,,,,
KRDR,09-19-2008,21:00,METAR,,20,10,,,9999.0,,25.0,12.0,29.94,1014.9,,,,,,,,,,,,,,,Clear,72000.0,,,73000,,,,,,
KRDR,09-19-2008,20:00,METAR,,340,7,,,9999.0,,26.0,11.0,29.93,1014.5,,,,,,,,,,,,,,,Clear,72000.0,,,73000,,,,,,
KRDR,09-19-2008,19:00,METAR,,350,8,,,9999.0,,25.0,11.0,29.92,1014.2,,,,,,,,,,,,,,,Clear,72000.0,,,73000,,,,,,
KRDR,09-19-2008,18:00,METAR,,340,9,,,9999.0,,25.0,11.0,29.92,1014.2,,,,,,,,,,,,,,,Clear,72000.0,,,73000,,,,,,
KRDR,09-19-2008,17:00,METAR,,340,6,,,9999.0,,25.0,11.0,29.90,1013.6,,,,,,,,,,,,,,,Clear,72000.0,,,73000,,,,,,
KRDR,09-19-2008,16:00,METAR,,310,8,,,9999.0,,23.0,12.0,29.90,1013.6,,,,,,,,,,,,,,,Clear,72000.0,,,73000,,,,,,
KRDR,09-19-2008,15:00,METAR,,270,5,,,9999.0,,20.0,13.0,29.89,1013.2,,,,,,,,,,,,,,,Clear,72000.0,,,73000,,,,,,
KRDR,09-19-2008,14:00,METAR,,270,5,,,9999.0,,16.0,13.0,29.87,1012.4,,,,,,,,,,,,,,,2/8 Mostly Clear,72000.0,,FEW,25000,,,,,,
KRDR,09-19-2008,13:00,METAR,,180,6,,,9999.0,,11.0,10.0,29.86,1012.1,,,,,,,,,,,,,,,2/8 Mostly Clear,72000.0,,FEW,25000,,,,,,
KRDR,09-19-2008,12:00,METAR,,200,3,,,9999.0,,13.0,11.0,29.84,1011.5,,,,,,,,,,,,,,,2/8 Mostly Clear,72000.0,,FEW,25000,,,,,,
KRDR,09-19-2008,11:00,METAR,,290,4,,,9999.0,,9.0,9.0,29.82,1011.0,,,,,,,,,,,,,,,Clear,72000.0,,,73000,,,,,,
KRDR,09-19-2008,10:00,METAR,,,0,,,9999.0,,12.0,12.0,29.81,1010.7,,,,,,,,,,,,,,,Clear,72000.0,,,73000,,,,,,
KRDR,09-19-2008,09:00,METAR,,340,4,,,9999.0,,15.0,13.0,29.81,1010.7,,,,,,,,,,,,,,,Clear,72000.0,,,73000,,,,,,
KRDR,09-19-2008,08:00,METAR,,270,7,,,9999.0,,16.0,14.0,29.81,1010.5,,,,,,,,,,,,,,,Clear,72000.0,,,73000,,,,,,
KRDR,09-19-2008,07:00,METAR,,230,8,,,9999.0,,17.0,15.0,29.81,1010.5,,,,,,,,,,,,,,,Clear,72000.0,,,73000,,,,,,
KRDR,09-19-2008,06:00,METAR,,220,8,,,9999.0,,17.0,15.0,29.81,1010.6,,,,,,,,,,,,,,,4/8 Partly Cloudy,72000.0,,SCT,22000,,,,,,
KRDR,09-19-2008,05:00,METAR,,210,8,,,9999.0,,18.0,14.0,29.81,1010.4,,,,,,,,,,,,,,,2/8 Mostly Clear,72000.0,,FEW,20000,,,,,,
KRDR,09-19-2008,04:00,METAR,,190,6,,,9999.0,,18.0,14.0,29.80,1010.2,,,,,,,,,,,,,,,2/8 Mostly Clear,72000.0,,FEW,20000,,,,,,
KRDR,09-19-2008,03:00,METAR,,190,7,,,9999.0,,20.0,15.0,29.80,1010.2,,,,,,,,,,,,,,,2/8 Mostly Clear,72000.0,,FEW,20000,,,,,,
KRDR,09-19-2008,02:00,METAR,,180,9,,,9999.0,,22.0,15.0,29.80,1010.3,,,,,,,,,,,,,,,Clear,72000.0,,,73000,,,,,,
KRDR,09-19-2008,01:00,METAR,,190,9,,,9999.0,,24.0,14.0,29.81,1010.4,,,,,,,,,,,,,,,2/8 Mostly Clear,72000.0,,FEW,12000,,,,,,
KRDR,09-19-2008,00:00,METAR,,200,14,,,9999.0,,27.0,14.0,29.81,1010.6,,,,,,,,,,,,,,,2/8 Mostly Clear,72000.0,,FEW,12000,,,,,,
KRDR,09-18-2008,23:00,METAR,,200,19,,190/26KTS,9999.0,,28.0,14.0,29.82,1010.9,,,,,,,,,,,,,,,4/8 Partly Cloudy,72000.0,,SCT,12000,,,,,,
KRDR,09-18-2008,22:00,METAR,,190,22,26.0,180/32KTS,9999.0,,28.0,14.0,29.83,1011.1,,,,,,,,,,,,,,,2/8 Mostly Clear,72000.0,,FEW,12000,,,,,,
KRDR,09-18-2008,21:00,METAR,,190,23,30.0,190/31KTS,9999.0,,28.0,13.0,29.84,1011.4,,,,,,,,,,,,,,,Clear,72000.0,,,73000,,,,,,
KRDR,09-18-2008,20:00,METAR,,190,23,,200/29KTS,9999.0,,28.0,13.0,29.86,1012.4,,,,,,,,,,,,,,,Clear,72000.0,,,73000,,,,,,
KRDR,09-18-2008,19:00,METAR,,180,17,25.0,,9999.0,,26.0,14.0,29.90,1013.5,,,,,,,,,,,,,,,Clear,72000.0,,,73000,,,,,,
KRDR,09-18-2008,18:00,METAR,,180,17,,,9999.0,,25.0,14.0,29.92,1014.4,,,,,,,,,,,,,,,4/8 Partly Cloudy,72000.0,,FEW,11000,SCT,25000.0,,,,
KRDR,09-18-2008,17:00,METAR,,170,16,,,9999.0,,21.0,13.0,29.94,1015.2,,,,,,,,,,,,,,,7/8 Mostly Cloudy,25000.0,,SCT,11000,BKN,25000.0,,,,
KRDR,09-18-2008,16:00,METAR,,170,14,,,9999.0,,20.0,13.0,29.96,1015.7,,,,,,,,,,,,,,,7/8 Mostly Cloudy,11000.0,,SCT,7900,BKN,11000.0,BKN,25000.0,,
KRDR,09-18-2008,15:00,METAR,,180,16,,,9999.0,,17.0,12.0,29.97,1016.2,,,,,,,,,,,,,,,7/8 Mostly Cloudy,25000.0,,SCT,5900,SCT,11000.0,BKN,25000.0,,
KRDR,09-18-2008,14:00,METAR,,170,14,,,9999.0,,15.0,11.0,29.97,1016.2,,,,,,,,,,,,,,,7/8 Mostly Cloudy,25000.0,,FEW,5900,SCT,11000.0,BKN,25000.0,,
KRDR,09-18-2008,13:00,METAR,,170,14,,,9999.0,,13.0,11.0,29.98,1016.6,,,,,,,,,,,,,,,7/8 Mostly Cloudy,25000.0,,FEW,5900,SCT,13000.0,BKN,25000.0,,
KRDR,09-18-2008,12:00,METAR,,160,10,,,9999.0,,12.0,10.0,30.01,1017.2,,,,,,,,,,,,,,,4/8 Partly Cloudy,72000.0,,FEW,5900,FEW,13000.0,SCT,25000.0,,
KRDR,09-18-2008,11:00,METAR,,150,8,,,9999.0,,11.0,10.0,30.03,1018.0,,,,,,,,,,,,,,,2/8 Mostly Clear,72000.0,,FEW,14000,,,,,,
KRDR,09-18-2008,10:00,METAR,,140,8,,,9999.0,,12.0,10.0,30.06,1018.7,,,,,,,,,,,,,,,4/8 Partly Cloudy,72000.0,,SCT,14000,,,,,,
KRDR,09-18-2008,09:00,METAR,,140,7,,,9999.0,,12.0,10.0,30.09,1019.7,,,,,,,,,,,,,,,Clear,72000.0,,,73000,,,,,,
KRDR,09-18-2008,08:00,METAR,,150,6,,,9999.0,,12.0,10.0,30.11,1020.5,,,,,,,,,,,,,,,Clear,72000.0,,,73000,,,,,,
KRDR,09-18-2008,07:00,METAR,,130,6,,,9999.0,,13.0,10.0,30.13,1021.2,,,,,,,,,,,,,,,Clear,72000.0,,,73000,,,,,,
KRDR,09-18-2008,06:00,METAR,,130,6,,,9999.0,,13.0,10.0,30.14,1021.6,,,,,,,,,,,,,,,Clear,72000.0,,,73000,,,,,,
KRDR,09-18-2008,05:00,METAR,,120,5,,,9999.0,,13.0,10.0,30.16,1022.0,,,,,,,,,,,,,,,Clear,72000.0,,,73000,,,,,,
KRDR,09-18-2008,04:00,METAR,,110,7,,,9999.0,,15.0,11.0,30.17,1022.5,,,,,,,,,,,,,,,Clear,72000.0,,,73000,,,,,,
KRDR,09-18-2008,03:00,METAR,,120,8,,,9999.0,,16.0,11.0,30.16,1022.2,,,,,,,,,,,,,,,Clear,72000.0,,,73000,,,,,,
KRDR,09-18-2008,02:00,METAR,,110,8,,,9999.0,,16.0,11.0,30.17,1022.5,,,,,,,,,,,,,,,Clear,72000.0,,,73000,,,,,,
KRDR,09-18-2008,01:00,METAR,,110,9,,,9999.0,,18.0,11.0,30.17,1022.3,,,,,,,,,,,,,,,7/8 Mostly Cloudy,25000.0,,SCT,15000,BKN,25000.0,,,,
KRDR,09-18-2008,00:00,METAR,,110,7,,,9999.0,,21.0,11.0,30.17,1022.5,,,,,,,,,,,,,,,7/8 Mostly Cloudy,25000.0,,SCT,12000,BKN,25000.0,,,,
KRDR,09-17-2008,23:00,METAR,,130,8,,,9999.0,,22.0,10.0,30.17,1022.5,,,,,,,,,,,,,,,4/8 Partly Cloudy,72000.0,,SCT,12000,SCT,25000.0,,,,
KRDR,09-17-2008,22:00,METAR,,120,7,,,9999.0,,22.0,9.0,30.18,1022.8,,,,,,,,,,,,,,,4/8 Partly Cloudy,72000.0,,SCT,7900,SCT,25000.0,,,,
KRDR,09-17-2008,21:00,METAR,,140,7,,,9999.0,,22.0,9.0,30.19,1023.2,,,,,,,,,,,,,,,4/8 Partly Cloudy,72000.0,,FEW,7900,SCT,25000.0,,,,
KRDR,09-17-2008,20:00,METAR,,150,5,,,9999.0,,22.0,9.0,30.20,1023.5,,,,,,,,,,,,,,,4/8 Partly Cloudy,72000.0,,FEW,7900,SCT,25000.0,,,,
KRDR,09-17-2008,19:00,METAR,,150,7,,,9999.0,,21.0,9.0,30.22,1024.1,,,,,,,,,,,,,,,4/8 Partly Cloudy,72000.0,,FEW,7900,SCT,12000.0,SCT,25000.0,,
KRDR,09-17-2008,18:00,METAR,,110,6,,,9999.0,,20.0,9.0,30.24,1024.8,,,,,,,,,,,,,,,4/8 Partly Cloudy,72000.0,,FEW,8900,SCT,25000.0,,,,
KRDR,09-17-2008,17:00,METAR,,100,5,,,9999.0,,19.0,10.0,30.25,1024.9,,,,,,,,,,,,,,,4/8 Partly Cloudy,72000.0,,FEW,8900,SCT,25000.0,,,,
KRDR,09-17-2008,16:00,METAR,,120,4,,,9999.0,,16.0,10.0,30.24,1024.8,,,,,,,,,,,,,,,4/8 Partly Cloudy,72000.0,,FEW,8900,SCT,25000.0,,,,
KRDR,09-17-2008,15:00,METAR,,100,3,,,9999.0,,13.0,9.0,30.24,1024.7,,,,,,,,,,,,,,,4/8 Partly Cloudy,72000.0,,FEW,8900,SCT,25000.0,,,,
KRDR,09-17-2008,14:00,METAR,,,0,,,9999.0,,10.0,8.0,30.24,1024.6,,,,,,,,,,,,,,,4/8 Partly Cloudy,72000.0,,FEW,8900,SCT,25000.0,,,,
KRDR,09-17-2008,13:00,METAR,,,0,,,9999.0,,6.0,5.0,30.23,1024.3,,,,,,,,,,,,,,,2/8 Mostly Clear,72000.0,,FEW,8900,FEW,25000.0,,,,
KRDR,09-17-2008,12:00,METAR,,40,4,,,9999.0,,5.0,4.0,30.21,1023.7,,,,,,,,,,,,,,,2/8 Mostly Clear,72000.0,,FEW,8900,,,,,,
KRDR,09-17-2008,11:00,METAR,,,0,,,9999.0,,6.0,5.0,30.19,1022.9,,,,,,,,,,,,,,,Clear,72000.0,,,73000,,,,,,
KRDR,09-17-2008,10:00,METAR,,,0,,,9999.0,,7.0,5.0,30.17,1022.3,,,,,,,,,,,,,,,Clear,72000.0,,,73000,,,,,,
KRDR,09-17-2008,09:00,METAR,,,0,,,9999.0,,6.0,5.0,30.17,1022.3,,,,,,,,,,,,,,,Clear,72000.0,,,73000,,,,,,
KRDR,09-17-2008,08:00,METAR,,230,3,,,9999.0,,7.0,6.0,30.17,1022.3,,,,,,,,,,,,,,,Clear,72000.0,,,73000,,,,,,
KRDR,09-17-2008,07:00,METAR,,,0,,,9999.0,,7.0,6.0,30.17,1022.3,,,,,,,,,,,,,,,Clear,72000.0,,,73000,,,,,,
KRDR,09-17-2008,06:00,METAR,,300,3,,,9999.0,,8.0,6.0,30.17,1022.3,,,,,,,,,,,,,,,Clear,72000.0,,,73000,,,,,,
KRDR,09-17-2008,05:00,METAR,,,0,,,9999.0,,8.0,7.0,30.16,1022.1,,,,,,,,,,,,,,,Clear,72000.0,,,73000,,,,,,
KRDR,09-17-2008,04:00,METAR,,320,3,,,9999.0,,9.0,7.0,30.15,1021.6,,,,,,,,,,,,,,,Clear,72000.0,,,73000,,,,,,
KRDR,09-17-2008,03:00,METAR,,,0,,,9999.0,,10.0,8.0,30.13,1021.0,,,,,,,,,,,,,,,Clear,72000.0,,,73000,,,,,,
KRDR,09-17-2008,02:00,METAR,,,0,,,9999.0,,14.0,8.0,30.10,1020.3,,,,,,,,,,,,,,,Clear,72000.0,,,73000,,,,,,
KRDR,09-17-2008,01:00,METAR,,30,4,,,9999.0,,16.0,9.0,30.08,1019.4,,,,,,,,,,,,,,,Clear,72000.0,,,73000,,,,,,
KRDR,09-17-2008,00:00,METAR,,40,8,,,9999.0,,21.0,9.0,30.06,1018.7,,,,,,,,,,,,,,,2/8 Mostly Clear,72000.0,,FEW,25000,,,,,,
KRDR,09-16-2008,23:00,METAR,,10,9,,,9999.0,,23.0,8.0,30.05,1018.3,,,,,,,,,,,,,,,Clear,72000.0,,,73000,,,,,,
KRDR,09-16-2008,22:00,METAR,,10,9,,,9999.0,,24.0,8.0,30.04,1018.1,,,,,,,,,,,,,,,Clear,72000.0,,,73000,,,,,,
KRDR,09-16-2008,21:00,METAR,,10,9,,,9999.0,,24.0,8.0,30.03,1017.8,,,,,,,,,,,,,,,Clear,72000.0,,,73000,,,,,,
KRDR,09-16-2008,20:00,METAR,,340,10,17.0,,9999.0,,24.0,8.0,30.03,1017.8,,,,,,,,,,,,,,,Clear,72000.0,,,73000,,,,,,
KRDR,09-16-2008,19:00,METAR,,340,14,,,9999.0,,24.0,9.0,30.02,1017.5,,,,,,,,,,,,,,,Clear,72000.0,,,73000,,,,,,
KRDR,09-16-2008,18:00,METAR,,330,12,,,9999.0,,24.0,8.0,30.01,1017.2,,,,,,,,,,,,,,,2/8 Mostly Clear,72000.0,,FEW,25000,,,,,,
KRDR,09-16-2008,17:00,METAR,,310,10,18.0,,9999.0,,23.0,10.0,30.01,1017.0,,,,,,,,,,,,,,,2/8 Mostly Clear,72000.0,,FEW,25000,,,,,,
KRDR,09-16-2008,16:00,METAR,,310,10,,,9999.0,,21.0,9.0,29.98,1016.5,,,,,,,,,,,,,,,2/8 Mostly Clear,72000.0,,FEW,25000,,,,,,
KRDR,09-16-2008,15:00,METAR,,320,10,,,9999.0,,19.0,9.0,29.97,1015.9,,,,,,,,,,,,,,,Clear,72000.0,,,73000,,,,,,
KRDR,09-16-2008,14:00,METAR,,300,10,,,9999.0,,16.0,8.0,29.94,1015.1,,,,,,,,,,,,,,,Clear,72000.0,,,73000,,,,,,
KRDR,09-16-2008,13:00,METAR,,280,10,,,9999.0,,14.0,7.0,29.92,1014.6,,,,,,,,,,,,,,,Clear,72000.0,,,73000,,,,,,
KRDR,09-16-2008,12:00,METAR,,270,8,,,8000.0,Haze,14.0,7.0,29.92,1014.3,,,,5,,,,,,,,,,,Clear,72000.0,,,73000,,,,,,
KRDR,09-16-2008,11:10,SPECI,,240,8,,,6400.0,Haze,12.0,7.0,29.91,1013.9,,,,5,,,,,,,,,,,Clear,72000.0,,,73000,,,,,,
KRDR,09-16-2008,11:00,METAR,,240,7,,,9999.0,,11.0,7.0,29.91,1013.9,,,,,,,,,,,,,,,Clear,72000.0,,,73000,,,,,,
KRDR,09-16-2008,10:36,SPECI,,220,7,,,6400.0,Haze Smoke or Dust,12.0,7.0,29.91,1013.9,4,,,,,,,,,,,,,,Clear,72000.0,,,73000,,,,,,
KRDR,09-16-2008,10:32,SPECI,,220,8,,,6400.0,Haze Smoke or Dust,12.0,7.0,29.91,1013.8,4,,,,,,,,,,,,,,Clear,72000.0,,,73000,,,,,,
KRDR,09-16-2008,10:00,METAR,,220,9,,,6400.0,Haze Smoke or Dust,12.0,7.0,29.92,1014.1,4,,,,,,,,,,,,,,Clear,72000.0,,,73000,,,,,,
KRDR,09-16-2008,09:50,SPECI,,220,10,,,6400.0,Haze Smoke or Dust,11.0,7.0,29.92,1014.1,4,,,,,,,,,,,,,,Clear,72000.0,,,73000,,,,,,
KRDR,09-16-2008,09:09,SPECI,,230,9,,,6400.0,Haze Smoke or Dust,11.0,8.0,29.93,1014.5,4,,,,,,,,,,,,,,Clear,72000.0,,,73000,,,,,,
KRDR,09-16-2008,09:03,SPECI,,230,10,,,4800.0,Haze Smoke or Dust,11.0,8.0,29.93,1014.6,4,,,,,,,,,,,,,,Clear,72000.0,,,73000,,,,,,
KRDR,09-16-2008,09:00,METAR,,220,9,,,8000.0,Haze Smoke or Dust,12.0,8.0,29.93,1014.6,4,,,,,,,,,,,,,,Clear,72000.0,,,73000,,,,,,
KRDR,09-16-2008,08:49,SPECI,,220,9,,,9999.0,,12.0,8.0,29.93,1014.6,,,,,,,,,,,,,,,Clear,72000.0,,,73000,,,,,,
KRDR,09-16-2008,08:06,SPECI,,220,6,,,9999.0,,10.0,7.0,29.95,1015.2,,,,,,,,,,,,,,,4/8 Partly Cloudy,72000.0,,SCT,11000,,,,,,
KRDR,09-16-2008,08:04,SPECI,,220,6,,,9999.0,,10.0,7.0,29.95,1015.2,,,,,,,,,,,,,,,2/8 Mostly Clear,72000.0,,FEW,11000,,,,,,
KRDR,09-16-2008,08:00,METAR,,220,7,,,9999.0,,10.0,7.0,29.95,1015.3,,,,,,,,,,,,,,,Clear,72000.0,,,73000,,,,,,
KRDR,09-16-2008,07:00,METAR,,230,6,,,9999.0,,9.0,7.0,29.97,1016.0,,,,,,,,,,,,,,,Clear,72000.0,,,73000,,,,,,
KRDR,09-16-2008,06:00,METAR,,220,6,,,9999.0,,10.0,8.0,29.99,1016.6,,,,,,,,,,,,,,,Clear,72000.0,,,73000,,,,,,
KRDR,09-16-2008,05:00,METAR,,240,4,,,9999.0,,9.0,7.0,30.01,1017.0,,,,,,,,,,,,,,,Clear,72000.0,,,73000,,,,,,
KRDR,09-16-2008,04:00,METAR,,230,3,,,9999.0,,10.0,7.0,30.01,1017.1,,,,,,,,,,,,,,,Clear,72000.0,,,73000,,,,,,
KRDR,09-16-2008,03:00,METAR,,240,3,,,9999.0,,10.0,8.0,30.01,1017.2,,,,,,,,,,,,,,,Clear,72000.0,,,73000,,,,,,
KRDR,09-16-2008,02:00,METAR,,290,3,,,9999.0,,12.0,8.0,30.00,1016.9,,,,,,,,,,,,,,,Clear,72000.0,,,73000,,,,,,
KRDR,09-16-2008,01:00,METAR,,330,5,,,9999.0,,16.0,8.0,30.00,1016.8,,,,,,,,,,,,,,,2/8 Mostly Clear,72000.0,,FEW,25000,,,,,,
KRDR,09-16-2008,00:00,METAR,,330,7,,,9999.0,,20.0,8.0,29.99,1016.4,,,,,,,,,,,,,,,4/8 Partly Cloudy,72000.0,,FEW,6900,SCT,25000.0,,,,
KRDR,09-15-2008,23:00,METAR,,340,9,,,9999.0,,22.0,8.0,29.98,1016.2,,,,,,,,,,,,,,,4/8 Partly Cloudy,72000.0,,FEW,6900,SCT,25000.0,,,,
KRDR,09-15-2008,22:00,METAR,,,4,,,9999.0,,23.0,8.0,29.98,1016.1,,,,,,,,,,,,,,,4/8 Partly Cloudy,72000.0,,FEW,6400,SCT,25000.0,,,,
KRDR,09-15-2008,21:00,METAR,,310,8,,,9999.0,,23.0,9.0,29.98,1016.3,,,,,,,,,,,,,,,4/8 Partly Cloudy,72000.0,,FEW,5900,SCT,25000.0,,,,
KRDR,09-15-2008,20:00,METAR,,300,6,,,9999.0,,23.0,8.0,29.99,1016.4,,,,,,,,,,,,,,,4/8 Partly Cloudy,72000.0,,FEW,5900,SCT,25000.0,,,,
KRDR,09-15-2008,19:00,METAR,,330,5,,,9999.0,,23.0,8.0,30.00,1016.7,,,,,,,,,,,,,,,4/8 Partly Cloudy,72000.0,,SCT,25000,,,,,,
KRDR,09-15-2008,18:00,METAR,,280,6,,,9999.0,,22.0,8.0,30.00,1016.8,,,,,,,,,,,,,,,2/8 Mostly Clear,72000.0,,FEW,25000,,,,,,
KRDR,09-15-2008,17:00,METAR,,300,7,,,9999.0,,20.0,9.0,30.01,1017.1,,,,,,,,,,,,,,,2/8 Mostly Clear,72000.0,,FEW,25000,,,,,,
KRDR,09-15-2008,16:00,METAR,,260,9,,,9999.0,,18.0,8.0,30.01,1017.3,,,,,,,,,,,,,,,2/8 Mostly Clear,72000.0,,FEW,25000,,,,,,
KRDR,09-15-2008,15:00,METAR,,250,6,,,9999.0,,15.0,7.0,30.02,1017.4,,,,,,,,,,,,,,,2/8 Mostly Clear,72000.0,,FEW,11000,,,,,,
KRDR,09-15-2008,14:00,METAR,,210,6,,,9999.0,,12.0,6.0,30.02,1017.6,,,,,,,,,,,,,,,7/8 Mostly Cloudy,10000.0,,BKN,9900,,,,,,
KRDR,09-15-2008,13:00,METAR,,180,7,,,9999.0,,11.0,6.0,30.03,1018.0,,,,,,,,,,,,,,,7/8 Mostly Cloudy,8500.0,,BKN,8400,,,,,,
KRDR,09-15-2008,12:00,METAR,,200,7,,,9999.0,,10.0,6.0,30.05,1018.4,,,,,,,,,,,,,,,7/8 Mostly Cloudy,12000.0,,FEW,7400,BKN,12000.0,,,,
KRDR,09-15-2008,11:00,METAR,,200,8,,,9999.0,,10.0,6.0,30.05,1018.4,,,,,,,,,,,,,,,7/8 Mostly Cloudy,8000.0,,BKN,7900,BKN,22000.0,,,,
KRDR,09-15-2008,10:00,METAR,,200,5,,,9999.0,,10.0,6.0,30.06,1018.9,,,,,,,,,,,,,,,7/8 Mostly Cloudy,22000.0,,SCT,6900,BKN,22000.0,,,,
KRDR,09-15-2008,09:00,METAR,,210,6,,,9999.0,,9.0,6.0,30.07,1019.0,,,,,,,,,,,,,,,7/8 Mostly Cloudy,22000.0,,SCT,7900,BKN,22000.0,,,,
KRDR,09-15-2008,08:00,METAR,,190,6,,,9999.0,,8.0,6.0,30.07,1019.2,,,,,,,,,,,,,,,7/8 Mostly Cloudy,22000.0,,FEW,12000,BKN,22000.0,,,,
KRDR,09-15-2008,07:00,METAR,,230,7,,,9999.0,,7.0,5.0,30.09,1019.7,,,,,,,,,,,,,,,Clear,72000.0,,,73000,,,,,,
KRDR,09-15-2008,06:00,METAR,,230,6,,,9999.0,,6.0,4.0,30.08,1019.6,,,,,,,,,,,,,,,Clear,72000.0,,,73000,,,,,,
KRDR,09-15-2008,05:00,METAR,,230,5,,,9999.0,,6.0,4.0,30.10,1020.1,,,,,,,,,,,,,,,Clear,72000.0,,,73000,,,,,,
KRDR,09-15-2008,04:00,METAR,,260,4,,,9999.0,,5.0,4.0,30.11,1020.4,,,,,,,,,,,,,,,Clear,72000.0,,,73000,,,,,,
KRDR,09-15-2008,03:00,METAR,,270,5,,,9999.0,,6.0,4.0,30.11,1020.5,,,,,,,,,,,,,,,Clear,72000.0,,,73000,,,,,,
KRDR,09-15-2008,02:00,METAR,,290,5,,,9999.0,,9.0,5.0,30.10,1020.2,,,,,,,,,,,,,,,Clear,72000.0,,,73000,,,,,,
KRDR,09-15-2008,01:00,METAR,,310,5,,,9999.0,,12.0,7.0,30.10,1020.0,,,,,,,,,,,,,,,Clear,72000.0,,,73000,,,,,,
KRDR,09-15-2008,00:00,METAR,,340,6,,,9999.0,,14.0,7.0,30.09,1019.8,,,,,,,,,,,,,,,Clear,72000.0,,,73000,,,,,,
KRDR,09-14-2008,23:00,METAR,,340,11,,,9999.0,,16.0,7.0,30.08,1019.4,,,,,,,,,,,,,,,2/8 Mostly Clear,72000.0,,FEW,4500,,,,,,
KRDR,09-14-2008,22:00,METAR,,320,14,18.0,,9999.0,,16.0,7.0,30.08,1019.4,,,,,,,,,,,,,,,2/8 Mostly Clear,72000.0,,FEW,4600,,,,,,
KRDR,09-14-2008,21:00,METAR,,340,16,22.0,,9999.0,,17.0,6.0,30.07,1019.2,,,,,,,,,,,,,,,4/8 Partly Cloudy,72000.0,,SCT,4700,,,,,,
KRDR,09-14-2008,20:00,METAR,,340,15,22.0,,9999.0,,16.0,7.0,30.06,1019.0,,,,,,,,,,,,,,,4/8 Partly Cloudy,72000.0,,SCT,3900,,,,,,
KRDR,09-14-2008,19:00,METAR,,340,17,25.0,,9999.0,,15.0,7.0,30.06,1018.8,,,,,,,,,,,,,,,2/8 Mostly Clear,72000.0,,FEW,3400,,,,,,
KRDR,09-14-2008,18:00,METAR,,340,14,,,9999.0,,14.0,8.0,30.06,1018.8,,,,,,,,,,,,,,,4/8 Partly Cloudy,72000.0,,SCT,3000,,,,,,
KRDR,09-14-2008,17:00,METAR,,340,14,21.0,,9999.0,,13.0,8.0,30.07,1019.0,,,,,,,,,,,,,,,4/8 Partly Cloudy,72000.0,,SCT,2500,,,,,,
KRDR,09-14-2008,16:43,SPECI,,360,16,,,9999.0,,12.0,8.0,30.06,1018.9,,,,,,,,,,,,,,,4/8 Partly Cloudy,72000.0,,SCT,2600,,,,,,
KRDR,09-14-2008,16:00,METAR,,360,17,22.0,,9999.0,,11.0,8.0,30.06,1018.8,,,,,,,,,,,,,,,8/8 Overcast,1200.0,,OVC,1900,,,,,,
KRDR,09-14-2008,15:31,SPECI,,360,13,20.0,,9999.0,,11.0,8.0,30.06,1018.8,,,,,,,,,,,,,,,8/8 Overcast,1600.0,,OVC,1600,,,,,,
KRDR,09-14-2008,15:28,SPECI,,350,14,,,9999.0,,11.0,8.0,30.06,1018.8,,,,,,,,,,,,,,,8/8 Overcast,1400.0,,OVC,1400,,,,,,
KRDR,09-14-2008,15:26,SPECI,,360,12,18.0,,9999.0,,11.0,8.0,30.06,1018.8,,,,,,,,,,,,,,,8/8 Overcast,1500.0,,OVC,1500,,,,,,
KRDR,09-14-2008,15:02,SPECI,,360,14,21.0,,9999.0,,10.0,8.0,30.05,1018.6,,,,,,,,,,,,,,,8/8 Overcast,1200.0,,OVC,1200,,,,,,
KRDR,09-14-2008,15:00,METAR,,360,16,,,9999.0,,10.0,8.0,30.05,1018.4,,,,,,,,,,,,,,,8/8 Overcast,1000.0,,OVC,1000,,,,,,
KRDR,09-14-2008,14:00,METAR,,340,13,18.0,,9999.0,,9.0,8.0,30.03,1017.9,,,,,,,,,,,,,,,8/8 Overcast,1100.0,,OVC,1100,,,,,,
KRDR,09-14-2008,13:48,SPECI,,340,14,,,9999.0,,9.0,8.0,30.03,1017.9,,,,,,,,,,,,,,,8/8 Overcast,1100.0,,OVC,1100,,,,,,
KRDR,09-14-2008,13:09,SPECI,,330,11,,,9999.0,,9.0,7.0,30.02,1017.5,,,,,,,,,,,,,,,7/8 Mostly Cloudy,1400.0,,BKN,1400,,,,,,
KRDR,09-14-2008,13:00,METAR,,340,13,,,9999.0,,9.0,7.0,30.02,1017.4,,,,,,,,,,,,,,,Clear,72000.0,,,73000,,,,,,
KRDR,09-14-2008,12:00,METAR,,330,13,,,9999.0,,9.0,8.0,29.99,1016.4,,,,,,,,,,,,,.3 IN,.66 IN,Clear,72000.0,,,73000,,,,,,
KRDR,09-14-2008,11:00,METAR,,350,14,20.0,,9999.0,,10.0,9.0,29.97,1015.9,,,,,,,,,,,,,,,Clear,72000.0,,,73000,,,,,,
KRDR,09-14-2008,10:00,METAR,,340,13,,,9999.0,,10.0,9.0,29.95,1015.3,,,,,,,,,,,.04 IN,,,,2/8 Mostly Clear,72000.0,,FEW,1400,,,,,,
KRDR,09-14-2008,09:39,SPECI,,340,14,20.0,,9999.0,Light Rain,10.0,9.0,29.95,1015.2,61,,,,,,,,,,,,,,4/8 Partly Cloudy,72000.0,,SCT,1400,,,,,,
KRDR,09-14-2008,09:15,SPECI,,340,10,,,9999.0,Light Rain,10.0,10.0,29.95,1015.1,61,,,,,,,,,,,,,,8/8 Overcast,1400.0,,OVC,1400,,,,,,
KRDR,09-14-2008,09:13,SPECI,,340,10,,,9999.0,Light Rain,10.0,9.0,29.95,1015.1,61,,,,,,,,,,,,,,7/8 Mostly Cloudy,1500.0,,FEW,900,BKN,1500.0,,,,
KRDR,09-14-2008,09:06,SPECI,,340,11,,,9999.0,Light Rain,10.0,9.0,29.95,1015.1,61,,,,,,,,,,,,,,7/8 Mostly Cloudy,1500.0,,BKN,1500,,,,,,
KRDR,09-14-2008,09:00,SPECI,,330,11,,,9999.0,Light Rain,10.0,9.0,29.95,1015.1,61,,,,,,,,,,,,,,7/8 Mostly Cloudy,1400.0,,BKN,1400,,,,,,
KRDR,09-14-2008,09:00,METAR,,340,12,,,9999.0,Rain,10.0,9.0,29.95,1015.1,62,,,,,,,,,,.17 IN,.26 IN,,,2/8 Mostly Clear,72000.0,,FEW,1500,,,,,,
KRDR,09-14-2008,08:54,SPECI,,340,11,,,9999.0,Rain,10.0,9.0,29.95,1015.1,62,,,,,,,,,,,,,,4/8 Partly Cloudy,72000.0,,SCT,1500,,,,,,
KRDR,09-14-2008,08:15,SPECI,,340,18,24.0,,9999.0,,10.0,9.0,29.94,1014.8,,,,,,,,,,,,,,,Clear,72000.0,,,73000,,,,,,
KRDR,09-14-2008,08:00,METAR,,340,16,21.0,,9999.0,,10.0,9.0,29.94,1014.8,,,,,,,,,,,.05 IN,,,,Clear,72000.0,,,73000,,,,,,
KRDR,09-14-2008,07:00,METAR,,340,17,22.0,350/28KTS,9999.0,Light Rain,10.0,9.0,29.93,1014.4,61,,,,,,,,,,.04 IN,,,,2/8 Mostly Clear,72000.0,,FEW,5900,,,,,,
KRDR,09-14-2008,06:01,SPECI,,340,19,24.0,,9999.0,Light Rain,11.0,8.0,29.90,1013.7,61,,,,,,,,,,,,,,4/8 Partly Cloudy,72000.0,,SCT,2800,,,,,,
KRDR,09-14-2008,06:00,METAR,,340,16,23.0,,9999.0,Light Rain,11.0,9.0,29.90,1013.7,61,,,,,,,,,,.02 IN,,.1 IN,,7/8 Mostly Cloudy,2100.0,,BKN,2700,,,,,,
KRDR,09-14-2008,05:36,SPECI,,340,17,23.0,,9999.0,Light Rain,11.0,10.0,29.90,1013.7,61,,,,,,,,,,,,,,7/8 Mostly Cloudy,2400.0,,BKN,2400,,,,,,
KRDR,09-14-2008,05:34,SPECI,,340,18,23.0,,9999.0,Light Rain,11.0,10.0,29.90,1013.6,61,,,,,,,,,,,,,,4/8 Partly Cloudy,72000.0,,SCT,2300,,,,,,
KRDR,09-14-2008,05:31,SPECI,,340,20,,,9999.0,Light Rain,11.0,10.0,29.90,1013.5,61,,,,,,,,,,,,,,7/8 Mostly Cloudy,2300.0,,BKN,2300,,,,,,
KRDR,09-14-2008,05:01,SPECI,,330,14,,,9999.0,,11.0,9.0,29.89,1013.2,,,,,,,,,,,,,,,Clear,72000.0,,,73000,,,,,,
KRDR,09-14-2008,05:00,METAR,,330,12,,,9999.0,,11.0,9.0,29.89,1013.1,,,,,,,,,,,.08 IN,,,,Clear,72000.0,,,73000,,,,,,
KRDR,09-14-2008,04:12,SPECI,,340,19,24.0,,9999.0,,11.0,9.0,29.89,1013.1,,,,,,,,,,,,,,,Clear,72000.0,,,73000,,,,,,
KRDR,09-14-2008,04:00,METAR,,340,13,,,9999.0,Light Rain,12.0,9.0,29.88,1012.8,61,,,,,,,,,,TRACE,,,,7/8 Mostly Cloudy,3600.0,,BKN,3700,,,,,,
KRDR,09-14-2008,03:31,SPECI,,340,16,25.0,,9999.0,Light Rain,13.0,9.0,29.87,1012.7,61,,,,,,,,,,,,,,8/8 Overcast,3700.0,,OVC,3800,,,,,,
KRDR,09-14-2008,03:00,METAR,,350,15,,,9999.0,,14.0,8.0,29.85,1011.8,,,,,,,,,,,,,,,8/8 Overcast,3600.0,,OVC,3700,,,,,,
KRDR,09-14-2008,02:00,METAR,,10,15,21.0,,9999.0,,14.0,8.0,29.83,1011.4,,,,,,,,,,,,,,,8/8 Overcast,3400.0,,OVC,3500,,,,,,
KRDR,09-14-2008,01:00,METAR,,10,10,,,9999.0,,14.0,10.0,29.81,1010.5,,,,,,,,,,,,,,,8/8 Overcast,3100.0,,OVC,3200,,,,,,
KRDR,09-14-2008,00:10,SPECI,,20,11,,,9999.0,,14.0,11.0,29.80,1010.1,,,,,,,,,,,,,,,8/8 Overcast,3100.0,,OVC,3100,,,,,,
KRDR,09-14-2008,00:00,METAR,,10,15,22.0,,9999.0,,14.0,12.0,29.79,1009.9,,,,,,,,,,,.12 IN,,.26 IN,,7/8 Mostly Cloudy,2600.0,,BKN,2600,,,,,,
KRDR,09-13-2008,23:50,SPECI,,20,16,22.0,,9999.0,,14.0,12.0,29.79,1009.8,,,,,,,,,,,,,,,7/8 Mostly Cloudy,2600.0,,BKN,2600,,,,,,
KRDR,09-13-2008,23:31,SPECI,,10,15,,,9999.0,Unknown Precipitation,15.0,14.0,29.78,1009.5,40,,,,,,,,,,,,,,7/8 Mostly Cloudy,2000.0,,BKN,2000,,,,,,
KRDR,09-13-2008,23:14,SPECI,,350,8,,,9999.0,,15.0,15.0,29.77,1009.3,,,,,,,,,,,,,,,8/8 Overcast,1900.0,,OVC,1900,,,,,,
KRDR,09-13-2008,23:00,METAR,,320,4,,,8000.0,Heavy Rain/Mist,15.0,15.0,29.76,1008.9,63,10,,,,,,,,,.14 IN,,,,7/8 Mostly Cloudy,2400.0,,BKN,2400,,,,,,
KRDR,09-13-2008,22:46,SPECI,,320,6,,,4800.0,Heavy Rain/Mist,15.0,15.0,29.76,1008.9,63,10,,,,,,,,,,,,,7/8 Mostly Cloudy,2500.0,,BKN,2500,,,,,,
KRDR,09-13-2008,22:38,SPECI,,340,5,,,4000.0,Rain/Mist,15.0,14.0,29.75,1008.6,62,10,,,,,,,,,,,,,7/8 Mostly Cloudy,2800.0,,BKN,2800,,,,,,
KRDR,09-13-2008,22:35,SPECI,,350,5,,,4800.0,Heavy Rain/Mist,15.0,14.0,29.75,1008.5,63,10,,,,,,,,,,,,,7/8 Mostly Cloudy,3000.0,,FEW,2200,BKN,3000.0,,,,
KRDR,09-13-2008,22:13,SPECI,,10,8,,,9999.0,Unknown Precipitation,17.0,14.0,29.74,1008.3,40,,,,,,,,,,,,,,8/8 Overcast,2400.0,,OVC,2400,,,,,,
KRDR,09-13-2008,22:00,METAR,,10,7,,,9999.0,,17.0,14.0,29.74,1008.2,,,,,,,,,,,,,,,8/8 Overcast,3000.0,,OVC,3000,,,,,,
KRDR,09-13-2008,21:53,SPECI,,10,6,,,9999.0,,17.0,14.0,29.74,1008.2,,,,,,,,,,,,,,,8/8 Overcast,2400.0,,OVC,2900,,,,,,
KRDR,09-13-2008,21:13,SPECI,,30,5,,,9999.0,,18.0,14.0,29.73,1008.0,,,,,,,,,,,,,,,8/8 Overcast,3100.0,,OVC,3100,,,,,,
KRDR,09-13-2008,21:00,METAR,,30,6,,,9999.0,,18.0,13.0,29.73,1007.9,,,,,,,,,,,,TRACE,,,8/8 Overcast,2400.0,,OVC,2400,,,,,,
KRDR,09-13-2008,20:41,SPECI,,30,6,,,9999.0,,18.0,14.0,29.73,1007.9,,,,,,,,,,,,,,,8/8 Overcast,2200.0,,OVC,2900,,,,,,
KRDR,09-13-2008,20:00,METAR,,180,10,,,9999.0,,19.0,14.0,29.71,1007.4,,,,,,,,,,,TRACE,,,,7/8 Mostly Cloudy,4500.0,,BKN,4600,,,,,,
KRDR,09-13-2008,19:00,SPECI,,210,7,,,9999.0,,19.0,15.0,29.71,1007.2,,,,,,,,,,,,,,,7/8 Mostly Cloudy,4900.0,,FEW,4100,BKN,5000.0,,,,
KRDR,09-13-2008,19:00,METAR,,210,7,,,9999.0,,19.0,15.0,29.71,1007.2,,,,,,,,,,,TRACE,,,,7/8 Mostly Cloudy,5500.0,,BKN,5400,,,,,,
KRDR,09-13-2008,18:50,SPECI,,220,6,,,9999.0,,19.0,15.0,29.71,1007.2,,,,,,,,,,,,,,,7/8 Mostly Cloudy,5500.0,,BKN,5400,,,,,,
KRDR,09-13-2008,18:00,METAR,,190,7,,,9999.0,,19.0,14.0,29.71,1007.3,,,,,,,,,,,,,,,7/8 Mostly Cloudy,12000.0,,FEW,3500,SCT,5900.0,BKN,12000.0,,
KRDR,09-13-2008,17:00,METAR,,200,10,,,9999.0,,18.0,15.0,29.71,1007.3,,,,,,,,,,,,,,,7/8 Mostly Cloudy,11000.0,,FEW,5900,BKN,11000.0,BKN,20000.0,,
KRDR,09-13-2008,16:00,METAR,,200,7,,,9999.0,,17.0,14.0,29.71,1007.3,,,,,,,,,,,,,,,7/8 Mostly Cloudy,10000.0,,FEW,5900,BKN,9900.0,BKN,20000.0,,
KRDR,09-13-2008,15:00,METAR,,200,6,,,9999.0,,16.0,13.0,29.69,1006.7,,,,,,,,,,,,,,,Clear,72000.0,,,73000,,,,,,
KRDR,09-13-2008,14:00,METAR,,210,6,,,9999.0,,15.0,13.0,29.71,1007.1,,,,,,,,,,,,,,,Clear,72000.0,,,73000,,,,,,
KRDR,09-13-2008,13:00,METAR,,170,7,,,9999.0,,14.0,13.0,29.68,1006.4,,,,,,,,,,,,,,,Clear,72000.0,,,73000,,,,,,
KRDR,09-13-2008,12:00,METAR,,170,6,,,9999.0,,14.0,12.0,29.69,1006.5,,,,,,,,,,,,,,,Clear,72000.0,,,73000,,,,,,
KRDR,09-13-2008,11:00,METAR,,180,6,,,9999.0,,13.0,12.0,29.70,1007.0,,,,,,,,,,,,,,,Clear,72000.0,,,73000,,,,,,
KRDR,09-13-2008,10:00,METAR,,180,7,,,9999.0,,13.0,12.0,29.71,1007.3,,,,,,,,,,,,,,,Clear,72000.0,,,73000,,,,,,
KRDR,09-13-2008,09:00,METAR,,180,7,,,9999.0,,15.0,13.0,29.72,1007.7,,,,,,,,,,,,,,,Clear,72000.0,,,73000,,,,,,
KRDR,09-13-2008,08:00,METAR,,190,6,,,9999.0,,15.0,12.0,29.74,1008.4,,,,,,,,,,,,,,,Clear,72000.0,,,73000,,,,,,
KRDR,09-13-2008,07:00,METAR,,180,8,,,9999.0,,13.0,12.0,29.76,1009.1,,,,,,,,,,,,,,,Clear,72000.0,,,73000,,,,,,
KRDR,09-13-2008,06:00,METAR,,190,5,,,9999.0,,14.0,12.0,29.76,1009.4,,,,,,,,,,,,,,,2/8 Mostly Clear,72000.0,,FEW,18000,,,,,,
KRDR,09-13-2008,05:00,METAR,,200,5,,,9999.0,,15.0,12.0,29.77,1009.7,,,,,,,,,,,,,,,2/8 Mostly Clear,72000.0,,FEW,25000,,,,,,
KRDR,09-13-2008,04:00,METAR,,180,7,,,9999.0,,15.0,12.0,29.78,1010.0,,,,,,,,,,,,,,,2/8 Mostly Clear,72000.0,,FEW,25000,,,,,,
KRDR,09-13-2008,03:00,METAR,,180,7,,,9999.0,,15.0,12.0,29.80,1010.3,,,,,,,,,,,,,,,2/8 Mostly Clear,72000.0,,FEW,25000,,,,,,
KRDR,09-13-2008,02:00,METAR,,170,7,,,9999.0,,16.0,12.0,29.79,1010.3,,,,,,,,,,,,,,,4/8 Partly Cloudy,72000.0,,SCT,25000,,,,,,
KRDR,09-13-2008,01:00,METAR,,180,8,,,9999.0,,18.0,12.0,29.79,1010.4,,,,,,,,,,,,,,,4/8 Partly Cloudy,72000.0,,FEW,5900,SCT,25000.0,,,,
KRDR,09-13-2008,00:00,METAR,,190,12,,,9999.0,,22.0,12.0,29.82,1010.8,,,,,,,,,,,,,,,4/8 Partly Cloudy,72000.0,,FEW,5000,SCT,25000.0,,,,
KRDR,09-12-2008,23:00,METAR,,190,11,,,9999.0,,24.0,12.0,29.82,1010.9,,,,,,,,,,,,,,,4/8 Partly Cloudy,72000.0,,FEW,5000,SCT,25000.0,,,,
KRDR,09-12-2008,22:00,METAR,,200,10,,,9999.0,,24.0,11.0,29.83,1011.3,,,,,,,,,,,,,,,4/8 Partly Cloudy,72000.0,,SCT,5400,SCT,25000.0,,,,
KRDR,09-12-2008,21:00,METAR,,200,11,,,9999.0,,24.0,11.0,29.85,1011.9,,,,,,,,,,,,,,,4/8 Partly Cloudy,72000.0,,FEW,5900,SCT,25000.0,,,,
KRDR,09-12-2008,20:00,METAR,,230,5,,,9999.0,,25.0,10.0,29.87,1012.4,,,,,,,,,,,,,,,2/8 Mostly Clear,72000.0,,FEW,5000,FEW,25000.0,,,,
KRDR,09-12-2008,19:00,METAR,,270,9,,,9999.0,,24.0,9.0,29.89,1013.1,,,,,,,,,,,,,,,2/8 Mostly Clear,72000.0,,FEW,4500,FEW,25000.0,,,,
KRDR,09-12-2008,18:00,METAR,,240,8,,,9999.0,,24.0,11.0,29.92,1014.1,,,,,,,,,,,,,,,2/8 Mostly Clear,72000.0,,FEW,4500,,,,,,
KRDR,09-12-2008,17:00,METAR,,250,9,,,9999.0,,23.0,11.0,29.94,1014.8,,,,,,,,,,,,,,,Clear,72000.0,,,73000,,,,,,
KRDR,09-12-2008,16:00,METAR,,240,11,,,9999.0,,21.0,13.0,29.96,1015.4,,,,,,,,,,,,,,,Clear,72000.0,,,73000,,,,,,
KRDR,09-12-2008,15:00,METAR,,240,8,,,9999.0,,18.0,13.0,29.96,1015.6,,,,,,,,,,,,,,,Clear,72000.0,,,73000,,,,,,
KRDR,09-12-2008,14:00,METAR,,250,8,,,9999.0,,15.0,12.0,29.96,1015.6,,,,,,,,,,,,,,,Clear,72000.0,,,73000,,,,,,
KRDR,09-12-2008,13:00,METAR,,240,6,,,9999.0,,11.0,10.0,29.96,1015.6,,,,,,,,,,,,,,,Clear,72000.0,,,73000,,,,,,
KRDR,09-12-2008,12:00,METAR,,230,5,,,9999.0,,9.0,9.0,29.96,1015.6,,,,,,,,,,,,,,.02 IN,Clear,72000.0,,,73000,,,,,,
KRDR,09-12-2008,11:00,METAR,,230,4,,,9999.0,,10.0,9.0,29.97,1015.9,,,,,,,,,,,,,,,Clear,72000.0,,,73000,,,,,,
KRDR,09-12-2008,10:00,METAR,,230,5,,,9999.0,,10.0,10.0,29.98,1016.2,,,,,,,,,,,,,,,Clear,72000.0,,,73000,,,,,,
KRDR,09-12-2008,09:00,METAR,,230,5,,,9999.0,,10.0,9.0,29.98,1016.2,,,,,,,,,,,,,,,Clear,72000.0,,,73000,,,,,,
KRDR,09-12-2008,08:00,METAR,,230,5,,,9999.0,,10.0,10.0,29.98,1016.3,,,,,,,,,,,,,,,Clear,72000.0,,,73000,,,,,,
KRDR,09-12-2008,07:00,METAR,,230,4,,,9999.0,,10.0,9.0,30.00,1016.9,,,,,,,,,,,,,,,Clear,72000.0,,,73000,,,,,,
KRDR,09-12-2008,06:00,METAR,,220,4,,,9999.0,,10.0,9.0,30.01,1017.0,,,,,,,,,,,,,,,4/8 Partly Cloudy,72000.0,,SCT,5400,,,,,,
KRDR,09-12-2008,05:00,METAR,,230,3,,,9999.0,,11.0,10.0,30.01,1017.0,,,,,,,,,,,,,,,Clear,72000.0,,,73000,,,,,,
KRDR,09-12-2008,04:00,METAR,,,0,,,9999.0,,10.0,10.0,30.00,1016.7,,,,,,,,,,,,,,,Clear,72000.0,,,73000,,,,,,
KRDR,09-12-2008,03:00,METAR,,,0,,,9999.0,,11.0,10.0,29.98,1016.4,,,,,,,,,,,,,,,Clear,72000.0,,,73000,,,,,,
KRDR,09-12-2008,02:00,METAR,,230,3,,,9999.0,,14.0,12.0,29.98,1016.1,,,,,,,,,,,,,,,2/8 Mostly Clear,72000.0,,FEW,4000,,,,,,
KRDR,09-12-2008,01:00,METAR,,,0,,,9999.0,,17.0,13.0,29.96,1015.8,,,,,,,,,,,,,,,2/8 Mostly Clear,72000.0,,FEW,4000,,,,,,
KRDR,09-12-2008,00:00,METAR,,,0,,,9999.0,,20.0,13.0,29.95,1015.5,,,,,,,,,,,,,,,2/8 Mostly Clear,72000.0,,FEW,4000,,,,,,
KRDR,09-11-2008,23:00,METAR,,350,5,,,9999.0,,20.0,13.0,29.96,1015.6,,,,,,,,,,,,,,,7/8 Mostly Cloudy,20000.0,,SCT,4000,BKN,20000.0,,,,
KRDR,09-11-2008,22:00,METAR,,10,8,,,9999.0,,21.0,13.0,29.96,1015.6,,,,,,,,,,,,,,,7/8 Mostly Cloudy,4400.0,,BKN,4500,BKN,20000.0,,,,
KRDR,09-11-2008,21:00,METAR,,10,8,,,9999.0,,21.0,13.0,29.94,1015.1,,,,,,,,,,,,,,,7/8 Mostly Cloudy,3600.0,,BKN,3700,BKN,20000.0,,,,
KRDR,09-11-2008,20:00,METAR,,50,10,,,9999.0,,20.0,14.0,29.94,1014.8,,,,,,,,,,,,,,,7/8 Mostly Cloudy,2900.0,,BKN,2900,BKN,20000.0,,,,
KRDR,09-11-2008,19:00,METAR,,10,9,,,9999.0,,19.0,13.0,29.93,1014.9,,,,,,,,,,,,,,,7/8 Mostly Cloudy,2400.0,,BKN,2400,BKN,3000.0,BKN,15000.0,,
KRDR,09-11-2008,18:00,METAR,,10,11,,,9999.0,,18.0,14.0,29.94,1015.0,,,,,,,,,,,,,.03 IN,,8/8 Overcast,2100.0,,OVC,2100,,,,,,
KRDR,09-11-2008,17:10,SPECI,,10,9,,,9999.0,,16.0,14.0,29.95,,,,,,,,,,,,,,,,8/8 Overcast,1500.0,,SCT,1000,OVC,1500.0,,,,
KRDR,09-11-2008,17:05,SPECI,,10,9,,,9999.0,,16.0,14.0,29.95,,,,,,,,,,,,,,,,8/8 Overcast,1300.0,,OVC,1300,,,,,,
KRDR,09-11-2008,17:00,METAR,,360,10,,,9999.0,,16.0,14.0,29.95,1015.1,,,,,,,,,,,,,,,8/8 Overcast,1000.0,,OVC,1000,,,,,,
KRDR,09-11-2008,16:39,SPECI,,360,11,,,9999.0,,16.0,14.0,29.95,,,,,,,,,,,,,,,,8/8 Overcast,1000.0,,OVC,1000,,,,,,
KRDR,09-11-2008,16:11,SPECI,,360,10,,,9999.0,,15.0,14.0,29.94,,,,,,,,,,,,,,,,8/8 Overcast,700.0,,OVC,700,,,,,,
KRDR,09-11-2008,16:00,METAR,,360,10,,,9999.0,,15.0,14.0,29.93,1014.7,,,,,,,,,,,,,,,8/8 Overcast,600.0,,OVC,600,,,,,,
KRDR,09-11-2008,15:00,METAR,,360,9,,,8000.0,Mist,15.0,14.0,29.92,1014.2,,,,10,,,,,,,TRACE,.03 IN,,,8/8 Overcast,400.0,,OVC,400,,,,,,
KRDR,09-11-2008,14:00,METAR,,350,6,,,4000.0,Drizzle/Mist,14.0,14.0,29.91,1013.9,,,,51,10,,,,,,.03 IN,,,,8/8 Overcast,400.0,,BKN,400,OVC,1500.0,,,,
KRDR,09-11-2008,13:16,SPECI,,350,8,,,8000.0,Mist,14.0,14.0,29.90,,,,,,10,,,,,,,,,,8/8 Overcast,500.0,,BKN,500,OVC,1200.0,,,,
KRDR,09-11-2008,13:00,METAR,,350,7,,,9999.0,,14.0,14.0,29.89,1013.2,,,,,,,,,,,,,,,8/8 Overcast,800.0,,SCT,400,BKN,800.0,OVC,2900.0,,
KRDR,09-11-2008,12:48,SPECI,,360,6,,,9999.0,,14.0,14.0,29.89,1013.1,,,,,,,,,,,,,,,8/8 Overcast,800.0,,FEW,300,BKN,800.0,OVC,3600.0,,
KRDR,09-11-2008,12:00,METAR,,10,9,,,8000.0,Mist,14.0,14.0,29.87,1012.5,,,,10,,,,,,,TRACE,,.02 IN,.11 IN,8/8 Overcast,400.0,,BKN,400,BKN,1300.0,OVC,2800.0,,
KRDR,09-11-2008,11:13,SPECI,,360,10,,,6400.0,Mist,14.0,14.0,29.86,1012.2,,,,10,,,,,,,,,,,8/8 Overcast,400.0,,OVC,600,,,,,,
KRDR,09-11-2008,11:03,SPECI,,340,8,,,9999.0,,14.0,14.0,29.86,1012.2,,,,,,,,,,,,,,,8/8 Overcast,1900.0,,OVC,1900,,,,,,
KRDR,09-11-2008,11:00,SPECI,,340,10,,,9999.0,,14.0,14.0,29.86,1012.2,,,,,,,,,,,,,,,8/8 Overcast,1200.0,,OVC,1200,,,,,,
KRDR,09-11-2008,11:00,METAR,,340,9,,,9999.0,Drizzle,14.0,14.0,29.86,1012.2,,,,51,,,,,,,TRACE,,,,8/8 Overcast,500.0,,OVC,500,,,,,,
KRDR,09-11-2008,10:58,SPECI,,340,9,,,9999.0,Drizzle,14.0,14.0,29.86,1012.2,,,,51,,,,,,,,,,,8/8 Overcast,800.0,,OVC,800,,,,,,
KRDR,09-11-2008,10:56,SPECI,,340,9,,,9999.0,Drizzle,14.0,14.0,29.86,1012.2,,,,51,,,,,,,,,,,8/8 Overcast,600.0,,OVC,600,,,,,,
KRDR,09-11-2008,10:54,SPECI,,340,9,,,9999.0,Drizzle,14.0,14.0,29.86,1012.2,,,,51,,,,,,,,,,,8/8 Overcast,400.0,,OVC,400,,,,,,
KRDR,09-11-2008,10:50,SPECI,,340,10,,,9999.0,Drizzle,14.0,14.0,29.86,1012.2,,,,51,,,,,,,,,,,8/8 Overcast,500.0,,OVC,500,,,,,,
KRDR,09-11-2008,10:42,SPECI,,340,9,,,9999.0,,14.0,14.0,29.86,1012.2,,,,,,,,,,,,,,,8/8 Overcast,500.0,,OVC,500,,,,,,
KRDR,09-11-2008,10:40,SPECI,,340,9,,,9999.0,,14.0,14.0,29.86,1012.2,,,,,,,,,,,,,,,8/8 Overcast,600.0,,OVC,600,,,,,,
KRDR,09-11-2008,10:36,SPECI,,350,9,,,9999.0,Mist,14.0,14.0,29.86,1012.3,10,,,,,,,,,,,,,,8/8 Overcast,900.0,,OVC,900,,,,,,
KRDR,09-11-2008,10:32,SPECI,,350,8,,,9999.0,Mist,14.0,14.0,29.86,1012.3,10,,,,,,,,,,,,,,8/8 Overcast,1000.0,,OVC,1000,,,,,,
KRDR,09-11-2008,10:26,SPECI,,350,8,,,9999.0,Mist,14.0,14.0,29.86,1012.3,10,,,,,,,,,,,,,,8/8 Overcast,500.0,,BKN,500,OVC,3000.0,,,,
KRDR,09-11-2008,10:24,SPECI,,350,7,,,9999.0,Mist,14.0,14.0,29.86,1012.2,10,,,,,,,,,,,,,,7/8 Mostly Cloudy,600.0,,BKN,600,BKN,3000.0,,,,
KRDR,09-11-2008,10:13,SPECI,,350,5,,,9999.0,,14.0,14.0,29.86,1012.3,,,,,,,,,,,,,,,7/8 Mostly Cloudy,3000.0,,FEW,700,BKN,3000.0,,,,
KRDR,09-11-2008,10:04,SPECI,,350,5,,,9999.0,,14.0,14.0,29.86,1012.2,,,,,,,,,,,,,,,7/8 Mostly Cloudy,3000.0,,FEW,600,BKN,3000.0,,,,
KRDR,09-11-2008,10:00,METAR,,360,3,,,9999.0,Light Drizzle/Mist,14.0,14.0,29.86,1012.1,51,10,,,,,,,,,.01 IN,,,,7/8 Mostly Cloudy,1400.0,,BKN,1400,,,,,,
KRDR,09-11-2008,09:53,SPECI,,10,4,,,9999.0,Light Drizzle/Mist,14.0,14.0,29.85,1012.0,51,10,,,,,,,,,,,,,7/8 Mostly Cloudy,1600.0,,BKN,1600,,,,,,
KRDR,09-11-2008,09:50,SPECI,,30,4,,,9999.0,Light Drizzle/Mist,14.0,14.0,29.86,1012.1,51,10,,,,,,,,,,,,,7/8 Mostly Cloudy,1200.0,,BKN,1200,,,,,,
KRDR,09-11-2008,09:45,SPECI,,10,4,,,9999.0,Mist,14.0,14.0,29.86,1012.2,10,,,,,,,,,,,,,,7/8 Mostly Cloudy,600.0,,BKN,600,BKN,3100.0,,,,
KRDR,09-11-2008,09:42,SPECI,,20,4,,,9999.0,Mist,14.0,14.0,29.86,1012.2,10,,,,,,,,,,,,,,8/8 Overcast,800.0,,OVC,800,,,,,,
KRDR,09-11-2008,09:31,SPECI,,40,4,,,8000.0,Light Drizzle/Mist,14.0,14.0,29.86,1012.1,51,10,,,,,,,,,,,,,8/8 Overcast,600.0,,OVC,600,,,,,,
KRDR,09-11-2008,09:18,SPECI,,30,5,,,9999.0,Mist,14.0,14.0,29.85,1012.0,10,,,,,,,,,,,,,,8/8 Overcast,600.0,,OVC,600,,,,,,
KRDR,09-11-2008,09:14,SPECI,,20,5,,,9999.0,Mist,14.0,14.0,29.85,1011.9,10,,,,,,,,,,,,,,8/8 Overcast,800.0,,OVC,800,,,,,,
KRDR,09-11-2008,09:08,SPECI,,10,6,,,9999.0,Light Rain/Mist,14.0,14.0,29.85,1011.9,61,10,,,,,,,,,,,,,8/8 Overcast,800.0,,OVC,800,,,,,,
KRDR,09-11-2008,09:04,SPECI,,20,6,,,8000.0,Light Rain/Mist,14.0,14.0,29.85,1011.9,61,10,,,,,,,,,,,,,8/8 Overcast,600.0,,OVC,600,,,,,,
KRDR,09-11-2008,09:00,METAR,,30,5,,,6400.0,Light Drizzle/Mist,14.0,14.0,29.85,1011.8,51,10,,,,,,,,,.01 IN,.01 IN,,,8/8 Overcast,600.0,,FEW,300,OVC,600.0,,,,
KRDR,09-11-2008,08:56,SPECI,,30,6,,,4800.0,Light Rain/Mist,14.0,14.0,29.85,1011.8,61,10,,,,,,,,,,,,,8/8 Overcast,500.0,,OVC,500,,,,,,
KRDR,09-11-2008,08:53,SPECI,,30,5,,,6400.0,Light Drizzle/Mist,14.0,14.0,29.85,1011.8,51,10,,,,,,,,,,,,,8/8 Overcast,500.0,,OVC,500,,,,,,
KRDR,09-11-2008,08:38,SPECI,,40,5,,,8000.0,Light Drizzle/Mist,14.0,14.0,29.85,1012.0,51,10,,,,,,,,,,,,,8/8 Overcast,600.0,,OVC,600,,,,,,
KRDR,09-11-2008,08:21,SPECI,,40,5,,,8000.0,Light Drizzle/Mist,14.0,14.0,29.86,1012.1,51,10,,,,,,,,,,,,,8/8 Overcast,700.0,,OVC,700,,,,,,
KRDR,09-11-2008,08:18,SPECI,,30,4,,,8000.0,Mist,14.0,14.0,29.85,1012.0,10,,,,,,,,,,,,,,8/8 Overcast,800.0,,OVC,800,,,,,,
KRDR,09-11-2008,08:07,SPECI,,30,5,,,8000.0,Mist,14.0,14.0,29.86,1012.1,10,,,,,,,,,,,,,,8/8 Overcast,600.0,,OVC,600,,,,,,
KRDR,09-11-2008,08:00,METAR,,40,4,,,9999.0,Light Drizzle,14.0,14.0,29.86,1012.1,51,,,,,,,,,,TRACE,,,,8/8 Overcast,400.0,,OVC,400,,,,,,
KRDR,09-11-2008,07:27,SPECI,,50,5,,,9999.0,Unknown Precipitation,14.0,14.0,29.86,1012.3,40,,,,,,,,,,,,,,8/8 Overcast,400.0,,OVC,400,,,,,,
KRDR,09-11-2008,07:13,SPECI,,50,4,,,9999.0,,14.0,14.0,29.87,1012.5,,,,,,,,,,,,,,,8/8 Overcast,400.0,,OVC,400,,,,,,
KRDR,09-11-2008,07:00,METAR,,40,4,,,9999.0,,14.0,14.0,29.86,1012.4,,,,,,,,,,,,,,,8/8 Overcast,500.0,,OVC,500,,,,,,
KRDR,09-11-2008,06:50,SPECI,,40,4,,,9999.0,,14.0,14.0,29.86,1012.4,,,,,,,,,,,,,,,8/8 Overcast,500.0,,OVC,500,,,,,,
KRDR,09-11-2008,06:07,SPECI,,40,5,,,9999.0,,14.0,14.0,29.87,1012.6,,,,,,,,,,,,,,,8/8 Overcast,400.0,,OVC,400,,,,,,
KRDR,09-11-2008,06:00,METAR,,40,5,,,9999.0,,14.0,14.0,29.87,1012.6,,,,,,,,,,,,,.09 IN,,8/8 Overcast,400.0,,OVC,400,,,,,,
KRDR,09-11-2008,05:27,SPECI,,40,6,,,9999.0,,14.0,14.0,29.87,1012.6,,,,,,,,,,,,,,,8/8 Overcast,400.0,,OVC,400,,,,,,
KRDR,09-11-2008,05:19,SPECI,,40,6,,,9999.0,,14.0,14.0,29.87,1012.5,,,,,,,,,,,,,,,8/8 Overcast,500.0,,OVC,500,,,,,,
KRDR,09-11-2008,05:00,SPECI,,60,7,,,9999.0,,14.0,14.0,29.86,1012.3,,,,,,,,,,,,,,,8/8 Overcast,600.0,,OVC,600,,,,,,
KRDR,09-11-2008,05:00,METAR,,50,7,,,9999.0,,14.0,14.0,29.87,1012.4,,,,,,,,,,,,,,,8/8 Overcast,700.0,,OVC,700,,,,,,
KRDR,09-11-2008,04:31,SPECI,,70,6,,,9999.0,,14.0,14.0,29.88,1012.8,,,,,,,,,,,,,,,8/8 Overcast,700.0,,OVC,700,,,,,,
KRDR,09-11-2008,04:30,SPECI,,70,5,,,9999.0,,14.0,14.0,29.88,1012.9,,,,,,,,,,,,,,,8/8 Overcast,700.0,,OVC,700,,,,,,
KRDR,09-11-2008,04:00,METAR,,40,4,,,9999.0,Drizzle,14.0,14.0,29.89,1013.2,,,,51,,,,,,,.02 IN,,,,8/8 Overcast,800.0,,SCT,800,OVC,1300.0,,,,
KRDR,09-11-2008,03:00,METAR,,90,3,,,9999.0,Rain/Mist,15.0,14.0,29.90,1013.4,,,,61,10,,,,,,.04 IN,.06 IN,,,8/8 Overcast,900.0,,BKN,1100,OVC,2500.0,,,,
KRDR,09-11-2008,02:12,SPECI,,40,2,,,9999.0,Rain,15.0,14.0,29.90,1013.5,,,,61,,,,,,,,,,,8/8 Overcast,1100.0,,SCT,800,OVC,1100.0,,,,
KRDR,09-11-2008,02:00,METAR,,,0,,,9999.0,Rain,15.0,14.0,29.89,1013.2,,,,61,,,,,,,.02 IN,,,,8/8 Overcast,1300.0,,FEW,900,BKN,1300.0,OVC,2500.0,,
KRDR,09-11-2008,01:00,METAR,,140,3,,,9999.0,Rain,15.0,13.0,29.88,1012.9,,,,61,,,,,,,TRACE,,,,8/8 Overcast,2500.0,,BKN,2500,OVC,8900.0,,,,
KRDR,09-11-2008,00:13,SPECI,,140,11,,,9999.0,Rain,15.0,14.0,29.86,1012.1,,,,61,,,,,,,,,,,8/8 Overcast,2400.0,,BKN,2400,OVC,8900.0,,,,
KRDR,09-11-2008,00:00,METAR,,130,9,,,9999.0,Rain,16.0,14.0,29.86,1012.1,,,,61,,,,,,,TRACE,,TRACE,,8/8 Overcast,5500.0,,SCT,2400,BKN,5400.0,OVC,8900.0,,
KRDR,09-10-2008,23:48,SPECI,,130,8,,,9999.0,Rain,16.0,14.0,29.85,1011.8,,,,61,,,,,,,,,,,8/8 Overcast,6000.0,,SCT,2400,BKN,5900.0,OVC,8900.0,,
KRDR,09-10-2008,23:27,SPECI,,150,11,,,9999.0,,16.0,13.0,29.85,1012.0,,,,,,,,,,,,,,,8/8 Overcast,3500.0,,SCT,2400,BKN,3600.0,OVC,8900.0,,
KRDR,09-10-2008,23:22,SPECI,,150,12,19.0,,9999.0,Rain,16.0,14.0,29.85,1012.0,,,,61,,,,,,,,,,,8/8 Overcast,3100.0,,SCT,2400,BKN,3100.0,OVC,9400.0,,
KRDR,09-10-2008,23:13,SPECI,,150,15,19.0,,9999.0,Rain,17.0,13.0,29.86,1012.2,,,,61,,,,,,,,,,,8/8 Overcast,1600.0,,BKN,2300,OVC,9400.0,,,,
KRDR,09-10-2008,23:00,METAR,,160,11,,,9999.0,,17.0,13.0,29.85,1012.0,,,,,,,,,,,,,,,8/8 Overcast,9500.0,,SCT,2300,BKN,9400.0,OVC,15000.0,,
KRDR,09-10-2008,22:42,SPECI,,150,11,,,9999.0,,17.0,13.0,29.85,1011.9,,,,,,,,,,,,,,,8/8 Overcast,9500.0,,SCT,2300,OVC,9400.0,,,,
KRDR,09-10-2008,22:00,METAR,,160,11,,,9999.0,,18.0,13.0,29.86,1012.3,,,,,,,,,,,,,,,8/8 Overcast,2500.0,,BKN,2500,OVC,15000.0,,,,
KRDR,09-10-2008,21:00,METAR,,160,13,,,9999.0,,19.0,13.0,29.85,1011.8,,,,,,,,,,,,,,,8/8 Overcast,3000.0,,SCT,2600,BKN,3000.0,OVC,15000.0,,
KRDR,09-10-2008,20:00,METAR,,160,10,,,9999.0,,20.0,13.0,29.85,1011.9,,,,,,,,,,,,,,,8/8 Overcast,3000.0,,BKN,3000,BKN,15000.0,OVC,25000.0,,
KRDR,09-10-2008,19:00,METAR,,140,11,,,9999.0,,19.0,12.0,29.83,1011.4,,,,,,,,,,,,,,,8/8 Overcast,15000.0,,FEW,3000,BKN,15000.0,OVC,25000.0,,
KRDR,09-10-2008,18:00,METAR,,180,14,,,9999.0,,19.0,11.0,,,,,,,,,,,,,,,,,8/8 Overcast,25000.0,,FEW,3000,SCT,15000.0,OVC,25000.0,,
KRDR,09-10-2008,17:00,METAR,,170,17,,,9999.0,,19.0,11.0,,,,,,,,,,,,,,,,,7/8 Mostly Cloudy,25000.0,,FEW,2900,SCT,15000.0,BKN,25000.0,,
KRDR,09-10-2008,16:00,METAR,,170,16,,,9999.0,,18.0,11.0,29.86,1012.2,,,,,,,,,,,,,,,7/8 Mostly Cloudy,25000.0,,BKN,25000,,,,,,
KRDR,09-10-2008,15:00,METAR,,170,16,,,9999.0,,16.0,10.0,29.86,1012.2,,,,,,,,,,,,,,,7/8 Mostly Cloudy,25000.0,,BKN,25000,,,,,,
KRDR,09-10-2008,14:00,METAR,,170,15,,,9999.0,,14.0,10.0,29.85,1012.0,,,,,,,,,,,,,,,7/8 Mostly Cloudy,25000.0,,BKN,25000,,,,,,
KRDR,09-10-2008,13:00,METAR,,160,10,,,9999.0,,13.0,9.0,29.85,1012.0,,,,,,,,,,,,,,,7/8 Mostly Cloudy,25000.0,,SCT,6900,BKN,25000.0,,,,
KRDR,09-10-2008,12:00,METAR,,150,8,,,9999.0,,12.0,9.0,29.86,1012.1,,,,,,,,,,,,,,,7/8 Mostly Cloudy,7000.0,,BKN,6900,,,,,,
KRDR,09-10-2008,11:00,METAR,,150,8,,,9999.0,,11.0,9.0,29.85,1011.7,,,,,,,,,,,,,,,2/8 Mostly Clear,72000.0,,FEW,5900,,,,,,
KRDR,09-10-2008,10:00,METAR,,150,9,,,9999.0,,13.0,9.0,29.84,1011.7,,,,,,,,,,,,,,,8/8 Overcast,6000.0,,OVC,5900,,,,,,
KRDR,09-10-2008,09:00,METAR,,140,9,,,9999.0,,12.0,9.0,29.85,1011.9,,,,,,,,,,,,,,,7/8 Mostly Cloudy,6500.0,,BKN,6400,,,,,,
KRDR,09-10-2008,08:00,METAR,,150,6,,,9999.0,,12.0,9.0,29.88,1012.8,,,,,,,,,,,,,,,8/8 Overcast,6500.0,,OVC,6400,,,,,,
KRDR,09-10-2008,07:00,METAR,,140,6,,,9999.0,,11.0,9.0,29.89,1013.2,,,,,,,,,,,,,,,7/8 Mostly Cloudy,7000.0,,BKN,6900,,,,,,
KRDR,09-10-2008,06:00,METAR,,140,7,,,9999.0,,11.0,8.0,29.89,1013.3,,,,,,,,,,,,,,,2/8 Mostly Clear,72000.0,,FEW,12000,,,,,,
KRDR,09-10-2008,05:00,METAR,,150,6,,,9999.0,,11.0,8.0,29.91,1013.8,,,,,,,,,,,,,,,4/8 Partly Cloudy,72000.0,,FEW,7900,SCT,12000.0,,,,
KRDR,09-10-2008,04:00,METAR,,150,9,,,9999.0,,12.0,8.0,29.91,1014.0,,,,,,,,,,,,,,,2/8 Mostly Clear,72000.0,,FEW,7900,FEW,25000.0,,,,
KRDR,09-10-2008,03:00,METAR,,150,9,,,9999.0,,13.0,8.0,29.92,1014.1,,,,,,,,,,,,,,,2/8 Mostly Clear,72000.0,,FEW,20000,,,,,,
KRDR,09-10-2008,02:00,METAR,,140,9,,,9999.0,,14.0,8.0,29.91,1013.9,,,,,,,,,,,,,,,4/8 Partly Cloudy,72000.0,,SCT,25000,,,,,,
KRDR,09-10-2008,01:00,METAR,,140,9,,,9999.0,,16.0,8.0,29.91,1013.8,,,,,,,,,,,,,,,2/8 Mostly Clear,72000.0,,FEW,25000,,,,,,
KRDR,09-10-2008,00:00,METAR,,150,9,,,9999.0,,19.0,7.0,29.92,1014.2,,,,,,,,,,,,,,,4/8 Partly Cloudy,72000.0,,SCT,25000,,,,,,
KRDR,09-09-2008,23:00,METAR,,150,10,,,9999.0,,20.0,7.0,29.93,1014.5,,,,,,,,,,,,,,,7/8 Mostly Cloudy,22000.0,,FEW,7900,BKN,22000.0,,,,
KRDR,09-09-2008,22:00,METAR,,180,14,,,9999.0,,19.0,7.0,29.94,1014.7,,,,,,,,,,,,,,,7/8 Mostly Cloudy,22000.0,,BKN,22000,,,,,,
KRDR,09-09-2008,21:00,METAR,,170,13,,,9999.0,,19.0,7.0,29.95,1015.3,,,,,,,,,,,,,,,7/8 Mostly Cloudy,25000.0,,BKN,25000,,,,,,
KRDR,09-09-2008,20:00,METAR,,170,16,20.0,,9999.0,,20.0,7.0,29.97,1015.8,,,,,,,,,,,,,,,7/8 Mostly Cloudy,25000.0,,BKN,25000,,,,,,
KRDR,09-09-2008,19:00,METAR,,170,13,,,9999.0,,20.0,4.0,29.98,1016.3,,,,,,,,,,,,,,,7/8 Mostly Cloudy,25000.0,,BKN,25000,,,,,,
KRDR,09-09-2008,18:00,METAR,,170,12,16.0,,9999.0,,19.0,6.0,30.00,1017.0,,,,,,,,,,,,,,,7/8 Mostly Cloudy,25000.0,,BKN,25000,,,,,,
KRDR,09-09-2008,17:00,METAR,,190,9,,,9999.0,,18.0,7.0,30.02,1017.5,,,,,,,,,,,,,,,7/8 Mostly Cloudy,25000.0,,BKN,25000,,,,,,
KRDR,09-09-2008,16:00,METAR,,190,8,,,9999.0,,17.0,7.0,30.03,1017.8,,,,,,,,,,,,,,,4/8 Partly Cloudy,72000.0,,SCT,25000,,,,,,
KRDR,09-09-2008,15:00,METAR,,170,7,,,9999.0,,14.0,6.0,30.04,1018.0,,,,,,,,,,,,,,,4/8 Partly Cloudy,72000.0,,SCT,25000,,,,,,
KRDR,09-09-2008,14:00,METAR,,180,7,,,9999.0,,10.0,6.0,30.04,1018.2,,,,,,,,,,,,,,,4/8 Partly Cloudy,72000.0,,SCT,25000,,,,,,
KRDR,09-09-2008,13:00,METAR,,200,6,,,9999.0,,6.0,4.0,30.04,1018.2,,,,,,,,,,,,,,,2/8 Mostly Clear,72000.0,,FEW,9900,FEW,25000.0,,,,
KRDR,09-09-2008,12:00,METAR,,180,4,,,9999.0,,4.0,3.0,30.04,1018.1,,,,,,,,,,,,,,.01 IN,2/8 Mostly Clear,72000.0,,FEW,9900,,,,,,
KRDR,09-09-2008,11:00,METAR,,200,5,,,9999.0,,4.0,3.0,30.04,1018.2,,,,,,,,,,,,,,,8/8 Overcast,9500.0,,OVC,9400,,,,,,
KRDR,09-09-2008,10:00,METAR,,190,7,,,9999.0,,5.0,4.0,30.04,1018.3,,,,,,,,,,,,,,,Clear,72000.0,,,73000,,,,,,
KRDR,09-09-2008,09:00,METAR,,210,5,,,9999.0,,5.0,3.0,30.05,1018.5,,,,,,,,,,,,,,,Clear,72000.0,,,73000,,,,,,
KRDR,09-09-2008,08:00,METAR,,210,6,,,9999.0,,6.0,4.0,30.06,1018.7,,,,,,,,,,,,,,,Clear,72000.0,,,73000,,,,,,
KRDR,09-09-2008,07:00,METAR,,230,7,,,9999.0,,6.0,4.0,30.07,1019.0,,,,,,,,,,,,,,,Clear,72000.0,,,73000,,,,,,
KRDR,09-09-2008,06:00,METAR,,220,6,,,9999.0,,6.0,4.0,30.07,1019.1,,,,,,,,,,,,,,,Clear,72000.0,,,73000,,,,,,
KRDR,09-09-2008,05:00,METAR,,210,6,,,9999.0,,6.0,4.0,30.07,1019.1,,,,,,,,,,,,,,,Clear,72000.0,,,73000,,,,,,
KRDR,09-09-2008,04:00,METAR,,190,6,,,9999.0,,7.0,4.0,30.08,1019.5,,,,,,,,,,,,,,,Clear,72000.0,,,73000,,,,,,
KRDR,09-09-2008,03:00,METAR,,200,7,,,9999.0,,7.0,5.0,30.09,1019.8,,,,,,,,,,,,,,,2/8 Mostly Clear,72000.0,,FEW,9900,,,,,,
KRDR,09-09-2008,02:00,METAR,,240,4,,,9999.0,,9.0,6.0,30.09,1019.8,,,,,,,,,,,,,,,2/8 Mostly Clear,72000.0,,FEW,12000,,,,,,
KRDR,09-09-2008,01:00,METAR,,210,3,,,9999.0,,13.0,6.0,30.08,1019.4,,,,,,,,,,,,,,,4/8 Partly Cloudy,72000.0,,FEW,5900,SCT,12000.0,,,,
KRDR,09-09-2008,00:00,METAR,,210,8,,,9999.0,,16.0,3.0,30.08,1019.5,,,,,,,,,,,,,.01 IN,,7/8 Mostly Cloudy,8500.0,,BKN,8400,,,,,,
KRDR,09-08-2008,23:00,METAR,,260,6,,,9999.0,,16.0,2.0,30.09,1019.7,,,,,,,,,,,,,,,7/8 Mostly Cloudy,15000.0,,SCT,8900,BKN,15000.0,,,,
KRDR,09-08-2008,22:00,METAR,,260,5,,,9999.0,,16.0,2.0,30.10,1020.1,,,,,,,,,,,TRACE,,,,7/8 Mostly Cloudy,12000.0,,FEW,5900,SCT,8900.0,BKN,12000.0,,
KRDR,09-08-2008,21:01,SPECI,,230,3,,,9999.0,,15.0,5.0,30.12,1020.6,,,,,,,,,,,,,,,7/8 Mostly Cloudy,9000.0,,FEW,5000,BKN,8900.0,,,,
KRDR,09-08-2008,21:00,METAR,,,0,,,9999.0,Rain,15.0,6.0,30.12,1020.7,,,,61,,,,,,,.01 IN,.01 IN,,,7/8 Mostly Cloudy,9000.0,,FEW,5000,BKN,8900.0,,,,
KRDR,09-08-2008,20:29,SPECI,,230,3,,,9999.0,Rain,16.0,4.0,30.13,1021.0,,,,61,,,,,,,,,,,7/8 Mostly Cloudy,9000.0,,FEW,5000,BKN,8900.0,BKN,12000.0,,
KRDR,09-08-2008,20:00,METAR,,280,4,,,9999.0,,15.0,4.0,30.13,1021.2,,,,,,,,,,,,,,,7/8 Mostly Cloudy,9000.0,,FEW,5900,BKN,8900.0,,,,
KRDR,09-08-2008,19:00,METAR,,300,7,,,9999.0,,15.0,4.0,30.15,1021.8,,,,,,,,,,,,,,,7/8 Mostly Cloudy,9500.0,,SCT,5000,BKN,9400.0,,,,
KRDR,09-08-2008,18:00,METAR,,300,9,,,9999.0,,14.0,5.0,30.17,1022.5,,,,,,,,,,,,,,,7/8 Mostly Cloudy,10000.0,,SCT,5000,BKN,9900.0,,,,
KRDR,09-08-2008,17:00,METAR,,280,6,,,9999.0,,15.0,5.0,30.18,1022.8,,,,,,,,,,,,,,,7/8 Mostly Cloudy,10000.0,,FEW,4500,BKN,9900.0,,,,
KRDR,09-08-2008,16:00,METAR,,,3,,,9999.0,,12.0,7.0,30.19,1023.0,,,,,,,,,,,,,,,7/8 Mostly Cloudy,9000.0,,BKN,8900,,,,,,
KRDR,09-08-2008,15:00,METAR,,,0,,,9999.0,,10.0,7.0,30.19,1023.2,,,,,,,,,,,,,,,7/8 Mostly Cloudy,9000.0,,BKN,8900,,,,,,
KRDR,09-08-2008,14:00,METAR,,,0,,,9999.0,,8.0,6.0,30.20,1023.4,,,,,,,,,,,,,,,7/8 Mostly Cloudy,9000.0,,BKN,8900,,,,,,
KRDR,09-08-2008,13:00,METAR,,270,3,,,9999.0,,7.0,6.0,30.20,1023.6,,,,,,,,,,,,,,,7/8 Mostly Cloudy,9000.0,,BKN,8900,,,,,,
KRDR,09-08-2008,12:00,METAR,,,0,,,9999.0,,6.0,5.0,30.20,1023.3,,,,,,,,,,,,,,,7/8 Mostly Cloudy,8500.0,,BKN,8400,,,,,,
KRDR,09-08-2008,11:00,METAR,,270,3,,,9999.0,,6.0,5.0,30.19,1023.2,,,,,,,,,,,,,,,8/8 Overcast,8500.0,,OVC,8400,,,,,,
KRDR,09-08-2008,10:00,METAR,,,0,,,9999.0,,5.0,4.0,30.19,1023.0,,,,,,,,,,,,,,,8/8 Overcast,8000.0,,OVC,7900,,,,,,
KRDR,09-08-2008,09:00,METAR,,,0,,,9999.0,,4.0,3.0,30.17,1022.5,,,,,,,,,,,,,,,4/8 Partly Cloudy,72000.0,,SCT,8400,,,,,,
KRDR,09-08-2008,08:00,METAR,,270,6,,,9999.0,,4.0,3.0,30.17,1022.5,,,,,,,,,,,,,,,Clear,72000.0,,,73000,,,,,,
KRDR,09-08-2008,07:00,METAR,,290,5,,,9999.0,,5.0,4.0,30.17,1022.6,,,,,,,,,,,,,,,Clear,72000.0,,,73000,,,,,,
KRDR,09-08-2008,06:00,METAR,,290,6,,,9999.0,,5.0,4.0,30.18,1022.8,,,,,,,,,,,,,,,2/8 Mostly Clear,72000.0,,FEW,8900,,,,,,
KRDR,09-08-2008,05:00,METAR,,290,5,,,9999.0,,6.0,5.0,30.17,1022.6,,,,,,,,,,,,,,,Clear,72000.0,,,73000,,,,,,
KRDR,09-08-2008,04:00,METAR,,290,5,,,9999.0,,7.0,5.0,30.17,1022.3,,,,,,,,,,,,,,,8/8 Overcast,9000.0,,OVC,8900,,,,,,
KRDR,09-08-2008,03:00,METAR,,310,3,,,9999.0,,8.0,6.0,30.16,1022.0,,,,,,,,,,,,,,,Clear,72000.0,,,73000,,,,,,
KRDR,09-08-2008,02:00,METAR,,290,4,,,9999.0,,9.0,6.0,30.14,1021.5,,,,,,,,,,,,,,,7/8 Mostly Cloudy,7000.0,,BKN,6900,,,,,,
KRDR,09-08-2008,01:00,METAR,,,0,,,9999.0,,10.0,6.0,30.12,1020.7,,,,,,,,,,,,,,,Clear,72000.0,,,73000,,,,,,
KRDR,09-08-2008,00:00,METAR,,350,7,,,9999.0,,13.0,6.0,30.10,1020.2,,,,,,,,,,,,,TRACE,,4/8 Partly Cloudy,72000.0,,SCT,6900,,,,,,
KRDR,09-07-2008,23:00,METAR,,10,11,,,9999.0,,15.0,6.0,30.08,1019.6,,,,,,,,,,,,,,,Clear,72000.0,,,73000,,,,,,
KRDR,09-07-2008,22:00,METAR,,360,13,,,9999.0,,16.0,5.0,30.08,1019.4,,,,,,,,,,,,,,,2/8 Mostly Clear,72000.0,,FEW,6400,,,,,,
KRDR,09-07-2008,21:00,METAR,,350,12,20.0,,9999.0,,16.0,5.0,30.07,1019.1,,,,,,,,,,,,TRACE,,,2/8 Mostly Clear,72000.0,,FEW,5900,,,,,,
KRDR,09-07-2008,20:00,METAR,,350,17,23.0,,9999.0,,17.0,6.0,30.06,1018.8,,,,,,,,,,,,,,,4/8 Partly Cloudy,72000.0,,SCT,4800,,,,,,
KRDR,09-07-2008,19:00,METAR,,350,15,21.0,,9999.0,,16.0,4.0,30.06,1018.8,,,,,,,,,,,TRACE,,,,2/8 Mostly Clear,72000.0,,FEW,6900,,,,,,
KRDR,09-07-2008,18:31,SPECI,,340,11,,,9999.0,,15.0,5.0,30.06,1018.9,,,,,,,,,,,,,,,4/8 Partly Cloudy,72000.0,,SCT,6400,,,,,,
KRDR,09-07-2008,18:24,SPECI,,340,12,,,9999.0,,16.0,6.0,30.06,1018.9,,,,,,,,,,,,,,,7/8 Mostly Cloudy,6500.0,,FEW,4500,BKN,6400.0,,,,
KRDR,09-07-2008,18:00,METAR,,330,9,17.0,,9999.0,,14.0,6.0,30.06,1019.0,,,,,,,,,,,,,,,4/8 Partly Cloudy,72000.0,,FEW,3600,SCT,4400.0,SCT,5900.0,,
KRDR,09-07-2008,17:06,SPECI,,320,13,17.0,,9999.0,,15.0,8.0,30.06,1018.9,,,,,,,,,,,,,,,7/8 Mostly Cloudy,3400.0,,FEW,2500,BKN,3500.0,,,,
KRDR,09-07-2008,17:02,SPECI,,330,10,17.0,,9999.0,,15.0,8.0,30.06,1018.9,,,,,,,,,,,,,,,7/8 Mostly Cloudy,2900.0,,FEW,2500,BKN,2900.0,BKN,3900.0,,
KRDR,09-07-2008,17:00,METAR,,310,11,,,9999.0,,14.0,8.0,30.07,1019.0,,,,,,,,,,,,,,,7/8 Mostly Cloudy,4000.0,,SCT,2700,BKN,4100.0,,,,
KRDR,09-07-2008,16:00,METAR,,350,10,,,9999.0,,14.0,8.0,30.05,1018.6,,,,,,,,,,,,,,,4/8 Partly Cloudy,72000.0,,SCT,2900,,,,,,
KRDR,09-07-2008,15:00,METAR,,310,9,,,9999.0,,12.0,8.0,30.04,1018.2,,,,,,,,,,,,,,,Clear,72000.0,,,73000,,,,,,
KRDR,09-07-2008,14:00,METAR,,330,8,,,9999.0,,11.0,8.0,30.03,1018.0,,,,,,,,,,,,,,,4/8 Partly Cloudy,72000.0,,SCT,6900,,,,,,
KRDR,09-07-2008,13:00,METAR,,310,5,,,9999.0,,9.0,8.0,30.02,1017.6,,,,,,,,,,,,,,,8/8 Overcast,7000.0,,FEW,4600,OVC,6900.0,,,,
KRDR,09-07-2008,12:00,METAR,,320,6,,,9999.0,,9.0,8.0,30.00,1017.0,,,,,,,,,,,,,,,8/8 Overcast,7000.0,,OVC,6900,,,,,,
KRDR,09-07-2008,11:00,METAR,,310,5,,,9999.0,,9.0,7.0,29.99,1016.5,,,,,,,,,,,,,,,8/8 Overcast,6000.0,,OVC,5900,,,,,,
KRDR,09-07-2008,10:00,METAR,,320,6,,,9999.0,,8.0,7.0,29.98,1016.1,,,,,,,,,,,,,,,4/8 Partly Cloudy,72000.0,,SCT,1700,,,,,,
KRDR,09-07-2008,09:49,SPECI,,310,7,,,9999.0,,8.0,7.0,29.98,1016.1,,,,,,,,,,,,,,,4/8 Partly Cloudy,1100.0,,SCT,1400,,,,,,
KRDR,09-07-2008,09:37,SPECI,,320,7,,,9999.0,,8.0,8.0,29.97,1016.0,,,,,,,,,,,,,,,7/8 Mostly Cloudy,1200.0,,BKN,1200,,,,,,
KRDR,09-07-2008,09:31,SPECI,,320,6,,,9999.0,,8.0,7.0,29.97,1015.9,,,,,,,,,,,,,,,7/8 Mostly Cloudy,1100.0,,BKN,1100,,,,,,
KRDR,09-07-2008,09:23,SPECI,,320,7,,,9999.0,,7.0,7.0,29.97,1015.9,,,,,,,,,,,,,,,7/8 Mostly Cloudy,1200.0,,BKN,1200,,,,,,
KRDR,09-07-2008,09:00,METAR,,310,6,,,9999.0,,7.0,7.0,29.96,1015.6,,,,,,,,,,,,,,,Clear,72000.0,,,73000,,,,,,
KRDR,09-07-2008,08:00,METAR,,320,8,,,9999.0,,8.0,7.0,29.95,1015.3,,,,,,,,,,,,,,,Clear,72000.0,,,73000,,,,,,
KRDR,09-07-2008,07:00,METAR,,290,7,,,9999.0,,8.0,7.0,29.95,1015.2,,,,,,,,,,,,,,,Clear,72000.0,,,73000,,,,,,
KRDR,09-07-2008,06:00,METAR,,300,6,,,9999.0,,9.0,8.0,29.95,1015.3,,,,,,,,,,,,,TRACE,,2/8 Mostly Clear,72000.0,,FEW,5900,,,,,,
KRDR,09-07-2008,05:00,METAR,,280,7,,,9999.0,,10.0,8.0,29.95,1015.1,,,,,,,,,,,,,,,Clear,72000.0,,,73000,,,,,,
KRDR,09-07-2008,04:00,METAR,,290,5,,,9999.0,,10.0,8.0,29.95,1015.1,,,,,,,,,,,,,,,2/8 Mostly Clear,72000.0,,FEW,6400,,,,,,
KRDR,09-07-2008,03:00,METAR,,270,5,,,9999.0,,11.0,10.0,29.95,1015.1,,,,,,,,,,,TRACE,TRACE,,,7/8 Mostly Cloudy,9000.0,,FEW,6900,BKN,8900.0,,,,
KRDR,09-07-2008,02:04,SPECI,,300,4,,,9999.0,,11.0,9.0,29.94,1015.0,,,,,,,,,,,,,,,Clear,72000.0,,,73000,,,,,,
KRDR,09-07-2008,02:00,METAR,,330,5,,,9999.0,Light Rain,12.0,10.0,29.94,1015.0,61,,,,,,,,,,TRACE,,,,2/8 Mostly Clear,72000.0,,FEW,5900,,,,,,
KRDR,09-07-2008,01:00,METAR,,310,14,24.0,,9999.0,Rain,14.0,9.0,29.94,1014.8,,,,61,,,,,,,TRACE,,,,7/8 Mostly Cloudy,8000.0,,FEW,5000,BKN,7900.0,,,,
KRDR,09-07-2008,00:00,METAR,,360,4,,,9999.0,,16.0,10.0,29.91,1014.0,,,,,,,,,,,,,TRACE,,4/8 Partly Cloudy,72000.0,,SCT,8400,,,,,,
KRDR,09-06-2008,23:00,METAR,,320,13,18.0,,9999.0,,20.0,6.0,29.90,1013.6,,,,,,,,,,,,,,,7/8 Mostly Cloudy,7000.0,,BKN,6900,,,,,,
KRDR,09-06-2008,22:00,METAR,,280,6,,,9999.0,,20.0,6.0,29.90,1013.6,,,,,,,,,,,,,,,2/8 Mostly Clear,72000.0,,FEW,6900,,,,,,
KRDR,09-06-2008,21:00,METAR,,280,7,,,9999.0,,20.0,7.0,29.91,1014.0,,,,,,,,,,,,TRACE,,,2/8 Mostly Clear,72000.0,,FEW,9900,,,,,,
KRDR,09-06-2008,20:00,METAR,,,4,,,9999.0,,20.0,7.0,29.93,1014.5,,,,,,,,,,,TRACE,,,,4/8 Partly Cloudy,72000.0,,SCT,7900,,,,,,
KRDR,09-06-2008,19:00,METAR,,,0,,,9999.0,,18.0,7.0,29.94,1015.0,,,,,,,,,,,TRACE,,,,2/8 Mostly Clear,72000.0,,FEW,9400,,,,,,
KRDR,09-06-2008,18:46,SPECI,,280,4,,,9999.0,,18.0,8.0,29.94,1015.0,,,,,,,,,,,,,,,4/8 Partly Cloudy,72000.0,,SCT,8900,,,,,,
KRDR,09-06-2008,18:00,METAR,,,3,,,9999.0,,19.0,7.0,29.95,1015.3,,,,,,,,,,,,,,,Clear,72000.0,,,73000,,,,,,
KRDR,09-06-2008,17:00,METAR,,350,5,,,9999.0,,17.0,7.0,29.95,1015.5,,,,,,,,,,,,,,,4/8 Partly Cloudy,72000.0,,FEW,3500,SCT,22000.0,,,,
KRDR,09-06-2008,16:00,METAR,,20,4,,,9999.0,,15.0,8.0,29.94,1015.3,,,,,,,,,,,,,,,2/8 Mostly Clear,72000.0,,FEW,22000,,,,,,
KRDR,09-06-2008,15:00,METAR,,340,4,,,9999.0,,13.0,9.0,29.94,1015.1,,,,,,,,,,,,,,,2/8 Mostly Clear,72000.0,,FEW,22000,,,,,,
KRDR,09-06-2008,14:00,METAR,,300,4,,,9999.0,,11.0,9.0,29.95,1015.1,,,,,,,,,,,,,,,Clear,72000.0,,,73000,,,,,,
KRDR,09-06-2008,13:00,METAR,,290,4,,,9999.0,,7.0,7.0,29.94,1014.9,,,,,,,,,,,,,,,Clear,72000.0,,,73000,,,,,,
KRDR,09-06-2008,12:00,METAR,,230,3,,,9999.0,,6.0,5.0,29.93,1014.5,,,,,,,,,,,,,,.02 IN,4/8 Partly Cloudy,72000.0,,SCT,5900,,,,,,
KRDR,09-06-2008,11:00,METAR,,,0,,,9999.0,,7.0,6.0,29.92,1014.2,,,,,,,,,,,,,,,Clear,72000.0,,,73000,,,,,,
KRDR,09-06-2008,10:00,METAR,,280,6,,,9999.0,,7.0,6.0,29.92,1014.0,,,,,,,,,,,,,,,Clear,72000.0,,,73000,,,,,,
KRDR,09-06-2008,09:00,METAR,,250,5,,,9999.0,,7.0,6.0,29.91,1014.0,,,,,,,,,,,,,,,Clear,72000.0,,,73000,,,,,,
KRDR,09-06-2008,08:00,METAR,,220,4,,,9999.0,,7.0,7.0,29.92,1014.1,,,,,,,,,,,,,,,Clear,72000.0,,,73000,,,,,,
KRDR,09-06-2008,07:00,METAR,,230,4,,,9999.0,,8.0,8.0,29.93,1014.6,,,,,,,,,,,,,,,2/8 Mostly Clear,72000.0,,FEW,5400,,,,,,
KRDR,09-06-2008,06:00,METAR,,210,4,,,9999.0,,11.0,9.0,29.94,1014.8,,,,,,,,,,,,,,,8/8 Overcast,8500.0,,OVC,8400,,,,,,
KRDR,09-06-2008,05:00,METAR,,230,4,,,9999.0,,10.0,9.0,29.95,1015.1,,,,,,,,,,,,,,,7/8 Mostly Cloudy,8500.0,,BKN,8400,,,,,,
KRDR,09-06-2008,04:00,METAR,,210,4,,,9999.0,,11.0,9.0,29.95,1015.2,,,,,,,,,,,,,,,7/8 Mostly Cloudy,8000.0,,BKN,7900,,,,,,
KRDR,09-06-2008,03:00,METAR,,190,4,,,9999.0,,11.0,10.0,29.95,1015.3,,,,,,,,,,,,,,,8/8 Overcast,8000.0,,OVC,7900,,,,,,
KRDR,09-06-2008,02:00,METAR,,190,3,,,9999.0,,11.0,9.0,29.95,1015.2,,,,,,,,,,,,,,,4/8 Partly Cloudy,72000.0,,SCT,7900,,,,,,
KRDR,09-06-2008,01:00,METAR,,,0,,,9999.0,,15.0,9.0,29.94,1015.0,,,,,,,,,,,,,,,7/8 Mostly Cloudy,7500.0,,FEW,4000,BKN,7400.0,,,,
KRDR,09-06-2008,00:00,METAR,,,0,,,9999.0,,15.0,9.0,29.94,1014.9,,,,,,,,,,,,,,,7/8 Mostly Cloudy,7000.0,,BKN,6900,,,,,,
KRDR,09-05-2008,23:00,METAR,,,0,,,9999.0,,15.0,9.0,29.93,1014.7,,,,,,,,,,,,,,,7/8 Mostly Cloudy,7000.0,,BKN,6900,BKN,15000.0,,,,
KRDR,09-05-2008,22:00,METAR,,350,5,,,9999.0,,16.0,9.0,29.94,1014.8,,,,,,,,,,,,,,,7/8 Mostly Cloudy,15000.0,,FEW,3500,SCT,6400.0,BKN,15000.0,,
KRDR,09-05-2008,21:00,METAR,,10,5,,,9999.0,,15.0,10.0,29.95,1015.0,,,,,,,,,,,,,,,7/8 Mostly Cloudy,3300.0,,SCT,2300,BKN,3400.0,BKN,5900.0,,
KRDR,09-05-2008,20:00,METAR,,30,8,,,9999.0,,14.0,10.0,29.95,1015.2,,,,,,,,,,,,,,,7/8 Mostly Cloudy,2200.0,,BKN,2200,BKN,3600.0,,,,
KRDR,09-05-2008,19:00,METAR,,340,9,,,9999.0,,14.0,10.0,29.94,1015.3,,,,,,,,,,,,,,,8/8 Overcast,1500.0,,BKN,1500,BKN,2300.0,OVC,3900.0,,
KRDR,09-05-2008,18:00,METAR,,350,11,,,9999.0,,13.0,10.0,29.95,1015.5,,,,,,,,,,,,,.02 IN,,8/8 Overcast,1800.0,,SCT,1000,BKN,1800.0,OVC,2900.0,,
KRDR,09-05-2008,17:32,SPECI,,340,10,,,9999.0,,13.0,11.0,29.96,1015.5,,,,,,,,,,,,,,,8/8 Overcast,1600.0,,SCT,900,BKN,1600.0,OVC,5100.0,,
KRDR,09-05-2008,17:00,METAR,,330,8,,,9999.0,,12.0,10.0,29.95,1015.4,,,,,,,,,,,TRACE,,,,8/8 Overcast,900.0,,BKN,900,BKN,1400.0,OVC,3200.0,,
KRDR,09-05-2008,16:21,SPECI,,360,10,,,9999.0,,12.0,11.0,29.95,1015.3,,,,,,,,,,,,,,,8/8 Overcast,800.0,,BKN,800,BKN,1900.0,OVC,3100.0,,
KRDR,09-05-2008,16:00,METAR,,350,12,,,9999.0,Rain,12.0,11.0,29.94,1015.1,,,,61,,,,,,,.01 IN,,,,8/8 Overcast,900.0,,BKN,900,BKN,1200.0,OVC,3400.0,,
KRDR,09-05-2008,15:00,METAR,,340,9,,,8000.0,Drizzle,11.0,10.0,29.93,1014.8,,,,51,,,,,,,TRACE,.01 IN,,,8/8 Overcast,700.0,,SCT,500,BKN,700.0,OVC,1000.0,,
KRDR,09-05-2008,14:47,SPECI,,340,8,,,4800.0,Drizzle,11.0,10.0,29.94,1014.7,,,,51,,,,,,,,,,,8/8 Overcast,700.0,,BKN,700,OVC,1000.0,,,,
KRDR,09-05-2008,14:34,SPECI,,340,10,,,9999.0,Rain,11.0,10.0,29.93,1014.7,,,,61,,,,,,,,,,,8/8 Overcast,900.0,,SCT,700,BKN,900.0,OVC,1100.0,,
KRDR,09-05-2008,14:21,SPECI,,340,7,,,9999.0,,11.0,10.0,29.92,1014.6,,,,,,,,,,,,,,,8/8 Overcast,700.0,,BKN,700,BKN,1000.0,OVC,4000.0,,
KRDR,09-05-2008,14:00,METAR,,350,8,,,9999.0,,11.0,10.0,29.93,1014.6,,,,,,,,,,,,,,,8/8 Overcast,600.0,,BKN,600,OVC,2000.0,,,,
KRDR,09-05-2008,13:26,SPECI,,350,9,,,9999.0,,11.0,10.0,29.93,1014.4,,,,,,,,,,,,,,,8/8 Overcast,600.0,,OVC,600,,,,,,
KRDR,09-05-2008,13:14,SPECI,,350,8,,,9999.0,,11.0,10.0,29.92,1014.4,,,,,,,,,,,,,,,8/8 Overcast,700.0,,BKN,700,OVC,1200.0,,,,
KRDR,09-05-2008,13:00,METAR,,350,10,,,9999.0,,11.0,10.0,29.92,1014.1,,,,,,,,,,,.01 IN,,,,8/8 Overcast,700.0,,SCT,700,OVC,1200.0,,,,
KRDR,09-05-2008,12:57,METAR,,350,10,,,9999.0,,11.0,10.0,29.92,1014.1,,,,,,,,,,,.01 IN,,,,8/8 Overcast,700.0,,SCT,700,OVC,1200.0,,,,
KRDR,09-05-2008,12:31,SPECI,,340,8,,,9999.0,Drizzle,10.0,10.0,29.91,1014.0,,,,51,,,,,,,,,,,8/8 Overcast,700.0,,BKN,700,OVC,1100.0,,,,
KRDR,09-05-2008,12:26,SPECI,,340,9,,,9999.0,Drizzle,10.0,10.0,29.91,1014.0,,,,51,,,,,,,,,,,8/8 Overcast,1100.0,,FEW,600,SCT,900.0,OVC,1100.0,,
KRDR,09-05-2008,12:21,SPECI,,340,8,,,9999.0,Drizzle,10.0,10.0,29.91,1013.9,,,,51,,,,,,,,,,,8/8 Overcast,900.0,,SCT,500,BKN,900.0,OVC,2200.0,,
KRDR,09-05-2008,12:00,METAR,,350,9,,,9999.0,Rain,10.0,10.0,29.90,1013.5,,,,61,,,,,,,.02 IN,,.07 IN,.6 IN,8/8 Overcast,1700.0,,SCT,600,BKN,1700.0,OVC,5300.0,,
KRDR,09-05-2008,11:36,SPECI,,350,7,,,9999.0,Rain,10.0,10.0,29.90,1013.4,,,,61,,,,,,,,,,,8/8 Overcast,2000.0,,FEW,600,OVC,2000.0,,,,
KRDR,09-05-2008,11:00,METAR,,340,8,,,9999.0,Rain,10.0,10.0,29.89,1013.3,,,,61,,,,,,,.02 IN,,,,8/8 Overcast,2000.0,,OVC,2000,,,,,,
KRDR,09-05-2008,10:30,SPECI,,350,7,,,9999.0,Rain,10.0,10.0,29.89,1013.2,,,,61,,,,,,,,,,,8/8 Overcast,2000.0,,BKN,2000,OVC,4200.0,,,,
KRDR,09-05-2008,10:06,SPECI,,340,7,,,9999.0,Drizzle,10.0,10.0,29.89,1013.2,,,,51,,,,,,,,,,,8/8 Overcast,3100.0,,OVC,3100,,,,,,
KRDR,09-05-2008,10:00,METAR,,350,6,,,9999.0,,10.0,10.0,29.89,1013.2,,,,,,,,,,,.01 IN,,,,8/8 Overcast,2000.0,,OVC,2000,,,,,,
KRDR,09-05-2008,09:07,SPECI,,340,9,,,9999.0,Light Rain,10.0,10.0,29.88,1013.0,61,,,,,,,,,,,,,,8/8 Overcast,2500.0,,FEW,1000,SCT,1500.0,OVC,2500.0,,
KRDR,09-05-2008,09:00,METAR,,360,8,,,9999.0,Light Rain/Mist,10.0,10.0,29.88,1013.0,61,10,,,,,,,,,.01 IN,.02 IN,,,7/8 Mostly Cloudy,2400.0,,BKN,2400,,,,,,
KRDR,09-05-2008,08:53,SPECI,,360,8,,,9999.0,Light Rain/Mist,10.0,10.0,29.88,1013.0,61,10,,,,,,,,,,,,,7/8 Mostly Cloudy,2700.0,,FEW,1000,BKN,2700.0,,,,
KRDR,09-05-2008,08:42,SPECI,,360,8,,,9999.0,Light Rain,10.0,10.0,29.88,1013.0,61,,,,,,,,,,,,,,7/8 Mostly Cloudy,2000.0,,FEW,1000,BKN,2000.0,,,,
KRDR,09-05-2008,08:35,SPECI,,10,8,,,9999.0,Light Rain,10.0,10.0,29.88,1013.0,61,,,,,,,,,,,,,,7/8 Mostly Cloudy,2400.0,,BKN,2400,,,,,,
KRDR,09-05-2008,08:16,SPECI,,10,9,,,9999.0,Light Drizzle,10.0,10.0,29.88,1013.0,51,,,,,,,,,,,,,,8/8 Overcast,2600.0,,FEW,500,OVC,2600.0,,,,
KRDR,09-05-2008,08:00,METAR,,20,9,,,9999.0,,10.0,9.0,29.88,1013.0,,,,,,,,,,,TRACE,,,,8/8 Overcast,2500.0,,OVC,2500,,,,,,
KRDR,09-05-2008,07:40,SPECI,,20,9,,,9999.0,,10.0,9.0,29.89,1013.1,,,,,,,,,,,,,,,8/8 Overcast,2700.0,,OVC,2700,,,,,,
KRDR,09-05-2008,07:31,SPECI,,20,7,,,9999.0,Light Drizzle,10.0,9.0,29.89,1013.1,51,,,,,,,,,,,,,,8/8 Overcast,2600.0,,OVC,2600,,,,,,
KRDR,09-05-2008,07:09,SPECI,,30,9,,,9999.0,,10.0,9.0,29.89,1013.2,,,,,,,,,,,,,,,8/8 Overcast,2900.0,,OVC,2900,,,,,,
KRDR,09-05-2008,07:00,METAR,,30,8,,,9999.0,,10.0,9.0,29.89,1013.3,,,,,,,,,,,.01 IN,,,,8/8 Overcast,3100.0,,OVC,3200,,,,,,
KRDR,09-05-2008,06:18,SPECI,,40,9,,,9999.0,,10.0,9.0,29.89,1013.2,,,,,,,,,,,,,,,7/8 Mostly Cloudy,3200.0,,BKN,3300,,,,,,
KRDR,09-05-2008,06:00,METAR,,40,8,,,9999.0,Rain,10.0,10.0,29.89,1013.3,,,,61,,,,,,,.03 IN,,.31 IN,,8/8 Overcast,3200.0,,OVC,3300,,,,,,
KRDR,09-05-2008,05:00,METAR,,30,6,,,9999.0,Rain,11.0,10.0,29.90,1013.5,,,,61,,,,,,,.08 IN,,,,8/8 Overcast,3600.0,,OVC,3700,,,,,,
KRDR,09-05-2008,04:00,METAR,,50,7,,,9999.0,Rain,11.0,10.0,29.91,1013.9,,,,61,,,,,,,.09 IN,,,,8/8 Overcast,3700.0,,OVC,3800,,,,,,
KRDR,09-05-2008,03:00,METAR,,40,8,,,9999.0,Rain,11.0,10.0,29.91,1014.0,,,,61,,,,,,,.02 IN,.11 IN,,,8/8 Overcast,4900.0,,OVC,5000,,,,,,
KRDR,09-05-2008,02:00,METAR,,30,8,,,9999.0,Rain,11.0,10.0,29.91,1014.0,,,,61,,,,,,,.03 IN,,,,8/8 Overcast,4900.0,,OVC,5000,,,,,,
KRDR,09-05-2008,01:00,METAR,,40,8,,,9999.0,Rain,11.0,10.0,29.91,1013.9,,,,61,,,,,,,.06 IN,,,,8/8 Overcast,4900.0,,OVC,5000,,,,,,
KRDR,09-05-2008,00:00,METAR,,,0,,,8000.0,Rain/Mist,11.0,10.0,29.94,1014.7,,,,61,10,,,,,,.08 IN,,.2 IN,,8/8 Overcast,6000.0,,OVC,5900,,,,,,
KRDR,09-04-2008,23:00,METAR,,,0,,,6400.0,Rain,12.0,9.0,29.93,1014.4,,,,61,,,,,,,.1 IN,,,,8/8 Overcast,20000.0,,SCT,5400,OVC,20000.0,,,,
KRDR,09-04-2008,22:00,METAR,,120,4,,,9999.0,Rain,13.0,10.0,29.95,1015.2,,,,61,,,,,,,TRACE,,,,8/8 Overcast,5500.0,,BKN,5400,OVC,20000.0,,,,
KRDR,09-04-2008,21:46,SPECI,,100,3,,,9999.0,Rain,13.0,10.0,29.95,,,,,61,,,,,,,,,,,8/8 Overcast,5500.0,,BKN,5400,OVC,20000.0,,,,
KRDR,09-04-2008,21:00,METAR,,110,3,,,9999.0,,14.0,9.0,29.95,1015.2,,,,,,,,,,,TRACE,.13 IN,,,8/8 Overcast,20000.0,,SCT,5900,OVC,20000.0,,,,
KRDR,09-04-2008,20:00,METAR,,170,5,,,9999.0,Rain,14.0,10.0,29.98,1016.0,,,,61,,,,,,,.01 IN,,,,8/8 Overcast,20000.0,,FEW,1600,SCT,5900.0,OVC,20000.0,,
KRDR,09-04-2008,19:08,SPECI,,,4,,,9999.0,Rain,14.0,10.0,29.99,1016.5,,,,61,,,,,,,,,,,8/8 Overcast,20000.0,,FEW,1000,SCT,5900.0,OVC,20000.0,,
KRDR,09-04-2008,19:00,METAR,,,3,,,9999.0,Rain,13.0,10.0,29.99,1016.5,,,,61,,,,,,,.01 IN,,,,8/8 Overcast,4900.0,,FEW,1000,BKN,5000.0,OVC,20000.0,,
KRDR,09-04-2008,18:00,METAR,,220,3,,,9999.0,Light Rain Showers,13.0,10.0,30.01,1017.2,,,,80,,,,,,,.02 IN,,.02 IN,,8/8 Overcast,6500.0,,FEW,2000,BKN,6400.0,OVC,20000.0,,
KRDR,09-04-2008,17:17,SPECI,,210,5,,,9999.0,Light Rain Showers,13.0,10.0,30.02,,,,,80,,,,,,,,,,,8/8 Overcast,6500.0,,FEW,1500,BKN,6400.0,OVC,20000.0,,
KRDR,09-04-2008,17:03,SPECI,,210,3,,,9999.0,,13.0,10.0,30.03,,,,,,,,,,,,,,,,8/8 Overcast,4900.0,,FEW,1600,SCT,4000.0,BKN,5000.0,OVC,20000.0
KRDR,09-04-2008,17:00,METAR,,230,6,,,9999.0,Light Rain Showers,13.0,10.0,30.03,1017.7,,,,80,,,,,,,TRACE,,,,8/8 Overcast,4900.0,,FEW,1600,SCT,3900.0,BKN,5000.0,OVC,20000.0
KRDR,09-04-2008,16:14,SPECI,,160,5,,,9999.0,Light Rain Showers,13.0,9.0,30.03,,,,,80,,,,,,,,,,,8/8 Overcast,4900.0,,FEW,1600,BKN,5000.0,BKN,7900.0,OVC,20000.0
KRDR,09-04-2008,16:00,METAR,,180,5,,,9999.0,,12.0,9.0,30.03,1017.9,,,,,,,,,,,,,,,8/8 Overcast,20000.0,,SCT,7900,OVC,20000.0,,,,
KRDR,09-04-2008,15:00,METAR,,130,4,,,9999.0,,11.0,9.0,30.04,1018.1,,,,,,,,,,,,,,,8/8 Overcast,20000.0,,SCT,7900,OVC,20000.0,,,,
KRDR,09-04-2008,14:00,METAR,,120,3,,,9999.0,,9.0,8.0,30.06,1018.7,,,,,,,,,,,,,,,7/8 Mostly Cloudy,20000.0,,SCT,6900,BKN,20000.0,,,,
KRDR,09-04-2008,13:00,METAR,,100,2,,,9999.0,,9.0,7.0,30.07,1019.1,,,,,,,,,,,,,,,7/8 Mostly Cloudy,8000.0,,BKN,7900,BKN,20000.0,,,,
KRDR,09-04-2008,12:00,METAR,,170,3,,,9999.0,,7.0,6.0,30.07,1019.3,,,,,,,,,,,,,,,7/8 Mostly Cloudy,7500.0,,BKN,7400,BKN,20000.0,,,,
KRDR,09-04-2008,11:00,METAR,,120,2,,,9999.0,,6.0,6.0,30.08,1019.6,,,,,,,,,,,,,,,4/8 Partly Cloudy,72000.0,,SCT,6400,,,,,,
KRDR,09-04-2008,10:00,METAR,,,0,,,9999.0,,7.0,6.0,30.10,1020.0,,,,,,,,,,,,,,,Clear,72000.0,,,73000,,,,,,
KRDR,09-04-2008,09:00,METAR,,,0,,,9999.0,,7.0,6.0,30.10,1020.3,,,,,,,,,,,,,,,Clear,72000.0,,,73000,,,,,,
KRDR,09-04-2008,08:00,METAR,,,0,,,9999.0,,6.0,5.0,30.12,1020.7,,,,,,,,,,,,,,,Clear,72000.0,,,73000,,,,,,
KRDR,09-04-2008,07:00,METAR,,,0,,,9999.0,,8.0,6.0,30.14,1021.3,,,,,,,,,,,,,,,Clear,72000.0,,,73000,,,,,,
KRDR,09-04-2008,06:00,METAR,,210,3,,,9999.0,,8.0,7.0,30.14,1021.4,,,,,,,,,,,,,,,Clear,72000.0,,,73000,,,,,,
KRDR,09-04-2008,05:00,METAR,,200,3,,,9999.0,,9.0,7.0,30.14,1021.4,,,,,,,,,,,,,,,Clear,72000.0,,,73000,,,,,,
KRDR,09-04-2008,04:00,METAR,,190,4,,,9999.0,,8.0,6.0,30.14,1021.4,,,,,,,,,,,,,,,2/8 Mostly Clear,72000.0,,FEW,25000,,,,,,
KRDR,09-04-2008,03:00,METAR,,180,4,,,9999.0,,10.0,7.0,30.15,1021.7,,,,,,,,,,,,,,,2/8 Mostly Clear,72000.0,,FEW,25000,,,,,,
KRDR,09-04-2008,02:00,METAR,,150,6,,,9999.0,,13.0,8.0,30.14,1021.5,,,,,,,,,,,,,,,2/8 Mostly Clear,72000.0,,FEW,25000,,,,,,
KRDR,09-04-2008,01:00,METAR,,150,5,,,9999.0,,15.0,7.0,30.14,1021.3,,,,,,,,,,,,,,,2/8 Mostly Clear,72000.0,,FEW,5000,,,,,,
KRDR,09-04-2008,00:00,METAR,,170,7,,,9999.0,,18.0,7.0,30.15,1021.7,,,,,,,,,,,,,,,2/8 Mostly Clear,72000.0,,FEW,5000,,,,,,
KRDR,09-03-2008,23:00,METAR,,180,8,,,9999.0,,19.0,7.0,30.16,1022.0,,,,,,,,,,,,,,,4/8 Partly Cloudy,72000.0,,SCT,5000,,,,,,
KRDR,09-03-2008,22:00,METAR,,140,7,,,9999.0,,17.0,7.0,30.16,1022.1,,,,,,,,,,,,,,,4/8 Partly Cloudy,72000.0,,SCT,5400,,,,,,
KRDR,09-03-2008,21:00,METAR,,150,4,,,9999.0,,19.0,6.0,30.18,1022.7,,,,,,,,,,,,,,,4/8 Partly Cloudy,72000.0,,SCT,5400,,,,,,
KRDR,09-03-2008,20:00,METAR,,,0,,,9999.0,,18.0,7.0,30.19,1023.1,,,,,,,,,,,,,,,4/8 Partly Cloudy,72000.0,,SCT,4500,,,,,,
KRDR,09-03-2008,19:00,METAR,,,0,,,9999.0,,19.0,7.0,30.21,1023.6,,,,,,,,,,,,,,,4/8 Partly Cloudy,72000.0,,SCT,4600,,,,,,
KRDR,09-03-2008,18:00,METAR,,200,3,,,9999.0,,18.0,8.0,30.23,1024.3,,,,,,,,,,,,,,,4/8 Partly Cloudy,72000.0,,SCT,4600,,,,,,
KRDR,09-03-2008,17:00,METAR,,,0,,,9999.0,,17.0,8.0,30.24,1024.7,,,,,,,,,,,,,,,2/8 Mostly Clear,72000.0,,FEW,5000,,,,,,
KRDR,09-03-2008,16:00,METAR,,190,3,,,9999.0,,16.0,9.0,30.24,1024.8,,,,,,,,,,,,,,,2/8 Mostly Clear,72000.0,,FEW,4000,,,,,,
KRDR,09-03-2008,15:00,METAR,,280,5,,,9999.0,,14.0,8.0,30.24,1024.7,,,,,,,,,,,,,,,Clear,72000.0,,,73000,,,,,,
KRDR,09-03-2008,14:00,METAR,,280,6,,,9999.0,,11.0,8.0,30.24,1024.8,,,,,,,,,,,,,,,Clear,72000.0,,,73000,,,,,,
KRDR,09-03-2008,13:00,METAR,,230,3,,,9999.0,,7.0,6.0,30.24,1024.6,,,,,,,,,,,,,,,Clear,72000.0,,,73000,,,,,,
KRDR,09-03-2008,12:00,METAR,,190,6,,,9999.0,,4.0,3.0,30.23,1024.3,,,,,,,,,,,,,,,Clear,72000.0,,,73000,,,,,,
KRDR,09-03-2008,11:00,METAR,,230,3,,,9999.0,,5.0,4.0,30.23,1024.3,,,,,,,,,,,,,,,Clear,72000.0,,,73000,,,,,,
KRDR,09-03-2008,10:00,METAR,,270,3,,,9999.0,,5.0,5.0,30.22,1023.9,,,,,,,,,,,,,,,Clear,72000.0,,,73000,,,,,,
KRDR,09-03-2008,09:00,METAR,,240,4,,,9999.0,,5.0,4.0,30.21,1023.8,,,,,,,,,,,,,,,Clear,72000.0,,,73000,,,,,,
KRDR,09-03-2008,08:00,METAR,,,0,,,9999.0,,7.0,5.0,30.21,1023.6,,,,,,,,,,,,,,,Clear,72000.0,,,73000,,,,,,
KRDR,09-03-2008,07:00,METAR,,290,5,,,9999.0,,7.0,6.0,30.20,1023.5,,,,,,,,,,,,,,,Clear,72000.0,,,73000,,,,,,
KRDR,09-03-2008,06:00,METAR,,280,4,,,9999.0,,6.0,5.0,30.19,1023.2,,,,,,,,,,,,,,,Clear,72000.0,,,73000,,,,,,
KRDR,09-03-2008,05:00,METAR,,290,6,,,9999.0,,8.0,6.0,30.18,1022.9,,,,,,,,,,,,,,,Clear,72000.0,,,73000,,,,,,
KRDR,09-03-2008,04:00,METAR,,280,6,,,9999.0,,8.0,6.0,30.18,1022.6,,,,,,,,,,,,,,,4/8 Partly Cloudy,72000.0,,SCT,3600,,,,,,
KRDR,09-03-2008,03:00,METAR,,300,9,,,9999.0,,10.0,6.0,30.15,1022.2,,,,,,,,,,,,,,,7/8 Mostly Cloudy,3500.0,,BKN,3600,,,,,,
KRDR,09-03-2008,02:00,METAR,,300,12,,,9999.0,,11.0,6.0,30.14,1021.7,,,,,,,,,,,,,,,7/8 Mostly Cloudy,3800.0,,FEW,3600,BKN,3900.0,,,,
KRDR,09-03-2008,01:00,METAR,,320,13,19.0,,9999.0,,12.0,7.0,30.11,1020.6,,,,,,,,,,,,,,,7/8 Mostly Cloudy,4500.0,,FEW,2500,BKN,4600.0,,,,
KRDR,09-03-2008,00:00,METAR,,300,11,20.0,,9999.0,,13.0,8.0,30.08,1019.6,,,,,,,,,,,,,TRACE,,7/8 Mostly Cloudy,4800.0,,FEW,2500,SCT,3000.0,BKN,4900.0,,
KRDR,09-02-2008,23:00,METAR,,310,17,22.0,320/26KTS,9999.0,,14.0,8.0,30.06,1018.9,,,,,,,,,,,,,,,7/8 Mostly Cloudy,3100.0,,SCT,2600,BKN,3200.0,BKN,4400.0,,
KRDR,09-02-2008,22:00,METAR,,310,18,26.0,320/29KTS,9999.0,,14.0,9.0,30.04,1018.0,,,,,,,,,,,TRACE,,,,7/8 Mostly Cloudy,4500.0,,SCT,3700,BKN,4600.0,,,,
KRDR,09-02-2008,21:16,SPECI,,310,18,24.0,320/29KTS,9999.0,,13.0,10.0,30.02,1017.4,,,,,,,,,,,,,,,7/8 Mostly Cloudy,3600.0,,SCT,2300,BKN,3700.0,BKN,5000.0,,
KRDR,09-02-2008,21:01,SPECI,,310,19,29.0,320/29KTS,8000.0,Rain,15.0,9.0,30.02,1017.4,,,,61,,,,,,,,,,,7/8 Mostly Cloudy,3100.0,,SCT,2200,BKN,3100.0,BKN,5000.0,,
KRDR,09-02-2008,21:00,METAR,,300,19,24.0,,9999.0,,16.0,10.0,30.00,1016.8,,,,,,,,,,,TRACE,TRACE,,,7/8 Mostly Cloudy,3000.0,,SCT,2600,BKN,3000.0,BKN,4900.0,,
KRDR,09-02-2008,20:00,METAR,,300,15,21.0,,9999.0,,15.0,10.0,29.96,1015.9,,,,,,,,,,,TRACE,,,,7/8 Mostly Cloudy,3000.0,,SCT,2200,BKN,3000.0,BKN,5400.0,,
KRDR,09-02-2008,19:34,SPECI,,310,14,,,9999.0,,15.0,10.0,29.96,1015.7,,,,,,,,,,,,,,,7/8 Mostly Cloudy,4300.0,,SCT,2300,BKN,4400.0,BKN,5400.0,,
KRDR,09-02-2008,19:25,SPECI,,300,17,21.0,,9999.0,Rain,16.0,10.0,29.96,1015.7,,,,61,,,,,,,,,,,7/8 Mostly Cloudy,4800.0,,SCT,2300,BKN,4900.0,,,,
KRDR,09-02-2008,19:03,SPECI,,310,17,23.0,,9999.0,,16.0,10.0,29.96,1015.4,,,,,,,,,,,,,,,7/8 Mostly Cloudy,4200.0,,FEW,2000,SCT,2500.0,BKN,4300.0,,
KRDR,09-02-2008,19:00,METAR,,290,16,21.0,,9999.0,,15.0,10.0,29.95,1015.2,,,,,,,,,,,TRACE,,,,7/8 Mostly Cloudy,3400.0,,SCT,2500,BKN,3500.0,,,,
KRDR,09-02-2008,18:54,SPECI,,300,16,21.0,,9999.0,,15.0,10.0,29.95,1015.3,,,,,,,,,,,,,,,7/8 Mostly Cloudy,2100.0,,BKN,2100,BKN,3500.0,,,,
KRDR,09-02-2008,18:31,SPECI,,290,16,22.0,,9999.0,,16.0,10.0,29.95,1015.2,,,,,,,,,,,,,,,7/8 Mostly Cloudy,2500.0,,BKN,2500,BKN,3500.0,,,,
KRDR,09-02-2008,18:23,SPECI,,300,12,22.0,,9999.0,,15.0,10.0,29.95,1015.1,,,,,,,,,,,,,,,7/8 Mostly Cloudy,2900.0,,BKN,2900,,,,,,
KRDR,09-02-2008,18:00,METAR,,300,12,20.0,,9999.0,,14.0,10.0,29.94,1014.7,,,,,,,,,,,TRACE,,TRACE,,7/8 Mostly Cloudy,2500.0,,FEW,1500,BKN,2500.0,BKN,3500.0,,
KRDR,09-02-2008,17:47,SPECI,,300,13,20.0,,9999.0,,14.0,10.0,29.94,1014.7,,,,,,,,,,,,,,,7/8 Mostly Cloudy,3400.0,,FEW,1500,SCT,2500.0,BKN,3500.0,,
KRDR,09-02-2008,17:40,SPECI,,300,13,17.0,,9999.0,,14.0,10.0,29.93,1014.6,,,,,,,,,,,,,,,7/8 Mostly Cloudy,3500.0,,FEW,1700,SCT,2400.0,BKN,3600.0,,
KRDR,09-02-2008,17:26,SPECI,,300,12,,,9999.0,,15.0,10.0,29.93,1014.5,,,,,,,,,,,,,,,7/8 Mostly Cloudy,2100.0,,FEW,1600,BKN,2100.0,BKN,2700.0,,
KRDR,09-02-2008,17:17,SPECI,,300,11,17.0,,9999.0,,15.0,10.0,29.93,1014.5,,,,,,,,,,,,,,,7/8 Mostly Cloudy,2200.0,,FEW,1700,BKN,2800.0,,,,
KRDR,09-02-2008,17:00,METAR,,300,9,,,9999.0,,14.0,10.0,29.92,1014.2,,,,,,,,,,,TRACE,,,,8/8 Overcast,2500.0,,OVC,2500,,,,,,
KRDR,09-02-2008,16:35,SPECI,,280,9,,,9999.0,,14.0,10.0,29.91,1013.9,,,,,,,,,,,,,,,8/8 Overcast,2500.0,,FEW,1500,OVC,2500.0,,,,
KRDR,09-02-2008,16:26,SPECI,,300,11,16.0,,9999.0,,14.0,10.0,29.91,1013.8,,,,,,,,,,,,,,,8/8 Overcast,2500.0,,FEW,1500,OVC,2500.0,,,,
KRDR,09-02-2008,16:00,METAR,,300,13,,,9999.0,,14.0,10.0,29.90,1013.5,,,,,,,,,,,TRACE,,,,8/8 Overcast,1800.0,,FEW,1000,OVC,1800.0,,,,
KRDR,09-02-2008,15:14,SPECI,,290,11,,,9999.0,,13.0,10.0,29.89,1013.2,,,,,,,,,,,,,,,8/8 Overcast,1700.0,,FEW,1000,OVC,1700.0,,,,
KRDR,09-02-2008,15:04,SPECI,,300,9,,,9999.0,Drizzle,13.0,11.0,29.89,1013.3,,,,51,,,,,,,,,,,8/8 Overcast,1800.0,,FEW,1000,OVC,1800.0,,,,
KRDR,09-02-2008,15:00,METAR,,290,7,14.0,,9999.0,,13.0,11.0,29.89,1013.3,,,,,,,,,,,,TRACE,,,8/8 Overcast,1800.0,,FEW,1000,OVC,1800.0,,,,
KRDR,09-02-2008,14:00,METAR,,300,8,,,9999.0,,12.0,10.0,29.87,1012.6,,,,,,,,,,,,,,,8/8 Overcast,1700.0,,FEW,1000,OVC,1700.0,,,,
KRDR,09-02-2008,13:00,METAR,,290,8,,,9999.0,,12.0,11.0,29.86,1012.3,,,,,,,,,,,TRACE,,,,8/8 Overcast,1400.0,,FEW,1000,OVC,1400.0,,,,
KRDR,09-02-2008,12:38,SPECI,,280,8,,,9999.0,Rain,12.0,11.0,29.85,1012.0,,,,61,,,,,,,,,,,8/8 Overcast,1400.0,,FEW,1000,OVC,1400.0,,,,
KRDR,09-02-2008,12:31,SPECI,,300,7,,,9999.0,,12.0,11.0,29.84,1011.5,,,,,,,,,,,,,,,8/8 Overcast,1800.0,,OVC,1800,,,,,,
KRDR,09-02-2008,12:13,SPECI,,310,5,,,9999.0,,12.0,11.0,29.83,1011.3,,,,,,,,,,,,,,,7/8 Mostly Cloudy,1500.0,,BKN,1500,,,,,,
KRDR,09-02-2008,12:00,METAR,,310,6,,,9999.0,,12.0,11.0,29.83,1011.2,,,,,,,,,,,,,TRACE,.4 IN,7/8 Mostly Cloudy,2000.0,,FEW,1200,BKN,2000.0,,,,
KRDR,09-02-2008,11:34,SPECI,,300,7,,,9999.0,,12.0,11.0,29.83,1011.3,,,,,,,,,,,,,,,7/8 Mostly Cloudy,1400.0,,FEW,1000,BKN,1400.0,,,,
KRDR,09-02-2008,11:00,METAR,,300,8,,,9999.0,,12.0,12.0,29.82,1011.0,,,,,,,,,,,,,,,8/8 Overcast,1200.0,,OVC,1200,,,,,,
KRDR,09-02-2008,11:00,SPECI,,300,7,,,9999.0,,12.0,11.0,29.83,1011.3,,,,,,,,,,,,,,,8/8 Overcast,1200.0,,OVC,1200,,,,,,
KRDR,09-02-2008,10:57,SPECI,,300,7,,,9999.0,,12.0,11.0,29.83,1011.2,,,,,,,,,,,,,,,8/8 Overcast,1100.0,,OVC,1100,,,,,,
KRDR,09-02-2008,10:47,SPECI,,290,8,,,9999.0,,13.0,12.0,29.82,1010.9,,,,,,,,,,,,,,,8/8 Overcast,1300.0,,OVC,1300,,,,,,
KRDR,09-02-2008,10:41,SPECI,,280,9,,,9999.0,,13.0,12.0,29.82,1011.0,,,,,,,,,,,,,,,8/8 Overcast,1700.0,,SCT,900,OVC,1700.0,,,,
KRDR,09-02-2008,10:39,SPECI,,280,9,,,9999.0,,13.0,12.0,29.83,1011.1,,,,,,,,,,,,,,,8/8 Overcast,1300.0,,OVC,1300,,,,,,
KRDR,09-02-2008,10:37,SPECI,,280,8,,,9999.0,,13.0,12.0,29.82,1011.0,,,,,,,,,,,,,,,8/8 Overcast,1100.0,,OVC,1100,,,,,,
KRDR,09-02-2008,10:34,SPECI,,280,10,,,9999.0,,13.0,12.0,29.82,1010.9,,,,,,,,,,,,,,,8/8 Overcast,1200.0,,OVC,1200,,,,,,
KRDR,09-02-2008,10:28,SPECI,,290,8,,,9999.0,,12.0,12.0,29.81,1010.5,,,,,,,,,,,,,,,8/8 Overcast,2700.0,,OVC,2700,,,,,,
KRDR,09-02-2008,10:26,SPECI,,290,7,,,9999.0,,12.0,12.0,29.81,1010.4,,,,,,,,,,,,,,,8/8 Overcast,1400.0,,SCT,1000,BKN,1400.0,OVC,11000.0,,
KRDR,09-02-2008,10:21,SPECI,,300,5,,,9999.0,,12.0,12.0,29.80,1010.1,,,,,,,,,,,,,,,8/8 Overcast,3100.0,,OVC,3200,,,,,,
KRDR,09-02-2008,10:18,SPECI,,300,5,,,9999.0,,12.0,12.0,29.80,1010.1,,,,,,,,,,,,,,,8/8 Overcast,1400.0,,SCT,1000,BKN,1400.0,OVC,11000.0,,
KRDR,09-02-2008,10:17,SPECI,,300,6,,,9999.0,,12.0,12.0,29.80,1010.1,,,,,,,,,,,,,,,8/8 Overcast,1500.0,,SCT,1000,BKN,1500.0,OVC,11000.0,,
KRDR,09-02-2008,10:10,SPECI,,290,5,,,9999.0,,12.0,12.0,29.80,1010.1,,,,,,,,,,,,,,,8/8 Overcast,1400.0,,FEW,1000,BKN,1400.0,OVC,11000.0,,
KRDR,09-02-2008,10:08,SPECI,,290,6,,,9999.0,,12.0,12.0,29.79,1010.1,,,,,,,,,,,,,,,8/8 Overcast,4600.0,,OVC,4700,,,,,,
KRDR,09-02-2008,10:00,METAR,,30,5,,,9999.0,,12.0,12.0,29.77,1009.2,,,,,,,,,,,TRACE,,,,8/8 Overcast,1900.0,,OVC,1900,,,,,,
KRDR,09-02-2008,09:50,SPECI,,30,6,,,9999.0,,12.0,12.0,29.76,1009.1,,,,,,,,,,,,,,,8/8 Overcast,1900.0,,OVC,1900,,,,,,
KRDR,09-02-2008,09:36,SPECI,,360,6,,,9999.0,,12.0,12.0,29.79,1009.8,,,,,,,,,,,,,,,7/8 Mostly Cloudy,1300.0,,FEW,700,BKN,1300.0,BKN,11000.0,,
KRDR,09-02-2008,09:23,SPECI,,340,5,,,9999.0,Light Rain,13.0,12.0,29.79,1009.9,61,,,,,,,,,,,,,,7/8 Mostly Cloudy,1200.0,,FEW,700,BKN,1200.0,,,,
KRDR,09-02-2008,09:13,SPECI,,320,7,,,9999.0,Light Rain,13.0,12.0,29.79,1009.8,61,,,,,,,,,,,,,,7/8 Mostly Cloudy,1400.0,,FEW,600,BKN,1400.0,,,,
KRDR,09-02-2008,09:08,SPECI,,330,9,,,9999.0,Light Rain,13.0,12.0,29.79,1010.0,61,,,,,,,,,,,,,,4/8 Partly Cloudy,72000.0,,FEW,600,SCT,1700.0,,,,
KRDR,09-02-2008,09:00,METAR,,330,10,,,9999.0,Rain,13.0,12.0,29.81,1010.6,62,,,,,,,,,,TRACE,TRACE,,,7/8 Mostly Cloudy,900.0,,BKN,900,,,,,,
KRDR,09-02-2008,09:00,SPECI,,350,10,,,9999.0,Light Rain,13.0,12.0,29.78,1009.7,61,,,,,,,,,,,,,,4/8 Partly Cloudy,72000.0,,SCT,500,SCT,1700.0,,,,
KRDR,09-02-2008,08:54,SPECI,,330,9,,,9999.0,Light Rain,13.0,12.0,29.80,1010.4,61,,,,,,,,,,,,,,7/8 Mostly Cloudy,1600.0,,SCT,500,SCT,900.0,BKN,1600.0,,
KRDR,09-02-2008,08:50,SPECI,,320,10,,,9999.0,Rain,13.0,12.0,29.81,1010.7,62,,,,,,,,,,,,,,8/8 Overcast,900.0,,SCT,500,BKN,900.0,OVC,1400.0,,
KRDR,09-02-2008,08:46,SPECI,,320,11,,,9999.0,Light Rain,13.0,12.0,29.82,1010.9,61,,,,,,,,,,,,,,8/8 Overcast,1300.0,,SCT,500,OVC,1300.0,,,,
KRDR,09-02-2008,08:44,SPECI,,310,8,,,9999.0,Light Rain,13.0,12.0,29.82,1010.9,61,,,,,,,,,,,,,,8/8 Overcast,500.0,,BKN,500,OVC,1100.0,,,,
KRDR,09-02-2008,08:42,SPECI,,330,8,,,9999.0,,13.0,12.0,29.81,1010.6,,,,,,,,,,,,,,,8/8 Overcast,1100.0,,SCT,500,OVC,1100.0,,,,
KRDR,09-02-2008,08:36,SPECI,,340,7,,,9999.0,,13.0,12.0,29.80,1010.1,,,,,,,,,,,,,,,8/8 Overcast,900.0,,OVC,900,,,,,,
KRDR,09-02-2008,08:30,SPECI,,340,9,,,9999.0,,13.0,12.0,29.79,1010.0,,,,,,,,,,,,,,,8/8 Overcast,1200.0,,FEW,400,OVC,1200.0,,,,
KRDR,09-02-2008,08:28,SPECI,,340,9,,,9999.0,,13.0,12.0,29.79,1010.0,,,,,,,,,,,,,,,8/8 Overcast,1000.0,,OVC,1000,,,,,,
KRDR,09-02-2008,08:24,SPECI,,350,8,,,9999.0,,13.0,12.0,29.79,1010.0,,,,,,,,,,,,,,,8/8 Overcast,1100.0,,OVC,1100,,,,,,
KRDR,09-02-2008,08:14,SPECI,,330,9,,,8000.0,Light Rain/Mist,13.0,12.0,29.80,1010.4,61,10,,,,,,,,,,,,,8/8 Overcast,1200.0,,OVC,1200,,,,,,
KRDR,09-02-2008,08:09,SPECI,,330,8,,,8000.0,Light Rain/Mist,13.0,12.0,29.81,1010.6,61,10,,,,,,,,,,,,,8/8 Overcast,1000.0,,OVC,1000,,,,,,
KRDR,09-02-2008,08:03,SPECI,,320,8,,,8000.0,Light Rain/Mist,13.0,12.0,29.82,1010.9,61,10,,,,,,,,,,,,,8/8 Overcast,1100.0,,OVC,1100,,,,,,
KRDR,09-02-2008,08:00,SPECI,,310,8,,,8000.0,Light Rain/Mist,13.0,12.0,29.82,1010.9,61,10,,,,,,,,,,,,,8/8 Overcast,1200.0,,OVC,1200,,,,,,
KRDR,09-02-2008,08:00,METAR,,320,7,,,9999.0,Light Drizzle/Mist,13.0,12.0,29.82,1010.8,51,10,,,,,,,,,TRACE,,,,8/8 Overcast,1100.0,,OVC,1100,,,,,,
KRDR,09-02-2008,07:46,SPECI,,320,9,,,9999.0,,13.0,12.0,29.81,1010.7,,,,,,,,,,,,,,,8/8 Overcast,1200.0,,OVC,1200,,,,,,
KRDR,09-02-2008,07:25,SPECI,,330,8,,,9999.0,,13.0,12.0,29.81,1010.4,,,,,,,,,,,,,,,8/8 Overcast,1400.0,,OVC,1400,,,,,,
KRDR,09-02-2008,07:20,SPECI,,340,6,,,9999.0,,13.0,12.0,29.80,1010.3,,,,,,,,,,,,,,,8/8 Overcast,1600.0,,SCT,800,OVC,1600.0,,,,
KRDR,09-02-2008,07:16,SPECI,,330,7,,,9999.0,,13.0,12.0,29.80,1010.3,,,,,,,,,,,,,,,8/8 Overcast,1200.0,,OVC,1200,,,,,,
KRDR,09-02-2008,07:00,METAR,,360,8,,,9999.0,,13.0,12.0,29.78,1009.7,,,,,,,,,,,,,,,8/8 Overcast,900.0,,OVC,900,,,,,,
KRDR,09-02-2008,07:00,SPECI,,340,7,,,9999.0,,13.0,12.0,29.79,1010.0,,,,,,,,,,,,,,,8/8 Overcast,1000.0,,OVC,1000,,,,,,
KRDR,09-02-2008,06:36,SPECI,,10,9,,,9999.0,,14.0,13.0,29.78,1009.5,,,,,,,,,,,,,,,7/8 Mostly Cloudy,900.0,,BKN,900,,,,,,
KRDR,09-02-2008,06:29,SPECI,,340,7,,,9999.0,,14.0,13.0,29.79,1010.0,,,,,,,,,,,,,,,7/8 Mostly Cloudy,1100.0,,BKN,1100,,,,,,
KRDR,09-02-2008,06:22,SPECI,,350,7,,,9999.0,,14.0,13.0,29.79,1009.9,,,,,,,,,,,,,,,7/8 Mostly Cloudy,1200.0,,BKN,1200,,,,,,
KRDR,09-02-2008,06:04,SPECI,,350,8,,,9999.0,,14.0,13.0,29.78,1009.7,,,,,,,,,,,,,,,4/8 Partly Cloudy,72000.0,,SCT,1100,,,,,,
KRDR,09-02-2008,06:00,METAR,,340,7,,,9999.0,,14.0,13.0,29.78,1009.6,,,,,,,,,,,,,TRACE,,7/8 Mostly Cloudy,1100.0,,BKN,1100,,,,,,
KRDR,09-02-2008,05:53,SPECI,,340,8,,,9999.0,,14.0,13.0,29.78,1009.6,,,,,,,,,,,,,,,7/8 Mostly Cloudy,1300.0,,BKN,1300,,,,,,
KRDR,09-02-2008,05:43,SPECI,,350,9,,,9999.0,,14.0,13.0,29.79,1009.8,,,,,,,,,,,,,,,8/8 Overcast,1100.0,,OVC,1100,,,,,,
KRDR,09-02-2008,05:41,SPECI,,350,9,,,9999.0,,14.0,13.0,29.79,1009.8,,,,,,,,,,,,,,,8/8 Overcast,1200.0,,OVC,1200,,,,,,
KRDR,09-02-2008,05:34,SPECI,,340,9,,,9999.0,,14.0,13.0,29.78,1009.7,,,,,,,,,,,,,,,8/8 Overcast,1100.0,,OVC,1100,,,,,,
KRDR,09-02-2008,05:11,SPECI,,340,10,,,9999.0,,14.0,13.0,29.77,1009.3,,,,,,,,,,,,,,,8/8 Overcast,900.0,,OVC,900,,,,,,
KRDR,09-02-2008,05:00,SPECI,,330,9,,,9999.0,,14.0,13.0,29.77,1009.4,,,,,,,,,,,,,,,8/8 Overcast,700.0,,OVC,1100,,,,,,
KRDR,09-02-2008,05:00,METAR,,350,8,,,9999.0,,14.0,13.0,29.77,1009.3,,,,,,,,,,,,,,,8/8 Overcast,700.0,,OVC,1500,,,,,,
KRDR,09-02-2008,04:53,SPECI,,350,9,,,9999.0,,14.0,13.0,29.77,1009.3,,,,,,,,,,,,,,,8/8 Overcast,700.0,,OVC,1400,,,,,,
KRDR,09-02-2008,04:46,SPECI,,350,10,,,9999.0,,14.0,13.0,29.77,1009.2,,,,,,,,,,,,,,,8/8 Overcast,1900.0,,FEW,900,OVC,1900.0,,,,
KRDR,09-02-2008,04:28,SPECI,,340,10,,,9999.0,,14.0,13.0,29.77,1009.2,,,,,,,,,,,,,,,8/8 Overcast,1900.0,,SCT,1000,OVC,1900.0,,,,
KRDR,09-02-2008,04:26,SPECI,,330,10,,,9999.0,,14.0,13.0,29.77,1009.2,,,,,,,,,,,,,,,8/8 Overcast,1600.0,,OVC,1600,,,,,,
KRDR,09-02-2008,04:21,SPECI,,330,9,,,9999.0,,14.0,13.0,29.77,1009.4,,,,,,,,,,,,,,,8/8 Overcast,1400.0,,OVC,1400,,,,,,
KRDR,09-02-2008,04:05,SPECI,,340,9,,,9999.0,,15.0,14.0,29.77,1009.4,,,,,,,,,,,,,,,8/8 Overcast,1100.0,,OVC,1100,,,,,,
KRDR,09-02-2008,04:00,METAR,,340,6,,,9999.0,,15.0,14.0,29.77,1009.4,,,,,,,,,,,,,,,8/8 Overcast,900.0,,OVC,900,,,,,,
KRDR,09-02-2008,03:38,SPECI,,340,7,,,9999.0,,15.0,14.0,29.76,1009.1,,,,,,,,,,,,,,,8/8 Overcast,900.0,,OVC,900,,,,,,
KRDR,09-02-2008,03:24,SPECI,,360,7,,,9999.0,,15.0,14.0,29.77,1009.1,,,,,,,,,,,,,,,8/8 Overcast,1100.0,,OVC,1100,,,,,,
KRDR,09-02-2008,03:00,METAR,,360,10,,,9999.0,,15.0,14.0,29.75,1008.7,,,,,,,,,,,TRACE,TRACE,,,8/8 Overcast,1400.0,,OVC,1400,,,,,,
KRDR,09-02-2008,02:38,SPECI,,360,8,,,9999.0,,15.0,15.0,29.74,1008.3,,,,,,,,,,,,,,,8/8 Overcast,1200.0,,FEW,600,OVC,1200.0,,,,
KRDR,09-02-2008,02:34,SPECI,,360,8,,,9999.0,,15.0,15.0,29.74,1008.3,,,,,,,,,,,,,,,8/8 Overcast,1200.0,,FEW,600,OVC,1200.0,,,,
KRDR,09-02-2008,02:26,SPECI,,10,10,,,9999.0,,16.0,15.0,29.74,1008.2,,,,,,,,,,,,,,,8/8 Overcast,1000.0,,OVC,1000,,,,,,
KRDR,09-02-2008,02:00,METAR,,10,10,,,9999.0,,16.0,15.0,29.71,1007.3,,,,,,,,,,,,,,,8/8 Overcast,700.0,,OVC,700,,,,,,
KRDR,09-02-2008,01:45,SPECI,,10,12,,,9999.0,Light Drizzle,17.0,16.0,29.70,1007.0,51,,,,,,,,,,,,,,8/8 Overcast,800.0,,OVC,800,,,,,,
KRDR,09-02-2008,01:39,SPECI,,10,11,,,9999.0,,18.0,17.0,29.70,1006.8,,,,,,,,,,,,,,,8/8 Overcast,800.0,,OVC,800,,,,,,
KRDR,09-02-2008,01:37,SPECI,,10,10,,,9999.0,,18.0,17.0,29.70,1006.9,,,,,,,,,,,,,,,8/8 Overcast,1100.0,,SCT,400,OVC,1100.0,,,,
KRDR,09-02-2008,01:34,SPECI,,360,11,,,9999.0,,18.0,17.0,29.70,1006.8,,,,,,,,,,,,,,,8/8 Overcast,1200.0,,SCT,400,OVC,1200.0,,,,
KRDR,09-02-2008,01:32,SPECI,,360,11,,,9999.0,,18.0,17.0,29.69,1006.8,,,,,,,,,,,,,,,8/8 Overcast,900.0,,FEW,400,BKN,900.0,OVC,1400.0,,
KRDR,09-02-2008,01:30,SPECI,,340,11,,,9999.0,,18.0,17.0,29.69,1006.7,,,,,,,,,,,,,,,8/8 Overcast,1400.0,,FEW,500,SCT,900.0,OVC,1400.0,,
KRDR,09-02-2008,01:27,SPECI,,330,11,,,9999.0,Light Rain,18.0,17.0,29.69,1006.5,61,,,,,,,,,,,,,,8/8 Overcast,1100.0,,OVC,1100,,,,,,
KRDR,09-02-2008,01:20,SPECI,,320,8,,,9999.0,Light Rain,18.0,17.0,29.68,1006.2,61,,,,,,,,,,,,,,8/8 Overcast,1400.0,,OVC,1400,,,,,,
KRDR,09-02-2008,01:16,SPECI,,330,8,,,9999.0,Light Rain,19.0,18.0,29.67,1006.0,61,,,,,,,,,,,,,,8/8 Overcast,900.0,,BKN,900,BKN,1300.0,OVC,2000.0,,
KRDR,09-02-2008,01:07,SPECI,,340,8,,,9999.0,Light Rain,19.0,18.0,29.66,1005.6,61,,,,,,,,,,,,,,7/8 Mostly Cloudy,1300.0,,SCT,900,BKN,1300.0,BKN,1800.0,,
KRDR,09-02-2008,01:00,METAR,,360,8,,,4800.0,Light Rain/Mist,19.0,18.0,29.65,1005.2,61,10,,,,,,,,,TRACE,,,,7/8 Mostly Cloudy,1800.0,,FEW,800,BKN,1800.0,,,,
KRDR,09-02-2008,00:41,SPECI,,330,6,,,4000.0,Heavy Rain/Mist,19.0,18.0,29.64,1005.1,63,10,,,,,,,,,,,,,7/8 Mostly Cloudy,1600.0,,BKN,1600,,,,,,
KRDR,09-02-2008,00:39,SPECI,,330,6,,,4800.0,Heavy Rain/Mist,19.0,18.0,29.64,1005.1,63,10,,,,,,,,,,,,,7/8 Mostly Cloudy,1600.0,,BKN,1600,,,,,,
KRDR,09-02-2008,00:33,SPECI,,330,3,,,3200.0,Light Rain/Mist,19.0,18.0,29.65,1005.2,61,10,,,,,,,,,,,,,7/8 Mostly Cloudy,1600.0,,FEW,300,BKN,1600.0,,,,
KRDR,09-02-2008,00:29,SPECI,,,0,,,4000.0,Heavy Rain/Mist,19.0,18.0,29.66,1005.5,63,10,,,,,,,,,,,,,4/8 Partly Cloudy,72000.0,,FEW,300,SCT,2000.0,,,,
KRDR,09-02-2008,00:14,SPECI,,350,4,,,6400.0,Light Rain/Mist,19.0,18.0,29.64,1005.0,61,10,,,,,,,,,,,,,2/8 Mostly Clear,72000.0,,FEW,1100,,,,,,
KRDR,09-02-2008,00:02,SPECI,,280,7,,,8000.0,Light Rain/Mist,19.0,19.0,29.64,1004.9,61,10,,,,,,,,,,,,,4/8 Partly Cloudy,72000.0,,SCT,1900,,,,,,
KRDR,09-02-2008,00:00,METAR,,310,8,15.0,,4000.0,Rain/Mist,19.0,19.0,29.64,1004.8,62,10,,,,,,,,,TRACE,,TRACE,,7/8 Mostly Cloudy,1900.0,,BKN,1900,,,,,,
KRDR,09-01-2008,23:00,METAR,,220,4,,290/28KTS,9999.0,Light Rain,20.0,18.0,29.65,1005.3,61,,,,,,,,,,TRACE,,,,7/8 Mostly Cloudy,6000.0,,FEW,2000,BKN,5900.0,,,,
KRDR,09-01-2008,22:45,SPECI,,250,3,14.0,290/28KTS,6400.0,Light Rain/Mist,20.0,18.0,29.63,1004.7,61,10,,,,,,,,,,,,,4/8 Partly Cloudy,72000.0,,FEW,1900,SCT,5000.0,,,,
KRDR,09-01-2008,22:43,SPECI,,280,5,14.0,290/28KTS,3200.0,Light Rain/Mist,20.0,19.0,29.62,1004.5,61,10,,,,,,,,,,,,,4/8 Partly Cloudy,72000.0,,FEW,1900,SCT,5000.0,,,,
KRDR,09-01-2008,22:36,SPECI,,290,10,,290/28KTS,2800.0,Heavy Rain/Mist,20.0,19.0,29.61,1003.9,63,10,,,,,,,,,,,,,7/8 Mostly Cloudy,4700.0,,SCT,1900,BKN,4800.0,,,,
KRDR,09-01-2008,22:19,SPECI,,290,16,28.0,290/28KTS,6400.0,Light Rain/Mist,20.0,19.0,29.59,1003.2,61,10,,,,,,,,,,,,,7/8 Mostly Cloudy,4900.0,,FEW,1500,SCT,3600.0,BKN,5000.0,,
KRDR,09-01-2008,22:13,SPECI,,290,19,28.0,290/28KTS,3200.0,Light Rain/Mist,21.0,19.0,29.57,1002.8,61,10,,,,,,,,,,,,,7/8 Mostly Cloudy,4500.0,,FEW,1500,SCT,2600.0,BKN,4600.0,,
KRDR,09-01-2008,22:10,SPECI,,290,18,27.0,290/27KTS,2800.0,Light Rain/Mist,21.0,19.0,29.58,1003.0,61,10,,,,,,,,,,,,,7/8 Mostly Cloudy,4500.0,,FEW,1500,SCT,2600.0,BKN,4600.0,,
KRDR,09-01-2008,22:00,METAR,,260,19,27.0,190/34KTS,9999.0,,29.0,21.0,29.58,1002.9,,,,,,,,,,,,,,,4/8 Partly Cloudy,72000.0,,SCT,4900,,,,,,
KRDR,09-01-2008,22:00,SPECI,,280,17,27.0,290/26KTS,9999.0,Unknown Precipitation,24.0,19.0,29.58,1002.9,40,,,,,,,,,,,,,,7/8 Mostly Cloudy,4500.0,,FEW,2200,SCT,3500.0,BKN,4600.0,,
KRDR,09-01-2008,21:55,SPECI,,300,19,27.0,290/26KTS,9999.0,,27.0,20.0,29.60,1003.8,,,,,,,,,,,,,,,7/8 Mostly Cloudy,4800.0,,FEW,3500,BKN,4900.0,,,,
KRDR,09-01-2008,21:00,METAR,,190,23,28.0,190/30KTS,9999.0,,31.0,21.0,29.54,1001.7,,,,,,,,,,,,,,,Clear,72000.0,,,73000,,,,,,
KRDR,09-01-2008,20:00,METAR,,170,16,,170/28KTS,9999.0,,29.0,21.0,29.57,1002.7,,,,,,,,,,,,,,,7/8 Mostly Cloudy,4400.0,,BKN,4500,,,,,,
KRDR,09-01-2008,19:00,METAR,,170,16,22.0,170/28KTS,9999.0,,29.0,21.0,29.58,1003.1,,,,,,,,,,,,,,,4/8 Partly Cloudy,72000.0,,SCT,3800,,,,,,
KRDR,09-01-2008,18:00,METAR,,180,19,27.0,190/31KTS,9999.0,,30.0,21.0,29.60,1003.6,,,,,,,,,,,,,,,2/8 Mostly Clear,72000.0,,FEW,4000,,,,,,
KRDR,09-01-2008,17:00,METAR,,190,19,,190/27KTS,9999.0,,30.0,21.0,29.60,1003.8,,,,,,,,,,,,,,,4/8 Partly Cloudy,72000.0,,SCT,3300,,,,,,
KRDR,09-01-2008,16:00,METAR,,170,18,24.0,,9999.0,,28.0,21.0,29.62,1004.2,,,,,,,,,,,,,,,2/8 Mostly Clear,72000.0,,FEW,3000,,,,,,
KRDR,09-01-2008,15:00,METAR,,160,16,,,9999.0,,26.0,21.0,29.65,1004.1,,,,,,,,,,,,,,,7/8 Mostly Cloudy,25000.0,,BKN,25000,,,,,,
KRDR,09-01-2008,14:00,METAR,,160,13,,,9999.0,,24.0,20.0,29.66,1004.6,,,,,,,,,,,,,,,4/8 Partly Cloudy,72000.0,,SCT,25000,,,,,,
KRDR,09-01-2008,13:00,METAR,,160,13,18.0,,9999.0,,22.0,20.0,29.66,1004.7,,,,,,,,,,,,,,,4/8 Partly Cloudy,72000.0,,SCT,25000,,,,,,
KRDR,09-01-2008,12:00,METAR,,160,12,,,9999.0,,21.0,19.0,29.65,1004.3,,,,,,,,,,,,,,,4/8 Partly Cloudy,72000.0,,SCT,25000,,,,,,
KRDR,09-01-2008,11:00,METAR,,160,11,,,9999.0,,21.0,19.0,29.65,1004.2,,,,,,,,,,,,,,,Clear,72000.0,,,73000,,,,,,
KRDR,09-01-2008,10:00,METAR,,170,13,,,9999.0,,22.0,19.0,29.65,1003.9,,,,,,,,,,,,,,,Clear,72000.0,,,73000,,,,,,
KRDR,09-01-2008,09:00,METAR,,170,15,21.0,,9999.0,,23.0,19.0,29.64,1003.9,,,,,,,,,,,,,,,Clear,72000.0,,,73000,,,,,,
KRDR,09-01-2008,08:00,METAR,,170,22,27.0,170/28KTS,9999.0,,23.0,19.0,29.60,1003.7,,,,,,,,,,,,,,,Clear,72000.0,,,73000,,,,,,
KRDR,09-01-2008,06:00,METAR,,170,23,30.0,170/33KTS,9999.0,,25.0,19.0,29.62,1004.2,,,,,,,,,,,,,,,Clear,72000.0,,,73000,,,,,,
KRDR,09-01-2008,05:00,METAR,,170,22,30.0,170/34KTS,9999.0,,25.0,19.0,29.62,1004.2,,,,,,,,,,,,,,,Clear,72000.0,,,73000,,,,,,
KRDR,09-01-2008,04:00,METAR,,170,21,27.0,170/31KTS,9999.0,,26.0,20.0,29.62,1004.2,,,,,,,,,,,,,,,Clear,72000.0,,,73000,,,,,,
KRDR,09-01-2008,03:00,METAR,,170,18,26.0,180/31KTS,9999.0,,27.0,20.0,29.62,1004.3,,,,,,,,,,,,,,,Clear,72000.0,,,73000,,,,,,
KRDR,09-01-2008,02:00,METAR,,170,17,22.0,,9999.0,,28.0,19.0,29.62,1004.3,,,,,,,,,,,,,,,Clear,72000.0,,,73000,,,,,,
KRDR,09-01-2008,01:00,METAR,,170,21,25.0,180/26KTS,9999.0,,29.0,19.0,29.61,1004.0,,,,,,,,,,,,,,,Clear,72000.0,,,73000,,,,,,
KRDR,09-01-2008,00:00,METAR,,170,17,24.0,180/33KTS,9999.0,,30.0,18.0,29.61,1003.9,,,,,,,,,,,,,,,Clear,72000.0,,,73000,,,,,,
KRDR,08-31-2008,23:00,METAR,,180,19,29.0,180/34KTS,9999.0,,31.0,18.0,29.59,1003.5,,,,,,,,,,,,,,,Clear,72000.0,,,73000,,,,,,
KRDR,08-31-2008,22:00,METAR,,180,25,35.0,180/35KTS,9999.0,,32.0,19.0,29.60,1003.6,,,,,,,,,,,,,,,Clear,72000.0,,,73000,,,,,,
KRDR,08-31-2008,21:00,METAR,,180,21,34.0,180/35KTS,9999.0,,33.0,19.0,29.60,1003.8,,,,,,,,,,,,,,,Clear,72000.0,,,73000,,,,,,
KRDR,08-31-2008,20:00,METAR,,180,26,32.0,180/33KTS,9999.0,,32.0,19.0,29.62,1004.2,,,,,,,,,,,,,,,Clear,72000.0,,,73000,,,,,,
KRDR,08-31-2008,19:00,METAR,,180,20,29.0,180/31KTS,9999.0,,31.0,19.0,29.63,1004.8,,,,,,,,,,,,,,,Clear,72000.0,,,73000,,,,,,
KRDR,08-31-2008,18:00,METAR,,180,20,26.0,180/29KTS,9999.0,,30.0,20.0,29.66,1005.5,,,,,,,,,,,,,,,Clear,72000.0,,,73000,,,,,,
KRDR,08-31-2008,17:00,METAR,,180,22,28.0,170/28KTS,9999.0,,28.0,19.0,29.67,1006.1,,,,,,,,,,,,,,,Clear,72000.0,,,73000,,,,,,
KRDR,08-31-2008,16:00,METAR,,190,18,29.0,200/29KTS,9999.0,,26.0,19.0,29.68,1006.4,,,,,,,,,,,,,,,Clear,72000.0,,,73000,,,,,,
KRDR,08-31-2008,15:00,METAR,,180,18,23.0,,9999.0,,24.0,18.0,29.69,1006.6,,,,,,,,,,,,,,,Clear,72000.0,,,73000,,,,,,
KRDR,08-31-2008,14:00,METAR,,180,14,,,9999.0,,22.0,18.0,29.69,1006.7,,,,,,,,,,,,,,,Clear,72000.0,,,73000,,,,,,
KRDR,08-31-2008,13:00,METAR,,180,13,,,9999.0,,20.0,17.0,29.70,1006.8,,,,,,,,,,,,,,,Clear,72000.0,,,73000,,,,,,
KRDR,08-31-2008,12:00,METAR,,170,12,,,9999.0,,19.0,16.0,29.68,1006.3,,,,,,,,,,,,,,,Clear,72000.0,,,73000,,,,,,
KRDR,08-31-2008,11:00,METAR,,170,11,,,9999.0,,19.0,16.0,29.69,1006.5,,,,,,,,,,,,,,,Clear,72000.0,,,73000,,,,,,
KRDR,08-31-2008,10:00,METAR,,180,12,,,9999.0,,20.0,16.0,29.69,1006.8,,,,,,,,,,,,,,,Clear,72000.0,,,73000,,,,,,
KRDR,08-31-2008,09:00,METAR,,190,12,,,9999.0,,21.0,15.0,29.68,1006.4,,,,,,,,,,,,,,,Clear,72000.0,,,73000,,,,,,
KRDR,08-31-2008,08:00,METAR,,180,12,,,9999.0,,21.0,15.0,29.68,1006.2,,,,,,,,,,,,,,,Clear,72000.0,,,73000,,,,,,
KRDR,08-31-2008,07:00,METAR,,190,14,,,9999.0,,22.0,15.0,29.67,1006.1,,,,,,,,,,,,,,,Clear,72000.0,,,73000,,,,,,
KRDR,08-31-2008,06:00,METAR,,180,15,24.0,,9999.0,,23.0,15.0,29.67,1006.0,,,,,,,,,,,,,,,Clear,72000.0,,,73000,,,,,,
KRDR,08-31-2008,05:00,METAR,,170,17,,,9999.0,,24.0,14.0,29.68,1006.2,,,,,,,,,,,,,,,Clear,72000.0,,,73000,,,,,,
KRDR,08-31-2008,04:00,METAR,,170,15,20.0,,9999.0,,24.0,15.0,29.68,1006.4,,,,,,,,,,,,,,,Clear,72000.0,,,73000,,,,,,
KRDR,08-31-2008,03:00,METAR,,170,13,,,9999.0,,24.0,16.0,29.70,1006.9,,,,,,,,,,,,,,,Clear,72000.0,,,73000,,,,,,
KRDR,08-31-2008,02:00,METAR,,160,12,,,9999.0,,25.0,16.0,29.70,1007.0,,,,,,,,,,,,,,,Clear,72000.0,,,73000,,,,,,
KRDR,08-31-2008,01:00,METAR,,170,17,22.0,,9999.0,,27.0,16.0,29.70,1007.0,,,,,,,,,,,,,,,Clear,72000.0,,,73000,,,,,,
KRDR,08-31-2008,00:00,METAR,,170,20,28.0,170/28KTS,9999.0,,29.0,17.0,29.71,1007.2,,,,,,,,,,,,,,,Clear,72000.0,,,73000,,,,,,
KRDR,08-30-2008,23:00,METAR,,180,24,28.0,160/32KTS,9999.0,,30.0,18.0,29.71,1007.2,,,,,,,,,,,,,,,7/8 Mostly Cloudy,25000.0,,BKN,25000,,,,,,
KRDR,08-30-2008,22:00,METAR,,180,19,26.0,180/28KTS,9999.0,,30.0,17.0,29.72,1007.7,,,,,,,,,,,,,,,4/8 Partly Cloudy,72000.0,,SCT,25000,,,,,,
KRDR,08-30-2008,21:00,METAR,,170,19,26.0,170/27KTS,9999.0,,30.0,16.0,29.74,1008.2,,,,,,,,,,,,,,,Clear,72000.0,,,73000,,,,,,
KRDR,08-30-2008,20:00,METAR,,170,18,27.0,160/27KTS,9999.0,,28.0,15.0,29.77,1009.1,,,,,,,,,,,,,,,Clear,72000.0,,,73000,,,,,,
KRDR,08-30-2008,19:00,METAR,,170,17,23.0,,9999.0,,28.0,13.0,29.79,1009.9,,,,,,,,,,,,,,,Clear,72000.0,,,73000,,,,,,
KRDR,08-30-2008,18:00,METAR,,170,18,24.0,180/26KTS,9999.0,,26.0,12.0,29.81,1010.6,,,,,,,,,,,,,,,Clear,72000.0,,,73000,,,,,,
KRDR,08-30-2008,17:00,METAR,,180,20,27.0,160/30KTS,9999.0,,25.0,11.0,29.84,1011.7,,,,,,,,,,,,,,,Clear,72000.0,,,73000,,,,,,
KRDR,08-30-2008,16:00,METAR,,170,17,23.0,,9999.0,,23.0,10.0,29.87,1012.7,,,,,,,,,,,,,,,Clear,72000.0,,,73000,,,,,,
KRDR,08-30-2008,15:00,METAR,,170,15,,,9999.0,,20.0,11.0,29.89,1013.3,,,,,,,,,,,,,,,Clear,72000.0,,,73000,,,,,,
KRDR,08-30-2008,14:00,METAR,,160,9,,,9999.0,,17.0,10.0,29.91,1014.0,,,,,,,,,,,,,,,Clear,72000.0,,,73000,,,,,,
KRDR,08-30-2008,13:00,METAR,,170,6,,,9999.0,,13.0,8.0,29.92,1014.1,,,,,,,,,,,,,,,Clear,72000.0,,,73000,,,,,,
KRDR,08-30-2008,12:00,METAR,,170,7,,,9999.0,,11.0,7.0,29.92,1014.3,,,,,,,,,,,,,,,Clear,72000.0,,,73000,,,,,,
KRDR,08-30-2008,11:00,METAR,,180,8,,,9999.0,,11.0,7.0,29.93,1014.4,,,,,,,,,,,,,,,Clear,72000.0,,,73000,,,,,,
KRDR,08-30-2008,10:00,METAR,,190,6,,,9999.0,,10.0,6.0,29.93,1014.5,,,,,,,,,,,,,,,Clear,72000.0,,,73000,,,,,,
KRDR,08-30-2008,09:00,METAR,,190,3,,,9999.0,,11.0,6.0,29.94,1014.7,,,,,,,,,,,,,,,Clear,72000.0,,,73000,,,,,,
KRDR,08-30-2008,08:00,METAR,,220,6,,,9999.0,,11.0,7.0,29.94,1014.8,,,,,,,,,,,,,,,Clear,72000.0,,,73000,,,,,,
KRDR,08-30-2008,07:00,METAR,,220,6,,,9999.0,,12.0,7.0,29.94,1014.7,,,,,,,,,,,,,,,Clear,72000.0,,,73000,,,,,,
KRDR,08-30-2008,06:00,METAR,,220,5,,,9999.0,,12.0,8.0,29.94,1014.8,,,,,,,,,,,,,,,Clear,72000.0,,,73000,,,,,,
KRDR,08-30-2008,05:00,METAR,,220,5,,,9999.0,,12.0,8.0,29.94,1014.7,,,,,,,,,,,,,,,Clear,72000.0,,,73000,,,,,,
KRDR,08-30-2008,04:00,METAR,,220,5,,,9999.0,,10.0,7.0,29.93,1014.6,,,,,,,,,,,,,,,Clear,72000.0,,,73000,,,,,,
KRDR,08-30-2008,03:00,METAR,,210,4,,,9999.0,,13.0,8.0,29.94,1014.7,,,,,,,,,,,,,,,Clear,72000.0,,,73000,,,,,,
KRDR,08-30-2008,02:00,METAR,,230,5,,,9999.0,,14.0,8.0,29.93,1014.7,,,,,,,,,,,,,,,Clear,72000.0,,,73000,,,,,,
KRDR,08-30-2008,01:00,METAR,,270,5,,,9999.0,,20.0,8.0,29.92,1014.1,,,,,,,,,,,,,,,Clear,72000.0,,,73000,,,,,,
KRDR,08-30-2008,00:00,METAR,,290,9,,,9999.0,,23.0,6.0,29.91,1013.8,,,,,,,,,,,,,,,Clear,72000.0,,,73000,,,,,,
KRDR,08-29-2008,23:00,METAR,,320,11,,,9999.0,,25.0,7.0,29.90,1013.5,,,,,,,,,,,,,,,2/8 Mostly Clear,72000.0,,FEW,7900,,,,,,
KRDR,08-29-2008,22:00,METAR,,300,11,,,9999.0,,26.0,8.0,29.90,1013.4,,,,,,,,,,,,,,,2/8 Mostly Clear,72000.0,,FEW,7400,,,,,,
KRDR,08-29-2008,21:00,METAR,,280,9,,,9999.0,,25.0,7.0,29.90,1013.4,,,,,,,,,,,,,,,4/8 Partly Cloudy,72000.0,,SCT,7400,,,,,,
KRDR,08-29-2008,20:00,METAR,,290,13,17.0,,9999.0,,26.0,7.0,29.89,1013.4,,,,,,,,,,,,,,,4/8 Partly Cloudy,72000.0,,SCT,7900,,,,,,
KRDR,08-29-2008,19:00,METAR,,280,10,15.0,,9999.0,,25.0,9.0,29.89,1013.3,,,,,,,,,,,,,,,Clear,72000.0,,,73000,,,,,,
KRDR,08-29-2008,18:00,METAR,,320,10,,,9999.0,,24.0,8.0,29.89,1013.3,,,,,,,,,,,,,,,Clear,72000.0,,,73000,,,,,,
KRDR,08-29-2008,17:00,METAR,,330,9,,,9999.0,,24.0,9.0,29.88,1012.9,,,,,,,,,,,,,,,Clear,72000.0,,,73000,,,,,,
KRDR,08-29-2008,16:00,METAR,,330,8,,,9999.0,,22.0,10.0,29.87,1012.5,,,,,,,,,,,,,,,Clear,72000.0,,,73000,,,,,,
KRDR,08-29-2008,15:00,METAR,,,0,,,9999.0,,18.0,10.0,29.85,1012.0,,,,,,,,,,,,,,,Clear,72000.0,,,73000,,,,,,
KRDR,08-29-2008,14:00,METAR,,,0,,,9999.0,,16.0,9.0,29.84,1011.5,,,,,,,,,,,,,,,Clear,72000.0,,,73000,,,,,,
KRDR,08-29-2008,13:00,METAR,,310,4,,,9999.0,,12.0,9.0,29.83,1011.3,,,,,,,,,,,,,,,Clear,72000.0,,,73000,,,,,,
KRDR,08-29-2008,12:00,METAR,,250,3,,,9999.0,,12.0,9.0,29.81,1010.7,,,,,,,,,,,,,TRACE,,4/8 Partly Cloudy,72000.0,,SCT,9900,,,,,,
KRDR,08-29-2008,11:00,METAR,,220,7,,,9999.0,,12.0,8.0,29.81,1010.7,,,,,,,,,,,,,,,Clear,72000.0,,,73000,,,,,,
KRDR,08-29-2008,10:00,METAR,,220,7,,,9999.0,,13.0,8.0,29.82,1010.9,,,,,,,,,,,,,,,Clear,72000.0,,,73000,,,,,,
KRDR,08-29-2008,09:00,METAR,,230,6,,,9999.0,,14.0,9.0,29.83,1011.2,,,,,,,,,,,TRACE,TRACE,,,4/8 Partly Cloudy,72000.0,,SCT,9900,,,,,,
KRDR,08-29-2008,08:17,SPECI,,230,5,,,9999.0,,15.0,8.0,29.83,1011.3,,,,,,,,,,,,,,,4/8 Partly Cloudy,72000.0,,SCT,9900,,,,,,
KRDR,08-29-2008,08:07,SPECI,,240,6,,,9999.0,,15.0,9.0,29.84,1011.7,,,,,,,,,,,,,,,4/8 Partly Cloudy,72000.0,,SCT,9900,,,,,,
KRDR,08-29-2008,08:00,METAR,,300,7,,,9999.0,,15.0,9.0,29.85,1011.8,,,,,,,,,,,TRACE,,,,2/8 Mostly Clear,72000.0,,FEW,9900,,,,,,
KRDR,08-29-2008,07:47,SPECI,,240,9,,,9999.0,,14.0,9.0,29.85,1011.7,,,,,,,,,,,,,,,2/8 Mostly Clear,72000.0,,FEW,9900,,,,,,
KRDR,08-29-2008,07:37,SPECI,,240,9,,,9999.0,Unknown Precipitation,14.0,9.0,29.84,1011.6,40,,,,,,,,,,,,,,7/8 Mostly Cloudy,10000.0,,BKN,9900,,,,,,
KRDR,08-29-2008,07:00,METAR,,220,8,,,9999.0,,14.0,8.0,29.81,1010.7,,,,,,,,,,,,,,,7/8 Mostly Cloudy,11000.0,,BKN,11000,,,,,,
KRDR,08-29-2008,06:00,METAR,,210,6,,,9999.0,,14.0,8.0,29.82,1010.8,,,,,,,,,,,,,,,4/8 Partly Cloudy,72000.0,,SCT,12000,,,,,,
KRDR,08-29-2008,05:00,METAR,,210,6,,,9999.0,,14.0,9.0,29.82,1010.9,,,,,,,,,,,,,,,Clear,72000.0,,,73000,,,,,,
KRDR,08-29-2008,04:00,METAR,,210,6,,,9999.0,,12.0,8.0,29.83,1011.2,,,,,,,,,,,,,,,4/8 Partly Cloudy,72000.0,,SCT,16000,,,,,,
KRDR,08-29-2008,03:00,METAR,,220,5,,,9999.0,,13.0,8.0,29.84,1011.4,,,,,,,,,,,,,,,2/8 Mostly Clear,72000.0,,FEW,6900,,,,,,
KRDR,08-29-2008,02:00,METAR,,230,6,,,9999.0,,13.0,9.0,29.83,1011.2,,,,,,,,,,,,,,,2/8 Mostly Clear,72000.0,,FEW,7400,,,,,,
KRDR,08-29-2008,01:00,METAR,,250,6,,,9999.0,,18.0,9.0,29.82,1010.9,,,,,,,,,,,,,,,2/8 Mostly Clear,72000.0,,FEW,7400,,,,,,
KRDR,08-29-2008,00:00,METAR,,290,8,15.0,,9999.0,,21.0,8.0,29.82,1010.7,,,,,,,,,,,,,,,2/8 Mostly Clear,72000.0,,FEW,7400,,,,,,
KRDR,08-28-2008,23:00,METAR,,290,11,,,9999.0,,22.0,7.0,29.81,1010.6,,,,,,,,,,,,,,,4/8 Partly Cloudy,72000.0,,SCT,7400,,,,,,
KRDR,08-28-2008,22:00,METAR,,320,15,19.0,,9999.0,,22.0,7.0,29.79,1010.3,,,,,,,,,,,,,,,4/8 Partly Cloudy,72000.0,,SCT,6900,,,,,,
KRDR,08-28-2008,21:00,METAR,,310,13,20.0,,9999.0,,22.0,7.0,29.79,1010.2,,,,,,,,,,,,,,,4/8 Partly Cloudy,72000.0,,SCT,6400,,,,,,
KRDR,08-28-2008,20:00,METAR,,300,12,20.0,,9999.0,,20.0,8.0,29.79,1010.3,,,,,,,,,,,,,,,4/8 Partly Cloudy,72000.0,,SCT,5900,,,,,,
KRDR,08-28-2008,19:00,METAR,,310,12,19.0,,9999.0,,20.0,10.0,29.78,1010.0,,,,,,,,,,,,,,,4/8 Partly Cloudy,72000.0,,SCT,4700,,,,,,
KRDR,08-28-2008,18:00,METAR,,300,11,19.0,,9999.0,,19.0,11.0,29.78,1009.7,,,,,,,,,,,,,TRACE,,4/8 Partly Cloudy,72000.0,,SCT,4000,,,,,,
KRDR,08-28-2008,17:00,METAR,,300,10,,,9999.0,,18.0,11.0,29.77,1009.4,,,,,,,,,,,,,,,4/8 Partly Cloudy,72000.0,,SCT,3500,,,,,,
KRDR,08-28-2008,16:00,METAR,,290,9,,,9999.0,,17.0,12.0,29.76,1009.0,,,,,,,,,,,,,,,7/8 Mostly Cloudy,20000.0,,FEW,2000,SCT,4500.0,BKN,20000.0,,
KRDR,08-28-2008,15:00,METAR,,220,9,,,9999.0,,16.0,11.0,29.75,1008.6,,,,,,,,,,,,,,,4/8 Partly Cloudy,72000.0,,SCT,8900,,,,,,
KRDR,08-28-2008,14:00,METAR,,250,3,,,9999.0,,13.0,11.0,29.75,1008.7,,,,,,,,,,,,,,,4/8 Partly Cloudy,72000.0,,SCT,8900,,,,,,
KRDR,08-28-2008,13:00,METAR,,180,3,,,9999.0,,11.0,11.0,29.73,1007.9,,,,,,,,,,,,,,,4/8 Partly Cloudy,72000.0,,SCT,9900,,,,,,
KRDR,08-28-2008,12:00,METAR,,190,6,,,9999.0,,11.0,10.0,29.75,1008.5,,,,,,,,,,,TRACE,,TRACE,,7/8 Mostly Cloudy,9000.0,,BKN,8900,,,,,,
KRDR,08-28-2008,11:50,SPECI,,200,5,,,9999.0,,11.0,10.0,29.75,1008.5,,,,,,,,,,,,,,,7/8 Mostly Cloudy,9000.0,,BKN,8900,,,,,,
KRDR,08-28-2008,11:38,SPECI,,240,4,,,9999.0,Drizzle,10.0,10.0,29.75,1008.7,,,,51,,,,,,,,,,,7/8 Mostly Cloudy,7000.0,,FEW,5000,BKN,6900.0,,,,
KRDR,08-28-2008,11:00,METAR,,230,4,,,9999.0,,10.0,9.0,29.74,1008.3,,,,,,,,,,,,,,,4/8 Partly Cloudy,72000.0,,SCT,9900,,,,,,
KRDR,08-28-2008,10:00,METAR,,230,4,,,9999.0,,8.0,8.0,29.74,1008.1,,,,,,,,,,,,,,,Clear,72000.0,,,73000,,,,,,
KRDR,08-28-2008,09:00,METAR,,240,4,,,9999.0,,8.0,8.0,29.74,1008.2,,,,,,,,,,,,,,,Clear,72000.0,,,73000,,,,,,
KRDR,08-28-2008,08:00,METAR,,210,4,,,9999.0,,10.0,9.0,29.75,1008.6,,,,,,,,,,,,,,,4/8 Partly Cloudy,72000.0,,SCT,9900,,,,,,
KRDR,08-28-2008,07:00,METAR,,,0,,,9999.0,,10.0,9.0,29.76,1009.1,,,,,,,,,,,,,,,Clear,72000.0,,,73000,,,,,,
KRDR,08-28-2008,06:00,METAR,,230,7,,,9999.0,,11.0,11.0,29.76,1008.9,,,,,,,,,,,TRACE,,TRACE,,2/8 Mostly Clear,72000.0,,FEW,12000,,,,,,
KRDR,08-28-2008,05:14,SPECI,,260,3,,,9999.0,,12.0,11.0,29.74,1008.6,,,,,,,,,,,,,,,8/8 Overcast,8000.0,,OVC,7900,,,,,,
KRDR,08-28-2008,05:00,METAR,,,0,,,9999.0,Rain,12.0,11.0,29.74,1008.6,,,,61,,,,,,,TRACE,,,,8/8 Overcast,8000.0,,SCT,5900,OVC,7900.0,,,,
KRDR,08-28-2008,04:00,METAR,,10,7,,,9999.0,Rain,12.0,11.0,29.74,1008.1,,,,61,,,,,,,TRACE,,,,8/8 Overcast,8000.0,,OVC,7900,,,,,,
KRDR,08-28-2008,03:00,METAR,,50,5,,,9999.0,Rain,13.0,11.0,29.75,1009.1,,,,61,,,,,,,.01 IN,.05 IN,,,8/8 Overcast,7500.0,,OVC,7400,,,,,,
KRDR,08-28-2008,02:00,METAR,,260,8,,,9999.0,Rain,13.0,11.0,29.83,1011.4,,,,61,,,,,,,.04 IN,,,,8/8 Overcast,6000.0,,SCT,4500,BKN,5900.0,OVC,7900.0,,
KRDR,08-28-2008,01:00,METAR,,260,14,18.0,,9999.0,Rain,16.0,11.0,29.83,1011.3,,,,61,,,,,,,TRACE,,,,8/8 Overcast,7000.0,,BKN,6900,OVC,9900.0,,,,
KRDR,08-28-2008,00:29,SPECI,,220,9,,,9999.0,Rain,18.0,9.0,29.82,1010.9,,,,61,,,,,,,,,,,8/8 Overcast,10000.0,,SCT,6900,OVC,9900.0,,,,
KRDR,08-28-2008,00:00,METAR,,240,4,,,9999.0,,17.0,11.0,29.81,1010.6,,,,,,,,,,,,,,,8/8 Overcast,10000.0,,FEW,5000,BKN,9900.0,OVC,25000.0,,
KRDR,08-27-2008,23:00,METAR,,230,4,,,9999.0,,18.0,10.0,29.81,1010.6,,,,,,,,,,,,,,,8/8 Overcast,12000.0,,FEW,4500,BKN,12000.0,OVC,25000.0,,
KRDR,08-27-2008,22:00,METAR,,210,7,,,9999.0,,19.0,9.0,29.79,1010.1,,,,,,,,,,,,,,,8/8 Overcast,12000.0,,FEW,4500,BKN,12000.0,OVC,25000.0,,
KRDR,08-27-2008,21:00,METAR,,200,9,,,9999.0,,19.0,8.0,29.82,1010.9,,,,,,,,,,,,,,,8/8 Overcast,25000.0,,SCT,9900,OVC,25000.0,,,,
KRDR,08-27-2008,20:00,METAR,,190,7,,,9999.0,,20.0,8.0,29.83,1011.2,,,,,,,,,,,,,,,8/8 Overcast,25000.0,,FEW,4500,FEW,12000.0,OVC,25000.0,,
KRDR,08-27-2008,19:00,METAR,,220,7,,,9999.0,,20.0,9.0,29.86,1012.2,,,,,,,,,,,,,,,8/8 Overcast,25000.0,,FEW,6900,FEW,18000.0,OVC,25000.0,,
KRDR,08-27-2008,18:00,METAR,,280,5,,,9999.0,,19.0,9.0,29.88,1012.7,,,,,,,,,,,,,,,7/8 Mostly Cloudy,25000.0,,BKN,25000,,,,,,
KRDR,08-27-2008,17:00,METAR,,280,6,,,9999.0,,18.0,9.0,29.89,1013.2,,,,,,,,,,,,,,,7/8 Mostly Cloudy,25000.0,,BKN,25000,,,,,,
KRDR,08-27-2008,16:00,METAR,,310,6,,,9999.0,,17.0,9.0,29.88,1012.8,,,,,,,,,,,,,,,7/8 Mostly Cloudy,25000.0,,BKN,25000,,,,,,
KRDR,08-27-2008,15:00,METAR,,270,9,,,9999.0,,15.0,9.0,29.88,1012.8,,,,,,,,,,,,,,,7/8 Mostly Cloudy,25000.0,,BKN,25000,,,,,,
KRDR,08-27-2008,14:00,METAR,,270,11,,,9999.0,,14.0,8.0,29.88,1013.0,,,,,,,,,,,,,,,7/8 Mostly Cloudy,25000.0,,BKN,25000,,,,,,
KRDR,08-27-2008,13:00,METAR,,250,9,,,9999.0,,11.0,8.0,29.88,1012.7,,,,,,,,,,,,,,,4/8 Partly Cloudy,72000.0,,SCT,12000,SCT,25000.0,,,,
KRDR,08-27-2008,12:00,METAR,,250,3,,,9999.0,,10.0,7.0,29.85,1011.9,,,,,,,,,,,,,TRACE,,4/8 Partly Cloudy,72000.0,,SCT,12000,,,,,,
KRDR,08-27-2008,11:00,METAR,,290,7,,,9999.0,,12.0,8.0,29.82,1011.0,,,,,,,,,,,,,,,Clear,72000.0,,,73000,,,,,,
KRDR,08-27-2008,10:00,METAR,,290,16,,310/26KTS,9999.0,,13.0,8.0,29.79,1009.9,,,,,,,,,,,,,,,Clear,72000.0,,,73000,,,,,,
KRDR,08-27-2008,09:00,METAR,,290,14,19.0,,9999.0,,16.0,13.0,29.74,1008.3,,,,,,,,,,,,TRACE,,,Clear,72000.0,,,73000,,,,,,
KRDR,08-27-2008,08:00,METAR,,250,8,,,9999.0,,16.0,15.0,29.71,1007.3,,,,,,,,,,,,,,,Clear,72000.0,,,73000,,,,,,
KRDR,08-27-2008,07:00,METAR,,200,9,,,9999.0,,17.0,16.0,29.71,1007.2,,,,,,,,,,,TRACE,,,,2/8 Mostly Clear,72000.0,,FEW,12000,,,,,,
KRDR,08-27-2008,06:03,SPECI,,160,6,,,9999.0,,18.0,17.0,29.69,1006.7,,,,,,,,,,,,,,,7/8 Mostly Cloudy,10000.0,,SCT,5900,BKN,9900.0,,,,
KRDR,08-27-2008,06:00,METAR,,160,5,,,9999.0,Rain,18.0,17.0,29.70,1006.9,,,,61,,,,,,,.08 IN,,.15 IN,,8/8 Overcast,6000.0,,BKN,5900,BKN,7900.0,OVC,9900.0,,
KRDR,08-27-2008,05:26,SPECI,,,3,,,9999.0,Rain,18.0,16.0,29.70,1007.0,,,,61,,,,,,,,,,,8/8 Overcast,4100.0,,SCT,3500,BKN,4200.0,OVC,6400.0,,
KRDR,08-27-2008,05:00,METAR,,290,10,,,9999.0,Thunderstorm with Rain or Snow/Rain Showers,18.0,16.0,29.72,1007.5,,,,95,81,,,,,,.07 IN,,,,7/8 Mostly Cloudy,3600.0,,FEW,1900,BKN,3700.0,BKN,7900.0,,
KRDR,08-27-2008,04:15,SPECI,,210,12,20.0,,8000.0,Thunderstorm with Rain or Snow/Light Rain Showers,19.0,16.0,29.72,1007.5,,,,95,80,,,,,,,,,,7/8 Mostly Cloudy,4900.0,,FEW,1000,BKN,5000.0,,,,
KRDR,08-27-2008,04:00,METAR,,190,15,24.0,170/29KTS,9999.0,Thunderstorm with Rain or Snow/Light Rain Showers,22.0,14.0,29.68,1006.3,,,,95,80,,,,,,TRACE,,,,8/8 Overcast,6000.0,,OVC,5900,,,,,,
KRDR,08-27-2008,03:00,METAR,,170,20,26.0,170/28KTS,9999.0,,22.0,13.0,29.65,1005.4,,,,,,,,,,,,,,,8/8 Overcast,20000.0,,SCT,6400,SCT,12000.0,OVC,20000.0,,
KRDR,08-27-2008,02:00,METAR,,170,15,25.0,160/26KTS,9999.0,,23.0,13.0,29.66,1005.6,,,,,,,,,,,,,,,7/8 Mostly Cloudy,12000.0,,FEW,6900,BKN,12000.0,BKN,20000.0,,
KRDR,08-27-2008,01:00,METAR,,160,21,28.0,160/29KTS,9999.0,,24.0,14.0,29.64,1005.1,,,,,,,,,,,,,,,7/8 Mostly Cloudy,20000.0,,FEW,6900,SCT,12000.0,BKN,20000.0,,
KRDR,08-27-2008,00:00,METAR,,170,21,28.0,170/34KTS,9999.0,,25.0,14.0,29.67,1005.9,,,,,,,,,,,,,,,7/8 Mostly Cloudy,20000.0,,FEW,6900,SCT,12000.0,BKN,20000.0,,
KRDR,08-26-2008,23:00,METAR,,150,20,32.0,160/38KTS,9999.0,,26.0,15.0,29.65,1005.2,,,,,,,,,,,,,,,4/8 Partly Cloudy,72000.0,,FEW,12000,SCT,20000.0,,,,
KRDR,08-26-2008,22:00,METAR,,150,24,36.0,170/39KTS,9999.0,,27.0,15.0,29.65,1005.2,,,,,,,,,,,,,,,2/8 Mostly Clear,72000.0,,FEW,20000,,,,,,
KRDR,08-26-2008,21:00,METAR,,160,28,35.0,150/38KTS,9999.0,,27.0,15.0,29.67,1006.1,,,,,,,,,,,,,,,Clear,72000.0,,,73000,,,,,,
KRDR,08-26-2008,20:00,METAR,,150,26,33.0,160/35KTS,9999.0,,27.0,15.0,29.69,1006.7,,,,,,,,,,,,,,,Clear,72000.0,,,73000,,,,,,
KRDR,08-26-2008,19:00,METAR,,160,25,33.0,160/35KTS,9999.0,,26.0,15.0,29.71,1007.2,,,,,,,,,,,,,,,Clear,72000.0,,,73000,,,,,,
KRDR,08-26-2008,18:00,METAR,,160,23,31.0,160/33KTS,9999.0,,25.0,15.0,29.73,1007.8,,,,,,,,,,,,,,,Clear,72000.0,,,73000,,,,,,
KRDR,08-26-2008,17:00,METAR,,160,19,29.0,170/33KTS,9999.0,,24.0,15.0,29.75,1008.7,,,,,,,,,,,,,,,Clear,72000.0,,,73000,,,,,,
KRDR,08-26-2008,16:00,METAR,,170,19,25.0,170/29KTS,9999.0,,23.0,14.0,29.76,1009.0,,,,,,,,,,,,,,,Clear,72000.0,,,73000,,,,,,
KRDR,08-26-2008,15:00,METAR,,160,16,25.0,170/26KTS,9999.0,,20.0,13.0,29.78,1009.5,,,,,,,,,,,,,,,Clear,72000.0,,,73000,,,,,,
KRDR,08-26-2008,14:00,METAR,,160,16,22.0,,9999.0,,18.0,13.0,29.79,1010.1,,,,,,,,,,,,,,,Clear,72000.0,,,73000,,,,,,
KRDR,08-26-2008,13:00,METAR,,150,15,,,9999.0,,15.0,12.0,29.81,1010.7,,,,,,,,,,,,,,,Clear,72000.0,,,73000,,,,,,
KRDR,08-26-2008,12:00,METAR,,150,10,,,9999.0,,14.0,12.0,29.82,1011.1,,,,,,,,,,,,,,,Clear,72000.0,,,73000,,,,,,
KRDR,08-26-2008,11:00,METAR,,150,10,,,9999.0,,14.0,12.0,29.84,1011.4,,,,,,,,,,,,,,,Clear,72000.0,,,73000,,,,,,
KRDR,08-26-2008,10:00,METAR,,140,10,,,9999.0,,14.0,12.0,29.85,1011.9,,,,,,,,,,,,,,,Clear,72000.0,,,73000,,,,,,
KRDR,08-26-2008,09:00,METAR,,140,8,,,9999.0,,14.0,11.0,29.86,1012.3,,,,,,,,,,,,,,,Clear,72000.0,,,73000,,,,,,
KRDR,08-26-2008,08:00,METAR,,150,9,,,9999.0,,15.0,12.0,29.87,1012.5,,,,,,,,,,,,,,,Clear,72000.0,,,73000,,,,,,
KRDR,08-26-2008,07:00,METAR,,170,13,,,9999.0,,17.0,12.0,29.88,1012.9,,,,,,,,,,,,,,,Clear,72000.0,,,73000,,,,,,
KRDR,08-26-2008,06:00,METAR,,160,13,,,9999.0,,18.0,12.0,29.89,1013.3,,,,,,,,,,,,,,,Clear,72000.0,,,73000,,,,,,
KRDR,08-26-2008,05:00,METAR,,170,12,,,9999.0,,18.0,12.0,29.90,1013.5,,,,,,,,,,,,,,,Clear,72000.0,,,73000,,,,,,
KRDR,08-26-2008,04:00,METAR,,160,11,,,9999.0,,19.0,12.0,29.91,1013.9,,,,,,,,,,,,,,,Clear,72000.0,,,73000,,,,,,
KRDR,08-26-2008,03:00,METAR,,160,12,,,9999.0,,20.0,12.0,29.92,1014.2,,,,,,,,,,,,,,,Clear,72000.0,,,73000,,,,,,
KRDR,08-26-2008,02:00,METAR,,150,11,,,9999.0,,21.0,13.0,29.91,1014.0,,,,,,,,,,,,,,,Clear,72000.0,,,73000,,,,,,
KRDR,08-26-2008,01:00,METAR,,150,13,,,9999.0,,23.0,13.0,29.92,1014.1,,,,,,,,,,,,,,,Clear,72000.0,,,73000,,,,,,
KRDR,08-26-2008,00:00,METAR,,150,17,22.0,,9999.0,,25.0,13.0,29.93,1014.4,,,,,,,,,,,,,,,Clear,72000.0,,,73000,,,,,,
KRDR,08-25-2008,23:00,METAR,,160,14,23.0,,9999.0,,26.0,13.0,29.94,1014.9,,,,,,,,,,,,,,,Clear,72000.0,,,73000,,,,,,
KRDR,08-25-2008,22:00,METAR,,160,14,23.0,180/26KTS,9999.0,,27.0,13.0,29.96,1015.4,,,,,,,,,,,,,,,Clear,72000.0,,,73000,,,,,,
KRDR,08-25-2008,21:00,METAR,,160,14,24.0,,9999.0,,27.0,13.0,29.97,1015.8,,,,,,,,,,,,,,,Clear,72000.0,,,73000,,,,,,
KRDR,08-25-2008,20:00,METAR,,170,18,22.0,,9999.0,,27.0,13.0,29.98,1016.1,,,,,,,,,,,,,,,Clear,72000.0,,,73000,,,,,,
KRDR,08-25-2008,19:00,METAR,,170,17,,,9999.0,,26.0,13.0,29.99,1016.6,,,,,,,,,,,,,,,Clear,72000.0,,,73000,,,,,,
KRDR,08-25-2008,18:00,METAR,,170,13,17.0,,9999.0,,25.0,14.0,30.02,1017.5,,,,,,,,,,,,,,,Clear,72000.0,,,73000,,,,,,
KRDR,08-25-2008,17:00,METAR,,150,10,,,9999.0,,23.0,14.0,30.03,1017.9,,,,,,,,,,,,,,,Clear,72000.0,,,73000,,,,,,
KRDR,08-25-2008,16:00,METAR,,170,11,,,9999.0,,22.0,13.0,30.04,1018.1,,,,,,,,,,,,,,,Clear,72000.0,,,73000,,,,,,
KRDR,08-25-2008,15:00,METAR,,160,9,,,9999.0,,19.0,12.0,30.04,1018.2,,,,,,,,,,,,,,,Clear,72000.0,,,73000,,,,,,
KRDR,08-25-2008,14:00,METAR,,160,9,,,9999.0,,15.0,11.0,30.06,1018.8,,,,,,,,,,,,,,,Clear,72000.0,,,73000,,,,,,
KRDR,08-25-2008,13:00,METAR,,170,7,,,9999.0,,12.0,10.0,30.07,1019.1,,,,,,,,,,,,,,,2/8 Mostly Clear,72000.0,,FEW,7900,,,,,,
KRDR,08-25-2008,12:00,METAR,,140,5,,,9999.0,,10.0,9.0,30.07,1019.2,,,,,,,,,,,,,,,2/8 Mostly Clear,72000.0,,FEW,7900,,,,,,
KRDR,08-25-2008,11:00,METAR,,150,5,,,9999.0,,10.0,9.0,30.07,1019.2,,,,,,,,,,,,,,,2/8 Mostly Clear,72000.0,,FEW,7900,,,,,,
KRDR,08-25-2008,10:00,METAR,,140,3,,,9999.0,,11.0,9.0,30.08,1019.3,,,,,,,,,,,,,,,4/8 Partly Cloudy,72000.0,,SCT,7900,,,,,,
KRDR,08-25-2008,09:00,METAR,,150,6,,,9999.0,,11.0,9.0,30.08,1019.6,,,,,,,,,,,,,,,Clear,72000.0,,,73000,,,,,,
KRDR,08-25-2008,08:00,METAR,,130,5,,,9999.0,,12.0,9.0,30.08,1019.5,,,,,,,,,,,,,,,Clear,72000.0,,,73000,,,,,,
KRDR,08-25-2008,07:00,METAR,,160,5,,,9999.0,,12.0,9.0,30.08,1019.6,,,,,,,,,,,,,,,Clear,72000.0,,,73000,,,,,,
KRDR,08-25-2008,06:00,METAR,,150,5,,,9999.0,,12.0,8.0,30.10,1020.0,,,,,,,,,,,,,,,Clear,72000.0,,,73000,,,,,,
KRDR,08-25-2008,05:00,METAR,,180,4,,,9999.0,,11.0,8.0,30.11,1020.3,,,,,,,,,,,,,,,Clear,72000.0,,,73000,,,,,,
KRDR,08-25-2008,04:00,METAR,,140,7,,,9999.0,,15.0,9.0,30.10,1020.3,,,,,,,,,,,,,,,Clear,72000.0,,,73000,,,,,,
KRDR,08-25-2008,03:00,METAR,,140,6,,,9999.0,,15.0,9.0,30.11,1020.5,,,,,,,,,,,,,,,Clear,72000.0,,,73000,,,,,,
KRDR,08-25-2008,02:00,METAR,,140,5,,,9999.0,,17.0,9.0,30.11,1020.3,,,,,,,,,,,,,,,Clear,72000.0,,,73000,,,,,,
KRDR,08-25-2008,01:00,METAR,,140,4,,,9999.0,,19.0,9.0,30.11,1020.3,,,,,,,,,,,,,,,Clear,72000.0,,,73000,,,,,,
KRDR,08-25-2008,00:00,METAR,,130,6,,,9999.0,,21.0,9.0,30.11,1020.6,,,,,,,,,,,,,,,Clear,72000.0,,,73000,,,,,,
KRDR,08-24-2008,20:00,METAR,,,3,,,9999.0,,21.0,9.0,30.18,1022.7,,,,,,,,,,,,,,,Clear,72000.0,,,73000,,,,,,
KRDR,08-24-2008,19:00,METAR,,200,5,,,9999.0,,20.0,9.0,30.20,1023.4,,,,,,,,,,,,,,,Clear,72000.0,,,73000,,,,,,
KRDR,08-24-2008,18:00,METAR,,130,6,,,9999.0,,19.0,10.0,30.21,1023.9,,,,,,,,,,,,,,,Clear,72000.0,,,73000,,,,,,
KRDR,08-24-2008,17:00,METAR,,,3,,,9999.0,,18.0,9.0,30.23,1024.3,,,,,,,,,,,,,,,Clear,72000.0,,,73000,,,,,,
KRDR,08-24-2008,16:00,METAR,,,3,,,9999.0,,16.0,9.0,30.23,1024.5,,,,,,,,,,,,,,,Clear,72000.0,,,73000,,,,,,
KRDR,08-24-2008,15:00,METAR,,100,5,,,9999.0,,15.0,8.0,30.23,1024.4,,,,,,,,,,,,,,,Clear,72000.0,,,73000,,,,,,
KRDR,08-24-2008,14:00,METAR,,,0,,,9999.0,,12.0,10.0,30.24,1024.7,,,,,,,,,,,,,,,Clear,72000.0,,,73000,,,,,,
KRDR,08-24-2008,13:00,METAR,,,0,,,9999.0,,7.0,7.0,30.23,1024.4,,,,,,,,,,,,,,,Clear,72000.0,,,73000,,,,,,
KRDR,08-24-2008,12:00,METAR,,240,3,,,9999.0,,4.0,3.0,30.22,1024.1,,,,,,,,,,,,,,,Clear,72000.0,,,73000,,,,,,
KRDR,08-24-2008,11:38,SPECI,,,0,,,4800.0,Mist,4.0,4.0,30.22,1024.0,10,,,,,,,,,,,,,,Clear,72000.0,,,73000,,,,,,
KRDR,08-24-2008,11:30,SPECI,,,0,,,2800.0,Mist,5.0,4.0,30.22,1023.9,10,,,,,,,,,,,,,,Clear,72000.0,,,73000,,,,,,
KRDR,08-24-2008,11:18,SPECI,,,0,,,6400.0,Mist,5.0,5.0,30.21,1023.8,10,,,,,,,,,,,,,,Clear,72000.0,,,73000,,,,,,
KRDR,08-24-2008,11:15,SPECI,,,0,,,6400.0,Mist,5.0,4.0,30.21,1023.7,10,,,,,,,,,,,,,,Clear,72000.0,,,73000,,,,,,
KRDR,08-24-2008,11:00,METAR,,270,4,,,9999.0,,4.0,3.0,30.21,1023.7,,,,,,,,,,,,,,,Clear,72000.0,,,73000,,,,,,
KRDR,08-24-2008,10:00,METAR,,230,4,,,4800.0,Mist,4.0,3.0,30.19,1023.2,10,,,,,,,,,,,,,,Clear,72000.0,,,73000,,,,,,
KRDR,08-24-2008,09:45,SPECI,,,0,,,4000.0,Mist,4.0,4.0,30.19,1023.1,10,,,,,,,,,,,,,,Clear,72000.0,,,73000,,,,,,
KRDR,08-24-2008,09:22,SPECI,,,0,,,4800.0,Mist,4.0,4.0,30.19,1023.0,10,,,,,,,,,,,,,,Clear,72000.0,,,73000,,,,,,
KRDR,08-24-2008,09:19,SPECI,,,0,,,3200.0,Mist,4.0,4.0,30.19,1023.0,10,,,,,,,,,,,,,,Clear,72000.0,,,73000,,,,,,
KRDR,08-24-2008,09:18,SPECI,,,0,,,3200.0,Mist,4.0,4.0,30.18,1022.9,10,,,,,,,,,,,,,,Clear,72000.0,,,73000,,,,,,
KRDR,08-24-2008,09:15,SPECI,,,0,,,2800.0,Mist,5.0,4.0,30.18,1022.9,10,,,,,,,,,,,,,,Clear,72000.0,,,73000,,,,,,
KRDR,08-24-2008,09:12,SPECI,,,0,,,4000.0,Mist,5.0,4.0,30.18,1022.9,10,,,,,,,,,,,,,,Clear,72000.0,,,73000,,,,,,
KRDR,08-24-2008,09:00,METAR,,,0,,,9999.0,,5.0,4.0,30.18,1022.9,,,,,,,,,,,,,,,Clear,72000.0,,,73000,,,,,,
KRDR,08-24-2008,08:00,METAR,,330,3,,,9999.0,,5.0,5.0,30.18,1022.7,,,,,,,,,,,,,,,Clear,72000.0,,,73000,,,,,,
KRDR,08-24-2008,07:00,METAR,,,0,,,9999.0,,6.0,5.0,30.17,1022.6,,,,,,,,,,,,,,,Clear,72000.0,,,73000,,,,,,
KRDR,08-24-2008,06:00,METAR,,,0,,,9999.0,,7.0,6.0,30.17,1022.3,,,,,,,,,,,,,,,Clear,72000.0,,,73000,,,,,,
KRDR,08-24-2008,05:00,METAR,,320,3,,,9999.0,,7.0,6.0,30.15,1021.9,,,,,,,,,,,,,,,Clear,72000.0,,,73000,,,,,,
KRDR,08-24-2008,04:00,METAR,,320,3,,,9999.0,,8.0,6.0,30.14,1021.5,,,,,,,,,,,,,,,Clear,72000.0,,,73000,,,,,,
KRDR,08-24-2008,03:00,METAR,,310,3,,,9999.0,,10.0,7.0,30.13,1021.1,,,,,,,,,,,,,,,Clear,72000.0,,,73000,,,,,,
KRDR,08-24-2008,02:35,SPECI,,,0,,,9999.0,,10.0,7.0,30.12,1020.9,,,,,,,,,,,,,,,Clear,72000.0,,,73000,,,,,,
KRDR,08-24-2008,02:27,SPECI,,,0,,,9999.0,,11.0,7.0,30.12,1020.8,,,,,,,,,,,,,,,Clear,72000.0,,,73000,,,,,,
KRDR,08-24-2008,02:00,METAR,,350,3,,,9999.0,,14.0,8.0,30.11,1020.4,,,,,,,,,,,,,,,Clear,72000.0,,,73000,,,,,,
KRDR,08-24-2008,01:00,METAR,,350,5,,,9999.0,,17.0,8.0,30.09,1019.8,,,,,,,,,,,,,,,Clear,72000.0,,,73000,,,,,,
KRDR,08-24-2008,00:00,METAR,,340,9,,,9999.0,,20.0,6.0,30.08,1019.6,,,,,,,,,,,,,,,Clear,72000.0,,,73000,,,,,,
KRDR,08-23-2008,23:00,METAR,,300,11,,,9999.0,,21.0,7.0,30.08,1019.6,,,,,,,,,,,,,,,2/8 Mostly Clear,72000.0,,FEW,12000,,,,,,
KRDR,08-23-2008,22:00,METAR,,290,11,18.0,,9999.0,,21.0,8.0,30.09,1019.7,,,,,,,,,,,,,,,2/8 Mostly Clear,72000.0,,FEW,9900,,,,,,
KRDR,08-23-2008,21:00,METAR,,300,14,19.0,,9999.0,,21.0,8.0,30.09,1019.7,,,,,,,,,,,,,,,2/8 Mostly Clear,72000.0,,FEW,9900,,,,,,
KRDR,08-23-2008,20:00,METAR,,310,12,20.0,,9999.0,,20.0,8.0,30.10,1020.0,,,,,,,,,,,,,,,2/8 Mostly Clear,72000.0,,FEW,6900,FEW,20000.0,,,,
KRDR,08-23-2008,19:00,METAR,,320,17,23.0,290/27KTS,9999.0,,19.0,8.0,30.10,1020.0,,,,,,,,,,,,,,,2/8 Mostly Clear,72000.0,,FEW,4000,FEW,15000.0,,,,
KRDR,08-23-2008,18:00,METAR,,300,19,27.0,300/27KTS,9999.0,,19.0,8.0,30.09,1019.7,,,,,,,,,,,,,,,2/8 Mostly Clear,72000.0,,FEW,4000,FEW,15000.0,,,,
KRDR,08-23-2008,17:00,METAR,,300,16,24.0,,9999.0,,18.0,8.0,30.09,1019.7,,,,,,,,,,,,,,,2/8 Mostly Clear,72000.0,,FEW,4000,FEW,15000.0,,,,
KRDR,08-23-2008,16:00,METAR,,280,13,22.0,,9999.0,,16.0,7.0,30.08,1019.4,,,,,,,,,,,,,,,2/8 Mostly Clear,72000.0,,FEW,3100,,,,,,
KRDR,08-23-2008,15:00,METAR,,300,16,24.0,,9999.0,,15.0,7.0,30.07,1019.2,,,,,,,,,,,,,,,2/8 Mostly Clear,72000.0,,FEW,3100,,,,,,
KRDR,08-23-2008,14:00,METAR,,310,15,21.0,,9999.0,,14.0,7.0,30.05,1018.4,,,,,,,,,,,,,,,Clear,72000.0,,,73000,,,,,,
KRDR,08-23-2008,13:00,METAR,,290,9,,,9999.0,,13.0,7.0,30.03,1018.0,,,,,,,,,,,,,,,2/8 Mostly Clear,72000.0,,FEW,3700,,,,,,
KRDR,08-23-2008,12:00,METAR,,290,6,,,9999.0,,10.0,7.0,30.02,1017.4,,,,,,,,,,,,,,,Clear,72000.0,,,73000,,,,,,
KRDR,08-23-2008,11:00,METAR,,300,9,,,9999.0,,12.0,7.0,29.99,1016.6,,,,,,,,,,,,,,,Clear,72000.0,,,73000,,,,,,
KRDR,08-23-2008,10:00,METAR,,290,10,20.0,,9999.0,,14.0,8.0,29.98,1016.2,,,,,,,,,,,,,,,8/8 Overcast,3100.0,,OVC,3200,,,,,,
KRDR,08-23-2008,09:00,METAR,,290,12,19.0,,9999.0,,14.0,8.0,29.96,1015.6,,,,,,,,,,,,,,,8/8 Overcast,3200.0,,OVC,3300,,,,,,
KRDR,08-23-2008,08:00,METAR,,290,11,,,9999.0,,14.0,9.0,29.94,1015.0,,,,,,,,,,,,,,,8/8 Overcast,3400.0,,OVC,3500,,,,,,
KRDR,08-23-2008,07:00,METAR,,290,13,,,9999.0,,13.0,9.0,29.92,1014.3,,,,,,,,,,,,,,,4/8 Partly Cloudy,72000.0,,SCT,3000,,,,,,
KRDR,08-23-2008,06:00,METAR,,290,11,,,9999.0,,14.0,10.0,29.90,1013.5,,,,,,,,,,,,,TRACE,,7/8 Mostly Cloudy,3100.0,,BKN,3200,,,,,,
KRDR,08-23-2008,05:00,METAR,,300,16,20.0,310/30KTS,9999.0,,14.0,11.0,29.88,1012.9,,,,,,,,,,,,,,,7/8 Mostly Cloudy,3900.0,,FEW,1700,BKN,4000.0,,,,
KRDR,08-23-2008,04:00,METAR,,300,17,27.0,310/32KTS,9999.0,,14.0,11.0,29.85,1011.8,,,,,,,,,,,,,,,7/8 Mostly Cloudy,2500.0,,BKN,2500,,,,,,
KRDR,08-23-2008,03:00,METAR,,290,21,27.0,260/30KTS,9999.0,,14.0,12.0,29.79,1009.8,,,,,,,,,,,TRACE,TRACE,,,8/8 Overcast,2300.0,,FEW,1600,BKN,2300.0,OVC,4500.0,,
KRDR,08-23-2008,02:21,SPECI,,280,20,30.0,,9999.0,,14.0,13.0,29.75,,,,,,,,,,,,,,,,8/8 Overcast,1800.0,,OVC,1800,,,,,,
KRDR,08-23-2008,02:00,METAR,,260,17,26.0,280/33KTS,8000.0,Rain,14.0,13.0,29.73,1007.9,,,,61,,,,,,,TRACE,,,,8/8 Overcast,1900.0,,OVC,1900,,,,,,
KRDR,08-23-2008,01:29,SPECI,,260,23,32.0,280/33KTS,9999.0,Fog or Ice Fog,16.0,12.0,29.72,1007.5,,,,40,,,,,,,,,,,7/8 Mostly Cloudy,2700.0,,FEW,2100,BKN,2700.0,BKN,3200.0,,
KRDR,08-23-2008,01:00,METAR,,270,19,30.0,260/35KTS,9999.0,,18.0,10.0,29.69,,,,,,,,,,,,TRACE,,,,7/8 Mostly Cloudy,8500.0,,SCT,3700,BKN,8400.0,,,,
KRDR,08-23-2008,00:31,SPECI,,270,19,25.0,,9999.0,,19.0,10.0,29.68,,,,,,,,,,,,,,,,7/8 Mostly Cloudy,6500.0,,BKN,6400,,,,,,
KRDR,08-23-2008,00:08,SPECI,,260,16,21.0,,9999.0,,20.0,10.0,29.67,1006.0,,,,,,,,,,,,,,,7/8 Mostly Cloudy,8000.0,,FEW,5000,BKN,7900.0,,,,
KRDR,08-23-2008,00:00,METAR,,260,13,21.0,250/27KTS,9999.0,,20.0,9.0,29.66,1005.7,,,,,,,,,,,,,,,7/8 Mostly Cloudy,9500.0,,SCT,6400,BKN,9400.0,,,,
KRDR,08-22-2008,23:00,METAR,,270,18,26.0,280/32KTS,9999.0,,21.0,9.0,29.66,1005.7,,,,,,,,,,,,,,,7/8 Mostly Cloudy,6500.0,,BKN,6400,BKN,8400.0,,,,
KRDR,08-22-2008,22:00,METAR,,260,18,23.0,280/29KTS,9999.0,,22.0,10.0,29.64,1005.1,,,,,,,,,,,,,,,7/8 Mostly Cloudy,3900.0,,BKN,4000,BKN,8900.0,,,,
KRDR,08-22-2008,21:00,METAR,,250,9,,,9999.0,,23.0,13.0,29.63,1004.6,,,,,,,,,,,,,,,7/8 Mostly Cloudy,3900.0,,BKN,4000,BKN,6400.0,,,,
KRDR,08-22-2008,20:00,METAR,,280,20,26.0,260/26KTS,9999.0,,23.0,13.0,29.63,1004.5,,,,,,,,,,,,,,,7/8 Mostly Cloudy,3900.0,,BKN,4000,BKN,6400.0,,,,
KRDR,08-22-2008,19:00,METAR,,280,15,22.0,,9999.0,,21.0,14.0,29.60,1003.8,,,,,,,,,,,,,,,7/8 Mostly Cloudy,5500.0,,SCT,4000,BKN,5400.0,,,,
KRDR,08-22-2008,18:00,METAR,,290,11,19.0,290/29KTS,9999.0,,19.0,14.0,29.57,1003.1,,,,,,,,,,,,,TRACE,,7/8 Mostly Cloudy,5500.0,,FEW,3200,BKN,5400.0,BKN,25000.0,,
KRDR,08-22-2008,17:00,METAR,,300,13,23.0,270/33KTS,9999.0,,18.0,16.0,29.55,1002.3,,,,,,,,,,,,,,,8/8 Overcast,2500.0,,FEW,1700,SCT,2500.0,OVC,3200.0,,
KRDR,08-22-2008,16:42,SPECI,,300,16,28.0,,9999.0,,18.0,16.0,29.55,1002.0,,,,,,,,,,,,,,,8/8 Overcast,3100.0,,FEW,1200,SCT,2300.0,OVC,3100.0,,
KRDR,08-22-2008,16:24,SPECI,,290,24,33.0,270/33KTS,9999.0,,20.0,18.0,29.53,1001.4,,,,,,,,,,,,,,,8/8 Overcast,1700.0,,FEW,1000,BKN,1700.0,OVC,3200.0,,
KRDR,08-22-2008,16:06,SPECI,,260,11,,,9999.0,,20.0,20.0,29.52,1000.9,,,,,,,,,,,TRACE,,,,7/8 Mostly Cloudy,1300.0,,FEW,500,BKN,1300.0,BKN,3200.0,,
KRDR,08-22-2008,16:00,METAR,,240,9,16.0,,8000.0,,20.0,20.0,29.52,1000.9,,,,,,,,,,,TRACE,,,,8/8 Overcast,1800.0,,SCT,800,OVC,1800.0,,,,
KRDR,08-22-2008,15:24,SPECI,,220,8,,,4800.0,Drizzle,20.0,20.0,29.51,1000.6,,,,51,,,,,,,,,,,8/8 Overcast,1000.0,,FEW,800,OVC,1000.0,,,,
KRDR,08-22-2008,15:00,METAR,,200,8,,,4000.0,Drizzle,20.0,19.0,29.50,1000.3,,,,51,,,,,,,TRACE,TRACE,,,8/8 Overcast,1000.0,,SCT,800,OVC,1000.0,,,,
KRDR,08-22-2008,14:34,SPECI,,200,6,,,4000.0,Drizzle/Mist,20.0,19.0,29.50,1000.3,,,,51,10,,,,,,,,,,8/8 Overcast,1000.0,,OVC,1000,,,,,,
KRDR,08-22-2008,14:00,METAR,,170,6,,,4800.0,Drizzle,19.0,19.0,29.50,1000.2,,,,51,,,,,,,TRACE,,,,8/8 Overcast,1000.0,,FEW,500,OVC,1000.0,,,,
KRDR,08-22-2008,13:40,SPECI,,160,8,,,4800.0,Drizzle,19.0,19.0,29.50,1000.3,,,,51,,,,,,,,,,,8/8 Overcast,1200.0,,FEW,500,OVC,1200.0,,,,
KRDR,08-22-2008,13:00,METAR,,140,10,,,8000.0,Drizzle,19.0,18.0,29.51,1000.5,,,,51,,,,,,,TRACE,,,,8/8 Overcast,1700.0,,OVC,1700,,,,,,
KRDR,08-22-2008,12:00,METAR,,150,10,,,8000.0,Drizzle,20.0,18.0,29.53,1001.3,,,,51,,,,,,,TRACE,,TRACE,,8/8 Overcast,1500.0,,OVC,1500,,,,,,
KRDR,08-22-2008,11:20,SPECI,,150,13,,,9999.0,,20.0,18.0,29.52,1001.2,,,,,,,,,,,,,,,7/8 Mostly Cloudy,1500.0,,BKN,1500,,,,,,
KRDR,08-22-2008,11:00,METAR,,150,16,22.0,,9999.0,Light Rain Showers,20.0,17.0,29.52,1000.9,,,,80,,,,,,,,,,,4/8 Partly Cloudy,72000.0,,SCT,1700,,,,,,
KRDR,08-22-2008,10:00,METAR,,150,19,,,9999.0,,20.0,17.0,29.51,1000.8,,,,,,,,,,,,,,,2/8 Mostly Clear,72000.0,,FEW,2100,,,,,,
KRDR,08-22-2008,09:00,METAR,,170,15,,,9999.0,,19.0,17.0,29.54,1001.5,,,,,,,,,,,,,,,Clear,72000.0,,,73000,,,,,,
KRDR,08-22-2008,08:28,SPECI,,170,16,,,9999.0,,20.0,17.0,29.56,1002.5,,,,,,,,,,,,,,,4/8 Partly Cloudy,72000.0,,SCT,2200,,,,,,
KRDR,08-22-2008,08:00,METAR,,180,13,19.0,,9999.0,,21.0,17.0,29.61,1003.9,,,,,,,,,,,,,,,8/8 Overcast,2100.0,,OVC,2100,,,,,,
KRDR,08-22-2008,07:00,METAR,,180,15,,,9999.0,,21.0,17.0,29.61,1004.0,,,,,,,,,,,,,,,8/8 Overcast,2600.0,,OVC,2600,,,,,,
KRDR,08-22-2008,06:28,SPECI,,180,14,,,9999.0,,21.0,16.0,29.63,1004.6,,,,,,,,,,,,,,,7/8 Mostly Cloudy,2400.0,,BKN,2900,,,,,,
KRDR,08-22-2008,06:00,METAR,,170,17,27.0,160/30KTS,9999.0,,21.0,16.0,29.58,1003.0,,,,,,,,,,,,,,,2/8 Mostly Clear,72000.0,,FEW,9900,,,,,,
KRDR,08-22-2008,05:00,METAR,,170,21,27.0,170/31KTS,9999.0,,22.0,16.0,29.59,1003.3,,,,,,,,,,,,,,,2/8 Mostly Clear,72000.0,,FEW,9400,,,,,,
KRDR,08-22-2008,04:00,METAR,,170,24,33.0,170/33KTS,9999.0,,22.0,16.0,29.60,1003.5,,,,,,,,,,,,,,,Clear,72000.0,,,73000,,,,,,
KRDR,08-22-2008,03:00,METAR,,160,19,30.0,170/30KTS,9999.0,,23.0,16.0,29.59,1003.5,,,,,,,,,,,,,,,4/8 Partly Cloudy,72000.0,,SCT,5000,,,,,,
KRDR,08-22-2008,02:00,METAR,,160,18,23.0,160/30KTS,9999.0,,25.0,17.0,29.59,1003.3,,,,,,,,,,,,,,,8/8 Overcast,6000.0,,OVC,5900,,,,,,
KRDR,08-22-2008,01:00,METAR,,160,19,25.0,180/28KTS,9999.0,,25.0,17.0,29.61,1003.9,,,,,,,,,,,,,,,7/8 Mostly Cloudy,5500.0,,BKN,5400,,,,,,
KRDR,08-22-2008,00:00,METAR,,180,22,27.0,160/33KTS,9999.0,,27.0,17.0,29.62,1004.2,,,,,,,,,,,,,,,4/8 Partly Cloudy,72000.0,,SCT,5000,SCT,25000.0,,,,
KRDR,08-21-2008,23:00,METAR,,170,24,32.0,160/35KTS,9999.0,,28.0,18.0,29.61,1003.9,,,,,,,,,,,,,,,7/8 Mostly Cloudy,25000.0,,SCT,5000,BKN,25000.0,,,,
KRDR,08-21-2008,22:00,METAR,,180,24,34.0,160/34KTS,9999.0,,29.0,18.0,29.61,1004.0,,,,,,,,,,,,,,,7/8 Mostly Cloudy,25000.0,,SCT,5400,BKN,25000.0,,,,
KRDR,08-21-2008,21:00,METAR,,160,17,30.0,170/34KTS,9999.0,,28.0,18.0,29.63,1004.6,,,,,,,,,,,,,,,7/8 Mostly Cloudy,25000.0,,SCT,5000,BKN,25000.0,,,,
KRDR,08-21-2008,20:00,METAR,,170,27,36.0,170/37KTS,9999.0,,29.0,18.0,29.63,1004.6,,,,,,,,,,,,,,,7/8 Mostly Cloudy,25000.0,,SCT,5400,BKN,25000.0,,,,
KRDR,08-21-2008,19:00,METAR,,170,25,33.0,180/33KTS,9999.0,,29.0,19.0,29.64,1005.0,,,,,,,,,,,,,,,7/8 Mostly Cloudy,10000.0,,FEW,4000,BKN,9900.0,BKN,20000.0,,
KRDR,08-21-2008,18:00,METAR,,170,23,30.0,190/30KTS,9999.0,,28.0,18.0,29.66,1005.6,,,,,,,,,,,,,,,7/8 Mostly Cloudy,20000.0,,FEW,4000,SCT,9900.0,BKN,20000.0,,
KRDR,08-21-2008,17:00,METAR,,170,19,29.0,180/31KTS,9999.0,,27.0,19.0,29.67,1005.9,,,,,,,,,,,,,,,4/8 Partly Cloudy,72000.0,,FEW,9900,SCT,20000.0,,,,
KRDR,08-21-2008,16:00,METAR,,180,22,30.0,180/31KTS,9999.0,,25.0,18.0,29.66,1005.7,,,,,,,,,,,,,,,7/8 Mostly Cloudy,20000.0,,FEW,12000,BKN,20000.0,,,,
KRDR,08-21-2008,15:00,METAR,,180,21,29.0,190/30KTS,9999.0,,24.0,17.0,29.67,1005.9,,,,,,,,,,,,,,,7/8 Mostly Cloudy,20000.0,,FEW,12000,BKN,20000.0,,,,
KRDR,08-21-2008,14:00,METAR,,180,19,25.0,180/28KTS,9999.0,,22.0,17.0,29.68,1006.2,,,,,,,,,,,,,,,4/8 Partly Cloudy,72000.0,,FEW,12000,SCT,25000.0,,,,
KRDR,08-21-2008,13:00,METAR,,170,18,23.0,,9999.0,,20.0,16.0,29.68,1006.4,,,,,,,,,,,,,,,4/8 Partly Cloudy,72000.0,,FEW,12000,SCT,25000.0,,,,
KRDR,08-21-2008,12:00,METAR,,180,13,,,9999.0,,19.0,16.0,29.69,1006.7,,,,,,,,,,,,,,,Clear,72000.0,,,73000,,,,,,
KRDR,08-21-2008,11:00,METAR,,170,12,,,9999.0,,19.0,16.0,29.70,1006.9,,,,,,,,,,,,,,,Clear,72000.0,,,73000,,,,,,
KRDR,08-21-2008,10:00,METAR,,170,16,21.0,,9999.0,,19.0,16.0,29.70,1007.0,,,,,,,,,,,,,,,Clear,72000.0,,,73000,,,,,,
KRDR,08-21-2008,09:00,METAR,,160,16,,,9999.0,,20.0,16.0,29.71,1007.2,,,,,,,,,,,,,,,Clear,72000.0,,,73000,,,,,,
KRDR,08-21-2008,08:00,METAR,,160,15,,,9999.0,,20.0,15.0,29.72,1007.6,,,,,,,,,,,,,,,Clear,72000.0,,,73000,,,,,,
KRDR,08-21-2008,07:00,METAR,,160,15,23.0,,9999.0,,21.0,15.0,29.74,1008.1,,,,,,,,,,,,,,,Clear,72000.0,,,73000,,,,,,
KRDR,08-21-2008,06:00,METAR,,170,18,24.0,180/27KTS,9999.0,,22.0,15.0,29.75,1008.6,,,,,,,,,,,,,,,Clear,72000.0,,,73000,,,,,,
KRDR,08-21-2008,05:00,METAR,,160,18,23.0,160/28KTS,9999.0,,23.0,15.0,29.76,1009.0,,,,,,,,,,,,,,,Clear,72000.0,,,73000,,,,,,
KRDR,08-21-2008,04:00,METAR,,160,15,20.0,,9999.0,,23.0,15.0,29.77,1009.4,,,,,,,,,,,,,,,Clear,72000.0,,,73000,,,,,,
KRDR,08-21-2008,03:00,METAR,,160,19,,,9999.0,,24.0,15.0,29.77,1009.4,,,,,,,,,,,,,,,4/8 Partly Cloudy,72000.0,,SCT,7400,,,,,,
KRDR,08-21-2008,02:00,METAR,,160,14,20.0,,9999.0,,24.0,15.0,29.77,1009.2,,,,,,,,,,,,,,,2/8 Mostly Clear,72000.0,,FEW,8900,,,,,,
KRDR,08-21-2008,01:00,METAR,,160,16,,,9999.0,,25.0,15.0,29.77,1009.3,,,,,,,,,,,,,,,2/8 Mostly Clear,72000.0,,FEW,8900,,,,,,
KRDR,08-21-2008,00:00,METAR,,170,17,27.0,170/31KTS,9999.0,,26.0,15.0,29.79,1010.0,,,,,,,,,,,,,,,4/8 Partly Cloudy,72000.0,,SCT,6400,,,,,,
KRDR,08-20-2008,23:00,METAR,,160,21,29.0,160/31KTS,9999.0,,28.0,15.0,29.80,1010.3,,,,,,,,,,,,,,,2/8 Mostly Clear,72000.0,,FEW,5900,,,,,,
KRDR,08-20-2008,22:00,METAR,,170,22,33.0,150/33KTS,9999.0,,28.0,15.0,29.80,1010.3,,,,,,,,,,,,,,,2/8 Mostly Clear,72000.0,,FEW,5900,,,,,,
KRDR,08-20-2008,21:00,METAR,,180,23,30.0,190/34KTS,9999.0,,29.0,14.0,29.82,1010.8,,,,,,,,,,,,,,,2/8 Mostly Clear,72000.0,,FEW,5900,,,,,,
KRDR,08-20-2008,20:00,METAR,,180,21,31.0,180/34KTS,9999.0,,29.0,14.0,29.83,1011.4,,,,,,,,,,,,,,,2/8 Mostly Clear,72000.0,,FEW,5000,,,,,,
KRDR,08-20-2008,19:00,METAR,,180,17,30.0,170/34KTS,9999.0,,29.0,15.0,29.85,1011.7,,,,,,,,,,,,,,,4/8 Partly Cloudy,72000.0,,SCT,5000,,,,,,
KRDR,08-20-2008,18:00,METAR,,170,20,27.0,170/29KTS,9999.0,,27.0,16.0,29.86,1012.1,,,,,,,,,,,,,,,4/8 Partly Cloudy,72000.0,,SCT,5000,,,,,,
KRDR,08-20-2008,17:00,METAR,,190,24,28.0,170/28KTS,9999.0,,27.0,17.0,29.87,1012.5,,,,,,,,,,,,,,,2/8 Mostly Clear,72000.0,,FEW,7900,FEW,20000.0,,,,
KRDR,08-20-2008,16:00,METAR,,180,17,,,9999.0,,25.0,17.0,29.88,1013.0,,,,,,,,,,,,,,,4/8 Partly Cloudy,72000.0,,SCT,7900,SCT,20000.0,,,,
KRDR,08-20-2008,15:00,METAR,,190,16,,,9999.0,,23.0,16.0,29.89,1013.2,,,,,,,,,,,,,,,4/8 Partly Cloudy,72000.0,,SCT,7900,SCT,20000.0,,,,
KRDR,08-20-2008,14:00,METAR,,160,15,19.0,,9999.0,,22.0,16.0,29.89,1013.3,,,,,,,,,,,,,,,4/8 Partly Cloudy,72000.0,,SCT,7400,SCT,18000.0,,,,
KRDR,08-20-2008,13:00,METAR,,170,11,,,9999.0,,19.0,15.0,29.89,1013.3,,,,,,,,,,,,,,,4/8 Partly Cloudy,72000.0,,SCT,7400,SCT,20000.0,,,,
KRDR,08-20-2008,12:00,METAR,,160,12,,,9999.0,,18.0,15.0,29.90,1013.5,,,,,,,,,,,,,,,4/8 Partly Cloudy,72000.0,,SCT,6900,SCT,20000.0,,,,
KRDR,08-20-2008,11:00,METAR,,160,11,,,9999.0,,17.0,15.0,29.89,1013.3,,,,,,,,,,,,,,,4/8 Partly Cloudy,72000.0,,SCT,7900,SCT,20000.0,,,,
KRDR,08-20-2008,10:00,METAR,,160,8,,,9999.0,,17.0,15.0,29.90,1013.4,,,,,,,,,,,,,,,Clear,72000.0,,,73000,,,,,,
KRDR,08-20-2008,09:00,METAR,,160,9,,,9999.0,,18.0,16.0,29.90,1013.5,,,,,,,,,,,,,,,Clear,72000.0,,,73000,,,,,,
KRDR,08-20-2008,08:00,METAR,,160,8,,,9999.0,,18.0,16.0,29.90,1013.6,,,,,,,,,,,,,,,Clear,72000.0,,,73000,,,,,,
KRDR,08-20-2008,07:00,METAR,,170,7,,,9999.0,,19.0,16.0,29.91,1013.8,,,,,,,,,,,,,,,Clear,72000.0,,,73000,,,,,,
KRDR,08-20-2008,06:00,METAR,,180,9,,,9999.0,,21.0,16.0,29.91,1013.8,,,,,,,,,,,,,,,Clear,72000.0,,,73000,,,,,,
KRDR,08-20-2008,05:00,METAR,,160,11,,,9999.0,,22.0,17.0,29.90,1013.6,,,,,,,,,,,,,,,Clear,72000.0,,,73000,,,,,,
KRDR,08-20-2008,04:00,METAR,,170,11,,,9999.0,,22.0,17.0,29.91,1013.8,,,,,,,,,,,,,,,Clear,72000.0,,,73000,,,,,,
KRDR,08-20-2008,03:00,METAR,,170,8,,,9999.0,,23.0,18.0,29.91,1013.8,,,,,,,,,,,,,,,Clear,72000.0,,,73000,,,,,,
KRDR,08-20-2008,02:00,METAR,,160,9,,,9999.0,,24.0,17.0,29.90,1013.4,,,,,,,,,,,,,,,Clear,72000.0,,,73000,,,,,,
KRDR,08-20-2008,01:00,METAR,,150,8,,,9999.0,,27.0,19.0,29.89,1013.3,,,,,,,,,,,,,,,Clear,72000.0,,,73000,,,,,,
KRDR,08-20-2008,00:00,METAR,,160,11,,,9999.0,,29.0,19.0,29.90,1013.5,,,,,,,,,,,,,,,Clear,72000.0,,,73000,,,,,,
KRDR,08-19-2008,23:00,METAR,,150,10,,,9999.0,,29.0,20.0,29.91,1013.8,,,,,,,,,,,,,,,2/8 Mostly Clear,72000.0,,FEW,4000,,,,,,
KRDR,08-19-2008,22:00,METAR,,160,13,,,9999.0,,30.0,20.0,29.91,1014.0,,,,,,,,,,,,,,,2/8 Mostly Clear,72000.0,,FEW,4000,,,,,,
KRDR,08-19-2008,21:00,METAR,,160,11,,,9999.0,,29.0,21.0,29.93,1014.5,,,,,,,,,,,,,,,2/8 Mostly Clear,72000.0,,FEW,3500,,,,,,
KRDR,08-19-2008,20:00,METAR,,160,10,16.0,,9999.0,,29.0,21.0,29.95,1015.1,,,,,,,,,,,,,,,2/8 Mostly Clear,72000.0,,FEW,3500,,,,,,
KRDR,08-19-2008,19:00,METAR,,150,11,,,9999.0,,28.0,20.0,29.96,1015.5,,,,,,,,,,,,,,,Clear,72000.0,,,73000,,,,,,
KRDR,08-19-2008,18:00,METAR,,140,8,,,9999.0,,26.0,19.0,29.97,1015.7,,,,,,,,,,,,,,,Clear,72000.0,,,73000,,,,,,
KRDR,08-19-2008,17:00,METAR,,150,7,,,9999.0,,24.0,18.0,29.99,1016.6,,,,,,,,,,,,,,,Clear,72000.0,,,73000,,,,,,
KRDR,08-19-2008,16:00,METAR,,160,9,,,9999.0,,23.0,17.0,29.99,1016.6,,,,,,,,,,,,,,,Clear,72000.0,,,73000,,,,,,
KRDR,08-19-2008,15:00,METAR,,170,9,,,9999.0,,21.0,17.0,30.00,1016.8,,,,,,,,,,,,,,,2/8 Mostly Clear,72000.0,,FEW,12000,,,,,,
KRDR,08-19-2008,14:00,METAR,,150,8,,,9999.0,,18.0,15.0,30.00,1016.8,,,,,,,,,,,,,,,2/8 Mostly Clear,72000.0,,FEW,12000,,,,,,
KRDR,08-19-2008,13:00,METAR,,140,4,,,9999.0,,14.0,13.0,29.99,1016.7,,,,,,,,,,,,,,,2/8 Mostly Clear,72000.0,,FEW,12000,,,,,,
KRDR,08-19-2008,12:00,METAR,,,0,,,9999.0,,10.0,10.0,29.99,1016.6,,,,,,,,,,,,,,,Clear,72000.0,,,73000,,,,,,
KRDR,08-19-2008,11:00,METAR,,,0,,,9999.0,,10.0,10.0,29.99,1016.4,,,,,,,,,,,,,,,Clear,72000.0,,,73000,,,,,,
KRDR,08-19-2008,10:00,METAR,,,0,,,9999.0,,10.0,10.0,29.98,1016.3,,,,,,,,,,,,,,,Clear,72000.0,,,73000,,,,,,
KRDR,08-19-2008,09:00,METAR,,,0,,,9999.0,,11.0,10.0,29.98,1016.2,,,,,,,,,,,,,,,Clear,72000.0,,,73000,,,,,,
KRDR,08-19-2008,08:00,METAR,,,0,,,9999.0,,10.0,10.0,29.99,1016.4,,,,,,,,,,,,,,,Clear,72000.0,,,73000,,,,,,
KRDR,08-19-2008,07:00,METAR,,330,3,,,9999.0,,11.0,10.0,29.99,1016.7,,,,,,,,,,,,,,,Clear,72000.0,,,73000,,,,,,
KRDR,08-19-2008,06:00,METAR,,10,3,,,9999.0,,12.0,11.0,30.00,1016.9,,,,,,,,,,,,,TRACE,,Clear,72000.0,,,73000,,,,,,
KRDR,08-19-2008,05:00,METAR,,40,4,,,9999.0,,14.0,12.0,30.00,1016.9,,,,,,,,,,,TRACE,,,,Clear,72000.0,,,73000,,,,,,
KRDR,08-19-2008,04:41,SPECI,,40,3,,,9999.0,,14.0,12.0,30.00,1017.0,,,,,,,,,,,,,,,Clear,72000.0,,,73000,,,,,,
KRDR,08-19-2008,04:09,SPECI,,20,4,,,9999.0,,16.0,12.0,30.00,1016.9,,,,,,,,,,,,,,,Clear,72000.0,,,73000,,,,,,
KRDR,08-19-2008,04:00,METAR,,80,4,,,9999.0,,18.0,12.0,30.00,1016.9,,,,,,,,,,,,,,,Clear,72000.0,,,73000,,,,,,
KRDR,08-19-2008,04:00,SPECI,,70,4,,,9999.0,,18.0,12.0,30.00,1016.9,,,,,,,,,,,,,,,Clear,72000.0,,,73000,,,,,,
KRDR,08-19-2008,03:00,METAR,,80,7,,,9999.0,,19.0,13.0,30.00,1016.8,,,,,,,,,,,,,,,Clear,72000.0,,,73000,,,,,,
KRDR,08-19-2008,02:00,METAR,,70,8,,,9999.0,,21.0,13.0,29.97,1016.2,,,,,,,,,,,,,,,Clear,72000.0,,,73000,,,,,,
KRDR,08-19-2008,01:00,METAR,,60,6,,,9999.0,,24.0,14.0,29.98,1016.1,,,,,,,,,,,,,,,Clear,72000.0,,,73000,,,,,,
KRDR,08-19-2008,00:00,METAR,,40,12,,,9999.0,,26.0,13.0,29.97,1016.0,,,,,,,,,,,,,,,2/8 Mostly Clear,72000.0,,FEW,5000,,,,,,
KRDR,08-18-2008,23:00,METAR,,40,11,,,9999.0,,27.0,14.0,29.97,1015.9,,,,,,,,,,,,,,,2/8 Mostly Clear,72000.0,,FEW,5000,,,,,,
KRDR,08-18-2008,22:00,METAR,,110,5,,,9999.0,,27.0,15.0,29.96,1015.9,,,,,,,,,,,,,,,2/8 Mostly Clear,72000.0,,FEW,5000,,,,,,
KRDR,08-18-2008,21:00,METAR,,,5,,,9999.0,,27.0,14.0,29.97,1016.1,,,,,,,,,,,,,,,2/8 Mostly Clear,72000.0,,FEW,5000,,,,,,
KRDR,08-18-2008,20:00,METAR,,40,7,,,9999.0,,27.0,15.0,29.97,1016.2,,,,,,,,,,,,,,,2/8 Mostly Clear,72000.0,,FEW,5000,,,,,,
KRDR,08-18-2008,19:00,METAR,,40,9,,,9999.0,,27.0,15.0,29.97,1016.1,,,,,,,,,,,,,,,2/8 Mostly Clear,72000.0,,FEW,5900,,,,,,
KRDR,08-18-2008,18:00,METAR,,30,9,,,9999.0,,26.0,15.0,29.98,1016.0,,,,,,,,,,,,,,,Clear,72000.0,,,73000,,,,,,
KRDR,08-18-2008,17:00,METAR,,60,8,,,9999.0,,25.0,15.0,29.98,1016.1,,,,,,,,,,,,,,,Clear,72000.0,,,73000,,,,,,
KRDR,08-18-2008,16:00,METAR,,60,11,,,9999.0,,23.0,15.0,29.97,1015.9,,,,,,,,,,,,,,,Clear,72000.0,,,73000,,,,,,
KRDR,08-18-2008,15:00,METAR,,40,8,,,9999.0,,21.0,15.0,29.97,1015.7,,,,,,,,,,,,,,,Clear,72000.0,,,73000,,,,,,
KRDR,08-18-2008,14:00,METAR,,20,12,,,9999.0,,18.0,14.0,29.96,1015.4,,,,,,,,,,,,,,,Clear,72000.0,,,73000,,,,,,
KRDR,08-18-2008,13:00,METAR,,350,8,,,9999.0,,16.0,14.0,29.94,1014.8,,,,,,,,,,,,,,,2/8 Mostly Clear,72000.0,,FEW,20000,,,,,,
KRDR,08-18-2008,12:00,METAR,,340,7,,,9999.0,,15.0,13.0,29.92,1014.2,,,,,,,,,,,,,,,2/8 Mostly Clear,72000.0,,FEW,20000,,,,,,
KRDR,08-18-2008,10:54,METAR,,350,8,,,9999.0,,15.0,13.0,29.90,1013.5,,,,,,,,,,,,,,,2/8 Mostly Clear,72000.0,,FEW,20000,,,,,,
KRDR,08-18-2008,10:00,METAR,,350,7,,,9999.0,,16.0,13.0,29.90,1013.4,,,,,,,,,,,,,,,Clear,72000.0,,,73000,,,,,,
KRDR,08-18-2008,09:00,METAR,,350,6,,,9999.0,,17.0,13.0,29.87,1012.7,,,,,,,,,,,,,,,Clear,72000.0,,,73000,,,,,,
KRDR,08-18-2008,08:00,METAR,,350,6,,,9999.0,,18.0,14.0,29.87,1012.5,,,,,,,,,,,,,,,Clear,72000.0,,,73000,,,,,,
KRDR,08-18-2008,07:00,METAR,,360,7,,,9999.0,,19.0,14.0,29.86,1012.2,,,,,,,,,,,,,,,Clear,72000.0,,,73000,,,,,,
KRDR,08-18-2008,06:00,METAR,,10,10,,,9999.0,,21.0,17.0,29.84,1011.6,,,,,,,,,,,,,,,Clear,72000.0,,,73000,,,,,,
KRDR,08-18-2008,05:00,METAR,,350,8,,,9999.0,,22.0,17.0,29.82,1010.8,,,,,,,,,,,,,,,Clear,72000.0,,,73000,,,,,,
KRDR,08-18-2008,04:00,METAR,,300,8,,,9999.0,,25.0,13.0,29.80,1010.1,,,,,,,,,,,,,,,Clear,72000.0,,,73000,,,,,,
KRDR,08-18-2008,03:00,METAR,,230,6,,,9999.0,,22.0,14.0,29.77,1009.2,,,,,,,,,,,,,,,Clear,72000.0,,,73000,,,,,,
KRDR,08-18-2008,02:00,METAR,,210,7,,,9999.0,,25.0,14.0,29.76,1008.8,,,,,,,,,,,,,,,Clear,72000.0,,,73000,,,,,,
KRDR,08-18-2008,01:00,METAR,,220,7,,,9999.0,,27.0,16.0,29.75,1008.7,,,,,,,,,,,,,,,Clear,72000.0,,,73000,,,,,,
KRDR,08-18-2008,00:00,METAR,,240,7,,,9999.0,,31.0,16.0,29.76,1008.9,,,,,,,,,,,,,,,Clear,72000.0,,,73000,,,,,,
KRDR,08-17-2008,23:00,METAR,,250,14,,,9999.0,,32.0,14.0,29.77,1009.2,,,,,,,,,,,,,,,Clear,72000.0,,,73000,,,,,,
KRDR,08-17-2008,22:00,METAR,,250,14,21.0,,9999.0,,32.0,13.0,29.78,1009.7,,,,,,,,,,,,,,,Clear,72000.0,,,73000,,,,,,
KRDR,08-17-2008,21:00,METAR,,260,16,21.0,,9999.0,,32.0,14.0,29.79,1010.0,,,,,,,,,,,,,,,Clear,72000.0,,,73000,,,,,,
KRDR,08-17-2008,20:00,METAR,,270,14,22.0,,9999.0,,32.0,15.0,29.80,1010.3,,,,,,,,,,,,,,,Clear,72000.0,,,73000,,,,,,
KRDR,08-17-2008,19:00,METAR,,250,12,19.0,,9999.0,,32.0,16.0,29.81,1010.6,,,,,,,,,,,,,,,Clear,72000.0,,,73000,,,,,,
KRDR,08-17-2008,18:00,METAR,,260,11,16.0,,9999.0,,30.0,17.0,29.82,1011.1,,,,,,,,,,,,,,,Clear,72000.0,,,73000,,,,,,
KRDR,08-17-2008,17:00,METAR,,260,10,,,9999.0,,29.0,17.0,29.84,1011.4,,,,,,,,,,,,,,,Clear,72000.0,,,73000,,,,,,
KRDR,08-17-2008,16:00,METAR,,250,10,,,9999.0,,28.0,17.0,29.85,1011.8,,,,,,,,,,,,,,,Clear,72000.0,,,73000,,,,,,
KRDR,08-17-2008,15:00,METAR,,260,13,19.0,,9999.0,,27.0,15.0,29.85,1012.0,,,,,,,,,,,,,,,Clear,72000.0,,,73000,,,,,,
KRDR,08-17-2008,14:00,METAR,,250,9,,,9999.0,,24.0,15.0,29.87,1012.4,,,,,,,,,,,,,,,Clear,72000.0,,,73000,,,,,,
KRDR,08-17-2008,13:00,METAR,,250,9,,,9999.0,,21.0,14.0,29.88,1012.8,,,,,,,,,,,,,,,Clear,72000.0,,,73000,,,,,,
KRDR,08-17-2008,12:00,METAR,,260,9,,,9999.0,,18.0,14.0,29.88,1013.0,,,,,,,,,,,,,,,Clear,72000.0,,,73000,,,,,,
KRDR,08-17-2008,11:00,METAR,,250,8,,,9999.0,,18.0,14.0,29.89,1013.1,,,,,,,,,,,,,,,Clear,72000.0,,,73000,,,,,,
KRDR,08-17-2008,10:00,METAR,,240,7,,,9999.0,,18.0,15.0,29.90,1013.4,,,,,,,,,,,,,,,Clear,72000.0,,,73000,,,,,,
KRDR,08-17-2008,09:00,METAR,,240,7,,,9999.0,,18.0,15.0,29.91,1013.8,,,,,,,,,,,,,,,Clear,72000.0,,,73000,,,,,,
KRDR,08-17-2008,08:00,METAR,,230,6,,,9999.0,,17.0,15.0,29.92,1014.0,,,,,,,,,,,,,,,Clear,72000.0,,,73000,,,,,,
KRDR,08-17-2008,07:00,METAR,,220,5,,,9999.0,,17.0,15.0,29.93,1014.5,,,,,,,,,,,,,,,Clear,72000.0,,,73000,,,,,,
KRDR,08-17-2008,06:00,METAR,,220,4,,,9999.0,,18.0,15.0,29.94,1014.9,,,,,,,,,,,,,,,Clear,72000.0,,,73000,,,,,,
KRDR,08-17-2008,05:00,METAR,,220,4,,,9999.0,,18.0,15.0,29.95,1015.2,,,,,,,,,,,,,,,Clear,72000.0,,,73000,,,,,,
KRDR,08-17-2008,04:00,METAR,,220,4,,,9999.0,,18.0,15.0,29.95,1015.2,,,,,,,,,,,,,,,Clear,72000.0,,,73000,,,,,,
KRDR,08-17-2008,03:00,METAR,,210,4,,,9999.0,,19.0,16.0,29.97,1015.8,,,,,,,,,,,,,,,Clear,72000.0,,,73000,,,,,,
KRDR,08-17-2008,02:00,METAR,,230,3,,,9999.0,,22.0,16.0,29.97,1015.9,,,,,,,,,,,,,,,Clear,72000.0,,,73000,,,,,,
KRDR,08-17-2008,01:00,METAR,,270,4,,,9999.0,,25.0,16.0,29.97,1016.0,,,,,,,,,,,,,,,Clear,72000.0,,,73000,,,,,,
KRDR,08-17-2008,00:00,METAR,,270,7,,,9999.0,,28.0,15.0,29.98,1016.3,,,,,,,,,,,,,,,Clear,72000.0,,,73000,,,,,,
KRDR,08-16-2008,23:00,METAR,,270,8,,,9999.0,,29.0,15.0,30.00,1017.0,,,,,,,,,,,,,,,4/8 Partly Cloudy,72000.0,,SCT,6900,,,,,,
KRDR,08-16-2008,22:00,METAR,,310,5,,,9999.0,,28.0,16.0,30.02,1017.4,,,,,,,,,,,,,,,2/8 Mostly Clear,72000.0,,FEW,6900,,,,,,
KRDR,08-16-2008,21:00,METAR,,300,7,,,9999.0,,29.0,15.0,30.03,1017.9,,,,,,,,,,,,,,,2/8 Mostly Clear,72000.0,,FEW,6900,,,,,,
KRDR,08-16-2008,20:00,METAR,,290,8,15.0,,9999.0,,30.0,14.0,30.05,1018.6,,,,,,,,,,,,,,,Clear,72000.0,,,73000,,,,,,
KRDR,08-16-2008,19:00,METAR,,310,8,,,9999.0,,29.0,15.0,30.07,1019.2,,,,,,,,,,,,,,,4/8 Partly Cloudy,72000.0,,SCT,6900,SCT,25000.0,,,,
KRDR,08-16-2008,18:00,METAR,,310,8,,,9999.0,,28.0,14.0,30.09,1019.7,,,,,,,,,,,,,,,Clear,72000.0,,,73000,,,,,,
KRDR,08-16-2008,17:00,METAR,,,6,,,9999.0,,28.0,16.0,30.10,1020.1,,,,,,,,,,,,,,,Clear,72000.0,,,73000,,,,,,
KRDR,08-16-2008,16:00,METAR,,320,8,,,9999.0,,27.0,17.0,30.11,1020.6,,,,,,,,,,,,,,,Clear,72000.0,,,73000,,,,,,
KRDR,08-16-2008,15:00,METAR,,270,7,,,9999.0,,24.0,18.0,30.12,1020.8,,,,,,,,,,,,,,,Clear,72000.0,,,73000,,,,,,
KRDR,08-16-2008,14:00,METAR,,280,6,,,9999.0,,22.0,17.0,30.12,1020.8,,,,,,,,,,,,,,,Clear,72000.0,,,73000,,,,,,
KRDR,08-16-2008,13:00,METAR,,250,4,,,9999.0,,19.0,16.0,30.12,1020.8,,,,,,,,,,,,,,,Clear,72000.0,,,73000,,,,,,
KRDR,08-16-2008,12:00,METAR,,270,5,,,9999.0,,17.0,15.0,30.12,1020.8,,,,,,,,,,,,,,,Clear,72000.0,,,73000,,,,,,
KRDR,08-16-2008,11:00,METAR,,270,5,,,9999.0,,16.0,15.0,30.12,1020.9,,,,,,,,,,,,,,,Clear,72000.0,,,73000,,,,,,
KRDR,08-16-2008,10:00,METAR,,270,6,,,9999.0,,18.0,16.0,30.12,1020.9,,,,,,,,,,,,,,,Clear,72000.0,,,73000,,,,,,
KRDR,08-16-2008,09:00,METAR,,260,6,,,9999.0,,18.0,16.0,30.13,1021.0,,,,,,,,,,,,,,,Clear,72000.0,,,73000,,,,,,
KRDR,08-16-2008,08:00,METAR,,260,6,,,9999.0,,18.0,16.0,30.13,1021.0,,,,,,,,,,,,,,,Clear,72000.0,,,73000,,,,,,
KRDR,08-16-2008,07:00,METAR,,240,7,,,9999.0,,19.0,16.0,30.13,1021.1,,,,,,,,,,,,,,,Clear,72000.0,,,73000,,,,,,
KRDR,08-16-2008,06:00,METAR,,230,6,,,9999.0,,18.0,17.0,30.14,1021.5,,,,,,,,,,,,,,,Clear,72000.0,,,73000,,,,,,
KRDR,08-16-2008,05:00,METAR,,230,6,,,9999.0,,19.0,17.0,30.15,1021.8,,,,,,,,,,,,,,,Clear,72000.0,,,73000,,,,,,
KRDR,08-16-2008,04:00,METAR,,210,5,,,9999.0,,19.0,17.0,30.15,1021.9,,,,,,,,,,,,,,,Clear,72000.0,,,73000,,,,,,
KRDR,08-16-2008,03:00,METAR,,210,6,,,9999.0,,20.0,17.0,30.16,1022.0,,,,,,,,,,,,,,,Clear,72000.0,,,73000,,,,,,
KRDR,08-16-2008,02:00,METAR,,190,7,,,9999.0,,22.0,18.0,30.15,1021.8,,,,,,,,,,,,,,,2/8 Mostly Clear,72000.0,,FEW,25000,,,,,,
KRDR,08-16-2008,01:00,METAR,,190,6,,,9999.0,,25.0,18.0,30.16,1022.0,,,,,,,,,,,,,,,2/8 Mostly Clear,72000.0,,FEW,5900,FEW,25000.0,,,,
KRDR,08-16-2008,00:00,METAR,,190,8,,,9999.0,,27.0,17.0,30.16,1022.2,,,,,,,,,,,,,,,2/8 Mostly Clear,72000.0,,FEW,5000,FEW,25000.0,,,,
KRDR,08-15-2008,23:00,METAR,,200,6,,,9999.0,,27.0,17.0,30.17,1022.6,,,,,,,,,,,,,,,2/8 Mostly Clear,72000.0,,FEW,5000,FEW,25000.0,,,,
KRDR,08-15-2008,22:00,METAR,,200,8,,,9999.0,,27.0,17.0,30.18,1022.8,,,,,,,,,,,,,,,2/8 Mostly Clear,72000.0,,FEW,5000,,,,,,
KRDR,08-15-2008,21:00,METAR,,220,8,,,9999.0,,28.0,17.0,30.20,1023.3,,,,,,,,,,,,,,,4/8 Partly Cloudy,72000.0,,SCT,5000,,,,,,
KRDR,08-15-2008,20:00,METAR,,210,8,,,9999.0,,27.0,16.0,30.21,1023.6,,,,,,,,,,,,,,,2/8 Mostly Clear,72000.0,,FEW,5400,,,,,,
KRDR,08-15-2008,19:00,METAR,,200,8,,,9999.0,,26.0,17.0,30.21,1023.8,,,,,,,,,,,,,,,2/8 Mostly Clear,72000.0,,FEW,5400,,,,,,
KRDR,08-15-2008,18:00,METAR,,210,6,,,9999.0,,26.0,17.0,30.21,1023.8,,,,,,,,,,,,,,,2/8 Mostly Clear,72000.0,,FEW,3500,,,,,,
KRDR,08-15-2008,17:00,METAR,,,6,,,9999.0,,25.0,17.0,30.22,1024.1,,,,,,,,,,,,,,,2/8 Mostly Clear,72000.0,,FEW,3500,,,,,,
KRDR,08-15-2008,16:00,METAR,,190,6,,,9999.0,,23.0,17.0,30.22,1024.0,,,,,,,,,,,,,,,Clear,72000.0,,,73000,,,,,,
KRDR,08-15-2008,15:00,METAR,,170,7,,,9999.0,,21.0,15.0,30.22,1024.0,,,,,,,,,,,,,,,2/8 Mostly Clear,72000.0,,FEW,25000,,,,,,
KRDR,08-15-2008,14:00,METAR,,180,6,,,9999.0,,19.0,15.0,30.21,1023.9,,,,,,,,,,,,,,,2/8 Mostly Clear,72000.0,,FEW,6900,,,,,,
KRDR,08-15-2008,13:00,METAR,,190,4,,,9999.0,,17.0,14.0,30.21,1023.7,,,,,,,,,,,,,,,2/8 Mostly Clear,72000.0,,FEW,6900,,,,,,
KRDR,08-15-2008,12:00,METAR,,150,4,,,9999.0,,15.0,13.0,30.20,1023.5,,,,,,,,,,,,,,,2/8 Mostly Clear,72000.0,,FEW,6900,,,,,,
KRDR,08-15-2008,11:00,METAR,,170,5,,,9999.0,,15.0,14.0,30.18,1022.8,,,,,,,,,,,,,,,Clear,72000.0,,,73000,,,,,,
KRDR,08-15-2008,10:00,METAR,,170,6,,,9999.0,,16.0,14.0,30.17,1022.4,,,,,,,,,,,,,,,2/8 Mostly Clear,72000.0,,FEW,6900,,,,,,
KRDR,08-15-2008,09:00,METAR,,180,3,,,9999.0,,16.0,15.0,30.16,1022.0,,,,,,,,,,,,TRACE,,,7/8 Mostly Cloudy,6000.0,,BKN,5900,,,,,,
KRDR,08-15-2008,08:00,METAR,,,0,,,9999.0,,16.0,15.0,30.15,1021.8,,,,,,,,,,,,,,,7/8 Mostly Cloudy,6000.0,,BKN,5900,,,,,,
KRDR,08-15-2008,07:00,METAR,,140,3,,,9999.0,,17.0,15.0,30.14,1021.5,,,,,,,,,,,TRACE,,,,Clear,72000.0,,,73000,,,,,,
KRDR,08-15-2008,06:22,SPECI,,110,4,,,9999.0,,17.0,15.0,30.13,1021.3,,,,,,,,,,,,,,,Clear,72000.0,,,73000,,,,,,
KRDR,08-15-2008,06:12,SPECI,,110,3,,,9999.0,,16.0,15.0,30.13,1021.1,,,,,,,,,,,,,,,Clear,72000.0,,,73000,,,,,,
KRDR,08-15-2008,06:00,METAR,,,0,,,9999.0,,17.0,15.0,30.13,1021.0,,,,,,,,,,,,,,,4/8 Partly Cloudy,72000.0,,FEW,5000,SCT,22000.0,,,,
KRDR,08-15-2008,05:00,METAR,,110,3,,,9999.0,,18.0,16.0,30.12,1020.6,,,,,,,,,,,,,,,4/8 Partly Cloudy,72000.0,,FEW,5000,SCT,9900.0,SCT,25000.0,,
KRDR,08-15-2008,04:00,METAR,,80,4,,,9999.0,,19.0,16.0,30.10,1020.2,,,,,,,,,,,,,,,4/8 Partly Cloudy,72000.0,,FEW,5000,FEW,9900.0,SCT,25000.0,,
KRDR,08-15-2008,03:00,METAR,,,0,,,9999.0,,20.0,17.0,30.11,1020.3,,,,,,,,,,,,,,,7/8 Mostly Cloudy,25000.0,,FEW,5900,SCT,11000.0,BKN,25000.0,,
KRDR,08-15-2008,02:00,METAR,,230,4,,,9999.0,,20.0,16.0,30.06,1019.0,,,,,,,,,,,,,,,7/8 Mostly Cloudy,25000.0,,FEW,5000,SCT,9900.0,BKN,25000.0,,
KRDR,08-15-2008,01:00,METAR,,140,5,,,9999.0,,22.0,16.0,30.04,1018.1,,,,,,,,,,,,,,,7/8 Mostly Cloudy,25000.0,,FEW,5000,SCT,12000.0,BKN,25000.0,,
KRDR,08-15-2008,00:00,METAR,,100,3,,,9999.0,,22.0,17.0,30.02,1017.5,,,,,,,,,,,TRACE,,TRACE,,7/8 Mostly Cloudy,10000.0,,SCT,5900,BKN,9900.0,BKN,25000.0,,
KRDR,08-14-2008,23:32,SPECI,,60,8,,,9999.0,Thunderstorm,22.0,17.0,30.02,1017.5,,,,17,,,,,,,,,,,7/8 Mostly Cloudy,10000.0,,SCT,5000,BKN,9900.0,BKN,25000.0,,
KRDR,08-14-2008,23:25,SPECI,,70,8,,,9999.0,Light Rain Showers/Thunderstorm,23.0,17.0,30.01,1017.3,,,,80,17,,,,,,,,,,7/8 Mostly Cloudy,4900.0,,BKN,5000,BKN,9900.0,BKN,25000.0,,
KRDR,08-14-2008,23:00,METAR,,120,16,,,9999.0,,27.0,17.0,29.99,1016.6,,,,,,,,,,,,,,,7/8 Mostly Cloudy,10000.0,,SCT,5000,BKN,9900.0,BKN,25000.0,,
KRDR,08-14-2008,22:00,METAR,,160,7,,,9999.0,,27.0,17.0,29.97,1015.9,,,,,,,,,,,,,,,7/8 Mostly Cloudy,25000.0,,FEW,5400,SCT,9900.0,BKN,25000.0,,
KRDR,08-14-2008,21:00,METAR,,,4,,,9999.0,,28.0,17.0,29.97,1015.7,,,,,,,,,,,,,,,7/8 Mostly Cloudy,20000.0,,SCT,5000,BKN,20000.0,,,,
KRDR,08-14-2008,20:00,METAR,,160,6,,,9999.0,,27.0,16.0,29.98,1016.0,,,,,,,,,,,,,,,7/8 Mostly Cloudy,25000.0,,SCT,6400,BKN,25000.0,,,,
KRDR,08-14-2008,19:00,METAR,,,0,,,9999.0,,26.0,17.0,29.97,1015.8,,,,,,,,,,,,,,,4/8 Partly Cloudy,72000.0,,FEW,5000,SCT,12000.0,SCT,25000.0,,
KRDR,08-14-2008,18:00,METAR,,,0,,,9999.0,,24.0,17.0,29.97,1015.8,,,,,,,,,,,,,,,7/8 Mostly Cloudy,25000.0,,SCT,11000,BKN,25000.0,,,,
KRDR,08-14-2008,17:00,METAR,,,0,,,9999.0,,22.0,17.0,29.96,1015.6,,,,,,,,,,,,,,,7/8 Mostly Cloudy,25000.0,,SCT,11000,BKN,25000.0,,,,
KRDR,08-14-2008,16:00,METAR,,340,3,,,9999.0,,21.0,16.0,29.95,1015.2,,,,,,,,,,,,,,,7/8 Mostly Cloudy,25000.0,,SCT,12000,BKN,25000.0,,,,
KRDR,08-14-2008,15:00,METAR,,,0,,,9999.0,,19.0,16.0,29.94,1014.7,,,,,,,,,,,,,,,7/8 Mostly Cloudy,11000.0,,BKN,11000,,,,,,
KRDR,08-14-2008,14:00,METAR,,110,4,,,9999.0,,17.0,15.0,29.92,1014.1,,,,,,,,,,,,,,,7/8 Mostly Cloudy,11000.0,,BKN,11000,BKN,25000.0,,,,
KRDR,08-14-2008,13:00,METAR,,90,3,,,9999.0,,16.0,15.0,29.90,1013.7,,,,,,,,,,,,,,,7/8 Mostly Cloudy,11000.0,,BKN,11000,BKN,25000.0,,,,
KRDR,08-14-2008,12:00,METAR,,90,4,,,9999.0,,16.0,15.0,29.89,1013.3,,,,,,,,,,,,,,,7/8 Mostly Cloudy,11000.0,,BKN,11000,,,,,,
KRDR,08-14-2008,11:00,METAR,,,0,,,9999.0,,16.0,15.0,29.88,1012.8,,,,,,,,,,,,,,,Clear,72000.0,,,73000,,,,,,
KRDR,08-14-2008,10:00,METAR,,150,8,,,9999.0,,16.0,14.0,29.87,1012.4,,,,,,,,,,,,,,,Clear,72000.0,,,73000,,,,,,
KRDR,08-14-2008,09:00,METAR,,140,10,,,9999.0,,17.0,15.0,29.86,1012.4,,,,,,,,,,,,,,,Clear,72000.0,,,73000,,,,,,
KRDR,08-14-2008,08:00,METAR,,140,6,,,9999.0,,17.0,15.0,29.87,1012.7,,,,,,,,,,,,,,,Clear,72000.0,,,73000,,,,,,
KRDR,08-14-2008,07:00,METAR,,140,8,,,9999.0,,19.0,15.0,29.88,1012.9,,,,,,,,,,,,,,,Clear,72000.0,,,73000,,,,,,
KRDR,08-14-2008,06:00,METAR,,160,6,,,9999.0,,18.0,15.0,29.88,1012.9,,,,,,,,,,,,,,,4/8 Partly Cloudy,72000.0,,FEW,7900,SCT,20000.0,,,,
KRDR,08-14-2008,05:00,METAR,,170,5,,,9999.0,,20.0,16.0,29.88,1013.0,,,,,,,,,,,,,,,4/8 Partly Cloudy,72000.0,,FEW,7900,SCT,22000.0,,,,
KRDR,08-14-2008,04:00,METAR,,110,8,,,9999.0,,21.0,16.0,29.86,1012.2,,,,,,,,,,,,,,,4/8 Partly Cloudy,72000.0,,FEW,7900,FEW,12000.0,SCT,25000.0,,
KRDR,08-14-2008,03:00,METAR,,140,6,,,9999.0,,21.0,17.0,29.85,1011.7,,,,,,,,,,,,,,,4/8 Partly Cloudy,72000.0,,FEW,5900,FEW,12000.0,SCT,25000.0,,
KRDR,08-14-2008,02:00,METAR,,120,5,,,9999.0,,23.0,18.0,29.83,1011.1,,,,,,,,,,,,,,,4/8 Partly Cloudy,72000.0,,FEW,5900,FEW,12000.0,SCT,25000.0,,
KRDR,08-14-2008,01:00,METAR,,130,5,,,9999.0,,25.0,17.0,29.81,1010.7,,,,,,,,,,,,,,,4/8 Partly Cloudy,72000.0,,FEW,12000,SCT,25000.0,,,,
KRDR,08-14-2008,00:00,METAR,,170,3,,,9999.0,,27.0,17.0,29.81,1010.5,,,,,,,,,,,,,,,4/8 Partly Cloudy,72000.0,,FEW,5900,SCT,25000.0,,,,
KRDR,08-13-2008,23:00,METAR,,260,3,,,9999.0,,29.0,12.0,29.81,1010.6,,,,,,,,,,,,,,,4/8 Partly Cloudy,72000.0,,FEW,5900,SCT,25000.0,,,,
KRDR,08-13-2008,22:00,METAR,,260,5,,,9999.0,,29.0,13.0,29.81,1010.7,,,,,,,,,,,,,,,4/8 Partly Cloudy,72000.0,,FEW,5000,SCT,25000.0,,,,
KRDR,08-13-2008,21:00,METAR,,130,8,,,9999.0,,28.0,16.0,29.82,1011.0,,,,,,,,,,,,,,,4/8 Partly Cloudy,72000.0,,FEW,5000,SCT,25000.0,,,,
KRDR,08-13-2008,20:00,METAR,,,0,,,9999.0,,28.0,16.0,29.83,1011.3,,,,,,,,,,,,,,,4/8 Partly Cloudy,72000.0,,FEW,5000,SCT,25000.0,,,,
KRDR,08-13-2008,19:00,METAR,,140,5,,,9999.0,,27.0,16.0,29.84,1011.5,,,,,,,,,,,,,,,4/8 Partly Cloudy,72000.0,,FEW,5000,SCT,25000.0,,,,
KRDR,08-13-2008,18:00,METAR,,100,5,,,9999.0,,25.0,17.0,29.84,1011.7,,,,,,,,,,,,,,,2/8 Mostly Clear,72000.0,,FEW,25000,,,,,,
KRDR,08-13-2008,17:00,METAR,,30,3,,,9999.0,,23.0,17.0,29.85,1011.9,,,,,,,,,,,,,,,2/8 Mostly Clear,72000.0,,FEW,25000,,,,,,
KRDR,08-13-2008,16:00,METAR,,,0,,,9999.0,,19.0,19.0,29.84,1011.7,,,,,,,,,,,,,,,4/8 Partly Cloudy,72000.0,,FEW,600,SCT,12000.0,,,,
KRDR,08-13-2008,15:34,SPECI,,,2,,,9999.0,,19.0,19.0,29.84,,,,,,,,,,,,,,,,4/8 Partly Cloudy,72000.0,,SCT,600,SCT,12000.0,,,,
KRDR,08-13-2008,15:15,SPECI,,,1,,,9999.0,Mist,18.0,18.0,29.84,,,,,10,,,,,,,,,,,,72000.0,,BKN,400,SCT,11000.0,,,,
KRDR,08-13-2008,15:00,METAR,,,0,,,4800.0,Mist,17.0,17.0,29.84,1011.7,,,,10,,,,,,,,,,,7/8 Mostly Cloudy,11000.0,,SCT,400,BKN,11000.0,,,,
KRDR,08-13-2008,14:47,SPECI,,,0,,,3200.0,Mist,17.0,17.0,29.84,1011.7,,,,10,,,,,,,,,,,7/8 Mostly Cloudy,11000.0,,SCT,400,BKN,11000.0,,,,
KRDR,08-13-2008,14:43,SPECI,,,0,,,2400.0,Mist,17.0,17.0,29.84,1011.6,,,,10,,,,,,,,,,,7/8 Mostly Cloudy,11000.0,,SCT,500,BKN,11000.0,,,,
KRDR,08-13-2008,14:40,SPECI,,,0,,,1600.0,Mist,17.0,17.0,29.84,1011.7,,,,10,,,,,,,,,,,7/8 Mostly Cloudy,11000.0,,SCT,200,BKN,11000.0,,,,
KRDR,08-13-2008,14:30,SPECI,,,0,,,1200.0,Mist,16.0,16.0,29.84,1011.5,,,,10,,,,,,,,,,,7/8 Mostly Cloudy,200.0,,BKN,200,,,,,,
KRDR,08-13-2008,14:15,SPECI,,,0,,,800.0,Fog or Ice Fog,16.0,16.0,29.84,1011.6,,,,45,,,,,,,,,,,Sky Obscured (Unable to Estimate),100.0,100.0,,100,,,,,,
KRDR,08-13-2008,14:00,METAR,,,0,,,400.0,Fog or Ice Fog,15.0,15.0,29.84,1011.4,,,,45,,,,,,,,,,,Sky Obscured (Unable to Estimate),100.0,0.0,,100,,,,,,
KRDR,08-13-2008,13:00,METAR,,,0,,,400.0,Fog or Ice Fog,14.0,14.0,29.83,1011.2,,,,45,,,,,,,,,,,Sky Obscured (Unable to Estimate),100.0,100.0,,100,,,,,,
KRDR,08-13-2008,12:00,METAR,,,0,,,800.0,Fog or Ice Fog,11.0,11.0,29.83,1011.1,,,,44,,,,,,,,,,,7/8 Mostly Cloudy,72000.0,,BKN,0,,,,,,
KRDR,08-13-2008,11:00,METAR,,,0,,,800.0,Fog or Ice Fog,11.0,11.0,29.82,1010.8,,,,44,,,,,,,,,,,7/8 Mostly Cloudy,72000.0,,BKN,0,,,,,,
KRDR,08-13-2008,10:00,METAR,,,0,,,800.0,Fog or Ice Fog,11.0,11.0,29.82,1010.7,,,,44,,,,,,,,,,,7/8 Mostly Cloudy,400.0,,SCT,100,BKN,400.0,,,,
KRDR,08-13-2008,09:27,SPECI,,,0,,,800.0,Fog or Ice Fog,12.0,12.0,29.82,1010.8,,,,44,,,,,,,,,,,Clear,72000.0,,,73000,,,,,,
KRDR,08-13-2008,09:24,SPECI,,,0,,,1200.0,Mist,12.0,12.0,29.82,1010.9,10,,,,,,,,,,,,,,Clear,72000.0,,,73000,,,,,,
KRDR,08-13-2008,09:22,SPECI,,,0,,,1600.0,Mist,12.0,12.0,29.82,1010.9,10,,,,,,,,,,,,,,Clear,72000.0,,,73000,,,,,,
KRDR,08-13-2008,09:17,SPECI,,,0,,,2400.0,Mist,12.0,12.0,29.82,1010.8,10,,,,,,,,,,,,,,Clear,72000.0,,,73000,,,,,,
KRDR,08-13-2008,09:16,SPECI,,,0,,,1600.0,Mist,12.0,12.0,29.82,1010.9,10,,,,,,,,,,,,,,Clear,72000.0,,,73000,,,,,,
KRDR,08-13-2008,09:12,SPECI,,,0,,,800.0,Fog,13.0,13.0,29.82,1010.9,30,,,,,,,,,,,,,,Clear,72000.0,,,73000,,,,,,
KRDR,08-13-2008,09:09,SPECI,,,0,,,400.0,Fog,13.0,13.0,29.82,1010.8,30,,,,,,,,,,,,,,Clear,72000.0,,,73000,,,,,,
KRDR,08-13-2008,09:03,SPECI,,,0,,,400.0,Fog,12.0,12.0,29.82,1010.8,30,,,,,,,,,,,,,,Clear,72000.0,,,73000,,,,,,
KRDR,08-13-2008,09:00,METAR,,,0,,,800.0,Fog,12.0,12.0,29.82,1010.9,30,,,,,,,,,,,,,,Clear,72000.0,,,73000,,,,,,
KRDR,08-13-2008,08:48,SPECI,,220,3,,,800.0,Fog,12.0,12.0,29.82,1011.0,30,,,,,,,,,,,,,,Clear,72000.0,,,73000,,,,,,
KRDR,08-13-2008,08:29,SPECI,,,0,,,400.0,Fog,13.0,12.0,29.82,1010.8,30,,,,,,,,,,,,,,Clear,72000.0,,,73000,,,,,,
KRDR,08-13-2008,08:21,SPECI,,,0,,,800.0,Fog,12.0,12.0,29.82,1010.9,30,,,,,,,,,,,,,,Clear,72000.0,,,73000,,,,,,
KRDR,08-13-2008,08:19,SPECI,,,0,,,400.0,Fog,12.0,12.0,29.82,1010.9,30,,,,,,,,,,,,,,Clear,72000.0,,,73000,,,,,,
KRDR,08-13-2008,08:08,SPECI,,260,3,,,400.0,Fog,13.0,13.0,29.82,1011.0,30,,,,,,,,,,,,,,Clear,72000.0,,,73000,,,,,,
KRDR,08-13-2008,08:00,METAR,,290,4,,,400.0,Fog,12.0,12.0,29.82,1010.9,30,,,,,,,,,,,,,,Clear,72000.0,,,73000,,,,,,
KRDR,08-13-2008,07:54,SPECI,,300,4,,,800.0,Fog,13.0,12.0,29.82,1010.9,30,,,,,,,,,,,,,,Clear,72000.0,,,73000,,,,,,
KRDR,08-13-2008,07:18,SPECI,,290,4,,,400.0,Fog,13.0,13.0,29.82,1010.8,30,,,,,,,,,,,,,,Clear,72000.0,,,73000,,,,,,
KRDR,08-13-2008,07:10,SPECI,,300,3,,,800.0,Fog,13.0,13.0,29.82,1010.7,30,,,,,,,,,,,,,,Clear,72000.0,,,73000,,,,,,
KRDR,08-13-2008,07:00,METAR,,300,3,,,400.0,Fog,13.0,13.0,29.81,1010.6,30,,,,,,,,,,,,,,Clear,72000.0,,,73000,,,,,,
KRDR,08-13-2008,06:46,SPECI,,,0,,,800.0,Fog,13.0,13.0,29.81,1010.6,30,,,,,,,,,,,,,,Clear,72000.0,,,73000,,,,,,
KRDR,08-13-2008,06:32,SPECI,,,0,,,400.0,Fog,13.0,13.0,29.81,1010.5,30,,,,,,,,,,,,,,Clear,72000.0,,,73000,,,,,,
KRDR,08-13-2008,06:11,SPECI,,350,4,,,800.0,Fog,13.0,13.0,29.81,1010.6,30,,,,,,,,,,,,,,Clear,72000.0,,,73000,,,,,,
KRDR,08-13-2008,06:01,SPECI,,350,3,,,1200.0,Mist,14.0,14.0,29.81,1010.4,10,,,,,,,,,,,,,,Clear,72000.0,,,73000,,,,,,
KRDR,08-13-2008,06:00,METAR,,,0,,,800.0,Fog,14.0,14.0,29.80,1010.3,30,,,,,,,,,,,,TRACE,,Clear,72000.0,,,73000,,,,,,
KRDR,08-13-2008,05:50,SPECI,,,0,,,800.0,Fog,14.0,14.0,29.80,1010.3,30,,,,,,,,,,,,,,Clear,72000.0,,,73000,,,,,,
KRDR,08-13-2008,05:47,SPECI,,320,3,,,1200.0,Mist,14.0,14.0,29.80,1010.3,10,,,,,,,,,,,,,,Clear,72000.0,,,73000,,,,,,
KRDR,08-13-2008,05:45,SPECI,,320,3,,,2000.0,Mist,14.0,14.0,29.80,1010.3,10,,,,,,,,,,,,,,Clear,72000.0,,,73000,,,,,,
KRDR,08-13-2008,05:38,SPECI,,320,3,,,3200.0,Mist,14.0,14.0,29.80,1010.4,10,,,,,,,,,,,,,,Clear,72000.0,,,73000,,,,,,
KRDR,08-13-2008,05:35,SPECI,,320,3,,,2000.0,Mist,14.0,14.0,29.81,1010.4,10,,,,,,,,,,,,,,Clear,72000.0,,,73000,,,,,,
KRDR,08-13-2008,05:33,SPECI,,320,3,,,1600.0,Mist,14.0,14.0,29.81,1010.4,10,,,,,,,,,,,,,,Clear,72000.0,,,73000,,,,,,
KRDR,08-13-2008,05:29,SPECI,,,0,,,1200.0,Mist,14.0,14.0,29.81,1010.4,10,,,,,,,,,,,,,,Clear,72000.0,,,73000,,,,,,
KRDR,08-13-2008,05:28,SPECI,,,0,,,1200.0,Mist,14.0,14.0,29.81,1010.4,10,,,,,,,,,,,,,,Clear,72000.0,,,73000,,,,,,
KRDR,08-13-2008,05:25,SPECI,,300,3,,,1600.0,Mist,14.0,14.0,29.81,1010.4,10,,,,,,,,,,,,,,Clear,72000.0,,,73000,,,,,,
KRDR,08-13-2008,05:22,SPECI,,,0,,,2800.0,Mist,14.0,14.0,29.80,1010.4,10,,,,,,,,,,,,,,Clear,72000.0,,,73000,,,,,,
KRDR,08-13-2008,05:00,METAR,,,0,,,9999.0,,15.0,15.0,29.81,1010.4,,,,,,,,,,,,,,,Clear,72000.0,,,73000,,,,,,
KRDR,08-13-2008,04:00,METAR,,10,5,,,9999.0,,17.0,16.0,29.80,1010.3,,,,,,,,,,,,,,,2/8 Mostly Clear,72000.0,,FEW,7900,,,,,,
KRDR,08-13-2008,03:00,METAR,,20,4,,,9999.0,,19.0,16.0,29.79,1010.0,,,,,,,,,,,,,,,2/8 Mostly Clear,72000.0,,FEW,7900,FEW,20000.0,,,,
KRDR,08-13-2008,02:00,METAR,,60,4,,,9999.0,,22.0,15.0,29.77,1009.3,,,,,,,,,,,,,,,4/8 Partly Cloudy,72000.0,,FEW,7900,SCT,20000.0,,,,
KRDR,08-13-2008,01:00,METAR,,70,4,,,9999.0,,25.0,15.0,29.76,1008.9,,,,,,,,,,,,,,,4/8 Partly Cloudy,72000.0,,FEW,8400,SCT,20000.0,,,,
KRDR,08-13-2008,00:00,METAR,,60,5,,,9999.0,,26.0,14.0,29.75,1008.5,,,,,,,,,,,,,,,7/8 Mostly Cloudy,20000.0,,FEW,8400,BKN,20000.0,,,,
KRDR,08-12-2008,23:00,METAR,,50,4,,,9999.0,,26.0,13.0,29.75,1008.5,,,,,,,,,,,,,,,7/8 Mostly Cloudy,20000.0,,FEW,8400,BKN,20000.0,,,,
KRDR,08-12-2008,22:00,METAR,,290,7,,,9999.0,,27.0,12.0,29.75,1008.5,,,,,,,,,,,,,,,7/8 Mostly Cloudy,20000.0,,FEW,5000,BKN,20000.0,,,,
KRDR,08-12-2008,21:00,METAR,,270,9,,,9999.0,,27.0,12.0,29.75,1008.7,,,,,,,,,,,,,,,7/8 Mostly Cloudy,20000.0,,FEW,5000,BKN,20000.0,,,,
KRDR,08-12-2008,20:00,METAR,,290,7,,,9999.0,,26.0,15.0,29.76,1009.0,,,,,,,,,,,,,,,7/8 Mostly Cloudy,20000.0,,FEW,5000,BKN,20000.0,,,,
KRDR,08-12-2008,19:00,METAR,,260,8,,,9999.0,,25.0,16.0,29.77,1009.3,,,,,,,,,,,,,,,7/8 Mostly Cloudy,20000.0,,FEW,4000,BKN,20000.0,,,,
KRDR,08-12-2008,18:00,METAR,,300,9,,,9999.0,,23.0,16.0,29.77,1009.5,,,,,,,,,,,,,,,7/8 Mostly Cloudy,20000.0,,FEW,3500,SCT,15000.0,BKN,20000.0,,
KRDR,08-12-2008,17:00,METAR,,290,5,,,9999.0,,21.0,17.0,29.77,1009.6,,,,,,,,,,,,,,,7/8 Mostly Cloudy,15000.0,,BKN,15000,BKN,20000.0,,,,
KRDR,08-12-2008,16:00,METAR,,270,7,,,9999.0,,21.0,18.0,29.76,1009.3,,,,,,,,,,,,,,,7/8 Mostly Cloudy,15000.0,,FEW,5000,BKN,15000.0,,,,
KRDR,08-12-2008,15:00,METAR,,290,4,,,9999.0,,20.0,19.0,29.76,1009.2,,,,,,,,,,,,,,,7/8 Mostly Cloudy,15000.0,,FEW,5000,BKN,15000.0,,,,
KRDR,08-12-2008,14:00,METAR,,280,4,,,9999.0,,19.0,19.0,29.76,1009.3,,,,,,,,,,,,,,,8/8 Overcast,15000.0,,FEW,500,FEW,2900.0,SCT,5000.0,OVC,15000.0
KRDR,08-12-2008,13:00,METAR,,280,5,,,9999.0,,19.0,18.0,29.75,1008.9,,,,,,,,,,,,,,,7/8 Mostly Cloudy,2900.0,,FEW,1000,BKN,2900.0,BKN,5000.0,,
KRDR,08-12-2008,12:24,SPECI,,270,5,,,9999.0,,18.0,18.0,29.75,1008.9,,,,,,,,,,,,,,,8/8 Overcast,2100.0,,FEW,900,BKN,2100.0,OVC,3400.0,,
KRDR,08-12-2008,12:00,METAR,,260,6,,,9999.0,,18.0,18.0,29.74,1008.6,,,,,,,,,,,,,.15 IN,.66 IN,8/8 Overcast,1100.0,,SCT,400,BKN,1100.0,OVC,7400.0,,
KRDR,08-12-2008,11:46,SPECI,,260,7,,,9999.0,,18.0,18.0,29.74,1008.6,,,,,,,,,,,,,,,8/8 Overcast,1100.0,,SCT,300,BKN,1100.0,OVC,7400.0,,
KRDR,08-12-2008,11:08,SPECI,,,0,,,9999.0,,17.0,17.0,29.73,1008.2,,,,,,,,,,,,,,,8/8 Overcast,3600.0,,SCT,300,SCT,1000.0,OVC,3700.0,,
KRDR,08-12-2008,11:01,SPECI,,,0,,,9999.0,,17.0,17.0,29.73,1008.0,,,,,,,,,,,,,,,7/8 Mostly Cloudy,1000.0,,FEW,400,BKN,1000.0,BKN,6400.0,,
KRDR,08-12-2008,11:00,METAR,,,0,,,9999.0,,17.0,17.0,29.73,1008.0,,,,,,,,,,,,,,,7/8 Mostly Cloudy,800.0,,FEW,400,BKN,800.0,BKN,7400.0,,
KRDR,08-12-2008,10:41,SPECI,,240,3,,,9999.0,,17.0,17.0,29.73,1007.9,,,,,,,,,,,,,,,8/8 Overcast,3100.0,,OVC,3100,,,,,,
KRDR,08-12-2008,10:37,SPECI,,240,3,,,9999.0,,17.0,17.0,29.73,1007.9,,,,,,,,,,,,,,,7/8 Mostly Cloudy,400.0,,BKN,400,BKN,7400.0,,,,
KRDR,08-12-2008,10:35,SPECI,,230,3,,,9999.0,,17.0,17.0,29.73,1007.9,,,,,,,,,,,,,,,7/8 Mostly Cloudy,1600.0,,BKN,1600,,,,,,
KRDR,08-12-2008,10:34,SPECI,,230,3,,,9999.0,,17.0,17.0,29.73,1007.9,,,,,,,,,,,,,,,7/8 Mostly Cloudy,1400.0,,BKN,1400,,,,,,
KRDR,08-12-2008,10:29,SPECI,,210,4,,,9999.0,,17.0,17.0,29.73,1007.8,,,,,,,,,,,,,,,7/8 Mostly Cloudy,1500.0,,BKN,1500,,,,,,
KRDR,08-12-2008,10:25,SPECI,,210,5,,,9999.0,,17.0,17.0,29.73,1007.9,,,,,,,,,,,,,,,7/8 Mostly Cloudy,400.0,,BKN,400,BKN,6900.0,,,,
KRDR,08-12-2008,10:00,METAR,,,0,,,9999.0,,18.0,17.0,29.73,1007.8,,,,,,,,,,,TRACE,,,,7/8 Mostly Cloudy,7000.0,,FEW,800,SCT,5900.0,BKN,6900.0,,
KRDR,08-12-2008,09:46,SPECI,,,0,,,9999.0,,18.0,18.0,29.72,1007.7,,,,,,,,,,,,,,,7/8 Mostly Cloudy,6000.0,,FEW,600,SCT,1100.0,BKN,5900.0,,
KRDR,08-12-2008,09:42,SPECI,,,0,,,9999.0,Light Rain,18.0,17.0,29.73,1007.8,61,,,,,,,,,,,,,,7/8 Mostly Cloudy,4900.0,,SCT,800,SCT,2100.0,BKN,5000.0,,
KRDR,08-12-2008,09:37,SPECI,,,0,,,9999.0,Light Rain,18.0,17.0,29.72,1007.7,61,,,,,,,,,,,,,,8/8 Overcast,2100.0,,SCT,800,BKN,2100.0,OVC,5900.0,,
KRDR,08-12-2008,09:29,SPECI,,,0,,,9999.0,Unknown Precipitation,18.0,18.0,29.73,1008.0,40,,,,,,,,,,,,,,8/8 Overcast,600.0,,BKN,600,BKN,2100.0,OVC,6400.0,,
KRDR,08-12-2008,09:25,SPECI,,260,4,,,9999.0,,18.0,18.0,29.73,1008.0,,,,,,,,,,,,,,,8/8 Overcast,1100.0,,OVC,1100,,,,,,
KRDR,08-12-2008,09:21,SPECI,,250,5,,,9999.0,,18.0,18.0,29.73,1007.9,,,,,,,,,,,,,,,8/8 Overcast,1300.0,,OVC,1300,,,,,,
KRDR,08-12-2008,09:20,SPECI,,240,5,,,9999.0,,18.0,18.0,29.73,1008.0,,,,,,,,,,,,,,,8/8 Overcast,700.0,,BKN,700,OVC,2700.0,,,,
KRDR,08-12-2008,09:16,SPECI,,230,4,,,9999.0,,18.0,18.0,29.73,1008.1,,,,,,,,,,,,,,,8/8 Overcast,1500.0,,OVC,1500,,,,,,
KRDR,08-12-2008,09:12,SPECI,,240,4,,,9999.0,Light Drizzle,18.0,18.0,29.74,1008.1,51,,,,,,,,,,,,,,8/8 Overcast,1000.0,,OVC,1000,,,,,,
KRDR,08-12-2008,09:00,METAR,,240,3,,,9999.0,,18.0,18.0,29.73,1008.0,,,,,,,,,,,TRACE,TRACE,,,7/8 Mostly Cloudy,6000.0,,SCT,700,BKN,5900.0,,,,
KRDR,08-12-2008,08:54,SPECI,,220,3,,,9999.0,Light Rain,18.0,18.0,29.73,1008.0,61,,,,,,,,,,,,,,7/8 Mostly Cloudy,700.0,,BKN,700,BKN,5900.0,,,,
KRDR,08-12-2008,08:47,SPECI,,250,4,,,9999.0,,18.0,18.0,29.73,1008.0,,,,,,,,,,,,,,,7/8 Mostly Cloudy,6000.0,,FEW,700,BKN,5900.0,,,,
KRDR,08-12-2008,08:42,SPECI,,260,3,,,9999.0,,18.0,18.0,29.73,1008.0,,,,,,,,,,,,,,,7/8 Mostly Cloudy,6000.0,,SCT,900,BKN,5900.0,,,,
KRDR,08-12-2008,08:41,SPECI,,,0,,,9999.0,,18.0,18.0,29.73,1008.0,,,,,,,,,,,,,,,7/8 Mostly Cloudy,3400.0,,BKN,3500,,,,,,
KRDR,08-12-2008,08:37,SPECI,,240,4,,,9999.0,Light Drizzle,18.0,18.0,29.73,1008.0,51,,,,,,,,,,,,,,7/8 Mostly Cloudy,2000.0,,BKN,2000,,,,,,
KRDR,08-12-2008,08:30,SPECI,,,0,,,9999.0,,18.0,18.0,29.73,1008.0,,,,,,,,,,,,,,,4/8 Partly Cloudy,72000.0,,SCT,1700,,,,,,
KRDR,08-12-2008,08:23,SPECI,,230,4,,,9999.0,Light Rain,19.0,19.0,29.73,1007.9,61,,,,,,,,,,,,,,4/8 Partly Cloudy,72000.0,,SCT,1100,,,,,,
KRDR,08-12-2008,08:15,SPECI,,210,6,,,9999.0,Light Rain,19.0,19.0,29.73,1007.9,61,,,,,,,,,,,,,,7/8 Mostly Cloudy,900.0,,BKN,900,,,,,,
KRDR,08-12-2008,08:04,SPECI,,200,6,,,9999.0,Light Rain,19.0,19.0,29.73,1007.9,61,,,,,,,,,,,,,,2/8 Mostly Clear,72000.0,,FEW,1000,,,,,,
KRDR,08-12-2008,08:00,METAR,,170,3,,,9999.0,,19.0,19.0,29.73,1007.9,,,,,,,,,,,TRACE,,,,Clear,72000.0,,,73000,,,,,,
KRDR,08-12-2008,07:00,METAR,,,0,,,9999.0,Light Rain,19.0,19.0,29.74,1008.3,61,,,,,,,,,,TRACE,,,,7/8 Mostly Cloudy,3400.0,,SCT,500,BKN,3500.0,,,,
KRDR,08-12-2008,06:49,SPECI,,,0,,,9999.0,Light Rain,19.0,19.0,29.74,1008.3,61,,,,,,,,,,,,,,7/8 Mostly Cloudy,3400.0,,SCT,500,BKN,3500.0,,,,
KRDR,08-12-2008,06:46,SPECI,,220,3,,,9999.0,Light Rain,19.0,19.0,29.74,1008.3,61,,,,,,,,,,,,,,8/8 Overcast,1400.0,,OVC,1400,,,,,,
KRDR,08-12-2008,06:45,SPECI,,220,3,,,9999.0,Light Rain,19.0,19.0,29.74,1008.4,61,,,,,,,,,,,,,,8/8 Overcast,500.0,,BKN,500,BKN,900.0,OVC,3400.0,,
KRDR,08-12-2008,06:41,SPECI,,220,3,,,9999.0,Light Rain,19.0,19.0,29.74,1008.4,61,,,,,,,,,,,,,,8/8 Overcast,400.0,,BKN,400,BKN,900.0,OVC,2100.0,,
KRDR,08-12-2008,06:36,SPECI,,190,3,,,9999.0,Light Rain,19.0,19.0,29.74,1008.4,61,,,,,,,,,,,,,,8/8 Overcast,500.0,,BKN,500,BKN,900.0,OVC,1400.0,,
KRDR,08-12-2008,06:21,SPECI,,200,5,,,8000.0,Rain/Mist,19.0,19.0,29.75,1008.6,62,10,,,,,,,,,,,,,8/8 Overcast,900.0,,OVC,900,,,,,,
KRDR,08-12-2008,06:19,SPECI,,200,5,,,8000.0,Rain/Mist,19.0,19.0,29.75,1008.6,62,10,,,,,,,,,,,,,8/8 Overcast,600.0,,BKN,600,OVC,1300.0,,,,
KRDR,08-12-2008,06:15,SPECI,,190,5,,,9999.0,Light Rain,19.0,19.0,29.75,1008.6,61,,,,,,,,,,,,,,8/8 Overcast,900.0,,OVC,900,,,,,,
KRDR,08-12-2008,06:14,SPECI,,190,5,,,9999.0,Light Rain,19.0,19.0,29.75,1008.6,61,,,,,,,,,,,,,,8/8 Overcast,600.0,,BKN,600,OVC,1300.0,,,,
KRDR,08-12-2008,06:00,METAR,,180,5,,,9999.0,Light Drizzle,19.0,19.0,29.75,1008.7,51,,,,,,,,,,TRACE,,TRACE,,8/8 Overcast,900.0,,OVC,900,,,,,,
KRDR,08-12-2008,05:46,SPECI,,180,6,,,9999.0,Light Drizzle,19.0,19.0,29.75,1008.7,51,,,,,,,,,,,,,,8/8 Overcast,800.0,,OVC,800,,,,,,
KRDR,08-12-2008,05:33,SPECI,,180,6,,,9999.0,Light Rain,19.0,19.0,29.76,1008.8,61,,,,,,,,,,,,,,8/8 Overcast,600.0,,OVC,600,,,,,,
KRDR,08-12-2008,05:20,SPECI,,170,6,,,9999.0,Light Rain,19.0,19.0,29.76,1008.9,61,,,,,,,,,,,,,,7/8 Mostly Cloudy,800.0,,BKN,800,,,,,,
KRDR,08-12-2008,05:15,SPECI,,170,6,,,9999.0,Light Rain,19.0,18.0,29.76,1008.9,61,,,,,,,,,,,,,,7/8 Mostly Cloudy,900.0,,BKN,900,,,,,,
KRDR,08-12-2008,05:11,SPECI,,180,7,,,9999.0,Light Rain,19.0,18.0,29.76,1008.9,61,,,,,,,,,,,,,,7/8 Mostly Cloudy,1100.0,,BKN,1100,,,,,,
KRDR,08-12-2008,05:04,SPECI,,180,8,,,9999.0,Light Rain,19.0,19.0,29.76,1008.9,61,,,,,,,,,,,,,,4/8 Partly Cloudy,72000.0,,SCT,1100,,,,,,
KRDR,08-12-2008,05:00,METAR,,170,9,,,9999.0,Light Rain,19.0,19.0,29.76,1008.9,61,,,,,,,,,,TRACE,,,,7/8 Mostly Cloudy,1500.0,,BKN,1500,,,,,,
KRDR,08-12-2008,04:49,SPECI,,160,8,,,9999.0,Light Rain,19.0,19.0,29.76,1008.8,61,,,,,,,,,,,,,,7/8 Mostly Cloudy,1400.0,,FEW,500,BKN,1400.0,,,,
KRDR,08-12-2008,04:45,SPECI,,150,10,,,8000.0,Rain/Mist,19.0,19.0,29.76,1008.8,62,10,,,,,,,,,,,,,7/8 Mostly Cloudy,1400.0,,BKN,1400,,,,,,
KRDR,08-12-2008,04:43,SPECI,,150,9,,,8000.0,Rain/Mist,19.0,19.0,29.76,1008.8,62,10,,,,,,,,,,,,,8/8 Overcast,1500.0,,FEW,400,OVC,1500.0,,,,
KRDR,08-12-2008,04:36,SPECI,,160,8,,,9999.0,Light Rain,19.0,19.0,29.76,1008.9,61,,,,,,,,,,,,,,8/8 Overcast,1400.0,,FEW,400,OVC,1400.0,,,,
KRDR,08-12-2008,04:30,SPECI,,150,6,,,9999.0,Light Drizzle,19.0,19.0,29.76,1008.8,51,,,,,,,,,,,,,,8/8 Overcast,1700.0,,SCT,400,OVC,1700.0,,,,
KRDR,08-12-2008,04:27,SPECI,,140,7,,,9999.0,,19.0,19.0,29.75,1008.7,,,,,,,,,,,,,,,8/8 Overcast,1200.0,,OVC,1200,,,,,,
KRDR,08-12-2008,04:25,SPECI,,140,7,,,9999.0,,19.0,19.0,29.75,1008.8,,,,,,,,,,,,,,,8/8 Overcast,1000.0,,OVC,1000,,,,,,
KRDR,08-12-2008,04:23,SPECI,,140,8,,,9999.0,,19.0,19.0,29.76,1008.8,,,,,,,,,,,,,,,8/8 Overcast,700.0,,OVC,700,,,,,,
KRDR,08-12-2008,04:21,SPECI,,140,7,,,9999.0,Light Drizzle,19.0,19.0,29.76,1008.9,51,,,,,,,,,,,,,,8/8 Overcast,700.0,,OVC,700,,,,,,
KRDR,08-12-2008,04:16,SPECI,,140,7,,,9999.0,Light Drizzle,19.0,19.0,29.76,1009.0,51,,,,,,,,,,,,,,8/8 Overcast,500.0,,OVC,500,,,,,,
KRDR,08-12-2008,04:00,METAR,,150,5,,,8000.0,Rain/Mist,19.0,19.0,29.77,1009.2,,,,61,10,,,,,,.01 IN,,,,8/8 Overcast,700.0,,OVC,700,,,,,,
KRDR,08-12-2008,03:00,METAR,,130,7,,,9999.0,Drizzle/Mist,19.0,19.0,29.77,1009.2,,,,51,10,,,,,,TRACE,TRACE,,,8/8 Overcast,1500.0,,SCT,500,OVC,1500.0,,,,
KRDR,08-12-2008,02:33,SPECI,,140,8,,,9999.0,Drizzle/Mist,20.0,19.0,29.77,,,,,51,10,,,,,,,,,,8/8 Overcast,500.0,,OVC,700,,,,,,
KRDR,08-12-2008,02:00,METAR,,150,7,,,9999.0,Drizzle/Mist,20.0,19.0,29.77,1009.2,,,,51,10,,,,,,TRACE,,,,8/8 Overcast,1000.0,,OVC,1000,,,,,,
KRDR,08-12-2008,01:26,SPECI,,150,6,,,9999.0,Drizzle/Mist,20.0,19.0,29.77,,,,,51,10,,,,,,,,,,8/8 Overcast,1000.0,,OVC,1000,,,,,,
KRDR,08-12-2008,01:09,SPECI,,160,6,,,9999.0,Mist,20.0,19.0,29.78,,,,,10,,,,,,,,,,,8/8 Overcast,1200.0,,OVC,1200,,,,,,
KRDR,08-12-2008,01:00,METAR,,160,8,,,9999.0,Rain,20.0,19.0,29.78,1009.6,,,,61,,,,,,,TRACE,,,,8/8 Overcast,2300.0,,FEW,500,SCT,1100.0,OVC,2300.0,,
KRDR,08-12-2008,00:00,METAR,,160,4,,,9999.0,,20.0,19.0,29.78,1009.7,,,,,,,,,,,TRACE,,.07 IN,,8/8 Overcast,2600.0,,FEW,800,BKN,2600.0,OVC,6900.0,,
KRDR,08-11-2008,23:00,METAR,,140,5,,,9999.0,Drizzle,21.0,20.0,29.79,1010.0,,,,51,,,,,,,TRACE,,,,8/8 Overcast,1600.0,,FEW,800,BKN,1600.0,OVC,5000.0,,
KRDR,08-11-2008,22:00,METAR,,150,6,,,9999.0,,21.0,19.0,29.81,1010.6,,,,,,,,,,,TRACE,,,,8/8 Overcast,1600.0,,SCT,1000,BKN,1600.0,OVC,5000.0,,
KRDR,08-11-2008,21:00,METAR,,160,7,,,9999.0,Drizzle,20.0,20.0,29.82,1011.0,,,,51,,,,,,,.01 IN,.07 IN,,,8/8 Overcast,1100.0,,BKN,1100,OVC,2400.0,,,,
KRDR,08-11-2008,20:00,METAR,,150,7,,,9999.0,Rain,20.0,19.0,29.85,1011.7,,,,61,,,,,,,.03 IN,,,,8/8 Overcast,1400.0,,OVC,1400,,,,,,
KRDR,08-11-2008,19:00,METAR,,180,6,,,9999.0,Rain,19.0,19.0,29.85,1012.0,,,,61,,,,,,,.03 IN,,,,8/8 Overcast,1000.0,,SCT,600,BKN,1000.0,OVC,1400.0,,
KRDR,08-11-2008,18:00,METAR,,190,9,,,9999.0,Rain,19.0,18.0,29.86,1012.4,,,,61,,,,,,,.01 IN,,.34 IN,,8/8 Overcast,1100.0,,SCT,800,OVC,1100.0,,,,
KRDR,08-11-2008,17:00,METAR,,160,9,,,9999.0,Rain,18.0,18.0,29.87,1012.7,,,,61,,,,,,,.01 IN,,,,8/8 Overcast,1100.0,,SCT,700,OVC,1100.0,,,,
KRDR,08-11-2008,16:00,METAR,,120,8,,,9999.0,Rain,17.0,16.0,29.87,1012.6,,,,61,,,,,,,.01 IN,,,,8/8 Overcast,1400.0,,SCT,700,OVC,1400.0,,,,
KRDR,08-11-2008,15:10,SPECI,,120,8,,,9999.0,Rain,17.0,16.0,29.87,1012.7,,,,61,,,,,,,,,,,8/8 Overcast,1300.0,,FEW,700,BKN,1300.0,OVC,2000.0,,
KRDR,08-11-2008,15:00,METAR,,130,8,,,9999.0,Rain,17.0,16.0,29.88,1012.9,,,,61,,,,,,,.01 IN,.51 IN,,,8/8 Overcast,2100.0,,FEW,600,OVC,2100.0,,,,
KRDR,08-11-2008,14:26,SPECI,,140,6,,,9999.0,Rain,17.0,16.0,29.89,1013.2,,,,61,,,,,,,,,,,8/8 Overcast,2300.0,,FEW,600,OVC,2300.0,,,,
KRDR,08-11-2008,14:00,METAR,,150,8,,,9999.0,,16.0,15.0,29.90,1013.6,,,,,,,,,,,TRACE,,,,8/8 Overcast,2700.0,,FEW,1200,OVC,2700.0,,,,
KRDR,08-11-2008,13:14,SPECI,,170,6,,,9999.0,,16.0,15.0,29.90,1013.7,,,,,,,,,,,,,,,8/8 Overcast,1000.0,,SCT,1800,BKN,2000.0,OVC,3200.0,,
KRDR,08-11-2008,13:04,SPECI,,180,7,,,9999.0,,16.0,15.0,29.91,1013.7,,,,,,,,,,,,,,,8/8 Overcast,3000.0,,FEW,1100,SCT,2200.0,BKN,3000.0,OVC,5000.0
KRDR,08-11-2008,13:00,METAR,,150,7,,,9999.0,Rain,16.0,15.0,29.90,1013.6,,,,61,,,,,,,.1 IN,,,,8/8 Overcast,1200.0,,FEW,1000,SCT,2700.0,OVC,5200.0,,
KRDR,08-11-2008,12:21,SPECI,,140,11,,,9999.0,Rain,15.0,14.0,29.91,1013.7,,,,61,,,,,,,,,,,8/8 Overcast,2400.0,,SCT,1200,BKN,2400.0,OVC,4000.0,,
KRDR,08-11-2008,12:00,METAR,,120,11,,,9999.0,Rain,15.0,14.0,29.89,1013.2,,,,61,,,,,,,.2 IN,,.4 IN,.4 IN,8/8 Overcast,4100.0,,FEW,300,OVC,4200.0,,,,
KRDR,08-11-2008,11:33,SPECI,,140,14,21.0,,9999.0,Rain,15.0,14.0,29.90,1013.5,,,,61,,,,,,,,,,,8/8 Overcast,8000.0,,FEW,300,SCT,1900.0,OVC,7900.0,,
KRDR,08-11-2008,11:17,SPECI,,140,14,,,4800.0,Rain/Mist,15.0,14.0,29.90,1013.6,,,,61,10,,,,,,,,,,8/8 Overcast,1700.0,,SCT,300,OVC,1700.0,,,,
KRDR,08-11-2008,11:00,METAR,,140,14,,,6400.0,Rain/Mist,15.0,14.0,29.90,1013.5,,,,63,10,,,,,,.2 IN,,,,8/8 Overcast,3000.0,,SCT,300,SCT,2400.0,BKN,3000.0,OVC,11000.0
KRDR,08-11-2008,10:41,SPECI,,160,12,,,4800.0,Rain,15.0,14.0,29.90,1013.6,,,,63,,,,,,,,,,,7/8 Mostly Cloudy,3000.0,,FEW,300,BKN,3000.0,BKN,11000.0,,
KRDR,08-11-2008,10:32,SPECI,,170,11,,,3200.0,Heavy Rain,16.0,14.0,29.91,1013.8,,,,65,,,,,,,,,,,7/8 Mostly Cloudy,4900.0,,SCT,1800,BKN,5000.0,BKN,9900.0,,
KRDR,08-11-2008,10:23,SPECI,,150,11,,,9999.0,Rain,16.0,13.0,29.91,1013.7,,,,61,,,,,,,,,,,7/8 Mostly Cloudy,10000.0,,BKN,9900,,,,,,
KRDR,08-11-2008,10:04,SPECI,,140,11,,,9999.0,,16.0,14.0,29.90,1013.7,,,,,,,,,,,,,,,7/8 Mostly Cloudy,8500.0,,FEW,1700,BKN,8400.0,,,,
KRDR,08-11-2008,10:00,METAR,,140,11,,,9999.0,Light Rain,16.0,14.0,29.91,1013.9,61,,,,,,,,,,TRACE,,,,7/8 Mostly Cloudy,6500.0,,FEW,1600,BKN,6400.0,,,,
KRDR,08-11-2008,09:40,SPECI,,140,10,,,9999.0,Light Drizzle,17.0,14.0,29.92,1014.2,51,,,,,,,,,,,,,,7/8 Mostly Cloudy,7000.0,,BKN,6900,,,,,,
KRDR,08-11-2008,09:00,METAR,,130,10,,,9999.0,,17.0,14.0,29.93,1014.4,,,,,,,,,,,,TRACE,,,7/8 Mostly Cloudy,6500.0,,BKN,6400,,,,,,
KRDR,08-11-2008,08:00,METAR,,130,8,,,9999.0,,17.0,15.0,29.93,1014.6,,,,,,,,,,,,,,,4/8 Partly Cloudy,72000.0,,SCT,11000,,,,,,
KRDR,08-11-2008,07:00,METAR,,140,10,,,9999.0,,18.0,15.0,29.95,1015.2,,,,,,,,,,,TRACE,,,,2/8 Mostly Clear,72000.0,,FEW,8900,,,,,,
KRDR,08-11-2008,06:00,METAR,,160,9,,,9999.0,Unknown Precipitation,20.0,15.0,29.97,1015.7,40,,,,,,,,,,TRACE,,TRACE,,7/8 Mostly Cloudy,9000.0,,BKN,8900,,,,,,
KRDR,08-11-2008,05:00,METAR,,140,8,,,9999.0,,19.0,16.0,29.97,1015.9,,,,,,,,,,,TRACE,,,,4/8 Partly Cloudy,72000.0,,SCT,11000,,,,,,
KRDR,08-11-2008,04:30,SPECI,,140,9,,,9999.0,,19.0,17.0,29.97,1015.9,,,,,,,,,,,,,,,4/8 Partly Cloudy,72000.0,,SCT,5400,,,,,,
KRDR,08-11-2008,04:21,SPECI,,140,8,,,9999.0,,19.0,16.0,29.97,1015.9,,,,,,,,,,,,,,,4/8 Partly Cloudy,72000.0,,SCT,3900,,,,,,
KRDR,08-11-2008,04:10,SPECI,,130,8,,,9999.0,,19.0,16.0,29.97,1015.8,,,,,,,,,,,,,,,Clear,72000.0,,,73000,,,,,,
KRDR,08-11-2008,04:00,METAR,,150,6,,,9999.0,,20.0,16.0,29.97,1016.0,,,,,,,,,,,TRACE,,,,Clear,72000.0,,,73000,,,,,,
KRDR,08-11-2008,03:42,SPECI,,160,7,,,9999.0,,20.0,16.0,29.97,1015.9,,,,,,,,,,,,,,,Clear,72000.0,,,73000,,,,,,
KRDR,08-11-2008,03:38,SPECI,,150,8,,,9999.0,,20.0,16.0,29.97,1015.9,,,,,,,,,,,,,,,Clear,72000.0,,,73000,,,,,,
KRDR,08-11-2008,03:00,METAR,,170,6,,,9999.0,Light Rain,20.0,16.0,29.98,1016.1,61,,,,,,,,,,TRACE,TRACE,,,7/8 Mostly Cloudy,4900.0,,BKN,5000,,,,,,
KRDR,08-11-2008,02:47,SPECI,,180,5,,,9999.0,,20.0,16.0,29.98,1016.1,,,,,,,,,,,,,,,7/8 Mostly Cloudy,4800.0,,BKN,4900,,,,,,
KRDR,08-11-2008,02:00,METAR,,170,6,,,9999.0,,21.0,15.0,29.97,1015.8,,,,,,,,,,,,,,,4/8 Partly Cloudy,72000.0,,SCT,7900,,,,,,
KRDR,08-11-2008,01:46,SPECI,,170,7,,,9999.0,,22.0,15.0,29.97,1015.8,,,,,,,,,,,,,,,4/8 Partly Cloudy,72000.0,,SCT,8400,,,,,,
KRDR,08-11-2008,01:00,METAR,,150,7,,,9999.0,,23.0,15.0,29.96,1015.4,,,,,,,,,,,,,,,7/8 Mostly Cloudy,5500.0,,BKN,5400,,,,,,
KRDR,08-11-2008,00:00,METAR,,160,10,,,9999.0,,23.0,15.0,29.96,1015.7,,,,,,,,,,,,,TRACE,,7/8 Mostly Cloudy,4900.0,,BKN,5000,,,,,,
KRDR,08-10-2008,23:00,METAR,,170,13,,,9999.0,,23.0,15.0,29.98,1016.2,,,,,,,,,,,TRACE,,,,4/8 Partly Cloudy,72000.0,,SCT,7900,,,,,,
KRDR,08-10-2008,22:19,SPECI,,160,9,,,9999.0,,23.0,14.0,29.99,1016.5,,,,,,,,,,,,,,,2/8 Mostly Clear,72000.0,,FEW,8900,,,,,,
KRDR,08-10-2008,22:00,METAR,,170,11,,,9999.0,,23.0,14.0,30.00,1016.9,,,,,,,,,,,,,,,2/8 Mostly Clear,72000.0,,FEW,6900,,,,,,
KRDR,08-10-2008,21:00,METAR,,160,11,,,9999.0,,23.0,14.0,30.01,1017.1,,,,,,,,,,,,,,,2/8 Mostly Clear,72000.0,,FEW,6400,,,,,,
KRDR,08-10-2008,20:00,METAR,,150,11,,,9999.0,,24.0,14.0,30.02,1017.5,,,,,,,,,,,,,,,2/8 Mostly Clear,72000.0,,FEW,7400,,,,,,
KRDR,08-10-2008,19:00,METAR,,160,10,,,9999.0,,24.0,14.0,30.02,1017.5,,,,,,,,,,,,,,,Clear,72000.0,,,73000,,,,,,
KRDR,08-10-2008,18:00,METAR,,170,13,,,9999.0,,23.0,13.0,30.03,1018.0,,,,,,,,,,,,,,,Clear,72000.0,,,73000,,,,,,
KRDR,08-10-2008,17:00,METAR,,170,13,,,9999.0,,22.0,13.0,30.03,1018.0,,,,,,,,,,,,,,,Clear,72000.0,,,73000,,,,,,
KRDR,08-10-2008,16:00,METAR,,170,12,,,9999.0,,22.0,14.0,30.04,1018.1,,,,,,,,,,,,,,,2/8 Mostly Clear,72000.0,,FEW,8400,,,,,,
KRDR,08-10-2008,15:00,METAR,,190,12,,,9999.0,,21.0,13.0,30.03,1017.9,,,,,,,,,,,,,,,Clear,72000.0,,,73000,,,,,,
KRDR,08-10-2008,14:00,METAR,,180,10,17.0,,9999.0,,19.0,14.0,30.03,1018.0,,,,,,,,,,,,,,,7/8 Mostly Cloudy,8000.0,,BKN,7900,,,,,,
KRDR,08-10-2008,13:00,METAR,,150,5,,,9999.0,,16.0,14.0,30.03,1018.0,,,,,,,,,,,,,,,2/8 Mostly Clear,72000.0,,FEW,8400,,,,,,
KRDR,08-10-2008,12:00,METAR,,170,3,,,9999.0,,14.0,13.0,30.03,1017.9,,,,,,,,,,,,,,,2/8 Mostly Clear,72000.0,,FEW,8400,,,,,,
KRDR,08-10-2008,11:00,METAR,,,0,,,9999.0,,12.0,11.0,30.02,1017.6,,,,,,,,,,,,,,,Clear,72000.0,,,73000,,,,,,
KRDR,08-10-2008,10:00,METAR,,,0,,,9999.0,,12.0,12.0,30.02,1017.5,,,,,,,,,,,,,,,Clear,72000.0,,,73000,,,,,,
KRDR,08-10-2008,09:00,METAR,,40,3,,,9999.0,,12.0,11.0,30.01,1017.2,,,,,,,,,,,,,,,Clear,72000.0,,,73000,,,,,,
KRDR,08-10-2008,08:00,METAR,,,0,,,9999.0,,12.0,11.0,30.01,1017.2,,,,,,,,,,,,,,,Clear,72000.0,,,73000,,,,,,
KRDR,08-10-2008,07:00,METAR,,,0,,,9999.0,,12.0,11.0,30.02,1017.5,,,,,,,,,,,,,,,Clear,72000.0,,,73000,,,,,,
KRDR,08-10-2008,06:00,METAR,,,0,,,9999.0,,13.0,11.0,30.02,1017.5,,,,,,,,,,,,,,,Clear,72000.0,,,73000,,,,,,
KRDR,08-10-2008,05:00,METAR,,,0,,,9999.0,,15.0,12.0,30.02,1017.5,,,,,,,,,,,,,,,Clear,72000.0,,,73000,,,,,,
KRDR,08-10-2008,04:00,METAR,,100,7,,,9999.0,,20.0,13.0,30.00,1016.9,,,,,,,,,,,,,,,Clear,72000.0,,,73000,,,,,,
KRDR,08-10-2008,03:00,METAR,,90,8,,,9999.0,,20.0,14.0,30.00,1017.0,,,,,,,,,,,,,,,Clear,72000.0,,,73000,,,,,,
KRDR,08-10-2008,02:00,METAR,,90,4,,,9999.0,,22.0,15.0,29.98,1016.2,,,,,,,,,,,,,,,Clear,72000.0,,,73000,,,,,,
KRDR,08-10-2008,01:00,METAR,,90,5,,,9999.0,,24.0,15.0,29.98,1016.0,,,,,,,,,,,,,,,Clear,72000.0,,,73000,,,,,,
KRDR,08-10-2008,00:00,METAR,,100,7,,,9999.0,,27.0,13.0,29.97,1015.8,,,,,,,,,,,,,,,4/8 Partly Cloudy,72000.0,,SCT,6900,,,,,,
KRDR,08-09-2008,23:00,METAR,,80,5,,,9999.0,,27.0,13.0,29.97,1015.9,,,,,,,,,,,,,,,Clear,72000.0,,,73000,,,,,,
KRDR,08-09-2008,22:00,METAR,,,6,,,9999.0,,27.0,13.0,29.97,1016.0,,,,,,,,,,,,,,,7/8 Mostly Cloudy,25000.0,,SCT,6400,BKN,25000.0,,,,
KRDR,08-09-2008,21:00,METAR,,120,5,,,9999.0,,27.0,12.0,29.98,1016.3,,,,,,,,,,,,,,,Clear,72000.0,,,73000,,,,,,
KRDR,08-09-2008,20:00,METAR,,110,8,,,9999.0,,27.0,14.0,29.98,1016.3,,,,,,,,,,,,,,,7/8 Mostly Cloudy,25000.0,,SCT,6900,BKN,25000.0,,,,
KRDR,08-09-2008,19:00,METAR,,120,8,,,9999.0,,27.0,16.0,29.98,1016.1,,,,,,,,,,,,,,,4/8 Partly Cloudy,72000.0,,FEW,5400,SCT,25000.0,,,,
KRDR,08-09-2008,18:00,METAR,,70,8,,,9999.0,,26.0,15.0,29.99,1016.4,,,,,,,,,,,,,,,7/8 Mostly Cloudy,25000.0,,FEW,6900,BKN,25000.0,,,,
KRDR,08-09-2008,17:00,METAR,,80,8,,,9999.0,,25.0,15.0,29.98,1016.3,,,,,,,,,,,,,,,4/8 Partly Cloudy,72000.0,,SCT,25000,,,,,,
KRDR,08-09-2008,16:00,METAR,,,4,,,9999.0,,23.0,15.0,29.99,1016.6,,,,,,,,,,,,,,,4/8 Partly Cloudy,72000.0,,SCT,25000,,,,,,
KRDR,08-09-2008,15:00,METAR,,50,3,,,9999.0,,20.0,14.0,29.99,1016.6,,,,,,,,,,,,,,,2/8 Mostly Clear,72000.0,,FEW,20000,,,,,,
KRDR,08-09-2008,14:00,METAR,,350,3,,,9999.0,,17.0,14.0,29.99,1016.6,,,,,,,,,,,,,,,2/8 Mostly Clear,72000.0,,FEW,7900,FEW,25000.0,,,,
KRDR,08-09-2008,13:00,METAR,,,0,,,9999.0,,15.0,14.0,29.98,1016.2,,,,,,,,,,,,,,,2/8 Mostly Clear,72000.0,,FEW,8400,,,,,,
KRDR,08-09-2008,12:00,METAR,,360,4,,,9999.0,,13.0,12.0,29.97,1015.9,,,,,,,,,,,,,,,7/8 Mostly Cloudy,8500.0,,BKN,8400,,,,,,
KRDR,08-09-2008,11:00,METAR,,350,5,,,9999.0,,12.0,11.0,29.96,1015.6,,,,,,,,,,,,,,,2/8 Mostly Clear,72000.0,,FEW,8400,,,,,,
KRDR,08-09-2008,10:00,METAR,,330,3,,,9999.0,,13.0,12.0,29.95,1015.3,,,,,,,,,,,,,,,4/8 Partly Cloudy,72000.0,,SCT,7900,,,,,,
KRDR,08-09-2008,09:00,METAR,,,0,,,9999.0,,12.0,12.0,29.95,1015.2,,,,,,,,,,,,,,,7/8 Mostly Cloudy,8000.0,,BKN,7900,,,,,,
KRDR,08-09-2008,08:00,METAR,,,0,,,9999.0,,13.0,13.0,29.95,1015.3,,,,,,,,,,,,,,,Clear,72000.0,,,73000,,,,,,
KRDR,08-09-2008,07:00,METAR,,60,5,,,9999.0,,17.0,15.0,29.94,1015.0,,,,,,,,,,,,,,,2/8 Mostly Clear,72000.0,,FEW,9400,,,,,,
KRDR,08-09-2008,06:00,METAR,,60,3,,,9999.0,,15.0,14.0,29.94,1015.0,,,,,,,,,,,,,TRACE,,7/8 Mostly Cloudy,9500.0,,BKN,9400,,,,,,
KRDR,08-09-2008,05:00,METAR,,60,3,,,9999.0,,16.0,15.0,29.94,1014.7,,,,,,,,,,,,,,,2/8 Mostly Clear,72000.0,,FEW,7900,,,,,,
KRDR,08-09-2008,04:00,METAR,,,0,,,9999.0,,17.0,16.0,29.93,1014.8,,,,,,,,,,,,,,,4/8 Partly Cloudy,72000.0,,SCT,7400,SCT,9900.0,,,,
KRDR,08-09-2008,03:14,SPECI,,,0,,,9999.0,,17.0,15.0,29.95,1015.0,,,,,,,,,,,,,,,7/8 Mostly Cloudy,11000.0,,SCT,8400,BKN,11000.0,,,,
KRDR,08-09-2008,03:00,METAR,,,0,,,9999.0,,19.0,16.0,29.93,1014.9,,,,,,,,,,,,,,,7/8 Mostly Cloudy,11000.0,,SCT,7900,BKN,11000.0,,,,
KRDR,08-09-2008,02:00,METAR,,70,5,,,9999.0,,20.0,16.0,29.92,1014.4,,,,,,,,,,,,,,,7/8 Mostly Cloudy,11000.0,,FEW,5900,BKN,11000.0,,,,
KRDR,08-09-2008,01:00,METAR,,100,4,,,9999.0,,22.0,16.0,29.92,1014.1,,,,,,,,,,,,,,,7/8 Mostly Cloudy,10000.0,,SCT,5900,BKN,9900.0,BKN,20000.0,,
KRDR,08-09-2008,00:00,METAR,,130,6,,,9999.0,,23.0,15.0,29.92,1014.6,,,,,,,,,,,,,TRACE,,7/8 Mostly Cloudy,11000.0,,FEW,5900,BKN,11000.0,BKN,20000.0,,
KRDR,08-08-2008,23:00,METAR,,160,9,,,9999.0,,23.0,16.0,29.94,1015.3,,,,,,,,,,,,,,,7/8 Mostly Cloudy,10000.0,,FEW,5900,BKN,9900.0,BKN,20000.0,,
KRDR,08-08-2008,22:00,METAR,,130,9,,,9999.0,,23.0,16.0,29.95,1015.4,,,,,,,,,,,TRACE,,,,7/8 Mostly Cloudy,10000.0,,FEW,5900,BKN,9900.0,BKN,20000.0,,
KRDR,08-08-2008,21:10,SPECI,,140,8,,,9999.0,,22.0,15.0,29.97,1015.7,,,,,,,,,,,,,,,7/8 Mostly Cloudy,10000.0,,FEW,5900,BKN,9900.0,BKN,20000.0,,
KRDR,08-08-2008,21:00,METAR,,130,5,,,9999.0,Rain,22.0,15.0,29.96,1015.9,,,,61,,,,,,,,TRACE,,,8/8 Overcast,12000.0,,FEW,5900,SCT,9900.0,BKN,12000.0,OVC,20000.0
KRDR,08-08-2008,20:00,METAR,,130,7,,,9999.0,,21.0,14.0,29.97,1016.0,,,,,,,,,,,TRACE,,,,7/8 Mostly Cloudy,10000.0,,FEW,3000,SCT,5900.0,BKN,9900.0,BKN,20000.0
KRDR,08-08-2008,19:41,SPECI,,120,7,,,9999.0,,21.0,14.0,29.98,1016.1,,,,,,,,,,,,,,,8/8 Overcast,10000.0,,FEW,3000,SCT,6900.0,BKN,9900.0,OVC,20000.0
KRDR,08-08-2008,19:28,SPECI,,120,7,,,9999.0,Rain,21.0,14.0,29.97,1016.2,,,,61,,,,,,,,,,,8/8 Overcast,10000.0,,SCT,6900,BKN,9900.0,OVC,20000.0,,
KRDR,08-08-2008,19:00,METAR,,150,5,,,9999.0,,21.0,15.0,30.00,1016.8,,,,,,,,,,,,,,,8/8 Overcast,12000.0,,SCT,6900,BKN,12000.0,OVC,20000.0,,
KRDR,08-08-2008,18:00,METAR,,130,3,,,9999.0,,20.0,14.0,30.01,1017.3,,,,,,,,,,,TRACE,,TRACE,,7/8 Mostly Cloudy,10000.0,,SCT,6900,BKN,9900.0,BKN,18000.0,,
KRDR,08-08-2008,17:40,SPECI,,140,3,,,9999.0,Light Rain Showers,20.0,14.0,30.01,1017.2,,,,80,,,,,,,,,,,7/8 Mostly Cloudy,10000.0,,SCT,7900,BKN,9900.0,BKN,20000.0,,
KRDR,08-08-2008,17:00,METAR,,140,6,,,9999.0,,19.0,14.0,30.00,1017.0,,,,,,,,,,,,,,,7/8 Mostly Cloudy,12000.0,,FEW,7900,BKN,12000.0,BKN,20000.0,,
KRDR,08-08-2008,16:00,METAR,,160,4,,,9999.0,,17.0,14.0,30.02,1017.6,,,,,,,,,,,TRACE,,,,7/8 Mostly Cloudy,12000.0,,SCT,7900,BKN,12000.0,BKN,20000.0,,
KRDR,08-08-2008,15:51,SPECI,,140,5,,,9999.0,,18.0,14.0,30.02,1017.5,,,,,,,,,,,,,,,7/8 Mostly Cloudy,12000.0,,SCT,7900,BKN,12000.0,BKN,20000.0,,
KRDR,08-08-2008,15:27,SPECI,,180,5,,,9999.0,Light Rain Showers,18.0,14.0,30.04,1018.1,,,,80,,,,,,,,,,,7/8 Mostly Cloudy,8000.0,,FEW,4000,BKN,7900.0,BKN,12000.0,,
KRDR,08-08-2008,15:00,METAR,,170,3,,,9999.0,,18.0,14.0,30.04,1018.2,,,,,,,,,,,,,,,7/8 Mostly Cloudy,7500.0,,FEW,4500,BKN,7400.0,BKN,15000.0,,
KRDR,08-08-2008,14:00,METAR,,170,4,,,9999.0,,16.0,14.0,30.04,1018.2,,,,,,,,,,,,,,,7/8 Mostly Cloudy,8000.0,,FEW,3000,BKN,7900.0,BKN,15000.0,,
KRDR,08-08-2008,13:00,METAR,,130,4,,,9999.0,,16.0,12.0,30.04,1018.2,,,,,,,,,,,,,,,7/8 Mostly Cloudy,18000.0,,FEW,4000,SCT,9900.0,BKN,18000.0,,
KRDR,08-08-2008,12:00,METAR,,180,3,,,9999.0,,13.0,11.0,30.05,1018.4,,,,,,,,,,,,,,,7/8 Mostly Cloudy,25000.0,,FEW,6900,SCT,12000.0,BKN,25000.0,,
KRDR,08-08-2008,11:00,METAR,,180,3,,,9999.0,,12.0,11.0,30.05,1018.4,,,,,,,,,,,,,,,4/8 Partly Cloudy,72000.0,,SCT,6900,SCT,25000.0,,,,
KRDR,08-08-2008,10:00,METAR,,,0,,,9999.0,,12.0,10.0,30.06,1018.8,,,,,,,,,,,,,,,Clear,72000.0,,,73000,,,,,,
KRDR,08-08-2008,09:00,METAR,,200,3,,,9999.0,,14.0,11.0,30.06,1018.9,,,,,,,,,,,,,,,Clear,72000.0,,,73000,,,,,,
KRDR,08-08-2008,08:00,METAR,,220,5,,,9999.0,,14.0,11.0,30.07,1019.2,,,,,,,,,,,,,,,Clear,72000.0,,,73000,,,,,,
KRDR,08-08-2008,07:00,METAR,,220,4,,,9999.0,,13.0,11.0,30.07,1019.3,,,,,,,,,,,,,,,Clear,72000.0,,,73000,,,,,,
KRDR,08-08-2008,06:00,METAR,,210,3,,,9999.0,,15.0,12.0,30.08,1019.5,,,,,,,,,,,,,,,Clear,72000.0,,,73000,,,,,,
KRDR,08-08-2008,05:00,METAR,,230,4,,,9999.0,,15.0,12.0,30.08,1019.3,,,,,,,,,,,,,,,Clear,72000.0,,,73000,,,,,,
KRDR,08-08-2008,04:00,METAR,,220,3,,,9999.0,,15.0,13.0,30.08,1019.5,,,,,,,,,,,,,,,Clear,72000.0,,,73000,,,,,,
KRDR,08-08-2008,03:00,METAR,,230,3,,,9999.0,,17.0,14.0,30.09,1019.9,,,,,,,,,,,,,,,2/8 Mostly Clear,72000.0,,FEW,25000,,,,,,
KRDR,08-08-2008,02:00,METAR,,210,3,,,9999.0,,20.0,15.0,30.09,1019.9,,,,,,,,,,,,,,,4/8 Partly Cloudy,72000.0,,FEW,6900,SCT,25000.0,,,,
KRDR,08-08-2008,01:00,METAR,,190,3,,,9999.0,,24.0,14.0,30.10,1020.1,,,,,,,,,,,,,,,4/8 Partly Cloudy,72000.0,,FEW,6900,SCT,25000.0,,,,
KRDR,08-08-2008,00:00,METAR,,,0,,,9999.0,,26.0,9.0,30.11,1020.4,,,,,,,,,,,,,,,4/8 Partly Cloudy,72000.0,,FEW,6400,SCT,25000.0,,,,
KRDR,08-07-2008,23:00,METAR,,170,4,,,9999.0,,26.0,10.0,30.11,1020.7,,,,,,,,,,,,,,,4/8 Partly Cloudy,72000.0,,SCT,6400,,,,,,
KRDR,08-07-2008,22:00,METAR,,,0,,,9999.0,,26.0,11.0,30.12,1021.1,,,,,,,,,,,,,,,4/8 Partly Cloudy,72000.0,,SCT,6400,,,,,,
KRDR,08-07-2008,21:00,METAR,,,0,,,9999.0,,26.0,11.0,30.14,1021.7,,,,,,,,,,,,,,,4/8 Partly Cloudy,72000.0,,SCT,5900,,,,,,
KRDR,08-07-2008,20:00,METAR,,,4,,,9999.0,,25.0,12.0,30.15,1022.1,,,,,,,,,,,,,,,4/8 Partly Cloudy,72000.0,,SCT,5900,,,,,,
KRDR,08-07-2008,19:22,SPECI,,,3,,,9999.0,,25.0,12.0,30.17,1022.4,,,,,,,,,,,,,,,2/8 Mostly Clear,72000.0,,FEW,5900,,,,,,
KRDR,08-07-2008,19:00,METAR,,,0,,,9999.0,,25.0,12.0,30.18,1022.8,,,,,,,,,,,,,,,2/8 Mostly Clear,72000.0,,FEW,5400,,,,,,
KRDR,08-07-2008,18:00,METAR,,110,3,,,9999.0,,24.0,12.0,30.20,1023.3,,,,,,,,,,,,,,,Clear,72000.0,,,73000,,,,,,
KRDR,08-07-2008,17:00,METAR,,,0,,,9999.0,,23.0,11.0,30.20,1023.4,,,,,,,,,,,,,,,Clear,72000.0,,,73000,,,,,,
KRDR,08-07-2008,16:00,METAR,,,0,,,9999.0,,22.0,13.0,30.21,1023.7,,,,,,,,,,,,,,,Clear,72000.0,,,73000,,,,,,
KRDR,08-07-2008,15:00,METAR,,,0,,,9999.0,,20.0,14.0,30.21,1023.9,,,,,,,,,,,,,,,Clear,72000.0,,,73000,,,,,,
KRDR,08-07-2008,14:00,METAR,,,3,,,9999.0,,18.0,14.0,30.21,1023.7,,,,,,,,,,,,,,,Clear,72000.0,,,73000,,,,,,
KRDR,08-07-2008,13:00,METAR,,,0,,,9999.0,,15.0,13.0,30.20,1023.3,,,,,,,,,,,,,,,Clear,72000.0,,,73000,,,,,,
KRDR,08-07-2008,12:00,METAR,,290,4,,,9999.0,,11.0,10.0,30.19,1023.1,,,,,,,,,,,,,,,Clear,72000.0,,,73000,,,,,,
KRDR,08-07-2008,11:00,METAR,,300,5,,,9999.0,,10.0,9.0,30.18,1022.6,,,,,,,,,,,,,,,Clear,72000.0,,,73000,,,,,,
KRDR,08-07-2008,10:00,METAR,,,0,,,9999.0,,12.0,10.0,30.17,1022.3,,,,,,,,,,,,,,,Clear,72000.0,,,73000,,,,,,
KRDR,08-07-2008,09:00,METAR,,330,5,,,9999.0,,13.0,11.0,30.17,1022.3,,,,,,,,,,,,,,,Clear,72000.0,,,73000,,,,,,
KRDR,08-07-2008,08:00,METAR,,310,5,,,9999.0,,13.0,11.0,30.17,1022.3,,,,,,,,,,,,,,,Clear,72000.0,,,73000,,,,,,
KRDR,08-07-2008,07:00,METAR,,310,5,,,9999.0,,13.0,11.0,30.15,1022.1,,,,,,,,,,,,,,,Clear,72000.0,,,73000,,,,,,
KRDR,08-07-2008,06:00,METAR,,310,5,,,9999.0,,14.0,12.0,30.15,1022.0,,,,,,,,,,,,,,,Clear,72000.0,,,73000,,,,,,
KRDR,08-07-2008,05:00,METAR,,310,4,,,9999.0,,15.0,13.0,30.14,1021.8,,,,,,,,,,,,,,,2/8 Mostly Clear,72000.0,,FEW,8900,,,,,,
KRDR,08-07-2008,04:00,METAR,,310,3,,,9999.0,,16.0,14.0,30.13,1021.4,,,,,,,,,,,,,,,4/8 Partly Cloudy,72000.0,,SCT,8900,,,,,,
KRDR,08-07-2008,03:00,METAR,,340,3,,,9999.0,,17.0,13.0,30.11,1020.9,,,,,,,,,,,,,,,2/8 Mostly Clear,72000.0,,FEW,6400,,,,,,
KRDR,08-07-2008,02:00,METAR,,20,5,,,9999.0,,20.0,14.0,30.11,1020.3,,,,,,,,,,,,,,,2/8 Mostly Clear,72000.0,,FEW,6400,,,,,,
KRDR,08-07-2008,01:00,METAR,,10,7,,,9999.0,,23.0,14.0,30.09,1020.0,,,,,,,,,,,,,,,2/8 Mostly Clear,72000.0,,FEW,6400,,,,,,
KRDR,08-07-2008,00:00,METAR,,350,7,,,9999.0,,25.0,13.0,30.09,1019.9,,,,,,,,,,,,,,,4/8 Partly Cloudy,72000.0,,SCT,6400,,,,,,
KRDR,08-06-2008,23:00,METAR,,360,8,,,9999.0,,26.0,14.0,30.09,1019.7,,,,,,,,,,,,,,,4/8 Partly Cloudy,72000.0,,SCT,6400,,,,,,
KRDR,08-06-2008,22:00,METAR,,360,10,,,9999.0,,26.0,14.0,30.09,1019.7,,,,,,,,,,,,,,,4/8 Partly Cloudy,72000.0,,SCT,6400,,,,,,
KRDR,08-06-2008,21:00,METAR,,330,10,,,9999.0,,27.0,13.0,30.09,1019.9,,,,,,,,,,,,,,,4/8 Partly Cloudy,72000.0,,SCT,6900,,,,,,
KRDR,08-06-2008,20:00,METAR,,340,9,15.0,,9999.0,,26.0,14.0,30.09,1020.0,,,,,,,,,,,,,,,4/8 Partly Cloudy,72000.0,,SCT,5400,,,,,,
KRDR,08-06-2008,19:00,METAR,,340,10,,,9999.0,,26.0,14.0,30.10,1020.1,,,,,,,,,,,,,,,2/8 Mostly Clear,72000.0,,FEW,7400,,,,,,
KRDR,08-06-2008,18:00,METAR,,290,7,,,9999.0,,25.0,14.0,30.10,1020.2,,,,,,,,,,,,,,,2/8 Mostly Clear,72000.0,,FEW,6900,,,,,,
KRDR,08-06-2008,17:00,METAR,,340,7,,,9999.0,,24.0,14.0,30.11,1020.4,,,,,,,,,,,,,,,2/8 Mostly Clear,72000.0,,FEW,11000,,,,,,
KRDR,08-06-2008,16:00,METAR,,350,7,,,9999.0,,23.0,14.0,30.10,1020.3,,,,,,,,,,,,,,,2/8 Mostly Clear,72000.0,,FEW,11000,,,,,,
KRDR,08-06-2008,15:00,METAR,,310,7,,,9999.0,,21.0,14.0,30.11,1020.4,,,,,,,,,,,,,,,2/8 Mostly Clear,72000.0,,FEW,9900,FEW,25000.0,,,,
KRDR,08-06-2008,14:00,METAR,,320,4,,,9999.0,,19.0,14.0,30.10,1020.3,,,,,,,,,,,,,,,4/8 Partly Cloudy,72000.0,,FEW,9900,SCT,25000.0,,,,
KRDR,08-06-2008,13:00,METAR,,310,3,,,9999.0,,17.0,14.0,30.08,1019.6,,,,,,,,,,,,,,,4/8 Partly Cloudy,72000.0,,FEW,11000,SCT,25000.0,,,,
KRDR,08-06-2008,12:00,METAR,,250,6,,,9999.0,,13.0,12.0,30.07,1019.0,,,,,,,,,,,,,,,4/8 Partly Cloudy,72000.0,,SCT,11000,,,,,,
KRDR,08-06-2008,11:00,METAR,,260,4,,,9999.0,,14.0,12.0,30.06,1018.8,,,,,,,,,,,,,,,7/8 Mostly Cloudy,11000.0,,BKN,11000,,,,,,
KRDR,08-06-2008,10:00,METAR,,270,4,,,9999.0,,15.0,13.0,30.04,1018.3,,,,,,,,,,,,,,,4/8 Partly Cloudy,72000.0,,SCT,11000,,,,,,
KRDR,08-06-2008,09:00,METAR,,300,7,,,9999.0,,15.0,13.0,30.06,1018.7,,,,,,,,,,,,,,,4/8 Partly Cloudy,72000.0,,SCT,7900,,,,,,
KRDR,08-06-2008,08:00,METAR,,250,6,,,9999.0,,14.0,12.0,30.04,1018.2,,,,,,,,,,,,,,,Clear,72000.0,,,73000,,,,,,
KRDR,08-06-2008,07:00,METAR,,260,6,,,9999.0,,14.0,12.0,30.04,1018.2,,,,,,,,,,,,,,,Clear,72000.0,,,73000,,,,,,
KRDR,08-06-2008,06:00,METAR,,250,5,,,9999.0,,14.0,13.0,30.04,1018.2,,,,,,,,,,,,,,,Clear,72000.0,,,73000,,,,,,
KRDR,08-06-2008,05:00,METAR,,220,3,,,9999.0,,15.0,14.0,30.04,1018.1,,,,,,,,,,,,,,,Clear,72000.0,,,73000,,,,,,
KRDR,08-06-2008,04:00,METAR,,220,3,,,9999.0,,16.0,14.0,30.04,1018.2,,,,,,,,,,,,,,,2/8 Mostly Clear,72000.0,,FEW,20000,,,,,,
KRDR,08-06-2008,03:00,METAR,,220,4,,,9999.0,,17.0,15.0,30.05,1018.5,,,,,,,,,,,,,,,2/8 Mostly Clear,72000.0,,FEW,20000,,,,,,
KRDR,08-06-2008,02:00,METAR,,,0,,,9999.0,,20.0,16.0,30.04,1018.2,,,,,,,,,,,,,,,2/8 Mostly Clear,72000.0,,FEW,5900,FEW,20000.0,,,,
KRDR,08-06-2008,01:00,METAR,,310,3,,,9999.0,,23.0,14.0,30.04,1018.1,,,,,,,,,,,,,,,2/8 Mostly Clear,72000.0,,FEW,5900,,,,,,
KRDR,08-06-2008,00:00,METAR,,330,7,,,9999.0,,25.0,13.0,30.04,1018.3,,,,,,,,,,,,,,,2/8 Mostly Clear,72000.0,,FEW,5900,,,,,,
KRDR,08-05-2008,23:00,METAR,,320,8,,,9999.0,,25.0,13.0,30.05,1018.7,,,,,,,,,,,,,,,2/8 Mostly Clear,72000.0,,FEW,5900,,,,,,
KRDR,08-05-2008,22:00,METAR,,300,9,,,9999.0,,26.0,13.0,30.06,1018.7,,,,,,,,,,,,,,,4/8 Partly Cloudy,72000.0,,SCT,5900,,,,,,
KRDR,08-05-2008,21:00,METAR,,300,10,,,9999.0,,25.0,13.0,30.06,1018.8,,,,,,,,,,,,,,,4/8 Partly Cloudy,72000.0,,SCT,5900,,,,,,
KRDR,08-05-2008,20:00,METAR,,310,8,,,9999.0,,25.0,14.0,30.06,1018.9,,,,,,,,,,,,,,,4/8 Partly Cloudy,72000.0,,SCT,5900,,,,,,
KRDR,08-05-2008,19:00,METAR,,340,9,,,9999.0,,25.0,14.0,30.06,1018.9,,,,,,,,,,,,,,,4/8 Partly Cloudy,72000.0,,SCT,5900,,,,,,
KRDR,08-05-2008,18:00,METAR,,300,4,,,9999.0,,25.0,14.0,30.07,1019.3,,,,,,,,,,,,,,,2/8 Mostly Clear,72000.0,,FEW,5000,,,,,,
KRDR,08-05-2008,17:00,METAR,,360,6,,,9999.0,,23.0,15.0,30.07,1019.2,,,,,,,,,,,,,,,2/8 Mostly Clear,72000.0,,FEW,4000,,,,,,
KRDR,08-05-2008,16:00,METAR,,,3,,,9999.0,,22.0,15.0,30.07,1019.2,,,,,,,,,,,,,,,Clear,72000.0,,,73000,,,,,,
KRDR,08-05-2008,15:00,METAR,,350,6,,,9999.0,,21.0,15.0,30.06,1018.8,,,,,,,,,,,,,,,Clear,72000.0,,,73000,,,,,,
KRDR,08-05-2008,14:00,METAR,,320,5,,,9999.0,,19.0,15.0,30.05,1018.4,,,,,,,,,,,,,,,2/8 Mostly Clear,72000.0,,FEW,12000,,,,,,
KRDR,08-05-2008,13:00,METAR,,270,3,,,9999.0,,17.0,14.0,30.04,1018.3,,,,,,,,,,,,,,,4/8 Partly Cloudy,72000.0,,FEW,6900,SCT,12000.0,,,,
KRDR,08-05-2008,12:00,METAR,,,0,,,9999.0,,14.0,13.0,30.03,1017.7,,,,,,,,,,,.1 IN,,.52 IN,,7/8 Mostly Cloudy,25000.0,,FEW,6900,SCT,12000.0,BKN,25000.0,,
KRDR,08-05-2008,11:30,SPECI,,,3,,,9999.0,,15.0,13.0,30.02,,,,,,,,,,,,,,,,7/8 Mostly Cloudy,11000.0,,FEW,3300,BKN,11000.0,,,,
KRDR,08-05-2008,11:00,SPECI,,320,6,,,9999.0,Thunderstorm with Rain or Snow/Light Rain Showers,14.0,13.0,30.04,,,,,95,80,,,,,,,,,,7/8 Mostly Cloudy,6500.0,,BKN,6400,,,,,,
KRDR,08-05-2008,11:00,METAR,,320,5,,,9999.0,Thunderstorm,13.0,12.0,30.04,1018.1,,,,17,,,,,,,,,,,7/8 Mostly Cloudy,7000.0,,BKN,6900,,,,,,
KRDR,08-05-2008,10:00,METAR,,280,3,,,9999.0,,14.0,12.0,30.01,1017.1,,,,,,,,,,,,,,,Clear,72000.0,,,73000,,,,,,
KRDR,08-05-2008,09:00,METAR,,280,4,,,9999.0,,14.0,13.0,30.00,1016.8,,,,,,,,,,,,,,,Clear,72000.0,,,73000,,,,,,
KRDR,08-05-2008,08:00,METAR,,250,4,,,9999.0,,14.0,13.0,30.00,1016.7,,,,,,,,,,,,,,,Clear,72000.0,,,73000,,,,,,
KRDR,08-05-2008,07:00,METAR,,260,6,,,9999.0,,15.0,14.0,29.99,1016.5,,,,,,,,,,,,,,,Clear,72000.0,,,73000,,,,,,
KRDR,08-05-2008,06:00,METAR,,240,6,,,9999.0,,15.0,14.0,29.99,1016.4,,,,,,,,,,,,,,,Clear,72000.0,,,73000,,,,,,
KRDR,08-05-2008,05:00,METAR,,230,5,,,9999.0,,16.0,15.0,29.97,1016.0,,,,,,,,,,,,,,,Clear,72000.0,,,73000,,,,,,
KRDR,08-05-2008,04:00,METAR,,220,4,,,9999.0,,15.0,15.0,29.97,1016.0,,,,,,,,,,,,,,,Clear,72000.0,,,73000,,,,,,
KRDR,08-05-2008,03:00,METAR,,210,5,,,9999.0,,16.0,15.0,29.97,1015.9,,,,,,,,,,,,,,,2/8 Mostly Clear,72000.0,,FEW,5000,FEW,25000.0,,,,
KRDR,08-05-2008,02:00,METAR,,180,5,,,9999.0,,18.0,16.0,29.97,1015.7,,,,,,,,,,,,,,,2/8 Mostly Clear,72000.0,,FEW,5000,FEW,25000.0,,,,
KRDR,08-05-2008,01:00,METAR,,,0,,,9999.0,,20.0,16.0,29.96,1015.6,,,,,,,,,,,,,,,2/8 Mostly Clear,72000.0,,FEW,5000,FEW,25000.0,,,,
KRDR,08-05-2008,00:00,METAR,,350,3,,,9999.0,,20.0,16.0,29.96,1015.5,,,,,,,,,,,,,.42 IN,,2/8 Mostly Clear,72000.0,,FEW,20000,,,,,,
KRDR,08-04-2008,23:00,METAR,,60,4,,,9999.0,,20.0,16.0,29.96,1015.5,,,,,,,,,,,,,,,2/8 Mostly Clear,72000.0,,FEW,5000,FEW,20000.0,,,,
KRDR,08-04-2008,22:00,METAR,,90,8,,350/26KTS,9999.0,,18.0,16.0,29.94,1014.7,,,,,,,,,,,.42 IN,,,,7/8 Mostly Cloudy,20000.0,,FEW,2000,SCT,5000.0,BKN,20000.0,,
KRDR,08-04-2008,21:46,SPECI,,40,7,,,9999.0,Light Rain Showers,17.0,16.0,29.95,1015.2,,,,80,,,,,,,,,,,7/8 Mostly Cloudy,12000.0,,FEW,500,SCT,2300.0,BKN,12000.0,,
KRDR,08-04-2008,21:34,SPECI,,360,10,,,9999.0,Light Rain Showers/Thunderstorm,17.0,16.0,29.96,1015.4,,,,80,17,,,,,,,,,,7/8 Mostly Cloudy,9000.0,,FEW,500,SCT,3000.0,BKN,8900.0,BKN,12000.0
KRDR,08-04-2008,21:06,SPECI,,340,19,26.0,350/26KTS,4000.0,Thunderstorm with Rain or Snow/Rain Showers,19.0,15.0,29.96,1015.5,,,,95,81,,,,,,,,,,8/8 Overcast,3200.0,,FEW,600,BKN,3300.0,OVC,5400.0,,
KRDR,08-04-2008,21:00,METAR,,10,18,,,9999.0,Light Rain Showers/Thunderstorm,21.0,15.0,29.94,1014.7,,,,80,17,,,,,,TRACE,,,,7/8 Mostly Cloudy,5500.0,,FEW,3300,BKN,5400.0,BKN,12000.0,,
KRDR,08-04-2008,20:37,SPECI,,360,14,,,9999.0,,22.0,15.0,29.93,1014.5,,,,,,,,,,,,,,,8/8 Overcast,15000.0,,FEW,3500,SCT,5000.0,OVC,15000.0,,
KRDR,08-04-2008,20:00,METAR,,260,8,,,9999.0,,26.0,15.0,29.91,1014.0,,,,,,,,,,,,,,,7/8 Mostly Cloudy,25000.0,,SCT,4000,SCT,12000.0,BKN,25000.0,,
KRDR,08-04-2008,19:00,METAR,,230,11,,,9999.0,,26.0,14.0,29.91,1014.0,,,,,,,,,,,,,,,7/8 Mostly Cloudy,25000.0,,FEW,4000,SCT,12000.0,BKN,25000.0,,
KRDR,08-04-2008,18:00,METAR,,250,11,15.0,,9999.0,,26.0,16.0,29.94,1014.7,,,,,,,,,,,,,,,7/8 Mostly Cloudy,25000.0,,FEW,4000,SCT,12000.0,BKN,25000.0,,
KRDR,08-04-2008,17:00,METAR,,260,6,,,9999.0,,24.0,18.0,29.96,1015.4,,,,,,,,,,,,,,,7/8 Mostly Cloudy,25000.0,,FEW,4500,SCT,12000.0,BKN,25000.0,,
KRDR,08-04-2008,16:00,METAR,,240,7,,,9999.0,,21.0,18.0,29.95,1015.2,,,,,,,,,,,,,,,7/8 Mostly Cloudy,25000.0,,SCT,15000,BKN,25000.0,,,,
KRDR,08-04-2008,15:00,METAR,,190,8,,,9999.0,,19.0,17.0,29.93,1014.6,,,,,,,,,,,,,,,7/8 Mostly Cloudy,25000.0,,FEW,12000,SCT,15000.0,BKN,25000.0,,
KRDR,08-04-2008,14:00,METAR,,180,5,,,9999.0,,17.0,16.0,29.92,1014.2,,,,,,,,,,,,,,,8/8 Overcast,25000.0,,SCT,15000,OVC,25000.0,,,,
KRDR,08-04-2008,13:00,METAR,,,0,,,9999.0,,17.0,14.0,29.91,1014.0,,,,,,,,,,,,,,,8/8 Overcast,25000.0,,SCT,15000,OVC,25000.0,,,,
KRDR,08-04-2008,12:00,METAR,,,0,,,9999.0,,13.0,12.0,29.93,1014.4,,,,,,,,,,,,,,.03 IN,7/8 Mostly Cloudy,25000.0,,FEW,15000,BKN,25000.0,,,,
KRDR,08-04-2008,11:00,METAR,,,0,,,9999.0,,12.0,11.0,29.91,1013.9,,,,,,,,,,,,,,,4/8 Partly Cloudy,72000.0,,SCT,25000,,,,,,
KRDR,08-04-2008,10:00,METAR,,260,3,,,9999.0,,11.0,11.0,29.90,1013.4,,,,,,,,,,,,,,,Clear,72000.0,,,73000,,,,,,
KRDR,08-04-2008,09:00,METAR,,,0,,,9999.0,,12.0,12.0,29.88,1012.9,,,,,,,,,,,,,,,Clear,72000.0,,,73000,,,,,,
KRDR,08-04-2008,08:00,METAR,,230,4,,,9999.0,,13.0,13.0,29.88,1012.8,,,,,,,,,,,,,,,Clear,72000.0,,,73000,,,,,,
KRDR,08-04-2008,07:00,METAR,,250,4,,,9999.0,,13.0,13.0,29.89,1013.2,,,,,,,,,,,,,,,Clear,72000.0,,,73000,,,,,,
KRDR,08-04-2008,06:00,METAR,,280,3,,,9999.0,,14.0,14.0,29.89,1013.1,,,,,,,,,,,,,,,Clear,72000.0,,,73000,,,,,,
KRDR,08-04-2008,05:00,METAR,,290,5,,,9999.0,,16.0,15.0,29.88,1013.0,,,,,,,,,,,,,,,Clear,72000.0,,,73000,,,,,,
KRDR,08-04-2008,04:00,METAR,,300,5,,,9999.0,,17.0,16.0,29.88,1012.8,,,,,,,,,,,,,,,Clear,72000.0,,,73000,,,,,,
KRDR,08-04-2008,03:00,METAR,,310,5,,,9999.0,,18.0,17.0,29.87,1012.6,,,,,,,,,,,,,,,Clear,72000.0,,,73000,,,,,,
KRDR,08-04-2008,02:00,METAR,,330,5,,,9999.0,,21.0,18.0,29.85,1011.9,,,,,,,,,,,,,,,Clear,72000.0,,,73000,,,,,,
KRDR,08-04-2008,01:00,METAR,,360,10,,,9999.0,,23.0,19.0,29.83,1011.3,,,,,,,,,,,,,,,2/8 Mostly Clear,72000.0,,FEW,1900,,,,,,
KRDR,08-04-2008,00:02,SPECI,,350,8,,,9999.0,,24.0,19.0,29.82,1010.8,,,,,,,,,,,,,,,4/8 Partly Cloudy,72000.0,,SCT,2800,,,,,,
KRDR,08-04-2008,00:00,METAR,,350,8,,,9999.0,,24.0,19.0,29.81,1010.7,,,,,,,,,,,,,TRACE,,7/8 Mostly Cloudy,2400.0,,BKN,2400,,,,,,
KRDR,08-03-2008,23:49,SPECI,,360,10,,,9999.0,,24.0,19.0,29.81,1010.7,,,,,,,,,,,,,,,7/8 Mostly Cloudy,2400.0,,BKN,2400,,,,,,
KRDR,08-03-2008,23:00,METAR,,350,10,,,9999.0,,25.0,19.0,29.80,1010.2,,,,,,,,,,,,,,,2/8 Mostly Clear,72000.0,,FEW,2200,,,,,,
KRDR,08-03-2008,22:08,SPECI,,10,9,,,9999.0,,24.0,20.0,29.79,1010.0,,,,,,,,,,,,,,,4/8 Partly Cloudy,72000.0,,SCT,2700,,,,,,
KRDR,08-03-2008,22:00,METAR,,340,11,19.0,,9999.0,,25.0,20.0,29.79,1010.1,,,,,,,,,,,TRACE,,,,7/8 Mostly Cloudy,2000.0,,BKN,2600,,,,,,
KRDR,08-03-2008,21:41,SPECI,,350,14,,,9999.0,,26.0,20.0,29.78,1009.8,,,,,,,,,,,,,,,7/8 Mostly Cloudy,2200.0,,BKN,2700,,,,,,
KRDR,08-03-2008,21:24,SPECI,,,4,,,9999.0,,26.0,20.0,29.78,1009.6,,,,,,,,,,,,,,,4/8 Partly Cloudy,72000.0,,SCT,3500,,,,,,
KRDR,08-03-2008,21:03,SPECI,,340,5,,,9999.0,Light Drizzle,26.0,20.0,29.78,1009.7,51,,,,,,,,,,,,,,7/8 Mostly Cloudy,3200.0,,BKN,3300,,,,,,
KRDR,08-03-2008,21:00,METAR,,,0,,,9999.0,,27.0,20.0,29.78,1009.6,,,,,,,,,,,,TRACE,,,4/8 Partly Cloudy,72000.0,,SCT,4000,,,,,,
KRDR,08-03-2008,20:00,METAR,,,5,,,9999.0,,25.0,19.0,29.78,1009.5,,,,,,,,,,,,,,,2/8 Mostly Clear,72000.0,,FEW,5000,,,,,,
KRDR,08-03-2008,19:22,SPECI,,,5,,,9999.0,,26.0,19.0,29.77,1009.4,,,,,,,,,,,,,,,4/8 Partly Cloudy,72000.0,,SCT,2700,,,,,,
KRDR,08-03-2008,19:00,METAR,,,0,,,9999.0,,26.0,19.0,29.77,1009.4,,,,,,,,,,,TRACE,,,,8/8 Overcast,2400.0,,OVC,2400,,,,,,
KRDR,08-03-2008,18:40,SPECI,,,0,,,9999.0,,25.0,19.0,29.77,1009.4,,,,,,,,,,,,,,,8/8 Overcast,2400.0,,OVC,2400,,,,,,
KRDR,08-03-2008,18:32,SPECI,,340,3,,,9999.0,Light Drizzle,25.0,19.0,29.77,1009.3,51,,,,,,,,,,,,,,7/8 Mostly Cloudy,2400.0,,BKN,2400,,,,,,
KRDR,08-03-2008,18:22,SPECI,,,0,,,9999.0,,25.0,19.0,29.77,1009.2,,,,,,,,,,,,,,,7/8 Mostly Cloudy,2400.0,,BKN,2400,,,,,,
KRDR,08-03-2008,18:16,SPECI,,,4,,,9999.0,Unknown Precipitation,25.0,19.0,29.77,1009.2,40,,,,,,,,,,,,,,7/8 Mostly Cloudy,2300.0,,BKN,2300,,,,,,
KRDR,08-03-2008,18:13,SPECI,,,0,,,9999.0,Unknown Precipitation,25.0,19.0,29.77,1009.2,40,,,,,,,,,,,,,,4/8 Partly Cloudy,72000.0,,SCT,2300,,,,,,
KRDR,08-03-2008,18:00,METAR,,,0,,,9999.0,,24.0,18.0,29.77,1009.1,,,,,,,,,,,,,TRACE,,Clear,72000.0,,,73000,,,,,,
KRDR,08-03-2008,17:00,METAR,,110,10,,,9999.0,,23.0,19.0,29.76,1008.9,,,,,,,,,,,,,,,2/8 Mostly Clear,72000.0,,FEW,1300,,,,,,
KRDR,08-03-2008,16:00,SPECI,,100,5,,,9999.0,,21.0,18.0,29.80,1010.1,,,,,,,,,,,,,,,2/8 Mostly Clear,72000.0,,FEW,800,,,,,,
KRDR,08-03-2008,16:00,METAR,,,3,,,9999.0,,21.0,18.0,29.79,1010.0,,,,,,,,,,,,,,,4/8 Partly Cloudy,72000.0,,SCT,4000,,,,,,
KRDR,08-03-2008,15:19,SPECI,,80,5,,,9999.0,,20.0,18.0,29.79,1009.8,,,,,,,,,,,,,,,2/8 Mostly Clear,72000.0,,FEW,800,,,,,,
KRDR,08-03-2008,15:00,METAR,,30,4,,,9999.0,,18.0,18.0,29.76,1009.3,,,,,,,,,,,,.03 IN,,,7/8 Mostly Cloudy,20000.0,,FEW,5900,SCT,12000.0,BKN,20000.0,,
KRDR,08-03-2008,14:00,METAR,,60,5,,,9999.0,,17.0,17.0,29.81,1010.7,,,,,,,,,,,.03 IN,,,,8/8 Overcast,12000.0,,FEW,4100,SCT,5900.0,OVC,12000.0,,
KRDR,08-03-2008,13:15,SPECI,,220,2,,,9999.0,Thunderstorm with Rain or Snow/Light Rain Showers,17.0,16.0,29.83,,,,,95,80,,,,,,,,,,7/8 Mostly Cloudy,6000.0,,BKN,5900,BKN,9900.0,,,,
KRDR,08-03-2008,13:00,METAR,,,0,,,9999.0,Rain,17.0,16.0,29.83,1011.3,,,,61,,,,,,,,,,,8/8 Overcast,6000.0,,BKN,5900,OVC,12000.0,,,,
KRDR,08-03-2008,12:00,METAR,,180,5,,,9999.0,,17.0,15.0,29.82,1011.0,,,,,,,,,,,,,,,8/8 Overcast,12000.0,,SCT,5900,BKN,12000.0,OVC,18000.0,,
KRDR,08-03-2008,11:00,METAR,,140,4,,,9999.0,,17.0,15.0,29.79,1010.3,,,,,,,,,,,,,,,7/8 Mostly Cloudy,17000.0,,SCT,5400,BKN,17000.0,,,,
KRDR,08-03-2008,10:00,METAR,,120,8,,,9999.0,,17.0,15.0,29.76,1009.3,,,,,,,,,,,,,,,4/8 Partly Cloudy,72000.0,,SCT,5400,,,,,,
KRDR,08-03-2008,09:00,METAR,,110,4,,,9999.0,,17.0,16.0,29.81,1010.5,,,,,,,,,,,,,,,7/8 Mostly Cloudy,5500.0,,BKN,5400,,,,,,
KRDR,08-03-2008,08:00,METAR,,120,4,,,9999.0,,17.0,16.0,29.81,1010.6,,,,,,,,,,,,,,,Clear,72000.0,,,73000,,,,,,
KRDR,08-03-2008,07:00,METAR,,120,5,,,9999.0,,18.0,16.0,29.81,1010.7,,,,,,,,,,,,,,,Clear,72000.0,,,73000,,,,,,
KRDR,08-03-2008,06:00,METAR,,130,6,,,9999.0,,20.0,16.0,29.83,1011.1,,,,,,,,,,,,,,,2/8 Mostly Clear,72000.0,,FEW,5900,,,,,,
KRDR,08-03-2008,05:00,METAR,,170,5,,,9999.0,,22.0,16.0,29.83,1011.2,,,,,,,,,,,,,,,8/8 Overcast,6000.0,,OVC,5900,,,,,,
KRDR,08-03-2008,04:00,METAR,,220,7,,,9999.0,,22.0,15.0,29.82,1010.9,,,,,,,,,,,,,,,8/8 Overcast,5500.0,,OVC,5400,,,,,,
KRDR,08-03-2008,03:00,METAR,,180,8,,,9999.0,,21.0,16.0,29.81,1010.7,,,,,,,,,,,,,,,7/8 Mostly Cloudy,5500.0,,BKN,5400,,,,,,
KRDR,08-03-2008,02:00,METAR,,190,7,,,9999.0,,22.0,17.0,29.81,1010.7,,,,,,,,,,,,,,,8/8 Overcast,6500.0,,OVC,6400,,,,,,
KRDR,08-03-2008,01:00,METAR,,260,5,,,9999.0,,22.0,18.0,29.78,1009.6,,,,,,,,,,,,,,,7/8 Mostly Cloudy,7000.0,,BKN,6900,,,,,,
KRDR,08-03-2008,00:00,METAR,,170,13,19.0,,9999.0,,23.0,18.0,29.78,1009.6,,,,,,,,,,,,,TRACE,,7/8 Mostly Cloudy,8500.0,,BKN,8400,,,,,,
KRDR,08-02-2008,23:00,METAR,,150,14,21.0,,9999.0,,24.0,18.0,29.78,1009.7,,,,,,,,,,,TRACE,,,,Clear,72000.0,,,73000,,,,,,
KRDR,08-02-2008,22:15,SPECI,,120,12,18.0,,9999.0,,21.0,18.0,29.82,,,,,,,,,,,,,,,,7/8 Mostly Cloudy,15000.0,,SCT,7900,BKN,15000.0,,,,
KRDR,08-02-2008,22:00,METAR,,80,10,,,9999.0,Thunderstorm with Rain or Snow/Light Rain Showers,21.0,17.0,29.85,1011.8,,,,95,80,,,,,,TRACE,,,,7/8 Mostly Cloudy,8000.0,,SCT,5000,BKN,7900.0,BKN,15000.0,,
KRDR,08-02-2008,21:06,SPECI,,360,5,,,9999.0,Thunderstorm with Rain or Snow/Light Rain Showers,22.0,17.0,29.92,,,,,95,80,,,,,,,,,,7/8 Mostly Cloudy,8000.0,,SCT,5000,BKN,7900.0,BKN,15000.0,,
KRDR,08-02-2008,21:00,METAR,,360,11,,,9999.0,Thunderstorm,22.0,17.0,29.90,1013.5,,,,17,,,,,,,,,,,7/8 Mostly Cloudy,8000.0,,SCT,5000,BKN,7900.0,BKN,15000.0,,
KRDR,08-02-2008,20:00,METAR,,140,7,,,9999.0,,24.0,17.0,29.82,1011.0,,,,,,,,,,,,,,,Clear,72000.0,,,73000,,,,,,
KRDR,08-02-2008,19:00,METAR,,140,12,,,9999.0,,25.0,17.0,29.82,1011.0,,,,,,,,,,,,,,,Clear,72000.0,,,73000,,,,,,
KRDR,08-02-2008,18:00,METAR,,170,15,18.0,,9999.0,,23.0,17.0,29.83,1011.1,,,,,,,,,,,,,,,Clear,72000.0,,,73000,,,,,,
KRDR,08-02-2008,17:00,METAR,,160,13,18.0,,9999.0,,22.0,16.0,29.82,1010.9,,,,,,,,,,,,,,,8/8 Overcast,12000.0,,BKN,12000,OVC,25000.0,,,,
KRDR,08-02-2008,16:00,METAR,,160,12,21.0,,9999.0,,21.0,15.0,29.79,1010.2,,,,,,,,,,,,,,,8/8 Overcast,25000.0,,SCT,12000,OVC,25000.0,,,,
KRDR,08-02-2008,15:00,METAR,,170,13,19.0,,9999.0,,20.0,15.0,29.87,1012.6,,,,,,,,,,,,,,,7/8 Mostly Cloudy,12000.0,,FEW,7900,BKN,12000.0,BKN,25000.0,,
KRDR,08-02-2008,14:00,METAR,,130,7,,,9999.0,,17.0,14.0,29.90,1013.5,,,,,,,,,,,,,,,8/8 Overcast,12000.0,,BKN,12000,OVC,25000.0,,,,
KRDR,08-02-2008,13:00,METAR,,50,4,,,9999.0,,17.0,14.0,29.92,1014.2,,,,,,,,,,,,,,,7/8 Mostly Cloudy,25000.0,,SCT,12000,BKN,25000.0,,,,
KRDR,08-02-2008,12:00,METAR,,140,3,,,9999.0,,16.0,14.0,29.92,1014.4,,,,,,,,,,,,,,,7/8 Mostly Cloudy,25000.0,,SCT,12000,BKN,25000.0,,,,
KRDR,08-02-2008,11:00,METAR,,140,3,,,9999.0,,16.0,14.0,29.88,1012.9,,,,,,,,,,,,,,,7/8 Mostly Cloudy,25000.0,,FEW,5000,SCT,18000.0,BKN,25000.0,,
KRDR,08-02-2008,10:00,METAR,,120,3,,,9999.0,,17.0,14.0,29.88,1012.9,,,,,,,,,,,,,,,4/8 Partly Cloudy,72000.0,,SCT,20000,,,,,,
KRDR,08-02-2008,09:00,METAR,,170,6,,,9999.0,,17.0,14.0,29.86,1012.2,,,,,,,,,,,,,,,Clear,72000.0,,,73000,,,,,,
KRDR,08-02-2008,08:00,METAR,,150,7,,,9999.0,,17.0,14.0,29.85,1011.9,,,,,,,,,,,,,,,Clear,72000.0,,,73000,,,,,,
KRDR,08-02-2008,07:00,METAR,,150,10,,,9999.0,,18.0,13.0,29.86,1012.2,,,,,,,,,,,,,,,Clear,72000.0,,,73000,,,,,,
KRDR,08-02-2008,06:00,METAR,,150,10,,,9999.0,,19.0,14.0,29.87,1012.6,,,,,,,,,,,,,,,Clear,72000.0,,,73000,,,,,,
KRDR,08-02-2008,05:00,METAR,,150,10,,,9999.0,,19.0,15.0,29.89,1013.3,,,,,,,,,,,,,,,2/8 Mostly Clear,72000.0,,FEW,15000,,,,,,
KRDR,08-02-2008,04:00,METAR,,150,7,,,9999.0,,19.0,16.0,29.91,1013.7,,,,,,,,,,,,,,,2/8 Mostly Clear,72000.0,,FEW,15000,,,,,,
KRDR,08-02-2008,03:00,METAR,,130,7,,,9999.0,,20.0,16.0,29.89,1013.3,,,,,,,,,,,,,,,2/8 Mostly Clear,72000.0,,FEW,15000,,,,,,
KRDR,08-02-2008,02:00,METAR,,120,7,,,9999.0,,23.0,16.0,29.88,1012.7,,,,,,,,,,,,,,,2/8 Mostly Clear,72000.0,,FEW,20000,,,,,,
KRDR,08-02-2008,01:00,METAR,,140,9,,,9999.0,,25.0,16.0,29.88,1012.7,,,,,,,,,,,,,,,Clear,72000.0,,,73000,,,,,,
KRDR,08-02-2008,00:00,METAR,,150,11,,,9999.0,,26.0,15.0,29.88,1012.9,,,,,,,,,,,,,,,Clear,72000.0,,,73000,,,,,,
KRDR,08-01-2008,23:50,SPECI,,290,10,15.0,,4000.0,Rain/Mist,19.0,19.0,29.64,1004.8,62,10,,,,,,,,,,,,,7/8 Mostly Cloudy,2100.0,,BKN,2100,,,,,,
KRDR,08-01-2008,23:38,SPECI,,230,6,,,4800.0,Heavy Rain/Mist,20.0,19.0,29.66,1005.5,63,10,,,,,,,,,,,,,7/8 Mostly Cloudy,2200.0,,BKN,2200,,,,,,
KRDR,08-01-2008,23:00,METAR,,160,10,,,9999.0,,27.0,15.0,29.89,1013.2,,,,,,,,,,,,,,,Clear,72000.0,,,73000,,,,,,
KRDR,08-01-2008,22:00,METAR,,160,11,17.0,,9999.0,,27.0,15.0,29.90,1013.6,,,,,,,,,,,,,,,Clear,72000.0,,,73000,,,,,,
KRDR,08-01-2008,21:00,METAR,,170,10,,,9999.0,,27.0,14.0,29.92,1014.3,,,,,,,,,,,,,,,2/8 Mostly Clear,72000.0,,FEW,12000,,,,,,
KRDR,08-01-2008,20:00,METAR,,180,10,,,9999.0,,27.0,14.0,29.93,1014.6,,,,,,,,,,,,,,,Clear,72000.0,,,73000,,,,,,
KRDR,08-01-2008,19:00,METAR,,190,10,,,9999.0,,26.0,12.0,29.95,1015.2,,,,,,,,,,,,,,,Clear,72000.0,,,73000,,,,,,
KRDR,08-01-2008,18:00,METAR,,,6,,,9999.0,,26.0,11.0,29.94,1015.2,,,,,,,,,,,,,,,Clear,72000.0,,,73000,,,,,,
KRDR,08-01-2008,17:00,METAR,,,5,,,9999.0,,25.0,13.0,29.95,1015.5,,,,,,,,,,,,,,,Clear,72000.0,,,73000,,,,,,
KRDR,08-01-2008,16:00,METAR,,210,5,,,9999.0,,24.0,11.0,29.95,1015.5,,,,,,,,,,,,,,,Clear,72000.0,,,73000,,,,,,
KRDR,08-01-2008,15:00,METAR,,170,4,,,9999.0,,23.0,13.0,29.94,1015.3,,,,,,,,,,,,,,,2/8 Mostly Clear,72000.0,,FEW,25000,,,,,,
KRDR,08-01-2008,14:00,METAR,,,0,,,9999.0,,20.0,14.0,29.94,1015.0,,,,,,,,,,,,,,,2/8 Mostly Clear,72000.0,,FEW,25000,,,,,,
KRDR,08-01-2008,13:00,METAR,,,0,,,9999.0,,16.0,13.0,29.93,1014.9,,,,,,,,,,,,,,,2/8 Mostly Clear,72000.0,,FEW,20000,,,,,,
KRDR,08-01-2008,12:00,METAR,,240,5,,,9999.0,,12.0,10.0,29.93,1014.4,,,,,,,,,,,,,,,Clear,72000.0,,,73000,,,,,,
KRDR,08-01-2008,11:00,METAR,,,0,,,9999.0,,10.0,9.0,29.91,1013.9,,,,,,,,,,,,,,,Clear,72000.0,,,73000,,,,,,
KRDR,08-01-2008,10:00,METAR,,250,4,,,9999.0,,10.0,9.0,29.91,1013.8,,,,,,,,,,,,,,,Clear,72000.0,,,73000,,,,,,
KRDR,08-01-2008,09:00,METAR,,270,3,,,9999.0,,10.0,9.0,29.90,1013.4,,,,,,,,,,,,,,,Clear,72000.0,,,73000,,,,,,
KRDR,08-01-2008,08:00,METAR,,,0,,,9999.0,,11.0,10.0,29.89,1013.2,,,,,,,,,,,,,,,Clear,72000.0,,,73000,,,,,,
KRDR,08-01-2008,07:00,METAR,,290,3,,,9999.0,,12.0,10.0,29.90,1013.4,,,,,,,,,,,,,,,Clear,72000.0,,,73000,,,,,,
KRDR,08-01-2008,06:00,METAR,,290,4,,,9999.0,,13.0,10.0,29.89,1013.2,,,,,,,,,,,,,,,Clear,72000.0,,,73000,,,,,,
KRDR,08-01-2008,05:00,METAR,,280,3,,,9999.0,,14.0,11.0,29.87,1012.7,,,,,,,,,,,,,,,Clear,72000.0,,,73000,,,,,,
KRDR,08-01-2008,04:00,METAR,,320,5,,,9999.0,,15.0,11.0,29.87,1012.6,,,,,,,,,,,,,,,Clear,72000.0,,,73000,,,,,,
KRDR,08-01-2008,03:00,METAR,,320,6,,,9999.0,,18.0,12.0,29.85,1012.0,,,,,,,,,,,,,,,2/8 Mostly Clear,72000.0,,FEW,20000,,,,,,
KRDR,08-01-2008,02:00,METAR,,330,8,,,9999.0,,21.0,13.0,29.83,1011.2,,,,,,,,,,,,,,,2/8 Mostly Clear,72000.0,,FEW,20000,,,,,,
KRDR,08-01-2008,01:00,METAR,,340,7,,,9999.0,,25.0,16.0,29.81,1010.7,,,,,,,,,,,,,,,2/8 Mostly Clear,72000.0,,FEW,5000,,,,,,
KRDR,08-01-2008,00:00,METAR,,320,10,,,9999.0,,26.0,16.0,29.81,1010.5,,,,,,,,,,,,,,,4/8 Partly Cloudy,72000.0,,SCT,5000,SCT,20000.0,,,,
KRDR,07-31-2008,23:00,METAR,,340,10,,,9999.0,,27.0,17.0,29.80,1010.1,,,,,,,,,,,,,,,4/8 Partly Cloudy,72000.0,,SCT,4000,,,,,,
KRDR,07-31-2008,22:00,METAR,,360,9,,,9999.0,,27.0,18.0,29.79,1010.0,,,,,,,,,,,,,,,4/8 Partly Cloudy,72000.0,,SCT,4500,,,,,,
KRDR,07-31-2008,21:00,METAR,,320,4,,,9999.0,,27.0,18.0,29.79,1010.0,,,,,,,,,,,,,,,4/8 Partly Cloudy,72000.0,,SCT,4500,,,,,,
KRDR,07-31-2008,20:00,METAR,,340,3,,,9999.0,,26.0,18.0,29.79,1010.0,,,,,,,,,,,,,,,7/8 Mostly Cloudy,9000.0,,FEW,3000,SCT,4500.0,BKN,8900.0,,
KRDR,07-31-2008,19:00,METAR,,,0,,,9999.0,,27.0,18.0,29.79,1009.9,,,,,,,,,,,,,,,4/8 Partly Cloudy,72000.0,,SCT,4000,,,,,,
KRDR,07-31-2008,18:00,METAR,,,3,,,9999.0,,26.0,18.0,29.79,1010.0,,,,,,,,,,,,,,,2/8 Mostly Clear,72000.0,,FEW,3200,,,,,,
KRDR,07-31-2008,17:00,METAR,,20,7,,,9999.0,,24.0,17.0,29.79,1009.8,,,,,,,,,,,,,,,2/8 Mostly Clear,72000.0,,FEW,2000,,,,,,
KRDR,07-31-2008,16:00,METAR,,10,10,,,9999.0,,23.0,18.0,29.78,1009.6,,,,,,,,,,,,,,,2/8 Mostly Clear,72000.0,,FEW,1500,,,,,,
KRDR,07-31-2008,15:00,METAR,,340,10,,,9999.0,,23.0,18.0,29.77,1009.3,,,,,,,,,,,,,,,2/8 Mostly Clear,72000.0,,FEW,1500,,,,,,
KRDR,07-31-2008,14:00,METAR,,,0,,,9999.0,,22.0,18.0,29.75,1008.5,,,,,,,,,,,,,,,2/8 Mostly Clear,72000.0,,FEW,5000,FEW,12000.0,,,,
KRDR,07-31-2008,13:00,METAR,,290,3,,,9999.0,,19.0,17.0,29.73,1008.0,,,,,,,,,,,,,,,4/8 Partly Cloudy,72000.0,,FEW,5000,FEW,12000.0,SCT,25000.0,,
KRDR,07-31-2008,12:00,METAR,,210,5,,,9999.0,,17.0,16.0,29.71,1007.2,,,,,,,,,,,,,.11 IN,.11 IN,7/8 Mostly Cloudy,25000.0,,FEW,5000,SCT,12000.0,BKN,25000.0,,
KRDR,07-31-2008,11:00,METAR,,180,7,,,9999.0,,18.0,16.0,29.70,1007.0,,,,,,,,,,,,,,,7/8 Mostly Cloudy,25000.0,,SCT,12000,BKN,25000.0,,,,
KRDR,07-31-2008,10:00,METAR,,130,4,,,9999.0,,18.0,17.0,29.73,1007.8,,,,,,,,,,,,,,,8/8 Overcast,25000.0,,FEW,11000,OVC,25000.0,,,,
KRDR,07-31-2008,09:00,METAR,,150,6,,,9999.0,,18.0,18.0,29.76,1008.9,,,,,,,,,,,.11 IN,.11 IN,,,8/8 Overcast,25000.0,,SCT,11000,OVC,25000.0,,,,
KRDR,07-31-2008,08:44,SPECI,,,0,,,9999.0,,18.0,17.0,29.78,,,,,,,,,,,,,,,,8/8 Overcast,25000.0,,SCT,11000,OVC,25000.0,,,,
KRDR,07-31-2008,08:00,METAR,,310,8,,,9999.0,Rain,18.0,17.0,29.82,1010.9,,,,61,,,,,,,TRACE,,,,8/8 Overcast,11000.0,,FEW,4500,BKN,11000.0,OVC,25000.0,,
KRDR,07-31-2008,07:15,SPECI,,,0,,,9999.0,Rain,18.0,17.0,29.80,,,,,61,,,,,,,,,,,8/8 Overcast,12000.0,,SCT,4500,BKN,12000.0,OVC,25000.0,,
KRDR,07-31-2008,07:00,METAR,,360,3,,,9999.0,,18.0,17.0,29.80,1010.4,,,,,,,,,,,,,,,8/8 Overcast,25000.0,,FEW,4400,OVC,25000.0,,,,
KRDR,07-31-2008,06:00,METAR,,300,4,,,9999.0,,18.0,17.0,29.82,1010.8,,,,,,,,,,,,,,,8/8 Overcast,20000.0,,SCT,4000,OVC,20000.0,,,,
KRDR,07-31-2008,05:00,METAR,,90,4,,,9999.0,,20.0,17.0,29.76,1009.0,,,,,,,,,,,,,,,7/8 Mostly Cloudy,22000.0,,FEW,4000,BKN,22000.0,,,,
KRDR,07-31-2008,04:00,METAR,,,0,,,9999.0,,20.0,17.0,29.77,1009.1,,,,,,,,,,,,,,,7/8 Mostly Cloudy,25000.0,,FEW,5000,BKN,25000.0,,,,
KRDR,07-31-2008,03:00,METAR,,100,5,,,9999.0,,22.0,17.0,29.76,1008.8,,,,,,,,,,,,,,,4/8 Partly Cloudy,72000.0,,FEW,5000,SCT,25000.0,,,,
KRDR,07-31-2008,02:00,METAR,,80,3,,,9999.0,,23.0,17.0,29.75,1008.8,,,,,,,,,,,,,,,4/8 Partly Cloudy,72000.0,,FEW,5000,SCT,25000.0,,,,
KRDR,07-31-2008,01:00,METAR,,80,5,,,9999.0,,24.0,16.0,29.75,1008.5,,,,,,,,,,,,,,,2/8 Mostly Clear,72000.0,,FEW,4000,FEW,25000.0,,,,
KRDR,07-31-2008,00:00,METAR,,30,4,,,9999.0,,25.0,16.0,29.74,1008.4,,,,,,,,,,,,,,,2/8 Mostly Clear,72000.0,,FEW,4000,,,,,,
KRDR,07-30-2008,23:00,METAR,,70,7,,,9999.0,,26.0,16.0,29.76,1008.9,,,,,,,,,,,,,,,4/8 Partly Cloudy,72000.0,,SCT,4500,,,,,,
KRDR,07-30-2008,22:00,METAR,,,4,,,9999.0,,26.0,16.0,29.77,1009.2,,,,,,,,,,,,,,,2/8 Mostly Clear,72000.0,,FEW,4500,,,,,,
KRDR,07-30-2008,21:00,METAR,,330,6,,,9999.0,,25.0,15.0,29.77,1009.4,,,,,,,,,,,,,,,4/8 Partly Cloudy,72000.0,,SCT,4000,,,,,,
KRDR,07-30-2008,20:00,METAR,,360,4,,,9999.0,,25.0,16.0,29.78,1009.6,,,,,,,,,,,,,,,4/8 Partly Cloudy,72000.0,,SCT,4000,,,,,,
KRDR,07-30-2008,19:00,METAR,,320,4,,,9999.0,,25.0,16.0,29.79,1010.0,,,,,,,,,,,,,,,4/8 Partly Cloudy,72000.0,,SCT,4000,,,,,,
KRDR,07-30-2008,18:00,METAR,,330,5,,,9999.0,,24.0,16.0,29.80,1010.3,,,,,,,,,,,,,,,7/8 Mostly Cloudy,3200.0,,BKN,3300,,,,,,
KRDR,07-30-2008,17:00,METAR,,360,7,,,9999.0,,24.0,16.0,29.81,1010.7,,,,,,,,,,,,,,,7/8 Mostly Cloudy,3200.0,,BKN,3300,,,,,,
KRDR,07-30-2008,16:00,METAR,,330,6,,,9999.0,,22.0,16.0,29.81,1010.6,,,,,,,,,,,,,,,4/8 Partly Cloudy,72000.0,,SCT,2500,SCT,25000.0,,,,
KRDR,07-30-2008,15:00,METAR,,10,5,,,9999.0,,21.0,16.0,29.82,1011.1,,,,,,,,,,,,,,,2/8 Mostly Clear,72000.0,,FEW,25000,,,,,,
KRDR,07-30-2008,14:00,METAR,,350,4,,,9999.0,,19.0,16.0,29.82,1010.8,,,,,,,,,,,,,,,Clear,72000.0,,,73000,,,,,,
KRDR,07-30-2008,13:00,METAR,,320,5,,,9999.0,,17.0,15.0,29.81,1010.5,,,,,,,,,,,,,,,Clear,72000.0,,,73000,,,,,,
KRDR,07-30-2008,12:00,METAR,,280,5,,,9999.0,,15.0,14.0,29.81,1010.5,,,,,,,,,,,,,,,Clear,72000.0,,,73000,,,,,,
KRDR,07-30-2008,11:00,METAR,,290,5,,,9999.0,,14.0,13.0,29.80,1010.1,,,,,,,,,,,,,,,Clear,72000.0,,,73000,,,,,,
KRDR,07-30-2008,10:00,METAR,,290,6,,,9999.0,,15.0,14.0,29.80,1010.1,,,,,,,,,,,,,,,Clear,72000.0,,,73000,,,,,,
KRDR,07-30-2008,09:00,METAR,,280,6,,,9999.0,,15.0,14.0,29.80,1010.1,,,,,,,,,,,,,,,Clear,72000.0,,,73000,,,,,,
KRDR,07-30-2008,08:00,METAR,,270,6,,,9999.0,,15.0,14.0,29.79,1010.1,,,,,,,,,,,,,,,Clear,72000.0,,,73000,,,,,,
KRDR,07-30-2008,07:00,METAR,,280,5,,,9999.0,,15.0,14.0,29.79,1010.0,,,,,,,,,,,,,,,Clear,72000.0,,,73000,,,,,,
KRDR,07-30-2008,06:00,METAR,,270,4,,,9999.0,,16.0,14.0,29.79,1009.9,,,,,,,,,,,,,,,Clear,72000.0,,,73000,,,,,,
KRDR,07-30-2008,05:00,METAR,,310,5,,,9999.0,,17.0,15.0,29.79,1009.8,,,,,,,,,,,,,,,Clear,72000.0,,,73000,,,,,,
KRDR,07-30-2008,04:00,METAR,,310,5,,,9999.0,,17.0,15.0,29.79,1009.8,,,,,,,,,,,,,,,Clear,72000.0,,,73000,,,,,,
KRDR,07-30-2008,03:00,METAR,,300,4,,,9999.0,,18.0,16.0,29.78,1009.7,,,,,,,,,,,,,,,Clear,72000.0,,,73000,,,,,,
KRDR,07-30-2008,02:00,METAR,,330,4,,,9999.0,,21.0,17.0,29.76,1009.1,,,,,,,,,,,,,,,Clear,72000.0,,,73000,,,,,,
KRDR,07-30-2008,01:00,METAR,,310,7,,,9999.0,,24.0,15.0,29.75,1008.8,,,,,,,,,,,,,,,Clear,72000.0,,,73000,,,,,,
KRDR,07-30-2008,00:00,METAR,,300,14,,,9999.0,,25.0,15.0,29.75,1008.6,,,,,,,,,,,,,,,2/8 Mostly Clear,72000.0,,FEW,25000,,,,,,
KRDR,07-29-2008,23:00,METAR,,310,15,20.0,,9999.0,,26.0,15.0,29.74,1008.3,,,,,,,,,,,,,,,2/8 Mostly Clear,72000.0,,FEW,5000,FEW,25000.0,,,,
KRDR,07-29-2008,22:00,METAR,,330,12,,,9999.0,,26.0,15.0,29.74,1008.4,,,,,,,,,,,,,,,4/8 Partly Cloudy,72000.0,,FEW,5000,SCT,25000.0,,,,
KRDR,07-29-2008,21:00,METAR,,320,15,21.0,,9999.0,,27.0,14.0,29.74,1008.4,,,,,,,,,,,,,,,2/8 Mostly Clear,72000.0,,FEW,6400,,,,,,
KRDR,07-29-2008,20:00,METAR,,290,13,22.0,,9999.0,,26.0,16.0,29.75,1008.5,,,,,,,,,,,,,,,2/8 Mostly Clear,72000.0,,FEW,5000,,,,,,
KRDR,07-29-2008,19:00,METAR,,290,16,22.0,300/24KTS,9999.0,,25.0,15.0,29.75,1008.6,,,,,,,,,,,,,,,2/8 Mostly Clear,72000.0,,FEW,25000,,,,,,
KRDR,07-29-2008,18:00,METAR,,300,17,25.0,290/27KTS,9999.0,,25.0,15.0,29.74,1008.3,,,,,,,,,,,,,,,2/8 Mostly Clear,72000.0,,FEW,25000,,,,,,
KRDR,07-29-2008,17:00,METAR,,300,15,23.0,300/26KTS,9999.0,,24.0,15.0,29.73,1008.0,,,,,,,,,,,,,,,Clear,72000.0,,,73000,,,,,,
KRDR,07-29-2008,16:00,METAR,,300,15,21.0,,9999.0,,23.0,15.0,29.74,1008.2,,,,,,,,,,,,,,,2/8 Mostly Clear,72000.0,,FEW,25000,,,,,,
KRDR,07-29-2008,15:00,METAR,,270,13,,,9999.0,,20.0,15.0,29.74,1008.2,,,,,,,,,,,,,,,2/8 Mostly Clear,72000.0,,FEW,25000,,,,,,
KRDR,07-29-2008,14:00,METAR,,270,11,,,9999.0,,19.0,14.0,29.74,1008.1,,,,,,,,,,,,,,,2/8 Mostly Clear,72000.0,,FEW,25000,,,,,,
KRDR,07-29-2008,13:00,METAR,,290,11,,,9999.0,,18.0,13.0,29.74,1008.1,,,,,,,,,,,,,,,Clear,72000.0,,,73000,,,,,,
KRDR,07-29-2008,12:00,METAR,,270,9,,,9999.0,,16.0,13.0,29.72,1007.5,,,,,,,,,,,,,.12 IN,1.28 IN,2/8 Mostly Clear,72000.0,,FEW,25000,,,,,,
KRDR,07-29-2008,11:00,METAR,,280,11,,,9999.0,,16.0,13.0,29.70,1007.1,,,,,,,,,,,,,,,2/8 Mostly Clear,72000.0,,FEW,25000,,,,,,
KRDR,07-29-2008,10:00,METAR,,280,13,,,9999.0,,18.0,17.0,29.68,1006.3,,,,,,,,,,,,,,,Clear,72000.0,,,73000,,,,,,
KRDR,07-29-2008,09:00,METAR,,220,8,,,9999.0,,16.0,16.0,29.67,1006.1,,,,,,,,,,,,,,,Clear,72000.0,,,73000,,,,,,
KRDR,07-29-2008,08:00,METAR,,210,8,,290/26KTS,9999.0,,17.0,17.0,29.68,1006.3,,,,,,,,,,,.12 IN,,,,2/8 Mostly Clear,72000.0,,FEW,9900,,,,,,
KRDR,07-29-2008,07:22,SPECI,,,3,,290/26KTS,9999.0,Thunderstorm,18.0,17.0,29.69,1006.7,,,,17,,,,,,,,,,,7/8 Mostly Cloudy,25000.0,,SCT,4400,SCT,12000.0,BKN,25000.0,,
KRDR,07-29-2008,07:03,SPECI,,280,19,26.0,290/26KTS,4000.0,Thunderstorm with Rain or Snow/Rain Showers,19.0,18.0,29.70,1007.1,,,,95,81,,,,,,,,,,8/8 Overcast,4600.0,,FEW,1300,BKN,4700.0,OVC,12000.0,,
KRDR,07-29-2008,07:00,METAR,,170,5,,,9999.0,Thunderstorm,19.0,18.0,29.64,1004.9,,,,17,,,,,,,,,,,8/8 Overcast,11000.0,,FEW,4000,BKN,11000.0,OVC,25000.0,,
KRDR,07-29-2008,06:00,METAR,,110,5,,190/26KTS,9999.0,Thunderstorm,20.0,18.0,29.66,1005.7,,,,17,,,,,,,.55 IN,,.95 IN,,8/8 Overcast,10000.0,,FEW,1400,SCT,4000.0,BKN,9900.0,OVC,15000.0
KRDR,07-29-2008,05:15,SPECI,,160,15,25.0,190/26KTS,6400.0,Thunderstorm with Rain or Snow/Light Rain Showers/Mist,20.0,19.0,29.64,1004.8,,,,95,80,10,,,,,,,,,8/8 Overcast,2000.0,,FEW,300,BKN,2000.0,OVC,8400.0,,
KRDR,07-29-2008,05:11,SPECI,,170,19,26.0,190/26KTS,2800.0,Thunderstorm with Rain or Snow/Rain Showers/Mist,20.0,19.0,29.66,1005.5,,,,95,81,10,,,,,,,,,8/8 Overcast,2500.0,,FEW,300,BKN,2500.0,OVC,8900.0,,
KRDR,07-29-2008,05:00,METAR,,310,15,20.0,,1600.0,Heavy Thunderstorm with Rain or Snow/Heavy Rain Showers/Mist,22.0,21.0,29.72,1007.7,,,,97,82,10,,,,,.4 IN,,,,8/8 Overcast,2300.0,,FEW,300,BKN,2300.0,OVC,7900.0,,
KRDR,07-29-2008,04:44,SPECI,,290,10,,,4000.0,Thunderstorm with Rain or Snow/Rain Showers/Mist,22.0,21.0,29.68,1006.4,,,,95,81,10,,,,,,,,,8/8 Overcast,3400.0,,FEW,2400,BKN,3500.0,OVC,12000.0,,
KRDR,07-29-2008,04:14,SPECI,,130,10,,,9999.0,Thunderstorm with Rain or Snow/Light Rain Showers,23.0,21.0,29.66,1005.6,,,,95,80,,,,,,,,,,8/8 Overcast,10000.0,,SCT,4000,BKN,9900.0,OVC,20000.0,,
KRDR,07-29-2008,04:06,SPECI,,130,9,,,9999.0,Thunderstorm,23.0,21.0,29.67,1006.0,,,,17,,,,,,,,,,,7/8 Mostly Cloudy,9000.0,,SCT,4000,BKN,8900.0,BKN,18000.0,,
KRDR,07-29-2008,04:00,METAR,,130,8,,,9999.0,Thunderstorm,23.0,21.0,29.68,1006.4,,,,17,,,,,,,,,,,7/8 Mostly Cloudy,12000.0,,SCT,3500,BKN,12000.0,BKN,20000.0,,
KRDR,07-29-2008,03:00,METAR,,110,6,,,9999.0,,23.0,21.0,29.69,1006.8,,,,,,,,,,,,,,,7/8 Mostly Cloudy,25000.0,,FEW,9900,BKN,25000.0,,,,
KRDR,07-29-2008,02:00,METAR,,100,4,,,9999.0,,24.0,21.0,29.71,1007.2,,,,,,,,,,,,,,,7/8 Mostly Cloudy,25000.0,,FEW,9900,BKN,25000.0,,,,
KRDR,07-29-2008,01:00,METAR,,150,7,,,9999.0,,26.0,21.0,29.72,1007.7,,,,,,,,,,,,,,,4/8 Partly Cloudy,72000.0,,FEW,9900,SCT,25000.0,,,,
KRDR,07-29-2008,00:00,METAR,,150,6,,,9999.0,,26.0,21.0,29.73,1007.8,,,,,,,,,,,,,.21 IN,,4/8 Partly Cloudy,72000.0,,SCT,25000,,,,,,
KRDR,07-28-2008,23:00,METAR,,180,10,,,9999.0,,26.0,21.0,29.73,1007.8,,,,,,,,,,,,,,,4/8 Partly Cloudy,72000.0,,FEW,2000,SCT,25000.0,,,,
KRDR,07-28-2008,22:00,METAR,,150,11,,,9999.0,,25.0,20.0,29.72,1007.7,,,,,,,,,,,,,,,7/8 Mostly Cloudy,25000.0,,FEW,7900,BKN,25000.0,,,,
KRDR,07-28-2008,21:00,METAR,,140,11,,,9999.0,,22.0,19.0,29.74,1008.3,,,,,,,,,,,,.21 IN,,,7/8 Mostly Cloudy,22000.0,,FEW,9900,BKN,22000.0,,,,
KRDR,07-28-2008,20:00,METAR,,90,10,,,9999.0,,21.0,19.0,29.75,1008.7,,,,,,,,,,,.1 IN,,,,8/8 Overcast,12000.0,,FEW,4000,BKN,12000.0,OVC,22000.0,,
KRDR,07-28-2008,19:40,SPECI,,80,9,,,9999.0,,20.0,18.0,29.77,1009.1,,,,,,,,,,,,,,,8/8 Overcast,12000.0,,FEW,4000,BKN,12000.0,OVC,20000.0,,
KRDR,07-28-2008,19:17,SPECI,,320,10,,,9999.0,Light Rain Showers,19.0,18.0,29.84,1011.6,,,,80,,,,,,,,,,,8/8 Overcast,3900.0,,FEW,2000,BKN,4000.0,OVC,9900.0,,
KRDR,07-28-2008,19:00,METAR,,300,12,26.0,280/28KTS,4800.0,Thunderstorm with Rain or Snow/Rain Showers,20.0,18.0,29.88,1013.0,,,,95,81,,,,,,.11 IN,,,,8/8 Overcast,3900.0,,FEW,2000,BKN,4000.0,OVC,6900.0,,
KRDR,07-28-2008,18:36,SPECI,,270,7,,,4000.0,Thunderstorm with Rain or Snow/Rain Showers/Mist,22.0,21.0,29.87,,,,,95,81,10,,,,,,,,,8/8 Overcast,4400.0,,SCT,2200,BKN,4500.0,OVC,5900.0,,
KRDR,07-28-2008,18:00,METAR,,260,5,,,9999.0,Rain,24.0,20.0,29.85,1011.9,,,,61,,,,,,,TRACE,,,,8/8 Overcast,4400.0,,BKN,4500,OVC,12000.0,,,,
KRDR,07-28-2008,17:00,METAR,,170,10,,,9999.0,,25.0,20.0,29.79,1010.1,,,,,,,,,,,,,,,8/8 Overcast,25000.0,,FEW,4000,SCT,15000.0,OVC,25000.0,,
KRDR,07-28-2008,16:00,METAR,,180,11,,,9999.0,,24.0,19.0,29.80,1010.3,,,,,,,,,,,,,,,8/8 Overcast,25000.0,,OVC,25000,,,,,,
KRDR,07-28-2008,15:00,METAR,,170,6,,,9999.0,,23.0,17.0,29.79,1010.0,,,,,,,,,,,,,,,7/8 Mostly Cloudy,25000.0,,FEW,12000,BKN,25000.0,,,,
KRDR,07-28-2008,14:00,METAR,,160,8,,,9999.0,,20.0,15.0,29.78,1009.7,,,,,,,,,,,,,,,7/8 Mostly Cloudy,25000.0,,BKN,25000,,,,,,
KRDR,07-28-2008,13:00,METAR,,,2,,,9999.0,,16.0,14.0,29.79,1010.0,,,,,,,,,,,,,,,4/8 Partly Cloudy,72000.0,,SCT,25000,,,,,,
KRDR,07-28-2008,12:00,METAR,,,2,,,9999.0,Mist,12.0,12.0,29.80,1010.3,,,,10,,,,,,,,,,,2/8 Mostly Clear,72000.0,,FEW,25000,,,,,,
KRDR,07-28-2008,11:28,SPECI,,320,3,,,800.0,Fog or Ice Fog,11.0,10.0,29.80,1010.3,,,,44,,,,,,,,,,,Clear,72000.0,,,73000,,,,,,
KRDR,07-28-2008,11:00,METAR,,,0,,,8000.0,Mist,11.0,10.0,29.79,1010.0,,,,10,,,,,,,,,,,2/8 Mostly Clear,72000.0,,FEW,12000,,,,,,
KRDR,07-28-2008,10:00,METAR,,,0,,,9999.0,,11.0,11.0,29.80,1010.4,,,,,,,,,,,,,,,Clear,72000.0,,,73000,,,,,,
KRDR,07-28-2008,09:00,METAR,,,0,,,9999.0,,12.0,11.0,29.81,1010.6,,,,,,,,,,,,,,,Clear,72000.0,,,73000,,,,,,
KRDR,07-28-2008,08:00,METAR,,,0,,,9999.0,,12.0,11.0,29.82,1010.9,,,,,,,,,,,,,,,Clear,72000.0,,,73000,,,,,,
KRDR,07-28-2008,07:00,METAR,,,0,,,9999.0,,13.0,11.0,29.82,1010.9,,,,,,,,,,,,,,,Clear,72000.0,,,73000,,,,,,
KRDR,07-28-2008,06:00,METAR,,,0,,,9999.0,,13.0,12.0,29.83,1011.3,,,,,,,,,,,,,,,Clear,72000.0,,,73000,,,,,,
KRDR,07-28-2008,05:00,METAR,,,0,,,9999.0,,15.0,13.0,29.84,1011.5,,,,,,,,,,,,,,,Clear,72000.0,,,73000,,,,,,
KRDR,07-28-2008,04:00,METAR,,90,6,,,9999.0,,20.0,15.0,29.82,1011.0,,,,,,,,,,,,,,,Clear,72000.0,,,73000,,,,,,
KRDR,07-28-2008,03:00,METAR,,80,5,,,9999.0,,21.0,14.0,29.82,1011.0,,,,,,,,,,,,,,,Clear,72000.0,,,73000,,,,,,
KRDR,07-28-2008,02:00,METAR,,80,6,,,9999.0,,24.0,14.0,29.81,1010.6,,,,,,,,,,,,,,,Clear,72000.0,,,73000,,,,,,
KRDR,07-28-2008,01:00,METAR,,70,10,,,9999.0,,26.0,13.0,29.82,1010.9,,,,,,,,,,,,,,,Clear,72000.0,,,73000,,,,,,
KRDR,07-28-2008,00:00,METAR,,70,8,,,9999.0,,28.0,13.0,29.83,1011.1,,,,,,,,,,,,,,,2/8 Mostly Clear,72000.0,,FEW,9900,FEW,25000.0,,,,
KRDR,07-27-2008,23:00,METAR,,70,8,,,9999.0,,29.0,11.0,29.82,1011.0,,,,,,,,,,,,,,,4/8 Partly Cloudy,72000.0,,FEW,5000,FEW,9900.0,SCT,25000.0,,
KRDR,07-27-2008,22:00,METAR,,120,7,,,9999.0,,29.0,10.0,29.83,1011.3,,,,,,,,,,,,,,,4/8 Partly Cloudy,72000.0,,FEW,5000,SCT,9900.0,SCT,25000.0,,
KRDR,07-27-2008,21:00,METAR,,,4,,,9999.0,,29.0,11.0,29.83,1011.3,,,,,,,,,,,,,,,4/8 Partly Cloudy,72000.0,,FEW,5000,SCT,9900.0,SCT,25000.0,,
KRDR,07-27-2008,20:00,METAR,,60,5,14.0,,9999.0,,29.0,11.0,29.83,1011.4,,,,,,,,,,,,,,,4/8 Partly Cloudy,72000.0,,FEW,5000,FEW,9900.0,SCT,25000.0,,
KRDR,07-27-2008,19:00,METAR,,,0,,,9999.0,,28.0,12.0,29.83,1011.3,,,,,,,,,,,,,,,4/8 Partly Cloudy,72000.0,,FEW,5000,SCT,25000.0,,,,
KRDR,07-27-2008,18:00,METAR,,,0,,,9999.0,,27.0,14.0,29.85,1011.8,,,,,,,,,,,,,,,7/8 Mostly Cloudy,25000.0,,BKN,25000,,,,,,
KRDR,07-27-2008,17:00,METAR,,90,4,,,9999.0,,26.0,14.0,29.87,1012.4,,,,,,,,,,,,,,,7/8 Mostly Cloudy,25000.0,,BKN,25000,,,,,,
KRDR,07-27-2008,16:00,METAR,,,4,,,9999.0,,23.0,15.0,29.86,1012.3,,,,,,,,,,,,,,,Clear,72000.0,,,73000,,,,,,
KRDR,07-27-2008,15:00,METAR,,,0,,,9999.0,,21.0,15.0,29.86,1012.3,,,,,,,,,,,,,,,Clear,72000.0,,,73000,,,,,,
KRDR,07-27-2008,14:00,METAR,,,0,,,9999.0,,19.0,15.0,29.87,1012.7,,,,,,,,,,,,,,,Clear,72000.0,,,73000,,,,,,
KRDR,07-27-2008,13:00,METAR,,,0,,,9999.0,,15.0,13.0,29.86,1012.1,,,,,,,,,,,,,,,Clear,72000.0,,,73000,,,,,,
KRDR,07-27-2008,12:00,METAR,,250,5,,,9999.0,,12.0,10.0,29.86,1012.2,,,,,,,,,,,,,,,Clear,72000.0,,,73000,,,,,,
KRDR,07-27-2008,11:00,METAR,,,0,,,9999.0,,10.0,9.0,29.84,1011.6,,,,,,,,,,,,,,,Clear,72000.0,,,73000,,,,,,
KRDR,07-27-2008,10:00,METAR,,,0,,,9999.0,,12.0,10.0,29.86,1012.3,,,,,,,,,,,,,,,Clear,72000.0,,,73000,,,,,,
KRDR,07-27-2008,09:00,METAR,,230,3,,,9999.0,,13.0,11.0,29.87,1012.7,,,,,,,,,,,,,,,Clear,72000.0,,,73000,,,,,,
KRDR,07-27-2008,08:00,METAR,,230,3,,,9999.0,,13.0,11.0,29.89,1013.1,,,,,,,,,,,,,,,Clear,72000.0,,,73000,,,,,,
KRDR,07-27-2008,07:00,METAR,,230,5,,,9999.0,,12.0,11.0,29.89,1013.3,,,,,,,,,,,,,,,Clear,72000.0,,,73000,,,,,,
KRDR,07-27-2008,06:00,METAR,,,0,,,9999.0,,14.0,11.0,29.88,1012.7,,,,,,,,,,,,,,,Clear,72000.0,,,73000,,,,,,
KRDR,07-27-2008,05:00,METAR,,,0,,,9999.0,,14.0,12.0,29.89,1013.2,,,,,,,,,,,,,,,Clear,72000.0,,,73000,,,,,,
KRDR,07-27-2008,04:00,METAR,,250,4,,,9999.0,,16.0,14.0,29.90,1013.5,,,,,,,,,,,,,,,Clear,72000.0,,,73000,,,,,,
KRDR,07-27-2008,03:00,METAR,,230,3,,,9999.0,,18.0,15.0,29.90,1013.5,,,,,,,,,,,,,,,Clear,72000.0,,,73000,,,,,,
KRDR,07-27-2008,02:00,METAR,,,0,,,9999.0,,23.0,16.0,29.89,1013.3,,,,,,,,,,,,,,,Clear,72000.0,,,73000,,,,,,
KRDR,07-27-2008,01:00,METAR,,,0,,,9999.0,,26.0,16.0,29.89,1013.3,,,,,,,,,,,,,,,Clear,72000.0,,,73000,,,,,,
KRDR,07-27-2008,00:00,METAR,,,0,,,9999.0,,26.0,14.0,29.91,1013.8,,,,,,,,,,,,,,,2/8 Mostly Clear,72000.0,,FEW,7400,,,,,,
KRDR,07-26-2008,23:00,METAR,,,0,,,9999.0,,28.0,11.0,29.92,1014.3,,,,,,,,,,,,,,,4/8 Partly Cloudy,72000.0,,SCT,7900,,,,,,
KRDR,07-26-2008,22:00,METAR,,260,6,,,9999.0,,29.0,12.0,29.94,1014.8,,,,,,,,,,,,,,,4/8 Partly Cloudy,72000.0,,SCT,6900,,,,,,
KRDR,07-26-2008,21:00,METAR,,300,4,,,9999.0,,29.0,11.0,29.95,1015.3,,,,,,,,,,,,,,,Clear,72000.0,,,73000,,,,,,
KRDR,07-26-2008,20:00,METAR,,320,6,,,9999.0,,29.0,11.0,29.97,1015.8,,,,,,,,,,,,,,,2/8 Mostly Clear,72000.0,,FEW,6900,,,,,,
KRDR,07-26-2008,19:00,METAR,,290,6,,,9999.0,,28.0,11.0,29.98,1016.2,,,,,,,,,,,,,,,2/8 Mostly Clear,72000.0,,FEW,7400,,,,,,
KRDR,07-26-2008,18:00,METAR,,280,10,,,9999.0,,27.0,12.0,30.00,1016.8,,,,,,,,,,,,,,,Clear,72000.0,,,73000,,,,,,
KRDR,07-26-2008,17:00,METAR,,290,8,,,9999.0,,27.0,14.0,30.01,1017.3,,,,,,,,,,,,,,,Clear,72000.0,,,73000,,,,,,
KRDR,07-26-2008,16:00,METAR,,280,7,,,9999.0,,26.0,14.0,30.02,1017.5,,,,,,,,,,,,,,,Clear,72000.0,,,73000,,,,,,
KRDR,07-26-2008,13:00,METAR,,280,5,,,9999.0,,18.0,12.0,30.03,1017.7,,,,,,,,,,,,,,,Clear,72000.0,,,73000,,,,,,
KRDR,07-26-2008,12:00,METAR,,270,7,,,9999.0,,14.0,10.0,30.03,1017.7,,,,,,,,,,,,,,,Clear,72000.0,,,73000,,,,,,
KRDR,07-26-2008,11:00,METAR,,290,7,,,9999.0,,13.0,10.0,30.02,1017.6,,,,,,,,,,,,,,,Clear,72000.0,,,73000,,,,,,
KRDR,07-26-2008,10:00,METAR,,280,7,,,9999.0,,15.0,11.0,30.02,1017.6,,,,,,,,,,,,,,,Clear,72000.0,,,73000,,,,,,
KRDR,07-26-2008,09:00,METAR,,270,7,,,9999.0,,15.0,11.0,30.03,1017.7,,,,,,,,,,,,,,,Clear,72000.0,,,73000,,,,,,
KRDR,07-26-2008,08:00,METAR,,270,6,,,9999.0,,13.0,10.0,30.03,1017.9,,,,,,,,,,,,,,,Clear,72000.0,,,73000,,,,,,
KRDR,07-26-2008,07:00,METAR,,270,5,,,9999.0,,13.0,10.0,30.03,1017.7,,,,,,,,,,,,,,,Clear,72000.0,,,73000,,,,,,
KRDR,07-26-2008,06:00,METAR,,270,6,,,9999.0,,14.0,11.0,30.03,1017.7,,,,,,,,,,,,,,,Clear,72000.0,,,73000,,,,,,
KRDR,07-26-2008,05:00,METAR,,290,7,,,9999.0,,15.0,11.0,30.02,1017.5,,,,,,,,,,,,,,,Clear,72000.0,,,73000,,,,,,
KRDR,07-26-2008,04:00,METAR,,290,8,,,9999.0,,16.0,11.0,30.02,1017.5,,,,,,,,,,,,,,,Clear,72000.0,,,73000,,,,,,
KRDR,07-26-2008,03:00,METAR,,290,6,,,9999.0,,17.0,12.0,30.01,1017.2,,,,,,,,,,,,,,,Clear,72000.0,,,73000,,,,,,
KRDR,07-26-2008,02:00,METAR,,300,6,,,9999.0,,19.0,14.0,30.00,1016.8,,,,,,,,,,,,,,,Clear,72000.0,,,73000,,,,,,
KRDR,07-26-2008,01:00,METAR,,330,6,,,9999.0,,23.0,13.0,30.00,1016.7,,,,,,,,,,,,,,,Clear,72000.0,,,73000,,,,,,
KRDR,07-26-2008,00:00,METAR,,340,9,,,9999.0,,25.0,12.0,30.00,1016.7,,,,,,,,,,,,,,,2/8 Mostly Clear,72000.0,,FEW,6900,,,,,,
KRDR,07-25-2008,23:00,METAR,,340,11,20.0,,9999.0,,26.0,11.0,29.99,1016.7,,,,,,,,,,,,,,,2/8 Mostly Clear,72000.0,,FEW,6900,,,,,,
KRDR,07-25-2008,22:00,METAR,,340,13,18.0,,9999.0,,27.0,12.0,30.00,1016.7,,,,,,,,,,,,,,,2/8 Mostly Clear,72000.0,,FEW,6900,,,,,,
KRDR,07-25-2008,21:00,METAR,,320,14,20.0,,9999.0,,26.0,11.0,30.00,1016.7,,,,,,,,,,,,,,,2/8 Mostly Clear,72000.0,,FEW,6900,,,,,,
KRDR,07-25-2008,20:00,METAR,,320,16,21.0,,9999.0,,26.0,11.0,30.00,1016.9,,,,,,,,,,,,,,,2/8 Mostly Clear,72000.0,,FEW,5900,,,,,,
KRDR,07-25-2008,19:00,METAR,,330,14,19.0,,9999.0,,26.0,12.0,30.00,1016.9,,,,,,,,,,,,,,,2/8 Mostly Clear,72000.0,,FEW,5400,,,,,,
KRDR,07-25-2008,18:00,METAR,,320,14,22.0,,9999.0,,26.0,13.0,30.00,1016.8,,,,,,,,,,,,,,,2/8 Mostly Clear,72000.0,,FEW,5000,,,,,,
KRDR,07-25-2008,17:00,METAR,,300,12,,,9999.0,,25.0,15.0,30.00,1016.7,,,,,,,,,,,,,,,Clear,72000.0,,,73000,,,,,,
KRDR,07-25-2008,16:00,METAR,,300,10,,,9999.0,,24.0,16.0,29.99,1016.6,,,,,,,,,,,,,,,Clear,72000.0,,,73000,,,,,,
KRDR,07-25-2008,15:00,METAR,,300,10,,,9999.0,,23.0,15.0,29.98,1016.5,,,,,,,,,,,,,,,Clear,72000.0,,,73000,,,,,,
KRDR,07-25-2008,14:00,METAR,,300,11,,,9999.0,,21.0,15.0,29.98,1016.4,,,,,,,,,,,,,,,2/8 Mostly Clear,72000.0,,FEW,20000,,,,,,
KRDR,07-25-2008,13:00,METAR,,300,8,,,9999.0,,19.0,15.0,29.98,1016.3,,,,,,,,,,,,,,,2/8 Mostly Clear,72000.0,,FEW,5900,FEW,20000.0,,,,
KRDR,07-25-2008,12:00,METAR,,290,8,,,9999.0,,17.0,15.0,29.95,1015.6,,,,,,,,,,,,,,,2/8 Mostly Clear,72000.0,,FEW,5900,FEW,20000.0,,,,
KRDR,07-25-2008,11:00,METAR,,310,7,,,9999.0,,18.0,15.0,29.93,1014.9,,,,,,,,,,,,,,,2/8 Mostly Clear,72000.0,,FEW,5900,FEW,20000.0,,,,
KRDR,07-25-2008,10:00,METAR,,300,7,,,9999.0,,18.0,16.0,29.91,1014.0,,,,,,,,,,,,,,,2/8 Mostly Clear,72000.0,,FEW,5900,,,,,,
KRDR,07-25-2008,09:00,METAR,,290,7,,,9999.0,,18.0,17.0,29.92,1014.1,,,,,,,,,,,,,,,2/8 Mostly Clear,72000.0,,FEW,5900,,,,,,
KRDR,07-25-2008,08:00,METAR,,280,6,,,9999.0,,18.0,17.0,29.92,1014.1,,,,,,,,,,,,,,,4/8 Partly Cloudy,72000.0,,SCT,5900,,,,,,
KRDR,07-25-2008,07:00,METAR,,240,3,,,9999.0,,18.0,18.0,29.91,1013.9,,,,,,,,,,,,,,,4/8 Partly Cloudy,72000.0,,SCT,5400,,,,,,
KRDR,07-25-2008,06:00,METAR,,290,4,,,9999.0,,19.0,18.0,29.90,1013.4,,,,,,,,,,,,,,,2/8 Mostly Clear,72000.0,,FEW,5400,,,,,,
KRDR,07-25-2008,05:00,METAR,,330,9,,,9999.0,,20.0,19.0,29.89,1013.4,,,,,,,,,,,,,,,4/8 Partly Cloudy,72000.0,,SCT,5400,,,,,,
KRDR,07-25-2008,04:00,METAR,,240,5,,,9999.0,,21.0,19.0,29.88,1013.0,,,,,,,,,,,,,,,Clear,72000.0,,,73000,,,,,,
KRDR,07-25-2008,03:00,METAR,,220,7,,,9999.0,,21.0,19.0,29.88,1012.8,,,,,,,,,,,,,,,2/8 Mostly Clear,72000.0,,FEW,5000,,,,,,
KRDR,07-25-2008,02:00,METAR,,250,5,,,9999.0,,24.0,20.0,29.87,1012.4,,,,,,,,,,,,,,,2/8 Mostly Clear,72000.0,,FEW,5000,,,,,,
KRDR,07-25-2008,01:00,METAR,,270,5,,,9999.0,,26.0,20.0,29.86,1012.4,,,,,,,,,,,,,,,2/8 Mostly Clear,72000.0,,FEW,5000,FEW,25000.0,,,,
KRDR,07-25-2008,00:00,METAR,,300,8,,,9999.0,,27.0,19.0,29.87,1012.6,,,,,,,,,,,,,,,2/8 Mostly Clear,72000.0,,FEW,5000,FEW,25000.0,,,,
KRDR,07-24-2008,23:00,METAR,,300,9,,,9999.0,,28.0,19.0,29.86,1012.2,,,,,,,,,,,,,,,4/8 Partly Cloudy,72000.0,,FEW,5000,FEW,12000.0,SCT,25000.0,,
KRDR,07-24-2008,22:00,METAR,,310,11,,,9999.0,,28.0,19.0,29.87,1012.4,,,,,,,,,,,,,,,4/8 Partly Cloudy,72000.0,,FEW,4500,SCT,25000.0,,,,
KRDR,07-24-2008,21:00,METAR,,310,10,,,9999.0,,28.0,18.0,29.86,1012.1,,,,,,,,,,,,,,,2/8 Mostly Clear,72000.0,,FEW,4000,,,,,,
KRDR,07-24-2008,20:00,METAR,,310,11,,,9999.0,,28.0,20.0,29.85,1012.0,,,,,,,,,,,,,,,2/8 Mostly Clear,72000.0,,FEW,3600,,,,,,
KRDR,07-24-2008,19:00,METAR,,310,11,,,9999.0,,28.0,20.0,29.85,1011.9,,,,,,,,,,,,,,,2/8 Mostly Clear,72000.0,,FEW,6900,FEW,25000.0,,,,
KRDR,07-24-2008,18:00,METAR,,300,12,,,9999.0,,28.0,20.0,29.84,1011.6,,,,,,,,,,,,,,,4/8 Partly Cloudy,72000.0,,FEW,2000,FEW,6900.0,SCT,25000.0,,
KRDR,07-24-2008,17:00,METAR,,270,12,,,9999.0,,28.0,20.0,29.84,1011.5,,,,,,,,,,,,,,,4/8 Partly Cloudy,72000.0,,SCT,5900,SCT,25000.0,,,,
KRDR,07-24-2008,16:00,METAR,,270,9,,,9999.0,,26.0,20.0,29.83,1011.2,,,,,,,,,,,,,,,4/8 Partly Cloudy,72000.0,,FEW,1500,FEW,5000.0,SCT,25000.0,,
KRDR,07-24-2008,15:00,METAR,,260,10,16.0,,9999.0,,25.0,20.0,29.83,1011.3,,,,,,,,,,,,,,,2/8 Mostly Clear,72000.0,,FEW,1200,FEW,5000.0,,,,
KRDR,07-24-2008,14:00,METAR,,230,10,,,9999.0,,23.0,20.0,29.83,1011.1,,,,,,,,,,,,,,,2/8 Mostly Clear,72000.0,,FEW,1100,,,,,,
KRDR,07-24-2008,13:00,METAR,,210,10,,,9999.0,,21.0,19.0,29.83,1011.2,,,,,,,,,,,,,,,Clear,72000.0,,,73000,,,,,,
KRDR,07-24-2008,12:00,METAR,,190,8,,,9999.0,,20.0,19.0,29.83,1011.2,,,,,,,,,,,,,,.29 IN,2/8 Mostly Clear,72000.0,,FEW,1700,,,,,,
KRDR,07-24-2008,11:00,METAR,,200,7,,,9999.0,,20.0,19.0,29.82,1011.1,,,,,,,,,,,,,,,7/8 Mostly Cloudy,1700.0,,BKN,1700,,,,,,
KRDR,07-24-2008,10:00,METAR,,180,9,,,9999.0,,20.0,18.0,29.81,1010.5,,,,,,,,,,,,,,,8/8 Overcast,1700.0,,OVC,1700,,,,,,
KRDR,07-24-2008,09:26,SPECI,,180,10,,,9999.0,,20.0,18.0,29.81,1010.5,,,,,,,,,,,,,,,7/8 Mostly Cloudy,2100.0,,FEW,1600,BKN,2400.0,,,,
KRDR,07-24-2008,09:00,METAR,,190,12,,,9999.0,,21.0,18.0,29.81,1010.6,,,,,,,,,,,,,,,7/8 Mostly Cloudy,3200.0,,BKN,3300,,,,,,
KRDR,07-24-2008,08:10,SPECI,,180,10,,,9999.0,,21.0,18.0,29.81,1010.6,,,,,,,,,,,,,,,4/8 Partly Cloudy,72000.0,,SCT,1900,,,,,,
KRDR,07-24-2008,08:00,METAR,,180,12,,,9999.0,,21.0,18.0,29.81,1010.7,,,,,,,,,,,,,,,8/8 Overcast,1800.0,,OVC,1800,,,,,,
KRDR,07-24-2008,07:00,METAR,,180,14,,,9999.0,,21.0,18.0,29.82,1011.0,,,,,,,,,,,,,,,7/8 Mostly Cloudy,2200.0,,BKN,2200,,,,,,
KRDR,07-24-2008,06:00,METAR,,180,11,,,9999.0,,21.0,18.0,29.83,1011.2,,,,,,,,,,,,,,,8/8 Overcast,3700.0,,SCT,2500,OVC,3800.0,,,,
KRDR,07-24-2008,05:00,METAR,,170,15,,,9999.0,,21.0,18.0,29.84,1011.7,,,,,,,,,,,,,,,4/8 Partly Cloudy,72000.0,,FEW,3300,SCT,15000.0,,,,
KRDR,07-24-2008,04:00,METAR,,160,12,,,9999.0,,21.0,18.0,29.86,1012.2,,,,,,,,,,,,,,,8/8 Overcast,3200.0,,OVC,3300,,,,,,
KRDR,07-24-2008,03:00,METAR,,150,12,,,9999.0,,21.0,18.0,29.86,1012.2,,,,,,,,,,,,,,,8/8 Overcast,3900.0,,BKN,4000,OVC,8400.0,,,,
KRDR,07-24-2008,02:00,METAR,,140,11,,,9999.0,,21.0,18.0,29.86,1012.4,,,,,,,,,,,,,,,8/8 Overcast,4200.0,,BKN,4300,OVC,25000.0,,,,
KRDR,07-24-2008,01:00,METAR,,140,12,19.0,,9999.0,,21.0,18.0,29.87,1012.7,,,,,,,,,,,,,,,8/8 Overcast,4400.0,,BKN,4500,OVC,25000.0,,,,
KRDR,07-24-2008,00:00,METAR,,140,13,18.0,,9999.0,,20.0,19.0,29.90,1013.4,,,,,,,,,,,.03 IN,,.29 IN,,7/8 Mostly Cloudy,12000.0,,FEW,1000,SCT,4500.0,BKN,12000.0,BKN,25000.0
KRDR,07-23-2008,23:21,SPECI,,140,12,19.0,,9999.0,,20.0,19.0,29.91,,,,,,,,,,,,,,,,8/8 Overcast,4200.0,,FEW,900,OVC,4300.0,,,,
KRDR,07-23-2008,23:00,METAR,,150,17,22.0,,9999.0,Rain,20.0,19.0,29.91,1014.0,,,,61,,,,,,,.26 IN,,,,8/8 Overcast,4400.0,,FEW,700,SCT,1700.0,OVC,4500.0,,
KRDR,07-23-2008,22:00,METAR,,140,12,,,9999.0,,21.0,19.0,29.94,1014.7,,,,,,,,,,,TRACE,,,,8/8 Overcast,3900.0,,FEW,2000,BKN,4000.0,OVC,8900.0,,
KRDR,07-23-2008,21:00,METAR,,160,20,25.0,,9999.0,,22.0,18.0,29.95,1015.3,,,,,,,,,,,TRACE,,,,8/8 Overcast,12000.0,,FEW,6400,SCT,8900.0,BKN,12000.0,OVC,25000.0
KRDR,07-23-2008,20:00,METAR,,140,13,,,9999.0,Rain,22.0,18.0,29.97,1015.7,,,,61,,,,,,,TRACE,,,,8/8 Overcast,25000.0,,SCT,8400,OVC,25000.0,,,,
KRDR,07-23-2008,19:00,METAR,,160,14,22.0,,9999.0,Rain,23.0,17.0,29.97,1016.2,,,,61,,,,,,,TRACE,,,,8/8 Overcast,25000.0,,FEW,5000,SCT,12000.0,OVC,25000.0,,
KRDR,07-23-2008,18:27,SPECI,,150,18,25.0,,9999.0,,23.0,17.0,29.96,1015.9,,,,,,,,,,,,,,,8/8 Overcast,25000.0,,FEW,5000,SCT,12000.0,OVC,25000.0,,
KRDR,07-23-2008,18:00,METAR,,150,18,22.0,,9999.0,,23.0,17.0,29.97,1016.1,,,,,,,,,,,,,,,8/8 Overcast,25000.0,,SCT,12000,OVC,25000.0,,,,
KRDR,07-23-2008,17:00,METAR,,150,14,20.0,,9999.0,,22.0,17.0,30.00,1016.8,,,,,,,,,,,,,,,8/8 Overcast,25000.0,,SCT,12000,OVC,25000.0,,,,
KRDR,07-23-2008,16:00,METAR,,150,15,20.0,,9999.0,,22.0,16.0,30.03,1017.9,,,,,,,,,,,,,,,8/8 Overcast,25000.0,,SCT,12000,OVC,25000.0,,,,
KRDR,07-23-2008,15:00,METAR,,160,12,18.0,,9999.0,,21.0,16.0,30.06,1018.7,,,,,,,,,,,,,,,8/8 Overcast,25000.0,,FEW,5900,SCT,12000.0,OVC,25000.0,,
KRDR,07-23-2008,14:00,METAR,,160,14,,,9999.0,,20.0,15.0,30.06,1018.7,,,,,,,,,,,,,,,8/8 Overcast,25000.0,,FEW,12000,OVC,25000.0,,,,
KRDR,07-23-2008,13:00,METAR,,150,12,,,9999.0,,18.0,14.0,30.06,1018.7,,,,,,,,,,,,,,,8/8 Overcast,25000.0,,FEW,5000,SCT,12000.0,OVC,25000.0,,
KRDR,07-23-2008,12:00,METAR,,150,9,,,9999.0,,17.0,14.0,30.07,1019.2,,,,,,,,,,,,,,,7/8 Mostly Cloudy,25000.0,,FEW,5000,SCT,15000.0,BKN,25000.0,,
KRDR,07-23-2008,11:00,METAR,,150,7,,,9999.0,,16.0,14.0,30.08,1019.4,,,,,,,,,,,,,,,Clear,72000.0,,,73000,,,,,,
KRDR,07-23-2008,10:00,METAR,,140,8,,,9999.0,,16.0,14.0,30.07,1019.1,,,,,,,,,,,,,,,Clear,72000.0,,,73000,,,,,,
KRDR,07-23-2008,09:00,METAR,,140,10,,,9999.0,,17.0,14.0,30.07,1019.2,,,,,,,,,,,,,,,Clear,72000.0,,,73000,,,,,,
KRDR,07-23-2008,08:00,METAR,,150,7,,,9999.0,,17.0,15.0,30.07,1019.2,,,,,,,,,,,,,,,2/8 Mostly Clear,72000.0,,FEW,25000,,,,,,
KRDR,07-23-2008,07:00,METAR,,140,8,,,9999.0,,18.0,15.0,30.06,1018.9,,,,,,,,,,,,,,,Clear,72000.0,,,73000,,,,,,
KRDR,07-23-2008,06:00,METAR,,150,9,,,9999.0,,19.0,16.0,30.07,1019.2,,,,,,,,,,,,,,,Clear,72000.0,,,73000,,,,,,
KRDR,07-23-2008,05:00,METAR,,140,9,,,9999.0,,20.0,16.0,30.07,1019.1,,,,,,,,,,,,,,,Clear,72000.0,,,73000,,,,,,
KRDR,07-23-2008,04:00,METAR,,140,8,,,9999.0,,20.0,17.0,30.07,1019.2,,,,,,,,,,,,,,,Clear,72000.0,,,73000,,,,,,
KRDR,07-23-2008,03:00,METAR,,130,6,,,9999.0,,21.0,17.0,30.05,1018.6,,,,,,,,,,,,,,,2/8 Mostly Clear,72000.0,,FEW,25000,,,,,,
KRDR,07-23-2008,02:00,METAR,,130,8,,,9999.0,,23.0,17.0,30.04,1018.2,,,,,,,,,,,,,,,2/8 Mostly Clear,72000.0,,FEW,25000,,,,,,
KRDR,07-23-2008,01:00,METAR,,130,10,,,9999.0,,26.0,17.0,30.05,1018.4,,,,,,,,,,,,,,,2/8 Mostly Clear,72000.0,,FEW,5000,FEW,25000.0,,,,
KRDR,07-23-2008,00:00,METAR,,130,12,18.0,,9999.0,,27.0,16.0,30.05,1018.6,,,,,,,,,,,,,,,4/8 Partly Cloudy,72000.0,,FEW,5000,SCT,25000.0,,,,
KRDR,07-22-2008,23:00,METAR,,160,13,,,9999.0,,27.0,16.0,30.05,1018.6,,,,,,,,,,,,,,,2/8 Mostly Clear,72000.0,,FEW,4500,,,,,,
KRDR,07-22-2008,22:00,METAR,,170,11,,,9999.0,,28.0,16.0,30.06,1018.9,,,,,,,,,,,,,,,4/8 Partly Cloudy,72000.0,,SCT,4500,,,,,,
KRDR,07-22-2008,21:00,METAR,,140,12,17.0,,9999.0,,28.0,17.0,30.06,1018.9,,,,,,,,,,,,,,,4/8 Partly Cloudy,72000.0,,SCT,4500,,,,,,
KRDR,07-22-2008,20:00,METAR,,160,8,,,9999.0,,27.0,17.0,30.08,1019.4,,,,,,,,,,,,,,,4/8 Partly Cloudy,72000.0,,SCT,4500,,,,,,
KRDR,07-22-2008,19:00,METAR,,140,10,15.0,,9999.0,,27.0,17.0,30.09,1019.7,,,,,,,,,,,,,,,4/8 Partly Cloudy,72000.0,,SCT,3900,,,,,,
KRDR,07-22-2008,18:00,METAR,,130,8,,,9999.0,,26.0,16.0,30.09,1019.7,,,,,,,,,,,,,,,4/8 Partly Cloudy,72000.0,,SCT,3000,,,,,,
KRDR,07-22-2008,17:40,SPECI,,160,10,,,9999.0,,25.0,16.0,30.09,1019.8,,,,,,,,,,,,,,,4/8 Partly Cloudy,72000.0,,SCT,3100,,,,,,
KRDR,07-22-2008,17:19,SPECI,,140,11,,,9999.0,,25.0,16.0,30.09,1019.8,,,,,,,,,,,,,,,Clear,72000.0,,,73000,,,,,,
KRDR,07-22-2008,17:00,METAR,,140,10,,,9999.0,,25.0,17.0,30.09,1020.0,,,,,,,,,,,,,,,2/8 Mostly Clear,72000.0,,FEW,3100,,,,,,
KRDR,07-22-2008,16:00,METAR,,120,8,,,9999.0,,24.0,17.0,30.09,1019.9,,,,,,,,,,,,,,,2/8 Mostly Clear,72000.0,,FEW,5000,,,,,,
KRDR,07-22-2008,15:00,METAR,,90,5,,,9999.0,,22.0,17.0,30.10,1020.1,,,,,,,,,,,,,,,Clear,72000.0,,,73000,,,,,,
KRDR,07-22-2008,14:00,METAR,,,0,,,9999.0,,20.0,16.0,30.10,1020.0,,,,,,,,,,,,,,,Clear,72000.0,,,73000,,,,,,
KRDR,07-22-2008,13:00,METAR,,,0,,,9999.0,,16.0,15.0,30.09,1019.7,,,,,,,,,,,,,,,Clear,72000.0,,,73000,,,,,,
KRDR,07-22-2008,12:00,METAR,,20,4,,,9999.0,,13.0,12.0,30.08,1019.5,,,,,,,,,,,,,,,Clear,72000.0,,,73000,,,,,,
KRDR,07-22-2008,11:00,METAR,,,0,,,9999.0,Patchy Fog or Ice Fog,12.0,11.0,30.06,1019.0,,,,41,,,,,,,,,,,Clear,72000.0,,,73000,,,,,,
KRDR,07-22-2008,10:00,METAR,,,0,,,2400.0,Mist,11.0,11.0,30.06,1018.9,10,,,,,,,,,,,,,,Clear,72000.0,,,73000,,,,,,
KRDR,07-22-2008,09:56,SPECI,,,0,,,3200.0,Mist,11.0,11.0,30.06,1018.9,10,,,,,,,,,,,,,,Clear,72000.0,,,73000,,,,,,
KRDR,07-22-2008,09:53,SPECI,,,0,,,2800.0,Mist,11.0,11.0,30.06,1018.9,10,,,,,,,,,,,,,,Clear,72000.0,,,73000,,,,,,
KRDR,07-22-2008,09:50,SPECI,,,0,,,2000.0,Mist,11.0,11.0,30.06,1018.8,10,,,,,,,,,,,,,,Clear,72000.0,,,73000,,,,,,
KRDR,07-22-2008,09:49,SPECI,,,0,,,2400.0,Mist,11.0,11.0,30.06,1018.8,10,,,,,,,,,,,,,,Clear,72000.0,,,73000,,,,,,
KRDR,07-22-2008,09:46,SPECI,,,0,,,4000.0,Mist,11.0,11.0,30.06,1018.9,10,,,,,,,,,,,,,,Clear,72000.0,,,73000,,,,,,
KRDR,07-22-2008,09:00,METAR,,50,4,,,9999.0,,14.0,13.0,30.06,1018.8,,,,,,,,,,,,,,,Clear,72000.0,,,73000,,,,,,
KRDR,07-22-2008,08:00,METAR,,300,4,,,9999.0,,12.0,11.0,30.06,1018.8,,,,,,,,,,,,,,,Clear,72000.0,,,73000,,,,,,
KRDR,07-22-2008,07:00,METAR,,270,3,,,9999.0,,13.0,12.0,30.06,1018.8,,,,,,,,,,,,,,,Clear,72000.0,,,73000,,,,,,
KRDR,07-22-2008,06:00,METAR,,,0,,,9999.0,,14.0,13.0,30.05,1018.4,,,,,,,,,,,,,,,Clear,72000.0,,,73000,,,,,,
KRDR,07-22-2008,05:00,METAR,,340,3,,,9999.0,,14.0,13.0,30.04,1018.2,,,,,,,,,,,,,,,Clear,72000.0,,,73000,,,,,,
KRDR,07-22-2008,04:00,METAR,,340,3,,,9999.0,,16.0,14.0,30.04,1018.2,,,,,,,,,,,,,,,2/8 Mostly Clear,72000.0,,FEW,5900,,,,,,
KRDR,07-22-2008,03:00,METAR,,20,3,,,9999.0,,19.0,15.0,30.03,1017.9,,,,,,,,,,,,,,,2/8 Mostly Clear,72000.0,,FEW,5900,,,,,,
KRDR,07-22-2008,02:00,METAR,,20,4,,,9999.0,,22.0,16.0,30.02,1017.4,,,,,,,,,,,,,,,2/8 Mostly Clear,72000.0,,FEW,5900,,,,,,
KRDR,07-22-2008,01:00,METAR,,350,5,,,9999.0,,24.0,14.0,30.01,1017.2,,,,,,,,,,,,,,,2/8 Mostly Clear,72000.0,,FEW,5900,,,,,,
KRDR,07-22-2008,00:00,METAR,,350,6,,,9999.0,,24.0,15.0,30.01,1017.2,,,,,,,,,,,,,,,4/8 Partly Cloudy,72000.0,,FEW,4600,SCT,5900.0,,,,
KRDR,07-21-2008,23:00,METAR,,50,8,,,9999.0,,26.0,15.0,30.01,1017.3,,,,,,,,,,,,,,,7/8 Mostly Cloudy,6000.0,,SCT,4600,BKN,5900.0,,,,
KRDR,07-21-2008,22:00,METAR,,,3,,,9999.0,,26.0,15.0,30.02,1017.6,,,,,,,,,,,,,,,7/8 Mostly Cloudy,4700.0,,BKN,4800,,,,,,
KRDR,07-21-2008,21:00,METAR,,320,6,,,9999.0,,25.0,15.0,30.03,1017.8,,,,,,,,,,,,,,,7/8 Mostly Cloudy,4400.0,,BKN,4500,BKN,5900.0,,,,
KRDR,07-21-2008,20:00,METAR,,330,8,,,9999.0,,25.0,14.0,30.03,1017.9,,,,,,,,,,,,,,,7/8 Mostly Cloudy,4300.0,,BKN,4400,,,,,,
KRDR,07-21-2008,19:00,METAR,,10,7,,,9999.0,,25.0,16.0,30.04,1018.1,,,,,,,,,,,,,,,7/8 Mostly Cloudy,6000.0,,SCT,3600,BKN,5900.0,,,,
KRDR,07-21-2008,18:00,METAR,,340,6,,,9999.0,,24.0,16.0,30.03,1017.8,,,,,,,,,,,,,,,7/8 Mostly Cloudy,3400.0,,BKN,3500,,,,,,
KRDR,07-21-2008,17:00,METAR,,30,6,,,9999.0,,23.0,16.0,30.03,1017.8,,,,,,,,,,,,,,,4/8 Partly Cloudy,72000.0,,SCT,3000,,,,,,
KRDR,07-21-2008,16:00,METAR,,,6,,,9999.0,,23.0,15.0,30.03,1017.9,,,,,,,,,,,,,,,Clear,72000.0,,,73000,,,,,,
KRDR,07-21-2008,15:00,METAR,,360,5,,,9999.0,,21.0,16.0,30.04,1018.1,,,,,,,,,,,,,,,Clear,72000.0,,,73000,,,,,,
KRDR,07-21-2008,14:00,METAR,,30,4,,,9999.0,,19.0,15.0,30.03,1017.9,,,,,,,,,,,,,,,2/8 Mostly Clear,72000.0,,FEW,20000,,,,,,
KRDR,07-21-2008,13:00,METAR,,20,6,,,9999.0,,17.0,15.0,30.03,1017.7,,,,,,,,,,,,,,,2/8 Mostly Clear,72000.0,,FEW,5000,FEW,20000.0,,,,
KRDR,07-21-2008,12:00,METAR,,,0,,,9999.0,,14.0,14.0,30.01,1017.1,,,,,,,,,,,,,,TRACE,2/8 Mostly Clear,72000.0,,FEW,5000,FEW,20000.0,,,,
KRDR,07-21-2008,11:00,METAR,,,0,,,9999.0,,13.0,12.0,29.99,1016.4,,,,,,,,,,,,,,,2/8 Mostly Clear,72000.0,,FEW,5000,FEW,20000.0,,,,
KRDR,07-21-2008,10:00,METAR,,10,3,,,9999.0,,14.0,13.0,29.99,1016.4,,,,,,,,,,,,,,,4/8 Partly Cloudy,72000.0,,SCT,5000,SCT,20000.0,,,,
KRDR,07-21-2008,09:00,METAR,,,0,,,9999.0,,15.0,14.0,29.98,1016.2,,,,,,,,,,,,,,,2/8 Mostly Clear,72000.0,,FEW,5000,,,,,,
KRDR,07-21-2008,08:00,METAR,,,0,,,9999.0,,15.0,14.0,29.97,1016.0,,,,,,,,,,,,,,,Clear,72000.0,,,73000,,,,,,
KRDR,07-21-2008,07:00,METAR,,,0,,,9999.0,,16.0,15.0,29.98,1016.1,,,,,,,,,,,,,,,7/8 Mostly Cloudy,5500.0,,BKN,5400,,,,,,
KRDR,07-21-2008,06:00,METAR,,,0,,,9999.0,,16.0,15.0,29.97,1015.9,,,,,,,,,,,,,,,2/8 Mostly Clear,72000.0,,FEW,5000,,,,,,
KRDR,07-21-2008,05:00,METAR,,,0,,,9999.0,,16.0,15.0,29.96,1015.5,,,,,,,,,,,,,,,Clear,72000.0,,,73000,,,,,,
KRDR,07-21-2008,04:00,METAR,,,0,,,9999.0,,17.0,15.0,29.96,1015.4,,,,,,,,,,,,,,,Clear,72000.0,,,73000,,,,,,
KRDR,07-21-2008,03:00,METAR,,30,4,,,9999.0,,19.0,16.0,29.96,1015.5,,,,,,,,,,,,,,,2/8 Mostly Clear,72000.0,,FEW,6400,,,,,,
KRDR,07-21-2008,02:00,METAR,,20,3,,,9999.0,,21.0,16.0,29.95,1015.3,,,,,,,,,,,,,,,Clear,72000.0,,,73000,,,,,,
KRDR,07-21-2008,01:00,METAR,,340,3,,,9999.0,,24.0,16.0,29.95,1015.2,,,,,,,,,,,,,,,Clear,72000.0,,,73000,,,,,,
KRDR,07-21-2008,00:00,METAR,,360,5,,,9999.0,,24.0,16.0,29.95,1015.1,,,,,,,,,,,,,,,2/8 Mostly Clear,72000.0,,FEW,5400,,,,,,
KRDR,07-20-2008,23:00,METAR,,10,10,,,9999.0,,26.0,16.0,29.95,1015.2,,,,,,,,,,,,,,,2/8 Mostly Clear,72000.0,,FEW,4400,,,,,,
KRDR,07-20-2008,22:00,METAR,,350,5,,,9999.0,,26.0,16.0,29.95,1015.1,,,,,,,,,,,,,,,2/8 Mostly Clear,72000.0,,FEW,4000,,,,,,
KRDR,07-20-2008,21:00,METAR,,320,5,,,9999.0,,24.0,17.0,29.95,1015.2,,,,,,,,,,,,,,,Clear,72000.0,,,73000,,,,,,
KRDR,07-20-2008,20:00,METAR,,360,8,,,9999.0,,25.0,16.0,29.95,1015.1,,,,,,,,,,,,,,,4/8 Partly Cloudy,72000.0,,SCT,3200,,,,,,
KRDR,07-20-2008,19:09,SPECI,,350,6,,,9999.0,,24.0,17.0,29.95,1015.1,,,,,,,,,,,,,,,4/8 Partly Cloudy,72000.0,,FEW,5400,SCT,8400.0,,,,
KRDR,07-20-2008,19:00,METAR,,330,5,,,9999.0,,23.0,17.0,29.94,1015.0,,,,,,,,,,,,,,,4/8 Partly Cloudy,72000.0,,FEW,2800,SCT,5900.0,,,,
KRDR,07-20-2008,18:00,METAR,,340,5,,,9999.0,,23.0,16.0,29.94,1015.0,,,,,,,,,,,,,,,4/8 Partly Cloudy,72000.0,,FEW,2700,SCT,6400.0,,,,
KRDR,07-20-2008,17:42,SPECI,,350,4,,,9999.0,,23.0,17.0,29.95,1015.1,,,,,,,,,,,,,,,7/8 Mostly Cloudy,3200.0,,BKN,3300,,,,,,
KRDR,07-20-2008,17:39,SPECI,,360,7,,,9999.0,,24.0,17.0,29.95,1015.2,,,,,,,,,,,,,,,7/8 Mostly Cloudy,2900.0,,BKN,2900,,,,,,
KRDR,07-20-2008,17:00,METAR,,340,5,,,9999.0,,23.0,17.0,29.94,1014.9,,,,,,,,,,,,,,,4/8 Partly Cloudy,72000.0,,SCT,2800,,,,,,
KRDR,07-20-2008,16:42,SPECI,,320,4,,,9999.0,,23.0,17.0,29.94,1014.9,,,,,,,,,,,,,,,4/8 Partly Cloudy,72000.0,,SCT,2600,,,,,,
KRDR,07-20-2008,16:20,SPECI,,310,5,,,9999.0,,23.0,16.0,29.94,1014.8,,,,,,,,,,,,,,,7/8 Mostly Cloudy,2600.0,,BKN,2600,,,,,,
KRDR,07-20-2008,16:00,METAR,,280,4,,,9999.0,,22.0,15.0,29.93,1014.5,,,,,,,,,,,,,,,2/8 Mostly Clear,72000.0,,FEW,2400,,,,,,
KRDR,07-20-2008,15:00,METAR,,,5,,,9999.0,,21.0,16.0,29.92,1014.3,,,,,,,,,,,,,,,4/8 Partly Cloudy,72000.0,,SCT,2000,,,,,,
KRDR,07-20-2008,14:00,METAR,,200,4,,,9999.0,,20.0,16.0,29.92,1014.1,,,,,,,,,,,,,,,2/8 Mostly Clear,72000.0,,FEW,2000,FEW,20000.0,,,,
KRDR,07-20-2008,13:00,METAR,,250,4,,,9999.0,,17.0,16.0,29.91,1013.8,,,,,,,,,,,,,,,4/8 Partly Cloudy,72000.0,,FEW,2500,SCT,25000.0,,,,
KRDR,07-20-2008,12:26,SPECI,,250,3,,,9999.0,,17.0,16.0,29.91,1013.8,,,,,,,,,,,,,,,7/8 Mostly Cloudy,1400.0,,BKN,1400,,,,,,
KRDR,07-20-2008,12:16,SPECI,,,0,,,9999.0,,17.0,16.0,29.90,1013.7,,,,,,,,,,,,,,,7/8 Mostly Cloudy,1600.0,,BKN,1600,,,,,,
KRDR,07-20-2008,12:00,METAR,,340,4,,,9999.0,,16.0,16.0,29.90,1013.4,,,,,,,,,,,,,,,Clear,72000.0,,,73000,,,,,,
KRDR,07-20-2008,11:24,SPECI,,340,6,,,9999.0,,16.0,15.0,29.89,1013.3,,,,,,,,,,,,,,,4/8 Partly Cloudy,72000.0,,SCT,700,,,,,,
KRDR,07-20-2008,11:21,SPECI,,340,5,,,9999.0,,16.0,15.0,29.89,1013.3,,,,,,,,,,,,,,,7/8 Mostly Cloudy,400.0,,BKN,700,,,,,,
KRDR,07-20-2008,11:14,SPECI,,350,4,,,9999.0,,16.0,16.0,29.89,1013.4,,,,,,,,,,,,,,,7/8 Mostly Cloudy,400.0,,BKN,600,,,,,,
KRDR,07-20-2008,11:12,SPECI,,350,4,,,9999.0,,16.0,16.0,29.89,1013.4,,,,,,,,,,,,,,,8/8 Overcast,400.0,,OVC,700,,,,,,
KRDR,07-20-2008,11:00,METAR,,,0,,,9999.0,,17.0,17.0,29.88,1013.0,,,,,,,,,,,,,,,8/8 Overcast,500.0,,OVC,500,,,,,,
KRDR,07-20-2008,10:37,SPECI,,,0,,,9999.0,,17.0,16.0,29.89,1013.1,,,,,,,,,,,,,,,8/8 Overcast,500.0,,OVC,500,,,,,,
KRDR,07-20-2008,10:28,SPECI,,,0,,,9999.0,,17.0,16.0,29.88,1013.0,,,,,,,,,,,,,,,8/8 Overcast,400.0,,OVC,400,,,,,,
KRDR,07-20-2008,10:26,SPECI,,,0,,,9999.0,,17.0,16.0,29.88,1012.9,,,,,,,,,,,,,,,8/8 Overcast,200.0,,OVC,600,,,,,,
KRDR,07-20-2008,10:25,SPECI,,,0,,,9999.0,,17.0,16.0,29.88,1012.9,,,,,,,,,,,,,,,8/8 Overcast,100.0,,OVC,800,,,,,,
KRDR,07-20-2008,10:22,SPECI,,350,4,,,9999.0,,17.0,16.0,29.88,1012.9,,,,,,,,,,,,,,,8/8 Overcast,900.0,,OVC,1400,,,,,,
KRDR,07-20-2008,10:16,SPECI,,340,6,,,9999.0,,17.0,16.0,29.88,1012.9,,,,,,,,,,,,,,,8/8 Overcast,1400.0,,OVC,2800,,,,,,
KRDR,07-20-2008,10:10,SPECI,,,0,,,9999.0,,17.0,16.0,29.87,1012.6,,,,,,,,,,,,,,,8/8 Overcast,2500.0,,OVC,4000,,,,,,
KRDR,07-20-2008,10:08,SPECI,,,3,,,9999.0,,17.0,16.0,29.87,1012.6,,,,,,,,,,,,,,,8/8 Overcast,200.0,,BKN,200,OVC,9400.0,,,,
KRDR,07-20-2008,10:00,METAR,,200,7,,160/26KTS,9999.0,,17.0,16.0,29.86,1012.2,,,,,,,,,,,,,,,7/8 Mostly Cloudy,10000.0,,BKN,9900,,,,,,
KRDR,07-20-2008,09:47,SPECI,,230,6,,160/26KTS,9999.0,,17.0,16.0,29.86,1012.1,,,,,,,,,,,,,,,7/8 Mostly Cloudy,10000.0,,FEW,900,BKN,9900.0,,,,
KRDR,07-20-2008,09:31,SPECI,,150,14,25.0,,9999.0,,17.0,16.0,29.83,,,,,,,,,,,,,,,,8/8 Overcast,10000.0,,SCT,4000,OVC,9900.0,,,,
KRDR,07-20-2008,09:20,SPECI,,160,21,,,9999.0,Light Rain Showers,16.0,16.0,29.81,,,,,80,,,,,,,,,,,7/8 Mostly Cloudy,4300.0,,BKN,4400,BKN,9900.0,,,,
KRDR,07-20-2008,09:00,METAR,,320,7,,,6400.0,Thunderstorm with Rain or Snow/Light Rain Showers,16.0,15.0,29.92,1014.3,,,,95,80,,,,,,TRACE,,,,7/8 Mostly Cloudy,6000.0,,SCT,3000,BKN,5900.0,BKN,9900.0,,
KRDR,07-20-2008,08:42,SPECI,,300,3,,,9999.0,Light Rain Showers,16.0,15.0,29.91,,,,,80,,,,,,,,,,,7/8 Mostly Cloudy,6000.0,,SCT,3000,BKN,5900.0,BKN,11000.0,,
KRDR,07-20-2008,08:00,METAR,,330,4,,,9999.0,,16.0,16.0,29.90,1013.6,,,,,,,,,,,,,,,8/8 Overcast,2600.0,,FEW,2100,SCT,2600.0,OVC,4800.0,,
KRDR,07-20-2008,07:45,SPECI,,320,3,,,9999.0,,17.0,16.0,29.90,1013.6,,,,,,,,,,,,,,,8/8 Overcast,3100.0,,OVC,3200,,,,,,
KRDR,07-20-2008,07:35,SPECI,,,0,,,9999.0,,17.0,16.0,29.90,1013.7,,,,,,,,,,,,,,,8/8 Overcast,2200.0,,OVC,2900,,,,,,
KRDR,07-20-2008,07:06,SPECI,,,0,,,9999.0,,17.0,16.0,29.89,1013.3,,,,,,,,,,,,,,,8/8 Overcast,2900.0,,SCT,2300,OVC,3700.0,,,,
KRDR,07-20-2008,07:00,METAR,,310,3,,,9999.0,,17.0,15.0,29.90,1013.6,,,,,,,,,,,,,,,8/8 Overcast,2400.0,,OVC,2400,,,,,,
KRDR,07-20-2008,06:00,METAR,,120,3,,,9999.0,,18.0,15.0,29.89,1013.3,,,,,,,,,,,,,,,8/8 Overcast,2100.0,,OVC,2100,,,,,,
KRDR,07-20-2008,05:00,METAR,,,0,,,9999.0,,17.0,15.0,29.89,1013.3,,,,,,,,,,,,,,,7/8 Mostly Cloudy,2000.0,,BKN,2000,,,,,,
KRDR,07-20-2008,04:00,METAR,,70,4,,,9999.0,,17.0,15.0,29.89,1013.2,,,,,,,,,,,,,,,7/8 Mostly Cloudy,2800.0,,BKN,2800,,,,,,
KRDR,07-20-2008,03:37,SPECI,,70,3,,,9999.0,,17.0,15.0,29.90,1013.4,,,,,,,,,,,,,,,7/8 Mostly Cloudy,2700.0,,BKN,2700,,,,,,
KRDR,07-20-2008,03:00,METAR,,80,4,,,9999.0,,17.0,15.0,29.89,1013.4,,,,,,,,,,,,,,,Clear,72000.0,,,73000,,,,,,
KRDR,07-20-2008,02:00,METAR,,80,5,,,9999.0,,19.0,15.0,29.89,1013.2,,,,,,,,,,,,,,,7/8 Mostly Cloudy,6500.0,,BKN,6400,,,,,,
KRDR,07-20-2008,01:00,METAR,,100,7,,,9999.0,,20.0,15.0,29.88,1013.0,,,,,,,,,,,,,,,8/8 Overcast,7000.0,,OVC,6900,,,,,,
KRDR,07-20-2008,00:00,METAR,,100,6,,,9999.0,,20.0,15.0,29.89,1013.2,,,,,,,,,,,,,,,8/8 Overcast,6500.0,,OVC,6400,,,,,,
KRDR,07-19-2008,23:00,METAR,,110,6,,,9999.0,,20.0,15.0,29.90,1013.5,,,,,,,,,,,,,,,7/8 Mostly Cloudy,7500.0,,BKN,7400,,,,,,
KRDR,07-19-2008,22:00,METAR,,140,5,,,9999.0,,20.0,15.0,29.90,1013.6,,,,,,,,,,,,,,,8/8 Overcast,6500.0,,OVC,6400,,,,,,
KRDR,07-19-2008,21:00,METAR,,150,9,,,9999.0,,20.0,15.0,29.92,1014.0,,,,,,,,,,,TRACE,TRACE,,,8/8 Overcast,7000.0,,FEW,3000,BKN,6900.0,OVC,9900.0,,
KRDR,07-19-2008,20:00,METAR,,140,11,,,9999.0,Rain,20.0,17.0,29.91,1013.9,,,,61,,,,,,,,,,,8/8 Overcast,8500.0,,FEW,3000,BKN,8400.0,OVC,9900.0,,
KRDR,07-19-2008,19:49,SPECI,,140,10,,,9999.0,,20.0,16.0,29.91,1013.9,,,,,,,,,,,,,,,8/8 Overcast,8000.0,,FEW,3000,BKN,7900.0,OVC,9900.0,,
KRDR,07-19-2008,19:00,METAR,,170,7,,,9999.0,,18.0,16.0,29.93,1014.5,,,,,,,,,,,TRACE,,,,8/8 Overcast,6000.0,,FEW,3000,BKN,5900.0,OVC,9900.0,,
KRDR,07-19-2008,18:00,METAR,,130,9,,,9999.0,Light Rain,18.0,16.0,29.94,1014.8,61,,,,,,,,,,,,,,8/8 Overcast,3700.0,,BKN,3800,OVC,5900.0,,,,
KRDR,07-19-2008,17:00,METAR,,130,5,,,9999.0,Light Rain/Mist,18.0,16.0,29.95,1015.2,61,10,,,,,,,,,,,,,8/8 Overcast,4100.0,,OVC,4200,,,,,,
KRDR,07-19-2008,16:00,METAR,,360,3,,,9999.0,Light Drizzle,17.0,15.0,29.94,1014.7,51,,,,,,,,,,,,,,7/8 Mostly Cloudy,8500.0,,BKN,8400,,,,,,
KRDR,07-19-2008,15:00,METAR,,,0,,,9999.0,Light Rain,17.0,14.0,29.93,1014.7,61,,,,,,,,,,,,,,7/8 Mostly Cloudy,3800.0,,BKN,3900,,,,,,
KRDR,07-19-2008,14:18,SPECI,,340,3,,,9999.0,Light Drizzle,16.0,14.0,29.92,1014.4,51,,,,,,,,,,,,,,8/8 Overcast,9500.0,,FEW,5900,OVC,9400.0,,,,
KRDR,07-19-2008,14:13,SPECI,,340,3,,,9999.0,,16.0,14.0,29.92,1014.3,,,,,,,,,,,,,,,8/8 Overcast,9500.0,,FEW,5900,OVC,9400.0,,,,
KRDR,07-19-2008,14:00,METAR,,,0,,,9999.0,Unknown Precipitation,16.0,14.0,29.92,1014.3,40,,,,,,,,,,,,,,8/8 Overcast,9500.0,,FEW,5900,OVC,9400.0,,,,
KRDR,07-19-2008,13:00,METAR,,60,3,,,9999.0,,15.0,14.0,29.90,1013.7,,,,,,,,,,,,,,,7/8 Mostly Cloudy,10000.0,,BKN,9900,,,,,,
KRDR,07-19-2008,12:00,METAR,,300,3,,,9999.0,,14.0,13.0,29.92,1014.2,,,,,,,,,,,,,,,8/8 Overcast,10000.0,,OVC,9900,,,,,,
KRDR,07-19-2008,11:00,METAR,,10,3,,,9999.0,,14.0,13.0,29.91,1013.8,,,,,,,,,,,,,,,Clear,72000.0,,,73000,,,,,,
KRDR,07-19-2008,10:00,METAR,,110,4,,,9999.0,,15.0,13.0,29.91,1014.0,,,,,,,,,,,,,,,Clear,72000.0,,,73000,,,,,,
KRDR,07-19-2008,09:00,METAR,,,0,,,9999.0,,13.0,12.0,29.92,1014.2,,,,,,,,,,,,,,,Clear,72000.0,,,73000,,,,,,
KRDR,07-19-2008,08:00,METAR,,,0,,,9999.0,,13.0,12.0,29.95,1015.2,,,,,,,,,,,,,,,Clear,72000.0,,,73000,,,,,,
KRDR,07-19-2008,07:00,METAR,,220,4,,,9999.0,,13.0,12.0,29.96,1015.7,,,,,,,,,,,,,,,Clear,72000.0,,,73000,,,,,,
KRDR,07-19-2008,06:00,METAR,,,0,,,9999.0,,14.0,12.0,29.95,1015.3,,,,,,,,,,,,,,,Clear,72000.0,,,73000,,,,,,
KRDR,07-19-2008,05:00,METAR,,,0,,,9999.0,,15.0,13.0,29.97,1016.0,,,,,,,,,,,,,,,Clear,72000.0,,,73000,,,,,,
KRDR,07-19-2008,04:00,METAR,,,0,,,9999.0,,15.0,13.0,29.99,1016.5,,,,,,,,,,,,,,,7/8 Mostly Cloudy,25000.0,,BKN,25000,,,,,,
KRDR,07-19-2008,03:00,METAR,,,0,,,9999.0,,19.0,14.0,29.99,1016.4,,,,,,,,,,,,,,,7/8 Mostly Cloudy,25000.0,,BKN,25000,,,,,,
KRDR,07-19-2008,02:00,METAR,,80,5,,,9999.0,,22.0,14.0,29.97,1015.9,,,,,,,,,,,,,,,7/8 Mostly Cloudy,25000.0,,BKN,25000,,,,,,
KRDR,07-19-2008,01:00,METAR,,80,8,,,9999.0,,24.0,14.0,29.96,1015.7,,,,,,,,,,,,,,,4/8 Partly Cloudy,72000.0,,FEW,4000,SCT,25000.0,,,,
KRDR,07-19-2008,00:00,METAR,,,6,,,9999.0,,25.0,14.0,29.97,1015.9,,,,,,,,,,,,,,,4/8 Partly Cloudy,72000.0,,FEW,4000,SCT,25000.0,,,,
KRDR,07-18-2008,23:00,METAR,,20,5,,,9999.0,,26.0,14.0,29.98,1016.2,,,,,,,,,,,,,,,4/8 Partly Cloudy,72000.0,,SCT,5900,SCT,25000.0,,,,
KRDR,07-18-2008,22:00,METAR,,30,7,,,9999.0,,25.0,14.0,29.99,1016.7,,,,,,,,,,,,,,,7/8 Mostly Cloudy,6000.0,,BKN,5900,,,,,,
KRDR,07-18-2008,21:00,METAR,,40,6,,,9999.0,,26.0,14.0,30.00,1016.7,,,,,,,,,,,,,,,4/8 Partly Cloudy,72000.0,,SCT,4600,,,,,,
KRDR,07-18-2008,20:00,METAR,,30,5,,,9999.0,,25.0,14.0,30.00,1017.0,,,,,,,,,,,,,,,4/8 Partly Cloudy,72000.0,,SCT,4000,,,,,,
KRDR,07-18-2008,19:00,METAR,,10,10,14.0,,9999.0,,25.0,14.0,30.01,1017.1,,,,,,,,,,,,,,,4/8 Partly Cloudy,72000.0,,SCT,4200,SCT,25000.0,,,,
KRDR,07-18-2008,18:00,METAR,,10,6,,,9999.0,,24.0,14.0,30.02,1017.4,,,,,,,,,,,,,,,4/8 Partly Cloudy,72000.0,,SCT,3500,SCT,25000.0,,,,
KRDR,07-18-2008,17:00,METAR,,,4,,,9999.0,,23.0,15.0,30.02,1017.7,,,,,,,,,,,,,,,4/8 Partly Cloudy,72000.0,,FEW,3000,SCT,25000.0,,,,
KRDR,07-18-2008,16:00,METAR,,360,8,,,9999.0,,21.0,15.0,30.03,1017.8,,,,,,,,,,,,,,,4/8 Partly Cloudy,72000.0,,FEW,5000,SCT,25000.0,,,,
KRDR,07-18-2008,15:00,METAR,,360,5,,,9999.0,Smoke or Ash,19.0,15.0,30.03,1017.9,,,,4,,,,,,,,,,,4/8 Partly Cloudy,72000.0,,FEW,200,FEW,5000.0,SCT,25000.0,,
KRDR,07-18-2008,14:00,METAR,,340,5,,,9999.0,,18.0,15.0,30.04,1018.0,,,,,,,,,,,,,,,2/8 Mostly Clear,72000.0,,FEW,5000,FEW,9900.0,FEW,25000.0,,
KRDR,07-18-2008,13:00,METAR,,,0,,,9999.0,,16.0,14.0,30.02,1017.5,,,,,,,,,,,,,,,2/8 Mostly Clear,72000.0,,FEW,5000,FEW,9900.0,,,,
KRDR,07-18-2008,12:00,METAR,,,0,,,9999.0,,12.0,11.0,30.01,1017.2,,,,,,,,,,,,,,TRACE,2/8 Mostly Clear,72000.0,,FEW,5000,FEW,9900.0,,,,
KRDR,07-18-2008,11:00,METAR,,200,3,,,9999.0,Shallow Fog or Ice Fog,9.0,9.0,30.00,1017.0,,,,12,,,,,,,,,,,2/8 Mostly Clear,72000.0,,FEW,5000,FEW,12000.0,,,,
KRDR,07-18-2008,10:00,METAR,,,0,,,9999.0,,10.0,10.0,29.99,1016.6,,,,,,,,,,,,,,,Clear,72000.0,,,73000,,,,,,
KRDR,07-18-2008,09:00,METAR,,250,4,,,9999.0,,12.0,11.0,30.00,1016.8,,,,,,,,,,,,,,,Clear,72000.0,,,73000,,,,,,
KRDR,07-18-2008,08:00,METAR,,280,6,,,9999.0,,13.0,12.0,30.00,1016.9,,,,,,,,,,,,,,,Clear,72000.0,,,73000,,,,,,
KRDR,07-18-2008,07:00,METAR,,270,5,,,9999.0,,13.0,12.0,30.00,1016.7,,,,,,,,,,,,,,,Clear,72000.0,,,73000,,,,,,
KRDR,07-18-2008,06:00,METAR,,220,3,,,9999.0,,13.0,12.0,30.00,1016.9,,,,,,,,,,,,,,,Clear,72000.0,,,73000,,,,,,
KRDR,07-18-2008,05:00,METAR,,230,4,,,9999.0,,13.0,13.0,30.00,1016.9,,,,,,,,,,,,,,,2/8 Mostly Clear,72000.0,,FEW,25000,,,,,,
KRDR,07-18-2008,04:00,METAR,,230,4,,,9999.0,,14.0,13.0,30.00,1017.0,,,,,,,,,,,,,,,4/8 Partly Cloudy,72000.0,,SCT,25000,,,,,,
KRDR,07-18-2008,03:00,METAR,,220,3,,,9999.0,,16.0,14.0,29.99,1016.5,,,,,,,,,,,,,,,4/8 Partly Cloudy,72000.0,,FEW,4000,SCT,25000.0,,,,
KRDR,07-18-2008,02:00,METAR,,,0,,,9999.0,,20.0,16.0,29.99,1016.4,,,,,,,,,,,,,,,7/8 Mostly Cloudy,25000.0,,FEW,4000,BKN,25000.0,,,,
KRDR,07-18-2008,01:00,METAR,,330,3,,,9999.0,,22.0,14.0,29.99,1016.6,,,,,,,,,,,,,,,2/8 Mostly Clear,72000.0,,FEW,4000,FEW,25000.0,,,,
KRDR,07-18-2008,00:00,METAR,,350,7,,,9999.0,,22.0,15.0,30.00,1016.9,,,,,,,,,,,,,,,4/8 Partly Cloudy,72000.0,,FEW,11000,SCT,25000.0,,,,
KRDR,07-17-2008,23:00,METAR,,350,8,,,9999.0,,22.0,15.0,30.01,1017.1,,,,,,,,,,,,,,,7/8 Mostly Cloudy,25000.0,,SCT,11000,BKN,25000.0,,,,
KRDR,07-17-2008,22:00,METAR,,10,5,,,9999.0,,20.0,16.0,30.00,1016.9,,,,,,,,,,,,,,,7/8 Mostly Cloudy,11000.0,,FEW,2000,BKN,11000.0,BKN,25000.0,,
KRDR,07-17-2008,21:40,SPECI,,350,7,,,9999.0,,20.0,16.0,30.02,1017.4,,,,,,,,,,,,,,,7/8 Mostly Cloudy,11000.0,,BKN,11000,BKN,25000.0,,,,
KRDR,07-17-2008,21:32,SPECI,,330,6,,,9999.0,Rain,20.0,16.0,30.02,1017.5,,,,61,,,,,,,,,,,7/8 Mostly Cloudy,11000.0,,FEW,2000,BKN,11000.0,BKN,25000.0,,
KRDR,07-17-2008,21:00,METAR,,340,9,,,9999.0,,21.0,15.0,30.01,1017.3,,,,,,,,,,,,,,,2/8 Mostly Clear,72000.0,,FEW,12000,,,,,,
KRDR,07-17-2008,20:00,METAR,,,4,,,9999.0,,22.0,16.0,30.01,1017.3,,,,,,,,,,,,,,,8/8 Overcast,3200.0,,BKN,3300,OVC,12000.0,,,,
KRDR,07-17-2008,19:39,SPECI,,320,6,,,9999.0,,21.0,16.0,30.02,,,,,,,,,,,,,,,,8/8 Overcast,3000.0,,BKN,3000,BKN,11000.0,OVC,25000.0,,
KRDR,07-17-2008,19:00,METAR,,360,8,,,9999.0,,20.0,16.0,30.01,1017.3,,,,,,,,,,,,,,,8/8 Overcast,2500.0,,BKN,2500,BKN,11000.0,OVC,25000.0,,
KRDR,07-17-2008,18:00,METAR,,360,9,,,9999.0,,20.0,16.0,30.02,1017.5,,,,,,,,,,,,,,,8/8 Overcast,1800.0,,BKN,1800,OVC,2700.0,,,,
KRDR,07-17-2008,17:00,METAR,,350,7,,,9999.0,,19.0,15.0,30.01,1017.2,,,,,,,,,,,,,,,8/8 Overcast,1500.0,,OVC,1500,,,,,,
KRDR,07-17-2008,16:00,METAR,,350,7,,,9999.0,,17.0,15.0,30.01,1017.0,,,,,,,,,,,,,,,8/8 Overcast,900.0,,OVC,900,,,,,,
KRDR,07-17-2008,15:00,METAR,,360,8,,,9999.0,,17.0,15.0,30.00,1016.9,,,,,,,,,,,,,,,8/8 Overcast,800.0,,OVC,800,,,,,,
KRDR,07-17-2008,14:35,SPECI,,30,8,,,9999.0,,16.0,15.0,30.00,1016.9,,,,,,,,,,,,,,,8/8 Overcast,300.0,,OVC,700,,,,,,
KRDR,07-17-2008,14:02,SPECI,,20,5,,,9999.0,,16.0,14.0,30.01,,,,,,,,,,,,,,,,8/8 Overcast,600.0,,OVC,600,,,,,,
KRDR,07-17-2008,14:00,METAR,,360,8,,,9999.0,,16.0,14.0,30.01,1017.1,,,,,,,,,,,,,,,8/8 Overcast,25000.0,,SCT,600,OVC,25000.0,,,,
KRDR,07-17-2008,13:00,METAR,,20,7,,,9999.0,,15.0,14.0,30.01,1017.0,,,,,,,,,,,,,,,8/8 Overcast,25000.0,,SCT,600,OVC,25000.0,,,,
KRDR,07-17-2008,12:00,METAR,,340,4,,,9999.0,,14.0,14.0,29.99,1016.5,,,,,,,,,,,,,,.08 IN,7/8 Mostly Cloudy,25000.0,,FEW,12000,BKN,25000.0,,,,
KRDR,07-17-2008,11:00,METAR,,350,4,,,9999.0,,14.0,13.0,29.97,1016.0,,,,,,,,,,,,,,,7/8 Mostly Cloudy,25000.0,,FEW,12000,BKN,25000.0,,,,
KRDR,07-17-2008,10:00,METAR,,330,6,,,9999.0,,15.0,14.0,29.95,1015.2,,,,,,,,,,,,,,,4/8 Partly Cloudy,72000.0,,FEW,5900,SCT,25000.0,,,,
KRDR,07-17-2008,09:00,METAR,,330,10,,,9999.0,,16.0,15.0,29.97,1015.7,,,,,,,,,,,,,,,2/8 Mostly Clear,72000.0,,FEW,1100,,,,,,
KRDR,07-17-2008,08:31,SPECI,,320,8,,,9999.0,,17.0,16.0,29.97,,,,,,,,,,,,,,,,4/8 Partly Cloudy,72000.0,,FEW,500,SCT,1200.0,,,,
KRDR,07-17-2008,08:00,METAR,,320,9,,,9999.0,,18.0,17.0,29.98,1016.2,,,,,,,,,,,,,,,7/8 Mostly Cloudy,500.0,,BKN,500,BKN,1200.0,,,,
KRDR,07-17-2008,07:00,METAR,,320,8,,,9999.0,,18.0,17.0,29.98,1016.1,,,,,,,,,,,,,,,7/8 Mostly Cloudy,700.0,,SCT,300,BKN,700.0,,,,
KRDR,07-17-2008,06:27,SPECI,,330,10,,,9999.0,,18.0,17.0,29.99,,,,,,,,,,,,,,,,7/8 Mostly Cloudy,700.0,,BKN,700,,,,,,
KRDR,07-17-2008,06:19,SPECI,,320,10,,,9999.0,,18.0,16.0,29.99,,,,,,,,,,,,,,,,2/8 Mostly Clear,72000.0,,FEW,800,,,,,,
KRDR,07-17-2008,06:00,METAR,,310,10,,,9999.0,,18.0,16.0,29.97,1015.8,,,,,,,,,,,,,,,2/8 Mostly Clear,72000.0,,FEW,2500,,,,,,
KRDR,07-17-2008,05:00,METAR,,270,6,,,9999.0,,19.0,18.0,29.93,1014.7,,,,,,,,,,,,,,,2/8 Mostly Clear,72000.0,,FEW,2500,,,,,,
KRDR,07-17-2008,04:00,METAR,,230,7,,,9999.0,,20.0,19.0,29.92,1014.3,,,,,,,,,,,,,,,2/8 Mostly Clear,72000.0,,FEW,6900,,,,,,
KRDR,07-17-2008,03:00,METAR,,210,7,,,9999.0,,22.0,20.0,29.91,1013.9,,,,,,,,,,,,,,,2/8 Mostly Clear,72000.0,,FEW,6900,,,,,,
KRDR,07-17-2008,02:00,METAR,,180,8,,,9999.0,,23.0,20.0,29.92,1014.1,,,,,,,,,,,,,,,2/8 Mostly Clear,72000.0,,FEW,3500,,,,,,
KRDR,07-17-2008,01:00,METAR,,170,9,,,9999.0,,25.0,21.0,29.92,1014.3,,,,,,,,,,,,,,,2/8 Mostly Clear,72000.0,,FEW,4000,,,,,,
KRDR,07-17-2008,00:00,METAR,,200,10,,,9999.0,,26.0,19.0,29.94,1014.9,,,,,,,,,,,,,.08 IN,,2/8 Mostly Clear,72000.0,,FEW,3300,,,,,,
KRDR,07-16-2008,23:00,METAR,,210,9,,,9999.0,,26.0,19.0,29.95,1015.2,,,,,,,,,,,,,,,2/8 Mostly Clear,72000.0,,FEW,12000,,,,,,
KRDR,07-16-2008,22:00,METAR,,200,9,,,9999.0,,25.0,19.0,29.95,1015.2,,,,,,,,,,,,,,,2/8 Mostly Clear,72000.0,,FEW,12000,,,,,,
KRDR,07-16-2008,21:00,METAR,,190,10,,,9999.0,,23.0,19.0,29.95,1015.1,,,,,,,,,,,,.08 IN,,,2/8 Mostly Clear,72000.0,,FEW,5000,,,,,,
KRDR,07-16-2008,20:00,METAR,,150,5,,,9999.0,,21.0,18.0,29.97,1015.8,,,,,,,,,,,,,,,8/8 Overcast,10000.0,,SCT,4000,BKN,9900.0,OVC,25000.0,,
KRDR,07-16-2008,19:27,SPECI,,150,7,,,9999.0,,20.0,18.0,29.97,1016.0,,,,,,,,,,,,,,,8/8 Overcast,25000.0,,FEW,5400,OVC,25000.0,,,,
KRDR,07-16-2008,19:00,METAR,,180,6,,,9999.0,Rain/Mist,21.0,19.0,29.99,1016.6,,,,61,10,,,,,,TRACE,,,,8/8 Overcast,10000.0,,FEW,5400,BKN,9900.0,OVC,25000.0,,
KRDR,07-16-2008,18:27,SPECI,,,0,,,9999.0,Rain,22.0,18.0,29.99,,,,,61,,,,,,,,,,,8/8 Overcast,11000.0,,FEW,6900,BKN,11000.0,OVC,25000.0,,
KRDR,07-16-2008,18:00,METAR,,290,4,,,9999.0,,22.0,18.0,29.98,1016.3,,,,,,,,,,,,,,,8/8 Overcast,25000.0,,FEW,6900,SCT,11000.0,OVC,25000.0,,
KRDR,07-16-2008,17:00,METAR,,160,8,,,9999.0,,23.0,17.0,29.95,1015.1,,,,,,,,,,,,,,,7/8 Mostly Cloudy,25000.0,,FEW,12000,SCT,15000.0,BKN,25000.0,,
KRDR,07-16-2008,16:00,METAR,,170,5,,,9999.0,,20.0,16.0,29.97,1015.8,,,,,,,,,,,,,,,7/8 Mostly Cloudy,25000.0,,SCT,15000,BKN,25000.0,,,,
KRDR,07-16-2008,15:00,METAR,,160,10,,,9999.0,,18.0,15.0,29.98,1016.3,,,,,,,,,,,,,,,7/8 Mostly Cloudy,15000.0,,BKN,15000,BKN,25000.0,,,,
KRDR,07-16-2008,14:00,METAR,,160,6,,,9999.0,,17.0,14.0,30.03,1017.9,,,,,,,,,,,,,,,7/8 Mostly Cloudy,25000.0,,FEW,6900,SCT,12000.0,BKN,25000.0,,
KRDR,07-16-2008,13:00,METAR,,,0,,,9999.0,,14.0,13.0,30.03,1017.8,,,,,,,,,,,,,,,7/8 Mostly Cloudy,11000.0,,SCT,6900,BKN,11000.0,BKN,25000.0,,
KRDR,07-16-2008,12:00,METAR,,20,3,,,9999.0,,13.0,12.0,30.02,1017.4,,,,,,,,,,,,,,,7/8 Mostly Cloudy,15000.0,,FEW,5900,SCT,11000.0,BKN,15000.0,BKN,25000.0
KRDR,07-16-2008,11:00,METAR,,360,3,,,9999.0,,11.0,11.0,30.01,1017.3,,,,,,,,,,,.03 IN,,,,7/8 Mostly Cloudy,10000.0,,FEW,6900,BKN,9900.0,,,,
KRDR,07-16-2008,10:08,SPECI,,340,4,,,4800.0,Mist,10.0,10.0,30.03,1017.9,10,,,,,,,,,,,,,,4/8 Partly Cloudy,72000.0,,SCT,9900,,,,,,
KRDR,07-16-2008,10:05,SPECI,,320,3,,,3200.0,Mist,10.0,10.0,30.03,1018.0,10,,,,,,,,,,,,,,4/8 Partly Cloudy,72000.0,,SCT,9900,,,,,,
KRDR,07-16-2008,10:00,SPECI,,,0,,,4000.0,Mist,10.0,9.0,30.03,1017.9,10,,,,,,,,,,,,,,4/8 Partly Cloudy,72000.0,,SCT,9900,,,,,,
KRDR,07-16-2008,10:00,METAR,,,0,,,9999.0,,10.0,10.0,30.03,1017.9,,,,,,,,,,,.31 IN,,,,4/8 Partly Cloudy,72000.0,,SCT,9900,,,,,,
KRDR,07-16-2008,09:00,METAR,,360,4,,,9999.0,,10.0,10.0,30.03,1017.8,,,,,,,,,,,,,,,Clear,72000.0,,,73000,,,,,,
KRDR,07-16-2008,08:00,METAR,,,0,,,9999.0,,12.0,11.0,30.03,1018.0,,,,,,,,,,,,,,,Clear,72000.0,,,73000,,,,,,
KRDR,07-16-2008,07:00,METAR,,,0,,,9999.0,,13.0,12.0,30.03,1017.7,,,,,,,,,,,,,,,Clear,72000.0,,,73000,,,,,,
KRDR,07-16-2008,06:00,METAR,,20,4,,,9999.0,,14.0,13.0,30.02,1017.5,,,,,,,,,,,,,,,Clear,72000.0,,,73000,,,,,,
KRDR,07-16-2008,05:00,METAR,,30,6,,,9999.0,,14.0,12.0,30.02,1017.7,,,,,,,,,,,,,,,2/8 Mostly Clear,72000.0,,FEW,9400,,,,,,
KRDR,07-16-2008,04:00,METAR,,10,4,,,9999.0,,16.0,13.0,30.02,1017.6,,,,,,,,,,,,,,,7/8 Mostly Cloudy,20000.0,,SCT,9900,BKN,20000.0,,,,
KRDR,07-16-2008,03:00,METAR,,350,3,,,9999.0,,18.0,14.0,30.02,1017.4,,,,,,,,,,,,,,,7/8 Mostly Cloudy,20000.0,,SCT,9400,BKN,20000.0,,,,
KRDR,07-16-2008,02:00,METAR,,300,3,,,9999.0,,20.0,14.0,30.01,1017.1,,,,,,,,,,,,,,,7/8 Mostly Cloudy,18000.0,,FEW,9900,BKN,18000.0,,,,
KRDR,07-16-2008,01:00,METAR,,340,5,,,9999.0,,22.0,14.0,30.00,1016.8,,,,,,,,,,,,,,,7/8 Mostly Cloudy,25000.0,,SCT,9900,BKN,25000.0,,,,
KRDR,07-16-2008,00:00,METAR,,330,5,,,9999.0,,23.0,13.0,29.99,1016.5,,,,,,,,,,,,,,,7/8 Mostly Cloudy,10000.0,,BKN,9900,,,,,,
KRDR,07-15-2008,23:00,METAR,,330,8,,,9999.0,,25.0,15.0,29.98,1016.1,,,,,,,,,,,,,,,7/8 Mostly Cloudy,25000.0,,SCT,7400,BKN,25000.0,,,,
KRDR,07-15-2008,22:00,METAR,,270,10,,,9999.0,,25.0,17.0,29.97,1015.7,,,,,,,,,,,,,,,4/8 Partly Cloudy,72000.0,,SCT,9900,SCT,20000.0,,,,
KRDR,07-15-2008,21:00,METAR,,240,8,,,9999.0,,23.0,17.0,29.95,1015.3,,,,,,,,,,,TRACE,TRACE,,,7/8 Mostly Cloudy,18000.0,,FEW,8400,SCT,9900.0,BKN,18000.0,,
KRDR,07-15-2008,20:20,SPECI,,250,9,,,9999.0,Light Rain Showers/Thunderstorm,22.0,17.0,29.97,1015.9,,,,17,80,,,,,,,,,,7/8 Mostly Cloudy,10000.0,,FEW,1800,BKN,9900.0,BKN,20000.0,,
KRDR,07-15-2008,20:00,METAR,,260,7,,,9999.0,,22.0,17.0,29.96,1015.5,,,,,,,,,,,TRACE,,,,7/8 Mostly Cloudy,10000.0,,FEW,1800,BKN,9900.0,BKN,18000.0,,
KRDR,07-15-2008,19:44,SPECI,,240,5,,,9999.0,,22.0,17.0,29.94,1014.8,,,,,,,,,,,,,,,7/8 Mostly Cloudy,10000.0,,FEW,2000,BKN,9900.0,BKN,18000.0,,
KRDR,07-15-2008,19:00,METAR,,280,8,,,9999.0,,24.0,16.0,29.96,1015.6,,,,,,,,,,,,,,,8/8 Overcast,15000.0,,FEW,4000,BKN,15000.0,OVC,20000.0,,
KRDR,07-15-2008,18:00,METAR,,260,11,,,9999.0,,26.0,14.0,29.96,1015.6,,,,,,,,,,,,,,,7/8 Mostly Cloudy,15000.0,,FEW,4000,BKN,15000.0,BKN,25000.0,,
KRDR,07-15-2008,17:00,METAR,,230,7,,,9999.0,,25.0,14.0,29.94,1014.8,,,,,,,,,,,,,,,7/8 Mostly Cloudy,15000.0,,SCT,9900,BKN,15000.0,BKN,25000.0,,
KRDR,07-15-2008,16:00,METAR,,240,6,,,9999.0,,23.0,14.0,29.93,1014.7,,,,,,,,,,,,,,,7/8 Mostly Cloudy,25000.0,,FEW,9900,SCT,15000.0,BKN,25000.0,,
KRDR,07-15-2008,15:00,METAR,,240,6,,,9999.0,,22.0,13.0,29.94,1014.8,,,,,,,,,,,,,,,7/8 Mostly Cloudy,25000.0,,FEW,9900,SCT,15000.0,BKN,25000.0,,
KRDR,07-15-2008,14:00,METAR,,250,4,,,9999.0,,19.0,14.0,29.92,1014.2,,,,,,,,,,,,,,,4/8 Partly Cloudy,72000.0,,FEW,9900,SCT,25000.0,,,,
KRDR,07-15-2008,13:00,METAR,,250,5,,,9999.0,,18.0,14.0,29.90,1013.6,,,,,,,,,,,,,,,2/8 Mostly Clear,72000.0,,FEW,9900,FEW,25000.0,,,,
KRDR,07-15-2008,12:00,METAR,,230,3,,,9999.0,,14.0,12.0,29.88,1012.8,,,,,,,,,,,,,,,2/8 Mostly Clear,72000.0,,FEW,9900,FEW,25000.0,,,,
KRDR,07-15-2008,11:00,METAR,,230,5,,,9999.0,,11.0,11.0,29.86,1012.3,,,,,,,,,,,,,,,Clear,72000.0,,,73000,,,,,,
KRDR,07-15-2008,10:00,METAR,,,0,,,9999.0,,11.0,10.0,29.86,1012.2,,,,,,,,,,,,,,,Clear,72000.0,,,73000,,,,,,
KRDR,07-15-2008,09:00,METAR,,250,3,,,9999.0,,11.0,10.0,29.86,1012.2,,,,,,,,,,,,,,,Clear,72000.0,,,73000,,,,,,
KRDR,07-15-2008,08:00,METAR,,,0,,,9999.0,,12.0,11.0,29.85,1011.9,,,,,,,,,,,,,,,Clear,72000.0,,,73000,,,,,,
KRDR,07-15-2008,07:00,METAR,,240,3,,,9999.0,,13.0,12.0,29.84,1011.5,,,,,,,,,,,,,,,Clear,72000.0,,,73000,,,,,,
KRDR,07-15-2008,06:00,METAR,,360,4,,,9999.0,,15.0,13.0,29.83,1011.3,,,,,,,,,,,,,,,Clear,72000.0,,,73000,,,,,,
KRDR,07-15-2008,05:00,METAR,,10,5,,,9999.0,,16.0,14.0,29.82,1010.9,,,,,,,,,,,,,,,Clear,72000.0,,,73000,,,,,,
KRDR,07-15-2008,04:00,METAR,,360,8,,,9999.0,,18.0,15.0,29.79,1010.2,,,,,,,,,,,,,,,4/8 Partly Cloudy,72000.0,,FEW,5000,SCT,12000.0,,,,
KRDR,07-15-2008,03:00,METAR,,340,5,,,9999.0,,18.0,16.0,29.78,1009.5,,,,,,,,,,,,,,,4/8 Partly Cloudy,72000.0,,FEW,5900,SCT,12000.0,,,,
KRDR,07-15-2008,02:00,METAR,,10,7,,,9999.0,,22.0,16.0,29.75,1008.9,,,,,,,,,,,,,,,4/8 Partly Cloudy,72000.0,,FEW,5900,SCT,12000.0,,,,
KRDR,07-15-2008,01:00,METAR,,30,11,,,9999.0,,25.0,16.0,29.73,1008.2,,,,,,,,,,,,,,,2/8 Mostly Clear,72000.0,,FEW,5900,FEW,12000.0,,,,
KRDR,07-15-2008,00:00,METAR,,40,11,,,9999.0,,27.0,14.0,29.73,1007.8,,,,,,,,,,,,,,,4/8 Partly Cloudy,72000.0,,FEW,5900,SCT,12000.0,,,,
KRDR,07-14-2008,23:00,METAR,,20,13,,,9999.0,,28.0,15.0,29.72,1007.7,,,,,,,,,,,,,,,4/8 Partly Cloudy,72000.0,,FEW,5900,SCT,12000.0,,,,
KRDR,07-14-2008,22:00,METAR,,360,10,,,9999.0,,27.0,16.0,29.73,1007.8,,,,,,,,,,,,,,,4/8 Partly Cloudy,72000.0,,FEW,5900,SCT,12000.0,,,,
KRDR,07-14-2008,21:00,METAR,,10,6,,,9999.0,,28.0,15.0,29.73,1007.8,,,,,,,,,,,,,,,4/8 Partly Cloudy,72000.0,,FEW,5900,SCT,12000.0,,,,
KRDR,07-14-2008,20:00,METAR,,270,5,,,9999.0,,29.0,14.0,29.73,1008.0,,,,,,,,,,,,,,,2/8 Mostly Clear,72000.0,,FEW,5400,FEW,12000.0,FEW,20000.0,,
KRDR,07-14-2008,19:00,METAR,,250,5,,,9999.0,,27.0,15.0,29.73,1008.1,,,,,,,,,,,,,,,4/8 Partly Cloudy,72000.0,,SCT,7900,SCT,12000.0,SCT,20000.0,,
KRDR,07-14-2008,18:00,METAR,,,0,,,9999.0,,26.0,14.0,29.75,1008.5,,,,,,,,,,,,,,,7/8 Mostly Cloudy,8000.0,,BKN,7900,,,,,,
KRDR,07-14-2008,17:00,METAR,,210,7,,,9999.0,,25.0,15.0,29.76,1008.8,,,,,,,,,,,,,,,7/8 Mostly Cloudy,8000.0,,BKN,7900,,,,,,
KRDR,07-14-2008,16:00,METAR,,210,7,,,9999.0,,23.0,15.0,29.77,1009.2,,,,,,,,,,,,,,,4/8 Partly Cloudy,72000.0,,SCT,9900,,,,,,
KRDR,07-14-2008,15:00,METAR,,240,9,,,9999.0,,22.0,13.0,29.78,1009.7,,,,,,,,,,,,,,,4/8 Partly Cloudy,72000.0,,SCT,8900,,,,,,
KRDR,07-14-2008,14:00,METAR,,250,6,,,9999.0,,21.0,13.0,29.80,1010.2,,,,,,,,,,,,,,,4/8 Partly Cloudy,72000.0,,SCT,8900,,,,,,
KRDR,07-14-2008,13:00,METAR,,,6,,,9999.0,,18.0,12.0,29.80,1010.3,,,,,,,,,,,,,,,4/8 Partly Cloudy,72000.0,,SCT,7900,,,,,,
KRDR,07-14-2008,12:00,METAR,,240,7,,,9999.0,,15.0,11.0,29.80,1010.1,,,,,,,,,,,,,,,4/8 Partly Cloudy,72000.0,,SCT,7900,,,,,,
KRDR,07-14-2008,11:00,METAR,,240,7,,,9999.0,,14.0,11.0,29.79,1010.0,,,,,,,,,,,,,,,2/8 Mostly Clear,72000.0,,FEW,8400,,,,,,
KRDR,07-14-2008,10:00,METAR,,220,5,,,9999.0,,14.0,11.0,29.80,1010.1,,,,,,,,,,,,,,,7/8 Mostly Cloudy,8500.0,,BKN,8400,,,,,,
KRDR,07-14-2008,09:00,METAR,,210,5,,,9999.0,,13.0,11.0,29.80,1010.3,,,,,,,,,,,,,,,2/8 Mostly Clear,72000.0,,FEW,8400,,,,,,
KRDR,07-14-2008,08:00,METAR,,230,6,,,9999.0,,13.0,11.0,29.80,1010.3,,,,,,,,,,,,,,,Clear,72000.0,,,73000,,,,,,
KRDR,07-14-2008,07:00,METAR,,230,5,,,9999.0,,14.0,11.0,29.81,1010.5,,,,,,,,,,,,,,,Clear,72000.0,,,73000,,,,,,
KRDR,07-14-2008,06:00,METAR,,220,4,,,9999.0,,14.0,12.0,29.81,1010.7,,,,,,,,,,,,,,,Clear,72000.0,,,73000,,,,,,
KRDR,07-14-2008,05:00,METAR,,220,4,,,9999.0,,15.0,12.0,29.82,1011.0,,,,,,,,,,,,,,,Clear,72000.0,,,73000,,,,,,
KRDR,07-14-2008,04:00,METAR,,210,5,,,9999.0,,16.0,13.0,29.83,1011.2,,,,,,,,,,,,,,,Clear,72000.0,,,73000,,,,,,
KRDR,07-14-2008,03:00,METAR,,230,3,,,9999.0,,17.0,14.0,29.82,1011.1,,,,,,,,,,,,4.73 IN,,,Clear,72000.0,,,73000,,,,,,
KRDR,07-14-2008,02:00,METAR,,280,3,,,9999.0,,21.0,14.0,29.82,1010.9,,,,,,,,,,,,,,,Clear,72000.0,,,73000,,,,,,
KRDR,07-14-2008,01:00,METAR,,320,5,,,9999.0,,23.0,12.0,29.82,1010.9,,,,,,,,,,,,,,,Clear,72000.0,,,73000,,,,,,
KRDR,07-14-2008,00:00,METAR,,320,12,,,9999.0,,24.0,11.0,29.83,1011.2,,,,,,,,,,,,,,,Clear,72000.0,,,73000,,,,,,
KRDR,07-13-2008,23:00,METAR,,330,11,,,9999.0,,25.0,12.0,29.84,1011.5,,,,,,,,,,,,,,,Clear,72000.0,,,73000,,,,,,
KRDR,07-13-2008,22:00,METAR,,340,11,16.0,,9999.0,,25.0,11.0,29.84,1011.7,,,,,,,,,,,,,,,Clear,72000.0,,,73000,,,,,,
KRDR,07-13-2008,21:00,METAR,,340,10,,,9999.0,,24.0,13.0,29.84,1011.7,,,,,,,,,,,,,,,2/8 Mostly Clear,72000.0,,FEW,6400,,,,,,
KRDR,07-13-2008,20:00,METAR,,330,11,,,9999.0,,24.0,12.0,29.85,1012.0,,,,,,,,,,,,,,,7/8 Mostly Cloudy,6000.0,,BKN,5900,,,,,,
KRDR,07-13-2008,19:00,METAR,,310,12,,,9999.0,,24.0,13.0,29.85,1012.0,,,,,,,,,,,,,,,2/8 Mostly Clear,72000.0,,FEW,6400,,,,,,
KRDR,07-13-2008,18:00,METAR,,310,12,19.0,,9999.0,,23.0,14.0,29.86,1012.2,,,,,,,,,,,,,,,4/8 Partly Cloudy,72000.0,,SCT,4300,,,,,,
KRDR,07-13-2008,17:00,METAR,,300,12,,,9999.0,,22.0,14.0,29.87,1012.4,,,,,,,,,,,,,,,Clear,72000.0,,,73000,,,,,,
KRDR,07-13-2008,16:00,METAR,,300,10,,,9999.0,,21.0,14.0,29.87,1012.6,,,,,,,,,,,,,,,Clear,72000.0,,,73000,,,,,,
KRDR,07-13-2008,15:00,METAR,,310,9,,,9999.0,,19.0,13.0,29.86,1012.3,,,,,,,,,,,,,,,Clear,72000.0,,,73000,,,,,,
KRDR,07-13-2008,14:00,METAR,,300,14,19.0,,9999.0,,18.0,12.0,29.85,1011.9,,,,,,,,,,,,,,,Clear,72000.0,,,73000,,,,,,
KRDR,07-13-2008,13:00,METAR,,300,11,,,9999.0,,17.0,12.0,29.84,1011.5,,,,,,,,,,,,,,,Clear,72000.0,,,73000,,,,,,
KRDR,07-13-2008,12:00,METAR,,300,10,,,9999.0,,15.0,11.0,29.83,1011.3,,,,,,,,,,,,,,IN,Clear,72000.0,,,73000,,,,,,
KRDR,07-13-2008,11:00,METAR,,310,9,,,9999.0,,15.0,11.0,29.82,1010.7,,,,,,,,,,,,,,,Clear,72000.0,,,73000,,,,,,
KRDR,07-13-2008,10:00,METAR,,310,10,,,9999.0,,15.0,11.0,29.81,1010.4,,,,,,,,,,,,,,,Clear,72000.0,,,73000,,,,,,
KRDR,07-13-2008,09:00,METAR,,300,15,21.0,,9999.0,,16.0,11.0,29.79,1009.9,,,,,,,,,,,,,,,Clear,72000.0,,,73000,,,,,,
KRDR,07-13-2008,08:00,METAR,,310,13,19.0,,9999.0,,16.0,11.0,29.78,1009.5,,,,,,,,,,,,,,,Clear,72000.0,,,73000,,,,,,
KRDR,07-13-2008,07:00,METAR,,290,11,,,9999.0,,16.0,11.0,29.78,1009.4,,,,,,,,,,,,,,,2/8 Mostly Clear,72000.0,,FEW,5900,,,,,,
KRDR,07-13-2008,06:00,METAR,,300,15,24.0,,9999.0,,16.0,11.0,29.78,1009.6,,,,,,,,,,,,,,,4/8 Partly Cloudy,72000.0,,SCT,5900,,,,,,
KRDR,07-13-2008,05:42,SPECI,,290,11,17.0,,9999.0,,16.0,12.0,29.78,1009.6,,,,,,,,,,,,,,,7/8 Mostly Cloudy,6000.0,,BKN,5900,,,,,,
KRDR,07-13-2008,05:33,SPECI,,290,12,17.0,,9999.0,,16.0,11.0,29.78,1009.4,,,,,,,,,,,,,,,7/8 Mostly Cloudy,6500.0,,BKN,6400,,,,,,
KRDR,07-13-2008,05:00,METAR,,290,13,18.0,,9999.0,,16.0,11.0,29.78,1009.4,,,,,,,,,,,,,,,2/8 Mostly Clear,72000.0,,FEW,7400,,,,,,
KRDR,07-13-2008,04:00,METAR,,300,16,22.0,290/28KTS,9999.0,,15.0,10.0,29.78,1009.6,,,,,,,,,,,,,,,7/8 Mostly Cloudy,9000.0,,BKN,8900,,,,,,
KRDR,07-13-2008,03:00,METAR,,280,11,19.0,340/29KTS,9999.0,,14.0,10.0,29.78,1009.7,,,,,,,,,,,,,,,2/8 Mostly Clear,72000.0,,FEW,3600,,,,,,
KRDR,07-13-2008,02:00,METAR,,330,18,27.0,310/32KTS,9999.0,,16.0,8.0,29.78,1009.6,,,,,,,,,,,,,,,7/8 Mostly Cloudy,7500.0,,BKN,7400,,,,,,
KRDR,07-13-2008,01:00,METAR,,320,16,28.0,320/32KTS,9999.0,,16.0,9.0,29.78,1009.5,,,,,,,,,,,,,,,7/8 Mostly Cloudy,7000.0,,BKN,6900,,,,,,
KRDR,07-13-2008,00:27,SPECI,,310,21,31.0,320/32KTS,9999.0,,16.0,10.0,29.77,1009.2,,,,,,,,,,,,,,,2/8 Mostly Clear,72000.0,,FEW,3500,,,,,,
KRDR,07-13-2008,00:17,SPECI,,310,20,31.0,320/32KTS,9999.0,,16.0,10.0,29.77,1009.2,,,,,,,,,,,,,,,2/8 Mostly Clear,72000.0,,FEW,4200,,,,,,
KRDR,07-13-2008,00:00,METAR,,310,22,32.0,320/37KTS,9999.0,,16.0,10.0,29.74,1008.7,,,,,,,,,,,TRACE,,.12 IN,,8/8 Overcast,11000.0,,SCT,4800,SCT,7900.0,OVC,11000.0,,
KRDR,07-12-2008,23:03,SPECI,,310,14,27.0,300/27KTS,9999.0,,14.0,10.0,29.73,1008.4,,,,,,,,,,,,,,,8/8 Overcast,7000.0,,FEW,4800,BKN,6900.0,OVC,7900.0,,
KRDR,07-12-2008,23:00,METAR,,300,18,26.0,320/37KTS,9999.0,Rain,14.0,11.0,29.73,1008.3,,,,61,,,,,,,.03 IN,,,,7/8 Mostly Cloudy,6500.0,,SCT,4400,BKN,6400.0,,,,
KRDR,07-12-2008,22:12,SPECI,,300,22,37.0,320/37KTS,9999.0,Rain,15.0,12.0,29.74,1008.3,,,,61,,,,,,,,,,,8/8 Overcast,4700.0,,SCT,3800,BKN,4800.0,OVC,5900.0,,
KRDR,07-12-2008,22:03,SPECI,,320,26,37.0,320/32KTS,4000.0,Rain,16.0,11.0,29.74,1008.3,,,,61,,,,,,,,,,,7/8 Mostly Cloudy,6000.0,,SCT,4600,BKN,5900.0,BKN,7400.0,,
KRDR,07-12-2008,22:00,METAR,,310,17,31.0,300/31KTS,9999.0,,17.0,11.0,29.72,1007.8,,,,,,,,,,,TRACE,,,,8/8 Overcast,4900.0,,SCT,4700,BKN,5000.0,OVC,5900.0,,
KRDR,07-12-2008,21:44,SPECI,,310,20,30.0,320/30KTS,9999.0,,16.0,12.0,29.72,1007.7,,,,,,,,,,,,,,,7/8 Mostly Cloudy,5500.0,,SCT,3500,BKN,5400.0,,,,
KRDR,07-12-2008,21:23,SPECI,,300,19,25.0,310/35KTS,9999.0,Rain,17.0,12.0,29.72,1007.6,,,,61,,,,,,,,,,,8/8 Overcast,5500.0,,SCT,4000,BKN,5400.0,OVC,5900.0,,
KRDR,07-12-2008,21:05,SPECI,,300,19,29.0,,9999.0,,16.0,12.0,29.72,1007.6,,,,,,,,,,,,,,,8/8 Overcast,6000.0,,SCT,2500,OVC,5900.0,,,,
KRDR,07-12-2008,21:00,METAR,,300,17,27.0,280/35KTS,9999.0,Rain,15.0,13.0,29.72,1007.6,,,,61,,,,,,,.09 IN,.09 IN,,,8/8 Overcast,4900.0,,SCT,2500,BKN,5000.0,OVC,7400.0,,
KRDR,07-12-2008,20:30,SPECI,,290,16,35.0,,9999.0,Rain,15.0,13.0,29.71,,,,,61,,,,,,,,,,,7/8 Mostly Cloudy,4100.0,,SCT,2800,BKN,4200.0,BKN,7400.0,,
KRDR,07-12-2008,20:23,SPECI,,300,23,35.0,280/35KTS,2400.0,Heavy Rain,17.0,12.0,29.71,1007.4,,,,65,,,,,,,,,,,7/8 Mostly Cloudy,4300.0,,BKN,4400,,,,,,
KRDR,07-12-2008,20:18,SPECI,,300,16,27.0,290/29KTS,4800.0,Rain,18.0,11.0,29.70,1007.0,,,,63,,,,,,,,,,,7/8 Mostly Cloudy,4900.0,,BKN,5000,,,,,,
KRDR,07-12-2008,20:00,METAR,,290,20,28.0,300/38KTS,9999.0,Rain,15.0,11.0,29.69,1006.6,,,,61,,,,,,,TRACE,,,,7/8 Mostly Cloudy,5500.0,,SCT,3800,BKN,5400.0,BKN,12000.0,,
KRDR,07-12-2008,19:39,SPECI,,290,20,37.0,,9999.0,Rain,17.0,12.0,29.70,,,,,61,,,,,,,,,,,7/8 Mostly Cloudy,5500.0,,FEW,900,SCT,3800.0,BKN,5400.0,,
KRDR,07-12-2008,19:35,SPECI,,300,27,35.0,300/38KTS,9999.0,Rain,18.0,10.0,29.69,1006.7,,,,61,,,,,,,,,,,7/8 Mostly Cloudy,6000.0,,SCT,3800,BKN,5900.0,,,,
KRDR,07-12-2008,19:07,SPECI,,290,23,36.0,,9999.0,Rain,19.0,10.0,29.67,,,,,61,,,,,,,,,,,7/8 Mostly Cloudy,6000.0,,SCT,4500,BKN,5900.0,,,,
KRDR,07-12-2008,19:00,METAR,,290,20,38.0,290/41KTS,9999.0,,19.0,10.0,29.67,1005.9,,,,,,,,,,,,,,,8/8 Overcast,4900.0,,BKN,5000,OVC,25000.0,,,,
KRDR,07-12-2008,18:00,METAR,,290,25,36.0,290/40KTS,9999.0,,19.0,9.0,29.67,1005.9,,,,,,,,,,,,,,,8/8 Overcast,4400.0,,BKN,4500,OVC,25000.0,,,,
KRDR,07-12-2008,17:00,METAR,,280,22,34.0,280/40KTS,9999.0,,19.0,9.0,29.66,1005.8,,,,,,,,,,,,,,,8/8 Overcast,4700.0,,BKN,4800,OVC,25000.0,,,,
KRDR,07-12-2008,16:00,METAR,,280,21,33.0,290/37KTS,9999.0,,20.0,9.0,29.66,1005.7,,,,,,,,,,,,,,,7/8 Mostly Cloudy,25000.0,,SCT,5000,BKN,25000.0,,,,
KRDR,07-12-2008,15:00,METAR,,270,21,33.0,280/34KTS,9999.0,,18.0,9.0,29.68,1006.1,,,,,,,,,,,,,,,4/8 Partly Cloudy,72000.0,,FEW,5000,SCT,25000.0,,,,
KRDR,07-12-2008,14:00,METAR,,270,18,27.0,280/29KTS,9999.0,,17.0,9.0,29.68,1006.4,,,,,,,,,,,,,,,4/8 Partly Cloudy,72000.0,,SCT,25000,,,,,,
KRDR,07-12-2008,13:00,METAR,,260,21,27.0,260/27KTS,9999.0,,16.0,8.0,29.69,1006.5,,,,,,,,,,,,,,,Clear,72000.0,,,73000,,,,,,
KRDR,07-12-2008,12:00,METAR,,260,15,,,9999.0,,15.0,9.0,29.69,1006.8,,,,,,,,,,,,,,,Clear,72000.0,,,73000,,,,,,
KRDR,07-12-2008,11:00,METAR,,260,11,,,9999.0,,14.0,9.0,29.69,1006.5,,,,,,,,,,,,,,,Clear,72000.0,,,73000,,,,,,
KRDR,07-12-2008,10:00,METAR,,260,10,18.0,,9999.0,,15.0,9.0,29.69,1006.6,,,,,,,,,,,,,,,Clear,72000.0,,,73000,,,,,,
KRDR,07-12-2008,09:00,METAR,,280,16,20.0,,9999.0,,16.0,9.0,29.69,1006.7,,,,,,,,,,,,,,,Clear,72000.0,,,73000,,,,,,
KRDR,07-12-2008,08:00,METAR,,260,10,,,9999.0,,15.0,9.0,29.71,1007.2,,,,,,,,,,,,,,,Clear,72000.0,,,73000,,,,,,
KRDR,07-12-2008,07:00,METAR,,270,13,19.0,,9999.0,,16.0,9.0,29.71,1007.3,,,,,,,,,,,,,,,Clear,72000.0,,,73000,,,,,,
KRDR,07-12-2008,06:00,METAR,,280,16,20.0,,9999.0,,16.0,9.0,29.70,1006.8,,,,,,,,,,,,,,,Clear,72000.0,,,73000,,,,,,
KRDR,07-12-2008,05:00,METAR,,280,13,20.0,,9999.0,,17.0,9.0,29.70,1006.8,,,,,,,,,,,,,,,Clear,72000.0,,,73000,,,,,,
KRDR,07-12-2008,04:00,METAR,,290,14,21.0,,9999.0,,17.0,9.0,29.69,1006.6,,,,,,,,,,,,,,,Clear,72000.0,,,73000,,,,,,
KRDR,07-12-2008,03:00,METAR,,290,12,20.0,290/33KTS,9999.0,,17.0,9.0,29.67,1005.9,,,,,,,,,,,,,,,2/8 Mostly Clear,72000.0,,FEW,3500,,,,,,
KRDR,07-12-2008,02:00,METAR,,290,21,28.0,290/40KTS,9999.0,,18.0,9.0,29.65,1005.1,,,,,,,,,,,,,,,2/8 Mostly Clear,72000.0,,FEW,3500,,,,,,
KRDR,07-12-2008,01:00,METAR,,290,21,29.0,300/30KTS,9999.0,,23.0,7.0,29.61,1004.1,,,,,,,,,,,,,,,2/8 Mostly Clear,72000.0,,FEW,3500,,,,,,
KRDR,07-12-2008,00:00,METAR,,300,20,30.0,290/32KTS,9999.0,,24.0,9.0,29.58,1002.9,,,,,,,,,,,,,,,2/8 Mostly Clear,72000.0,,FEW,6900,,,,,,
KRDR,07-11-2008,23:00,METAR,,300,20,29.0,290/35KTS,9999.0,,25.0,11.0,29.56,1002.4,,,,,,,,,,,,,,,2/8 Mostly Clear,72000.0,,FEW,6900,,,,,,
KRDR,07-11-2008,22:00,METAR,,300,22,34.0,310/36KTS,9999.0,,25.0,15.0,29.50,1000.5,,,,,,,,,,,,,,,2/8 Mostly Clear,72000.0,,FEW,3300,,,,,,
KRDR,07-11-2008,21:00,METAR,,310,21,27.0,310/27KTS,9999.0,,28.0,21.0,29.48,999.7,,,,,,,,,,,,,,,4/8 Partly Cloudy,72000.0,,FEW,3100,SCT,5400.0,,,,
KRDR,07-11-2008,20:00,METAR,,290,16,25.0,,9999.0,,29.0,22.0,29.45,998.6,,,,,,,,,,,,,,,7/8 Mostly Cloudy,5500.0,,SCT,2000,BKN,5400.0,,,,
KRDR,07-11-2008,19:00,METAR,,10,8,,,9999.0,,28.0,23.0,29.42,997.8,,,,,,,,,,,,,,,7/8 Mostly Cloudy,6000.0,,SCT,2500,BKN,5900.0,,,,
KRDR,07-11-2008,18:00,METAR,,90,9,,,9999.0,,26.0,21.0,29.42,997.6,,,,,,,,,,,,,,,7/8 Mostly Cloudy,10000.0,,SCT,2500,BKN,9900.0,BKN,25000.0,,
KRDR,07-11-2008,17:00,METAR,,100,7,,,9999.0,,24.0,20.0,29.43,998.2,,,,,,,,,,,,,,,8/8 Overcast,2800.0,,BKN,2800,OVC,9900.0,,,,
KRDR,07-11-2008,16:00,METAR,,130,12,,,9999.0,,24.0,20.0,29.46,998.9,,,,,,,,,,,,,,,7/8 Mostly Cloudy,2000.0,,BKN,2000,BKN,12000.0,,,,
KRDR,07-11-2008,15:46,SPECI,,130,12,,,9999.0,,24.0,20.0,29.47,,,,,,,,,,,,,,,,7/8 Mostly Cloudy,2000.0,,BKN,2000,BKN,12000.0,,,,
KRDR,07-11-2008,15:00,METAR,,90,6,,,9999.0,,21.0,19.0,29.46,999.2,,,,,,,,,,,,.12 IN,,,7/8 Mostly Cloudy,10000.0,,SCT,2200,BKN,9900.0,BKN,20000.0,,
KRDR,07-11-2008,14:39,SPECI,,100,10,,,9999.0,,20.0,18.0,29.47,999.4,,,,,,,,,,,,,,,7/8 Mostly Cloudy,10000.0,,SCT,2100,BKN,9900.0,BKN,20000.0,,
KRDR,07-11-2008,14:13,SPECI,,70,6,,,9999.0,,19.0,18.0,29.49,1000.0,,,,,,,,,,,,,,,7/8 Mostly Cloudy,2000.0,,FEW,1000,BKN,2000.0,,,,
KRDR,07-11-2008,14:00,METAR,,80,8,,,9999.0,,18.0,17.0,29.49,1000.1,,,,,,,,,,,.02 IN,,,,7/8 Mostly Cloudy,20000.0,,FEW,2100,SCT,9900.0,BKN,20000.0,,
KRDR,07-11-2008,13:36,SPECI,,70,5,,,9999.0,,18.0,17.0,29.50,1000.3,,,,,,,,,,,,,,,7/8 Mostly Cloudy,20000.0,,FEW,2000,SCT,6900.0,BKN,20000.0,,
KRDR,07-11-2008,13:00,METAR,,10,5,,,9999.0,Thunderstorm with Rain or Snow/Light Rain Showers/Mist,18.0,17.0,29.53,1001.5,,,,95,80,10,,,,,.1 IN,,,,7/8 Mostly Cloudy,8000.0,,SCT,2000,BKN,7900.0,BKN,18000.0,,
KRDR,07-11-2008,12:23,SPECI,,,0,,,9999.0,Thunderstorm with Rain or Snow/Light Rain Showers,19.0,16.0,29.56,1002.2,,,,95,80,,,,,,,,,,7/8 Mostly Cloudy,8000.0,,FEW,1800,BKN,7900.0,BKN,18000.0,,
KRDR,07-11-2008,12:10,SPECI,,10,3,,,9999.0,Light Rain Showers/Thunderstorm,19.0,16.0,29.54,1001.7,,,,17,80,,,,,,,,,,7/8 Mostly Cloudy,20000.0,,FEW,2000,SCT,7900.0,BKN,20000.0,,
KRDR,07-11-2008,12:00,METAR,,90,6,,,9999.0,,19.0,16.0,29.52,1000.9,,,,,,,,,,,,,,.01 IN,7/8 Mostly Cloudy,25000.0,,FEW,4000,SCT,9900.0,BKN,25000.0,,
KRDR,07-11-2008,11:00,METAR,,150,10,,,9999.0,,18.0,15.0,29.53,1001.3,,,,,,,,,,,,,,,Clear,72000.0,,,73000,,,,,,
KRDR,07-11-2008,10:00,METAR,,130,6,,,9999.0,,18.0,16.0,29.56,1002.3,,,,,,,,,,,,,,,Clear,72000.0,,,73000,,,,,,
KRDR,07-11-2008,09:00,METAR,,140,10,,,9999.0,,18.0,16.0,29.58,1002.8,,,,,,,,,,,,,,,Clear,72000.0,,,73000,,,,,,
KRDR,07-11-2008,08:00,METAR,,150,10,,,9999.0,,19.0,17.0,29.59,1003.4,,,,,,,,,,,,,,,Clear,72000.0,,,73000,,,,,,
KRDR,07-11-2008,07:00,METAR,,130,6,,,9999.0,,20.0,19.0,29.61,1004.0,,,,,,,,,,,,,,,4/8 Partly Cloudy,72000.0,,FEW,6900,SCT,25000.0,,,,
KRDR,07-11-2008,06:00,METAR,,130,13,,,9999.0,,21.0,19.0,29.61,1004.0,,,,,,,,,,,,,,,7/8 Mostly Cloudy,25000.0,,FEW,6900,SCT,12000.0,BKN,25000.0,,
KRDR,07-11-2008,05:00,METAR,,120,13,,,9999.0,,22.0,19.0,29.65,1005.2,,,,,,,,,,,,,,,4/8 Partly Cloudy,72000.0,,FEW,3200,SCT,25000.0,,,,
KRDR,07-11-2008,04:00,METAR,,130,10,,,9999.0,,23.0,19.0,29.68,1006.2,,,,,,,,,,,,,,,7/8 Mostly Cloudy,25000.0,,SCT,3200,BKN,25000.0,,,,
KRDR,07-11-2008,03:00,METAR,,110,8,,,9999.0,,23.0,18.0,29.68,1006.2,,,,,,,,,,,,,,,7/8 Mostly Cloudy,25000.0,,SCT,3000,BKN,25000.0,,,,
KRDR,07-11-2008,02:00,METAR,,140,13,,,9999.0,,24.0,18.0,29.69,1006.5,,,,,,,,,,,,,,,7/8 Mostly Cloudy,25000.0,,SCT,3600,BKN,25000.0,,,,
KRDR,07-11-2008,01:00,METAR,,120,9,,,9999.0,,25.0,18.0,29.72,1007.5,,,,,,,,,,,,,,,7/8 Mostly Cloudy,9000.0,,BKN,8900,BKN,25000.0,,,,
KRDR,07-11-2008,00:00,METAR,,130,11,,,9999.0,,26.0,18.0,29.72,1007.7,,,,,,,,,,,,,,,7/8 Mostly Cloudy,25000.0,,FEW,8900,BKN,25000.0,,,,
KRDR,07-10-2008,23:00,METAR,,110,11,,,9999.0,,26.0,18.0,29.74,1008.1,,,,,,,,,,,,,,,7/8 Mostly Cloudy,25000.0,,SCT,3900,BKN,25000.0,,,,
KRDR,07-10-2008,22:00,METAR,,120,12,,,9999.0,,26.0,17.0,29.75,1008.5,,,,,,,,,,,,,,,7/8 Mostly Cloudy,3600.0,,BKN,3700,BKN,25000.0,,,,
KRDR,07-10-2008,21:00,METAR,,120,13,,,9999.0,,26.0,17.0,29.76,1008.9,,,,,,,,,,,,,,,7/8 Mostly Cloudy,3700.0,,BKN,3800,BKN,25000.0,,,,
KRDR,07-10-2008,20:19,SPECI,,130,7,,,9999.0,,25.0,17.0,29.77,,,,,,,,,,,,,,,,7/8 Mostly Cloudy,3400.0,,BKN,3500,,,,,,
KRDR,07-10-2008,20:00,METAR,,100,10,,,9999.0,,25.0,16.0,29.78,1009.6,,,,,,,,,,,,,,,7/8 Mostly Cloudy,2900.0,,BKN,2900,BKN,12000.0,,,,
KRDR,07-10-2008,19:00,METAR,,90,4,,,9999.0,,24.0,17.0,29.80,1010.4,,,,,,,,,,,,,,,7/8 Mostly Cloudy,2800.0,,BKN,2800,BKN,12000.0,,,,
KRDR,07-10-2008,18:00,METAR,,130,5,,,9999.0,,24.0,17.0,29.82,1010.7,,,,,,,,,,,,,,,7/8 Mostly Cloudy,2700.0,,BKN,2700,BKN,12000.0,,,,
KRDR,07-10-2008,17:00,METAR,,110,6,,,9999.0,,22.0,17.0,29.83,1011.1,,,,,,,,,,,,,,,7/8 Mostly Cloudy,1800.0,,BKN,1800,,,,,,
KRDR,07-10-2008,16:00,METAR,,100,9,,,9999.0,,21.0,17.0,29.82,1011.0,,,,,,,,,,,,,,,7/8 Mostly Cloudy,1500.0,,BKN,1500,,,,,,
KRDR,07-10-2008,15:27,SPECI,,100,5,,,9999.0,,20.0,17.0,29.83,1011.2,,,,,,,,,,,,,,,7/8 Mostly Cloudy,1500.0,,BKN,1500,,,,,,
KRDR,07-10-2008,15:00,METAR,,30,5,,,9999.0,,19.0,18.0,29.83,1011.1,,,,,,,,,,,,TRACE,,,7/8 Mostly Cloudy,10000.0,,SCT,700,BKN,9900.0,,,,
KRDR,07-10-2008,14:00,METAR,,90,4,,,9999.0,Mist,17.0,17.0,29.81,1010.6,,,,10,,,,,,,TRACE,,,,7/8 Mostly Cloudy,20000.0,,FEW,400,SCT,9900.0,BKN,20000.0,,
KRDR,07-10-2008,13:20,SPECI,,350,5,,,6400.0,Mist,17.0,16.0,29.84,1011.5,,,,10,,,,,,,,,,,7/8 Mostly Cloudy,9000.0,,SCT,300,BKN,8900.0,BKN,20000.0,,
KRDR,07-10-2008,13:06,SPECI,,,0,,,6400.0,Drizzle/Mist,16.0,16.0,29.85,1011.9,,,,51,10,,,,,,,,,,8/8 Overcast,9000.0,,SCT,300,OVC,8900.0,,,,
KRDR,07-10-2008,13:00,METAR,,280,8,,,6400.0,Mist,17.0,16.0,29.89,1013.1,,,,10,,,,,,,,,,,7/8 Mostly Cloudy,9000.0,,SCT,300,BKN,8900.0,,,,
KRDR,07-10-2008,12:43,SPECI,,260,5,,,8000.0,Mist,17.0,17.0,29.86,1012.3,,,,10,,,,,,,,,,,7/8 Mostly Cloudy,10000.0,,FEW,300,BKN,9900.0,BKN,20000.0,,
KRDR,07-10-2008,12:00,METAR,,90,5,,,9999.0,Mist,16.0,16.0,29.81,1010.6,,,,10,,,,,,,.01 IN,,.01 IN,.01 IN,7/8 Mostly Cloudy,20000.0,,FEW,1000,SCT,8900.0,BKN,20000.0,,
KRDR,07-10-2008,11:45,SPECI,,100,6,,,6400.0,Mist,16.0,16.0,29.81,1010.5,,,,10,,,,,,,,,,,7/8 Mostly Cloudy,20000.0,,FEW,1000,SCT,8900.0,BKN,20000.0,,
KRDR,07-10-2008,11:31,SPECI,,200,6,,,6400.0,Light Rain Showers/Mist,16.0,16.0,29.85,1012.0,,,,80,10,,,,,,,,,,7/8 Mostly Cloudy,9000.0,,SCT,2900,BKN,8900.0,BKN,20000.0,,
KRDR,07-10-2008,11:12,SPECI,,270,5,,,6400.0,Thunderstorm with Rain or Snow/Light Rain Showers/Mist,15.0,15.0,29.87,1012.6,,,,95,80,10,,,,,,,,,7/8 Mostly Cloudy,9000.0,,FEW,1000,BKN,8900.0,,,,
KRDR,07-10-2008,11:00,METAR,,,0,,,9999.0,Light Rain Showers,15.0,15.0,29.85,1012.0,,,,80,,,,,,,,,,,7/8 Mostly Cloudy,10000.0,,FEW,5900,BKN,9900.0,BKN,20000.0,,
KRDR,07-10-2008,10:00,METAR,,80,3,,,9999.0,,16.0,16.0,29.82,1011.0,,,,,,,,,,,TRACE,,,,7/8 Mostly Cloudy,10000.0,,BKN,9900,,,,,,
KRDR,07-10-2008,09:40,SPECI,,100,3,,,9999.0,,16.0,16.0,29.82,1010.9,,,,,,,,,,,,,,,7/8 Mostly Cloudy,20000.0,,FEW,5900,SCT,9900.0,BKN,20000.0,,
KRDR,07-10-2008,09:08,SPECI,,10,4,,,9999.0,,16.0,15.0,29.85,1011.8,,,,,,,,,,,,,,,2/8 Mostly Clear,72000.0,,FEW,11000,,,,,,
KRDR,07-10-2008,09:00,METAR,,50,4,,,9999.0,,16.0,15.0,29.84,1011.5,,,,,,,,,,,,,,,7/8 Mostly Cloudy,11000.0,,BKN,11000,,,,,,
KRDR,07-10-2008,08:00,METAR,,130,4,,,9999.0,,17.0,16.0,29.85,1011.9,,,,,,,,,,,,,,,2/8 Mostly Clear,72000.0,,FEW,11000,,,,,,
KRDR,07-10-2008,07:00,METAR,,90,4,,,9999.0,,16.0,15.0,29.85,1011.9,,,,,,,,,,,,,,,7/8 Mostly Cloudy,12000.0,,BKN,12000,,,,,,
KRDR,07-10-2008,06:00,METAR,,140,3,,,9999.0,,15.0,13.0,29.87,1012.5,,,,,,,,,,,,,,,4/8 Partly Cloudy,72000.0,,SCT,9900,,,,,,
KRDR,07-10-2008,03:00,METAR,,,0,,,9999.0,,19.0,14.0,29.88,1013.0,,,,,,,,,,,,,,,7/8 Mostly Cloudy,10000.0,,BKN,9900,BKN,25000.0,,,,
KRDR,07-10-2008,02:00,METAR,,40,4,,,9999.0,,21.0,14.0,29.87,1012.6,,,,,,,,,,,,,,,7/8 Mostly Cloudy,25000.0,,SCT,9900,BKN,25000.0,,,,
KRDR,07-10-2008,01:00,METAR,,30,8,,,9999.0,,23.0,15.0,29.85,1012.0,,,,,,,,,,,,,,,2/8 Mostly Clear,72000.0,,FEW,9400,,,,,,
KRDR,07-10-2008,00:00,METAR,,10,9,,,9999.0,,24.0,15.0,29.85,1012.0,,,,,,,,,,,,,,,4/8 Partly Cloudy,72000.0,,FEW,9900,SCT,25000.0,,,,
KRDR,07-09-2008,23:00,METAR,,350,8,,,9999.0,,25.0,14.0,29.87,1012.5,,,,,,,,,,,,,,,7/8 Mostly Cloudy,25000.0,,SCT,8900,BKN,25000.0,,,,
KRDR,07-09-2008,22:00,METAR,,310,8,,,9999.0,,26.0,15.0,29.88,1012.9,,,,,,,,,,,,,,,7/8 Mostly Cloudy,25000.0,,SCT,8900,BKN,25000.0,,,,
KRDR,07-09-2008,21:24,SPECI,,320,8,,,9999.0,Thunderstorm,26.0,14.0,29.88,,,,,17,,,,,,,,,,,7/8 Mostly Cloudy,9000.0,,BKN,8900,,,,,,
KRDR,07-09-2008,21:00,METAR,,320,8,,,9999.0,,26.0,14.0,29.88,1012.8,,,,,,,,,,,,,,,7/8 Mostly Cloudy,9000.0,,BKN,8900,,,,,,
KRDR,07-09-2008,20:00,METAR,,300,8,15.0,,9999.0,,27.0,14.0,29.89,1013.1,,,,,,,,,,,,,,,7/8 Mostly Cloudy,25000.0,,SCT,5400,BKN,25000.0,,,,
KRDR,07-09-2008,19:00,METAR,,300,8,,,9999.0,,26.0,14.0,29.90,1013.5,,,,,,,,,,,,,,,4/8 Partly Cloudy,72000.0,,FEW,5400,FEW,9900.0,SCT,25000.0,,
KRDR,07-09-2008,18:00,METAR,,280,11,20.0,,9999.0,,25.0,13.0,29.90,1013.7,,,,,,,,,,,,,,,2/8 Mostly Clear,72000.0,,FEW,7900,,,,,,
KRDR,07-09-2008,17:00,METAR,,290,9,,,9999.0,,25.0,13.0,29.91,1013.9,,,,,,,,,,,,,,,4/8 Partly Cloudy,72000.0,,SCT,8400,SCT,25000.0,,,,
KRDR,07-09-2008,16:00,METAR,,270,10,,,9999.0,,23.0,14.0,29.92,1014.2,,,,,,,,,,,,,,,7/8 Mostly Cloudy,8500.0,,BKN,8400,BKN,25000.0,,,,
KRDR,07-09-2008,15:00,METAR,,240,4,,,9999.0,,20.0,13.0,29.93,1014.6,,,,,,,,,,,,,,,4/8 Partly Cloudy,72000.0,,FEW,6900,SCT,25000.0,,,,
KRDR,07-09-2008,14:00,METAR,,230,6,,,9999.0,,19.0,12.0,29.93,1014.6,,,,,,,,,,,,,,,7/8 Mostly Cloudy,25000.0,,FEW,5900,BKN,25000.0,,,,
KRDR,07-09-2008,13:00,METAR,,270,7,,,9999.0,,16.0,13.0,29.93,1014.6,,,,,,,,,,,,,,,2/8 Mostly Clear,72000.0,,FEW,18000,,,,,,
KRDR,07-09-2008,12:00,METAR,,280,3,,,9999.0,,12.0,11.0,29.93,1014.5,,,,,,,,,,,,,,,2/8 Mostly Clear,72000.0,,FEW,18000,,,,,,
KRDR,07-09-2008,11:00,METAR,,230,4,,,9999.0,,10.0,9.0,29.93,1014.4,,,,,,,,,,,,,,,2/8 Mostly Clear,72000.0,,FEW,20000,,,,,,
KRDR,07-09-2008,10:00,METAR,,250,4,,,9999.0,,12.0,11.0,29.92,1014.2,,,,,,,,,,,,,,,Clear,72000.0,,,73000,,,,,,
KRDR,07-09-2008,09:00,METAR,,270,5,,,9999.0,,11.0,10.0,29.92,1014.3,,,,,,,,,,,,,,,Clear,72000.0,,,73000,,,,,,
KRDR,07-09-2008,08:00,METAR,,230,4,,,9999.0,,11.0,10.0,29.92,1014.2,,,,,,,,,,,,,,,Clear,72000.0,,,73000,,,,,,
KRDR,07-09-2008,07:00,METAR,,210,5,,,9999.0,,12.0,11.0,29.92,1014.2,,,,,,,,,,,,,,,Clear,72000.0,,,73000,,,,,,
KRDR,07-09-2008,06:00,METAR,,230,4,,,9999.0,,12.0,11.0,29.92,1014.1,,,,,,,,,,,,,TRACE,,2/8 Mostly Clear,72000.0,,FEW,11000,FEW,20000.0,,,,
KRDR,07-09-2008,05:00,METAR,,220,6,,,9999.0,,14.0,12.0,29.92,1014.3,,,,,,,,,,,TRACE,,,,4/8 Partly Cloudy,72000.0,,FEW,7900,FEW,11000.0,SCT,20000.0,,
KRDR,07-09-2008,04:26,SPECI,,200,4,,,9999.0,,15.0,13.0,29.92,,,,,,,,,,,,,,,,7/8 Mostly Cloudy,20000.0,,FEW,7900,SCT,9900.0,BKN,20000.0,,
KRDR,07-09-2008,04:00,METAR,,210,3,,,9999.0,Rain,15.0,12.0,29.92,1014.2,,,,61,,,,,,,,,,,7/8 Mostly Cloudy,8000.0,,FEW,6400,BKN,7900.0,BKN,20000.0,,
KRDR,07-09-2008,03:00,METAR,,110,4,,,9999.0,,17.0,11.0,29.91,1013.8,,,,,,,,,,,,,,,4/8 Partly Cloudy,72000.0,,FEW,5400,SCT,9900.0,SCT,20000.0,,
KRDR,07-09-2008,02:00,METAR,,60,6,,,9999.0,,19.0,11.0,29.90,1013.5,,,,,,,,,,,,,,,4/8 Partly Cloudy,72000.0,,FEW,5400,FEW,7900.0,SCT,20000.0,,
KRDR,07-09-2008,01:00,METAR,,350,7,,,9999.0,,20.0,11.0,29.89,1013.2,,,,,,,,,,,,,,,4/8 Partly Cloudy,72000.0,,FEW,5400,FEW,7900.0,SCT,25000.0,,
KRDR,07-09-2008,00:00,METAR,,340,8,,,9999.0,,21.0,11.0,29.89,1013.2,,,,,,,,,,,,,,,7/8 Mostly Cloudy,8000.0,,SCT,5400,BKN,7900.0,BKN,25000.0,,
KRDR,07-08-2008,23:00,METAR,,340,12,18.0,,9999.0,,22.0,11.0,29.89,1013.3,,,,,,,,,,,,,,,7/8 Mostly Cloudy,7000.0,,SCT,4500,BKN,6900.0,,,,
KRDR,07-08-2008,22:00,METAR,,340,12,19.0,,9999.0,,21.0,11.0,29.89,1013.2,,,,,,,,,,,,,,,7/8 Mostly Cloudy,4700.0,,BKN,4800,,,,,,
KRDR,07-08-2008,21:00,METAR,,320,13,20.0,,9999.0,,21.0,10.0,29.90,1013.5,,,,,,,,,,,,,,,7/8 Mostly Cloudy,4500.0,,BKN,4600,,,,,,
KRDR,07-08-2008,20:00,METAR,,320,12,19.0,,9999.0,,20.0,10.0,29.90,1013.4,,,,,,,,,,,,,,,7/8 Mostly Cloudy,3900.0,,BKN,4000,,,,,,
KRDR,07-08-2008,19:00,METAR,,330,13,18.0,,9999.0,,19.0,11.0,29.89,1013.3,,,,,,,,,,,,,,,7/8 Mostly Cloudy,3800.0,,BKN,3900,,,,,,
KRDR,07-08-2008,18:00,METAR,,330,17,22.0,,9999.0,,19.0,10.0,29.88,1013.0,,,,,,,,,,,,,,,7/8 Mostly Cloudy,3700.0,,BKN,3800,,,,,,
KRDR,07-08-2008,17:00,METAR,,310,12,21.0,,9999.0,,18.0,10.0,29.88,1012.9,,,,,,,,,,,,,,,7/8 Mostly Cloudy,3300.0,,BKN,3400,,,,,,
KRDR,07-08-2008,16:00,METAR,,310,16,21.0,,9999.0,,17.0,10.0,29.87,1012.7,,,,,,,,,,,,,,,7/8 Mostly Cloudy,3100.0,,BKN,3200,,,,,,
KRDR,07-08-2008,15:00,METAR,,310,13,21.0,320/26KTS,9999.0,,16.0,10.0,29.85,1012.0,,,,,,,,,,,,,,,7/8 Mostly Cloudy,25000.0,,SCT,2600,BKN,25000.0,,,,
KRDR,07-08-2008,14:00,METAR,,310,17,29.0,320/29KTS,9999.0,,15.0,9.0,29.82,1010.9,,,,,,,,,,,,,,,4/8 Partly Cloudy,72000.0,,FEW,2200,SCT,25000.0,,,,
KRDR,07-08-2008,13:00,METAR,,310,16,20.0,,9999.0,,14.0,9.0,29.80,1010.3,,,,,,,,,,,,,,,2/8 Mostly Clear,72000.0,,FEW,2200,FEW,25000.0,,,,
KRDR,07-08-2008,12:00,METAR,,310,10,18.0,,9999.0,,13.0,9.0,29.80,1010.1,,,,,,,,,,,,,,,2/8 Mostly Clear,72000.0,,FEW,2200,FEW,25000.0,,,,
KRDR,07-08-2008,11:00,METAR,,300,13,17.0,,9999.0,,13.0,9.0,29.78,1009.6,,,,,,,,,,,,,,,2/8 Mostly Clear,72000.0,,FEW,2100,,,,,,
KRDR,07-08-2008,10:00,METAR,,310,10,,,9999.0,,13.0,10.0,29.76,1008.8,,,,,,,,,,,,,,,Clear,72000.0,,,73000,,,,,,
KRDR,07-08-2008,09:00,METAR,,290,14,21.0,290/26KTS,9999.0,,13.0,10.0,29.75,1008.5,,,,,,,,,,,,,,,Clear,72000.0,,,73000,,,,,,
KRDR,07-08-2008,08:00,METAR,,300,11,,,9999.0,,14.0,11.0,29.73,1007.9,,,,,,,,,,,,,,,Clear,72000.0,,,73000,,,,,,
KRDR,07-08-2008,07:00,METAR,,290,7,,,9999.0,,16.0,12.0,29.73,1007.9,,,,,,,,,,,,,,,Clear,72000.0,,,73000,,,,,,
KRDR,07-08-2008,06:00,METAR,,290,7,,,9999.0,,15.0,12.0,29.72,1007.6,,,,,,,,,,,,,,,Clear,72000.0,,,73000,,,,,,
KRDR,07-08-2008,05:00,METAR,,230,7,,,9999.0,,15.0,13.0,29.70,1007.0,,,,,,,,,,,,,,,Clear,72000.0,,,73000,,,,,,
KRDR,07-08-2008,04:00,METAR,,260,6,,,9999.0,,16.0,13.0,29.69,1006.5,,,,,,,,,,,,,,,2/8 Mostly Clear,72000.0,,FEW,6900,,,,,,
KRDR,07-08-2008,03:00,METAR,,270,7,,,9999.0,,19.0,14.0,29.69,1006.5,,,,,,,,,,,,,,,2/8 Mostly Clear,72000.0,,FEW,6900,FEW,20000.0,,,,
KRDR,07-08-2008,02:00,METAR,,280,9,,,9999.0,,22.0,15.0,29.68,1006.3,,,,,,,,,,,,,,,2/8 Mostly Clear,72000.0,,FEW,5400,,,,,,
KRDR,07-08-2008,01:00,METAR,,220,5,,,9999.0,,22.0,18.0,29.67,1006.0,,,,,,,,,,,,,,,4/8 Partly Cloudy,72000.0,,FEW,3900,SCT,5400.0,,,,
KRDR,07-08-2008,00:00,METAR,,160,7,,,9999.0,,22.0,18.0,29.65,1005.5,,,,,,,,,,,TRACE,,TRACE,,7/8 Mostly Cloudy,25000.0,,SCT,1500,SCT,5900.0,BKN,25000.0,,
KRDR,07-07-2008,23:00,METAR,,110,7,,,9999.0,,20.0,18.0,29.67,1005.8,,,,,,,,,,,TRACE,,,,7/8 Mostly Cloudy,1500.0,,BKN,1500,BKN,5900.0,BKN,25000.0,,
KRDR,07-07-2008,22:25,SPECI,,,3,,,9999.0,Thunderstorm with Rain or Snow/Light Rain Showers,20.0,18.0,29.66,,,,,95,80,,,,,,,,,,7/8 Mostly Cloudy,1400.0,,BKN,1400,BKN,2000.0,BKN,5900.0,,
KRDR,07-07-2008,22:00,METAR,,150,6,,,9999.0,,20.0,18.0,29.69,1006.7,,,,,,,,,,,,,,,7/8 Mostly Cloudy,1000.0,,BKN,1400,BKN,5900.0,,,,
KRDR,07-07-2008,21:00,METAR,,180,5,,,9999.0,,20.0,17.0,29.70,1007.0,,,,,,,,,,,,.04 IN,,,8/8 Overcast,900.0,,BKN,900,OVC,1200.0,,,,
KRDR,07-07-2008,20:32,SPECI,,150,5,,,9999.0,,19.0,17.0,29.71,,,,,,,,,,,,,,,,8/8 Overcast,800.0,,BKN,800,OVC,1100.0,,,,
KRDR,07-07-2008,20:00,METAR,,170,4,,,9999.0,,19.0,17.0,29.73,1007.9,,,,,,,,,,,,,,,8/8 Overcast,700.0,,BKN,700,OVC,3000.0,,,,
KRDR,07-07-2008,19:33,SPECI,,180,3,,,9999.0,,18.0,17.0,29.74,,,,,,,,,,,,,,,,7/8 Mostly Cloudy,700.0,,BKN,700,,,,,,
KRDR,07-07-2008,19:00,METAR,,150,4,,,9999.0,,17.0,17.0,29.74,1008.5,,,,,,,,,,,.04 IN,,,,8/8 Overcast,3000.0,,SCT,500,OVC,3000.0,,,,
KRDR,07-07-2008,18:00,METAR,,140,17,,,8000.0,Rain/Mist,16.0,16.0,29.72,1007.5,,,,63,10,,,,,,.1 IN,,1.13 IN,,8/8 Overcast,3100.0,,SCT,600,OVC,3200.0,,,,
KRDR,07-07-2008,17:00,METAR,,120,5,,,8000.0,Rain/Mist,15.0,15.0,29.78,1009.5,,,,61,10,,,,,,.2 IN,,,,8/8 Overcast,4400.0,,SCT,1200,FEW,3000.0,OVC,4500.0,,
KRDR,07-07-2008,16:00,METAR,,40,5,,,6400.0,Rain/Mist,14.0,14.0,29.78,1009.6,,,,61,10,,,,,,.11 IN,,,,8/8 Overcast,4400.0,,FEW,400,SCT,1600.0,OVC,4500.0,,
KRDR,07-07-2008,15:00,METAR,,50,5,,,9999.0,Rain/Mist,14.0,13.0,29.80,1010.4,,,,61,10,,,,,,.07 IN,.72 IN,,,8/8 Overcast,4400.0,,SCT,1600,OVC,4500.0,,,,
KRDR,07-07-2008,14:00,METAR,,10,6,,,6400.0,Rain/Mist,13.0,13.0,29.84,1011.5,,,,63,10,,,,,,.37 IN,,,,8/8 Overcast,4400.0,,FEW,2500,OVC,4500.0,,,,
KRDR,07-07-2008,13:15,SPECI,,20,10,,,4800.0,Heavy Rain/Mist,13.0,13.0,29.84,1011.5,,,,65,10,,,,,,,,,,8/8 Overcast,2000.0,,FEW,300,BKN,2000.0,OVC,5400.0,,
KRDR,07-07-2008,13:03,SPECI,,360,8,,,4800.0,Thunderstorm with Rain or Snow/Light Rain Showers/Mist,13.0,13.0,29.85,,,,,95,80,10,,,,,,,,,8/8 Overcast,3600.0,,SCT,1400,BKN,3700.0,OVC,5000.0,,
KRDR,07-07-2008,13:00,METAR,,360,7,,,4800.0,Thunderstorm with Rain or Snow/Light Rain Showers/Mist,13.0,13.0,29.85,1012.0,,,,95,80,10,,,,,.28 IN,,,,8/8 Overcast,4900.0,,FEW,1000,SCT,2600.0,OVC,5000.0,,
KRDR,07-07-2008,12:38,SPECI,,350,8,,,4800.0,Rain/Thunderstorm,14.0,13.0,29.85,,,,,17,63,,,,,,,,,,7/8 Mostly Cloudy,4900.0,,FEW,1600,SCT,4000.0,BKN,5000.0,,
KRDR,07-07-2008,12:30,SPECI,,330,7,,,6400.0,Rain/Mist,13.0,12.0,29.85,,,,,61,10,,,,,,,,,,8/8 Overcast,4900.0,,FEW,1600,BKN,5000.0,OVC,6900.0,,
KRDR,07-07-2008,12:06,SPECI,,320,11,,,9999.0,Rain,13.0,12.0,29.84,,,,,61,,,,,,,,,,,8/8 Overcast,7500.0,,FEW,2500,BKN,7400.0,BKN,12000.0,OVC,25000.0
KRDR,07-07-2008,12:00,METAR,,320,9,,,9999.0,,14.0,12.0,29.83,1011.2,,,,,,,,,,,,,,,8/8 Overcast,7500.0,,FEW,2500,BKN,7400.0,BKN,12000.0,OVC,25000.0
KRDR,07-07-2008,11:00,METAR,,80,5,,,9999.0,,14.0,12.0,29.81,1010.6,,,,,,,,,,,,,,,7/8 Mostly Cloudy,12000.0,,FEW,5900,BKN,12000.0,BKN,25000.0,,
KRDR,07-07-2008,10:00,METAR,,70,4,,,9999.0,,13.0,11.0,29.84,1011.7,,,,,,,,,,,,,,,Clear,72000.0,,,73000,,,,,,
KRDR,07-07-2008,09:00,METAR,,60,4,,,9999.0,,14.0,11.0,29.86,1012.3,,,,,,,,,,,,,,,Clear,72000.0,,,73000,,,,,,
KRDR,07-07-2008,08:00,METAR,,50,3,,,9999.0,,14.0,11.0,29.86,1012.3,,,,,,,,,,,,,,,Clear,72000.0,,,73000,,,,,,
KRDR,07-07-2008,07:00,METAR,,40,4,,,9999.0,,15.0,12.0,29.88,1012.9,,,,,,,,,,,,,,,Clear,72000.0,,,73000,,,,,,
KRDR,07-07-2008,06:00,METAR,,10,3,,,9999.0,,13.0,12.0,29.89,1013.3,,,,,,,,,,,,,,,Clear,72000.0,,,73000,,,,,,
KRDR,07-07-2008,05:00,METAR,,10,3,,,9999.0,,14.0,12.0,29.90,1013.5,,,,,,,,,,,,,,,Clear,72000.0,,,73000,,,,,,
KRDR,07-07-2008,04:00,METAR,,10,4,,,9999.0,,17.0,12.0,29.91,1013.9,,,,,,,,,,,,,,,Clear,72000.0,,,73000,,,,,,
KRDR,07-07-2008,03:00,METAR,,40,5,,,9999.0,,19.0,13.0,29.89,1013.3,,,,,,,,,,,,,,,Clear,72000.0,,,73000,,,,,,
KRDR,07-07-2008,02:00,METAR,,30,7,,,9999.0,,20.0,14.0,29.89,1013.0,,,,,,,,,,,,,,,Clear,72000.0,,,73000,,,,,,
KRDR,07-07-2008,01:00,METAR,,20,9,,,9999.0,,23.0,15.0,29.87,1012.4,,,,,,,,,,,,,,,Clear,72000.0,,,73000,,,,,,
KRDR,07-07-2008,00:00,METAR,,30,9,,,9999.0,,24.0,15.0,29.87,1012.4,,,,,,,,,,,,,,,Clear,72000.0,,,73000,,,,,,
KRDR,07-06-2008,23:00,METAR,,30,8,,,9999.0,,25.0,16.0,29.86,1012.4,,,,,,,,,,,,,,,Clear,72000.0,,,73000,,,,,,
KRDR,07-06-2008,22:00,METAR,,40,12,,,9999.0,,26.0,16.0,29.86,1012.2,,,,,,,,,,,,,,,Clear,72000.0,,,73000,,,,,,
KRDR,07-06-2008,21:00,METAR,,30,9,,,9999.0,,26.0,16.0,29.85,1011.9,,,,,,,,,,,,,,,2/8 Mostly Clear,72000.0,,FEW,4800,,,,,,
KRDR,07-06-2008,20:00,METAR,,30,8,,,9999.0,,27.0,16.0,29.83,1011.4,,,,,,,,,,,,,,,2/8 Mostly Clear,72000.0,,FEW,4900,,,,,,
KRDR,07-06-2008,19:00,METAR,,350,10,16.0,,9999.0,,28.0,16.0,29.83,1011.1,,,,,,,,,,,,,,,Clear,72000.0,,,73000,,,,,,
KRDR,07-06-2008,18:00,METAR,,350,10,15.0,,9999.0,,27.0,16.0,29.81,1010.7,,,,,,,,,,,,,,,Clear,72000.0,,,73000,,,,,,
KRDR,07-06-2008,17:00,METAR,,350,13,,,9999.0,,26.0,16.0,29.80,1010.4,,,,,,,,,,,,,,,Clear,72000.0,,,73000,,,,,,
KRDR,07-06-2008,16:00,METAR,,320,10,,,9999.0,,25.0,16.0,29.79,1010.1,,,,,,,,,,,,,,,Clear,72000.0,,,73000,,,,,,
KRDR,07-06-2008,15:00,METAR,,340,10,,,9999.0,,24.0,15.0,29.78,1009.6,,,,,,,,,,,,,,,Clear,72000.0,,,73000,,,,,,
KRDR,07-06-2008,14:00,METAR,,310,12,,,9999.0,,23.0,15.0,29.77,1009.1,,,,,,,,,,,,,,,Clear,72000.0,,,73000,,,,,,
KRDR,07-06-2008,13:00,METAR,,300,9,,,9999.0,,21.0,15.0,29.74,1008.4,,,,,,,,,,,,,,,Clear,72000.0,,,73000,,,,,,
KRDR,07-06-2008,12:00,METAR,,280,7,,,9999.0,,19.0,15.0,29.71,1007.3,,,,,,,,,,,,,,,Clear,72000.0,,,73000,,,,,,
KRDR,07-06-2008,11:00,METAR,,290,8,,,9999.0,,16.0,14.0,29.68,1006.3,,,,,,,,,,,,,,,Clear,72000.0,,,73000,,,,,,
KRDR,07-06-2008,10:00,METAR,,280,7,,,9999.0,,18.0,14.0,29.66,1005.8,,,,,,,,,,,,,,,Clear,72000.0,,,73000,,,,,,
KRDR,07-06-2008,09:00,METAR,,270,4,,,9999.0,,18.0,15.0,29.67,1005.8,,,,,,,,,,,,,,,Clear,72000.0,,,73000,,,,,,
KRDR,07-06-2008,08:00,METAR,,280,6,,,9999.0,,19.0,15.0,29.65,1005.4,,,,,,,,,,,,,,,Clear,72000.0,,,73000,,,,,,
KRDR,07-06-2008,07:00,METAR,,290,8,,,9999.0,,21.0,15.0,29.64,1004.9,,,,,,,,,,,,,,,Clear,72000.0,,,73000,,,,,,
KRDR,07-06-2008,06:00,METAR,,280,8,,,9999.0,,22.0,17.0,29.62,1004.3,,,,,,,,,,,,,,,Clear,72000.0,,,73000,,,,,,
KRDR,07-06-2008,05:00,METAR,,240,7,,,9999.0,,21.0,20.0,29.60,1003.7,,,,,,,,,,,,,,,Clear,72000.0,,,73000,,,,,,
KRDR,07-06-2008,04:00,METAR,,230,8,,,9999.0,,24.0,21.0,29.59,1003.4,,,,,,,,,,,,,,,Clear,72000.0,,,73000,,,,,,
KRDR,07-06-2008,03:00,METAR,,190,10,,,9999.0,,26.0,21.0,29.58,1003.1,,,,,,,,,,,,,,,Clear,72000.0,,,73000,,,,,,
KRDR,07-06-2008,02:00,METAR,,190,7,,,9999.0,,27.0,21.0,29.59,1003.2,,,,,,,,,,,,,,,7/8 Mostly Cloudy,25000.0,,FEW,4000,FEW,12000.0,BKN,25000.0,,
KRDR,07-06-2008,00:00,METAR,,180,8,,,9999.0,,29.0,21.0,29.58,1003.1,,,,,,,,,,,,,TRACE,,7/8 Mostly Cloudy,25000.0,,FEW,4000,FEW,12000.0,BKN,25000.0,,
KRDR,07-05-2008,23:00,METAR,,200,9,,,9999.0,,29.0,21.0,29.61,1004.0,,,,,,,,,,,,,,,7/8 Mostly Cloudy,12000.0,,FEW,4000,BKN,12000.0,BKN,25000.0,,
KRDR,07-05-2008,22:00,METAR,,180,13,,,9999.0,,30.0,21.0,29.59,1003.3,,,,,,,,,,,,,,,Clear,72000.0,,,73000,,,,,,
KRDR,07-05-2008,21:00,METAR,,190,14,19.0,,9999.0,,30.0,20.0,29.62,1004.5,,,,,,,,,,,,TRACE,,,Clear,72000.0,,,73000,,,,,,
KRDR,07-05-2008,20:00,METAR,,190,13,18.0,,9999.0,,31.0,20.0,29.64,1005.0,,,,,,,,,,,,,,,2/8 Mostly Clear,72000.0,,FEW,5900,,,,,,
KRDR,07-05-2008,19:00,METAR,,180,11,,,9999.0,,28.0,20.0,29.66,1005.5,,,,,,,,,,,TRACE,,,,Clear,72000.0,,,73000,,,,,,
KRDR,07-05-2008,18:44,SPECI,,180,11,,,9999.0,,27.0,20.0,29.65,1005.3,,,,,,,,,,,,,,,Clear,72000.0,,,73000,,,,,,
KRDR,07-05-2008,18:33,SPECI,,170,13,17.0,,9999.0,,28.0,20.0,29.64,1004.9,,,,,,,,,,,,,,,Clear,72000.0,,,73000,,,,,,
KRDR,07-05-2008,18:00,METAR,,180,14,,,9999.0,,28.0,19.0,29.64,1005.0,,,,,,,,,,,,,,,Clear,72000.0,,,73000,,,,,,
KRDR,07-05-2008,17:00,METAR,,170,13,21.0,,9999.0,,28.0,19.0,29.64,1004.9,,,,,,,,,,,,,,,Clear,72000.0,,,73000,,,,,,
KRDR,07-05-2008,16:00,METAR,,170,13,,,9999.0,,25.0,18.0,29.66,1005.7,,,,,,,,,,,,,,,Clear,72000.0,,,73000,,,,,,
KRDR,07-05-2008,15:00,METAR,,170,12,,,9999.0,,23.0,16.0,29.70,1006.9,,,,,,,,,,,,,,,Clear,72000.0,,,73000,,,,,,
KRDR,07-05-2008,14:00,METAR,,190,9,,,9999.0,,21.0,15.0,29.73,1008.1,,,,,,,,,,,,,,,7/8 Mostly Cloudy,25000.0,,BKN,25000,,,,,,
KRDR,07-05-2008,13:00,METAR,,180,9,,,9999.0,,18.0,14.0,29.76,1009.0,,,,,,,,,,,,,,,8/8 Overcast,25000.0,,OVC,25000,,,,,,
KRDR,07-05-2008,12:00,METAR,,170,5,,,9999.0,,15.0,13.0,29.77,1009.1,,,,,,,,,,,,,,,7/8 Mostly Cloudy,25000.0,,BKN,25000,,,,,,
KRDR,07-05-2008,11:00,METAR,,150,6,,,9999.0,,14.0,12.0,29.78,1009.7,,,,,,,,,,,,,,,7/8 Mostly Cloudy,25000.0,,BKN,25000,,,,,,
KRDR,07-05-2008,10:00,METAR,,150,3,,,9999.0,,14.0,11.0,29.80,1010.4,,,,,,,,,,,,,,,Clear,72000.0,,,73000,,,,,,
KRDR,07-05-2008,09:00,METAR,,150,5,,,9999.0,,15.0,11.0,29.81,1010.5,,,,,,,,,,,,,,,Clear,72000.0,,,73000,,,,,,
KRDR,07-05-2008,08:00,METAR,,170,6,,,9999.0,,15.0,11.0,29.82,1010.8,,,,,,,,,,,,,,,Clear,72000.0,,,73000,,,,,,
KRDR,07-05-2008,07:00,METAR,,170,5,,,9999.0,,16.0,11.0,29.84,1011.5,,,,,,,,,,,,,,,Clear,72000.0,,,73000,,,,,,
KRDR,07-05-2008,06:00,METAR,,150,5,,,9999.0,,16.0,11.0,29.85,1012.0,,,,,,,,,,,,,,,Clear,72000.0,,,73000,,,,,,
KRDR,07-05-2008,05:00,METAR,,160,6,,,9999.0,,17.0,11.0,29.86,1012.3,,,,,,,,,,,,,,,Clear,72000.0,,,73000,,,,,,
KRDR,07-05-2008,04:00,METAR,,150,6,,,9999.0,,18.0,12.0,29.86,1012.3,,,,,,,,,,,,,,,Clear,72000.0,,,73000,,,,,,
KRDR,07-05-2008,03:00,METAR,,170,4,,,9999.0,,21.0,13.0,29.87,1012.5,,,,,,,,,,,,,,,Clear,72000.0,,,73000,,,,,,
KRDR,07-05-2008,02:00,METAR,,190,6,,,9999.0,,22.0,14.0,29.88,1012.8,,,,,,,,,,,,,,,Clear,72000.0,,,73000,,,,,,
KRDR,07-05-2008,01:00,METAR,,190,7,,,9999.0,,26.0,12.0,29.89,1013.1,,,,,,,,,,,,,,,Clear,72000.0,,,73000,,,,,,
KRDR,07-05-2008,00:00,METAR,,210,10,,,9999.0,,27.0,11.0,29.90,1013.5,,,,,,,,,,,,,,,Clear,72000.0,,,73000,,,,,,
KRDR,07-04-2008,23:00,METAR,,180,9,,,9999.0,,27.0,11.0,29.91,1013.8,,,,,,,,,,,,,,,Clear,72000.0,,,73000,,,,,,
KRDR,07-04-2008,22:00,METAR,,180,9,,,9999.0,,28.0,11.0,29.92,1014.1,,,,,,,,,,,,,,,Clear,72000.0,,,73000,,,,,,
KRDR,07-04-2008,21:00,METAR,,190,11,,,9999.0,,28.0,11.0,29.92,1014.4,,,,,,,,,,,,,,,Clear,72000.0,,,73000,,,,,,
KRDR,07-04-2008,20:00,METAR,,210,9,,,9999.0,,28.0,11.0,29.93,1014.7,,,,,,,,,,,,,,,Clear,72000.0,,,73000,,,,,,
KRDR,07-04-2008,19:00,METAR,,220,10,,,9999.0,,27.0,11.0,29.95,1015.2,,,,,,,,,,,,,,,Clear,72000.0,,,73000,,,,,,
KRDR,07-04-2008,18:00,METAR,,230,13,,,9999.0,,27.0,11.0,29.96,1015.4,,,,,,,,,,,,,,,Clear,72000.0,,,73000,,,,,,
KRDR,07-04-2008,17:00,METAR,,210,12,,,9999.0,,26.0,11.0,29.97,1015.8,,,,,,,,,,,,,,,Clear,72000.0,,,73000,,,,,,
KRDR,07-04-2008,16:00,METAR,,210,12,,,9999.0,,25.0,12.0,29.98,1016.2,,,,,,,,,,,,,,,Clear,72000.0,,,73000,,,,,,
KRDR,07-04-2008,15:00,METAR,,210,9,,,9999.0,,22.0,13.0,29.99,1016.7,,,,,,,,,,,,,,,Clear,72000.0,,,73000,,,,,,
KRDR,07-04-2008,14:00,METAR,,210,8,,,9999.0,,20.0,13.0,30.00,1017.0,,,,,,,,,,,,,,,4/8 Partly Cloudy,72000.0,,SCT,7900,,,,,,
KRDR,07-04-2008,13:00,METAR,,210,6,,,9999.0,,17.0,11.0,30.01,1017.1,,,,,,,,,,,,,,,4/8 Partly Cloudy,72000.0,,SCT,8400,,,,,,
KRDR,07-04-2008,12:34,SPECI,,210,7,,,4800.0,Haze Smoke or Dust,16.0,11.0,30.01,1017.3,4,,,,,,,,,,,,,,7/8 Mostly Cloudy,7000.0,,BKN,8900,,,,,,
KRDR,07-04-2008,12:24,SPECI,,200,9,,,4000.0,Haze Smoke or Dust,16.0,11.0,30.02,1017.5,4,,,,,,,,,,,,,,4/8 Partly Cloudy,72000.0,,SCT,8900,,,,,,
KRDR,07-04-2008,12:00,METAR,,190,8,,,9999.0,Haze Smoke or Dust,15.0,10.0,30.02,1017.5,4,,,,,,,,,,,,,,4/8 Partly Cloudy,72000.0,,SCT,8400,,,,,,
KRDR,07-04-2008,11:00,METAR,,200,8,,,9999.0,,14.0,9.0,30.02,1017.4,,,,,,,,,,,,,,,Clear,72000.0,,,73000,,,,,,
KRDR,07-04-2008,10:02,SPECI,,190,7,,,8000.0,Haze Smoke or Dust,14.0,9.0,30.02,1017.4,4,,,,,,,,,,,,,,7/8 Mostly Cloudy,8500.0,,BKN,8400,,,,,,
KRDR,07-04-2008,10:00,METAR,,190,7,,,6400.0,Haze Smoke or Dust,13.0,9.0,30.02,1017.5,4,,,,,,,,,,,,,,7/8 Mostly Cloudy,8500.0,,BKN,8400,,,,,,
KRDR,07-04-2008,10:00,SPECI,,190,7,,,6400.0,Haze Smoke or Dust,14.0,9.0,30.02,1017.4,4,,,,,,,,,,,,,,7/8 Mostly Cloudy,8500.0,,BKN,8400,,,,,,
KRDR,07-04-2008,09:45,SPECI,,200,7,,,6400.0,Haze Smoke or Dust,13.0,9.0,30.02,1017.4,4,,,,,,,,,,,,,,2/8 Mostly Clear,72000.0,,FEW,8400,,,,,,
KRDR,07-04-2008,09:00,METAR,,200,7,,,6400.0,Haze Smoke or Dust,13.0,10.0,30.02,1017.4,4,,,,,,,,,,,,,,Clear,72000.0,,,73000,,,,,,
KRDR,07-04-2008,08:48,SPECI,,200,7,,,4800.0,Haze Smoke or Dust,13.0,10.0,30.02,1017.5,4,,,,,,,,,,,,,,Clear,72000.0,,,73000,,,,,,
KRDR,07-04-2008,08:00,METAR,,200,6,,,4800.0,Haze Smoke or Dust,13.0,9.0,30.02,1017.4,4,,,,,,,,,,,,,,Clear,72000.0,,,73000,,,,,,
KRDR,07-04-2008,07:23,SPECI,,210,6,,,4800.0,Haze Smoke or Dust,12.0,9.0,30.03,1017.7,4,,,,,,,,,,,,,,Clear,72000.0,,,73000,,,,,,
KRDR,07-04-2008,07:00,METAR,,200,6,,,4000.0,Haze Smoke or Dust,12.0,9.0,30.03,1017.7,4,,,,,,,,,,,,,,Clear,72000.0,,,73000,,,,,,
KRDR,07-04-2008,06:48,SPECI,,200,5,,,4000.0,Haze Smoke or Dust,12.0,9.0,30.03,1017.7,4,,,,,,,,,,,,,,Clear,72000.0,,,73000,,,,,,
KRDR,07-04-2008,06:00,METAR,,190,4,,,9999.0,,11.0,9.0,30.03,1017.9,,,,,,,,,,,,,,,Clear,72000.0,,,73000,,,,,,
KRDR,07-04-2008,05:14,SPECI,,190,4,,,4000.0,Haze,13.0,9.0,30.03,1017.9,,,,5,,,,,,,,,,,Clear,72000.0,,,73000,,,,,,
KRDR,07-04-2008,05:00,METAR,,190,5,,,9999.0,,13.0,9.0,30.03,1017.9,,,,,,,,,,,,,,,Clear,72000.0,,,73000,,,,,,
KRDR,07-04-2008,04:00,METAR,,170,4,,,9999.0,,14.0,9.0,30.04,1018.0,,,,,,,,,,,,,,,Clear,72000.0,,,73000,,,,,,
KRDR,07-04-2008,03:00,METAR,,170,3,,,9999.0,,17.0,10.0,30.03,1018.0,,,,,,,,,,,,,,,2/8 Mostly Clear,72000.0,,FEW,20000,,,,,,
KRDR,07-04-2008,02:00,METAR,,220,3,,,9999.0,,20.0,10.0,30.04,1018.0,,,,,,,,,,,,,,,2/8 Mostly Clear,72000.0,,FEW,25000,,,,,,
KRDR,07-04-2008,01:00,METAR,,240,3,,,9999.0,,22.0,9.0,30.05,1018.4,,,,,,,,,,,,,,,2/8 Mostly Clear,72000.0,,FEW,5900,FEW,25000.0,,,,
KRDR,07-04-2008,00:00,METAR,,220,6,,,9999.0,,22.0,9.0,30.06,1018.9,,,,,,,,,,,,,,,4/8 Partly Cloudy,72000.0,,FEW,5900,SCT,20000.0,,,,
KRDR,07-03-2008,23:00,METAR,,270,8,,,9999.0,,23.0,8.0,30.07,1019.3,,,,,,,,,,,,,,,4/8 Partly Cloudy,72000.0,,SCT,5900,SCT,25000.0,,,,
KRDR,07-03-2008,22:00,METAR,,220,8,,,9999.0,,23.0,8.0,30.08,1019.6,,,,,,,,,,,,,,,7/8 Mostly Cloudy,6000.0,,BKN,5900,BKN,25000.0,,,,
KRDR,07-03-2008,21:00,METAR,,320,3,,,9999.0,,22.0,7.0,30.09,1019.8,,,,,,,,,,,,,,,7/8 Mostly Cloudy,5500.0,,BKN,5400,BKN,25000.0,,,,
KRDR,07-03-2008,20:00,METAR,,220,5,,,9999.0,,22.0,8.0,30.10,1020.3,,,,,,,,,,,,,,,7/8 Mostly Cloudy,25000.0,,SCT,5400,BKN,25000.0,,,,
KRDR,07-03-2008,19:00,METAR,,240,6,,,9999.0,,21.0,8.0,30.12,1020.6,,,,,,,,,,,,,,,7/8 Mostly Cloudy,25000.0,,SCT,5400,BKN,25000.0,,,,
KRDR,07-03-2008,18:00,METAR,,220,7,,,9999.0,,21.0,8.0,30.13,1021.2,,,,,,,,,,,,,,,7/8 Mostly Cloudy,5500.0,,BKN,5400,BKN,25000.0,,,,
KRDR,07-03-2008,17:00,METAR,,210,7,,,9999.0,,21.0,7.0,30.15,1021.7,,,,,,,,,,,,,,,7/8 Mostly Cloudy,25000.0,,SCT,5000,BKN,25000.0,,,,
KRDR,07-03-2008,16:00,METAR,,200,8,,,9999.0,,21.0,8.0,30.16,1022.0,,,,,,,,,,,,,,,7/8 Mostly Cloudy,25000.0,,SCT,4000,BKN,25000.0,,,,
KRDR,07-03-2008,15:00,METAR,,210,7,,,9999.0,,19.0,9.0,30.17,1022.4,,,,,,,,,,,,,,,7/8 Mostly Cloudy,25000.0,,FEW,5000,BKN,25000.0,,,,
KRDR,07-03-2008,14:00,METAR,,230,5,,,9999.0,,19.0,10.0,30.17,1022.4,,,,,,,,,,,,,,,7/8 Mostly Cloudy,25000.0,,BKN,25000,,,,,,
KRDR,07-03-2008,13:00,METAR,,,0,,,9999.0,,15.0,10.0,30.16,1022.1,,,,,,,,,,,,,,,7/8 Mostly Cloudy,25000.0,,BKN,25000,,,,,,
KRDR,07-03-2008,12:00,METAR,,,0,,,9999.0,,10.0,8.0,30.16,1022.0,,,,,,,,,,,,,,,7/8 Mostly Cloudy,25000.0,,BKN,25000,,,,,,
KRDR,07-03-2008,11:00,METAR,,230,3,,,9999.0,,7.0,6.0,30.16,1022.0,,,,,,,,,,,,,,,7/8 Mostly Cloudy,25000.0,,BKN,25000,,,,,,
KRDR,07-03-2008,10:00,METAR,,230,3,,,9999.0,,7.0,6.0,30.15,1021.8,,,,,,,,,,,,,,,7/8 Mostly Cloudy,25000.0,,BKN,25000,,,,,,
KRDR,07-03-2008,09:00,METAR,,,0,,,9999.0,,7.0,6.0,30.15,1021.7,,,,,,,,,,,,,,,4/8 Partly Cloudy,72000.0,,SCT,25000,,,,,,
KRDR,07-03-2008,08:00,METAR,,270,3,,,9999.0,,7.0,6.0,30.14,1021.5,,,,,,,,,,,,,,,2/8 Mostly Clear,72000.0,,FEW,25000,,,,,,
KRDR,07-03-2008,07:00,METAR,,280,5,,,9999.0,,8.0,6.0,30.14,1021.4,,,,,,,,,,,,,,,2/8 Mostly Clear,72000.0,,FEW,25000,,,,,,
KRDR,07-03-2008,06:00,METAR,,,3,,,9999.0,,8.0,6.0,30.12,1020.7,,,,,,,,,,,,,,,Clear,72000.0,,,73000,,,,,,
KRDR,07-03-2008,05:00,METAR,,360,3,,,9999.0,,9.0,8.0,30.11,1020.6,,,,,,,,,,,,,,,2/8 Mostly Clear,72000.0,,FEW,25000,,,,,,
KRDR,07-03-2008,04:00,METAR,,340,3,,,9999.0,,11.0,8.0,30.12,1020.9,,,,,,,,,,,,,,,2/8 Mostly Clear,72000.0,,FEW,25000,,,,,,
KRDR,07-03-2008,03:00,METAR,,30,5,,,9999.0,,13.0,9.0,30.11,1020.6,,,,,,,,,,,,,,,2/8 Mostly Clear,72000.0,,FEW,5000,FEW,25000.0,,,,
KRDR,07-03-2008,02:00,METAR,,30,9,,,9999.0,,18.0,9.0,30.09,1020.0,,,,,,,,,,,,,,,2/8 Mostly Clear,72000.0,,FEW,5400,FEW,25000.0,,,,
KRDR,07-03-2008,01:00,METAR,,40,12,,,9999.0,,20.0,9.0,30.07,1019.3,,,,,,,,,,,,,,,4/8 Partly Cloudy,72000.0,,FEW,5400,SCT,25000.0,,,,
KRDR,07-03-2008,00:00,METAR,,10,15,22.0,,9999.0,,21.0,8.0,30.06,1018.8,,,,,,,,,,,,,,,4/8 Partly Cloudy,72000.0,,FEW,5400,SCT,25000.0,,,,
KRDR,07-02-2008,23:00,METAR,,10,16,21.0,,9999.0,,21.0,8.0,30.05,1018.5,,,,,,,,,,,,,,,4/8 Partly Cloudy,72000.0,,SCT,5400,,,,,,
KRDR,07-02-2008,22:00,METAR,,360,12,24.0,,9999.0,,21.0,8.0,30.06,1018.7,,,,,,,,,,,,,,,4/8 Partly Cloudy,72000.0,,SCT,5400,,,,,,
KRDR,07-02-2008,21:00,METAR,,360,15,23.0,010/26KTS,9999.0,,20.0,8.0,30.05,1018.4,,,,,,,,,,,,,,,4/8 Partly Cloudy,72000.0,,SCT,5400,,,,,,
KRDR,07-02-2008,20:00,METAR,,350,16,23.0,,9999.0,,20.0,9.0,30.04,1018.3,,,,,,,,,,,,,,,7/8 Mostly Cloudy,4900.0,,BKN,5000,,,,,,
KRDR,07-02-2008,19:00,METAR,,10,15,26.0,360/29KTS,9999.0,,20.0,8.0,30.04,1018.2,,,,,,,,,,,,,,,7/8 Mostly Cloudy,5500.0,,BKN,5400,,,,,,
KRDR,07-02-2008,18:00,METAR,,10,18,23.0,340/27KTS,9999.0,,18.0,8.0,30.04,1018.2,,,,,,,,,,,,,,,7/8 Mostly Cloudy,4500.0,,BKN,4600,BKN,18000.0,,,,
KRDR,07-02-2008,17:00,METAR,,360,18,26.0,360/28KTS,9999.0,,19.0,8.0,30.02,1017.6,,,,,,,,,,,,,,,4/8 Partly Cloudy,72000.0,,SCT,3900,SCT,25000.0,,,,
KRDR,07-02-2008,16:00,METAR,,360,20,28.0,360/28KTS,9999.0,,17.0,8.0,30.01,1017.2,,,,,,,,,,,,,,,7/8 Mostly Cloudy,3300.0,,BKN,3400,BKN,25000.0,,,,
KRDR,07-02-2008,15:00,METAR,,350,15,24.0,010/29KTS,9999.0,,18.0,9.0,30.00,1016.8,,,,,,,,,,,,,,,4/8 Partly Cloudy,72000.0,,SCT,3400,SCT,25000.0,,,,
KRDR,07-02-2008,14:00,METAR,,360,18,24.0,350/28KTS,9999.0,,16.0,9.0,29.96,1015.8,,,,,,,,,,,,,,,4/8 Partly Cloudy,72000.0,,SCT,3000,SCT,25000.0,,,,
KRDR,07-02-2008,13:00,METAR,,360,15,22.0,,9999.0,,15.0,11.0,29.93,1015.0,,,,,,,,,,,,,,,2/8 Mostly Clear,72000.0,,FEW,4000,FEW,25000.0,,,,
KRDR,07-02-2008,12:00,METAR,,350,10,,,9999.0,,14.0,10.0,29.92,1014.5,,,,,,,,,,,,,,,2/8 Mostly Clear,72000.0,,FEW,25000,,,,,,
KRDR,07-02-2008,11:00,METAR,,350,9,,,9999.0,,13.0,10.0,29.90,1013.7,,,,,,,,,,,,,,,Clear,72000.0,,,73000,,,,,,
KRDR,07-02-2008,10:00,METAR,,340,7,,,9999.0,,14.0,11.0,29.88,1012.9,,,,,,,,,,,,,,,Clear,72000.0,,,73000,,,,,,
KRDR,07-02-2008,09:00,METAR,,350,9,,,9999.0,,15.0,11.0,29.85,1011.9,,,,,,,,,,,,,,,Clear,72000.0,,,73000,,,,,,
KRDR,07-02-2008,08:41,SPECI,,350,7,,,9999.0,,15.0,11.0,29.85,1011.8,,,,,,,,,,,,,,,Clear,72000.0,,,73000,,,,,,
KRDR,07-02-2008,08:00,METAR,,350,8,,,9999.0,,15.0,12.0,29.84,1011.5,,,,,,,,,,,,,,,Clear,72000.0,,,73000,,,,,,
KRDR,07-02-2008,07:00,METAR,,360,7,,,9999.0,,16.0,12.0,29.83,1011.2,,,,,,,,,,,,,,,Clear,72000.0,,,73000,,,,,,
KRDR,07-02-2008,06:04,SPECI,,350,7,,,9999.0,,17.0,12.0,29.81,1010.7,,,,,,,,,,,,,,,2/8 Mostly Clear,72000.0,,FEW,6400,,,,,,
KRDR,07-02-2008,06:00,METAR,,350,7,,,9999.0,,17.0,12.0,29.81,1010.7,,,,,,,,,,,,,,,Clear,72000.0,,,73000,,,,,,
KRDR,07-02-2008,05:00,METAR,,340,8,,,9999.0,,18.0,11.0,29.80,1010.3,,,,,,,,,,,,,,,Clear,72000.0,,,73000,,,,,,
KRDR,07-02-2008,04:00,METAR,,10,8,17.0,,9999.0,Smoke or Ash,20.0,10.0,29.79,1009.8,,,,4,,,,,,,,,,,4/8 Partly Cloudy,72000.0,,SCT,6400,,,,,,
KRDR,07-02-2008,03:00,METAR,,10,17,26.0,020/30KTS,9999.0,Smoke or Ash,22.0,11.0,29.75,1008.7,,,,4,,,,,,,,,,,4/8 Partly Cloudy,72000.0,,FEW,5400,SCT,12000.0,,,,
KRDR,07-02-2008,02:00,METAR,,10,19,24.0,020/29KTS,9999.0,,24.0,16.0,29.70,1007.1,,,,,,,,,,,,,,,4/8 Partly Cloudy,72000.0,,FEW,12000,SCT,25000.0,,,,
KRDR,07-02-2008,01:00,METAR,,360,11,17.0,360/27KTS,9999.0,,28.0,19.0,29.66,1005.7,,,,,,,,,,,,,,,4/8 Partly Cloudy,72000.0,,SCT,5000,,,,,,
KRDR,07-02-2008,00:00,METAR,,340,11,,,9999.0,,30.0,18.0,29.64,1004.9,,,,,,,,,,,,,,,4/8 Partly Cloudy,72000.0,,FEW,5000,FEW,12000.0,SCT,25000.0,,
KRDR,07-01-2008,23:00,METAR,,300,9,,,9999.0,,32.0,18.0,29.63,1004.7,,,,,,,,,,,,,,,4/8 Partly Cloudy,72000.0,,FEW,6900,SCT,12000.0,SCT,25000.0,,
KRDR,07-01-2008,22:00,METAR,,260,7,,,9999.0,,31.0,18.0,29.65,1005.2,,,,,,,,,,,,,,,7/8 Mostly Cloudy,25000.0,,SCT,15000,BKN,25000.0,,,,
KRDR,07-01-2008,21:00,METAR,,240,9,,,9999.0,,32.0,17.0,29.66,1005.6,,,,,,,,,,,,,,,7/8 Mostly Cloudy,25000.0,,FEW,9900,SCT,15000.0,BKN,25000.0,,
KRDR,07-01-2008,20:00,METAR,,210,8,,,9999.0,,32.0,18.0,29.66,1005.6,,,,,,,,,,,,,,,7/8 Mostly Cloudy,25000.0,,FEW,15000,BKN,25000.0,,,,
KRDR,07-01-2008,19:00,METAR,,190,9,,,9999.0,,31.0,18.0,29.66,1005.8,,,,,,,,,,,,,,,7/8 Mostly Cloudy,25000.0,,SCT,15000,BKN,25000.0,,,,
KRDR,07-01-2008,18:00,METAR,,190,7,,,9999.0,,30.0,17.0,29.68,1006.5,,,,,,,,,,,,,,,7/8 Mostly Cloudy,25000.0,,FEW,9900,BKN,25000.0,,,,
KRDR,07-01-2008,17:00,METAR,,220,6,,,9999.0,,29.0,16.0,29.71,1007.2,,,,,,,,,,,,,,,4/8 Partly Cloudy,72000.0,,FEW,5900,SCT,25000.0,,,,
KRDR,07-01-2008,16:00,METAR,,210,6,,,9999.0,,28.0,16.0,29.73,1007.8,,,,,,,,,,,,,,,4/8 Partly Cloudy,72000.0,,SCT,25000,,,,,,
KRDR,07-01-2008,15:00,METAR,,200,12,,,9999.0,,26.0,15.0,29.74,1008.7,,,,,,,,,,,,,,,4/8 Partly Cloudy,72000.0,,SCT,25000,,,,,,
KRDR,07-01-2008,14:00,METAR,,230,11,,,9999.0,,24.0,14.0,29.76,1009.3,,,,,,,,,,,,,,,4/8 Partly Cloudy,72000.0,,SCT,25000,,,,,,
KRDR,07-01-2008,13:00,METAR,,220,9,,,9999.0,,20.0,14.0,29.78,1010.0,,,,,,,,,,,,,,,7/8 Mostly Cloudy,25000.0,,BKN,25000,,,,,,
KRDR,07-01-2008,12:00,METAR,,220,9,,,9999.0,,17.0,13.0,29.79,1010.2,,,,,,,,,,,,,,,7/8 Mostly Cloudy,25000.0,,BKN,25000,,,,,,
KRDR,07-01-2008,11:00,METAR,,220,9,,,9999.0,,16.0,13.0,29.79,1010.4,,,,,,,,,,,,,,,4/8 Partly Cloudy,72000.0,,SCT,25000,,,,,,
KRDR,07-01-2008,10:00,METAR,,220,9,,,9999.0,,16.0,13.0,29.81,1010.7,,,,,,,,,,,,,,,Clear,72000.0,,,73000,,,,,,
KRDR,07-01-2008,09:00,METAR,,220,10,,,9999.0,,16.0,13.0,29.83,1011.3,,,,,,,,,,,,,,,Clear,72000.0,,,73000,,,,,,
KRDR,07-01-2008,08:00,METAR,,230,8,,,9999.0,,16.0,13.0,29.85,1011.9,,,,,,,,,,,,,,,Clear,72000.0,,,73000,,,,,,
KRDR,07-01-2008,07:00,METAR,,230,10,,,9999.0,,16.0,13.0,29.87,1012.4,,,,,,,,,,,,,,,Clear,72000.0,,,73000,,,,,,
KRDR,07-01-2008,06:00,METAR,,230,8,,,9999.0,,16.0,13.0,29.88,1012.9,,,,,,,,,,,,,,,Clear,72000.0,,,73000,,,,,,
KRDR,07-01-2008,05:00,METAR,,230,6,,,9999.0,,18.0,13.0,29.88,1013.0,,,,,,,,,,,,,,,Clear,72000.0,,,73000,,,,,,
KRDR,07-01-2008,04:00,METAR,,220,5,,,9999.0,,18.0,14.0,29.89,1013.2,,,,,,,,,,,,,,,Clear,72000.0,,,73000,,,,,,
KRDR,07-01-2008,03:00,METAR,,220,6,,,9999.0,,21.0,15.0,29.89,1013.2,,,,,,,,,,,,,,,2/8 Mostly Clear,72000.0,,FEW,25000,,,,,,
KRDR,07-01-2008,02:00,METAR,,220,6,,,9999.0,,24.0,16.0,29.90,1013.5,,,,,,,,,,,,,,,2/8 Mostly Clear,72000.0,,FEW,25000,,,,,,
KRDR,07-01-2008,01:00,METAR,,240,7,,,9999.0,,27.0,15.0,29.91,1013.9,,,,,,,,,,,,,,,2/8 Mostly Clear,72000.0,,FEW,25000,,,,,,
KRDR,07-01-2008,00:00,METAR,,250,8,,,9999.0,,29.0,14.0,29.93,1014.4,,,,,,,,,,,,,,,2/8 Mostly Clear,72000.0,,FEW,25000,,,,,,
KRDR,06-30-2008,23:00,METAR,,260,14,,,9999.0,,29.0,15.0,29.94,1014.9,,,,,,,,,,,,,,,2/8 Mostly Clear,72000.0,,FEW,25000,,,,,,
KRDR,06-30-2008,22:00,METAR,,270,7,16.0,,9999.0,,29.0,14.0,29.96,1015.5,,,,,,,,,,,,,,,2/8 Mostly Clear,72000.0,,FEW,25000,,,,,,
KRDR,06-30-2008,21:00,METAR,,270,12,18.0,,9999.0,,29.0,14.0,29.98,1016.1,,,,,,,,,,,,,,,2/8 Mostly Clear,72000.0,,FEW,6900,FEW,25000.0,,,,
KRDR,06-30-2008,20:00,METAR,,260,9,16.0,,9999.0,,29.0,13.0,30.00,1016.8,,,,,,,,,,,,,,,4/8 Partly Cloudy,72000.0,,FEW,6900,SCT,25000.0,,,,
KRDR,06-30-2008,19:00,METAR,,260,8,,,9999.0,,28.0,13.0,30.02,1017.4,,,,,,,,,,,,,,,2/8 Mostly Clear,72000.0,,FEW,5900,FEW,25000.0,,,,
KRDR,06-30-2008,18:00,METAR,,270,11,,,9999.0,,28.0,14.0,30.03,1018.0,,,,,,,,,,,,,,,2/8 Mostly Clear,72000.0,,FEW,5900,FEW,25000.0,,,,
KRDR,06-30-2008,17:00,METAR,,270,12,,,9999.0,,27.0,13.0,30.06,1018.7,,,,,,,,,,,,,,,2/8 Mostly Clear,72000.0,,FEW,25000,,,,,,
KRDR,06-30-2008,16:00,METAR,,260,11,,,9999.0,,26.0,14.0,30.07,1019.0,,,,,,,,,,,,,,,2/8 Mostly Clear,72000.0,,FEW,25000,,,,,,
KRDR,06-30-2008,15:00,METAR,,270,7,,,9999.0,,25.0,15.0,30.08,1019.4,,,,,,,,,,,,,,,2/8 Mostly Clear,72000.0,,FEW,7900,FEW,25000.0,,,,
KRDR,06-30-2008,14:00,METAR,,250,8,,,9999.0,,22.0,14.0,30.09,1019.7,,,,,,,,,,,,,,,2/8 Mostly Clear,72000.0,,FEW,7400,FEW,25000.0,,,,
KRDR,06-30-2008,13:00,METAR,,190,3,,,9999.0,,19.0,13.0,30.10,1020.0,,,,,,,,,,,,,,,4/8 Partly Cloudy,72000.0,,FEW,7900,SCT,25000.0,,,,
KRDR,06-30-2008,12:00,METAR,,,0,,,9999.0,,14.0,12.0,30.10,1020.1,,,,,,,,,,,,,,,7/8 Mostly Cloudy,25000.0,,SCT,7900,BKN,25000.0,,,,
KRDR,06-30-2008,11:00,METAR,,220,3,,,9999.0,,12.0,9.0,30.09,1019.9,,,,,,,,,,,,,,,2/8 Mostly Clear,72000.0,,FEW,25000,,,,,,
KRDR,06-30-2008,10:00,METAR,,,0,,,9999.0,,12.0,10.0,30.09,1019.9,,,,,,,,,,,,,,,Clear,72000.0,,,73000,,,,,,
KRDR,06-30-2008,09:00,METAR,,270,5,,,9999.0,,12.0,9.0,30.10,1020.0,,,,,,,,,,,,,,,Clear,72000.0,,,73000,,,,,,
KRDR,06-30-2008,08:00,METAR,,260,4,,,9999.0,,12.0,10.0,30.09,1019.9,,,,,,,,,,,,,,,Clear,72000.0,,,73000,,,,,,
KRDR,06-30-2008,07:00,METAR,,260,5,,,9999.0,,12.0,10.0,30.10,1020.0,,,,,,,,,,,,,,,Clear,72000.0,,,73000,,,,,,
KRDR,06-30-2008,06:00,METAR,,,0,,,9999.0,,12.0,10.0,30.10,1020.1,,,,,,,,,,,,,,,Clear,72000.0,,,73000,,,,,,
KRDR,06-30-2008,05:00,METAR,,290,4,,,9999.0,,13.0,10.0,30.10,1020.3,,,,,,,,,,,,,,,Clear,72000.0,,,73000,,,,,,
KRDR,06-30-2008,04:00,METAR,,280,4,,,9999.0,,13.0,9.0,30.11,1020.5,,,,,,,,,,,,,,,2/8 Mostly Clear,72000.0,,FEW,25000,,,,,,
KRDR,06-30-2008,03:00,METAR,,300,3,,,9999.0,,16.0,11.0,30.10,1020.2,,,,,,,,,,,,,,,4/8 Partly Cloudy,72000.0,,SCT,25000,,,,,,
KRDR,06-30-2008,02:00,METAR,,340,4,,,9999.0,,20.0,13.0,30.10,1020.1,,,,,,,,,,,,,,,4/8 Partly Cloudy,72000.0,,SCT,25000,,,,,,
KRDR,06-30-2008,01:00,METAR,,350,6,,,9999.0,,24.0,12.0,30.11,1020.3,,,,,,,,,,,,,,,4/8 Partly Cloudy,72000.0,,SCT,25000,,,,,,
KRDR,06-30-2008,00:00,METAR,,350,10,,,9999.0,,25.0,12.0,30.11,1020.4,,,,,,,,,,,,,,,2/8 Mostly Clear,72000.0,,FEW,5400,FEW,25000.0,,,,
KRDR,06-29-2008,23:00,METAR,,340,11,16.0,,9999.0,,25.0,13.0,30.12,1020.7,,,,,,,,,,,,,,,2/8 Mostly Clear,72000.0,,FEW,5400,,,,,,
KRDR,06-29-2008,22:00,METAR,,340,11,,,9999.0,,26.0,15.0,30.12,1020.7,,,,,,,,,,,,,,,4/8 Partly Cloudy,72000.0,,SCT,5000,,,,,,
KRDR,06-29-2008,21:00,METAR,,10,12,,,9999.0,,25.0,14.0,30.12,1020.7,,,,,,,,,,,,,,,7/8 Mostly Cloudy,25000.0,,SCT,4400,BKN,25000.0,,,,
KRDR,06-29-2008,20:00,METAR,,10,13,16.0,,9999.0,,25.0,14.0,30.11,1020.6,,,,,,,,,,,,,,,7/8 Mostly Cloudy,4600.0,,BKN,4700,,,,,,
KRDR,06-29-2008,19:00,METAR,,350,13,17.0,,9999.0,,24.0,15.0,30.12,1020.9,,,,,,,,,,,,,,,4/8 Partly Cloudy,72000.0,,SCT,4700,,,,,,
KRDR,06-29-2008,18:00,METAR,,10,11,17.0,,9999.0,,24.0,15.0,30.13,1021.1,,,,,,,,,,,,,,,2/8 Mostly Clear,72000.0,,FEW,3700,,,,,,
KRDR,06-29-2008,17:00,METAR,,360,12,17.0,,9999.0,,23.0,15.0,30.12,1020.9,,,,,,,,,,,,,,,Clear,72000.0,,,73000,,,,,,
KRDR,06-29-2008,16:00,METAR,,350,12,,,9999.0,,22.0,15.0,30.12,1020.7,,,,,,,,,,,,,,,Clear,72000.0,,,73000,,,,,,
KRDR,06-29-2008,15:00,METAR,,350,11,,,9999.0,,20.0,14.0,30.11,1020.5,,,,,,,,,,,,,,,Clear,72000.0,,,73000,,,,,,
KRDR,06-29-2008,14:00,METAR,,350,12,,,9999.0,,19.0,13.0,30.10,1020.0,,,,,,,,,,,,,,,Clear,72000.0,,,73000,,,,,,
KRDR,06-29-2008,13:00,METAR,,350,12,,,9999.0,,17.0,12.0,30.08,1019.5,,,,,,,,,,,,,,,Clear,72000.0,,,73000,,,,,,
KRDR,06-29-2008,12:00,METAR,,320,8,,,9999.0,,14.0,11.0,30.07,1019.1,,,,,,,,,,,,,,.33 IN,2/8 Mostly Clear,72000.0,,FEW,12000,,,,,,
KRDR,06-29-2008,11:00,METAR,,320,8,,,9999.0,,13.0,10.0,30.05,1018.6,,,,,,,,,,,,,,,2/8 Mostly Clear,72000.0,,FEW,12000,,,,,,
KRDR,06-29-2008,10:00,METAR,,330,7,,,9999.0,,14.0,10.0,30.03,1018.0,,,,,,,,,,,,,,,2/8 Mostly Clear,72000.0,,FEW,12000,,,,,,
KRDR,06-29-2008,09:00,METAR,,330,9,,,9999.0,,14.0,11.0,30.02,1017.6,,,,,,,,,,,,,,,Clear,72000.0,,,73000,,,,,,
KRDR,06-29-2008,08:00,METAR,,330,9,,,9999.0,,15.0,11.0,30.02,1017.5,,,,,,,,,,,,,,,Clear,72000.0,,,73000,,,,,,
KRDR,06-29-2008,07:00,METAR,,340,11,,,9999.0,,16.0,12.0,30.01,1017.3,,,,,,,,,,,,,,,Clear,72000.0,,,73000,,,,,,
KRDR,06-29-2008,06:00,METAR,,340,11,,,9999.0,,17.0,12.0,30.01,1017.2,,,,,,,,,,,,,,,Clear,72000.0,,,73000,,,,,,
KRDR,06-29-2008,05:00,METAR,,330,9,,,9999.0,,17.0,13.0,30.01,1017.0,,,,,,,,,,,,,,,Clear,72000.0,,,73000,,,,,,
KRDR,06-29-2008,04:00,METAR,,340,11,,,9999.0,,17.0,13.0,30.00,1016.8,,,,,,,,,,,,,,,Clear,72000.0,,,73000,,,,,,
KRDR,06-29-2008,03:00,METAR,,340,12,,,9999.0,,19.0,14.0,29.98,1016.1,,,,,,,,,,,,,,,Clear,72000.0,,,73000,,,,,,
KRDR,06-29-2008,02:00,METAR,,350,14,20.0,,9999.0,,20.0,15.0,29.96,1015.4,,,,,,,,,,,,,,,7/8 Mostly Cloudy,10000.0,,FEW,3200,SCT,7900.0,BKN,9900.0,,
KRDR,06-29-2008,01:00,METAR,,350,14,,,9999.0,Light Rain,18.0,15.0,29.94,1015.0,61,,,,,,,,,,,,,,8/8 Overcast,3400.0,,FEW,1700,BKN,3500.0,OVC,6900.0,,
KRDR,06-29-2008,00:39,SPECI,,20,13,22.0,,4800.0,Light Rain,18.0,15.0,29.95,1015.1,61,,,,,,,,,,,,,,8/8 Overcast,3000.0,,FEW,2300,BKN,3000.0,OVC,4500.0,,
KRDR,06-29-2008,00:37,SPECI,,20,13,22.0,,3200.0,Rain/Haze Smoke or Dust,18.0,15.0,29.95,1015.0,62,4,,,,,,,,,,,,,8/8 Overcast,3100.0,,SCT,2600,BKN,3200.0,OVC,4600.0,,
KRDR,06-29-2008,00:34,SPECI,,30,16,22.0,,2400.0,Rain,18.0,15.0,29.94,1015.0,62,,,,,,,,,,,,,,7/8 Mostly Cloudy,2800.0,,BKN,2800,BKN,3400.0,,,,
KRDR,06-29-2008,00:32,SPECI,,30,15,22.0,,2800.0,Heavy Rain,18.0,15.0,29.95,1015.1,63,,,,,,,,,,,,,,7/8 Mostly Cloudy,2900.0,,BKN,2900,BKN,3300.0,,,,
KRDR,06-29-2008,00:28,SPECI,,30,19,,,4000.0,Heavy Rain,18.0,15.0,29.95,1015.1,63,,,,,,,,,,,,,,7/8 Mostly Cloudy,3000.0,,BKN,3000,BKN,3800.0,,,,
KRDR,06-29-2008,00:07,SPECI,,30,13,21.0,,9999.0,,17.0,14.0,29.93,1014.4,,,,,,,,,,,,,,,8/8 Overcast,3500.0,,FEW,2000,BKN,3600.0,OVC,8900.0,,
KRDR,06-29-2008,00:00,METAR,,30,21,31.0,360/33KTS,9999.0,Light Rain,22.0,15.0,29.93,1014.5,61,,,,,,,,,,,,,,7/8 Mostly Cloudy,4000.0,,FEW,2900,SCT,3600.0,BKN,4800.0,,
KRDR,06-29-2008,00:00,SPECI,,40,16,30.0,,9999.0,Light Rain/Haze Smoke or Dust,18.0,15.0,29.93,1014.4,61,4,,,,,,,,,,,,,8/8 Overcast,3300.0,,FEW,1500,BKN,3400.0,OVC,8900.0,,
KRDR,06-28-2008,23:46,SPECI,,350,24,31.0,360/33KTS,9999.0,,21.0,15.0,29.91,1013.9,,,,,,,,,,,,,,,7/8 Mostly Cloudy,4900.0,,FEW,3200,SCT,4800.0,BKN,6900.0,,
KRDR,06-28-2008,23:36,SPECI,,360,17,33.0,360/33KTS,9999.0,Unknown Precipitation,22.0,16.0,29.91,1013.9,40,,,,,,,,,,,,,,7/8 Mostly Cloudy,7000.0,,FEW,3100,BKN,6900.0,BKN,9400.0,,
KRDR,06-28-2008,23:18,SPECI,,360,18,27.0,360/27KTS,9999.0,,21.0,15.0,29.90,1013.6,,,,,,,,,,,,,,,7/8 Mostly Cloudy,7000.0,,BKN,6900,,,,,,
KRDR,06-28-2008,23:07,SPECI,,360,18,25.0,010/26KTS,9999.0,Unknown Precipitation,21.0,15.0,29.90,1013.5,40,,,,,,,,,,,,,,7/8 Mostly Cloudy,7500.0,,FEW,1300,BKN,7400.0,,,,
KRDR,06-28-2008,23:00,METAR,,350,19,24.0,340/30KTS,9999.0,,21.0,16.0,29.89,1013.3,,,,,,,,,,,,,,,7/8 Mostly Cloudy,8000.0,,BKN,7900,,,,,,
KRDR,06-28-2008,22:00,METAR,,350,19,27.0,360/30KTS,9999.0,,21.0,16.0,29.87,1012.6,,,,,,,,,,,,,,,7/8 Mostly Cloudy,8000.0,,BKN,7900,,,,,,
KRDR,06-28-2008,21:20,SPECI,,350,16,25.0,350/28KTS,9999.0,,20.0,16.0,29.86,1012.2,,,,,,,,,,,,,,,7/8 Mostly Cloudy,6500.0,,FEW,4900,BKN,6400.0,,,,
KRDR,06-28-2008,21:02,SPECI,,360,20,28.0,350/28KTS,9999.0,,20.0,15.0,29.85,1012.0,,,,,,,,,,,,,,,7/8 Mostly Cloudy,6000.0,,BKN,5900,,,,,,
KRDR,06-28-2008,21:00,METAR,,360,19,27.0,010/34KTS,9999.0,,20.0,14.0,29.85,1011.8,,,,,,,,,,,,,,,7/8 Mostly Cloudy,6000.0,,FEW,3000,BKN,5900.0,,,,
KRDR,06-28-2008,20:50,SPECI,,360,18,30.0,010/34KTS,9999.0,,20.0,14.0,29.84,1011.7,,,,,,,,,,,,,,,7/8 Mostly Cloudy,6000.0,,SCT,3500,BKN,5900.0,,,,
KRDR,06-28-2008,20:28,SPECI,,10,22,32.0,010/34KTS,9999.0,Unknown Precipitation,21.0,14.0,29.83,1011.1,40,,,,,,,,,,,,,,8/8 Overcast,6500.0,,SCT,3900,OVC,6400.0,,,,
KRDR,06-28-2008,20:00,METAR,,10,26,35.0,010/37KTS,9999.0,,21.0,14.0,29.80,1010.4,,,,,,,,,,,,,,,7/8 Mostly Cloudy,6500.0,,FEW,3000,BKN,6400.0,,,,
KRDR,06-28-2008,19:27,SPECI,,10,26,36.0,010/37KTS,9999.0,,21.0,15.0,29.78,1009.7,,,,,,,,,,,,,,,4/8 Partly Cloudy,72000.0,,FEW,2800,SCT,6900.0,,,,
KRDR,06-28-2008,19:18,SPECI,,360,25,37.0,010/37KTS,9999.0,Unknown Precipitation,20.0,14.0,29.78,1009.7,40,,,,,,,,,,,,,,2/8 Mostly Clear,72000.0,,FEW,7900,,,,,,
KRDR,06-28-2008,19:00,METAR,,10,25,37.0,360/39KTS,9999.0,,20.0,14.0,29.77,1009.2,,,,,,,,,,,,,,,4/8 Partly Cloudy,72000.0,,FEW,2800,SCT,4400.0,,,,
KRDR,06-28-2008,18:32,SPECI,,10,23,39.0,360/39KTS,9999.0,,20.0,15.0,29.76,1008.8,,,,,,,,,,,,,,,4/8 Partly Cloudy,72000.0,,FEW,2700,SCT,6400.0,,,,
KRDR,06-28-2008,18:16,SPECI,,360,20,38.0,010/38KTS,9999.0,Unknown Precipitation,20.0,15.0,29.75,1008.6,40,,,,,,,,,,,,,,8/8 Overcast,6500.0,,SCT,2500,SCT,3800.0,OVC,6400.0,,
KRDR,06-28-2008,18:13,SPECI,,10,23,38.0,010/38KTS,9999.0,,20.0,15.0,29.75,1008.5,,,,,,,,,,,,,,,8/8 Overcast,3700.0,,FEW,2300,BKN,3800.0,OVC,7900.0,,
KRDR,06-28-2008,18:09,SPECI,,10,29,38.0,010/38KTS,9999.0,,20.0,15.0,29.74,1008.4,,,,,,,,,,,,,,,7/8 Mostly Cloudy,2900.0,,SCT,2300,BKN,2900.0,BKN,3900.0,,
KRDR,06-28-2008,18:01,SPECI,,360,21,33.0,360/33KTS,9999.0,,20.0,15.0,29.74,1008.3,,,,,,,,,,,,,,,8/8 Overcast,3100.0,,OVC,3100,,,,,,
KRDR,06-28-2008,18:00,METAR,,360,22,28.0,350/35KTS,9999.0,,20.0,15.0,29.74,1008.3,,,,,,,,,,,,,,,8/8 Overcast,2400.0,,OVC,2400,,,,,,
KRDR,06-28-2008,17:38,SPECI,,360,21,30.0,350/35KTS,9999.0,,19.0,15.0,29.74,1008.2,,,,,,,,,,,,,,,7/8 Mostly Cloudy,2200.0,,BKN,2200,,,,,,
KRDR,06-28-2008,17:00,METAR,,360,24,33.0,350/34KTS,9999.0,,18.0,15.0,29.72,1007.5,,,,,,,,,,,,,,,8/8 Overcast,1500.0,,FEW,1100,OVC,1900.0,,,,
KRDR,06-28-2008,16:56,SPECI,,360,26,34.0,360/34KTS,9999.0,Light Rain,18.0,15.0,29.72,1007.6,61,,,,,,,,,,,,,,7/8 Mostly Cloudy,1300.0,,BKN,1300,BKN,1700.0,BKN,2300.0,,
KRDR,06-28-2008,16:46,SPECI,,360,22,33.0,350/34KTS,9999.0,,18.0,15.0,29.71,1007.4,,,,,,,,,,,,,,,8/8 Overcast,1300.0,,FEW,1000,OVC,1800.0,,,,
KRDR,06-28-2008,16:44,SPECI,,360,23,33.0,350/34KTS,9999.0,,18.0,15.0,29.71,1007.3,,,,,,,,,,,,,,,8/8 Overcast,1300.0,,FEW,1000,OVC,1900.0,,,,
KRDR,06-28-2008,16:27,SPECI,,360,22,31.0,350/34KTS,9999.0,Light Rain,18.0,15.0,29.70,1007.0,61,,,,,,,,,,,,,,8/8 Overcast,800.0,,OVC,1300,,,,,,
KRDR,06-28-2008,16:02,SPECI,,360,24,34.0,350/34KTS,9999.0,,17.0,15.0,29.68,1006.4,,,,,,,,,,,,,,,8/8 Overcast,1000.0,,OVC,1000,,,,,,
KRDR,06-28-2008,16:00,METAR,,360,23,33.0,360/33KTS,9999.0,,17.0,15.0,29.68,1006.2,,,,,,,,,,,,,,,8/8 Overcast,900.0,,OVC,900,,,,,,
KRDR,06-28-2008,15:39,SPECI,,350,19,30.0,350/32KTS,9999.0,,17.0,15.0,29.67,1006.1,,,,,,,,,,,,,,,8/8 Overcast,900.0,,OVC,900,,,,,,
KRDR,06-28-2008,15:35,SPECI,,360,18,32.0,350/32KTS,9999.0,,17.0,15.0,29.67,1005.9,,,,,,,,,,,,,,,8/8 Overcast,1000.0,,OVC,1000,,,,,,
KRDR,06-28-2008,15:00,METAR,,350,18,26.0,350/31KTS,9999.0,Light Rain,16.0,15.0,29.64,1005.0,61,,,,,,,,,,,,,,8/8 Overcast,700.0,,OVC,700,,,,,,
KRDR,06-28-2008,14:45,SPECI,,350,17,25.0,350/31KTS,9999.0,Light Rain,16.0,15.0,29.64,1004.9,61,,,,,,,,,,,,,,8/8 Overcast,700.0,,OVC,700,,,,,,
KRDR,06-28-2008,14:39,SPECI,,360,18,26.0,350/31KTS,9999.0,Light Rain,16.0,15.0,29.64,1004.8,61,,,,,,,,,,,,,,8/8 Overcast,600.0,,OVC,600,,,,,,
KRDR,06-28-2008,14:03,SPECI,,350,23,31.0,350/31KTS,9999.0,Light Rain,16.0,15.0,29.62,1004.1,61,,,,,,,,,,,,,,8/8 Overcast,300.0,,OVC,800,,,,,,
KRDR,06-28-2008,14:00,METAR,,350,21,29.0,350/29KTS,9999.0,Light Rain,16.0,15.0,29.61,1003.9,61,,,,,,,,,,,,,,8/8 Overcast,700.0,,OVC,700,,,,,,
KRDR,06-28-2008,13:46,SPECI,,350,21,28.0,330/28KTS,9999.0,Light Rain,15.0,15.0,29.60,1003.8,61,,,,,,,,,,,,,,8/8 Overcast,500.0,,OVC,500,,,,,,
KRDR,06-28-2008,13:38,SPECI,,340,19,23.0,,8000.0,Light Rain/Mist,15.0,15.0,29.60,1003.6,61,10,,,,,,,,,,,,,8/8 Overcast,600.0,,OVC,600,,,,,,
KRDR,06-28-2008,13:17,SPECI,,320,14,21.0,,9999.0,Rain,15.0,14.0,29.59,1003.4,62,,,,,,,,,,,,,,8/8 Overcast,900.0,,OVC,900,,,,,,
KRDR,06-28-2008,13:00,METAR,,310,13,,,6400.0,Rain/Mist,15.0,14.0,29.60,1003.6,,,,63,10,,,,,,.1 IN,,,,8/8 Overcast,1400.0,,SCT,900,BKN,1400.0,OVC,2000.0,,
KRDR,06-28-2008,12:40,SPECI,,310,13,,,2400.0,Rain/Mist,15.0,14.0,29.60,1003.8,,,,63,10,,,,,,,,,,8/8 Overcast,1200.0,,OVC,1200,,,,,,
KRDR,06-28-2008,12:15,SPECI,,310,10,18.0,,9999.0,Rain,14.0,13.0,29.61,1004.0,,,,61,,,,,,,,,,,8/8 Overcast,1400.0,,OVC,1400,,,,,,
KRDR,06-28-2008,12:00,METAR,,290,11,,,9999.0,Rain,14.0,12.0,29.61,1004.1,,,,61,,,,,,,.03 IN,,.03 IN,.03 IN,8/8 Overcast,1600.0,,OVC,1600,,,,,,
KRDR,06-28-2008,11:30,SPECI,,300,12,,,9999.0,Rain,14.0,12.0,29.62,1004.4,,,,61,,,,,,,,,,,8/8 Overcast,2500.0,,FEW,1000,BKN,2500.0,OVC,5900.0,,
KRDR,06-28-2008,11:00,METAR,,300,10,16.0,,9999.0,,13.0,11.0,29.63,1004.6,,,,,,,,,,,,,,,7/8 Mostly Cloudy,6000.0,,FEW,1200,BKN,5900.0,BKN,20000.0,,
KRDR,06-28-2008,10:16,SPECI,,310,9,,,9999.0,,12.0,10.0,29.64,1004.9,,,,,,,,,,,,,,,7/8 Mostly Cloudy,6000.0,,FEW,1200,BKN,5900.0,BKN,20000.0,,
KRDR,06-28-2008,10:00,METAR,,300,8,,,9999.0,,12.0,10.0,29.64,1004.9,,,,,,,,,,,,,,,4/8 Partly Cloudy,72000.0,,SCT,6400,SCT,20000.0,,,,
KRDR,06-28-2008,09:00,METAR,,310,8,,,9999.0,,12.0,9.0,29.64,1005.0,,,,,,,,,,,,,,,Clear,72000.0,,,73000,,,,,,
KRDR,06-28-2008,08:00,METAR,,310,7,,,9999.0,,14.0,9.0,29.65,1005.3,,,,,,,,,,,,,,,7/8 Mostly Cloudy,6000.0,,BKN,5900,,,,,,
KRDR,06-28-2008,07:00,METAR,,300,7,,,9999.0,,14.0,9.0,29.66,1005.5,,,,,,,,,,,,,,,8/8 Overcast,6000.0,,OVC,5900,,,,,,
KRDR,06-28-2008,06:00,METAR,,280,6,,,9999.0,,13.0,9.0,29.67,1006.0,,,,,,,,,,,,,,,7/8 Mostly Cloudy,6000.0,,BKN,5900,,,,,,
KRDR,06-28-2008,05:00,METAR,,270,7,,,9999.0,,13.0,8.0,29.67,1006.0,,,,,,,,,,,,,,,Clear,72000.0,,,73000,,,,,,
KRDR,06-28-2008,04:00,METAR,,270,8,,,9999.0,,15.0,8.0,29.69,1006.5,,,,,,,,,,,,,,,2/8 Mostly Clear,72000.0,,FEW,6900,FEW,20000.0,,,,
KRDR,06-28-2008,03:00,METAR,,310,8,,,9999.0,,17.0,8.0,29.70,1006.9,,,,,,,,,,,,,,,2/8 Mostly Clear,72000.0,,FEW,5900,FEW,20000.0,,,,
KRDR,06-28-2008,02:00,METAR,,310,11,,,9999.0,,19.0,8.0,29.69,1006.7,,,,,,,,,,,,,,,4/8 Partly Cloudy,72000.0,,SCT,6400,,,,,,
KRDR,06-28-2008,01:00,METAR,,310,16,25.0,300/29KTS,9999.0,,21.0,8.0,29.68,1006.3,,,,,,,,,,,,,,,4/8 Partly Cloudy,72000.0,,FEW,5400,SCT,5900.0,,,,
KRDR,06-28-2008,00:00,METAR,,310,21,28.0,300/29KTS,9999.0,,22.0,8.0,29.65,1005.4,,,,,,,,,,,,,,,4/8 Partly Cloudy,72000.0,,FEW,4500,SCT,6900.0,,,,
KRDR,06-27-2008,23:00,METAR,,300,17,25.0,310/28KTS,9999.0,,22.0,14.0,29.64,1005.1,,,,,,,,,,,,,,,7/8 Mostly Cloudy,3900.0,,BKN,4000,BKN,20000.0,,,,
KRDR,06-27-2008,22:00,METAR,,290,17,23.0,,9999.0,,24.0,14.0,29.65,1005.2,,,,,,,,,,,,,,,7/8 Mostly Cloudy,20000.0,,SCT,4100,SCT,6900.0,BKN,20000.0,,
KRDR,06-27-2008,21:00,METAR,,300,15,,,9999.0,,22.0,16.0,29.65,1005.2,,,,,,,,,,,,7.2 IN,,,7/8 Mostly Cloudy,7000.0,,SCT,3000,BKN,6900.0,BKN,20000.0,,
KRDR,06-27-2008,20:00,METAR,,290,13,,,9999.0,,22.0,16.0,29.67,1005.8,,,,,,,,,,,TRACE,,,,7/8 Mostly Cloudy,20000.0,,SCT,2500,SCT,8900.0,BKN,20000.0,,
KRDR,06-27-2008,19:26,SPECI,,300,6,,,9999.0,,21.0,17.0,29.67,1005.9,,,,,,,,,,,,,,,7/8 Mostly Cloudy,9000.0,,FEW,2000,SCT,3600.0,BKN,8900.0,BKN,20000.0
KRDR,06-27-2008,19:00,METAR,,310,9,,,9999.0,Rain,21.0,16.0,29.67,1006.0,,,,61,,,,,,,TRACE,,,,8/8 Overcast,9000.0,,FEW,1800,SCT,6900.0,BKN,8900.0,OVC,20000.0
KRDR,06-27-2008,18:00,METAR,,340,7,,,9999.0,,21.0,16.0,29.65,1005.3,,,,,,,,,,,,,,,8/8 Overcast,20000.0,,SCT,12000,OVC,20000.0,,,,
KRDR,06-27-2008,17:00,METAR,,300,7,,,9999.0,,20.0,17.0,29.66,1005.6,,,,,,,,,,,,,,,8/8 Overcast,20000.0,,FEW,12000,OVC,20000.0,,,,
KRDR,06-27-2008,16:00,METAR,,300,7,,,9999.0,,21.0,17.0,29.67,1005.9,,,,,,,,,,,,,,,8/8 Overcast,20000.0,,FEW,12000,OVC,20000.0,,,,
KRDR,06-27-2008,15:00,METAR,,310,7,,,9999.0,,20.0,17.0,29.66,1005.5,,,,,,,,,,,,,,,7/8 Mostly Cloudy,20000.0,,FEW,9900,BKN,20000.0,,,,
KRDR,06-27-2008,14:00,METAR,,320,5,,,9999.0,,19.0,16.0,29.65,1005.4,,,,,,,,,,,,,,,7/8 Mostly Cloudy,20000.0,,BKN,20000,,,,,,
KRDR,06-27-2008,13:00,METAR,,310,6,,,9999.0,,16.0,16.0,29.67,1005.8,,,,,,,,,,,,,,,4/8 Partly Cloudy,72000.0,,SCT,20000,,,,,,
KRDR,06-27-2008,12:00,METAR,,270,3,,,9999.0,,14.0,14.0,29.68,1006.3,,,,,,,,,,,,,,.2 IN,4/8 Partly Cloudy,72000.0,,SCT,20000,,,,,,
KRDR,06-27-2008,11:00,METAR,,,0,,,9999.0,Mist,12.0,12.0,29.67,1006.1,,,,10,,,,,,,,,,,4/8 Partly Cloudy,72000.0,,SCT,17000,,,,,,
KRDR,06-27-2008,10:00,METAR,,320,4,,,9999.0,,13.0,13.0,29.66,1005.7,,,,,,,,,,,,,,,Clear,72000.0,,,73000,,,,,,
KRDR,06-27-2008,09:00,METAR,,290,5,,,9999.0,,14.0,14.0,29.69,1006.5,,,,,,,,,,,,,,,Clear,9000.0,,,73000,,,,,,
KRDR,06-27-2008,08:00,METAR,,330,5,,,9999.0,,14.0,13.0,29.67,1006.1,,,,,,,,,,,,,,,Clear,72000.0,,,73000,,,,,,
KRDR,06-27-2008,07:00,METAR,,10,3,,,9999.0,,16.0,15.0,29.67,1006.0,,,,,,,,,,,,,,,4/8 Partly Cloudy,72000.0,,FEW,3800,FEW,8400.0,SCT,20000.0,,
KRDR,06-27-2008,06:00,METAR,,80,6,,,9999.0,,16.0,15.0,29.67,1005.9,,,,,,,,,,,TRACE,,.19 IN,,4/8 Partly Cloudy,72000.0,,SCT,3800,SCT,8400.0,SCT,20000.0,,
KRDR,06-27-2008,05:07,SPECI,,80,17,,,9999.0,Rain,16.0,15.0,29.69,1006.6,,,,61,,,,,,,,,,,8/8 Overcast,8500.0,,SCT,3800,BKN,8400.0,OVC,20000.0,,
KRDR,06-27-2008,05:00,METAR,,40,10,,,9999.0,Rain,17.0,16.0,29.73,1007.9,,,,61,,,,,,,.16 IN,,,,8/8 Overcast,4900.0,,FEW,1100,SCT,2800.0,BKN,5000.0,OVC,7900.0
KRDR,06-27-2008,04:45,SPECI,,10,9,,,9999.0,Rain,17.0,16.0,29.73,1008.4,,,,61,,,,,,,,,,,8/8 Overcast,8000.0,,SCT,1500,SCT,2400.0,OVC,7900.0,,
KRDR,06-27-2008,04:27,SPECI,,340,11,,,6400.0,Rain,17.0,16.0,29.75,1008.8,,,,63,,,,,,,,,,,8/8 Overcast,2000.0,,SCT,1100,BKN,2000.0,OVC,3800.0,,
KRDR,06-27-2008,04:14,SPECI,,330,11,15.0,,4800.0,Rain,17.0,15.0,29.75,1008.9,,,,63,,,,,,,,,,,8/8 Overcast,4500.0,,FEW,1100,SCT,2700.0,OVC,4600.0,,
KRDR,06-27-2008,04:00,METAR,,290,11,15.0,230/27KTS,9999.0,Rain,18.0,15.0,29.76,1009.2,,,,61,,,,,,,.03 IN,,,,8/8 Overcast,11000.0,,FEW,4400,SCT,5000.0,BKN,11000.0,OVC,20000.0
KRDR,06-27-2008,03:49,SPECI,,290,10,,230/27KTS,9999.0,Rain,18.0,15.0,29.76,1009.2,,,,61,,,,,,,,,,,8/8 Overcast,11000.0,,FEW,4400,SCT,5900.0,BKN,11000.0,OVC,20000.0
KRDR,06-27-2008,03:37,SPECI,,250,13,27.0,230/27KTS,9999.0,Rain,18.0,16.0,29.75,1009.1,,,,61,,,,,,,,,,,8/8 Overcast,4900.0,,SCT,5000,BKN,11000.0,OVC,20000.0,,
KRDR,06-27-2008,03:00,METAR,,140,9,,,9999.0,Rain,21.0,16.0,29.70,1006.8,,,,61,,,,,,,TRACE,TRACE,,,8/8 Overcast,11000.0,,FEW,5000,SCT,8400.0,BKN,11000.0,OVC,20000.0
KRDR,06-27-2008,02:33,SPECI,,130,9,,,9999.0,Light Rain Showers,23.0,15.0,29.69,1006.6,,,,80,,,,,,,,,,,8/8 Overcast,8500.0,,SCT,5000,BKN,8400.0,OVC,20000.0,,
KRDR,06-27-2008,02:00,METAR,,100,10,,,9999.0,,23.0,15.0,29.71,1007.2,,,,,,,,,,,,,,,8/8 Overcast,18000.0,,FEW,5000,SCT,8400.0,BKN,18000.0,OVC,20000.0
KRDR,06-27-2008,01:00,METAR,,100,9,,,9999.0,,25.0,14.0,29.71,1007.4,,,,,,,,,,,,,,,7/8 Mostly Cloudy,25000.0,,FEW,5000,SCT,8900.0,BKN,25000.0,,
KRDR,06-27-2008,00:00,METAR,,120,10,,,9999.0,,26.0,13.0,29.73,1008.0,,,,,,,,,,,,,,,7/8 Mostly Cloudy,25000.0,,FEW,5000,SCT,11000.0,BKN,25000.0,,
KRDR,06-26-2008,23:00,METAR,,120,8,,,9999.0,,26.0,14.0,29.76,1009.3,,,,,,,,,,,,,,,7/8 Mostly Cloudy,25000.0,,FEW,5000,SCT,11000.0,BKN,25000.0,,
KRDR,06-26-2008,22:00,METAR,,100,6,,,9999.0,,26.0,16.0,29.79,1010.2,,,,,,,,,,,,,,,7/8 Mostly Cloudy,25000.0,,SCT,5000,SCT,11000.0,BKN,25000.0,,
KRDR,06-26-2008,21:00,METAR,,,0,,,9999.0,,26.0,14.0,29.82,1010.9,,,,,,,,,,,,,,,7/8 Mostly Cloudy,14000.0,,FEW,5000,SCT,9900.0,BKN,14000.0,BKN,25000.0
KRDR,06-26-2008,20:00,METAR,,350,5,,,9999.0,,25.0,14.0,29.84,1011.5,,,,,,,,,,,,,,,7/8 Mostly Cloudy,14000.0,,FEW,4000,SCT,9900.0,BKN,14000.0,BKN,25000.0
KRDR,06-26-2008,19:00,METAR,,,3,,,9999.0,,25.0,14.0,29.85,1011.9,,,,,,,,,,,,,,,7/8 Mostly Cloudy,8000.0,,FEW,4000,BKN,7900.0,BKN,25000.0,,
KRDR,06-26-2008,18:00,METAR,,310,3,,,9999.0,,22.0,16.0,29.86,1012.3,,,,,,,,,,,.01 IN,,.01 IN,,7/8 Mostly Cloudy,10000.0,,FEW,4000,BKN,9900.0,BKN,25000.0,,
KRDR,06-26-2008,17:24,SPECI,,220,4,,,9999.0,,22.0,16.0,29.86,,,,,,,,,,,,,,,,7/8 Mostly Cloudy,10000.0,,FEW,4000,BKN,9900.0,BKN,25000.0,,
KRDR,06-26-2008,17:00,METAR,,230,4,,,9999.0,Light Rain Showers,22.0,18.0,29.88,1013.0,,,,80,,,,,,,TRACE,,,,8/8 Overcast,10000.0,,SCT,4500,BKN,9900.0,OVC,25000.0,,
KRDR,06-26-2008,16:45,SPECI,,,0,,,9999.0,Light Rain Showers,23.0,17.0,29.88,,,,,80,,,,,,,,,,,8/8 Overcast,10000.0,,FEW,5000,BKN,9900.0,OVC,25000.0,,
KRDR,06-26-2008,16:17,SPECI,,230,4,,,9999.0,,24.0,15.0,29.88,,,,,,,,,,,,,,,,8/8 Overcast,10000.0,,FEW,3500,BKN,9900.0,OVC,25000.0,,
KRDR,06-26-2008,16:03,SPECI,,250,4,,,9999.0,Light Rain Showers,24.0,15.0,29.88,,,,,80,,,,,,,,,,,8/8 Overcast,10000.0,,FEW,3500,BKN,9900.0,OVC,25000.0,,
KRDR,06-26-2008,16:00,METAR,,270,3,,,9999.0,,24.0,15.0,29.88,1012.9,,,,,,,,,,,,,,,8/8 Overcast,12000.0,,BKN,12000,OVC,25000.0,,,,
KRDR,06-26-2008,15:00,METAR,,,0,,,9999.0,,25.0,15.0,29.86,1012.3,,,,,,,,,,,,,,,7/8 Mostly Cloudy,25000.0,,SCT,15000,BKN,25000.0,,,,
KRDR,06-26-2008,14:00,METAR,,,0,,,9999.0,,21.0,15.0,29.86,1012.4,,,,,,,,,,,,,,,7/8 Mostly Cloudy,25000.0,,FEW,12000,BKN,25000.0,,,,
KRDR,06-26-2008,13:00,METAR,,,0,,,9999.0,,18.0,14.0,29.88,1012.8,,,,,,,,,,,,,,,7/8 Mostly Cloudy,25000.0,,FEW,12000,BKN,25000.0,,,,
KRDR,06-26-2008,12:00,METAR,,220,5,,,9999.0,,16.0,13.0,29.89,1013.3,,,,,,,,,,,,,,,7/8 Mostly Cloudy,25000.0,,SCT,12000,BKN,25000.0,,,,
KRDR,06-26-2008,11:00,METAR,,,0,,,9999.0,,12.0,11.0,29.88,1012.9,,,,,,,,,,,,,,,7/8 Mostly Cloudy,25000.0,,SCT,12000,BKN,25000.0,,,,
KRDR,06-26-2008,10:00,METAR,,,0,,,9999.0,,12.0,10.0,29.87,1012.7,,,,,,,,,,,,,,,Clear,72000.0,,,73000,,,,,,
KRDR,06-26-2008,09:00,METAR,,,0,,,9999.0,,13.0,11.0,29.88,1012.7,,,,,,,,,,,,,,,Clear,72000.0,,,73000,,,,,,
KRDR,06-26-2008,08:00,METAR,,230,3,,,9999.0,,13.0,11.0,29.88,1012.9,,,,,,,,,,,,,,,2/8 Mostly Clear,72000.0,,FEW,25000,,,,,,
KRDR,06-26-2008,07:00,METAR,,230,3,,,9999.0,,14.0,12.0,29.89,1013.2,,,,,,,,,,,,,,,2/8 Mostly Clear,72000.0,,FEW,25000,,,,,,
KRDR,06-26-2008,06:00,METAR,,220,3,,,9999.0,,15.0,12.0,29.89,1013.2,,,,,,,,,,,,,,,2/8 Mostly Clear,72000.0,,FEW,25000,,,,,,
KRDR,06-26-2008,05:00,METAR,,240,4,,,9999.0,,15.0,12.0,29.89,1013.3,,,,,,,,,,,,,,,4/8 Partly Cloudy,72000.0,,SCT,25000,,,,,,
KRDR,06-26-2008,04:00,METAR,,240,3,,,9999.0,,16.0,12.0,29.89,1013.2,,,,,,,,,,,,,,,2/8 Mostly Clear,72000.0,,FEW,25000,,,,,,
KRDR,06-26-2008,03:00,METAR,,,0,,,9999.0,,18.0,12.0,29.88,1012.9,,,,,,,,,,,,,,,2/8 Mostly Clear,72000.0,,FEW,5900,FEW,25000.0,,,,
KRDR,06-26-2008,02:00,METAR,,350,5,,,9999.0,,22.0,13.0,29.86,1012.4,,,,,,,,,,,,,,,2/8 Mostly Clear,72000.0,,FEW,5900,FEW,9900.0,FEW,25000.0,,
KRDR,06-26-2008,01:00,METAR,,340,7,,,9999.0,,25.0,12.0,29.86,1012.3,,,,,,,,,,,,,,,2/8 Mostly Clear,72000.0,,FEW,5900,FEW,9900.0,FEW,25000.0,,
KRDR,06-26-2008,00:00,METAR,,310,10,17.0,,9999.0,,26.0,13.0,29.86,1012.2,,,,,,,,,,,,,,,4/8 Partly Cloudy,72000.0,,FEW,5900,SCT,9900.0,SCT,25000.0,,
KRDR,06-25-2008,23:00,METAR,,300,13,,,9999.0,,26.0,12.0,29.87,1012.5,,,,,,,,,,,,,,,7/8 Mostly Cloudy,10000.0,,SCT,6400,BKN,9900.0,,,,
KRDR,06-25-2008,22:00,METAR,,320,11,15.0,,9999.0,,27.0,13.0,29.87,1012.4,,,,,,,,,,,,,,,7/8 Mostly Cloudy,6000.0,,BKN,5900,,,,,,
KRDR,06-25-2008,21:00,METAR,,300,14,17.0,,9999.0,,27.0,12.0,29.87,1012.4,,,,,,,,,,,,,,,7/8 Mostly Cloudy,6500.0,,BKN,6400,,,,,,
KRDR,06-25-2008,20:00,METAR,,330,10,19.0,,9999.0,,26.0,12.0,29.86,1012.3,,,,,,,,,,,,,,,7/8 Mostly Cloudy,6000.0,,BKN,5900,,,,,,
KRDR,06-25-2008,19:00,METAR,,320,12,20.0,,9999.0,,26.0,13.0,29.85,1012.0,,,,,,,,,,,,,,,7/8 Mostly Cloudy,6000.0,,BKN,5900,,,,,,
KRDR,06-25-2008,18:00,METAR,,320,15,22.0,,9999.0,,25.0,14.0,29.84,1011.7,,,,,,,,,,,,,,,7/8 Mostly Cloudy,4900.0,,BKN,5000,,,,,,
KRDR,06-25-2008,17:00,METAR,,330,16,19.0,,9999.0,,25.0,14.0,29.83,1011.1,,,,,,,,,,,,,,,2/8 Mostly Clear,72000.0,,FEW,5000,,,,,,
KRDR,06-25-2008,16:00,METAR,,320,15,21.0,,9999.0,,24.0,14.0,29.81,1010.6,,,,,,,,,,,,,,,2/8 Mostly Clear,72000.0,,FEW,25000,,,,,,
KRDR,06-25-2008,15:00,METAR,,310,14,22.0,,9999.0,,23.0,15.0,29.80,1010.3,,,,,,,,,,,,,,,4/8 Partly Cloudy,72000.0,,SCT,25000,,,,,,
KRDR,06-25-2008,14:00,METAR,,300,13,,,9999.0,,21.0,16.0,29.78,1009.5,,,,,,,,,,,,,,,7/8 Mostly Cloudy,25000.0,,BKN,25000,,,,,,
KRDR,06-25-2008,13:00,METAR,,290,8,,,9999.0,,20.0,16.0,29.76,1009.0,,,,,,,,,,,,,,,7/8 Mostly Cloudy,25000.0,,BKN,25000,,,,,,
KRDR,06-25-2008,12:00,METAR,,280,3,,,9999.0,,17.0,15.0,29.76,1008.8,,,,,,,,,,,,,.03 IN,.03 IN,4/8 Partly Cloudy,72000.0,,FEW,5000,SCT,25000.0,,,,
KRDR,06-25-2008,11:00,METAR,,190,3,,,9999.0,,16.0,14.0,29.76,1009.0,,,,,,,,,,,,,,,7/8 Mostly Cloudy,25000.0,,SCT,5000,BKN,25000.0,,,,
KRDR,06-25-2008,10:00,METAR,,200,3,,,9999.0,,18.0,15.0,29.76,1008.9,,,,,,,,,,,,,,,7/8 Mostly Cloudy,4900.0,,BKN,5000,,,,,,
KRDR,06-25-2008,09:00,METAR,,210,5,,,9999.0,,18.0,15.0,29.75,,,,,,,,,,,,.03 IN,.03 IN,,,2/8 Mostly Clear,72000.0,,FEW,7900,,,,,,
KRDR,06-25-2008,08:22,SPECI,,210,15,19.0,,9999.0,,19.0,16.0,29.75,1008.7,,,,,,,,,,,,,,,7/8 Mostly Cloudy,11000.0,,FEW,6400,BKN,11000.0,,,,
KRDR,06-25-2008,08:00,METAR,,240,6,,,9999.0,Light Rain,19.0,12.0,29.75,1008.5,61,,,,,,,,,,TRACE,,,,2/8 Mostly Clear,72000.0,,FEW,12000,,,,,,
KRDR,06-25-2008,07:50,SPECI,,220,6,,,9999.0,,19.0,11.0,29.74,1008.4,,,,,,,,,,,,,,,Clear,72000.0,,,73000,,,,,,
KRDR,06-25-2008,07:00,METAR,,230,7,,,9999.0,,19.0,11.0,29.76,1008.8,,,,,,,,,,,,,,,2/8 Mostly Clear,72000.0,,FEW,12000,,,,,,
KRDR,06-25-2008,06:00,METAR,,130,4,,,9999.0,,22.0,10.0,29.77,1009.2,,,,,,,,,,,,,,,4/8 Partly Cloudy,72000.0,,SCT,12000,,,,,,
KRDR,06-25-2008,05:00,METAR,,100,6,,,9999.0,,23.0,9.0,29.78,1009.5,,,,,,,,,,,,,,,8/8 Overcast,20000.0,,SCT,13000,OVC,20000.0,,,,
KRDR,06-25-2008,04:00,METAR,,110,7,,,9999.0,,23.0,9.0,29.81,1010.5,,,,,,,,,,,,,,,8/8 Overcast,20000.0,,SCT,9900,SCT,15000.0,OVC,20000.0,,
KRDR,06-25-2008,03:00,METAR,,110,8,,,9999.0,,24.0,10.0,29.81,1010.4,,,,,,,,,,,,,,,8/8 Overcast,15000.0,,SCT,9900,BKN,15000.0,OVC,20000.0,,
KRDR,06-25-2008,02:00,METAR,,120,8,,,9999.0,,24.0,11.0,29.82,1011.1,,,,,,,,,,,,,,,8/8 Overcast,20000.0,,SCT,9900,SCT,15000.0,OVC,20000.0,,
KRDR,06-25-2008,01:00,METAR,,120,5,,,9999.0,,26.0,12.0,29.87,1012.5,,,,,,,,,,,,,,,8/8 Overcast,20000.0,,SCT,11000,OVC,20000.0,,,,
KRDR,06-25-2008,00:00,METAR,,120,5,,,9999.0,,27.0,10.0,29.88,1012.9,,,,,,,,,,,,,,,8/8 Overcast,20000.0,,SCT,12000,OVC,20000.0,,,,
KRDR,06-24-2008,23:00,METAR,,140,6,,,9999.0,,28.0,9.0,29.90,1013.7,,,,,,,,,,,,,,,7/8 Mostly Cloudy,25000.0,,FEW,8900,SCT,11000.0,BKN,25000.0,,
KRDR,06-24-2008,22:00,METAR,,160,7,,,9999.0,,28.0,8.0,29.92,1014.0,,,,,,,,,,,,,,,7/8 Mostly Cloudy,25000.0,,FEW,8900,SCT,11000.0,BKN,25000.0,,
KRDR,06-24-2008,21:00,METAR,,,4,,,9999.0,,28.0,10.0,29.92,1014.5,,,,,,,,,,,,,,,7/8 Mostly Cloudy,25000.0,,SCT,12000,BKN,25000.0,,,,
KRDR,06-24-2008,20:00,METAR,,200,6,,,9999.0,,27.0,10.0,29.92,1014.7,,,,,,,,,,,,,,,4/8 Partly Cloudy,72000.0,,SCT,12000,SCT,25000.0,,,,
KRDR,06-24-2008,19:00,METAR,,120,5,,,9999.0,,27.0,9.0,29.94,1015.1,,,,,,,,,,,,,,,7/8 Mostly Cloudy,25000.0,,SCT,12000,BKN,25000.0,,,,
KRDR,06-24-2008,18:00,METAR,,,0,,,9999.0,,26.0,9.0,29.96,1015.5,,,,,,,,,,,,,,,7/8 Mostly Cloudy,25000.0,,SCT,12000,BKN,25000.0,,,,
KRDR,06-24-2008,17:00,METAR,,,0,,,9999.0,,25.0,10.0,29.98,1016.1,,,,,,,,,,,,,,,4/8 Partly Cloudy,72000.0,,FEW,12000,SCT,25000.0,,,,
KRDR,06-24-2008,16:00,METAR,,,0,,,9999.0,,24.0,11.0,29.98,1016.1,,,,,,,,,,,,,,,4/8 Partly Cloudy,72000.0,,SCT,25000,,,,,,
KRDR,06-24-2008,15:00,METAR,,,0,,,9999.0,,23.0,12.0,29.99,1016.4,,,,,,,,,,,,,,,2/8 Mostly Clear,72000.0,,FEW,25000,,,,,,
KRDR,06-24-2008,14:00,METAR,,,3,,,9999.0,,21.0,13.0,30.00,1016.9,,,,,,,,,,,,,,,2/8 Mostly Clear,72000.0,,FEW,25000,,,,,,
KRDR,06-24-2008,13:00,METAR,,290,8,,,9999.0,,18.0,13.0,29.99,1016.7,,,,,,,,,,,,,,,2/8 Mostly Clear,72000.0,,FEW,25000,,,,,,
KRDR,06-24-2008,12:00,METAR,,250,4,,,9999.0,,14.0,12.0,29.98,1016.3,,,,,,,,,,,,,,,2/8 Mostly Clear,72000.0,,FEW,25000,,,,,,
KRDR,06-24-2008,11:00,METAR,,250,4,,,9999.0,,12.0,11.0,29.97,1015.7,,,,,,,,,,,,,,,2/8 Mostly Clear,72000.0,,FEW,25000,,,,,,
KRDR,06-24-2008,10:00,METAR,,250,5,,,9999.0,,14.0,12.0,29.95,1015.2,,,,,,,,,,,,,,,Clear,72000.0,,,73000,,,,,,
KRDR,06-24-2008,09:00,METAR,,270,5,,,9999.0,,15.0,13.0,29.95,1015.2,,,,,,,,,,,,,,,Clear,72000.0,,,73000,,,,,,
KRDR,06-24-2008,08:00,METAR,,240,5,,,9999.0,,16.0,13.0,29.95,1015.1,,,,,,,,,,,,,,,Clear,72000.0,,,73000,,,,,,
KRDR,06-24-2008,07:00,METAR,,250,7,,,9999.0,,18.0,13.0,29.94,1015.0,,,,,,,,,,,,,,,Clear,72000.0,,,73000,,,,,,
KRDR,06-24-2008,06:00,METAR,,230,6,,,9999.0,,20.0,11.0,29.92,1014.3,,,,,,,,,,,,,,,Clear,72000.0,,,73000,,,,,,
KRDR,06-24-2008,05:00,METAR,,180,6,,,9999.0,,21.0,11.0,29.93,1014.5,,,,,,,,,,,,,,,Clear,72000.0,,,73000,,,,,,
KRDR,06-24-2008,04:00,METAR,,180,12,,,9999.0,,21.0,11.0,29.92,1014.6,,,,,,,,,,,,,,,7/8 Mostly Cloudy,20000.0,,SCT,12000,BKN,20000.0,,,,
KRDR,06-24-2008,03:00,METAR,,190,7,,,9999.0,,21.0,11.0,29.94,1015.3,,,,,,,,,,,,,,,7/8 Mostly Cloudy,20000.0,,SCT,8900,SCT,12000.0,BKN,20000.0,,
KRDR,06-24-2008,02:00,METAR,,210,8,,,9999.0,,23.0,11.0,29.94,1015.2,,,,,,,,,,,,,,,7/8 Mostly Cloudy,9000.0,,BKN,8900,BKN,20000.0,,,,
KRDR,06-24-2008,01:00,METAR,,180,11,,,9999.0,,24.0,11.0,29.94,1015.1,,,,,,,,,,,,,,,7/8 Mostly Cloudy,20000.0,,FEW,7400,SCT,9900.0,BKN,20000.0,,
KRDR,06-24-2008,00:00,METAR,,200,10,,,9999.0,,26.0,10.0,29.97,1015.7,,,,,,,,,,,,,,,8/8 Overcast,10000.0,,FEW,7400,BKN,9900.0,OVC,20000.0,,
KRDR,06-23-2008,23:00,METAR,,210,12,,,9999.0,,27.0,10.0,29.96,1016.0,,,,,,,,,,,,,,,8/8 Overcast,12000.0,,SCT,7400,BKN,12000.0,OVC,20000.0,,
KRDR,06-23-2008,22:00,METAR,,170,10,,,9999.0,,26.0,10.0,29.98,1016.5,,,,,,,,,,,,,,,8/8 Overcast,12000.0,,SCT,7400,BKN,12000.0,OVC,20000.0,,
KRDR,06-23-2008,21:00,METAR,,180,7,,,9999.0,,26.0,11.0,30.00,1016.9,,,,,,,,,,,,,,,8/8 Overcast,12000.0,,FEW,6900,BKN,12000.0,OVC,20000.0,,
KRDR,06-23-2008,20:00,METAR,,,4,,,9999.0,,27.0,10.0,30.01,1017.2,,,,,,,,,,,,,,,8/8 Overcast,25000.0,,FEW,6900,SCT,14000.0,OVC,25000.0,,
KRDR,06-23-2008,19:00,METAR,,170,9,,,9999.0,,27.0,10.0,30.02,1017.5,,,,,,,,,,,,,,,8/8 Overcast,25000.0,,FEW,6900,SCT,15000.0,OVC,25000.0,,
KRDR,06-23-2008,18:00,METAR,,220,6,,,9999.0,,26.0,10.0,30.03,1017.8,,,,,,,,,,,,,,,7/8 Mostly Cloudy,25000.0,,FEW,6900,SCT,15000.0,BKN,25000.0,,
KRDR,06-23-2008,17:00,METAR,,210,6,,,9999.0,,26.0,12.0,30.04,1018.3,,,,,,,,,,,,,,,7/8 Mostly Cloudy,25000.0,,FEW,5400,SCT,15000.0,BKN,25000.0,,
KRDR,06-23-2008,16:00,METAR,,220,6,,,9999.0,,24.0,12.0,30.06,1018.7,,,,,,,,,,,,,,,7/8 Mostly Cloudy,25000.0,,SCT,15000,BKN,25000.0,,,,
KRDR,06-23-2008,15:00,METAR,,190,5,,,9999.0,,22.0,12.0,30.06,1018.8,,,,,,,,,,,,,,,7/8 Mostly Cloudy,25000.0,,SCT,15000,BKN,25000.0,,,,
KRDR,06-23-2008,14:00,METAR,,200,4,,,9999.0,,21.0,12.0,30.06,1018.9,,,,,,,,,,,,,,,7/8 Mostly Cloudy,25000.0,,SCT,15000,BKN,25000.0,,,,
KRDR,06-23-2008,13:00,METAR,,160,3,,,9999.0,,17.0,11.0,30.05,1018.4,,,,,,,,,,,,,,,7/8 Mostly Cloudy,25000.0,,FEW,15000,BKN,25000.0,,,,
KRDR,06-23-2008,12:00,METAR,,,0,,,9999.0,,13.0,11.0,30.04,1018.0,,,,,,,,,,,,,,,7/8 Mostly Cloudy,25000.0,,FEW,12000,BKN,25000.0,,,,
KRDR,06-23-2008,11:00,METAR,,210,2,,,9999.0,,9.0,7.0,30.05,1018.4,,,,,,,,,,,,,,,7/8 Mostly Cloudy,25000.0,,FEW,12000,BKN,25000.0,,,,
KRDR,06-23-2008,10:00,METAR,,,0,,,9999.0,,10.0,8.0,30.05,1018.6,,,,,,,,,,,,,,,Clear,72000.0,,,73000,,,,,,
KRDR,06-23-2008,09:00,METAR,,,0,,,9999.0,,11.0,9.0,30.06,1018.7,,,,,,,,,,,,,,,Clear,72000.0,,,73000,,,,,,
KRDR,06-23-2008,08:00,METAR,,250,5,,,9999.0,,10.0,8.0,30.05,1018.4,,,,,,,,,,,,,,,Clear,72000.0,,,73000,,,,,,
KRDR,06-23-2008,07:00,METAR,,,0,,,9999.0,,13.0,10.0,30.04,1018.1,,,,,,,,,,,,,,,Clear,72000.0,,,73000,,,,,,
KRDR,06-23-2008,06:00,METAR,,290,4,,,9999.0,,12.0,9.0,30.05,1018.6,,,,,,,,,,,,,,,Clear,72000.0,,,73000,,,,,,
KRDR,06-23-2008,05:00,METAR,,270,3,,,9999.0,,13.0,10.0,30.04,1018.2,,,,,,,,,,,,,,,Clear,72000.0,,,73000,,,,,,
KRDR,06-23-2008,04:00,METAR,,,0,,,9999.0,,16.0,10.0,30.03,1017.9,,,,,,,,,,,,,,,Clear,72000.0,,,73000,,,,,,
KRDR,06-23-2008,03:00,METAR,,80,4,,,9999.0,,18.0,11.0,30.03,1017.7,,,,,,,,,,,,,,,Clear,72000.0,,,73000,,,,,,
KRDR,06-23-2008,02:00,METAR,,70,4,,,9999.0,,23.0,10.0,30.01,1017.3,,,,,,,,,,,,,,,Clear,72000.0,,,73000,,,,,,
KRDR,06-23-2008,01:00,METAR,,50,9,,,9999.0,,25.0,10.0,30.01,1017.3,,,,,,,,,,,,,,,Clear,72000.0,,,73000,,,,,,
KRDR,06-23-2008,00:00,METAR,,40,10,,,9999.0,,25.0,9.0,30.02,1017.5,,,,,,,,,,,,,,,2/8 Mostly Clear,72000.0,,FEW,7900,,,,,,
KRDR,06-22-2008,23:00,METAR,,20,8,,,9999.0,,26.0,9.0,30.02,1017.4,,,,,,,,,,,,,,,Clear,72000.0,,,73000,,,,,,
KRDR,06-22-2008,22:00,METAR,,20,10,,,9999.0,,25.0,9.0,30.02,1017.6,,,,,,,,,,,,,,,Clear,72000.0,,,73000,,,,,,
KRDR,06-22-2008,21:00,METAR,,30,10,,,9999.0,,26.0,10.0,30.03,1017.8,,,,,,,,,,,,,,,2/8 Mostly Clear,72000.0,,FEW,7900,,,,,,
KRDR,06-22-2008,20:00,METAR,,50,9,,,9999.0,,26.0,10.0,30.04,1018.1,,,,,,,,,,,,,,,Clear,72000.0,,,73000,,,,,,
KRDR,06-22-2008,19:00,METAR,,,4,,,9999.0,,25.0,10.0,30.05,1018.6,,,,,,,,,,,,,,,2/8 Mostly Clear,72000.0,,FEW,6400,,,,,,
KRDR,06-22-2008,18:00,METAR,,10,7,,,9999.0,,24.0,10.0,30.07,1019.0,,,,,,,,,,,,,,,Clear,72000.0,,,73000,,,,,,
KRDR,06-22-2008,17:00,METAR,,20,9,,,9999.0,,24.0,10.0,30.08,1019.4,,,,,,,,,,,,,,,Clear,72000.0,,,73000,,,,,,
KRDR,06-22-2008,16:00,METAR,,40,7,,,9999.0,,22.0,11.0,30.08,1019.6,,,,,,,,,,,,,,,Clear,72000.0,,,73000,,,,,,
KRDR,06-22-2008,15:00,METAR,,350,5,,,9999.0,,21.0,11.0,30.09,1019.9,,,,,,,,,,,,,,,Clear,72000.0,,,73000,,,,,,
KRDR,06-22-2008,14:00,METAR,,360,7,,,9999.0,,19.0,11.0,30.09,1020.0,,,,,,,,,,,,,,,Clear,72000.0,,,73000,,,,,,
KRDR,06-22-2008,13:00,METAR,,340,6,,,9999.0,,17.0,10.0,30.09,1019.7,,,,,,,,,,,,,,,Clear,72000.0,,,73000,,,,,,
KRDR,06-22-2008,12:00,METAR,,300,5,,,9999.0,,12.0,9.0,30.08,1019.6,,,,,,,,,,,,,,,Clear,72000.0,,,73000,,,,,,
KRDR,06-22-2008,11:00,METAR,,290,3,,,9999.0,,9.0,7.0,30.07,1019.2,,,,,,,,,,,,,,,Clear,72000.0,,,73000,,,,,,
KRDR,06-22-2008,10:00,METAR,,310,3,,,9999.0,,10.0,7.0,30.07,1019.1,,,,,,,,,,,,,,,Clear,72000.0,,,73000,,,,,,
KRDR,06-22-2008,09:00,METAR,,290,5,,,9999.0,,11.0,7.0,30.06,1018.8,,,,,,,,,,,,,,,Clear,72000.0,,,73000,,,,,,
KRDR,06-22-2008,08:00,METAR,,300,7,,,9999.0,,12.0,8.0,30.06,1018.7,,,,,,,,,,,,,,,Clear,72000.0,,,73000,,,,,,
KRDR,06-22-2008,07:00,METAR,,290,6,,,9999.0,,12.0,8.0,30.05,1018.5,,,,,,,,,,,,,,,Clear,72000.0,,,73000,,,,,,
KRDR,06-22-2008,06:00,METAR,,290,7,,,9999.0,,12.0,9.0,30.06,1018.7,,,,,,,,,,,,,,,Clear,72000.0,,,73000,,,,,,
KRDR,06-22-2008,05:00,METAR,,300,4,,,9999.0,,11.0,8.0,30.06,1018.9,,,,,,,,,,,,,,,2/8 Mostly Clear,72000.0,,FEW,25000,,,,,,
KRDR,06-22-2008,04:00,METAR,,,0,,,9999.0,,13.0,9.0,30.06,1018.7,,,,,,,,,,,,,,,2/8 Mostly Clear,72000.0,,FEW,25000,,,,,,
KRDR,06-22-2008,03:00,METAR,,,0,,,9999.0,,17.0,10.0,30.06,1018.8,,,,,,,,,,,,,,,4/8 Partly Cloudy,72000.0,,FEW,7400,SCT,25000.0,,,,
KRDR,06-22-2008,02:00,METAR,,,0,,,9999.0,,20.0,10.0,30.05,1018.3,,,,,,,,,,,,,,,4/8 Partly Cloudy,72000.0,,FEW,5900,FEW,12000.0,SCT,25000.0,,
KRDR,06-22-2008,01:00,METAR,,50,10,,,9999.0,,23.0,9.0,30.05,1018.5,,,,,,,,,,,,,,,4/8 Partly Cloudy,72000.0,,FEW,5900,SCT,12000.0,SCT,25000.0,,
KRDR,06-22-2008,00:41,SPECI,,60,12,17.0,,9999.0,,23.0,9.0,30.05,1018.4,,,,,,,,,,,,,,,4/8 Partly Cloudy,72000.0,,FEW,5900,SCT,12000.0,SCT,25000.0,,
KRDR,06-22-2008,00:00,METAR,,330,11,,,9999.0,,24.0,8.0,30.03,1017.9,,,,,,,,,,,,,,,4/8 Partly Cloudy,72000.0,,FEW,5900,SCT,12000.0,SCT,25000.0,,
KRDR,06-21-2008,23:00,METAR,,330,12,22.0,,9999.0,,24.0,9.0,30.05,1018.4,,,,,,,,,,,,,,,4/8 Partly Cloudy,72000.0,,FEW,6900,SCT,11000.0,SCT,20000.0,,
KRDR,06-21-2008,22:00,METAR,,350,17,,,9999.0,,24.0,9.0,30.05,1018.5,,,,,,,,,,,,,,,7/8 Mostly Cloudy,12000.0,,SCT,6900,BKN,12000.0,BKN,20000.0,,
KRDR,06-21-2008,21:00,METAR,,340,11,,,9999.0,,26.0,9.0,30.05,1018.4,,,,,,,,,,,,,,,7/8 Mostly Cloudy,25000.0,,SCT,7400,BKN,25000.0,,,,
KRDR,06-21-2008,20:00,METAR,,350,16,23.0,,9999.0,,25.0,9.0,30.06,1018.8,,,,,,,,,,,,,,,4/8 Partly Cloudy,72000.0,,SCT,8400,,,,,,
KRDR,06-21-2008,19:00,METAR,,350,11,23.0,,9999.0,,25.0,8.0,30.07,1019.1,,,,,,,,,,,,,,,7/8 Mostly Cloudy,9000.0,,BKN,8900,,,,,,
KRDR,06-21-2008,18:00,METAR,,340,12,18.0,,9999.0,,25.0,8.0,30.07,1019.2,,,,,,,,,,,,,,,4/8 Partly Cloudy,72000.0,,SCT,7900,,,,,,
KRDR,06-21-2008,17:00,METAR,,320,9,18.0,,9999.0,,25.0,10.0,30.08,1019.4,,,,,,,,,,,,,,,4/8 Partly Cloudy,72000.0,,FEW,5900,SCT,25000.0,,,,
KRDR,06-21-2008,16:00,METAR,,340,12,18.0,,9999.0,,24.0,10.0,30.08,1019.5,,,,,,,,,,,,,,,4/8 Partly Cloudy,72000.0,,FEW,5400,SCT,25000.0,,,,
KRDR,06-21-2008,15:00,METAR,,320,9,,,9999.0,,23.0,11.0,30.08,1019.6,,,,,,,,,,,,,,,4/8 Partly Cloudy,72000.0,,SCT,25000,,,,,,
KRDR,06-21-2008,14:00,METAR,,300,11,,,9999.0,,21.0,11.0,30.08,1019.6,,,,,,,,,,,,,,,Clear,72000.0,,,73000,,,,,,
KRDR,06-21-2008,13:00,METAR,,280,6,,,9999.0,,17.0,11.0,30.08,1019.6,,,,,,,,,,,,,,,Clear,72000.0,,,73000,,,,,,
KRDR,06-21-2008,12:00,METAR,,280,7,,,9999.0,,14.0,10.0,30.08,1019.4,,,,,,,,,,,,,,,Clear,72000.0,,,73000,,,,,,
KRDR,06-21-2008,11:00,METAR,,290,8,,,9999.0,,11.0,9.0,30.07,1019.1,,,,,,,,,,,,,,,Clear,72000.0,,,73000,,,,,,
KRDR,06-21-2008,10:00,METAR,,310,7,,,9999.0,,12.0,9.0,30.06,1018.8,,,,,,,,,,,,,,,Clear,72000.0,,,73000,,,,,,
KRDR,06-21-2008,09:00,METAR,,310,7,,,9999.0,,14.0,9.0,30.05,1018.6,,,,,,,,,,,,,,,Clear,72000.0,,,73000,,,,,,
KRDR,06-21-2008,08:00,METAR,,290,8,,,9999.0,,12.0,9.0,30.04,1018.3,,,,,,,,,,,,,,,Clear,72000.0,,,73000,,,,,,
KRDR,06-21-2008,07:00,METAR,,280,4,,,9999.0,,13.0,9.0,30.04,1018.3,,,,,,,,,,,,,,,Clear,72000.0,,,73000,,,,,,
KRDR,06-21-2008,06:00,METAR,,290,7,,,9999.0,,14.0,10.0,30.04,1018.2,,,,,,,,,,,,,,,Clear,72000.0,,,73000,,,,,,
KRDR,06-21-2008,05:00,METAR,,280,5,,,9999.0,,12.0,9.0,30.04,1018.0,,,,,,,,,,,,,,,Clear,72000.0,,,73000,,,,,,
KRDR,06-21-2008,04:00,METAR,,280,5,,,9999.0,,13.0,9.0,30.03,1017.9,,,,,,,,,,,,,,,Clear,72000.0,,,73000,,,,,,
KRDR,06-21-2008,03:00,METAR,,340,6,,,9999.0,,17.0,10.0,30.02,1017.5,,,,,,,,,,,,,,,Clear,72000.0,,,73000,,,,,,
KRDR,06-21-2008,02:00,METAR,,340,7,,,9999.0,,20.0,11.0,30.00,1016.8,,,,,,,,,,,,,,,Clear,72000.0,,,73000,,,,,,
KRDR,06-21-2008,01:00,METAR,,330,12,21.0,,9999.0,,22.0,9.0,30.00,1016.7,,,,,,,,,,,,,,,4/8 Partly Cloudy,72000.0,,SCT,9900,,,,,,
KRDR,06-21-2008,00:00,METAR,,330,13,18.0,,9999.0,,24.0,9.0,29.99,1016.6,,,,,,,,,,,,,,,4/8 Partly Cloudy,72000.0,,SCT,9400,,,,,,
KRDR,06-20-2008,23:00,METAR,,330,17,23.0,,9999.0,,24.0,8.0,29.99,1016.7,,,,,,,,,,,,,,,Clear,72000.0,,,73000,,,,,,
KRDR,06-20-2008,22:00,METAR,,330,17,23.0,,9999.0,,24.0,9.0,30.00,1016.9,,,,,,,,,,,,,,,4/8 Partly Cloudy,72000.0,,SCT,6900,,,,,,
KRDR,06-20-2008,21:00,METAR,,310,18,24.0,310/28KTS,9999.0,,24.0,8.0,30.00,1016.9,,,,,,,,,,,,,,,4/8 Partly Cloudy,72000.0,,SCT,6900,,,,,,
KRDR,06-20-2008,20:00,METAR,,300,17,25.0,290/30KTS,9999.0,,24.0,8.0,30.00,1016.9,,,,,,,,,,,,,,,4/8 Partly Cloudy,72000.0,,SCT,6900,,,,,,
KRDR,06-20-2008,19:00,METAR,,320,16,23.0,320/27KTS,9999.0,,24.0,6.0,30.01,1017.1,,,,,,,,,,,,,,,4/8 Partly Cloudy,72000.0,,SCT,7400,,,,,,
KRDR,06-20-2008,18:00,METAR,,310,17,23.0,320/27KTS,9999.0,,24.0,8.0,30.00,1017.0,,,,,,,,,,,,,,,4/8 Partly Cloudy,72000.0,,SCT,6900,,,,,,
KRDR,06-20-2008,17:00,METAR,,320,15,23.0,,9999.0,,24.0,8.0,30.00,1016.7,,,,,,,,,,,,,,,2/8 Mostly Clear,72000.0,,FEW,6900,,,,,,
KRDR,06-20-2008,16:00,METAR,,340,16,23.0,,9999.0,,24.0,9.0,29.99,1016.5,,,,,,,,,,,,,,,2/8 Mostly Clear,72000.0,,FEW,5400,,,,,,
KRDR,06-20-2008,15:00,METAR,,340,16,21.0,,9999.0,,23.0,11.0,29.98,1016.2,,,,,,,,,,,,,,,2/8 Mostly Clear,72000.0,,FEW,3000,,,,,,
KRDR,06-20-2008,14:00,METAR,,330,10,,,9999.0,,20.0,13.0,29.98,1016.1,,,,,,,,,,,,,,,2/8 Mostly Clear,72000.0,,FEW,3000,,,,,,
KRDR,06-20-2008,13:00,METAR,,320,13,18.0,,9999.0,,18.0,13.0,29.97,1015.8,,,,,,,,,,,,,,,2/8 Mostly Clear,72000.0,,FEW,2000,FEW,12000.0,,,,
KRDR,06-20-2008,12:00,METAR,,320,8,,,9999.0,,16.0,12.0,29.96,1015.5,,,,,,,,,,,,,,,2/8 Mostly Clear,72000.0,,FEW,12000,,,,,,
KRDR,06-20-2008,11:00,METAR,,230,4,,,9999.0,,14.0,11.0,29.96,1015.4,,,,,,,,,,,,,,,4/8 Partly Cloudy,72000.0,,SCT,12000,,,,,,
KRDR,06-20-2008,10:00,METAR,,240,4,,,9999.0,,13.0,11.0,29.95,1015.2,,,,,,,,,,,,,,,4/8 Partly Cloudy,72000.0,,SCT,11000,,,,,,
KRDR,06-20-2008,09:00,METAR,,,0,,,9999.0,,12.0,10.0,29.94,1015.0,,,,,,,,,,,,,,,2/8 Mostly Clear,72000.0,,FEW,12000,,,,,,
KRDR,06-20-2008,08:00,METAR,,290,4,,,9999.0,,12.0,10.0,29.95,1015.2,,,,,,,,,,,,,,,7/8 Mostly Cloudy,12000.0,,BKN,12000,,,,,,
KRDR,06-20-2008,07:00,METAR,,240,4,,,9999.0,,14.0,10.0,29.95,1015.1,,,,,,,,,,,,,,,Clear,72000.0,,,73000,,,,,,
KRDR,06-20-2008,06:00,METAR,,270,5,,,9999.0,,13.0,10.0,29.95,1015.1,,,,,,,,,,,,,,,4/8 Partly Cloudy,72000.0,,SCT,12000,,,,,,
KRDR,06-20-2008,05:00,METAR,,,0,,,9999.0,,15.0,11.0,29.95,1015.2,,,,,,,,,,,,,,,2/8 Mostly Clear,72000.0,,FEW,11000,FEW,25000.0,,,,
KRDR,06-20-2008,04:00,METAR,,300,5,,,9999.0,,16.0,11.0,29.94,1015.0,,,,,,,,,,,,,,,4/8 Partly Cloudy,72000.0,,FEW,11000,SCT,25000.0,,,,
KRDR,06-20-2008,03:00,METAR,,300,4,,,9999.0,,18.0,11.0,29.94,1014.7,,,,,,,,,,,,,,,7/8 Mostly Cloudy,25000.0,,SCT,11000,BKN,25000.0,,,,
KRDR,06-20-2008,02:00,METAR,,340,6,,,9999.0,,21.0,11.0,29.92,1014.2,,,,,,,,,,,,,,,4/8 Partly Cloudy,72000.0,,FEW,11000,SCT,25000.0,,,,
KRDR,06-20-2008,01:00,METAR,,340,9,,,9999.0,,24.0,9.0,29.91,1013.8,,,,,,,,,,,,,,,4/8 Partly Cloudy,72000.0,,FEW,7900,SCT,25000.0,,,,
KRDR,06-20-2008,00:00,METAR,,330,10,,,9999.0,,25.0,11.0,29.89,1013.3,,,,,,,,,,,,,,,2/8 Mostly Clear,72000.0,,FEW,5900,FEW,25000.0,,,,
KRDR,06-19-2008,23:00,METAR,,340,10,,,9999.0,,26.0,12.0,29.90,1013.5,,,,,,,,,,,,,,,4/8 Partly Cloudy,72000.0,,FEW,5900,SCT,25000.0,,,,
KRDR,06-19-2008,22:00,METAR,,340,9,,,9999.0,,25.0,13.0,29.90,1013.6,,,,,,,,,,,,,,,7/8 Mostly Cloudy,6000.0,,BKN,5900,,,,,,
KRDR,06-19-2008,21:00,METAR,,350,9,,,9999.0,,26.0,13.0,29.90,1013.7,,,,,,,,,,,,,,,7/8 Mostly Cloudy,8000.0,,SCT,5400,BKN,7900.0,,,,
KRDR,06-19-2008,20:00,METAR,,350,5,,,9999.0,,27.0,14.0,29.91,1013.9,,,,,,,,,,,,,,,7/8 Mostly Cloudy,6000.0,,BKN,5900,,,,,,
KRDR,06-19-2008,19:00,METAR,,340,8,,,9999.0,,26.0,13.0,29.91,1013.8,,,,,,,,,,,,,,,2/8 Mostly Clear,72000.0,,FEW,5000,,,,,,
KRDR,06-19-2008,18:00,METAR,,340,4,,,9999.0,,25.0,13.0,29.91,1013.9,,,,,,,,,,,,,,,2/8 Mostly Clear,72000.0,,FEW,8900,,,,,,
KRDR,06-19-2008,17:00,METAR,,290,7,,,9999.0,,24.0,13.0,29.91,1014.0,,,,,,,,,,,,,,,2/8 Mostly Clear,72000.0,,FEW,8900,,,,,,
KRDR,06-19-2008,16:00,METAR,,,3,,,9999.0,,23.0,14.0,29.92,1014.2,,,,,,,,,,,,,,,2/8 Mostly Clear,72000.0,,FEW,8900,FEW,25000.0,,,,
KRDR,06-19-2008,15:00,METAR,,330,8,,,9999.0,,21.0,14.0,29.92,1014.6,,,,,,,,,,,,,,,4/8 Partly Cloudy,72000.0,,FEW,8900,SCT,25000.0,,,,
KRDR,06-19-2008,14:00,METAR,,310,6,,,9999.0,,19.0,13.0,29.93,1014.7,,,,,,,,,,,,,,,4/8 Partly Cloudy,72000.0,,FEW,5000,FEW,8900.0,SCT,25000.0,,
KRDR,06-19-2008,13:00,METAR,,320,6,,,9999.0,,17.0,13.0,29.93,1014.9,,,,,,,,,,,,,,,4/8 Partly Cloudy,72000.0,,FEW,5000,FEW,8900.0,SCT,25000.0,,
KRDR,06-19-2008,12:00,METAR,,290,5,,,9999.0,,14.0,12.0,29.92,1014.4,,,,,,,,,,,,,,,2/8 Mostly Clear,72000.0,,FEW,8900,FEW,25000.0,,,,
KRDR,06-19-2008,11:00,METAR,,290,4,,,9999.0,,11.0,10.0,29.92,1014.3,,,,,,,,,,,,,,,Clear,72000.0,,,73000,,,,,,
KRDR,06-19-2008,10:00,METAR,,300,7,,,9999.0,,14.0,12.0,29.94,1014.8,,,,,,,,,,,,,,,7/8 Mostly Cloudy,9000.0,,BKN,8900,,,,,,
KRDR,06-19-2008,09:00,METAR,,320,3,,,9999.0,,11.0,11.0,29.93,1014.6,,,,,,,,,,,,,,,Clear,72000.0,,,73000,,,,,,
KRDR,06-19-2008,08:00,METAR,,250,3,,,9999.0,,12.0,11.0,29.92,1014.1,,,,,,,,,,,,,,,Clear,72000.0,,,73000,,,,,,
KRDR,06-19-2008,07:00,METAR,,180,3,,,9999.0,,14.0,11.0,29.90,1013.4,,,,,,,,,,,,,,,Clear,72000.0,,,73000,,,,,,
KRDR,06-19-2008,06:00,METAR,,170,5,,,9999.0,,14.0,12.0,29.89,1013.1,,,,,,,,,,,,,TRACE,,7/8 Mostly Cloudy,20000.0,,FEW,7900,BKN,20000.0,,,,
KRDR,06-19-2008,05:00,METAR,,250,4,,,9999.0,,14.0,12.0,29.90,1013.6,,,,,,,,,,,,,,,7/8 Mostly Cloudy,20000.0,,FEW,7400,BKN,20000.0,,,,
KRDR,06-19-2008,04:00,METAR,,180,9,,,9999.0,,15.0,13.0,29.89,1013.3,,,,,,,,,,,,,,,7/8 Mostly Cloudy,20000.0,,FEW,7900,BKN,20000.0,,,,
KRDR,06-19-2008,03:00,METAR,,,0,,,9999.0,,15.0,13.0,29.93,1014.6,,,,,,,,,,,TRACE,TRACE,,,8/8 Overcast,8000.0,,FEW,2900,OVC,7900.0,,,,
KRDR,06-19-2008,02:37,SPECI,,,2,,,9999.0,,15.0,13.0,29.95,,,,,,,,,,,,,,,,8/8 Overcast,7000.0,,FEW,2900,OVC,6900.0,,,,
KRDR,06-19-2008,02:09,SPECI,,360,13,19.0,,9999.0,Rain,17.0,12.0,29.97,,,,,61,,,,,,,,,,,8/8 Overcast,8000.0,,OVC,7900,,,,,,
KRDR,06-19-2008,02:00,METAR,,340,13,20.0,320/32KTS,9999.0,Precipitation in the Vicinity,17.0,12.0,29.99,1016.4,,,,16,,,,,,,TRACE,,,,8/8 Overcast,8000.0,,OVC,7900,,,,,,
KRDR,06-19-2008,01:31,SPECI,,340,15,,320/32KTS,9999.0,,17.0,12.0,30.00,1016.7,,,,,,,,,,,,,,,8/8 Overcast,7500.0,,OVC,7400,,,,,,
KRDR,06-19-2008,01:08,SPECI,,350,16,26.0,320/32KTS,9999.0,Rain,18.0,12.0,29.98,1016.3,,,,61,,,,,,,,,,,8/8 Overcast,7500.0,,OVC,7400,,,,,,
KRDR,06-19-2008,01:00,METAR,,340,23,35.0,320/35KTS,9999.0,Thunderstorm,20.0,11.0,29.97,1015.9,,,,17,,,,,,,,,,,8/8 Overcast,8000.0,,OVC,7900,,,,,,
KRDR,06-19-2008,00:48,SPECI,,340,25,34.0,320/34KTS,9999.0,,20.0,10.0,29.96,1015.6,,,,,,,,,,,,,,,7/8 Mostly Cloudy,8000.0,,BKN,7900,,,,,,
KRDR,06-19-2008,00:00,METAR,,260,7,,,9999.0,,25.0,13.0,29.92,1014.2,,,,,,,,,,,,,,,8/8 Overcast,9000.0,,BKN,8900,OVC,25000.0,,,,
KRDR,06-18-2008,23:00,METAR,,220,8,,,9999.0,,27.0,9.0,29.92,1014.2,,,,,,,,,,,,,,,7/8 Mostly Cloudy,25000.0,,FEW,7900,BKN,25000.0,,,,
KRDR,06-18-2008,22:00,METAR,,210,13,,,9999.0,,28.0,9.0,29.95,1015.1,,,,,,,,,,,,,,,7/8 Mostly Cloudy,25000.0,,SCT,8400,BKN,25000.0,,,,
KRDR,06-18-2008,21:00,METAR,,150,8,,,9999.0,,27.0,10.0,29.94,1014.8,,,,,,,,,,,,,,,7/8 Mostly Cloudy,25000.0,,FEW,7900,BKN,25000.0,,,,
KRDR,06-18-2008,20:00,METAR,,,4,,,9999.0,,26.0,10.0,29.97,1015.8,,,,,,,,,,,,,,,7/8 Mostly Cloudy,25000.0,,FEW,7900,BKN,25000.0,,,,
KRDR,06-18-2008,19:00,METAR,,,0,,,9999.0,,26.0,10.0,29.98,1016.3,,,,,,,,,,,,,,,7/8 Mostly Cloudy,25000.0,,FEW,5000,SCT,12000.0,BKN,25000.0,,
KRDR,06-18-2008,18:00,METAR,,,0,,,9999.0,,25.0,10.0,29.98,1016.7,,,,,,,,,,,,,,,8/8 Overcast,25000.0,,FEW,12000,OVC,25000.0,,,,
KRDR,06-18-2008,17:00,METAR,,,3,,,9999.0,,25.0,10.0,30.01,1017.1,,,,,,,,,,,,,,,7/8 Mostly Cloudy,25000.0,,BKN,25000,,,,,,
KRDR,06-18-2008,16:00,METAR,,150,3,,,9999.0,,24.0,10.0,30.02,1017.4,,,,,,,,,,,,,,,7/8 Mostly Cloudy,25000.0,,BKN,25000,,,,,,
KRDR,06-18-2008,15:00,METAR,,170,5,,,9999.0,,22.0,11.0,30.03,1017.8,,,,,,,,,,,,,,,7/8 Mostly Cloudy,25000.0,,BKN,25000,,,,,,
KRDR,06-18-2008,14:00,METAR,,,0,,,9999.0,,20.0,11.0,30.04,1018.1,,,,,,,,,,,,,,,7/8 Mostly Cloudy,25000.0,,BKN,25000,,,,,,
KRDR,06-18-2008,13:00,METAR,,,0,,,9999.0,,18.0,12.0,30.05,1018.5,,,,,,,,,,,,,,,4/8 Partly Cloudy,72000.0,,FEW,11000,SCT,25000.0,,,,
KRDR,06-18-2008,12:00,METAR,,,0,,,9999.0,,11.0,10.0,30.05,1018.4,,,,,,,,,,,,,,IN,7/8 Mostly Cloudy,25000.0,,FEW,11000,BKN,25000.0,,,,
KRDR,06-18-2008,11:00,METAR,,,0,,,9999.0,,8.0,7.0,30.04,1018.2,,,,,,,,,,,,,,,Clear,72000.0,,,73000,,,,,,
KRDR,06-18-2008,10:00,METAR,,290,3,,,9999.0,,8.0,7.0,30.03,1017.8,,,,,,,,,,,,,,,Clear,72000.0,,,73000,,,,,,
KRDR,06-18-2008,09:00,METAR,,,0,,,9999.0,,9.0,8.0,30.02,1017.6,,,,,,,,,,,,,,,Clear,72000.0,,,73000,,,,,,
KRDR,06-18-2008,08:00,METAR,,290,3,,,9999.0,,9.0,8.0,30.03,1017.8,,,,,,,,,,,,,,,Clear,72000.0,,,73000,,,,,,
KRDR,06-18-2008,07:00,METAR,,,0,,,9999.0,,10.0,9.0,30.03,1017.7,,,,,,,,,,,,,,,Clear,72000.0,,,73000,,,,,,
KRDR,06-18-2008,06:00,METAR,,,0,,,9999.0,,11.0,9.0,30.04,1018.1,,,,,,,,,,,,,,,Clear,72000.0,,,73000,,,,,,
KRDR,06-18-2008,05:00,METAR,,,0,,,9999.0,,13.0,9.0,30.03,1017.8,,,,,,,,,,,,,,,Clear,72000.0,,,73000,,,,,,
KRDR,06-18-2008,04:00,METAR,,70,4,,,9999.0,,18.0,9.0,30.02,1017.5,,,,,,,,,,,,,,,2/8 Mostly Clear,72000.0,,FEW,25000,,,,,,
KRDR,06-18-2008,03:00,METAR,,60,6,,,9999.0,,19.0,9.0,30.02,1017.4,,,,,,,,,,,,,,,2/8 Mostly Clear,72000.0,,FEW,25000,,,,,,
KRDR,06-18-2008,02:00,METAR,,10,3,,,9999.0,,21.0,12.0,30.02,1017.4,,,,,,,,,,,,,,,2/8 Mostly Clear,72000.0,,FEW,7900,FEW,25000.0,,,,
KRDR,06-18-2008,01:00,METAR,,,5,,,9999.0,,24.0,11.0,30.02,1017.4,,,,,,,,,,,,,,,2/8 Mostly Clear,72000.0,,FEW,7900,,,,,,
KRDR,06-18-2008,00:00,METAR,,10,6,,,9999.0,,25.0,11.0,30.02,1017.5,,,,,,,,,,,,,,,2/8 Mostly Clear,72000.0,,FEW,7400,,,,,,
KRDR,06-17-2008,23:00,METAR,,40,7,,,9999.0,,26.0,10.0,30.02,1017.6,,,,,,,,,,,,,,,2/8 Mostly Clear,72000.0,,FEW,7400,,,,,,
KRDR,06-17-2008,22:00,METAR,,350,6,,,9999.0,,24.0,10.0,30.04,1018.2,,,,,,,,,,,,,,,4/8 Partly Cloudy,72000.0,,SCT,8900,,,,,,
KRDR,06-17-2008,21:00,METAR,,10,5,,,9999.0,,26.0,10.0,30.05,1018.3,,,,,,,,,,,,,,,4/8 Partly Cloudy,72000.0,,SCT,9900,,,,,,
KRDR,06-17-2008,20:00,METAR,,350,6,,,9999.0,,24.0,11.0,30.06,1018.7,,,,,,,,,,,,,,,4/8 Partly Cloudy,72000.0,,SCT,8900,,,,,,
KRDR,06-17-2008,19:00,METAR,,,4,,,9999.0,,25.0,10.0,30.07,1019.0,,,,,,,,,,,,,,,7/8 Mostly Cloudy,6500.0,,BKN,6400,,,,,,
KRDR,06-17-2008,18:00,METAR,,,6,,,9999.0,,25.0,9.0,30.07,1019.2,,,,,,,,,,,,,,,7/8 Mostly Cloudy,6500.0,,BKN,6400,,,,,,
KRDR,06-17-2008,17:00,METAR,,350,7,,,9999.0,,24.0,9.0,30.08,1019.5,,,,,,,,,,,,,,,4/8 Partly Cloudy,72000.0,,FEW,3500,SCT,18000.0,,,,
KRDR,06-17-2008,16:00,METAR,,320,7,,,9999.0,,23.0,9.0,30.09,1019.7,,,,,,,,,,,,,,,2/8 Mostly Clear,72000.0,,FEW,3000,FEW,18000.0,,,,
KRDR,06-17-2008,15:00,METAR,,340,6,,,9999.0,,22.0,10.0,30.09,1019.8,,,,,,,,,,,,,,,2/8 Mostly Clear,72000.0,,FEW,18000,,,,,,
KRDR,06-17-2008,14:00,METAR,,300,6,,,9999.0,,20.0,9.0,30.09,1019.8,,,,,,,,,,,,,,,2/8 Mostly Clear,72000.0,,FEW,18000,,,,,,
KRDR,06-17-2008,13:00,METAR,,290,5,,,9999.0,,16.0,10.0,30.09,1019.8,,,,,,,,,,,,,,,2/8 Mostly Clear,72000.0,,FEW,18000,,,,,,
KRDR,06-17-2008,12:00,METAR,,280,4,,,9999.0,,12.0,8.0,30.08,1019.6,,,,,,,,,,,,,,,2/8 Mostly Clear,72000.0,,FEW,18000,,,,,,
KRDR,06-17-2008,11:00,METAR,,260,3,,,9999.0,,8.0,6.0,30.07,1019.2,,,,,,,,,,,,,,,2/8 Mostly Clear,72000.0,,FEW,18000,,,,,,
KRDR,06-17-2008,10:00,METAR,,250,3,,,9999.0,,8.0,6.0,30.07,1019.2,,,,,,,,,,,,,,,Clear,72000.0,,,73000,,,,,,
KRDR,06-17-2008,09:00,METAR,,230,4,,,9999.0,,8.0,6.0,30.07,1019.2,,,,,,,,,,,,,,,Clear,72000.0,,,73000,,,,,,
KRDR,06-17-2008,08:00,METAR,,260,4,,,9999.0,,9.0,7.0,30.07,1019.2,,,,,,,,,,,,,,,Clear,72000.0,,,73000,,,,,,
KRDR,06-17-2008,07:00,METAR,,240,4,,,9999.0,,10.0,8.0,30.07,1019.2,,,,,,,,,,,,,,,Clear,72000.0,,,73000,,,,,,
KRDR,06-17-2008,06:00,METAR,,,0,,,9999.0,,10.0,8.0,30.08,1019.4,,,,,,,,,,,,,,,Clear,72000.0,,,73000,,,,,,
KRDR,06-17-2008,05:00,METAR,,,3,,,9999.0,,12.0,8.0,30.08,1019.6,,,,,,,,,,,,,,,Clear,72000.0,,,73000,,,,,,
KRDR,06-17-2008,04:00,METAR,,,0,,,9999.0,,18.0,9.0,30.09,1019.7,,,,,,,,,,,,,,,2/8 Mostly Clear,72000.0,,FEW,7900,,,,,,
KRDR,06-17-2008,03:00,METAR,,280,5,,,9999.0,,15.0,9.0,30.07,1019.2,,,,,,,,,,,,,,,2/8 Mostly Clear,72000.0,,FEW,7900,,,,,,
KRDR,06-17-2008,02:00,METAR,,280,6,,,9999.0,,19.0,9.0,30.06,1018.8,,,,,,,,,,,,,,,4/8 Partly Cloudy,72000.0,,FEW,6900,SCT,12000.0,,,,
KRDR,06-17-2008,01:00,METAR,,300,5,,,9999.0,,21.0,9.0,30.06,1018.7,,,,,,,,,,,,,,,2/8 Mostly Clear,72000.0,,FEW,7900,,,,,,
KRDR,06-17-2008,00:00,METAR,,340,9,,,9999.0,,22.0,8.0,30.06,1018.7,,,,,,,,,,,,,,,2/8 Mostly Clear,72000.0,,FEW,6900,,,,,,
KRDR,06-16-2008,23:00,METAR,,320,10,,,9999.0,,23.0,8.0,30.06,1018.9,,,,,,,,,,,,,,,4/8 Partly Cloudy,72000.0,,FEW,6400,SCT,8900.0,,,,
KRDR,06-16-2008,22:00,METAR,,320,6,15.0,,9999.0,,23.0,8.0,30.07,1019.0,,,,,,,,,,,,,,,4/8 Partly Cloudy,72000.0,,SCT,7900,,,,,,
KRDR,06-16-2008,21:00,METAR,,340,9,,,9999.0,,22.0,8.0,30.07,1019.3,,,,,,,,,,,,,,,4/8 Partly Cloudy,72000.0,,SCT,6900,,,,,,
KRDR,06-16-2008,20:00,METAR,,350,10,,,9999.0,,22.0,8.0,30.08,1019.5,,,,,,,,,,,,,,,4/8 Partly Cloudy,72000.0,,SCT,6900,,,,,,
KRDR,06-16-2008,19:00,METAR,,320,8,14.0,,9999.0,,21.0,8.0,30.09,1019.7,,,,,,,,,,,,,,,2/8 Mostly Clear,72000.0,,FEW,5400,,,,,,
KRDR,06-16-2008,18:00,METAR,,330,7,,,9999.0,,20.0,8.0,30.10,1020.1,,,,,,,,,,,,,,,2/8 Mostly Clear,72000.0,,FEW,3500,,,,,,
KRDR,06-16-2008,17:00,METAR,,340,7,,,9999.0,,18.0,8.0,30.11,1020.4,,,,,,,,,,,,,,,2/8 Mostly Clear,72000.0,,FEW,3000,,,,,,
KRDR,06-16-2008,16:00,METAR,,330,4,,,9999.0,,17.0,6.0,30.11,1020.5,,,,,,,,,,,,,,,Clear,72000.0,,,73000,,,,,,
KRDR,06-16-2008,15:00,METAR,,40,4,,,9999.0,,16.0,7.0,30.11,1020.4,,,,,,,,,,,,,,,Clear,72000.0,,,73000,,,,,,
KRDR,06-16-2008,14:00,METAR,,,6,,,9999.0,,14.0,8.0,30.10,1020.1,,,,,,,,,,,,,,,Clear,72000.0,,,73000,,,,,,
KRDR,06-16-2008,13:00,METAR,,320,6,,,9999.0,,12.0,8.0,30.09,1019.7,,,,,,,,,,,,,,,Clear,72000.0,,,73000,,,,,,
KRDR,06-16-2008,12:00,METAR,,280,6,,,9999.0,,9.0,7.0,30.07,1019.3,,,,,,,,,,,,,,.01 IN,2/8 Mostly Clear,72000.0,,FEW,15000,,,,,,
KRDR,06-16-2008,11:00,METAR,,290,5,,,9999.0,,6.0,5.0,30.06,1018.9,,,,,,,,,,,,,,,Clear,72000.0,,,73000,,,,,,
KRDR,06-16-2008,10:00,METAR,,10,4,,,9999.0,,6.0,5.0,30.05,1018.5,,,,,,,,,,,,,,,Clear,72000.0,,,73000,,,,,,
KRDR,06-16-2008,09:00,METAR,,310,4,,,9999.0,,9.0,6.0,30.03,1017.9,,,,,,,,,,,,,,,Clear,72000.0,,,73000,,,,,,
KRDR,06-16-2008,08:00,METAR,,290,6,,,9999.0,,9.0,7.0,30.02,1017.5,,,,,,,,,,,,,,,Clear,72000.0,,,73000,,,,,,
KRDR,06-16-2008,07:00,METAR,,300,8,,,9999.0,,10.0,7.0,30.01,1017.3,,,,,,,,,,,,,,,2/8 Mostly Clear,72000.0,,FEW,8900,,,,,,
KRDR,06-16-2008,06:00,METAR,,300,7,,,9999.0,,11.0,7.0,30.01,1017.2,,,,,,,,,,,,,,,4/8 Partly Cloudy,72000.0,,SCT,8900,,,,,,
KRDR,06-16-2008,05:00,METAR,,280,8,,,9999.0,,11.0,7.0,30.00,1016.8,,,,,,,,,,,,,,,2/8 Mostly Clear,72000.0,,FEW,7400,,,,,,
KRDR,06-16-2008,04:00,METAR,,260,7,,,9999.0,,8.0,7.0,30.00,1016.7,,,,,,,,,,,,,,,2/8 Mostly Clear,72000.0,,FEW,6900,,,,,,
KRDR,06-16-2008,03:00,METAR,,240,5,,,9999.0,,9.0,7.0,29.99,1016.6,,,,,,,,,,,,,,,Clear,72000.0,,,73000,,,,,,
KRDR,06-16-2008,02:00,METAR,,300,4,,,9999.0,,13.0,8.0,29.99,1016.4,,,,,,,,,,,,,,,Clear,72000.0,,,73000,,,,,,
KRDR,06-16-2008,01:00,METAR,,340,6,,,9999.0,,15.0,7.0,29.98,1016.1,,,,,,,,,,,,,,,4/8 Partly Cloudy,72000.0,,SCT,5900,,,,,,
KRDR,06-16-2008,00:00,METAR,,330,12,,,9999.0,,14.0,8.0,29.97,1015.8,,,,,,,,,,,,,,,8/8 Overcast,4100.0,,FEW,3000,SCT,4200.0,OVC,5400.0,,
KRDR,06-15-2008,23:00,METAR,,340,8,,,9999.0,,15.0,8.0,29.95,1015.2,,,,,,,,,,,,,,,8/8 Overcast,5500.0,,FEW,4500,OVC,5400.0,,,,
KRDR,06-15-2008,22:00,METAR,,330,9,,,9999.0,,15.0,9.0,29.94,1014.8,,,,,,,,,,,,,,,8/8 Overcast,4900.0,,FEW,3700,OVC,5000.0,,,,
KRDR,06-15-2008,21:22,SPECI,,360,6,,,9999.0,,13.0,9.0,29.94,1014.8,,,,,,,,,,,,,,,8/8 Overcast,3100.0,,SCT,2400,BKN,3200.0,OVC,4800.0,,
KRDR,06-15-2008,21:21,SPECI,,360,6,,,9999.0,,13.0,9.0,29.94,1014.8,,,,,,,,,,,,,,,8/8 Overcast,2900.0,,FEW,2200,BKN,2900.0,OVC,4800.0,,
KRDR,06-15-2008,21:18,SPECI,,340,8,,,9999.0,Light Drizzle,13.0,9.0,29.94,1014.8,51,,,,,,,,,,,,,,8/8 Overcast,3100.0,,OVC,3100,,,,,,
KRDR,06-15-2008,21:09,SPECI,,360,7,,,9999.0,Light Drizzle,13.0,9.0,29.94,1014.7,51,,,,,,,,,,,,,,8/8 Overcast,2400.0,,FEW,1100,BKN,2400.0,OVC,4200.0,,
KRDR,06-15-2008,21:06,SPECI,,,6,,,9999.0,Light Drizzle,13.0,9.0,29.94,1014.7,51,,,,,,,,,,,,,,8/8 Overcast,3100.0,,FEW,900,OVC,3200.0,,,,
KRDR,06-15-2008,21:04,SPECI,,340,6,,,9999.0,,13.0,9.0,29.94,1014.7,,,,,,,,,,,,,,,8/8 Overcast,3200.0,,FEW,900,OVC,3300.0,,,,
KRDR,06-15-2008,21:00,METAR,,330,4,,,9999.0,,14.0,8.0,29.93,1014.6,,,,,,,,,,,,,,,8/8 Overcast,4000.0,,OVC,4100,,,,,,
KRDR,06-15-2008,20:34,SPECI,,,5,,,9999.0,,14.0,8.0,29.93,1014.7,,,,,,,,,,,,,,,8/8 Overcast,3300.0,,SCT,2700,BKN,3400.0,OVC,4700.0,,
KRDR,06-15-2008,20:25,SPECI,,330,8,,,9999.0,,13.0,8.0,29.94,1014.7,,,,,,,,,,,,,,,8/8 Overcast,2200.0,,OVC,2900,,,,,,
KRDR,06-15-2008,20:00,METAR,,330,10,,,9999.0,,14.0,8.0,29.94,1014.7,,,,,,,,,,,,,,,4/8 Partly Cloudy,72000.0,,SCT,7400,,,,,,
KRDR,06-15-2008,19:00,METAR,,340,7,,,9999.0,,12.0,7.0,29.94,1014.7,,,,,,,,,,,,,,,8/8 Overcast,6500.0,,OVC,6400,,,,,,
KRDR,06-15-2008,18:08,SPECI,,340,5,,,9999.0,,12.0,8.0,29.93,1014.5,,,,,,,,,,,,,,,7/8 Mostly Cloudy,6000.0,,FEW,800,BKN,5900.0,BKN,8400.0,,
KRDR,06-15-2008,18:00,METAR,,10,4,,,9999.0,,11.0,8.0,29.93,1014.4,,,,,,,,,,,,,,,8/8 Overcast,4800.0,,SCT,1000,BKN,4900.0,OVC,6900.0,,
KRDR,06-15-2008,17:49,SPECI,,350,4,,,9999.0,,11.0,7.0,29.93,1014.4,,,,,,,,,,,,,,,8/8 Overcast,4800.0,,SCT,800,BKN,4900.0,OVC,5900.0,,
KRDR,06-15-2008,17:43,SPECI,,350,4,,,9999.0,,11.0,8.0,29.93,1014.4,,,,,,,,,,,,,,,8/8 Overcast,1200.0,,SCT,800,BKN,1200.0,OVC,5000.0,,
KRDR,06-15-2008,17:22,SPECI,,30,5,,,9999.0,,10.0,7.0,29.92,1014.3,,,,,,,,,,,,,,,8/8 Overcast,4500.0,,FEW,900,OVC,4600.0,,,,
KRDR,06-15-2008,17:09,SPECI,,30,4,,,9999.0,,10.0,7.0,29.92,1014.2,,,,,,,,,,,,,,,7/8 Mostly Cloudy,4500.0,,FEW,500,BKN,4600.0,,,,
KRDR,06-15-2008,17:04,SPECI,,40,6,,,9999.0,,10.0,7.0,29.92,1014.2,,,,,,,,,,,,,,,7/8 Mostly Cloudy,4600.0,,FEW,800,BKN,4700.0,,,,
KRDR,06-15-2008,17:00,METAR,,30,8,,,9999.0,,10.0,8.0,29.92,1014.1,,,,,,,,,,,.01 IN,,,,7/8 Mostly Cloudy,12000.0,,FEW,500,SCT,3500.0,BKN,12000.0,,
KRDR,06-15-2008,16:46,SPECI,,20,9,,,9999.0,,9.0,8.0,29.91,1014.0,,,,,,,,,,,,,,,7/8 Mostly Cloudy,3400.0,,FEW,800,BKN,3500.0,BKN,12000.0,,
KRDR,06-15-2008,16:13,SPECI,,340,9,,,6400.0,Rain/Mist,9.0,7.0,29.94,1014.1,,,,61,10,,,,,,,,,,8/8 Overcast,2000.0,,OVC,2000,,,,,,
KRDR,06-15-2008,16:00,METAR,,360,13,,,9999.0,,10.0,6.0,29.92,1014.1,,,,,,,,,,,,,,,8/8 Overcast,1300.0,,OVC,2000,,,,,,
KRDR,06-15-2008,15:53,SPECI,,10,11,,,9999.0,Unknown Precipitation,10.0,6.0,29.92,1014.1,40,,,,,,,,,,,,,,8/8 Overcast,1400.0,,OVC,1900,,,,,,
KRDR,06-15-2008,15:00,METAR,,20,12,,,9999.0,,11.0,6.0,29.89,1013.1,,,,,,,,,,,,,,,8/8 Overcast,2500.0,,OVC,2500,,,,,,
KRDR,06-15-2008,14:12,SPECI,,10,8,,,9999.0,,12.0,7.0,29.88,1013.0,,,,,,,,,,,,,,,8/8 Overcast,2900.0,,OVC,2900,,,,,,
KRDR,06-15-2008,14:00,METAR,,10,9,,,9999.0,,11.0,7.0,29.88,1012.8,,,,,,,,,,,,,,,8/8 Overcast,3300.0,,OVC,3400,,,,,,
KRDR,06-15-2008,13:00,METAR,,360,7,,,9999.0,,11.0,8.0,29.87,1012.4,,,,,,,,,,,,,,,8/8 Overcast,3100.0,,OVC,3200,,,,,,
KRDR,06-15-2008,12:45,SPECI,,360,7,,,9999.0,,11.0,8.0,29.87,1012.5,,,,,,,,,,,,,,,8/8 Overcast,1100.0,,OVC,1800,,,,,,
KRDR,06-15-2008,12:32,SPECI,,360,8,,,9999.0,,11.0,8.0,29.87,1012.5,,,,,,,,,,,,,,,8/8 Overcast,900.0,,OVC,1400,,,,,,
KRDR,06-15-2008,12:25,SPECI,,10,8,,,9999.0,,11.0,8.0,29.86,1012.4,,,,,,,,,,,,,,,8/8 Overcast,800.0,,OVC,1600,,,,,,
KRDR,06-15-2008,12:19,SPECI,,20,8,,,9999.0,,11.0,8.0,29.86,1012.3,,,,,,,,,,,,,,,8/8 Overcast,800.0,,OVC,1200,,,,,,
KRDR,06-15-2008,12:00,METAR,,40,6,,,9999.0,,11.0,9.0,29.86,1012.2,,,,,,,,,,,,,,IN,8/8 Overcast,900.0,,BKN,900,OVC,5400.0,,,,
KRDR,06-15-2008,11:49,SPECI,,50,6,,,9999.0,,11.0,9.0,29.86,1012.1,,,,,,,,,,,,,,,8/8 Overcast,900.0,,BKN,900,OVC,5400.0,,,,
KRDR,06-15-2008,11:46,SPECI,,40,8,,,9999.0,,11.0,10.0,29.86,1012.1,,,,,,,,,,,,,,,8/8 Overcast,600.0,,OVC,1500,,,,,,
KRDR,06-15-2008,11:40,SPECI,,30,5,,,9999.0,,11.0,10.0,29.86,1012.3,,,,,,,,,,,,,,,8/8 Overcast,700.0,,OVC,1400,,,,,,
KRDR,06-15-2008,11:33,SPECI,,30,5,,,9999.0,,11.0,10.0,29.86,1012.2,,,,,,,,,,,,,,,8/8 Overcast,900.0,,BKN,900,BKN,4900.0,OVC,6400.0,,
KRDR,06-15-2008,11:31,SPECI,,30,5,,,9999.0,,11.0,10.0,29.86,1012.2,,,,,,,,,,,,,,,8/8 Overcast,700.0,,OVC,2300,,,,,,
KRDR,06-15-2008,11:28,SPECI,,30,5,,,9999.0,,11.0,10.0,29.86,1012.1,,,,,,,,,,,,,,,8/8 Overcast,900.0,,BKN,900,OVC,5000.0,,,,
KRDR,06-15-2008,11:19,SPECI,,20,3,,,9999.0,,11.0,10.0,29.85,1012.0,,,,,,,,,,,,,,,8/8 Overcast,700.0,,OVC,1800,,,,,,
KRDR,06-15-2008,11:16,SPECI,,,0,,,9999.0,,11.0,10.0,29.85,1012.0,,,,,,,,,,,,,,,8/8 Overcast,900.0,,BKN,900,OVC,5000.0,,,,
KRDR,06-15-2008,11:15,SPECI,,,0,,,9999.0,,11.0,10.0,29.85,1012.0,,,,,,,,,,,,,,,8/8 Overcast,1200.0,,OVC,2500,,,,,,
KRDR,06-15-2008,11:00,METAR,,330,3,,,9999.0,,11.0,10.0,29.85,1012.0,,,,,,,,,,,,,,,8/8 Overcast,5500.0,,OVC,5400,,,,,,
KRDR,06-15-2008,10:54,SPECI,,340,3,,,9999.0,,11.0,10.0,29.86,1012.1,,,,,,,,,,,,,,,8/8 Overcast,4600.0,,FEW,900,SCT,4900.0,OVC,5900.0,,
KRDR,06-15-2008,10:00,METAR,,360,4,,,9999.0,,10.0,9.0,29.84,1011.5,,,,,,,,,,,,,,,7/8 Mostly Cloudy,8000.0,,FEW,5900,BKN,7900.0,,,,
KRDR,06-15-2008,09:24,SPECI,,10,4,,,9999.0,,11.0,10.0,29.84,1011.5,,,,,,,,,,,,,,,7/8 Mostly Cloudy,8000.0,,FEW,4700,BKN,7900.0,,,,
KRDR,06-15-2008,09:07,SPECI,,10,6,,,9999.0,Light Drizzle,11.0,9.0,29.83,1011.4,51,,,,,,,,,,,,,,7/8 Mostly Cloudy,8000.0,,BKN,7900,,,,,,
KRDR,06-15-2008,09:00,METAR,,10,7,,,9999.0,,12.0,9.0,29.83,1011.2,,,,,,,,,,,,,,,8/8 Overcast,9000.0,,OVC,8900,,,,,,
KRDR,06-15-2008,08:00,METAR,,320,5,,,9999.0,,13.0,11.0,29.81,1010.7,,,,,,,,,,,,,,,8/8 Overcast,8000.0,,OVC,7900,,,,,,
KRDR,06-15-2008,07:00,METAR,,310,5,,,9999.0,,13.0,11.0,29.81,1010.4,,,,,,,,,,,,,,,7/8 Mostly Cloudy,8500.0,,BKN,8400,,,,,,
KRDR,06-15-2008,06:00,METAR,,330,7,,,9999.0,,14.0,10.0,29.80,1010.1,,,,,,,,,,,,,,,2/8 Mostly Clear,72000.0,,FEW,5000,,,,,,
KRDR,06-15-2008,05:36,SPECI,,310,5,,,9999.0,,14.0,10.0,29.80,1010.1,,,,,,,,,,,,,,,4/8 Partly Cloudy,72000.0,,FEW,4600,SCT,9900.0,,,,
KRDR,06-15-2008,05:20,SPECI,,310,6,,,9999.0,Unknown Precipitation,14.0,10.0,29.80,1010.2,40,,,,,,,,,,,,,,7/8 Mostly Cloudy,10000.0,,SCT,4200,BKN,9900.0,,,,
KRDR,06-15-2008,05:00,METAR,,310,12,,,9999.0,,14.0,10.0,29.78,1009.6,,,,,,,,,,,,,,,8/8 Overcast,9500.0,,OVC,9400,,,,,,
KRDR,06-15-2008,04:00,METAR,,310,5,,,9999.0,,13.0,9.0,29.74,1008.3,,,,,,,,,,,,,,,Clear,72000.0,,,73000,,,,,,
KRDR,06-15-2008,03:00,METAR,,310,6,,,9999.0,,14.0,10.0,29.73,1008.3,,,,,,,,,,,,,,,7/8 Mostly Cloudy,20000.0,,FEW,6400,SCT,9900.0,BKN,20000.0,,
KRDR,06-15-2008,02:00,METAR,,290,17,30.0,280/30KTS,9999.0,,17.0,9.0,29.76,1009.1,,,,,,,,,,,,,,,8/8 Overcast,6500.0,,BKN,6400,BKN,12000.0,OVC,20000.0,,
KRDR,06-15-2008,01:29,SPECI,,270,22,27.0,280/27KTS,9999.0,,19.0,10.0,29.74,1008.5,,,,,,,,,,,,,,,7/8 Mostly Cloudy,7500.0,,BKN,7400,BKN,12000.0,BKN,20000.0,,
KRDR,06-15-2008,01:00,METAR,,340,9,,,9999.0,,20.0,10.0,29.71,1007.2,,,,,,,,,,,,,,,7/8 Mostly Cloudy,20000.0,,FEW,6900,SCT,12000.0,BKN,20000.0,,
KRDR,06-15-2008,00:00,METAR,,340,8,,,9999.0,,22.0,13.0,29.69,1006.7,,,,,,,,,,,TRACE,,.01 IN,,4/8 Partly Cloudy,72000.0,,FEW,4000,SCT,9900.0,SCT,20000.0,,
KRDR,06-14-2008,23:18,SPECI,,280,5,,,9999.0,,20.0,13.0,29.69,1006.5,,,,,,,,,,,,,,,8/8 Overcast,20000.0,,FEW,2500,SCT,5900.0,SCT,11000.0,OVC,20000.0
KRDR,06-14-2008,23:00,METAR,,330,12,22.0,,9999.0,Light Rain Showers,21.0,13.0,29.69,1006.7,,,,80,,,,,,,.01 IN,,,,7/8 Mostly Cloudy,6000.0,,FEW,4000,SCT,5900.0,BKN,11000.0,BKN,20000.0
KRDR,06-14-2008,22:48,SPECI,,330,11,,,9999.0,Light Rain Showers,22.0,12.0,29.69,1006.6,,,,80,,,,,,,,,,,7/8 Mostly Cloudy,6000.0,,SCT,5900,BKN,9900.0,BKN,20000.0,,
KRDR,06-14-2008,22:16,SPECI,,290,14,,,9999.0,Thunderstorm,23.0,9.0,29.68,1006.4,,,,17,,,,,,,,,,,7/8 Mostly Cloudy,10000.0,,SCT,6400,BKN,9900.0,BKN,20000.0,,
KRDR,06-14-2008,22:00,METAR,,300,15,22.0,,9999.0,,24.0,10.0,29.68,1006.2,,,,,,,,,,,,,,,7/8 Mostly Cloudy,10000.0,,SCT,7400,BKN,9900.0,BKN,20000.0,,
KRDR,06-14-2008,21:00,METAR,,290,11,18.0,,9999.0,,25.0,10.0,29.69,1006.5,,,,,,,,,,,,,,,7/8 Mostly Cloudy,6000.0,,BKN,5900,BKN,11000.0,BKN,20000.0,,
KRDR,06-14-2008,20:00,METAR,,270,14,18.0,,9999.0,,24.0,10.0,29.71,1007.4,,,,,,,,,,,,,,,Clear,72000.0,,,73000,,,,,,
KRDR,06-14-2008,19:00,METAR,,240,14,20.0,,9999.0,,23.0,11.0,29.73,1007.9,,,,,,,,,,,,,,,Clear,72000.0,,,73000,,,,,,
KRDR,06-14-2008,18:00,METAR,,250,10,,,9999.0,,22.0,10.0,29.75,1008.6,,,,,,,,,,,,,,,Clear,72000.0,,,73000,,,,,,
KRDR,06-14-2008,17:00,METAR,,270,13,,,9999.0,,20.0,11.0,29.76,1008.9,,,,,,,,,,,,,,,7/8 Mostly Cloudy,25000.0,,FEW,7900,BKN,25000.0,,,,
KRDR,06-14-2008,16:00,METAR,,270,12,,,9999.0,,19.0,11.0,29.76,1009.1,,,,,,,,,,,,,,,7/8 Mostly Cloudy,25000.0,,BKN,25000,,,,,,
KRDR,06-14-2008,15:00,METAR,,260,13,,,9999.0,,18.0,11.0,29.76,1009.0,,,,,,,,,,,,,,,7/8 Mostly Cloudy,25000.0,,SCT,12000,BKN,25000.0,,,,
KRDR,06-14-2008,14:00,METAR,,300,5,,,9999.0,,15.0,10.0,29.77,1009.1,,,,,,,,,,,,,,,7/8 Mostly Cloudy,25000.0,,SCT,12000,BKN,25000.0,,,,
KRDR,06-14-2008,13:00,METAR,,290,11,,,9999.0,,14.0,10.0,29.75,1008.7,,,,,,,,,,,,,,,7/8 Mostly Cloudy,25000.0,,FEW,12000,BKN,25000.0,,,,
KRDR,06-14-2008,12:00,METAR,,270,7,,,9999.0,,12.0,9.0,29.74,1008.4,,,,,,,,,,,,,,.02 IN,Clear,72000.0,,,73000,,,,,,
KRDR,06-14-2008,11:00,METAR,,300,9,,,9999.0,,11.0,9.0,29.72,1007.7,,,,,,,,,,,,,,,Clear,72000.0,,,73000,,,,,,
KRDR,06-14-2008,10:00,METAR,,290,8,,,9999.0,,11.0,9.0,29.71,1007.3,,,,,,,,,,,,,,,Clear,72000.0,,,73000,,,,,,
KRDR,06-14-2008,09:00,METAR,,280,9,,,9999.0,,12.0,9.0,29.69,1006.7,,,,,,,,,,,,,,,8/8 Overcast,6500.0,,OVC,6400,,,,,,
KRDR,06-14-2008,08:00,METAR,,290,9,,,9999.0,,14.0,9.0,29.68,1006.2,,,,,,,,,,,,,,,8/8 Overcast,8000.0,,OVC,7900,,,,,,
KRDR,06-14-2008,07:00,METAR,,260,8,,,9999.0,,14.0,9.0,29.67,1006.1,,,,,,,,,,,,,,,8/8 Overcast,7000.0,,OVC,6900,,,,,,
KRDR,06-14-2008,06:00,METAR,,260,6,,,9999.0,,13.0,10.0,29.68,1006.2,,,,,,,,,,,,,,,7/8 Mostly Cloudy,9000.0,,BKN,8900,,,,,,
KRDR,06-14-2008,05:00,METAR,,250,8,,,9999.0,,14.0,10.0,29.68,1006.2,,,,,,,,,,,,,,,2/8 Mostly Clear,72000.0,,FEW,12000,,,,,,
KRDR,06-14-2008,04:00,METAR,,260,9,,,9999.0,,14.0,9.0,29.67,1006.1,,,,,,,,,,,,,,,7/8 Mostly Cloudy,20000.0,,FEW,5900,SCT,8900.0,BKN,20000.0,,
KRDR,06-14-2008,03:00,METAR,,270,11,,,9999.0,,15.0,9.0,29.67,1005.8,,,,,,,,,,,,,,,7/8 Mostly Cloudy,9000.0,,SCT,5900,BKN,8900.0,BKN,20000.0,,
KRDR,06-14-2008,02:00,METAR,,270,12,16.0,,9999.0,,16.0,9.0,29.66,1005.5,,,,,,,,,,,,,,,8/8 Overcast,8500.0,,SCT,4600,BKN,8400.0,OVC,20000.0,,
KRDR,06-14-2008,01:00,METAR,,260,10,,,9999.0,,17.0,9.0,29.64,1005.1,,,,,,,,,,,,,,,8/8 Overcast,8500.0,,FEW,5400,BKN,8400.0,OVC,15000.0,,
KRDR,06-14-2008,00:00,METAR,,280,15,23.0,280/27KTS,9999.0,,18.0,8.0,29.64,1005.0,,,,,,,,,,,,,TRACE,,7/8 Mostly Cloudy,20000.0,,SCT,5400,SCT,9900.0,BKN,20000.0,,
KRDR,06-13-2008,23:00,METAR,,290,15,20.0,,9999.0,,20.0,8.0,29.63,1004.8,,,,,,,,,,,,,,,7/8 Mostly Cloudy,20000.0,,SCT,5900,SCT,9900.0,BKN,20000.0,,
KRDR,06-13-2008,22:00,METAR,,280,14,22.0,,9999.0,,20.0,8.0,29.63,1004.6,,,,,,,,,,,TRACE,,,,7/8 Mostly Cloudy,10000.0,,SCT,5000,BKN,9900.0,BKN,20000.0,,
KRDR,06-13-2008,21:19,SPECI,,290,13,24.0,,9999.0,,19.0,9.0,29.64,1004.8,,,,,,,,,,,,,,,7/8 Mostly Cloudy,8500.0,,SCT,4900,BKN,8400.0,BKN,18000.0,,
KRDR,06-13-2008,21:06,SPECI,,280,18,23.0,,9999.0,Rain,19.0,8.0,29.63,1004.7,,,,61,,,,,,,,,,,7/8 Mostly Cloudy,6000.0,,BKN,5900,BKN,9900.0,BKN,18000.0,,
KRDR,06-13-2008,21:00,METAR,,270,18,24.0,,9999.0,,20.0,9.0,29.63,1004.6,,,,,,,,,,,,,,,7/8 Mostly Cloudy,7500.0,,SCT,4500,BKN,7400.0,BKN,18000.0,,
KRDR,06-13-2008,20:00,METAR,,280,16,22.0,270/26KTS,9999.0,,19.0,8.0,29.62,1004.5,,,,,,,,,,,,,,,7/8 Mostly Cloudy,4500.0,,BKN,4600,BKN,9900.0,,,,
KRDR,06-13-2008,19:00,METAR,,280,15,25.0,280/29KTS,9999.0,,19.0,8.0,29.63,1004.5,,,,,,,,,,,,,,,7/8 Mostly Cloudy,3900.0,,BKN,4000,BKN,7900.0,,,,
KRDR,06-13-2008,18:00,METAR,,290,19,25.0,270/26KTS,9999.0,,18.0,9.0,29.61,1004.0,,,,,,,,,,,,,,,7/8 Mostly Cloudy,3800.0,,BKN,3900,,,,,,
KRDR,06-13-2008,17:00,METAR,,280,17,24.0,,9999.0,,17.0,9.0,29.59,1003.4,,,,,,,,,,,,,,,7/8 Mostly Cloudy,3100.0,,BKN,3100,,,,,,
KRDR,06-13-2008,16:26,SPECI,,280,15,23.0,,9999.0,,17.0,9.0,29.59,,,,,,,,,,,,,,,,7/8 Mostly Cloudy,3000.0,,BKN,3000,,,,,,
KRDR,06-13-2008,16:00,METAR,,260,14,19.0,,9999.0,,16.0,9.0,29.58,1002.8,,,,,,,,,,,,,,,7/8 Mostly Cloudy,2700.0,,BKN,2700,,,,,,
KRDR,06-13-2008,15:00,METAR,,280,16,23.0,,9999.0,,15.0,9.0,29.55,1001.9,,,,,,,,,,,,,,,7/8 Mostly Cloudy,2700.0,,BKN,2700,,,,,,
KRDR,06-13-2008,14:25,SPECI,,280,15,24.0,,9999.0,,14.0,9.0,29.54,,,,,,,,,,,,,,,,7/8 Mostly Cloudy,2400.0,,BKN,2400,,,,,,
KRDR,06-13-2008,14:00,METAR,,270,14,22.0,,9999.0,,14.0,9.0,29.52,1001.2,,,,,,,,,,,,,,,4/8 Partly Cloudy,72000.0,,FEW,2000,SCT,4500.0,,,,
KRDR,06-13-2008,13:00,METAR,,270,13,20.0,,9999.0,,13.0,9.0,29.50,1000.3,,,,,,,,,,,,,,,4/8 Partly Cloudy,72000.0,,FEW,3000,SCT,4500.0,,,,
KRDR,06-13-2008,12:00,METAR,,260,11,17.0,,9999.0,,12.0,8.0,29.48,999.9,,,,,,,,,,,,,,.01 IN,7/8 Mostly Cloudy,4400.0,,FEW,1600,BKN,4500.0,,,,
KRDR,06-13-2008,11:00,METAR,,240,12,,,9999.0,,11.0,8.0,29.45,998.8,,,,,,,,,,,,,,,7/8 Mostly Cloudy,11000.0,,FEW,1600,BKN,11000.0,,,,
KRDR,06-13-2008,10:08,SPECI,,230,10,,,9999.0,,11.0,8.0,29.45,998.6,,,,,,,,,,,,,,,7/8 Mostly Cloudy,4000.0,,SCT,1600,BKN,8900.0,,,,
KRDR,06-13-2008,10:00,METAR,,230,11,,,9999.0,,11.0,8.0,29.45,998.8,,,,,,,,,,,,,,,7/8 Mostly Cloudy,1700.0,,BKN,1700,BKN,7900.0,,,,
KRDR,06-13-2008,09:50,SPECI,,220,11,21.0,,9999.0,,11.0,8.0,29.45,998.8,,,,,,,,,,,,,,,7/8 Mostly Cloudy,1700.0,,BKN,1700,BKN,6400.0,BKN,7900.0,,
KRDR,06-13-2008,09:00,METAR,,230,13,,,9999.0,,12.0,8.0,29.45,998.7,,,,,,,,,,,,,,,7/8 Mostly Cloudy,10000.0,,BKN,9900,,,,,,
KRDR,06-13-2008,08:00,METAR,,190,12,,,9999.0,,11.0,8.0,29.46,999.1,,,,,,,,,,,,,,,7/8 Mostly Cloudy,6000.0,,BKN,5900,,,,,,
KRDR,06-13-2008,07:00,METAR,,200,11,,,9999.0,,12.0,8.0,29.48,999.7,,,,,,,,,,,,,,,8/8 Overcast,6000.0,,OVC,5900,,,,,,
KRDR,06-13-2008,06:00,METAR,,180,12,,,9999.0,,11.0,7.0,29.50,1000.4,,,,,,,,,,,,,,,7/8 Mostly Cloudy,6000.0,,BKN,5900,,,,,,
KRDR,06-13-2008,05:00,METAR,,200,11,,,9999.0,,12.0,6.0,29.53,1001.4,,,,,,,,,,,,,,,Clear,72000.0,,,73000,,,,,,
KRDR,06-13-2008,04:00,METAR,,200,10,,,9999.0,,13.0,7.0,29.55,1002.2,,,,,,,,,,,,,,,7/8 Mostly Cloudy,25000.0,,SCT,5900,SCT,9900.0,BKN,25000.0,,
KRDR,06-13-2008,03:00,METAR,,180,8,,,9999.0,,14.0,8.0,29.55,1002.5,,,,,,,,,,,,,,,7/8 Mostly Cloudy,9000.0,,SCT,7400,BKN,8900.0,BKN,25000.0,,
KRDR,06-13-2008,02:00,METAR,,170,9,,,9999.0,,15.0,10.0,29.56,1002.8,,,,,,,,,,,,,,,7/8 Mostly Cloudy,4900.0,,SCT,5400,BKN,8900.0,BKN,25000.0,,
KRDR,06-13-2008,01:00,METAR,,180,9,,,9999.0,,16.0,10.0,29.57,1003.1,,,,,,,,,,,,,,,7/8 Mostly Cloudy,25000.0,,SCT,5400,SCT,8900.0,BKN,25000.0,,
KRDR,06-13-2008,00:00,METAR,,220,10,16.0,230/36KTS,9999.0,,16.0,10.0,29.59,1003.4,,,,,,,,,,,.01 IN,,.01 IN,,7/8 Mostly Cloudy,9000.0,,SCT,6400,BKN,8900.0,BKN,25000.0,,
KRDR,06-12-2008,23:55,METAR,,220,9,15.0,230/36KTS,9999.0,,16.0,10.0,29.59,1003.4,,,,,,,,,,,.01 IN,,.01 IN,,Clear,72000.0,,,73000,,,,,,
KRDR,06-12-2008,23:38,SPECI,,220,11,,230/36KTS,9999.0,,15.0,10.0,29.60,1003.6,,,,,,,,,,,,,,,7/8 Mostly Cloudy,9000.0,,SCT,6400,BKN,8900.0,BKN,25000.0,,
KRDR,06-12-2008,23:18,SPECI,,250,19,29.0,230/36KTS,9999.0,Rain,17.0,8.0,29.59,1003.8,,,,61,,,,,,,,,,,7/8 Mostly Cloudy,9000.0,,SCT,6900,BKN,8900.0,BKN,25000.0,,
KRDR,06-12-2008,23:00,METAR,,190,18,26.0,180/29KTS,9999.0,,20.0,7.0,29.58,1003.1,,,,,,,,,,,TRACE,,,,7/8 Mostly Cloudy,6000.0,,BKN,5900,BKN,8900.0,BKN,25000.0,,
KRDR,06-12-2008,22:00,METAR,,200,18,27.0,190/29KTS,9999.0,,20.0,7.0,29.60,1003.7,,,,,,,,,,,,,,,7/8 Mostly Cloudy,6000.0,,BKN,5900,,,,,,
KRDR,06-12-2008,21:00,METAR,,190,16,23.0,170/27KTS,9999.0,,20.0,9.0,29.61,1004.1,,,,,,,,,,,,,,,7/8 Mostly Cloudy,6000.0,,BKN,5900,,,,,,
KRDR,06-12-2008,20:00,METAR,,200,16,24.0,,9999.0,,20.0,8.0,29.63,1004.5,,,,,,,,,,,,,,,7/8 Mostly Cloudy,4800.0,,BKN,4900,,,,,,
KRDR,06-12-2008,19:00,METAR,,210,19,24.0,,9999.0,,19.0,9.0,29.64,1004.8,,,,,,,,,,,,,,,7/8 Mostly Cloudy,4500.0,,BKN,4600,,,,,,
KRDR,06-12-2008,18:00,METAR,,180,15,19.0,,9999.0,,18.0,10.0,29.64,1005.0,,,,,,,,,,,,,,,7/8 Mostly Cloudy,4200.0,,BKN,4300,,,,,,
KRDR,06-12-2008,17:00,METAR,,180,13,,,9999.0,,18.0,8.0,29.65,1005.3,,,,,,,,,,,,,,,7/8 Mostly Cloudy,3900.0,,BKN,4000,,,,,,
KRDR,06-12-2008,16:00,METAR,,180,16,20.0,,9999.0,,16.0,9.0,29.66,1005.5,,,,,,,,,,,,,,,4/8 Partly Cloudy,72000.0,,SCT,2900,,,,,,
KRDR,06-12-2008,15:00,METAR,,200,16,20.0,,9999.0,,15.0,9.0,29.65,1005.5,,,,,,,,,,,,,,,2/8 Mostly Clear,72000.0,,FEW,2500,,,,,,
KRDR,06-12-2008,14:00,METAR,,210,15,,,9999.0,,14.0,9.0,29.65,1005.3,,,,,,,,,,,,,,,2/8 Mostly Clear,72000.0,,FEW,2000,,,,,,
KRDR,06-12-2008,13:00,METAR,,190,10,,,9999.0,,11.0,8.0,29.63,1004.7,,,,,,,,,,,,,,,2/8 Mostly Clear,72000.0,,FEW,1500,,,,,,
KRDR,06-12-2008,12:00,METAR,,190,8,,,9999.0,,9.0,8.0,29.61,1004.1,,,,,,,,,,,,,,.24 IN,2/8 Mostly Clear,72000.0,,FEW,2000,,,,,,
KRDR,06-12-2008,11:00,METAR,,200,7,,,9999.0,,8.0,7.0,29.59,1003.4,,,,,,,,,,,,,,,2/8 Mostly Clear,72000.0,,FEW,2000,,,,,,
KRDR,06-12-2008,10:00,METAR,,200,6,,,9999.0,,10.0,8.0,29.58,1002.9,,,,,,,,,,,,,,,Clear,72000.0,,,73000,,,,,,
KRDR,06-12-2008,09:00,SPECI,,240,12,,,9999.0,,11.0,9.0,29.55,1002.1,,,,,,,,,,,,,,,4/8 Partly Cloudy,72000.0,,SCT,1600,,,,,,
KRDR,06-12-2008,08:20,SPECI,,230,14,20.0,,9999.0,,12.0,9.0,29.55,1002.1,,,,,,,,,,,,,,,8/8 Overcast,1500.0,,OVC,1500,,,,,,
KRDR,06-12-2008,08:00,METAR,,230,13,,,9999.0,,12.0,11.0,29.56,1002.2,,,,,,,,,,,,,,,8/8 Overcast,1200.0,,OVC,1200,,,,,,
KRDR,06-12-2008,07:35,SPECI,,210,18,21.0,,9999.0,,13.0,11.0,29.55,1002.0,,,,,,,,,,,,,,,8/8 Overcast,1400.0,,OVC,1400,,,,,,
KRDR,06-12-2008,07:00,METAR,,190,10,,,9999.0,,13.0,13.0,29.53,1001.2,,,,,,,,,,,,,,,8/8 Overcast,1400.0,,OVC,1900,,,,,,
KRDR,06-12-2008,06:43,SPECI,,170,11,,,9999.0,,13.0,13.0,29.52,1001.0,,,,,,,,,,,,,,,8/8 Overcast,1400.0,,FEW,1000,OVC,2100.0,,,,
KRDR,06-12-2008,06:30,SPECI,,150,12,,,9999.0,,13.0,13.0,29.52,1001.1,,,,,,,,,,,,,,,8/8 Overcast,1100.0,,FEW,400,SCT,1000.0,OVC,1600.0,,
KRDR,06-12-2008,06:22,SPECI,,160,15,22.0,,9999.0,,13.0,13.0,29.53,1001.3,,,,,,,,,,,,,,,8/8 Overcast,800.0,,SCT,400,OVC,1200.0,,,,
KRDR,06-12-2008,06:21,SPECI,,160,15,22.0,,9999.0,,13.0,13.0,29.53,1001.4,,,,,,,,,,,,,,,8/8 Overcast,500.0,,OVC,1000,,,,,,
KRDR,06-12-2008,06:16,SPECI,,160,16,23.0,,9999.0,,13.0,12.0,29.54,1001.8,,,,,,,,,,,,,,,8/8 Overcast,300.0,,OVC,700,,,,,,
KRDR,06-12-2008,06:11,SPECI,,150,17,23.0,,9999.0,,13.0,12.0,29.53,1001.4,,,,,,,,,,,,,,,8/8 Overcast,100.0,,OVC,500,,,,,,
KRDR,06-12-2008,06:08,SPECI,,150,17,23.0,,9999.0,,12.0,12.0,29.53,1001.3,,,,,,,,,,,,,,,8/8 Overcast,400.0,,OVC,400,,,,,,
KRDR,06-12-2008,05:35,SPECI,,120,16,22.0,,4800.0,Mist,12.0,12.0,29.53,1001.2,,10,,,,,,,,,,,,,8/8 Overcast,300.0,,OVC,300,,,,,,
KRDR,06-12-2008,05:25,SPECI,,120,18,23.0,,6400.0,Mist,12.0,12.0,29.53,1001.3,,10,,,,,,,,,,,,,8/8 Overcast,300.0,,OVC,300,,,,,,
KRDR,06-12-2008,05:00,METAR,,110,16,21.0,,4800.0,Light Rain/Mist,11.0,11.0,29.52,1001.2,61,10,,,,,,,,,,,,,8/8 Overcast,300.0,,OVC,300,,,,,,
KRDR,06-12-2008,04:00,METAR,,90,10,15.0,,4800.0,Mist,11.0,11.0,29.55,1002.0,,,,,10,,,,,,.1 IN,,,,8/8 Overcast,300.0,,BKN,300,OVC,800.0,,,,
KRDR,06-12-2008,03:50,SPECI,,100,13,17.0,,3200.0,Mist,11.0,11.0,29.56,1002.2,,,,,10,,,,,,,,,,8/8 Overcast,300.0,,BKN,300,OVC,800.0,,,,
KRDR,06-12-2008,03:38,SPECI,,90,11,,,3200.0,Mist,11.0,11.0,29.56,1002.3,,,,10,,,,,,,,,,,8/8 Overcast,300.0,,BKN,300,OVC,800.0,,,,
KRDR,06-12-2008,03:00,METAR,,80,7,,,2800.0,Drizzle/Mist,11.0,11.0,29.60,1003.6,,,,51,10,,,,,,.1 IN,.9 IN,,,8/8 Overcast,300.0,,BKN,300,OVC,800.0,,,,
KRDR,06-12-2008,02:32,SPECI,,80,7,,,2400.0,Drizzle/Mist,11.0,11.0,29.61,1003.9,,,,51,10,,,,,,,,,,8/8 Overcast,400.0,,BKN,400,OVC,1000.0,,,,
KRDR,06-12-2008,02:28,SPECI,,80,7,,,3200.0,Mist,11.0,11.0,29.61,1004.0,,,,,10,,,,,,,,,,8/8 Overcast,600.0,,OVC,600,,,,,,
KRDR,06-12-2008,02:26,SPECI,,80,7,,,3200.0,Mist,11.0,10.0,29.61,1004.1,,,,,10,,,,,,,,,,8/8 Overcast,600.0,,OVC,600,,,,,,
KRDR,06-12-2008,02:00,METAR,,90,5,,,2400.0,Rain/Mist,11.0,10.0,29.62,1004.4,,,,61,10,,,,,,.3 IN,,,,8/8 Overcast,400.0,,OVC,400,,,,,,
KRDR,06-12-2008,01:38,SPECI,,70,8,,,2000.0,Rain/Mist,11.0,10.0,29.61,1004.1,,,,61,10,,,,,,,,,,8/8 Overcast,300.0,,OVC,300,,,,,,
KRDR,06-12-2008,01:12,SPECI,,80,11,18.0,,2400.0,Rain/Mist,10.0,10.0,29.61,1003.9,,,,61,10,,,,,,,,,,8/8 Overcast,500.0,,OVC,500,,,,,,
KRDR,06-12-2008,01:04,SPECI,,80,13,,,6400.0,Rain/Mist,10.0,10.0,29.60,1003.8,,,,61,10,,,,,,,,,,8/8 Overcast,500.0,,BKN,500,OVC,1000.0,,,,
KRDR,06-12-2008,01:00,METAR,,90,16,29.0,110/31KTS,4800.0,Rain/Mist,10.0,9.0,29.59,1003.5,,,,61,10,,,,,,.5 IN,,,,8/8 Overcast,1500.0,,FEW,500,OVC,1500.0,,,,
KRDR,06-12-2008,00:46,SPECI,,90,18,29.0,110/31KTS,3200.0,Rain/Thunderstorm/Mist,10.0,9.0,29.59,1003.3,,,,17,61,10,,,,,,,,,8/8 Overcast,1600.0,,FEW,500,OVC,1600.0,,,,
KRDR,06-12-2008,00:14,SPECI,,100,20,29.0,110/31KTS,6400.0,Rain/Thunderstorm,10.0,9.0,29.59,1003.4,,,,17,63,,,,,,,,,,8/8 Overcast,1500.0,,OVC,1500,,,,,,
KRDR,06-12-2008,00:00,METAR,,100,20,28.0,100/38KTS,9999.0,Light Rain Showers/Mist,11.0,9.0,29.59,1003.4,,,,80,10,,,,,,.2 IN,,.2 IN,,8/8 Overcast,2000.0,,OVC,2000,,,,,,
KRDR,06-11-2008,22:00,METAR,,80,23,31.0,080/34KTS,9999.0,,13.0,9.0,29.64,1004.9,,,,,,,,,,,,,,,8/8 Overcast,2000.0,,OVC,2000,,,,,,
KRDR,06-11-2008,21:00,METAR,,90,21,31.0,100/34KTS,9999.0,,14.0,9.0,29.65,1005.2,,,,,,,,,,,,,,,8/8 Overcast,2000.0,,OVC,2000,,,,,,
KRDR,06-11-2008,20:00,METAR,,90,23,31.0,090/31KTS,9999.0,,14.0,10.0,29.68,1006.3,,,,,,,,,,,,,,,8/8 Overcast,2000.0,,OVC,2000,,,,,,
KRDR,06-11-2008,19:00,METAR,,100,17,24.0,100/27KTS,9999.0,,13.0,9.0,29.74,1008.2,,,,,,,,,,,,,,,8/8 Overcast,2000.0,,OVC,2000,,,,,,
KRDR,06-11-2008,18:00,METAR,,90,16,26.0,100/26KTS,9999.0,,13.0,8.0,29.78,1009.6,,,,,,,,,,,,,.11 IN,,8/8 Overcast,4300.0,,FEW,2400,BKN,4400.0,OVC,7900.0,,
KRDR,06-11-2008,17:00,METAR,,110,17,,,9999.0,,11.0,7.0,29.81,1010.5,,,,,,,,,,,,,,,8/8 Overcast,4600.0,,SCT,3600,BKN,4700.0,OVC,6900.0,,
KRDR,06-11-2008,16:00,METAR,,80,19,27.0,080/29KTS,9999.0,,11.0,7.0,29.76,1009.0,,,,,,,,,,,,,,,8/8 Overcast,12000.0,,SCT,6400,OVC,12000.0,,,,
KRDR,06-11-2008,15:00,METAR,,100,14,22.0,090/27KTS,9999.0,,9.0,7.0,29.84,1011.4,,,,,,,,,,,TRACE,.11 IN,,,8/8 Overcast,6500.0,,FEW,1000,BKN,6400.0,OVC,12000.0,,
KRDR,06-11-2008,14:31,METAR,,100,13,23.0,,9999.0,,9.0,7.0,29.84,,,,,,,,,,,,,,,,8/8 Overcast,25000.0,,FEW,1000,SCT,6400.0,OVC,25000.0,,
KRDR,06-11-2008,14:00,METAR,,100,14,18.0,100/27KTS,9999.0,Rain,9.0,7.0,29.85,1012.0,,,,61,,,,,,,.01 IN,,,,8/8 Overcast,12000.0,,FEW,4000,SCT,7900.0,OVC,12000.0,,
KRDR,06-11-2008,13:00,METAR,,100,18,25.0,110/29KTS,9999.0,Rain,9.0,7.0,29.84,1011.5,,,,61,,,,,,,.1 IN,,,,8/8 Overcast,9000.0,,FEW,1000,SCT,3500.0,OVC,8900.0,,
KRDR,06-11-2008,12:00,METAR,,100,9,,,9999.0,Rain,9.0,7.0,29.89,1013.2,,,,61,,,,,,,.01 IN,,.01 IN,.02 IN,8/8 Overcast,10000.0,,SCT,5400,OVC,9900.0,,,,
KRDR,06-11-2008,11:00,METAR,,110,13,18.0,,9999.0,,9.0,6.0,29.91,1014.0,,,,,,,,,,,,,,,7/8 Mostly Cloudy,8500.0,,BKN,8400,,,,,,
KRDR,06-11-2008,10:47,SPECI,,110,10,,,9999.0,,9.0,6.0,29.92,1014.2,,,,,,,,,,,,,,,7/8 Mostly Cloudy,9000.0,,BKN,8900,,,,,,
KRDR,06-11-2008,10:10,SPECI,,100,10,,,9999.0,,10.0,6.0,29.93,1014.4,,,,,,,,,,,,,,,8/8 Overcast,9000.0,,OVC,8900,,,,,,
KRDR,06-11-2008,10:00,METAR,,100,11,18.0,,9999.0,,10.0,6.0,29.93,1014.6,,,,,,,,,,,,,,,7/8 Mostly Cloudy,9500.0,,BKN,9400,,,,,,
KRDR,06-11-2008,09:00,METAR,,90,12,,,9999.0,,10.0,6.0,29.95,1015.0,,,,,,,,,,,,,,,2/8 Mostly Clear,72000.0,,FEW,12000,,,,,,
KRDR,06-11-2008,08:00,METAR,,90,10,,,9999.0,,10.0,6.0,29.96,1015.6,,,,,,,,,,,,,,,Clear,72000.0,,,73000,,,,,,
KRDR,06-11-2008,07:00,METAR,,110,8,,,9999.0,,9.0,6.0,29.98,1016.2,,,,,,,,,,,,,,,Clear,72000.0,,,73000,,,,,,
KRDR,06-11-2008,06:00,METAR,,70,9,,,9999.0,,10.0,6.0,29.96,1015.5,,,,,,,,,,,,,,,7/8 Mostly Cloudy,18000.0,,FEW,3000,BKN,18000.0,,,,
KRDR,06-11-2008,05:00,METAR,,100,6,,,9999.0,,10.0,6.0,29.97,1015.7,,,,,,,,,,,,,,,7/8 Mostly Cloudy,20000.0,,BKN,20000,,,,,,
KRDR,06-11-2008,04:00,METAR,,100,8,,,9999.0,,11.0,6.0,29.96,1015.6,,,,,,,,,,,,,,,7/8 Mostly Cloudy,20000.0,,BKN,20000,,,,,,
KRDR,06-11-2008,03:00,METAR,,90,9,,,9999.0,,12.0,7.0,29.94,1015.0,,,,,,,,,,,,,,,7/8 Mostly Cloudy,20000.0,,BKN,20000,,,,,,
KRDR,06-11-2008,02:00,METAR,,80,9,,,9999.0,,13.0,7.0,29.93,1014.7,,,,,,,,,,,,,,,7/8 Mostly Cloudy,20000.0,,FEW,3000,BKN,20000.0,,,,
KRDR,06-11-2008,01:00,METAR,,90,10,,,9999.0,,14.0,7.0,29.94,1014.9,,,,,,,,,,,,,,,7/8 Mostly Cloudy,25000.0,,FEW,3200,BKN,25000.0,,,,
KRDR,06-11-2008,00:00,METAR,,100,10,,,9999.0,,15.0,7.0,29.94,1014.7,,,,,,,,,,,,,,,7/8 Mostly Cloudy,3100.0,,BKN,3200,,,,,,
KRDR,06-10-2008,23:41,SPECI,,90,10,,,9999.0,,15.0,8.0,29.93,1014.7,,,,,,,,,,,,,,,7/8 Mostly Cloudy,3100.0,,BKN,3200,,,,,,
KRDR,06-10-2008,23:00,METAR,,80,9,,,9999.0,,14.0,8.0,29.92,1014.4,,,,,,,,,,,,,,,7/8 Mostly Cloudy,3100.0,,BKN,3200,BKN,25000.0,,,,
KRDR,06-10-2008,22:31,SPECI,,90,9,,,9999.0,,14.0,8.0,29.92,1014.2,,,,,,,,,,,,,,,8/8 Overcast,3100.0,,OVC,3200,,,,,,
KRDR,06-10-2008,22:00,METAR,,70,7,,,9999.0,,14.0,8.0,29.93,1014.5,,,,,,,,,,,,,,,7/8 Mostly Cloudy,2500.0,,BKN,2500,BKN,25000.0,,,,
KRDR,06-10-2008,21:00,METAR,,90,8,,,9999.0,,13.0,7.0,29.93,1014.7,,,,,,,,,,,,,,,8/8 Overcast,2500.0,,OVC,2500,,,,,,
KRDR,06-10-2008,20:00,METAR,,50,7,,,9999.0,,13.0,7.0,29.94,1014.9,,,,,,,,,,,,,,,8/8 Overcast,2000.0,,OVC,2000,,,,,,
KRDR,06-10-2008,19:00,METAR,,60,10,,,9999.0,,13.0,7.0,29.93,1014.6,,,,,,,,,,,,,,,8/8 Overcast,2000.0,,OVC,2000,,,,,,
KRDR,06-10-2008,18:00,METAR,,20,10,,,9999.0,,12.0,8.0,29.92,1014.1,,,,,,,,,,,,,,,8/8 Overcast,2000.0,,OVC,2000,,,,,,
KRDR,06-10-2008,17:00,METAR,,30,9,,,9999.0,,13.0,7.0,29.91,1013.8,,,,,,,,,,,,,,,7/8 Mostly Cloudy,2600.0,,BKN,2600,,,,,,
KRDR,06-10-2008,16:00,METAR,,20,9,,,9999.0,,12.0,7.0,29.92,1014.1,,,,,,,,,,,,,,,8/8 Overcast,2500.0,,OVC,2500,,,,,,
KRDR,06-10-2008,15:00,METAR,,30,10,,,9999.0,,11.0,7.0,29.90,1013.6,,,,,,,,,,,,,,,8/8 Overcast,1600.0,,BKN,1600,OVC,2400.0,,,,
KRDR,06-10-2008,14:00,METAR,,10,11,,,9999.0,,10.0,8.0,29.88,1013.0,,,,,,,,,,,,,,,8/8 Overcast,1700.0,,OVC,1700,,,,,,
KRDR,06-10-2008,13:00,METAR,,40,12,,,9999.0,,10.0,8.0,29.86,1012.2,,,,,,,,,,,,,,,8/8 Overcast,1600.0,,OVC,1600,,,,,,
KRDR,06-10-2008,12:00,METAR,,10,11,,,9999.0,,10.0,9.0,29.84,1011.7,,,,,,,,,,,,,.01 IN,.64 IN,8/8 Overcast,1100.0,,OVC,1100,,,,,,
KRDR,06-10-2008,11:00,METAR,,10,12,,,9999.0,,10.0,9.0,29.82,1010.9,,,,,,,,,,,,,,,8/8 Overcast,700.0,,OVC,700,,,,,,
KRDR,06-10-2008,10:24,SPECI,,20,13,,,9999.0,,10.0,10.0,29.81,1010.4,,,,,,,,,,,,,,,8/8 Overcast,600.0,,OVC,600,,,,,,
KRDR,06-10-2008,10:04,SPECI,,10,10,,,9999.0,,10.0,10.0,29.80,1010.3,,,,,,,,,,,,,,,8/8 Overcast,500.0,,OVC,500,,,,,,
KRDR,06-10-2008,10:00,METAR,,360,10,,,9999.0,,10.0,10.0,29.80,1010.3,,,,,,,,,,,,,,,8/8 Overcast,400.0,,OVC,400,,,,,,
KRDR,06-10-2008,09:50,SPECI,,10,10,,,9999.0,,10.0,10.0,29.80,1010.2,,,,,,,,,,,,,,,8/8 Overcast,400.0,,OVC,400,,,,,,
KRDR,06-10-2008,09:38,SPECI,,20,9,,,9999.0,,10.0,10.0,29.79,1010.0,,,,,,,,,,,,,,,8/8 Overcast,100.0,,OVC,500,,,,,,
KRDR,06-10-2008,09:33,SPECI,,20,10,,,9999.0,,10.0,10.0,29.79,1010.0,,,,,,,,,,,,,,,8/8 Overcast,200.0,,OVC,400,,,,,,
KRDR,06-10-2008,09:23,SPECI,,10,9,,,8000.0,Light Rain/Mist,10.0,10.0,29.79,1009.9,61,10,,,,,,,,,,,,,8/8 Overcast,100.0,,OVC,500,,,,,,
KRDR,06-10-2008,09:17,SPECI,,10,11,,,6400.0,Light Rain/Mist,10.0,10.0,29.79,1009.9,61,10,,,,,,,,,,,,,8/8 Overcast,100.0,,OVC,500,,,,,,
KRDR,06-10-2008,09:10,SPECI,,20,12,,,6400.0,Light Rain/Mist,11.0,10.0,29.79,1009.9,61,10,,,,,,,,,,,,,8/8 Overcast,300.0,,OVC,300,,,,,,
KRDR,06-10-2008,09:00,METAR,,10,13,,,9999.0,,11.0,10.0,29.78,1009.7,,,,,,,,,,,,,,,8/8 Overcast,300.0,,OVC,300,,,,,,
KRDR,06-10-2008,08:00,METAR,,20,13,,,9999.0,,11.0,11.0,29.76,1008.8,,,,,,,,,,,,,,,8/8 Overcast,300.0,,OVC,300,,,,,,
KRDR,06-10-2008,07:36,SPECI,,20,10,,,9999.0,,12.0,11.0,29.75,1008.6,,,,,,,,,,,,,,,8/8 Overcast,300.0,,OVC,300,,,,,,
KRDR,06-10-2008,07:00,SPECI,,30,13,,,9999.0,,12.0,11.0,29.74,1008.3,,,,,,,,,,,,,,,8/8 Overcast,400.0,,OVC,400,,,,,,
KRDR,06-10-2008,07:00,METAR,,20,11,,,9999.0,,12.0,11.0,29.74,1008.2,,,,,,,,,,,,,,,8/8 Overcast,200.0,,OVC,300,,,,,,
KRDR,06-10-2008,06:34,SPECI,,30,11,,,9999.0,,12.0,11.0,29.74,1008.2,,,,,,,,,,,,,,,8/8 Overcast,300.0,,OVC,500,,,,,,
KRDR,06-10-2008,06:30,SPECI,,40,12,,,9999.0,,12.0,11.0,29.74,1008.2,,,,,,,,,,,,,,,8/8 Overcast,300.0,,OVC,600,,,,,,
KRDR,06-10-2008,06:23,SPECI,,40,11,,,9999.0,,13.0,12.0,29.74,1008.1,,,,,,,,,,,,,,,8/8 Overcast,200.0,,OVC,500,,,,,,
KRDR,06-10-2008,06:19,SPECI,,40,11,,,9999.0,,13.0,12.0,29.74,1008.1,,,,,,,,,,,,,,,8/8 Overcast,100.0,,OVC,300,,,,,,
KRDR,06-10-2008,06:16,SPECI,,50,9,,,9999.0,,13.0,12.0,29.73,1008.1,,,,,,,,,,,,,,,8/8 Overcast,400.0,,OVC,400,,,,,,
KRDR,06-10-2008,06:08,SPECI,,30,10,,,9999.0,,13.0,12.0,29.73,1008.0,,,,,,,,,,,,,,,8/8 Overcast,100.0,,OVC,500,,,,,,
KRDR,06-10-2008,06:01,SPECI,,10,8,,,9999.0,,13.0,12.0,29.73,1007.9,,,,,,,,,,,,,,,8/8 Overcast,100.0,,OVC,600,,,,,,
KRDR,06-10-2008,06:00,METAR,,360,5,,,9999.0,,12.0,12.0,29.73,1007.9,,,,,,,,,,,,,,,8/8 Overcast,1200.0,,SCT,700,OVC,1200.0,,,,
KRDR,06-10-2008,05:56,SPECI,,10,6,,,9999.0,,12.0,12.0,29.73,1007.9,,,,,,,,,,,,,,,8/8 Overcast,600.0,,FEW,100,BKN,600.0,OVC,1100.0,,
KRDR,06-10-2008,05:54,SPECI,,10,5,,,9999.0,,12.0,12.0,29.73,1007.9,,,,,,,,,,,,,,,8/8 Overcast,700.0,,FEW,100,BKN,700.0,OVC,1200.0,,
KRDR,06-10-2008,05:49,SPECI,,360,4,,,9999.0,,12.0,12.0,29.73,1007.9,,,,,,,,,,,,,,,8/8 Overcast,1200.0,,SCT,700,BKN,1200.0,OVC,1900.0,,
KRDR,06-10-2008,05:40,SPECI,,20,4,,,9999.0,,13.0,12.0,29.73,1007.9,,,,,,,,,,,,,,,8/8 Overcast,1100.0,,BKN,1100,BKN,2000.0,OVC,6400.0,,
KRDR,06-10-2008,05:38,SPECI,,20,4,,,9999.0,,13.0,12.0,29.73,1007.8,,,,,,,,,,,,,,,8/8 Overcast,1200.0,,BKN,1200,BKN,1800.0,OVC,5900.0,,
KRDR,06-10-2008,05:33,SPECI,,20,5,,,9999.0,,13.0,11.0,29.73,1007.8,,,,,,,,,,,,,,,8/8 Overcast,1800.0,,SCT,1200,BKN,1800.0,OVC,5900.0,,
KRDR,06-10-2008,05:00,METAR,,60,5,,,9999.0,,13.0,11.0,29.71,1007.3,,,,,,,,,,,,,,,8/8 Overcast,4900.0,,OVC,5000,,,,,,
KRDR,06-10-2008,04:33,SPECI,,70,6,,,9999.0,,12.0,11.0,29.70,1007.1,,,,,,,,,,,,,,,8/8 Overcast,3800.0,,FEW,1300,BKN,3900.0,OVC,5400.0,,
KRDR,06-10-2008,04:10,SPECI,,90,4,,,9999.0,,12.0,11.0,29.70,1007.0,,,,,,,,,,,,,,,8/8 Overcast,1500.0,,BKN,1500,OVC,3000.0,,,,
KRDR,06-10-2008,04:00,METAR,,90,4,,,9999.0,,12.0,11.0,29.70,1007.0,,,,,,,,,,,,,,,7/8 Mostly Cloudy,8000.0,,SCT,1500,BKN,7900.0,BKN,20000.0,,
KRDR,06-10-2008,03:00,METAR,,250,4,,,9999.0,,11.0,10.0,29.68,1006.3,,,,,,,,,,,,,,,7/8 Mostly Cloudy,20000.0,,FEW,2200,SCT,9900.0,BKN,20000.0,,
KRDR,06-10-2008,02:00,METAR,,270,6,,,9999.0,,14.0,11.0,29.67,1005.9,,,,,,,,,,,,,,,7/8 Mostly Cloudy,25000.0,,FEW,3000,SCT,9900.0,BKN,25000.0,,
KRDR,06-10-2008,01:00,METAR,,280,8,,,9999.0,,16.0,11.0,29.65,1005.3,,,,,,,,,,,,,,,7/8 Mostly Cloudy,25000.0,,SCT,3000,BKN,25000.0,,,,
KRDR,06-10-2008,00:00,METAR,,290,9,,,9999.0,,17.0,10.0,29.64,1005.1,,,,,,,,,,,,,.6 IN,,7/8 Mostly Cloudy,20000.0,,SCT,3000,SCT,9900.0,BKN,20000.0,,
KRDR,06-09-2008,23:00,METAR,,280,6,,,9999.0,,16.0,12.0,29.64,1005.0,,,,,,,,,,,,,,,7/8 Mostly Cloudy,12000.0,,FEW,7900,BKN,12000.0,BKN,20000.0,,
KRDR,06-09-2008,22:00,METAR,,250,7,,,9999.0,,15.0,12.0,29.64,1005.0,,,,,,,,,,,TRACE,,,,7/8 Mostly Cloudy,12000.0,,FEW,2000,SCT,7900.0,BKN,12000.0,BKN,20000.0
KRDR,06-09-2008,21:00,METAR,,250,9,,,9999.0,,16.0,12.0,29.64,1005.0,,,,,,,,,,,TRACE,.6 IN,,,7/8 Mostly Cloudy,7000.0,,FEW,2000,SCT,3500.0,BKN,6900.0,BKN,12000.0
KRDR,06-09-2008,20:28,SPECI,,290,4,,,9999.0,Rain,15.0,10.0,29.63,1004.7,,,,61,,,,,,,,,,,7/8 Mostly Cloudy,3400.0,,FEW,2500,BKN,3500.0,BKN,7900.0,BKN,20000.0
KRDR,06-09-2008,20:19,SPECI,,320,5,,,9999.0,,15.0,11.0,29.63,1004.6,,,,,,,,,,,,,,,7/8 Mostly Cloudy,3000.0,,FEW,2000,BKN,3000.0,BKN,9900.0,BKN,25000.0
KRDR,06-09-2008,20:00,SPECI,,280,5,,,9999.0,Rain,14.0,11.0,29.63,1004.6,,,,61,,,,,,,,,,,8/8 Overcast,3400.0,,FEW,2000,BKN,3500.0,OVC,12000.0,,
KRDR,06-09-2008,19:55,METAR,,290,6,,,9999.0,,14.0,11.0,29.63,1004.7,,,,,,,,,,,.3 IN,,,,7/8 Mostly Cloudy,3000.0,,FEW,1500,BKN,3000.0,BKN,9900.0,BKN,25000.0
KRDR,06-09-2008,19:44,SPECI,,300,5,,,9999.0,,13.0,11.0,29.63,1004.7,,,,,,,,,,,,,,,2/8 Mostly Clear,72000.0,,FEW,2800,,,,,,
KRDR,06-09-2008,19:00,METAR,,340,9,17.0,,9999.0,Thunderstorm with Rain or Snow/Light Rain Showers,14.0,10.0,29.63,1004.6,,,,95,80,,,,,,TRACE,,,,8/8 Overcast,2600.0,,BKN,2600,OVC,7900.0,,,,
KRDR,06-09-2008,18:46,SPECI,,330,13,17.0,,9999.0,Thunderstorm with Rain or Snow/Light Rain Showers,16.0,11.0,29.63,,,,,95,80,,,,,,,,,,8/8 Overcast,2600.0,,BKN,2600,OVC,7900.0,,,,
KRDR,06-09-2008,18:00,METAR,,,4,,,9999.0,,17.0,11.0,29.61,1004.1,,,,,,,,,,,TRACE,,.03 IN,,8/8 Overcast,8000.0,,SCT,2800,OVC,7900.0,,,,
KRDR,06-09-2008,17:00,METAR,,260,3,,,9999.0,,14.0,12.0,29.62,1004.2,,,,,,,,,,,.03 IN,,,,7/8 Mostly Cloudy,7500.0,,SCT,3500,BKN,7400.0,BKN,12000.0,,
KRDR,06-09-2008,16:02,SPECI,,310,6,,,9999.0,Rain,14.0,12.0,29.62,,,,,61,,,,,,,,,,,8/8 Overcast,4900.0,,SCT,1400,OVC,5000.0,,,,
KRDR,06-09-2008,16:00,METAR,,300,5,,,9999.0,,14.0,11.0,29.62,1004.2,,,,,,,,,,,,,,,8/8 Overcast,5500.0,,SCT,2200,OVC,5400.0,,,,
KRDR,06-09-2008,15:00,METAR,,360,3,,,9999.0,,14.0,12.0,29.61,1004.1,,,,,,,,,,,,,,,8/8 Overcast,3400.0,,SCT,1400,BKN,3500.0,OVC,8400.0,,
KRDR,06-09-2008,14:00,METAR,,20,7,,,9999.0,,13.0,12.0,29.61,1004.0,,,,,,,,,,,,,,,8/8 Overcast,3200.0,,FEW,1300,BKN,3300.0,OVC,5900.0,,
KRDR,06-09-2008,13:00,METAR,,,0,,,9999.0,,13.0,11.0,29.60,1003.7,,,,,,,,,,,,,,,7/8 Mostly Cloudy,3300.0,,BKN,3400,BKN,9900.0,,,,
KRDR,06-09-2008,12:00,METAR,,,0,,,9999.0,,11.0,11.0,29.61,1003.9,,,,,,,,,,,,,,,7/8 Mostly Cloudy,10000.0,,FEW,5900,BKN,9900.0,,,,
KRDR,06-09-2008,11:00,METAR,,,0,,,9999.0,,10.0,10.0,29.61,1003.9,,,,,,,,,,,,,,,7/8 Mostly Cloudy,8000.0,,FEW,5400,BKN,7900.0,BKN,15000.0,,
KRDR,06-09-2008,10:28,SPECI,,,0,,,9999.0,,10.0,10.0,29.61,1003.8,,,,,,,,,,,,,,,8/8 Overcast,6500.0,,SCT,500,BKN,6400.0,OVC,9900.0,,
KRDR,06-09-2008,10:22,SPECI,,,0,,,9999.0,,10.0,10.0,29.61,1003.9,,,,,,,,,,,,,,,8/8 Overcast,3300.0,,OVC,3400,,,,,,
KRDR,06-09-2008,10:15,SPECI,,,0,,,9999.0,,10.0,10.0,29.61,1003.8,,,,,,,,,,,,,,,8/8 Overcast,300.0,,OVC,1500,,,,,,
KRDR,06-09-2008,10:11,SPECI,,,0,,,9999.0,,10.0,10.0,29.61,1003.9,,,,,,,,,,,,,,,8/8 Overcast,300.0,,OVC,700,,,,,,
KRDR,06-09-2008,10:00,METAR,,,0,,,9999.0,,10.0,10.0,29.61,1004.1,,,,,,,,,,,,,,,8/8 Overcast,400.0,,OVC,400,,,,,,
KRDR,06-09-2008,09:39,SPECI,,230,4,,,9999.0,Mist,10.0,9.0,29.62,1004.2,10,,,,,,,,,,,,,,8/8 Overcast,200.0,,OVC,400,,,,,,
KRDR,06-09-2008,09:32,SPECI,,250,4,,,6400.0,Mist,9.0,9.0,29.61,1004.1,10,,,,,,,,,,,,,,8/8 Overcast,200.0,,OVC,400,,,,,,
KRDR,06-09-2008,09:30,SPECI,,250,4,,,6400.0,Mist,10.0,9.0,29.61,1004.1,10,,,,,,,,,,,,,,8/8 Overcast,300.0,,OVC,400,,,,,,
KRDR,06-09-2008,09:27,SPECI,,260,4,,,6400.0,Mist,10.0,9.0,29.61,1004.1,10,,,,,,,,,,,,,,8/8 Overcast,300.0,,OVC,600,,,,,,
KRDR,06-09-2008,09:23,SPECI,,260,3,,,8000.0,Mist,10.0,10.0,29.61,1004.1,10,,,,,,,,,,,,,,8/8 Overcast,300.0,,OVC,800,,,,,,
KRDR,06-09-2008,09:16,SPECI,,250,3,,,9999.0,,10.0,10.0,29.61,1004.1,,,,,,,,,,,,,,,8/8 Overcast,400.0,,BKN,400,OVC,1800.0,,,,
KRDR,06-09-2008,09:01,SPECI,,,0,,,9999.0,,11.0,11.0,29.62,1004.2,,,,,,,,,,,,,,,8/8 Overcast,1200.0,,FEW,400,OVC,2000.0,,,,
KRDR,06-09-2008,09:00,METAR,,210,3,,,9999.0,,11.0,10.0,29.62,1004.3,,,,,,,,,,,,,,,8/8 Overcast,1600.0,,OVC,1600,,,,,,
KRDR,06-09-2008,08:00,METAR,,220,4,,,9999.0,,10.0,10.0,29.63,1004.5,,,,,,,,,,,,,,,8/8 Overcast,1600.0,,OVC,1600,,,,,,
KRDR,06-09-2008,07:35,SPECI,,250,3,,,9999.0,,10.0,9.0,29.63,1004.6,,,,,,,,,,,,,,,7/8 Mostly Cloudy,1600.0,,BKN,1600,,,,,,
KRDR,06-09-2008,07:27,SPECI,,220,4,,,4800.0,Mist,8.0,8.0,29.63,1004.8,10,,,,,,,,,,,,,,7/8 Mostly Cloudy,1700.0,,BKN,1700,,,,,,
KRDR,06-09-2008,07:25,SPECI,,220,4,,,3200.0,Mist,8.0,8.0,29.64,1004.8,10,,,,,,,,,,,,,,7/8 Mostly Cloudy,1700.0,,BKN,1700,,,,,,
KRDR,06-09-2008,07:22,SPECI,,220,4,,,1600.0,Mist,8.0,8.0,29.64,1004.8,10,,,,,,,,,,,,,,Sky Obscured (Unable to Estimate),1800.0,100.0,,1800,,,,,,
KRDR,06-09-2008,07:21,SPECI,,220,4,,,1200.0,Mist,8.0,8.0,29.64,1004.8,10,,,,,,,,,,,,,,Sky Obscured (Unable to Estimate),1800.0,100.0,,1800,,,,,,
KRDR,06-09-2008,07:14,SPECI,,200,3,,,800.0,Fog,8.0,8.0,29.63,1004.8,30,,,,,,,,,,,,,,Sky Obscured (Unable to Estimate),1800.0,100.0,,1800,,,,,,
KRDR,06-09-2008,07:00,METAR,,220,3,,,1600.0,Mist,8.0,8.0,29.64,1004.8,10,,,,,,,,,,,,,,Clear,72000.0,,,73000,,,,,,
KRDR,06-09-2008,06:54,SPECI,,,0,,,1200.0,Mist,8.0,8.0,29.63,1004.8,10,,,,,,,,,,,,,,Clear,72000.0,,,73000,,,,,,
KRDR,06-09-2008,06:50,SPECI,,220,3,,,2000.0,Mist,8.0,8.0,29.64,1004.8,10,,,,,,,,,,,,,,Clear,72000.0,,,73000,,,,,,
KRDR,06-09-2008,06:47,SPECI,,210,3,,,2800.0,Mist,8.0,8.0,29.64,1004.9,10,,,,,,,,,,,,,,Clear,72000.0,,,73000,,,,,,
KRDR,06-09-2008,06:33,SPECI,,,0,,,3200.0,Mist,8.0,8.0,29.64,1004.9,10,,,,,,,,,,,,,,Clear,72000.0,,,73000,,,,,,
KRDR,06-09-2008,06:30,SPECI,,,0,,,4000.0,Mist,8.0,8.0,29.64,1004.9,10,,,,,,,,,,,,,,Clear,72000.0,,,73000,,,,,,
KRDR,06-09-2008,06:14,SPECI,,,0,,,9999.0,Mist,10.0,9.0,29.64,1004.9,10,,,,,,,,,,,,,,Clear,72000.0,,,73000,,,,,,
KRDR,06-09-2008,06:00,METAR,,,0,,,9999.0,,11.0,11.0,29.64,1005.0,,,,,,,,,,,,,TRACE,,Clear,72000.0,,,73000,,,,,,
KRDR,06-09-2008,05:00,METAR,,20,4,,,9999.0,,12.0,11.0,29.65,1005.3,,,,,,,,,,,,,,,7/8 Mostly Cloudy,8000.0,,BKN,7900,,,,,,
KRDR,06-09-2008,04:00,METAR,,20,6,,,9999.0,,12.0,11.0,29.68,1006.2,,,,,,,,,,,,,,,7/8 Mostly Cloudy,8000.0,,BKN,7900,,,,,,
KRDR,06-09-2008,03:00,METAR,,340,5,,,9999.0,,13.0,11.0,29.68,1006.4,,,,,,,,,,,TRACE,TRACE,,,Clear,72000.0,,,73000,,,,,,
KRDR,06-09-2008,02:16,SPECI,,350,8,,,9999.0,,13.0,11.0,29.68,1006.4,,,,,,,,,,,,,,,4/8 Partly Cloudy,72000.0,,FEW,4700,SCT,6900.0,,,,
KRDR,06-09-2008,02:00,METAR,,320,10,,,9999.0,Light Rain,13.0,11.0,29.70,1006.9,61,,,,,,,,,,TRACE,,,,8/8 Overcast,6000.0,,OVC,5900,,,,,,
KRDR,06-09-2008,01:00,METAR,,300,15,21.0,,9999.0,Light Rain,15.0,10.0,29.69,1006.7,61,,,,,,,,,,TRACE,,,,7/8 Mostly Cloudy,7000.0,,BKN,6900,,,,,,
KRDR,06-09-2008,00:43,SPECI,,300,17,,,9999.0,,15.0,10.0,29.69,1006.5,,,,,,,,,,,,,,,7/8 Mostly Cloudy,7500.0,,BKN,7400,,,,,,
KRDR,06-09-2008,00:36,SPECI,,290,14,23.0,,9999.0,,15.0,10.0,29.68,1006.3,,,,,,,,,,,,,,,4/8 Partly Cloudy,72000.0,,SCT,7900,,,,,,
KRDR,06-09-2008,00:16,SPECI,,290,16,22.0,,9999.0,,16.0,9.0,29.67,1006.1,,,,,,,,,,,,,,,2/8 Mostly Clear,72000.0,,FEW,4900,,,,,,
KRDR,06-09-2008,00:00,METAR,,270,16,23.0,260/29KTS,9999.0,,17.0,9.0,29.67,1006.0,,,,,,,,,,,TRACE,,TRACE,,7/8 Mostly Cloudy,8000.0,,FEW,3300,BKN,7900.0,,,,
KRDR,06-08-2008,23:35,SPECI,,260,21,29.0,260/29KTS,9999.0,Unknown Precipitation,20.0,10.0,29.66,1005.7,40,,,,,,,,,,,,,,7/8 Mostly Cloudy,8000.0,,FEW,3900,BKN,7900.0,,,,
KRDR,06-08-2008,23:20,SPECI,,210,7,,,9999.0,,21.0,4.0,29.65,1005.3,,,,,,,,,,,,,,,7/8 Mostly Cloudy,8000.0,,FEW,3900,BKN,7900.0,,,,
KRDR,06-08-2008,23:11,SPECI,,170,8,,,9999.0,,21.0,7.0,29.65,1005.3,,,,,,,,,,,,,,,4/8 Partly Cloudy,72000.0,,FEW,3200,SCT,7900.0,,,,
KRDR,06-08-2008,23:00,METAR,,170,8,,,9999.0,,22.0,6.0,29.65,1005.3,,,,,,,,,,,,,,,2/8 Mostly Clear,72000.0,,FEW,8400,,,,,,
KRDR,06-08-2008,22:00,METAR,,150,12,,,9999.0,,23.0,6.0,29.65,1005.4,,,,,,,,,,,,,,,8/8 Overcast,10000.0,,BKN,9900,OVC,25000.0,,,,
KRDR,06-08-2008,21:00,METAR,,140,11,,,9999.0,,23.0,5.0,29.66,1005.8,,,,,,,,,,,,,,,8/8 Overcast,9500.0,,OVC,9400,,,,,,
KRDR,06-08-2008,20:00,METAR,,140,12,,,9999.0,,24.0,5.0,29.67,1006.1,,,,,,,,,,,,,,,8/8 Overcast,9000.0,,BKN,8900,OVC,25000.0,,,,
KRDR,06-08-2008,19:00,METAR,,150,9,,,9999.0,,24.0,5.0,29.70,1006.9,,,,,,,,,,,,,,,8/8 Overcast,8000.0,,BKN,7900,BKN,11000.0,OVC,25000.0,,
KRDR,06-08-2008,18:00,METAR,,160,6,,,9999.0,,24.0,4.0,29.71,1007.2,,,,,,,,,,,,,,,7/8 Mostly Cloudy,13000.0,,SCT,7900,BKN,13000.0,BKN,20000.0,,
KRDR,06-08-2008,17:00,METAR,,170,7,,,9999.0,,24.0,8.0,29.72,1007.6,,,,,,,,,,,,,,,7/8 Mostly Cloudy,15000.0,,FEW,5900,BKN,15000.0,BKN,25000.0,,
KRDR,06-08-2008,16:00,METAR,,120,4,,,9999.0,,22.0,9.0,29.72,1007.7,,,,,,,,,,,,,,,Clear,72000.0,,,73000,,,,,,
KRDR,06-08-2008,15:00,METAR,,,0,,,9999.0,,20.0,9.0,29.72,1007.7,,,,,,,,,,,,,,,Clear,72000.0,,,73000,,,,,,
KRDR,06-08-2008,14:00,METAR,,,0,,,9999.0,,18.0,8.0,29.73,1007.8,,,,,,,,,,,,,,,Clear,72000.0,,,73000,,,,,,
KRDR,06-08-2008,13:00,METAR,,280,3,,,9999.0,,16.0,9.0,29.71,1007.4,,,,,,,,,,,,,,,Clear,72000.0,,,73000,,,,,,
KRDR,06-08-2008,12:00,METAR,,250,4,,,9999.0,,11.0,7.0,29.71,1007.3,,,,,,,,,,,,,,,Clear,72000.0,,,73000,,,,,,
KRDR,06-08-2008,11:00,METAR,,260,5,,,9999.0,,7.0,5.0,29.70,1006.9,,,,,,,,,,,,,,,Clear,72000.0,,,73000,,,,,,
KRDR,06-08-2008,10:00,METAR,,220,6,,,9999.0,,9.0,5.0,29.70,1007.1,,,,,,,,,,,,,,,Clear,72000.0,,,73000,,,,,,
KRDR,06-08-2008,09:00,METAR,,230,3,,,9999.0,,8.0,6.0,29.70,1007.0,,,,,,,,,,,,,,,Clear,72000.0,,,73000,,,,,,
KRDR,06-08-2008,08:00,METAR,,210,6,,,9999.0,,10.0,6.0,29.71,1007.4,,,,,,,,,,,,,,,Clear,72000.0,,,73000,,,,,,
KRDR,06-08-2008,07:00,METAR,,220,5,,,9999.0,,10.0,6.0,29.70,1006.9,,,,,,,,,,,,,,,Clear,72000.0,,,73000,,,,,,
KRDR,06-08-2008,06:00,METAR,,210,4,,,9999.0,,11.0,6.0,29.68,1006.4,,,,,,,,,,,,,,,Clear,72000.0,,,73000,,,,,,
KRDR,06-08-2008,05:00,METAR,,220,5,,,9999.0,,11.0,7.0,29.68,1006.3,,,,,,,,,,,,,,,Clear,72000.0,,,73000,,,,,,
KRDR,06-08-2008,04:00,METAR,,220,4,,,9999.0,,11.0,8.0,29.67,1006.1,,,,,,,,,,,,,,,Clear,72000.0,,,73000,,,,,,
KRDR,06-08-2008,03:00,METAR,,260,3,,,9999.0,,15.0,8.0,29.66,1005.7,,,,,,,,,,,,,,,Clear,72000.0,,,73000,,,,,,
KRDR,06-08-2008,02:00,METAR,,280,5,,,9999.0,,19.0,7.0,29.64,1005.1,,,,,,,,,,,,,,,Clear,72000.0,,,73000,,,,,,
KRDR,06-08-2008,01:00,METAR,,280,6,,,9999.0,,22.0,4.0,29.64,1005.0,,,,,,,,,,,,,,,Clear,72000.0,,,73000,,,,,,
KRDR,06-08-2008,00:00,METAR,,260,15,,,9999.0,,23.0,4.0,29.64,1004.8,,,,,,,,,,,,,,,Clear,72000.0,,,73000,,,,,,
KRDR,06-07-2008,23:00,METAR,,270,15,19.0,,9999.0,,24.0,4.0,29.63,1004.7,,,,,,,,,,,,,,,2/8 Mostly Clear,72000.0,,FEW,8400,,,,,,
KRDR,06-07-2008,22:00,METAR,,280,11,18.0,,9999.0,,24.0,6.0,29.63,1004.7,,,,,,,,,,,,,,,2/8 Mostly Clear,72000.0,,FEW,7900,,,,,,
KRDR,06-07-2008,21:00,METAR,,280,13,24.0,260/26KTS,9999.0,,24.0,6.0,29.62,1004.4,,,,,,,,,,,,,,,Clear,72000.0,,,73000,,,,,,
KRDR,06-07-2008,20:00,METAR,,270,15,25.0,,9999.0,,24.0,7.0,29.61,1003.9,,,,,,,,,,,,,,,2/8 Mostly Clear,72000.0,,FEW,6900,,,,,,
KRDR,06-07-2008,19:00,METAR,,280,14,25.0,,9999.0,,23.0,6.0,29.60,1003.5,,,,,,,,,,,,,,,2/8 Mostly Clear,72000.0,,FEW,6400,,,,,,
KRDR,06-07-2008,18:00,METAR,,260,11,,,9999.0,,22.0,11.0,29.59,1003.3,,,,,,,,,,,,,,,2/8 Mostly Clear,72000.0,,FEW,4600,,,,,,
KRDR,06-07-2008,17:00,METAR,,260,12,19.0,,9999.0,,21.0,10.0,29.59,1003.4,,,,,,,,,,,,,,,Clear,72000.0,,,73000,,,,,,
KRDR,06-07-2008,16:00,METAR,,280,13,18.0,,9999.0,,20.0,11.0,29.58,1003.0,,,,,,,,,,,,,,,Clear,72000.0,,,73000,,,,,,
KRDR,06-07-2008,15:00,METAR,,250,11,,,9999.0,,17.0,11.0,29.58,1003.0,,,,,,,,,,,,,,,Clear,72000.0,,,73000,,,,,,
KRDR,06-07-2008,14:00,METAR,,260,12,,,9999.0,,16.0,10.0,29.58,1003.0,,,,,,,,,,,,,,,Clear,72000.0,,,73000,,,,,,
KRDR,06-07-2008,13:00,METAR,,250,9,,,9999.0,,14.0,8.0,29.56,1002.3,,,,,,,,,,,,,,,4/8 Partly Cloudy,72000.0,,SCT,3500,,,,,,
KRDR,06-07-2008,12:00,METAR,,270,10,,,9999.0,,12.0,7.0,29.55,1001.9,,,,,,,,,,,,,,IN,7/8 Mostly Cloudy,5500.0,,BKN,5400,,,,,,
KRDR,06-07-2008,11:00,METAR,,280,8,,,9999.0,,11.0,7.0,29.51,1000.7,,,,,,,,,,,,,,,4/8 Partly Cloudy,72000.0,,FEW,4000,SCT,7400.0,,,,
KRDR,06-07-2008,10:00,METAR,,250,7,,,9999.0,,10.0,6.0,29.50,1000.3,,,,,,,,,,,,,,,2/8 Mostly Clear,72000.0,,FEW,9900,,,,,,
KRDR,06-07-2008,09:00,METAR,,270,6,,,9999.0,,10.0,7.0,29.47,999.3,,,,,,,,,,,,,,,Clear,72000.0,,,73000,,,,,,
KRDR,06-07-2008,08:00,METAR,,260,7,,,9999.0,,12.0,7.0,29.46,999.1,,,,,,,,,,,,,,,Clear,72000.0,,,73000,,,,,,
KRDR,06-07-2008,07:00,METAR,,260,8,,,9999.0,,12.0,7.0,29.46,998.9,,,,,,,,,,,,,,,2/8 Mostly Clear,72000.0,,FEW,9900,,,,,,
KRDR,06-07-2008,06:00,METAR,,240,10,,,9999.0,,12.0,8.0,29.45,998.7,,,,,,,,,,,,,TRACE,,Clear,72000.0,,,73000,,,,,,
KRDR,06-07-2008,05:00,METAR,,230,9,,,9999.0,,12.0,8.0,29.43,998.2,,,,,,,,,,,,,,,Clear,72000.0,,,73000,,,,,,
KRDR,06-07-2008,04:00,METAR,,260,12,,,9999.0,,13.0,9.0,29.41,997.3,,,,,,,,,,,,,,,2/8 Mostly Clear,72000.0,,FEW,5900,,,,,,
KRDR,06-07-2008,03:00,METAR,,250,13,20.0,,9999.0,,14.0,9.0,29.37,996.2,,,,,,,,,,,,TRACE,,,2/8 Mostly Clear,72000.0,,FEW,5900,,,,,,
KRDR,06-07-2008,02:00,METAR,,270,13,19.0,270/31KTS,9999.0,,13.0,10.0,29.34,995.0,,,,,,,,,,,TRACE,,,,2/8 Mostly Clear,72000.0,,FEW,4200,,,,,,
KRDR,06-07-2008,01:26,SPECI,,270,15,31.0,,9999.0,,13.0,10.0,29.33,,,,,,,,,,,,,,,,7/8 Mostly Cloudy,3900.0,,FEW,1200,BKN,4000.0,BKN,20000.0,,
KRDR,06-07-2008,01:04,SPECI,,260,16,26.0,,9999.0,Rain,15.0,10.0,29.32,,,,,61,,,,,,,,,,,8/8 Overcast,4400.0,,SCT,3000,BKN,4500.0,OVC,5400.0,,
KRDR,06-07-2008,01:00,METAR,,260,17,23.0,250/27KTS,9999.0,,15.0,10.0,29.32,994.3,,,,,,,,,,,,,,,7/8 Mostly Cloudy,4400.0,,FEW,3000,BKN,4500.0,BKN,20000.0,,
KRDR,06-07-2008,00:00,METAR,,260,17,27.0,270/36KTS,9999.0,,15.0,10.0,29.28,993.2,,,,,,,,,,,,,.01 IN,,8/8 Overcast,4900.0,,FEW,3500,OVC,5000.0,,,,
KRDR,06-06-2008,23:00,METAR,,260,19,33.0,270/33KTS,9999.0,,15.0,10.0,29.23,991.6,,,,,,,,,,,,,,,8/8 Overcast,6000.0,,FEW,2300,SCT,4500.0,OVC,5900.0,,
KRDR,06-06-2008,22:04,SPECI,,270,16,26.0,,9999.0,,16.0,11.0,29.20,,,,,,,,,,,,,,,,8/8 Overcast,4900.0,,SCT,2300,OVC,5000.0,,,,
KRDR,06-06-2008,22:00,METAR,,260,17,24.0,270/27KTS,9999.0,,15.0,10.0,29.20,990.4,,,,,,,,,,,,,,,8/8 Overcast,2200.0,,BKN,2200,OVC,4600.0,,,,
KRDR,06-06-2008,21:00,METAR,,270,16,22.0,280/30KTS,9999.0,,16.0,11.0,29.15,988.9,,,,,,,,,,,,.01 IN,,,8/8 Overcast,2300.0,,BKN,2300,OVC,5000.0,,,,
KRDR,06-06-2008,20:00,METAR,,280,19,24.0,,9999.0,,15.0,11.0,29.12,987.7,,,,,,,,,,,,,,,8/8 Overcast,1400.0,,BKN,1400,OVC,6400.0,,,,
KRDR,06-06-2008,19:40,SPECI,,270,18,24.0,,9999.0,,15.0,11.0,29.12,,,,,,,,,,,,,,,,8/8 Overcast,2000.0,,FEW,1400,BKN,2000.0,OVC,4900.0,,
KRDR,06-06-2008,19:00,METAR,,270,17,26.0,260/26KTS,9999.0,Rain,14.0,12.0,29.10,987.0,,,,61,,,,,,,,,,,8/8 Overcast,1400.0,,SCT,800,BKN,1400.0,OVC,4100.0,,
KRDR,06-06-2008,18:00,METAR,,270,9,,,9999.0,Rain,15.0,14.0,29.08,986.4,,,,61,,,,,,,.03 IN,,.34 IN,,8/8 Overcast,700.0,,SCT,700,OVC,1400.0,,,,
KRDR,06-06-2008,17:00,METAR,,270,3,,,9999.0,Rain,14.0,14.0,29.07,986.3,,,,61,,,,,,,.03 IN,,,,8/8 Overcast,600.0,,BKN,600,BKN,1000.0,OVC,1300.0,,
KRDR,06-06-2008,16:22,SPECI,,280,5,,,9999.0,Rain,13.0,13.0,29.07,986.2,,,,61,,,,,,,,,,,8/8 Overcast,700.0,,SCT,400,BKN,700.0,OVC,1100.0,,
KRDR,06-06-2008,16:00,METAR,,300,6,,,9999.0,Rain,13.0,13.0,29.07,986.0,,,,61,,,,,,,.01 IN,,,,8/8 Overcast,400.0,,BKN,400,OVC,1100.0,,,,
KRDR,06-06-2008,15:21,SPECI,,300,5,,,9999.0,Rain,13.0,13.0,29.06,986.0,,,,61,,,,,,,,,,,8/8 Overcast,500.0,,BKN,500,OVC,1000.0,,,,
KRDR,06-06-2008,15:00,METAR,,300,5,,,9999.0,,13.0,13.0,29.07,986.3,,,,,,,,,,,TRACE,.33 IN,,,8/8 Overcast,600.0,,SCT,300,BKN,800.0,OVC,1100.0,,
KRDR,06-06-2008,14:43,SPECI,,280,5,,,9999.0,,13.0,13.0,29.09,986.8,,,,,,,,,,,,,,,8/8 Overcast,300.0,,BKN,300,OVC,1100.0,,,,
KRDR,06-06-2008,14:11,SPECI,,220,6,,,3200.0,Rain/Mist,13.0,13.0,29.11,987.5,,,,61,10,,,,,,,,,,8/8 Overcast,300.0,,OVC,300,,,,,,
KRDR,06-06-2008,14:00,METAR,,360,11,,,1600.0,Mist,13.0,13.0,29.02,984.8,,,,10,,,,,,,.03 IN,,,,8/8 Overcast,200.0,,SCT,200,OVC,500.0,,,,
KRDR,06-06-2008,13:33,SPECI,,20,10,,,800.0,Rain,12.0,12.0,29.06,985.7,,,,61,,,,,,,,,,,8/8 Overcast,500.0,,SCT,200,OVC,500.0,,,,
KRDR,06-06-2008,13:00,METAR,,20,6,,,800.0,Rain/Fog or Ice Fog,12.0,12.0,29.12,987.7,,,,63,44,,,,,,.24 IN,,,,8/8 Overcast,600.0,,OVC,600,,,,,,
KRDR,06-06-2008,12:30,SPECI,,30,5,,,1600.0,Rain/Mist,12.0,12.0,29.13,988.2,,,,63,10,,,,,,,,,,8/8 Overcast,500.0,,BKN,500,OVC,1000.0,,,,
KRDR,06-06-2008,12:00,METAR,,30,5,,,8000.0,Rain/Mist,12.0,12.0,29.17,989.5,,,,63,10,,,,,,.12 IN,,.4 IN,.61 IN,8/8 Overcast,300.0,,BKN,300,OVC,1000.0,,,,
KRDR,06-06-2008,11:01,SPECI,,40,6,,,9999.0,Rain,12.0,12.0,29.18,990.1,,,,61,,,,,,,,,,,7/8 Mostly Cloudy,300.0,,BKN,300,,,,,,
KRDR,06-06-2008,11:00,METAR,,,3,,,6400.0,Light Rain/Mist,12.0,12.0,29.20,990.5,61,10,,,,,,,,,TRACE,,,,7/8 Mostly Cloudy,100.0,,BKN,300,,,,,,
KRDR,06-06-2008,10:46,SPECI,,40,5,,,4800.0,Heavy Rain/Mist,12.0,12.0,29.20,990.5,63,10,,,,,,,,,,,,,7/8 Mostly Cloudy,300.0,,BKN,300,,,,,,
KRDR,06-06-2008,10:32,SPECI,,60,9,,,9999.0,Rain,12.0,12.0,29.21,990.8,62,,,,,,,,,,,,,,8/8 Overcast,300.0,,OVC,300,,,,,,
KRDR,06-06-2008,10:26,SPECI,,60,7,,,9999.0,Light Rain,12.0,12.0,29.22,991.0,61,,,,,,,,,,,,,,8/8 Overcast,300.0,,OVC,300,,,,,,
KRDR,06-06-2008,10:14,SPECI,,60,8,,,9999.0,Light Rain,12.0,12.0,29.23,991.3,61,,,,,,,,,,,,,,8/8 Overcast,400.0,,OVC,400,,,,,,
KRDR,06-06-2008,10:00,METAR,,70,9,,,9999.0,Light Rain,12.0,12.0,29.24,991.8,61,,,,,,,,,,TRACE,,,,8/8 Overcast,500.0,,OVC,500,,,,,,
KRDR,06-06-2008,09:49,SPECI,,60,10,,,9999.0,Light Rain,12.0,11.0,29.24,991.8,61,,,,,,,,,,,,,,8/8 Overcast,500.0,,OVC,500,,,,,,
KRDR,06-06-2008,09:42,SPECI,,60,10,,,9999.0,,12.0,11.0,29.25,992.0,,,,,,,,,,,,,,,8/8 Overcast,500.0,,OVC,500,,,,,,
KRDR,06-06-2008,09:30,SPECI,,70,12,,,9999.0,,12.0,11.0,29.26,992.5,,,,,,,,,,,,,,,8/8 Overcast,600.0,,OVC,600,,,,,,
KRDR,06-06-2008,09:16,SPECI,,60,12,,,9999.0,Light Drizzle,12.0,11.0,29.27,992.8,51,,,,,,,,,,,,,,8/8 Overcast,600.0,,OVC,600,,,,,,
KRDR,06-06-2008,09:12,SPECI,,60,9,,,9999.0,,12.0,11.0,29.28,993.0,,,,,,,,,,,,,,,8/8 Overcast,500.0,,OVC,500,,,,,,
KRDR,06-06-2008,09:00,METAR,,60,10,,,9999.0,,12.0,11.0,29.30,993.8,,,,,,,,,,,TRACE,TRACE,,,8/8 Overcast,500.0,,OVC,500,,,,,,
KRDR,06-06-2008,08:36,SPECI,,70,13,19.0,,9999.0,,12.0,11.0,29.32,994.4,,,,,,,,,,,,,,,8/8 Overcast,500.0,,OVC,500,,,,,,
KRDR,06-06-2008,08:13,SPECI,,60,15,19.0,,9999.0,,12.0,11.0,29.33,994.7,,,,,,,,,,,,,,,8/8 Overcast,400.0,,OVC,400,,,,,,
KRDR,06-06-2008,08:08,SPECI,,50,14,18.0,,9999.0,,12.0,11.0,29.34,994.9,,,,,,,,,,,,,,,8/8 Overcast,100.0,,OVC,500,,,,,,
KRDR,06-06-2008,08:02,SPECI,,60,15,18.0,,9999.0,,12.0,11.0,29.34,995.0,,,,,,,,,,,,,,,8/8 Overcast,400.0,,OVC,400,,,,,,
KRDR,06-06-2008,08:00,METAR,,60,13,,,9999.0,Light Rain/Mist,12.0,11.0,29.35,995.5,61,10,,,,,,,,,TRACE,,,,8/8 Overcast,500.0,,OVC,500,,,,,,
KRDR,06-06-2008,07:53,SPECI,,60,13,,,9999.0,Light Rain,12.0,11.0,29.35,995.4,61,,,,,,,,,,,,,,8/8 Overcast,400.0,,OVC,400,,,,,,
KRDR,06-06-2008,07:48,SPECI,,50,14,20.0,,4800.0,Light Rain/Mist,12.0,11.0,29.35,995.5,61,10,,,,,,,,,,,,,8/8 Overcast,500.0,,OVC,500,,,,,,
KRDR,06-06-2008,07:47,SPECI,,50,13,20.0,,4800.0,Light Rain/Mist,12.0,11.0,29.35,995.5,61,10,,,,,,,,,,,,,8/8 Overcast,500.0,,OVC,500,,,,,,
KRDR,06-06-2008,07:44,SPECI,,60,14,20.0,,4000.0,Rain/Mist,12.0,11.0,29.35,995.5,62,10,,,,,,,,,,,,,8/8 Overcast,600.0,,OVC,600,,,,,,
KRDR,06-06-2008,07:30,SPECI,,60,13,21.0,,3200.0,Rain/Mist,12.0,11.0,29.38,996.4,62,10,,,,,,,,,,,,,8/8 Overcast,800.0,,FEW,200,OVC,800.0,,,,
KRDR,06-06-2008,07:27,SPECI,,70,16,22.0,,4000.0,Rain/Mist,12.0,11.0,29.38,996.5,62,10,,,,,,,,,,,,,8/8 Overcast,800.0,,FEW,300,OVC,800.0,,,,
KRDR,06-06-2008,07:24,SPECI,,70,15,22.0,,4800.0,Light Rain/Mist,12.0,11.0,29.39,996.7,61,10,,,,,,,,,,,,,8/8 Overcast,800.0,,OVC,800,,,,,,
KRDR,06-06-2008,07:14,SPECI,,70,18,22.0,,9999.0,Light Rain,12.0,11.0,29.40,997.0,61,,,,,,,,,,,,,,8/8 Overcast,800.0,,OVC,800,,,,,,
KRDR,06-06-2008,07:00,METAR,,60,15,25.0,,9999.0,,12.0,11.0,29.42,997.6,,,,,,,,,,,TRACE,,,,8/8 Overcast,1000.0,,OVC,1000,,,,,,
KRDR,06-06-2008,06:28,SPECI,,70,14,22.0,,9999.0,,12.0,11.0,29.46,998.9,,,,,,,,,,,,,,,8/8 Overcast,1100.0,,OVC,1100,,,,,,
KRDR,06-06-2008,06:23,SPECI,,60,15,22.0,,9999.0,Light Rain,12.0,11.0,29.45,998.8,61,,,,,,,,,,,,,,8/8 Overcast,1100.0,,OVC,1100,,,,,,
KRDR,06-06-2008,06:21,SPECI,,70,15,20.0,,9999.0,Light Rain,12.0,11.0,29.46,998.9,61,,,,,,,,,,,,,,8/8 Overcast,1200.0,,FEW,500,OVC,1200.0,,,,
KRDR,06-06-2008,06:14,SPECI,,60,15,,,9999.0,Rain,12.0,11.0,29.46,999.1,,,,61,,,,,,,,,,,8/8 Overcast,1000.0,,FEW,500,OVC,1000.0,,,,
KRDR,06-06-2008,06:00,METAR,,60,15,23.0,,9999.0,Rain/Mist,12.0,11.0,29.48,999.7,,,,61,10,,,,,,.1 IN,,.31 IN,,8/8 Overcast,3000.0,,FEW,900,SCT,1600.0,OVC,3000.0,,
KRDR,06-06-2008,05:00,METAR,,60,12,,,8000.0,Rain/Mist,12.0,11.0,29.56,1002.3,,,,61,10,,,,,,.21 IN,,,,8/8 Overcast,3000.0,,OVC,3000,,,,,,
KRDR,06-06-2008,04:40,SPECI,,70,12,,,6400.0,Rain/Mist,12.0,11.0,29.58,1002.9,,,,63,10,,,,,,,,,,8/8 Overcast,3400.0,,OVC,3500,,,,,,
KRDR,06-06-2008,04:00,METAR,,80,11,,,9999.0,Rain/Mist,14.0,10.0,29.63,1004.6,,,,61,10,,,,,,TRACE,,,,8/8 Overcast,3400.0,,OVC,3500,,,,,,
KRDR,06-06-2008,03:26,SPECI,,70,13,21.0,,9999.0,Rain,15.0,9.0,29.63,,,,,61,,,,,,,,,,,8/8 Overcast,3900.0,,BKN,4000,OVC,8400.0,,,,
KRDR,06-06-2008,03:00,METAR,,80,11,17.0,,9999.0,,16.0,10.0,29.67,1005.9,,,,,,,,,,,,,,,8/8 Overcast,9000.0,,OVC,8900,,,,,,
KRDR,06-06-2008,02:00,METAR,,60,12,18.0,,9999.0,,16.0,9.0,29.66,1005.5,,,,,,,,,,,,,,,8/8 Overcast,10000.0,,OVC,9900,,,,,,
KRDR,06-06-2008,01:00,METAR,,70,15,,,9999.0,,16.0,9.0,29.70,1006.8,,,,,,,,,,,,,,,8/8 Overcast,11000.0,,FEW,3000,BKN,11000.0,OVC,25000.0,,
KRDR,06-06-2008,00:00,METAR,,70,15,,,9999.0,,17.0,10.0,29.68,1006.2,,,,,,,,,,,,,,,8/8 Overcast,11000.0,,FEW,3000,BKN,11000.0,OVC,25000.0,,
KRDR,06-05-2008,23:00,METAR,,70,17,22.0,,9999.0,,17.0,10.0,29.68,1006.4,,,,,,,,,,,,,,,8/8 Overcast,11000.0,,FEW,3000,BKN,11000.0,OVC,25000.0,,
KRDR,06-05-2008,22:00,METAR,,80,14,,,9999.0,,17.0,10.0,29.73,1008.0,,,,,,,,,,,,,,,8/8 Overcast,15000.0,,FEW,4900,OVC,15000.0,,,,
KRDR,06-05-2008,21:00,METAR,,90,15,,050/26KTS,9999.0,,17.0,10.0,29.77,1009.4,,,,,,,,,,,,,,,8/8 Overcast,15000.0,,FEW,2800,OVC,15000.0,,,,
KRDR,06-05-2008,20:00,METAR,,40,14,,,9999.0,,17.0,10.0,29.75,1008.7,,,,,,,,,,,,,,,8/8 Overcast,15000.0,,FEW,2800,BKN,15000.0,OVC,25000.0,,
KRDR,06-05-2008,19:43,SPECI,,50,16,,,9999.0,,17.0,10.0,29.75,,,,,,,,,,,,,,,,8/8 Overcast,25000.0,,SCT,2700,OVC,25000.0,,,,
KRDR,06-05-2008,19:00,METAR,,60,14,18.0,,9999.0,,16.0,10.0,29.80,1010.2,,,,,,,,,,,,,,,7/8 Mostly Cloudy,2000.0,,BKN,2000,,,,,,
KRDR,06-05-2008,18:00,METAR,,60,10,,,9999.0,,14.0,9.0,29.83,1011.1,,,,,,,,,,,,,,,8/8 Overcast,2000.0,,OVC,2000,,,,,,
KRDR,06-05-2008,17:00,METAR,,90,12,,,9999.0,,14.0,10.0,29.83,1011.3,,,,,,,,,,,,,,,8/8 Overcast,2000.0,,FEW,1500,BKN,2000.0,OVC,3000.0,,
KRDR,06-05-2008,16:00,METAR,,70,11,,,9999.0,,14.0,9.0,29.81,1010.7,,,,,,,,,,,,,,,8/8 Overcast,2000.0,,BKN,2000,OVC,3000.0,,,,
KRDR,06-05-2008,15:00,METAR,,70,11,,,9999.0,,13.0,10.0,29.80,1010.4,,,,,,,,,,,,,,,8/8 Overcast,1500.0,,BKN,1500,OVC,3000.0,,,,
KRDR,06-05-2008,14:00,METAR,,60,9,,,9999.0,Mist,12.0,10.0,29.80,1010.4,,,,10,,,,,,,,,,,8/8 Overcast,1200.0,,FEW,800,BKN,1200.0,OVC,3000.0,,
KRDR,06-05-2008,13:18,SPECI,,50,10,,,8000.0,Mist,11.0,10.0,29.79,1009.8,,,,10,,,,,,,,,,,7/8 Mostly Cloudy,800.0,,BKN,800,BKN,7900.0,BKN,20000.0,,
KRDR,06-05-2008,13:00,METAR,,60,10,,,9999.0,Mist,11.0,10.0,29.79,1009.9,,,,10,,,,,,,,,,,8/8 Overcast,8000.0,,SCT,800,OVC,7900.0,,,,
KRDR,06-05-2008,12:53,SPECI,,60,9,,,8000.0,Mist,11.0,10.0,29.79,1009.9,,,,10,,,,,,,,,,,8/8 Overcast,500.0,,OVC,500,,,,,,
KRDR,06-05-2008,12:28,SPECI,,50,8,,,9999.0,Mist,10.0,10.0,29.79,1009.8,,,,10,,,,,,,,,,,8/8 Overcast,8000.0,,SCT,800,OVC,7900.0,,,,
KRDR,06-05-2008,12:00,METAR,,60,7,,,9999.0,Mist,10.0,10.0,29.78,1009.7,,,,10,,,,,,,,,,,7/8 Mostly Cloudy,8000.0,,SCT,600,BKN,7900.0,,,,
KRDR,06-05-2008,11:00,METAR,,20,7,,,4800.0,Mist,8.0,8.0,29.77,1009.2,,,,10,,,,,,,,,,,7/8 Mostly Cloudy,13000.0,,FEW,600,BKN,13000.0,,,,
KRDR,06-05-2008,10:09,SPECI,,60,6,,,9999.0,,8.0,8.0,29.75,1008.7,,,,,,,,,,,,,,,Clear,72000.0,,,73000,,,,,,
KRDR,06-05-2008,10:00,METAR,,50,5,,,8000.0,Mist,7.0,7.0,29.75,1008.7,10,,,,,,,,,,,,,,Clear,72000.0,,,73000,,,,,,
KRDR,06-05-2008,09:45,SPECI,,30,4,,,4800.0,Mist,7.0,7.0,29.75,1008.7,10,,,,,,,,,,,,,,Clear,72000.0,,,73000,,,,,,
KRDR,06-05-2008,09:39,SPECI,,20,6,,,3200.0,Mist,7.0,7.0,29.75,1008.7,10,,,,,,,,,,,,,,Clear,72000.0,,,73000,,,,,,
KRDR,06-05-2008,09:33,SPECI,,20,6,,,3200.0,Mist,7.0,7.0,29.75,1008.6,10,,,,,,,,,,,,,,Clear,72000.0,,,73000,,,,,,
KRDR,06-05-2008,09:31,SPECI,,20,7,,,2400.0,Mist,7.0,6.0,29.75,1008.6,10,,,,,,,,,,,,,,Clear,72000.0,,,73000,,,,,,
KRDR,06-05-2008,09:26,SPECI,,20,7,,,1600.0,Mist,6.0,6.0,29.75,1008.6,10,,,,,,,,,,,,,,Clear,72000.0,,,73000,,,,,,
KRDR,06-05-2008,09:23,SPECI,,20,6,,,1200.0,Mist,6.0,6.0,29.75,1008.7,10,,,,,,,,,,,,,,Clear,72000.0,,,73000,,,,,,
KRDR,06-05-2008,09:21,SPECI,,20,6,,,1600.0,Mist,7.0,6.0,29.75,1008.7,10,,,,,,,,,,,,,,Clear,72000.0,,,73000,,,,,,
KRDR,06-05-2008,09:18,SPECI,,20,5,,,2800.0,Mist,7.0,7.0,29.75,1008.7,10,,,,,,,,,,,,,,Clear,72000.0,,,73000,,,,,,
KRDR,06-05-2008,09:14,SPECI,,10,5,,,4000.0,Mist,7.0,7.0,29.75,1008.7,10,,,,,,,,,,,,,,Clear,72000.0,,,73000,,,,,,
KRDR,06-05-2008,09:05,SPECI,,350,5,,,4800.0,Mist,7.0,7.0,29.75,1008.7,10,,,,,,,,,,,,,,Clear,72000.0,,,73000,,,,,,
KRDR,06-05-2008,09:00,METAR,,340,4,,,4800.0,Mist,7.0,7.0,29.75,1008.6,10,,,,,,,,,,,,,,Clear,72000.0,,,73000,,,,,,
KRDR,06-05-2008,08:53,SPECI,,340,4,,,4000.0,Mist,7.0,7.0,29.75,1008.6,10,,,,,,,,,,,,,,Clear,72000.0,,,73000,,,,,,
KRDR,06-05-2008,08:46,SPECI,,10,3,,,6400.0,Mist,7.0,7.0,29.75,1008.6,10,,,,,,,,,,,,,,Clear,72000.0,,,73000,,,,,,
KRDR,06-05-2008,08:31,SPECI,,360,5,,,6400.0,Mist,7.0,7.0,29.74,1008.3,10,,,,,,,,,,,,,,Clear,72000.0,,,73000,,,,,,
KRDR,06-05-2008,08:06,SPECI,,30,4,,,4800.0,Mist,7.0,7.0,29.73,1008.1,10,,,,,,,,,,,,,,Clear,72000.0,,,73000,,,,,,
KRDR,06-05-2008,08:03,SPECI,,30,5,,,2400.0,Mist,7.0,7.0,29.73,1008.1,10,,,,,,,,,,,,,,Clear,72000.0,,,73000,,,,,,
KRDR,06-05-2008,08:00,METAR,,20,6,,,1600.0,Mist,7.0,6.0,29.72,1007.5,10,,,,,,,,,,,,,,Clear,72000.0,,,73000,,,,,,
KRDR,06-05-2008,08:00,SPECI,,20,4,,,1600.0,Mist,7.0,7.0,29.73,1007.8,10,,,,,,,,,,,,,,Clear,72000.0,,,73000,,,,,,
KRDR,06-05-2008,07:54,SPECI,,20,6,,,1200.0,Mist,7.0,6.0,29.72,1007.5,10,,,,,,,,,,,,,,Clear,72000.0,,,73000,,,,,,
KRDR,06-05-2008,07:48,SPECI,,30,4,,,1600.0,Mist,7.0,7.0,29.72,1007.5,10,,,,,,,,,,,,,,Clear,72000.0,,,73000,,,,,,
KRDR,06-05-2008,07:46,SPECI,,30,4,,,1200.0,Mist,7.0,7.0,29.72,1007.5,,,,10,,,,,,,,,,,Clear,72000.0,,,73000,,,,,,
KRDR,06-05-2008,07:00,METAR,,,2,,,9999.0,,9.0,9.0,29.73,1007.9,,,,,,,,,,,,,,,4/8 Partly Cloudy,72000.0,,SCT,25000,,,,,,
KRDR,06-05-2008,06:00,METAR,,100,4,,,9999.0,,12.0,10.0,29.72,1007.7,,,,,,,,,,,,,,,4/8 Partly Cloudy,72000.0,,SCT,25000,,,,,,
KRDR,06-05-2008,05:00,METAR,,100,6,,,9999.0,,13.0,11.0,29.73,1008.1,,,,,,,,,,,,,,,4/8 Partly Cloudy,72000.0,,SCT,25000,,,,,,
KRDR,06-05-2008,04:00,METAR,,60,8,,,9999.0,,14.0,11.0,29.72,1007.7,,,,,,,,,,,,,,,4/8 Partly Cloudy,72000.0,,SCT,25000,,,,,,
KRDR,06-05-2008,03:00,METAR,,40,5,,,9999.0,,14.0,11.0,29.70,1006.8,,,,,,,,,,,,,,,4/8 Partly Cloudy,72000.0,,SCT,25000,,,,,,
KRDR,06-05-2008,02:00,METAR,,60,6,,,9999.0,,16.0,11.0,29.68,1006.4,,,,,,,,,,,,,,,4/8 Partly Cloudy,72000.0,,FEW,3500,SCT,25000.0,,,,
KRDR,06-05-2008,01:00,METAR,,50,5,,,9999.0,,18.0,12.0,29.65,1005.4,,,,,,,,,,,,,,,4/8 Partly Cloudy,72000.0,,FEW,3500,SCT,25000.0,,,,
KRDR,06-05-2008,00:00,METAR,,70,6,,,9999.0,,18.0,11.0,29.65,1005.2,,,,,,,,,,,,,,,4/8 Partly Cloudy,72000.0,,FEW,3200,SCT,12000.0,,,,
KRDR,06-04-2008,23:06,SPECI,,80,6,,,9999.0,,19.0,12.0,29.64,,,,,,,,,,,,,,,,4/8 Partly Cloudy,72000.0,,SCT,3500,SCT,25000.0,,,,
KRDR,06-04-2008,23:00,METAR,,90,6,,,9999.0,,18.0,12.0,29.64,1005.0,,,,,,,,,,,,,,,7/8 Mostly Cloudy,2800.0,,BKN,2800,BKN,25000.0,,,,
KRDR,06-04-2008,22:00,METAR,,90,7,,,9999.0,,18.0,12.0,29.62,1004.3,,,,,,,,,,,,,,,7/8 Mostly Cloudy,2900.0,,BKN,2900,BKN,25000.0,,,,
KRDR,06-04-2008,21:21,SPECI,,60,5,,,,,18.0,12.0,29.62,,,,,,,,,,,,,,,,,2800.0,,BKN,2800,,,,,,
KRDR,06-04-2008,21:00,METAR,,60,5,,,9999.0,,18.0,12.0,29.61,1004.1,,,,,,,,,,,,,,,7/8 Mostly Cloudy,2600.0,,BKN,2600,,,,,,
KRDR,06-04-2008,20:15,SPECI,,30,4,,,4000.0,Haze,17.0,12.0,29.61,1004.0,,,,5,,,,,,,,,,,8/8 Overcast,1900.0,,OVC,1900,,,,,,
KRDR,06-04-2008,20:00,METAR,,,3,,,9999.0,,17.0,12.0,29.61,1004.0,,,,,,,,,,,,,,,7/8 Mostly Cloudy,2400.0,,BKN,2400,,,,,,
KRDR,06-04-2008,19:00,METAR,,80,4,,,9999.0,,16.0,12.0,29.60,1003.7,,,,,,,,,,,,,,,8/8 Overcast,1400.0,,FEW,800,OVC,1400.0,,,,
KRDR,06-04-2008,18:00,METAR,,,0,,,9999.0,,15.0,12.0,29.60,1003.7,,,,,,,,,,,,,,,8/8 Overcast,1000.0,,SCT,600,OVC,1000.0,,,,
KRDR,06-04-2008,17:00,METAR,,,0,,,9999.0,,13.0,12.0,29.59,1003.4,,,,,,,,,,,,,,,8/8 Overcast,500.0,,OVC,500,,,,,,
KRDR,06-04-2008,16:00,METAR,,240,4,,,8000.0,Mist,12.0,12.0,29.59,1003.4,,,,10,,,,,,,,,,,8/8 Overcast,500.0,,OVC,500,,,,,,
KRDR,06-04-2008,15:00,METAR,,130,6,,,6400.0,Mist,11.0,11.0,29.59,1003.3,,,,10,,,,,,,,,,,8/8 Overcast,500.0,,OVC,500,,,,,,
KRDR,06-04-2008,14:39,SPECI,,140,5,,,6400.0,Mist,11.0,11.0,29.59,1003.4,,,,10,,,,,,,,,,,8/8 Overcast,500.0,,BKN,500,OVC,1000.0,,,,
KRDR,06-04-2008,14:00,METAR,,140,5,,,9999.0,,11.0,10.0,29.60,1003.7,,,,,,,,,,,,,,,8/8 Overcast,600.0,,OVC,600,,,,,,
KRDR,06-04-2008,13:00,METAR,,110,8,,,9999.0,,10.0,10.0,29.59,1003.3,,,,,,,,,,,,,,,8/8 Overcast,700.0,,OVC,700,,,,,,
KRDR,06-04-2008,12:00,METAR,,90,4,,,9999.0,,10.0,10.0,29.59,1003.4,,,,,,,,,,,,,,.2 IN,8/8 Overcast,700.0,,OVC,700,,,,,,
KRDR,06-04-2008,11:00,METAR,,140,6,,,9999.0,Mist,10.0,10.0,29.59,1003.4,,,,10,,,,,,,,,,,8/8 Overcast,800.0,,OVC,800,,,,,,
KRDR,06-04-2008,10:00,METAR,,130,7,,,9999.0,,10.0,10.0,29.59,1003.3,,,,,,,,,,,,,,,8/8 Overcast,400.0,,OVC,800,,,,,,
KRDR,06-04-2008,09:00,METAR,,130,7,,,9999.0,,10.0,10.0,29.59,1003.3,,,,,,,,,,,,,,,8/8 Overcast,100.0,,OVC,800,,,,,,
KRDR,06-04-2008,08:41,SPECI,,130,8,,,9999.0,,10.0,10.0,29.59,1003.4,,,,,,,,,,,,,,,8/8 Overcast,100.0,,OVC,600,,,,,,
KRDR,06-04-2008,08:22,SPECI,,130,7,,,8000.0,Mist,10.0,10.0,29.60,1003.7,10,,,,,,,,,,,,,,8/8 Overcast,400.0,,OVC,400,,,,,,
KRDR,06-04-2008,08:00,METAR,,130,7,,,6400.0,Mist,10.0,10.0,29.60,1003.6,10,,,,,,,,,,,,,,8/8 Overcast,400.0,,OVC,400,,,,,,
KRDR,06-04-2008,07:36,SPECI,,130,7,,,6400.0,Mist,10.0,10.0,29.61,1004.0,10,,,,,,,,,,,,,,8/8 Overcast,400.0,,OVC,400,,,,,,
KRDR,06-04-2008,07:07,SPECI,,130,8,,,4800.0,Mist,10.0,10.0,29.61,1004.0,10,,,,,,,,,,,,,,8/8 Overcast,500.0,,OVC,500,,,,,,
KRDR,06-04-2008,07:00,METAR,,130,8,,,6400.0,Drizzle/Mist,10.0,10.0,29.62,1004.3,,,,51,10,,,,,,TRACE,,,,8/8 Overcast,500.0,,BKN,500,OVC,1500.0,,,,
KRDR,06-04-2008,06:00,METAR,,130,8,,,4000.0,Drizzle/Mist,10.0,10.0,29.64,1004.8,,,,51,10,,,,,,TRACE,,TRACE,,8/8 Overcast,500.0,,BKN,500,OVC,1400.0,,,,
KRDR,06-04-2008,05:00,METAR,,120,8,,,4800.0,Drizzle/Mist,10.0,10.0,29.66,1005.7,,,,51,10,,,,,,TRACE,,,,8/8 Overcast,500.0,,BKN,500,OVC,1200.0,,,,
KRDR,06-04-2008,04:00,METAR,,120,6,,,3200.0,Drizzle/Mist,9.0,9.0,29.68,1006.4,,,,51,10,,,,,,,,,,8/8 Overcast,500.0,,OVC,500,,,,,,
KRDR,06-04-2008,03:00,METAR,,130,8,,,2400.0,Mist,9.0,9.0,29.69,1006.7,,,,10,,,,,,,TRACE,TRACE,,,8/8 Overcast,600.0,,OVC,600,,,,,,
KRDR,06-04-2008,02:00,METAR,,130,6,,,2800.0,Mist,9.0,9.0,29.70,1006.9,,,,10,,,,,,,TRACE,,,,8/8 Overcast,600.0,,OVC,600,,,,,,
KRDR,06-04-2008,01:00,METAR,,130,12,,,8000.0,Drizzle/Mist,10.0,10.0,29.70,1006.8,,,,51,10,,,,,,TRACE,,,,8/8 Overcast,1000.0,,OVC,1000,,,,,,
KRDR,06-04-2008,00:00,METAR,,130,10,,,6400.0,Rain/Mist,10.0,10.0,29.70,1007.0,,,,61,10,,,,,,TRACE,,.2 IN,,8/8 Overcast,1000.0,,OVC,1000,,,,,,
KRDR,06-03-2008,23:00,METAR,,120,10,,,3200.0,Mist,10.0,10.0,29.72,1007.6,,,,10,,,,,,,.03 IN,,,,8/8 Overcast,1200.0,,SCT,800,OVC,1200.0,,,,
KRDR,06-03-2008,22:00,METAR,,130,14,18.0,,3200.0,Mist,10.0,10.0,29.73,1007.9,,,,,10,,,,,,.02 IN,,,,8/8 Overcast,1200.0,,OVC,1200,,,,,,
KRDR,06-03-2008,21:17,SPECI,,120,12,18.0,,6400.0,Rain/Mist,10.0,10.0,29.73,,,,,61,10,,,,,,,,,,8/8 Overcast,1900.0,,FEW,900,BKN,1900.0,OVC,2800.0,,
KRDR,06-03-2008,21:00,METAR,,130,10,15.0,,3200.0,Rain/Mist,10.0,10.0,29.74,1008.3,,,,61,10,,,,,,.05 IN,.17 IN,,,8/8 Overcast,3100.0,,SCT,2000,OVC,3100.0,,,,
KRDR,06-03-2008,20:00,METAR,,110,14,20.0,,4800.0,Rain/Mist,11.0,10.0,29.74,1008.2,,,,61,10,,,,,,.06 IN,,,,8/8 Overcast,3400.0,,SCT,2200,OVC,3500.0,,,,
KRDR,06-03-2008,19:00,METAR,,110,12,19.0,,6400.0,Light Rain Showers,11.0,9.0,29.76,1008.9,,,,80,,,,,,,.06 IN,,,,8/8 Overcast,4400.0,,FEW,2700,BKN,4500.0,OVC,9900.0,,
KRDR,06-03-2008,18:00,METAR,,130,13,,,6400.0,Light Rain Showers,11.0,9.0,29.77,1009.3,,,,80,,,,,,,TRACE,,TRACE,,8/8 Overcast,4400.0,,SCT,2500,BKN,4500.0,OVC,9900.0,,
KRDR,06-03-2008,17:00,METAR,,120,13,17.0,,9999.0,Rain,12.0,9.0,29.79,1009.8,,,,61,,,,,,,TRACE,,,,8/8 Overcast,6500.0,,BKN,6400,OVC,9900.0,,,,
KRDR,06-03-2008,16:36,SPECI,,110,11,,,9999.0,,12.0,8.0,29.79,1009.8,,,,,,,,,,,,,,,8/8 Overcast,6500.0,,BKN,6400,OVC,9900.0,,,,
KRDR,06-03-2008,16:00,METAR,,100,11,,,9999.0,,12.0,8.0,29.79,1010.1,,,,,,,,,,,TRACE,,,,8/8 Overcast,7500.0,,FEW,3000,BKN,7400.0,OVC,9900.0,,
KRDR,06-03-2008,15:37,SPECI,,100,11,,,9999.0,,12.0,8.0,29.79,1010.1,,,,,,,,,,,,,,,8/8 Overcast,7500.0,,BKN,7400,OVC,9900.0,,,,
KRDR,06-03-2008,15:00,METAR,,100,6,,,9999.0,Light Rain Showers,11.0,8.0,29.80,1010.3,,,,80,,,,,,,TRACE,TRACE,,,8/8 Overcast,4900.0,,SCT,3000,BKN,5000.0,OVC,9900.0,,
KRDR,06-03-2008,14:00,METAR,,110,8,,,9999.0,Rain,10.0,7.0,29.83,1011.2,,,,61,,,,,,,TRACE,,,,8/8 Overcast,5500.0,,SCT,4000,BKN,5400.0,OVC,9900.0,,
KRDR,06-03-2008,13:00,METAR,,130,3,,,9999.0,Rain,11.0,7.0,29.85,1011.8,,,,61,,,,,,,TRACE,,,,8/8 Overcast,5500.0,,OVC,5400,,,,,,
KRDR,06-03-2008,12:00,METAR,,,0,,,9999.0,Rain,10.0,7.0,29.85,1011.8,,,,61,,,,,,,TRACE,,TRACE,,8/8 Overcast,12000.0,,SCT,6900,OVC,12000.0,,,,
KRDR,06-03-2008,11:00,METAR,,20,5,,,9999.0,,10.0,7.0,29.84,1011.6,,,,,,,,,,,TRACE,,,,2/8 Mostly Clear,72000.0,,FEW,7400,,,,,,
KRDR,06-03-2008,10:00,METAR,,160,4,,,9999.0,,11.0,5.0,29.86,1012.3,,,,,,,,,,,TRACE,,,,Clear,72000.0,,,73000,,,,,,
KRDR,06-03-2008,09:00,SPECI,,130,5,,,9999.0,,13.0,2.0,29.87,1012.5,,,,,,,,,,,,,,,2/8 Mostly Clear,72000.0,,FEW,2400,,,,,,
KRDR,06-03-2008,09:00,METAR,,110,6,,,9999.0,,13.0,1.0,29.87,1012.5,,,,,,,,,,,,,,,Clear,72000.0,,,73000,,,,,,
KRDR,06-03-2008,08:00,METAR,,80,5,,,9999.0,,13.0,2.0,29.87,1012.6,,,,,,,,,,,,,,,2/8 Mostly Clear,72000.0,,FEW,7900,,,,,,
KRDR,06-03-2008,07:00,METAR,,90,6,,,9999.0,,13.0,1.0,29.87,1012.7,,,,,,,,,,,,,,,Clear,72000.0,,,73000,,,,,,
KRDR,06-03-2008,06:00,METAR,,110,8,,,9999.0,,14.0,0.0,29.90,1013.5,,,,,,,,,,,,,,,7/8 Mostly Cloudy,7000.0,,BKN,6900,,,,,,
KRDR,06-03-2008,05:00,METAR,,100,8,,,9999.0,,15.0,3.0,29.90,1013.7,,,,,,,,,,,,,,,Clear,72000.0,,,73000,,,,,,
KRDR,06-03-2008,04:00,METAR,,170,5,,,9999.0,,14.0,5.0,29.91,1014.0,,,,,,,,,,,,,,,7/8 Mostly Cloudy,15000.0,,SCT,12000,BKN,15000.0,BKN,25000.0,,
KRDR,06-03-2008,03:00,METAR,,120,9,,,9999.0,,17.0,3.0,29.90,1013.7,,,,,,,,,,,,,,,7/8 Mostly Cloudy,25000.0,,FEW,12000,SCT,15000.0,BKN,25000.0,,
KRDR,06-03-2008,02:00,METAR,,80,9,,,9999.0,,18.0,2.0,29.91,1013.8,,,,,,,,,,,,,,,7/8 Mostly Cloudy,25000.0,,FEW,5900,SCT,12000.0,BKN,25000.0,,
KRDR,06-03-2008,01:00,METAR,,90,11,,,9999.0,,19.0,2.0,29.90,1013.5,,,,,,,,,,,,,,,7/8 Mostly Cloudy,25000.0,,FEW,5900,SCT,12000.0,BKN,25000.0,,
KRDR,06-03-2008,00:00,METAR,,90,12,,,9999.0,,20.0,2.0,29.91,1013.8,,,,,,,,,,,,,,,7/8 Mostly Cloudy,25000.0,,FEW,5900,FEW,12000.0,BKN,25000.0,,
KRDR,06-02-2008,23:00,METAR,,80,12,,,9999.0,,21.0,2.0,29.92,1014.2,,,,,,,,,,,,,,,7/8 Mostly Cloudy,25000.0,,FEW,5900,FEW,12000.0,BKN,25000.0,,
KRDR,06-02-2008,22:00,METAR,,110,11,,,9999.0,,21.0,2.0,29.93,1014.7,,,,,,,,,,,,,,,7/8 Mostly Cloudy,25000.0,,FEW,5900,FEW,12000.0,BKN,25000.0,,
KRDR,06-02-2008,21:00,METAR,,90,11,,,9999.0,,20.0,2.0,29.94,1015.2,,,,,,,,,,,,,,,7/8 Mostly Cloudy,25000.0,,FEW,5900,SCT,12000.0,BKN,25000.0,,
KRDR,06-02-2008,20:00,METAR,,100,10,16.0,,9999.0,,20.0,3.0,29.95,1015.6,,,,,,,,,,,,,,,7/8 Mostly Cloudy,25000.0,,SCT,5900,BKN,25000.0,,,,
KRDR,06-02-2008,19:00,METAR,,110,8,18.0,,9999.0,,20.0,2.0,29.97,1016.2,,,,,,,,,,,,,,,7/8 Mostly Cloudy,25000.0,,SCT,5900,BKN,25000.0,,,,
KRDR,06-02-2008,18:00,METAR,,110,10,17.0,,9999.0,,19.0,2.0,30.00,1016.9,,,,,,,,,,,,,,,7/8 Mostly Cloudy,25000.0,,FEW,5900,BKN,25000.0,,,,
KRDR,06-02-2008,17:00,METAR,,70,11,,,9999.0,,19.0,1.0,30.01,1017.0,,,,,,,,,,,,,,,7/8 Mostly Cloudy,25000.0,,FEW,5900,BKN,25000.0,,,,
KRDR,06-02-2008,16:00,METAR,,90,12,,,9999.0,,18.0,1.0,30.02,1017.5,,,,,,,,,,,,,,,7/8 Mostly Cloudy,6000.0,,BKN,5900,BKN,25000.0,,,,
KRDR,06-02-2008,15:00,METAR,,100,12,,,9999.0,,16.0,1.0,30.03,1017.9,,,,,,,,,,,,,,,7/8 Mostly Cloudy,6000.0,,BKN,5900,BKN,25000.0,,,,
KRDR,06-02-2008,14:00,METAR,,110,11,,,9999.0,,14.0,1.0,30.05,1018.4,,,,,,,,,,,,,,,7/8 Mostly Cloudy,6500.0,,BKN,6400,BKN,25000.0,,,,
KRDR,06-02-2008,13:00,METAR,,60,5,,,9999.0,,11.0,2.0,30.04,1018.0,,,,,,,,,,,,,,,7/8 Mostly Cloudy,6000.0,,BKN,5900,BKN,25000.0,,,,
KRDR,06-02-2008,12:00,METAR,,70,4,,,9999.0,,10.0,1.0,30.03,1017.8,,,,,,,,,,,,,,,7/8 Mostly Cloudy,8000.0,,BKN,7900,BKN,25000.0,,,,
KRDR,06-02-2008,11:00,METAR,,70,4,,,9999.0,,9.0,1.0,30.02,1017.6,,,,,,,,,,,,,,,8/8 Overcast,8000.0,,BKN,7900,OVC,25000.0,,,,
KRDR,06-02-2008,10:00,METAR,,,0,,,9999.0,,7.0,2.0,30.03,1017.7,,,,,,,,,,,,,,,7/8 Mostly Cloudy,7000.0,,BKN,6900,,,,,,
KRDR,06-02-2008,09:00,METAR,,80,3,,,9999.0,,10.0,1.0,30.02,1017.5,,,,,,,,,,,,,,,4/8 Partly Cloudy,72000.0,,SCT,8400,,,,,,
KRDR,06-02-2008,08:00,METAR,,80,5,,,9999.0,,11.0,1.0,30.01,1017.2,,,,,,,,,,,,,,,Clear,72000.0,,,73000,,,,,,
KRDR,06-02-2008,07:00,METAR,,80,8,,,9999.0,,13.0,4.0,30.01,1017.2,,,,,,,,,,,,,,,Clear,72000.0,,,73000,,,,,,
KRDR,06-02-2008,06:00,METAR,,50,7,,,9999.0,,14.0,6.0,30.01,1017.2,,,,,,,,,,,,,,,2/8 Mostly Clear,72000.0,,FEW,8400,,,,,,
KRDR,06-02-2008,05:00,METAR,,10,7,,,9999.0,,11.0,5.0,29.99,1016.4,,,,,,,,,,,,,,,Clear,72000.0,,,73000,,,,,,
KRDR,06-02-2008,04:00,METAR,,10,9,,,9999.0,,13.0,6.0,29.97,1015.8,,,,,,,,,,,,,,,Clear,72000.0,,,73000,,,,,,
KRDR,06-02-2008,03:00,METAR,,10,9,,,9999.0,,17.0,7.0,29.95,1015.1,,,,,,,,,,,,,,,Clear,72000.0,,,73000,,,,,,
KRDR,06-02-2008,02:00,METAR,,50,11,,,9999.0,,20.0,7.0,29.92,1014.3,,,,,,,,,,,,,,,Clear,72000.0,,,73000,,,,,,
KRDR,06-02-2008,01:00,METAR,,30,13,,,9999.0,,22.0,8.0,29.91,1013.9,,,,,,,,,,,,,,,Clear,72000.0,,,73000,,,,,,
KRDR,06-02-2008,00:00,METAR,,30,15,,,9999.0,,23.0,9.0,29.90,1013.6,,,,,,,,,,,,,,,Clear,72000.0,,,73000,,,,,,
KRDR,06-01-2008,23:00,METAR,,20,14,20.0,,9999.0,,24.0,8.0,29.89,1013.3,,,,,,,,,,,,,,,4/8 Partly Cloudy,72000.0,,FEW,7900,SCT,25000.0,,,,
KRDR,06-01-2008,22:00,METAR,,10,11,17.0,,9999.0,,25.0,9.0,29.89,1013.2,,,,,,,,,,,,,,,4/8 Partly Cloudy,72000.0,,SCT,7900,SCT,25000.0,,,,
KRDR,06-01-2008,21:00,METAR,,20,14,20.0,,9999.0,,25.0,8.0,29.88,1012.9,,,,,,,,,,,,,,,4/8 Partly Cloudy,72000.0,,SCT,7900,SCT,25000.0,,,,
KRDR,06-01-2008,20:00,METAR,,350,14,21.0,,9999.0,,26.0,8.0,29.88,1012.9,,,,,,,,,,,,,,,4/8 Partly Cloudy,72000.0,,SCT,7900,SCT,25000.0,,,,
KRDR,06-01-2008,19:07,SPECI,,30,14,,,9999.0,,26.0,9.0,29.87,1012.6,,,,,,,,,,,,,,,4/8 Partly Cloudy,72000.0,,SCT,7900,SCT,25000.0,,,,
KRDR,06-01-2008,19:00,METAR,,10,11,18.0,,9999.0,,26.0,8.0,29.87,1012.7,,,,,,,,,,,,,,,4/8 Partly Cloudy,72000.0,,SCT,7900,SCT,25000.0,,,,
KRDR,06-01-2008,18:00,METAR,,260,7,,,9999.0,,26.0,8.0,29.88,1012.9,,,,,,,,,,,,,,,4/8 Partly Cloudy,72000.0,,SCT,9400,SCT,25000.0,,,,
KRDR,06-01-2008,17:00,METAR,,300,11,,,9999.0,,24.0,6.0,29.89,1013.3,,,,,,,,,,,,,,,7/8 Mostly Cloudy,11000.0,,BKN,11000,BKN,25000.0,,,,
KRDR,06-01-2008,16:00,METAR,,290,10,,,9999.0,,23.0,7.0,29.89,1013.3,,,,,,,,,,,,,,,4/8 Partly Cloudy,72000.0,,SCT,9400,SCT,25000.0,,,,
KRDR,06-01-2008,15:00,METAR,,290,11,,,9999.0,,23.0,8.0,29.90,1013.6,,,,,,,,,,,,,,,Clear,72000.0,,,73000,,,,,,
KRDR,06-01-2008,14:00,METAR,,290,7,,,9999.0,,20.0,9.0,29.91,1013.8,,,,,,,,,,,,,,,Clear,72000.0,,,73000,,,,,,
KRDR,06-01-2008,13:00,METAR,,290,8,,,9999.0,,16.0,9.0,29.90,1013.6,,,,,,,,,,,,,,,Clear,72000.0,,,73000,,,,,,
KRDR,06-01-2008,12:00,METAR,,280,3,,,9999.0,,13.0,10.0,29.90,1013.5,,,,,,,,,,,,,,,Clear,72000.0,,,73000,,,,,,
KRDR,06-01-2008,11:00,METAR,,360,4,,,9999.0,,10.0,9.0,29.89,1013.3,,,,,,,,,,,,,,,Clear,72000.0,,,73000,,,,,,
KRDR,06-01-2008,10:00,METAR,,230,5,,,9999.0,,11.0,11.0,29.88,1013.0,,,,,,,,,,,,,,,Clear,72000.0,,,73000,,,,,,
KRDR,06-01-2008,09:00,METAR,,240,6,,,9999.0,,10.0,10.0,29.88,1012.9,,,,,,,,,,,,,,,Clear,72000.0,,,73000,,,,,,
KRDR,06-01-2008,08:32,SPECI,,260,4,,,9999.0,,10.0,9.0,29.88,1013.0,,,,,,,,,,,,,,,Clear,72000.0,,,73000,,,,,,
KRDR,06-01-2008,08:10,SPECI,,250,5,,,9999.0,,10.0,10.0,29.88,1013.0,,,,,,,,,,,,,,,Clear,72000.0,,,73000,,,,,,
KRDR,06-01-2008,08:00,METAR,,230,4,,,9999.0,,11.0,11.0,29.89,1013.1,,,,,,,,,,,,,,,Clear,72000.0,,,73000,,,,,,
KRDR,06-01-2008,07:00,METAR,,230,4,,,9999.0,,12.0,11.0,29.88,1013.0,,,,,,,,,,,,,,,Clear,72000.0,,,73000,,,,,,
KRDR,06-01-2008,06:00,METAR,,270,3,,,9999.0,,12.0,11.0,29.89,1013.3,,,,,,,,,,,,,,,Clear,72000.0,,,73000,,,,,,
KRDR,06-01-2008,05:00,METAR,,270,3,,,9999.0,,12.0,12.0,29.89,1013.3,,,,,,,,,,,,,,,Clear,72000.0,,,73000,,,,,,
KRDR,06-01-2008,04:00,METAR,,270,3,,,9999.0,,13.0,12.0,29.89,1013.3,,,,,,,,,,,,,,,Clear,72000.0,,,73000,,,,,,
KRDR,06-01-2008,03:00,METAR,,,0,,,9999.0,,16.0,14.0,29.87,1012.6,,,,,,,,,,,,,,,Clear,72000.0,,,73000,,,,,,
KRDR,06-01-2008,02:00,METAR,,140,3,,,9999.0,,19.0,14.0,29.85,1011.9,,,,,,,,,,,,,,,7/8 Mostly Cloudy,6500.0,,BKN,6400,,,,,,
KRDR,06-01-2008,01:00,METAR,,130,6,,,9999.0,,21.0,14.0,29.83,1011.3,,,,,,,,,,,,,,,4/8 Partly Cloudy,72000.0,,SCT,7400,,,,,,
KRDR,06-01-2008,00:00,METAR,,20,14,,,9999.0,,23.0,10.0,29.82,1011.0,,,,,,,,,,,,,,,7/8 Mostly Cloudy,8000.0,,BKN,12000,,,,,,
KRDR,05-31-2008,23:00,METAR,,10,8,,,9999.0,,24.0,10.0,29.81,1010.6,,,,,,,,,,,,,,,4/8 Partly Cloudy,72000.0,,FEW,6900,SCT,9900.0,,,,
KRDR,05-31-2008,22:00,METAR,,330,14,19.0,,9999.0,,25.0,9.0,29.80,1010.4,,,,,,,,,,,,,,,4/8 Partly Cloudy,72000.0,,FEW,6900,SCT,9900.0,,,,
KRDR,05-31-2008,21:00,METAR,,320,16,23.0,,9999.0,,25.0,8.0,29.80,1010.3,,,,,,,,,,,,,,,7/8 Mostly Cloudy,8000.0,,BKN,7900,,,,,,
KRDR,05-31-2008,20:00,METAR,,310,13,19.0,,9999.0,,25.0,8.0,29.80,1010.2,,,,,,,,,,,,,,,7/8 Mostly Cloudy,8000.0,,BKN,7900,,,,,,
KRDR,05-31-2008,19:00,METAR,,320,11,,,9999.0,,24.0,9.0,29.80,1010.4,,,,,,,,,,,,,,,7/8 Mostly Cloudy,7500.0,,BKN,7400,,,,,,
KRDR,05-31-2008,18:00,METAR,,310,7,,,9999.0,,24.0,10.0,29.81,1010.6,,,,,,,,,,,,,,,4/8 Partly Cloudy,72000.0,,SCT,5900,,,,,,
KRDR,05-31-2008,17:00,METAR,,310,6,,,9999.0,,23.0,10.0,29.82,1010.9,,,,,,,,,,,,,,,2/8 Mostly Clear,72000.0,,FEW,5000,,,,,,
KRDR,05-31-2008,16:00,METAR,,,0,,,9999.0,,21.0,13.0,29.83,1011.1,,,,,,,,,,,,,,,Clear,72000.0,,,73000,,,,,,
KRDR,05-31-2008,15:00,METAR,,,3,,,9999.0,,18.0,13.0,29.84,1011.4,,,,,,,,,,,,,,,2/8 Mostly Clear,72000.0,,FEW,9400,,,,,,
KRDR,05-31-2008,14:00,METAR,,,0,,,9999.0,,16.0,13.0,29.83,1011.2,,,,,,,,,,,,,,,2/8 Mostly Clear,72000.0,,FEW,9900,,,,,,
KRDR,05-31-2008,13:00,METAR,,170,3,,,9999.0,,14.0,13.0,29.81,1010.6,,,,,,,,,,,,,,,2/8 Mostly Clear,72000.0,,FEW,8900,,,,,,
KRDR,05-31-2008,12:00,METAR,,,0,,,9999.0,,12.0,12.0,29.80,1010.4,,,,,,,,,,,,,,IN,4/8 Partly Cloudy,72000.0,,SCT,12000,,,,,,
KRDR,05-31-2008,11:00,METAR,,290,4,,,9999.0,Mist,10.0,10.0,29.80,1010.2,,,,10,,,,,,,,,,,7/8 Mostly Cloudy,9000.0,,BKN,8900,,,,,,
KRDR,05-31-2008,10:00,METAR,,260,3,,,6400.0,Mist,9.0,9.0,29.79,1009.8,10,,,,,,,,,,,,,,Clear,72000.0,,,73000,,,,,,
KRDR,05-31-2008,09:50,SPECI,,260,3,,,6400.0,Mist,8.0,8.0,29.79,1009.8,10,,,,,,,,,,,,,,Clear,72000.0,,,73000,,,,,,
KRDR,05-31-2008,09:43,SPECI,,260,4,,,4800.0,Mist,8.0,8.0,29.79,1009.8,10,,,,,,,,,,,,,,Clear,72000.0,,,73000,,,,,,
KRDR,05-31-2008,09:00,METAR,,250,4,,,9999.0,,9.0,9.0,29.78,1009.5,,,,,,,,,,,,,,,Clear,72000.0,,,73000,,,,,,
KRDR,05-31-2008,08:00,METAR,,260,5,,,9999.0,,10.0,10.0,29.78,1009.5,,,,,,,,,,,,,,,Clear,72000.0,,,73000,,,,,,
KRDR,05-31-2008,07:00,METAR,,260,5,,,9999.0,,11.0,10.0,29.77,1009.4,,,,,,,,,,,,,,,Clear,72000.0,,,73000,,,,,,
KRDR,05-31-2008,06:00,METAR,,250,5,,,9999.0,,10.0,10.0,29.77,1009.2,,,,,,,,,,,,,,,Clear,72000.0,,,73000,,,,,,
KRDR,05-31-2008,05:10,SPECI,,,0,,,8000.0,Mist,11.0,10.0,29.76,1008.9,10,,,,,,,,,,,,,,Clear,72000.0,,,73000,,,,,,
KRDR,05-31-2008,05:06,SPECI,,,0,,,6400.0,Mist,11.0,11.0,29.76,1008.9,10,,,,,,,,,,,,,,Clear,72000.0,,,73000,,,,,,
KRDR,05-31-2008,05:00,METAR,,,0,,,9999.0,,12.0,12.0,29.76,1008.9,,,,,,,,,,,,,,,Clear,72000.0,,,73000,,,,,,
KRDR,05-31-2008,04:00,METAR,,,0,,,9999.0,,13.0,12.0,29.76,1008.8,,,,,,,,,,,,,,,7/8 Mostly Cloudy,20000.0,,SCT,5900,BKN,20000.0,,,,
KRDR,05-31-2008,03:00,METAR,,,0,,,9999.0,,13.0,11.0,29.74,1008.4,,,,,,,,,,,,,,,4/8 Partly Cloudy,72000.0,,SCT,25000,,,,,,
KRDR,05-31-2008,02:00,METAR,,30,7,,,9999.0,,17.0,12.0,29.72,1007.6,,,,,,,,,,,,,,,4/8 Partly Cloudy,72000.0,,SCT,5000,SCT,20000.0,,,,
KRDR,05-31-2008,01:00,METAR,,340,10,,,9999.0,,19.0,12.0,29.71,1007.2,,,,,,,,,,,,,,,7/8 Mostly Cloudy,4900.0,,FEW,3200,BKN,5000.0,,,,
KRDR,05-31-2008,00:00,METAR,,340,9,,,9999.0,,20.0,12.0,29.68,1006.2,,,,,,,,,,,,,,,7/8 Mostly Cloudy,6000.0,,BKN,5900,,,,,,
KRDR,05-30-2008,23:00,METAR,,20,11,,,9999.0,,20.0,12.0,29.67,1005.9,,,,,,,,,,,,,,,7/8 Mostly Cloudy,6000.0,,FEW,3000,BKN,5900.0,,,,
KRDR,05-30-2008,22:00,METAR,,350,10,,,9999.0,,20.0,13.0,29.67,1006.1,,,,,,,,,,,,,,,7/8 Mostly Cloudy,6500.0,,FEW,3000,BKN,6400.0,,,,
KRDR,05-30-2008,21:00,METAR,,10,6,,,9999.0,,19.0,13.0,29.67,1006.0,,,,,,,,,,,,,,,7/8 Mostly Cloudy,6500.0,,FEW,3500,BKN,6400.0,,,,
KRDR,05-30-2008,20:00,METAR,,10,7,,,9999.0,,19.0,13.0,29.66,1005.7,,,,,,,,,,,,,,,7/8 Mostly Cloudy,8000.0,,SCT,3000,BKN,7900.0,,,,
KRDR,05-30-2008,19:00,METAR,,340,12,,,9999.0,,19.0,13.0,29.66,1005.6,,,,,,,,,,,,,,,8/8 Overcast,2200.0,,BKN,2200,OVC,3600.0,,,,
KRDR,05-30-2008,18:42,SPECI,,340,13,,,9999.0,,18.0,13.0,29.66,1005.6,,,,,,,,,,,,,,,8/8 Overcast,3000.0,,OVC,3000,,,,,,
KRDR,05-30-2008,18:30,SPECI,,340,13,,,9999.0,,19.0,13.0,29.66,1005.6,,,,,,,,,,,,,,,8/8 Overcast,1900.0,,OVC,2900,,,,,,
KRDR,05-30-2008,18:20,SPECI,,350,9,,,9999.0,,18.0,13.0,29.66,1005.5,,,,,,,,,,,,,,,8/8 Overcast,3100.0,,OVC,3100,,,,,,
KRDR,05-30-2008,18:00,METAR,,350,8,,,9999.0,,18.0,13.0,29.66,1005.5,,,,,,,,,,,,,TRACE,,7/8 Mostly Cloudy,2500.0,,BKN,2500,BKN,5900.0,,,,
KRDR,05-30-2008,17:00,METAR,,340,5,,,9999.0,,16.0,14.0,29.65,1005.4,,,,,,,,,,,,,,,8/8 Overcast,1300.0,,BKN,1300,OVC,2100.0,,,,
KRDR,05-30-2008,16:25,SPECI,,340,4,,,9999.0,,15.0,14.0,29.65,,,,,,,,,,,,,,,,8/8 Overcast,1200.0,,OVC,1200,,,,,,
KRDR,05-30-2008,16:11,SPECI,,350,7,,,9999.0,Rain,15.0,14.0,29.65,,,,,61,,,,,,,,,,,8/8 Overcast,1300.0,,SCT,700,OVC,1300.0,,,,
KRDR,05-30-2008,16:00,METAR,,350,6,,,9999.0,,15.0,15.0,29.65,1005.3,,,,,,,,,,,,,,,8/8 Overcast,600.0,,BKN,600,OVC,1200.0,,,,
KRDR,05-30-2008,15:00,METAR,,340,5,,,9999.0,Mist,14.0,13.0,29.66,1005.5,,,,10,,,,,,,TRACE,TRACE,,,8/8 Overcast,500.0,,OVC,500,,,,,,
KRDR,05-30-2008,14:34,SPECI,,330,5,,,6400.0,Mist,13.0,13.0,29.66,,,,,10,,,,,,,,,,,8/8 Overcast,400.0,,OVC,400,,,,,,
KRDR,05-30-2008,14:00,METAR,,350,4,,,6400.0,Drizzle/Mist,13.0,13.0,29.66,1005.7,,,,51,10,,,,,,TRACE,,,,8/8 Overcast,400.0,,OVC,400,,,,,,
KRDR,05-30-2008,13:17,SPECI,,360,3,,,4800.0,Rain/Mist,13.0,13.0,29.67,,,,,61,10,,,,,,,,,,8/8 Overcast,400.0,,OVC,400,,,,,,
KRDR,05-30-2008,13:00,METAR,,30,3,,,2400.0,Rain/Mist,13.0,13.0,29.67,1006.0,,,,61,10,,,,,,TRACE,,,,8/8 Overcast,500.0,,OVC,500,,,,,,
KRDR,05-30-2008,12:42,SPECI,,30,4,,,2800.0,Rain/Mist,13.0,13.0,29.67,,,,,61,10,,,,,,,,,,8/8 Overcast,500.0,,OVC,500,,,,,,
KRDR,05-30-2008,12:00,METAR,,20,4,,,6400.0,Mist,13.0,13.0,29.67,1005.9,,,,10,,,,,,,,,,.64 IN,8/8 Overcast,600.0,,OVC,600,,,,,,
KRDR,05-30-2008,11:29,SPECI,,30,3,,,4800.0,Mist,13.0,13.0,29.67,,,,,10,,,,,,,,,,,8/8 Overcast,600.0,,OVC,600,,,,,,
KRDR,05-30-2008,11:00,METAR,,90,5,,,3200.0,Mist,13.0,13.0,29.66,1005.6,,,,10,,,,,,,,,,,8/8 Overcast,500.0,,OVC,500,,,,,,
KRDR,05-30-2008,10:32,SPECI,,90,5,,,4800.0,Mist,13.0,,29.66,1005.6,10,,,,,,,,,,,,,,Clear,500.0,,,73000,,,,,,
KRDR,05-30-2008,10:00,METAR,,70,3,,,4800.0,Mist,13.0,,29.67,1005.9,10,,,,,,,,,,,,,,Clear,600.0,,,73000,,,,,,
KRDR,05-30-2008,09:08,SPECI,,60,4,,,4800.0,Mist,13.0,13.0,29.68,1006.3,10,,,,,,,,,,,,,,Clear,400.0,,,73000,,,,,,
KRDR,05-30-2008,09:00,METAR,,90,4,,,4000.0,Mist,13.0,13.0,29.68,1006.4,10,,,,,,,,,,,,,,Clear,72000.0,,,73000,,,,,,
KRDR,05-30-2008,08:54,SPECI,,100,4,,,4000.0,Mist,13.0,13.0,29.68,1006.4,10,,,,,,,,,,,,,,Clear,72000.0,,,73000,,,,,,
KRDR,05-30-2008,08:50,SPECI,,100,4,,,4000.0,Mist,13.0,13.0,29.68,1006.3,10,,,,,,,,,,,,,,Clear,72000.0,,,73000,,,,,,
KRDR,05-30-2008,08:11,SPECI,,110,4,,,8000.0,Mist,13.0,13.0,29.68,1006.3,10,,,,,,,,,,,,,,2/8 Mostly Clear,72000.0,,FEW,800,,,,,,
KRDR,05-30-2008,08:00,METAR,,110,4,,,9999.0,,13.0,13.0,29.68,1006.4,,,,,,,,,,,,,,,Clear,600.0,,,73000,,,,,,
KRDR,05-30-2008,07:53,SPECI,,110,4,,,9999.0,Mist,13.0,13.0,29.68,1006.4,10,,,,,,,,,,,,,,2/8 Mostly Clear,72000.0,,FEW,800,,,,,,
KRDR,05-30-2008,07:00,METAR,,110,6,,,9999.0,,13.0,13.0,29.69,1006.7,,,,,,,,,,,,,,,2/8 Mostly Clear,72000.0,,FEW,600,,,,,,
KRDR,05-30-2008,06:39,SPECI,,110,5,,,9999.0,,13.0,13.0,29.70,1007.1,,,,,,,,,,,,,,,2/8 Mostly Clear,72000.0,,FEW,600,,,,,,
KRDR,05-30-2008,06:31,SPECI,,100,5,,,9999.0,,13.0,13.0,29.71,1007.3,,,,,,,,,,,,,,,Clear,400.0,,,73000,,,,,,
KRDR,05-30-2008,06:07,SPECI,,90,8,,,9999.0,,13.0,13.0,29.73,1007.8,,,,,,,,,,,,,,,2/8 Mostly Clear,72000.0,,FEW,600,,,,,,
KRDR,05-30-2008,06:00,METAR,,90,6,,,9999.0,,14.0,14.0,29.73,1007.9,,,,,,,,,,,,,,,7/8 Mostly Cloudy,600.0,,BKN,600,,,,,,
KRDR,05-30-2008,05:53,SPECI,,90,6,,,9999.0,,14.0,14.0,29.73,1007.9,,,,,,,,,,,,,,,4/8 Partly Cloudy,72000.0,,SCT,600,,,,,,
KRDR,05-30-2008,05:40,SPECI,,80,5,,,9999.0,,14.0,14.0,29.74,1008.1,,,,,,,,,,,,,,,8/8 Overcast,600.0,,OVC,600,,,,,,
KRDR,05-30-2008,05:28,SPECI,,70,5,,,9999.0,,14.0,14.0,29.74,1008.3,,,,,,,,,,,,,,,8/8 Overcast,700.0,,OVC,700,,,,,,
KRDR,05-30-2008,05:23,SPECI,,60,4,,,9999.0,,14.0,14.0,29.74,1008.3,,,,,,,,,,,,,,,8/8 Overcast,700.0,,OVC,700,,,,,,
KRDR,05-30-2008,05:00,METAR,,20,4,,,4800.0,Light Rain/Mist,14.0,14.0,29.76,1008.8,61,10,,,,,,,,,2.02 IN,,,,8/8 Overcast,700.0,,OVC,700,,,,,,
KRDR,05-30-2008,04:46,SPECI,,30,4,,,4800.0,Rain/Mist,14.0,14.0,29.76,1008.8,,,,61,10,,,,,,,,,,8/8 Overcast,700.0,,OVC,700,,,,,,
KRDR,05-30-2008,04:33,SPECI,,10,5,,,8000.0,Rain/Mist,14.0,14.0,29.76,1009.0,,,,61,10,,,,,,,,,,7/8 Mostly Cloudy,3000.0,,SCT,800,BKN,3000.0,BKN,5000.0,,
KRDR,05-30-2008,04:25,SPECI,,20,5,,,9999.0,Drizzle,14.0,14.0,29.76,1009.0,,,,51,,,,,,,,,,,8/8 Overcast,3400.0,,SCT,1000,BKN,3500.0,OVC,5000.0,,
KRDR,05-30-2008,04:00,METAR,,10,3,,,9999.0,,14.0,14.0,29.76,1009.1,,,,,,,,,,,,,,,7/8 Mostly Cloudy,3400.0,,SCT,1500,BKN,3500.0,BKN,20000.0,,
KRDR,05-30-2008,03:00,METAR,,70,4,,,9999.0,,14.0,14.0,29.74,1008.4,,,,,,,,,,,TRACE,TRACE,,,7/8 Mostly Cloudy,4900.0,,FEW,800,SCT,3500.0,BKN,5000.0,BKN,20000.0
KRDR,05-30-2008,02:00,METAR,,130,7,,,9999.0,,14.0,14.0,29.74,1008.1,,,,,,,,,,,TRACE,,,,7/8 Mostly Cloudy,6000.0,,FEW,800,SCT,2500.0,BKN,5900.0,BKN,20000.0
KRDR,05-30-2008,01:45,SPECI,,130,8,,,9999.0,Light Rain Showers,14.0,14.0,29.76,1008.9,,,,80,,,,,,,,,,,7/8 Mostly Cloudy,4900.0,,FEW,800,SCT,2000.0,BKN,5000.0,BKN,20000.0
KRDR,05-30-2008,01:00,METAR,,180,3,14.0,,9999.0,,15.0,14.0,29.78,1009.7,,,,,,,,,,,,,,,8/8 Overcast,2000.0,,SCT,1000,BKN,2000.0,OVC,7900.0,,
KRDR,05-30-2008,00:00,METAR,,140,13,,,9999.0,,16.0,14.0,29.80,1010.3,,,,,,,,,,,,,.01 IN,,8/8 Overcast,2000.0,,SCT,800,OVC,2000.0,,,,
KRDR,05-29-2008,23:00,METAR,,130,12,,,9999.0,,15.0,15.0,29.80,1010.3,,,,,,,,,,,,,,,8/8 Overcast,1800.0,,SCT,600,BKN,1800.0,OVC,4000.0,,
KRDR,05-29-2008,22:35,SPECI,,130,12,,,9999.0,,15.0,15.0,29.81,1010.5,,,,,,,,,,,,,,,8/8 Overcast,2000.0,,SCT,600,BKN,2000.0,OVC,7900.0,,
KRDR,05-29-2008,22:03,SPECI,,110,10,,,8000.0,Mist,15.0,15.0,29.82,1010.8,,,,10,,,,,,,,,,,8/8 Overcast,2000.0,,SCT,400,OVC,2000.0,,,,
KRDR,05-29-2008,22:00,METAR,,110,9,,,6400.0,Rain/Mist,15.0,15.0,29.81,1010.7,,,,61,10,,,,,,TRACE,,,,8/8 Overcast,2000.0,,FEW,600,BKN,2000.0,OVC,3000.0,,
KRDR,05-29-2008,21:36,SPECI,,110,11,,,4800.0,Rain/Mist,15.0,14.0,29.83,1011.1,,,,61,10,,,,,,,,,,8/8 Overcast,2000.0,,FEW,500,BKN,2000.0,OVC,5000.0,,
KRDR,05-29-2008,21:30,SPECI,,110,11,,,8000.0,Rain/Mist,15.0,14.0,29.83,1011.2,,,,61,10,,,,,,,,,,8/8 Overcast,2000.0,,FEW,800,BKN,2000.0,OVC,4500.0,,
KRDR,05-29-2008,21:27,SPECI,,110,11,,,6400.0,Mist,15.0,14.0,29.83,1011.2,,,,10,,,,,,,,,,,8/8 Overcast,2000.0,,FEW,1000,BKN,2000.0,OVC,5000.0,,
KRDR,05-29-2008,21:12,SPECI,,130,10,,,9999.0,Drizzle/Mist,15.0,14.0,29.85,1012.0,,,,51,10,,,,,,,,,,8/8 Overcast,1800.0,,FEW,1000,BKN,1800.0,OVC,3000.0,,
KRDR,05-29-2008,21:00,METAR,,130,5,,,8000.0,Mist,15.0,14.0,29.88,1012.8,,,,,10,,,,,,TRACE,,,,8/8 Overcast,1800.0,,OVC,1800,,,,,,
KRDR,05-29-2008,20:46,SPECI,,120,6,,,9999.0,Mist,15.0,13.0,29.88,1012.7,,,,,10,,,,,,,,,,8/8 Overcast,1800.0,,OVC,1800,,,,,,
KRDR,05-29-2008,20:00,METAR,,160,4,,,9999.0,,16.0,12.0,29.88,1012.8,,,,,,,,,,,TRACE,,,,8/8 Overcast,3000.0,,OVC,3000,,,,,,
KRDR,05-29-2008,19:50,SPECI,,150,4,,,9999.0,,16.0,12.0,29.88,1012.8,,,,,,,,,,,,,,,8/8 Overcast,3000.0,,OVC,3000,,,,,,
KRDR,05-29-2008,19:40,SPECI,,150,3,,,9999.0,Thunderstorm,16.0,12.0,29.88,1012.8,,,,17,,,,,,,,,,,8/8 Overcast,3000.0,,OVC,3000,,,,,,
KRDR,05-29-2008,19:23,SPECI,,150,4,,,9999.0,Light Rain Showers/Thunderstorm,16.0,12.0,29.88,1013.0,,,,17,80,,,,,,,,,,8/8 Overcast,3000.0,,OVC,3000,,,,,,
KRDR,05-29-2008,19:06,SPECI,,150,6,,,9999.0,Thunderstorm,16.0,12.0,29.89,1013.2,,,,17,,,,,,,,,,,8/8 Overcast,3100.0,,OVC,3200,,,,,,
KRDR,05-29-2008,19:00,METAR,,140,6,,,9999.0,,15.0,12.0,29.89,1013.2,,,,,,,,,,,,,,,8/8 Overcast,3100.0,,OVC,3200,,,,,,
KRDR,05-29-2008,18:12,SPECI,,220,7,,,9999.0,Thunderstorm,16.0,12.0,29.90,,,,,17,,,,,,,,,,,7/8 Mostly Cloudy,7000.0,,FEW,2300,SCT,5000.0,BKN,6900.0,BKN,25000.0
KRDR,05-29-2008,18:00,METAR,,140,17,27.0,160/38KTS,8000.0,Thunderstorm with Rain or Snow/Light Rain Showers/Mist,15.0,12.0,29.81,1010.6,,,,95,80,10,,,,,.62 IN,,.62 IN,,8/8 Overcast,5500.0,,SCT,3700,BKN,5400.0,OVC,15000.0,,
KRDR,05-29-2008,17:05,SPECI,,140,13,22.0,,9999.0,Thunderstorm with Rain or Snow/Light Rain Showers,18.0,9.0,29.90,,,,,95,80,,,,,,,,,,8/8 Overcast,3900.0,,BKN,4000,BKN,7900.0,OVC,15000.0,,
KRDR,05-29-2008,17:00,METAR,,140,18,22.0,,9999.0,Light Rain Showers,18.0,9.0,29.89,1013.4,,,,80,,,,,,,TRACE,,,,8/8 Overcast,4900.0,,BKN,5000,OVC,15000.0,,,,
KRDR,05-29-2008,16:49,SPECI,,150,16,,,9999.0,Light Rain Showers,19.0,9.0,29.90,,,,,80,,,,,,,,,,,8/8 Overcast,4800.0,,BKN,4900,OVC,15000.0,,,,
KRDR,05-29-2008,16:00,METAR,,140,12,,,9999.0,,18.0,7.0,29.92,1014.0,,,,,,,,,,,,,,,8/8 Overcast,8000.0,,SCT,5900,OVC,7900.0,,,,
KRDR,05-29-2008,15:00,METAR,,150,8,,,9999.0,,16.0,6.0,29.96,1015.6,,,,,,,,,,,,,,,8/8 Overcast,6000.0,,BKN,5900,OVC,7400.0,,,,
KRDR,05-29-2008,14:00,METAR,,140,9,,,9999.0,,16.0,5.0,29.97,1015.9,,,,,,,,,,,,,,,8/8 Overcast,5500.0,,OVC,5400,,,,,,
KRDR,05-29-2008,13:00,METAR,,140,9,,,9999.0,,15.0,5.0,29.98,1016.2,,,,,,,,,,,,,,,8/8 Overcast,6000.0,,OVC,5900,,,,,,
KRDR,05-29-2008,12:00,METAR,,140,8,,,9999.0,,14.0,6.0,30.00,1017.0,,,,,,,,,,,,,,,8/8 Overcast,4900.0,,OVC,5000,,,,,,
KRDR,05-29-2008,11:00,METAR,,130,6,,,9999.0,,14.0,5.0,30.02,1017.3,,,,,,,,,,,,,,,8/8 Overcast,6000.0,,OVC,5900,,,,,,
KRDR,05-29-2008,10:00,METAR,,120,5,,,9999.0,,14.0,6.0,30.02,1017.6,,,,,,,,,,,,,,,8/8 Overcast,5500.0,,OVC,5400,,,,,,
KRDR,05-29-2008,09:00,METAR,,120,6,,,9999.0,,14.0,6.0,30.03,1018.0,,,,,,,,,,,,,,,8/8 Overcast,6000.0,,OVC,5900,,,,,,
KRDR,05-29-2008,08:11,SPECI,,120,5,,,9999.0,,14.0,7.0,30.05,1018.5,,,,,,,,,,,,,,,8/8 Overcast,6000.0,,OVC,5900,,,,,,
KRDR,05-29-2008,08:09,SPECI,,120,5,,,9999.0,,14.0,7.0,30.05,1018.5,,,,,,,,,,,,,,,8/8 Overcast,6000.0,,OVC,5900,,,,,,
KRDR,05-29-2008,08:00,METAR,,130,4,,,9999.0,,14.0,7.0,30.06,1018.8,,,,,,,,,,,,,,,8/8 Overcast,6000.0,,OVC,5900,,,,,,
KRDR,05-29-2008,07:00,METAR,,150,5,,,9999.0,,14.0,7.0,30.08,1019.5,,,,,,,,,,,,,,,8/8 Overcast,6000.0,,BKN,5900,OVC,12000.0,,,,
KRDR,05-29-2008,06:00,METAR,,160,5,,,9999.0,,15.0,7.0,30.09,1020.0,,,,,,,,,,,,,,,8/8 Overcast,4900.0,,BKN,5000,OVC,12000.0,,,,
KRDR,05-29-2008,05:00,METAR,,200,5,,,9999.0,,14.0,7.0,30.11,1020.4,,,,,,,,,,,,,,,7/8 Mostly Cloudy,10000.0,,SCT,5000,BKN,9900.0,,,,
KRDR,05-29-2008,04:00,METAR,,190,6,,,9999.0,,13.0,5.0,30.11,1020.6,,,,,,,,,,,,,,,2/8 Mostly Clear,72000.0,,FEW,20000,,,,,,
KRDR,05-29-2008,03:00,METAR,,210,8,,,9999.0,,16.0,5.0,30.11,1020.5,,,,,,,,,,,,,,,2/8 Mostly Clear,72000.0,,FEW,20000,,,,,,
KRDR,05-29-2008,02:00,METAR,,190,6,,,9999.0,,17.0,4.0,30.11,1020.4,,,,,,,,,,,,,,,2/8 Mostly Clear,72000.0,,FEW,20000,,,,,,
KRDR,05-29-2008,01:00,METAR,,170,12,,,9999.0,,20.0,3.0,30.11,1020.5,,,,,,,,,,,,,,,2/8 Mostly Clear,72000.0,,FEW,20000,,,,,,
KRDR,05-29-2008,00:00,METAR,,180,8,,,9999.0,,21.0,2.0,30.13,1021.1,,,,,,,,,,,,,,,2/8 Mostly Clear,72000.0,,FEW,20000,,,,,,
KRDR,05-28-2008,23:00,METAR,,180,8,,,9999.0,,21.0,1.0,30.15,1021.8,,,,,,,,,,,,,,,2/8 Mostly Clear,72000.0,,FEW,7900,FEW,18000.0,,,,
KRDR,05-28-2008,22:00,METAR,,210,7,,,9999.0,,21.0,2.0,30.18,1022.7,,,,,,,,,,,,,,,4/8 Partly Cloudy,72000.0,,SCT,7900,,,,,,
KRDR,05-28-2008,21:00,METAR,,160,7,,,9999.0,,21.0,1.0,30.20,1023.5,,,,,,,,,,,,,,,7/8 Mostly Cloudy,8500.0,,BKN,8400,,,,,,
KRDR,05-28-2008,20:00,METAR,,170,10,,,9999.0,,20.0,-2.0,30.23,1024.3,,,,,,,,,,,,,,,8/8 Overcast,8500.0,,OVC,8400,,,,,,
KRDR,05-28-2008,19:00,METAR,,180,9,,,9999.0,,20.0,-1.0,30.25,1025.1,,,,,,,,,,,,,,,8/8 Overcast,8500.0,,OVC,8400,,,,,,
KRDR,05-28-2008,18:02,SPECI,,180,9,19.0,,4800.0,Haze,20.0,0.0,30.27,1025.7,,,,5,,,,,,,,,,,7/8 Mostly Cloudy,9000.0,,BKN,8900,,,,,,
KRDR,05-28-2008,18:00,METAR,,180,11,19.0,,4000.0,Haze,20.0,0.0,30.27,1025.7,,,,5,,,,,,,,,,,7/8 Mostly Cloudy,9000.0,,BKN,8900,,,,,,
KRDR,05-28-2008,17:55,METAR,,220,9,,,9999.0,,20.0,0.0,30.27,1025.8,,,,,,,,,,,,,,,7/8 Mostly Cloudy,9000.0,,BKN,8900,,,,,,
KRDR,05-28-2008,17:00,METAR,,,4,,,9999.0,,19.0,0.0,30.30,1026.6,,,,,,,,,,,,,,,7/8 Mostly Cloudy,12000.0,,SCT,8900,BKN,12000.0,,,,
KRDR,05-28-2008,16:00,METAR,,220,4,,,9999.0,,18.0,-1.0,30.31,1027.2,,,,,,,,,,,,,,,4/8 Partly Cloudy,72000.0,,FEW,8900,SCT,12000.0,,,,
KRDR,05-28-2008,15:00,METAR,,160,6,,,9999.0,,17.0,0.0,30.33,1027.7,,,,,,,,,,,,,,,4/8 Partly Cloudy,72000.0,,SCT,12000,,,,,,
KRDR,05-28-2008,14:00,METAR,,,0,,,9999.0,,13.0,1.0,30.34,1028.2,,,,,,,,,,,,,,,7/8 Mostly Cloudy,25000.0,,SCT,12000,BKN,25000.0,,,,
KRDR,05-28-2008,13:00,METAR,,,0,,,9999.0,,10.0,2.0,30.35,1028.3,,,,,,,,,,,,,,,7/8 Mostly Cloudy,25000.0,,SCT,12000,BKN,25000.0,,,,
KRDR,05-28-2008,12:00,METAR,,,0,,,9999.0,,5.0,2.0,30.35,1028.3,,,,,,,,,,,,,,,7/8 Mostly Cloudy,25000.0,,SCT,12000,BKN,25000.0,,,,
KRDR,05-28-2008,11:00,METAR,,,0,,,9999.0,,1.0,-1.0,30.34,1028.1,,,,,,,,,,,,,,,7/8 Mostly Cloudy,25000.0,,FEW,15000,BKN,25000.0,,,,
KRDR,05-28-2008,10:00,METAR,,,0,,,9999.0,,2.0,-1.0,30.34,1028.0,,,,,,,,,,,,,,,Clear,72000.0,,,73000,,,,,,
KRDR,05-28-2008,09:00,METAR,,,0,,,9999.0,,3.0,-1.0,30.34,1028.1,,,,,,,,,,,,,,,Clear,72000.0,,,73000,,,,,,
KRDR,05-28-2008,08:00,METAR,,,0,,,9999.0,,1.0,-1.0,30.34,1028.2,,,,,,,,,,,,,,,Clear,72000.0,,,73000,,,,,,
KRDR,05-28-2008,07:00,METAR,,220,3,,,9999.0,,3.0,-1.0,30.34,1028.1,,,,,,,,,,,,,,,Clear,72000.0,,,73000,,,,,,
KRDR,05-28-2008,06:00,METAR,,250,3,,,9999.0,,4.0,-1.0,30.35,1028.3,,,,,,,,,,,,,.01 IN,,Clear,72000.0,,,73000,,,,,,
KRDR,05-28-2008,05:00,METAR,,,0,,,9999.0,,5.0,0.0,30.34,1028.1,,,,,,,,,,,,,,,Clear,72000.0,,,73000,,,,,,
KRDR,05-28-2008,04:00,METAR,,,0,,,9999.0,,7.0,0.0,30.35,1028.3,,,,,,,,,,,,,,,7/8 Mostly Cloudy,25000.0,,BKN,25000,,,,,,
KRDR,05-28-2008,03:00,METAR,,,0,,,9999.0,,10.0,0.0,30.34,1028.2,,,,,,,,,,,,,,,7/8 Mostly Cloudy,25000.0,,BKN,25000,,,,,,
KRDR,05-28-2008,02:00,METAR,,10,4,,,9999.0,,13.0,3.0,30.34,1027.9,,,,,,,,,,,,,,,7/8 Mostly Cloudy,25000.0,,BKN,25000,,,,,,
KRDR,05-28-2008,01:00,METAR,,360,3,,,9999.0,,16.0,0.0,30.34,1028.1,,,,,,,,,,,,,,,7/8 Mostly Cloudy,25000.0,,BKN,25000,,,,,,
KRDR,05-28-2008,00:00,METAR,,,0,,,9999.0,,16.0,-2.0,30.34,1028.2,,,,,,,,,,,,,,,7/8 Mostly Cloudy,25000.0,,BKN,25000,,,,,,
KRDR,05-27-2008,23:00,METAR,,,0,,,9999.0,,17.0,-3.0,30.35,1028.2,,,,,,,,,,,,,,,7/8 Mostly Cloudy,25000.0,,BKN,25000,,,,,,
KRDR,05-27-2008,22:00,METAR,,,4,,,9999.0,,17.0,-3.0,30.35,1028.5,,,,,,,,,,,,,,,7/8 Mostly Cloudy,25000.0,,BKN,25000,,,,,,
KRDR,05-27-2008,21:00,METAR,,60,6,,,9999.0,,16.0,-4.0,30.36,1028.7,,,,,,,,,,,,,,,7/8 Mostly Cloudy,25000.0,,BKN,25000,,,,,,
KRDR,05-27-2008,20:00,METAR,,,6,,,9999.0,,16.0,-3.0,30.36,1028.8,,,,,,,,,,,,,,,7/8 Mostly Cloudy,25000.0,,FEW,18000,BKN,25000.0,,,,
KRDR,05-27-2008,19:00,METAR,,,6,,,9999.0,,16.0,-3.0,30.38,1029.2,,,,,,,,,,,,,,,7/8 Mostly Cloudy,25000.0,,BKN,25000,,,,,,
KRDR,05-27-2008,18:00,METAR,,10,6,,,9999.0,,15.0,-2.0,30.39,1029.6,,,,,,,,,,,,,,,7/8 Mostly Cloudy,25000.0,,BKN,25000,,,,,,
KRDR,05-27-2008,17:00,METAR,,90,6,,,9999.0,,14.0,-1.0,30.40,1029.9,,,,,,,,,,,,,,,4/8 Partly Cloudy,72000.0,,SCT,25000,,,,,,
KRDR,05-27-2008,16:00,METAR,,60,6,,,9999.0,,12.0,-2.0,30.40,1029.9,,,,,,,,,,,,,,,4/8 Partly Cloudy,72000.0,,SCT,25000,,,,,,
KRDR,05-27-2008,15:00,METAR,,40,4,,,9999.0,,10.0,1.0,30.40,1029.9,,,,,,,,,,,,,,,2/8 Mostly Clear,72000.0,,FEW,25000,,,,,,
KRDR,05-27-2008,14:00,METAR,,50,4,,,9999.0,,8.0,1.0,30.39,1029.8,,,,,,,,,,,,,,,Clear,72000.0,,,73000,,,,,,
KRDR,05-27-2008,13:00,METAR,,20,6,,,9999.0,,5.0,0.0,30.37,1029.1,,,,,,,,,,,,,,,2/8 Mostly Clear,72000.0,,FEW,25000,,,,,,
KRDR,05-27-2008,12:00,METAR,,340,5,,,9999.0,,2.0,-1.0,30.35,1028.5,,,,,,,,,,,,,,,2/8 Mostly Clear,72000.0,,FEW,25000,,,,,,
KRDR,05-27-2008,11:00,METAR,,330,4,,,9999.0,,0.0,-3.0,30.34,1028.1,,,,,,,,,,,,,,,2/8 Mostly Clear,72000.0,,FEW,25000,,,,,,
KRDR,05-27-2008,10:00,METAR,,350,5,,,9999.0,,-1.0,-3.0,30.33,1027.6,,,,,,,,,,,,,,,Clear,72000.0,,,73000,,,,,,
KRDR,05-27-2008,09:00,METAR,,340,7,,,9999.0,,1.0,-2.0,30.31,1027.2,,,,,,,,,,,,,,,Clear,72000.0,,,73000,,,,,,
KRDR,05-27-2008,08:00,METAR,,340,5,,,9999.0,,1.0,-2.0,30.31,1026.9,,,,,,,,,,,,,,,Clear,72000.0,,,73000,,,,,,
KRDR,05-27-2008,07:00,METAR,,350,6,,,9999.0,,2.0,-2.0,30.29,1026.3,,,,,,,,,,,,,,,Clear,72000.0,,,73000,,,,,,
KRDR,05-27-2008,06:00,METAR,,360,7,,,9999.0,,2.0,-2.0,30.26,1025.3,,,,,,,,,,,,,,,Clear,72000.0,,,73000,,,,,,
KRDR,05-27-2008,05:00,METAR,,20,8,,,9999.0,,5.0,-1.0,30.23,1024.5,,,,,,,,,,,,,,,Clear,72000.0,,,73000,,,,,,
KRDR,05-27-2008,04:00,METAR,,20,12,,,9999.0,,7.0,-2.0,30.21,1023.7,,,,,,,,,,,,,,,Clear,72000.0,,,73000,,,,,,
KRDR,05-27-2008,03:00,METAR,,10,11,,,9999.0,,8.0,-3.0,30.20,1023.4,,,,,,,,,,,,,,,Clear,72000.0,,,73000,,,,,,
KRDR,05-27-2008,02:00,METAR,,10,11,,,9999.0,,10.0,1.0,30.18,1022.7,,,,,,,,,,,,,,,Clear,72000.0,,,73000,,,,,,
KRDR,05-27-2008,01:00,METAR,,10,17,21.0,,9999.0,,12.0,1.0,30.15,1021.8,,,,,,,,,,,,,,,Clear,72000.0,,,73000,,,,,,
KRDR,05-27-2008,00:00,METAR,,10,13,21.0,,9999.0,,13.0,1.0,30.14,1021.4,,,,,,,,,,,,,,,Clear,72000.0,,,73000,,,,,,
KRDR,05-26-2008,23:00,METAR,,30,13,,,9999.0,,14.0,2.0,30.12,1020.9,,,,,,,,,,,,,,,Clear,72000.0,,,73000,,,,,,
KRDR,05-26-2008,22:00,METAR,,360,13,18.0,,9999.0,,13.0,2.0,30.12,1020.8,,,,,,,,,,,,,,,Clear,72000.0,,,73000,,,,,,
KRDR,05-26-2008,21:00,METAR,,30,12,20.0,,9999.0,,12.0,3.0,30.11,1020.5,,,,,,,,,,,,,,,4/8 Partly Cloudy,72000.0,,SCT,2800,,,,,,
KRDR,05-26-2008,20:43,SPECI,,20,16,25.0,,9999.0,,11.0,3.0,30.11,1020.5,,,,,,,,,,,,,,,4/8 Partly Cloudy,72000.0,,SCT,2800,,,,,,
KRDR,05-26-2008,20:00,METAR,,30,16,24.0,020/27KTS,9999.0,,9.0,3.0,30.10,1020.1,,,,,,,,,,,,,,,8/8 Overcast,2000.0,,OVC,2000,,,,,,
KRDR,05-26-2008,19:00,SPECI,,20,21,27.0,020/27KTS,9999.0,,8.0,3.0,30.08,1019.6,,,,,,,,,,,,,,,8/8 Overcast,1500.0,,OVC,1500,,,,,,
KRDR,05-26-2008,19:00,METAR,,20,21,25.0,020/28KTS,9999.0,,8.0,3.0,30.08,1019.6,,,,,,,,,,,,,,,8/8 Overcast,1400.0,,OVC,1400,,,,,,
KRDR,05-26-2008,18:23,SPECI,,20,21,27.0,020/28KTS,9999.0,,7.0,3.0,30.07,1019.3,,,,,,,,,,,,,,,8/8 Overcast,1200.0,,OVC,1200,,,,,,
KRDR,05-26-2008,18:00,METAR,,20,22,28.0,030/28KTS,9999.0,,6.0,3.0,30.07,1019.0,,,,,,,,,,,,,TRACE,,8/8 Overcast,1000.0,,OVC,1000,,,,,,
KRDR,05-26-2008,17:48,SPECI,,20,20,28.0,030/28KTS,9999.0,,6.0,3.0,30.07,1019.0,,,,,,,,,,,,,,,8/8 Overcast,1000.0,,OVC,1000,,,,,,
KRDR,05-26-2008,17:00,METAR,,20,21,,010/27KTS,9999.0,,5.0,3.0,30.05,1018.4,,,,,,,,,,,,,,,8/8 Overcast,800.0,,OVC,800,,,,,,
KRDR,05-26-2008,16:24,SPECI,,10,21,26.0,010/27KTS,9999.0,,6.0,3.0,30.03,1017.9,,,,,,,,,,,,,,,8/8 Overcast,900.0,,OVC,900,,,,,,
KRDR,05-26-2008,16:14,SPECI,,20,20,27.0,010/27KTS,9999.0,,6.0,3.0,30.02,1017.6,,,,,,,,,,,,,,,8/8 Overcast,1000.0,,OVC,1000,,,,,,
KRDR,05-26-2008,16:00,METAR,,10,20,27.0,020/27KTS,9999.0,,5.0,3.0,30.01,1017.2,,,,,,,,,,,TRACE,,,,8/8 Overcast,800.0,,OVC,800,,,,,,
KRDR,05-26-2008,15:13,SPECI,,10,18,,,9999.0,,5.0,4.0,29.99,1016.5,,,,,,,,,,,,,,,8/8 Overcast,700.0,,OVC,700,,,,,,
KRDR,05-26-2008,15:01,SPECI,,10,19,24.0,,9999.0,Unknown Precipitation,5.0,4.0,29.98,1016.3,40,,,,,,,,,,,,,,8/8 Overcast,700.0,,OVC,700,,,,,,
KRDR,05-26-2008,15:00,METAR,,10,18,24.0,,9999.0,,5.0,4.0,29.98,1016.1,,,,,,,,,,,,TRACE,,,8/8 Overcast,800.0,,OVC,800,,,,,,
KRDR,05-26-2008,14:12,SPECI,,10,17,25.0,,9999.0,,4.0,3.0,29.96,1015.5,,,,,,,,,,,,,,,8/8 Overcast,700.0,,OVC,700,,,,,,
KRDR,05-26-2008,14:00,METAR,,10,17,22.0,020/30KTS,9999.0,,4.0,4.0,29.94,1015.0,,,,,,,,,,,TRACE,,,,8/8 Overcast,500.0,,OVC,500,,,,,,
KRDR,05-26-2008,13:31,SPECI,,360,20,27.0,020/30KTS,9999.0,,4.0,4.0,29.92,1014.3,,,,,,,,,,,,,,,8/8 Overcast,500.0,,OVC,500,,,,,,
KRDR,05-26-2008,13:13,SPECI,,10,20,26.0,010/27KTS,9999.0,,4.0,4.0,29.89,1013.3,,,,,,,,,,,,,,,8/8 Overcast,400.0,,OVC,400,,,,,,
KRDR,05-26-2008,13:11,SPECI,,10,17,26.0,010/27KTS,9999.0,,4.0,4.0,29.89,1013.3,,,,,,,,,,,,,,,8/8 Overcast,300.0,,OVC,300,,,,,,
KRDR,05-26-2008,13:06,SPECI,,10,19,26.0,010/27KTS,9999.0,Unknown Precipitation,4.0,4.0,29.89,1013.3,40,,,,,,,,,,,,,,8/8 Overcast,300.0,,OVC,300,,,,,,
KRDR,05-26-2008,13:00,METAR,,10,19,25.0,010/29KTS,9999.0,,4.0,4.0,29.89,1013.1,,,,,,,,,,,,,,,8/8 Overcast,400.0,,OVC,400,,,,,,
KRDR,05-26-2008,12:54,SPECI,,10,22,27.0,010/27KTS,9999.0,,4.0,4.0,29.89,1013.1,,,,,,,,,,,,,,,8/8 Overcast,400.0,,OVC,400,,,,,,
KRDR,05-26-2008,12:27,SPECI,,10,19,29.0,010/29KTS,9999.0,,4.0,4.0,29.88,1012.8,,,,,,,,,,,,,,,8/8 Overcast,400.0,,OVC,400,,,,,,
KRDR,05-26-2008,12:00,METAR,,10,18,24.0,010/28KTS,9999.0,,4.0,4.0,29.85,1011.9,,,,,,,,,,,TRACE,,.02 IN,,8/8 Overcast,100.0,,OVC,100,,,,,,
KRDR,05-26-2008,11:31,SPECI,,360,17,24.0,,9999.0,,4.0,4.0,29.84,1011.5,,,,,,,,,,,,,,,7/8 Mostly Cloudy,100.0,,BKN,100,,,,,,
KRDR,05-26-2008,11:26,SPECI,,360,20,25.0,,9999.0,,4.0,4.0,29.83,1011.4,,,,,,,,,,,,,,,7/8 Mostly Cloudy,100.0,,BKN,100,,,,,,
KRDR,05-26-2008,11:12,SPECI,,360,18,25.0,,8000.0,Light Rain/Mist,4.0,4.0,29.83,1011.2,61,10,,,,,,,,,,,,,7/8 Mostly Cloudy,100.0,,BKN,200,,,,,,
KRDR,05-26-2008,11:04,SPECI,,360,18,25.0,,8000.0,Unknown Precipitation/Mist,4.0,4.0,29.83,1011.2,40,10,,,,,,,,,,,,,8/8 Overcast,100.0,,OVC,100,,,,,,
KRDR,05-26-2008,11:00,METAR,,360,18,25.0,360/28KTS,9999.0,Unknown Precipitation,4.0,4.0,29.82,1011.0,40,,,,,,,,,,.01 IN,,,,8/8 Overcast,200.0,,OVC,200,,,,,,
KRDR,05-26-2008,10:39,SPECI,,350,16,28.0,360/28KTS,9999.0,Unknown Precipitation,4.0,4.0,29.82,1010.9,40,,,,,,,,,,,,,,8/8 Overcast,200.0,,OVC,200,,,,,,
KRDR,05-26-2008,10:33,SPECI,,360,17,28.0,360/28KTS,9999.0,Unknown Precipitation,4.0,4.0,29.82,1010.8,40,,,,,,,,,,,,,,8/8 Overcast,200.0,,OVC,200,,,,,,
KRDR,05-26-2008,10:16,SPECI,,350,20,24.0,,9999.0,,5.0,4.0,29.80,1010.3,,,,,,,,,,,,,,,8/8 Overcast,300.0,,OVC,300,,,,,,
KRDR,05-26-2008,10:00,METAR,,350,17,25.0,350/28KTS,9999.0,,5.0,4.0,29.79,1009.8,,,,,,,,,,,TRACE,,,,8/8 Overcast,300.0,,OVC,300,,,,,,
KRDR,05-26-2008,09:48,SPECI,,350,17,25.0,350/28KTS,9999.0,,5.0,4.0,29.78,1009.7,,,,,,,,,,,,,,,8/8 Overcast,300.0,,OVC,300,,,,,,
KRDR,05-26-2008,09:44,SPECI,,350,18,25.0,350/28KTS,9999.0,,5.0,4.0,29.78,1009.7,,,,,,,,,,,,,,,8/8 Overcast,300.0,,OVC,300,,,,,,
KRDR,05-26-2008,09:40,SPECI,,350,16,25.0,350/28KTS,9999.0,,5.0,4.0,29.78,1009.5,,,,,,,,,,,,,,,8/8 Overcast,400.0,,OVC,400,,,,,,
KRDR,05-26-2008,09:19,SPECI,,350,17,26.0,340/26KTS,9999.0,,5.0,4.0,29.77,1009.1,,,,,,,,,,,,,,,8/8 Overcast,400.0,,OVC,400,,,,,,
KRDR,05-26-2008,09:04,SPECI,,350,16,23.0,,9999.0,,5.0,5.0,29.76,1008.8,,,,,,,,,,,,,,,8/8 Overcast,400.0,,OVC,400,,,,,,
KRDR,05-26-2008,09:00,METAR,,350,16,24.0,360/29KTS,9999.0,Unknown Precipitation,5.0,5.0,29.75,1008.7,40,,,,,,,,,,TRACE,.01 IN,,,8/8 Overcast,400.0,,OVC,400,,,,,,
KRDR,05-26-2008,08:37,SPECI,,360,17,29.0,360/29KTS,9999.0,Unknown Precipitation,5.0,5.0,29.74,1008.2,40,,,,,,,,,,,,,,8/8 Overcast,200.0,,OVC,200,,,,,,
KRDR,05-26-2008,08:00,METAR,,350,17,26.0,350/29KTS,9999.0,,6.0,5.0,29.72,1007.5,,,,,,,,,,,.01 IN,,,,8/8 Overcast,200.0,,OVC,200,,,,,,
KRDR,05-26-2008,07:48,SPECI,,350,18,26.0,350/29KTS,9999.0,,6.0,5.0,29.71,1007.4,,,,,,,,,,,,,,,8/8 Overcast,200.0,,OVC,200,,,,,,
KRDR,05-26-2008,07:37,SPECI,,350,21,29.0,350/29KTS,9999.0,,6.0,5.0,29.70,1007.0,,,,,,,,,,,,,,,8/8 Overcast,100.0,,OVC,100,,,,,,
KRDR,05-26-2008,07:24,SPECI,,350,18,28.0,360/28KTS,9999.0,,6.0,6.0,29.69,1006.7,,,,,,,,,,,,,,,8/8 Overcast,200.0,,OVC,200,,,,,,
KRDR,05-26-2008,07:00,METAR,,360,17,26.0,350/26KTS,9999.0,Unknown Precipitation,7.0,6.0,29.68,1006.3,40,,,,,,,,,,TRACE,,,,8/8 Overcast,300.0,,OVC,300,,,,,,
KRDR,05-26-2008,06:41,SPECI,,350,18,22.0,,9999.0,Unknown Precipitation,7.0,6.0,29.68,1006.2,40,,,,,,,,,,,,,,8/8 Overcast,200.0,,OVC,200,,,,,,
KRDR,05-26-2008,06:31,SPECI,,350,16,24.0,,9999.0,,7.0,6.0,29.67,1006.1,,,,,,,,,,,,,,,8/8 Overcast,200.0,,OVC,200,,,,,,
KRDR,05-26-2008,06:16,SPECI,,350,16,23.0,,9999.0,Light Rain,7.0,6.0,29.66,1005.8,61,,,,,,,,,,,,,,8/8 Overcast,300.0,,OVC,300,,,,,,
KRDR,05-26-2008,06:00,METAR,,350,13,22.0,,9999.0,,7.0,6.0,29.66,1005.5,,,,,,,,,,,.01 IN,,.02 IN,,8/8 Overcast,300.0,,OVC,300,,,,,,
KRDR,05-26-2008,05:33,SPECI,,350,17,,,9999.0,,7.0,7.0,29.65,1005.2,,,,,,,,,,,,,,,8/8 Overcast,300.0,,OVC,300,,,,,,
KRDR,05-26-2008,05:29,SPECI,,350,14,21.0,,9999.0,,7.0,7.0,29.65,1005.2,,,,,,,,,,,,,,,8/8 Overcast,400.0,,OVC,400,,,,,,
KRDR,05-26-2008,05:18,SPECI,,340,16,23.0,,9999.0,Light Rain,8.0,7.0,29.64,1005.0,61,,,,,,,,,,,,,,8/8 Overcast,300.0,,OVC,300,,,,,,
KRDR,05-26-2008,05:04,SPECI,,360,18,23.0,,9999.0,Light Rain,8.0,7.0,29.63,1004.7,61,,,,,,,,,,,,,,8/8 Overcast,400.0,,OVC,400,,,,,,
KRDR,05-26-2008,05:00,METAR,,350,20,24.0,,9999.0,,8.0,7.0,29.63,1004.5,,,,,,,,,,,TRACE,,,,8/8 Overcast,500.0,,OVC,500,,,,,,
KRDR,05-26-2008,04:32,SPECI,,350,16,21.0,,9999.0,,9.0,7.0,29.62,1004.5,,,,,,,,,,,,,,,8/8 Overcast,500.0,,OVC,500,,,,,,
KRDR,05-26-2008,04:25,SPECI,,340,18,21.0,,9999.0,Light Rain,9.0,8.0,29.62,1004.4,61,,,,,,,,,,,,,,8/8 Overcast,500.0,,OVC,500,,,,,,
KRDR,05-26-2008,04:21,SPECI,,340,15,18.0,,9999.0,Unknown Precipitation,10.0,8.0,29.62,1004.4,40,,,,,,,,,,,,,,8/8 Overcast,600.0,,OVC,600,,,,,,
KRDR,05-26-2008,04:02,SPECI,,350,16,,,9999.0,,10.0,8.0,29.62,1004.2,,,,,,,,,,,,,,,8/8 Overcast,600.0,,OVC,600,,,,,,
KRDR,05-26-2008,04:00,METAR,,340,16,20.0,,9999.0,,10.0,8.0,29.62,1004.2,,,,,,,,,,,,,,,8/8 Overcast,800.0,,OVC,800,,,,,,
KRDR,05-26-2008,03:25,SPECI,,340,15,,,9999.0,,11.0,9.0,29.60,1003.7,,,,,,,,,,,,,,,8/8 Overcast,900.0,,OVC,900,,,,,,
KRDR,05-26-2008,03:20,SPECI,,340,14,20.0,,9999.0,,12.0,9.0,29.60,1003.5,,,,,,,,,,,,,,,8/8 Overcast,800.0,,OVC,1100,,,,,,
KRDR,05-26-2008,03:16,SPECI,,340,14,20.0,,9999.0,,12.0,9.0,29.59,1003.4,,,,,,,,,,,,,,,8/8 Overcast,800.0,,OVC,1400,,,,,,
KRDR,05-26-2008,03:08,SPECI,,350,11,,,9999.0,,12.0,9.0,29.58,1003.1,,,,,,,,,,,,,,,8/8 Overcast,800.0,,OVC,2100,,,,,,
KRDR,05-26-2008,03:03,SPECI,,360,16,,,9999.0,,12.0,9.0,29.58,1003.0,,,,,,,,,,,,,,,8/8 Overcast,900.0,,BKN,900,OVC,5400.0,,,,
KRDR,05-26-2008,03:00,METAR,,350,13,20.0,,9999.0,,13.0,10.0,29.58,1002.9,,,,,,,,,,,,.01 IN,,,7/8 Mostly Cloudy,5500.0,,FEW,900,BKN,5400.0,,,,
KRDR,05-26-2008,02:04,SPECI,,360,14,17.0,,9999.0,,19.0,11.0,29.55,1002.0,,,,,,,,,,,,,,,8/8 Overcast,7000.0,,FEW,5000,OVC,6900.0,,,,
KRDR,05-26-2008,02:00,METAR,,280,10,,,9999.0,,20.0,9.0,29.54,1001.6,,,,,,,,,,,,,,,8/8 Overcast,7000.0,,OVC,6900,,,,,,
KRDR,05-26-2008,01:00,METAR,,270,13,19.0,,9999.0,,20.0,9.0,29.53,1001.2,,,,,,,,,,,.01 IN,,,,8/8 Overcast,6500.0,,OVC,6400,,,,,,
KRDR,05-26-2008,00:20,SPECI,,270,7,,,9999.0,,19.0,12.0,29.52,1001.1,,,,,,,,,,,,,,,8/8 Overcast,5500.0,,OVC,5400,,,,,,
KRDR,05-26-2008,00:00,METAR,,260,7,,,9999.0,,21.0,10.0,29.51,1000.7,,,,,,,,,,,,,,,7/8 Mostly Cloudy,11000.0,,SCT,5400,BKN,11000.0,,,,
