Platform Id,Date,Time (UTC),Report Type,Wind Condition,Wind Direction,Wind Speed (Knots),Wind Gust Speed,Peak Wind (Knots),Visibility (M),Weather,Air Temp (C),Dew Point (C),Altimeter (inHg),SLP (Millibars),Present Automated 1,Present Automated 2,Present Automated 3,Present Manual 1,Present Manual 2,Present Manual 3,Present Manual 4,Present Manual 5,Present Manual 6,Present Manual 7,Precip Hr1,Precip Hr3,Precip Hr6,Precip Hr24,Cloud Cover,Cloud Ceiling (Feet),Lowest Cloud Base Height (Feet),Cloud Cover1,Cloudbase 1,Cloud Cover2,Cloudbase 2,Cloud Cover3,Cloudbase 3,Cloud Cover4,Cloudbase 4
KRDR,12-05-2005,23:00,METAR,,300,8.0,,,9999.0,,-17.0,-22.0,30.09,1021.6,,,,,,,,,,,,,,,4/8 Partly Cloudy,72000.0,,FEW,1500,SCT,20000.0,,,,
KRDR,12-05-2005,22:00,METAR,,300,10.0,,,9999.0,,-16.0,-21.0,30.07,1021.2,,,,,,,,,,,,,,,4/8 Partly Cloudy,72000.0,,FEW,1500,SCT,20000.0,,,,
KRDR,12-05-2005,21:00,METAR,,310,9.0,,,9999.0,,-16.0,-21.0,30.07,1021.0,,,,,,,,,,,,,,,4/8 Partly Cloudy,72000.0,,FEW,2000,SCT,20000.0,,,,
KRDR,12-05-2005,20:00,METAR,,320,9.0,,,9999.0,,-16.0,-21.0,30.07,1021.0,,,,,,,,,,,,,,,7/8 Mostly Cloudy,20000.0,,FEW,2000,BKN,20000.0,,,,
KRDR,12-05-2005,19:00,METAR,,310,9.0,,,9999.0,,-15.0,-20.0,30.07,1021.0,,,,,,,,,,,,,,,7/8 Mostly Cloudy,20000.0,,FEW,3000,BKN,20000.0,,,,
KRDR,12-05-2005,18:00,METAR,,320,9.0,,,9999.0,,-16.0,-20.0,30.07,1021.1,,,,,,,,,,,,,TRACE,,7/8 Mostly Cloudy,20000.0,,SCT,3000,BKN,20000.0,,,,
KRDR,12-05-2005,17:00,METAR,,290,11.0,,,9999.0,,-17.0,-21.0,30.08,1021.4,,,,,,,,,,,,,,,7/8 Mostly Cloudy,20000.0,,SCT,3000,BKN,20000.0,,,,
KRDR,12-05-2005,16:00,METAR,,290,8.0,,,9999.0,Light Snow,-18.0,-21.0,30.08,1021.3,,,,71,,,,,,,,,,,7/8 Mostly Cloudy,4400.0,,SCT,2000,BKN,4500.0,,,,
KRDR,12-05-2005,15:00,METAR,,300,8.0,,,9999.0,Light Snow,-18.0,-22.0,30.07,1021.1,,,,71,,,,,,,,TRACE,,,7/8 Mostly Cloudy,4400.0,,SCT,2000,BKN,4500.0,,,,
KRDR,12-05-2005,14:00,METAR,,280,7.0,,,8000.0,Light Snow,-19.0,-23.0,30.06,1020.9,,,,71,,,,,,,,,,,7/8 Mostly Cloudy,4400.0,,SCT,2000,BKN,4500.0,,,,
KRDR,12-05-2005,13:23,SPECI,,290,9.0,,,9999.0,Light Snow,-19.0,-23.0,30.06,,,,,71,,,,,,,,,,,7/8 Mostly Cloudy,4400.0,,BKN,4500,,,,,,
KRDR,12-05-2005,13:00,METAR,,280,8.0,,,9999.0,,-20.0,-23.0,30.07,1021.1,,,,,,,,,,,,,,,4/8 Partly Cloudy,72000.0,,SCT,4500,,,,,,
KRDR,12-05-2005,12:00,METAR,,280,8.0,,,9999.0,,-20.0,-23.0,30.07,1021.5,,,,,,,,,,,,,,,2/8 Mostly Clear,72000.0,,FEW,4500,,,,,,
KRDR,12-05-2005,11:00,METAR,,270,9.0,,,9999.0,,-20.0,-23.0,30.10,1022.5,,,,,,,,,,,,,,,2/8 Mostly Clear,72000.0,,FEW,4500,,,,,,
KRDR,12-05-2005,10:00,METAR,,270,8.0,,,9999.0,,-20.0,-23.0,30.12,1023.1,,,,,,,,,,,,,,,2/8 Mostly Clear,72000.0,,FEW,4500,,,,,,
KRDR,12-05-2005,09:00,METAR,,290,8.0,,,9999.0,,-20.0,-23.0,30.12,1023.1,,,,,,,,,,,,,,,4/8 Partly Cloudy,72000.0,,SCT,4500,,,,,,
KRDR,12-05-2005,08:00,METAR,,290,7.0,,,9999.0,,-19.0,-23.0,30.12,1023.0,,,,,,,,,,,,,,,Clear,72000.0,,,73000,,,,,,
KRDR,12-05-2005,07:00,METAR,,300,8.0,,,9999.0,,-19.0,-23.0,30.13,1023.4,,,,,,,,,,,,,,,Clear,72000.0,,,73000,,,,,,
KRDR,12-05-2005,06:00,METAR,,290,10.0,,,9999.0,,-19.0,-23.0,30.15,1024.2,,,,,,,,,,,,,,,Clear,72000.0,,,73000,,,,,,
KRDR,12-05-2005,05:00,METAR,,290,10.0,,,9999.0,,-19.0,-23.0,30.16,1024.4,,,,,,,,,,,,,,,Clear,72000.0,,,73000,,,,,,
KRDR,12-05-2005,04:00,METAR,,280,7.0,,,9999.0,,-19.0,-22.0,30.19,1025.2,,,,,,,,,,,,,,,Clear,72000.0,,,73000,,,,,,
KRDR,12-05-2005,03:00,METAR,,290,9.0,,,9999.0,,-19.0,-22.0,30.19,1025.3,,,,,,,,,,,,,,,Clear,72000.0,,,73000,,,,,,
KRDR,12-05-2005,02:00,METAR,,280,3.0,,,9999.0,,-20.0,-22.0,30.19,1025.4,,,,,,,,,,,,,,,2/8 Mostly Clear,72000.0,,FEW,7900,,,,,,
KRDR,12-05-2005,01:00,METAR,,280,3.0,,,9999.0,,-19.0,-22.0,30.20,1025.8,,,,,,,,,,,,,,,7/8 Mostly Cloudy,8000.0,,BKN,7900,,,,,,
KRDR,12-05-2005,00:31,SPECI,,270,4.0,,,9999.0,,-19.0,-22.0,30.19,,,,,,,,,,,,,,,,4/8 Partly Cloudy,72000.0,,FEW,5000,SCT,7900.0,,,,
KRDR,12-05-2005,00:00,METAR,,280,3.0,,,9999.0,Light Snow,-19.0,-21.0,30.20,1025.7,,,,71,,,,,,,,,TRACE,,4/8 Partly Cloudy,72000.0,,FEW,1000,SCT,7900.0,,,,
KRDR,12-04-2005,23:00,METAR,,230,2.0,,,9999.0,Light Snow,-18.0,-20.0,30.20,1025.8,,,,71,,,,,,,,,,,4/8 Partly Cloudy,72000.0,,FEW,1000,SCT,7900.0,,,,
KRDR,12-04-2005,22:00,METAR,,,0.0,,,9999.0,Light Snow,-16.0,-19.0,30.21,1025.8,,,,71,,,,,,,,,,,7/8 Mostly Cloudy,3400.0,,FEW,2000,SCT,3500.0,BKN,7900.0,,
KRDR,12-04-2005,21:00,METAR,,,1.0,,,9999.0,Light Snow,-16.0,-20.0,30.21,1025.8,,,,71,,,,,,,,TRACE,,,7/8 Mostly Cloudy,3400.0,,FEW,2000,SCT,3500.0,BKN,7900.0,,
KRDR,12-04-2005,20:00,METAR,,290,3.0,,,9999.0,Light Snow,-16.0,-20.0,30.22,1026.1,,,,71,,,,,,,,,,,7/8 Mostly Cloudy,3400.0,,FEW,2000,SCT,3500.0,BKN,7900.0,,
KRDR,12-04-2005,19:00,METAR,,330,2.0,,,9999.0,Light Snow,-16.0,-20.0,30.23,1026.6,,,,71,,,,,,,,,,,7/8 Mostly Cloudy,3400.0,,SCT,2000,BKN,3500.0,BKN,7900.0,,
KRDR,12-04-2005,18:00,METAR,,300,4.0,,,9999.0,Diamond Dust,-17.0,-20.0,30.24,1027.0,,,,76,,,,,,,,,TRACE,,4/8 Partly Cloudy,72000.0,,FEW,2000,FEW,7900.0,SCT,20000.0,,
KRDR,12-04-2005,17:32,SPECI,,310,4.0,,,9999.0,Diamond Dust,-17.0,-20.0,30.24,,,,,76,,,,,,,,,,,4/8 Partly Cloudy,72000.0,,FEW,2000,FEW,7900.0,SCT,20000.0,,
KRDR,12-04-2005,17:00,METAR,,310,3.0,,,9999.0,,-17.0,-20.0,30.25,1027.2,,,,,,,,,,,,,,,4/8 Partly Cloudy,72000.0,,FEW,2000,FEW,7900.0,SCT,20000.0,,
KRDR,12-04-2005,16:00,METAR,,300,3.0,,,9999.0,,-18.0,-21.0,30.25,1027.2,,,,,,,,,,,,,,,7/8 Mostly Cloudy,8000.0,,FEW,2000,SCT,7900.0,BKN,20000.0,,
KRDR,12-04-2005,15:49,SPECI,,290,2.0,,,9999.0,,-18.0,-21.0,30.25,,,,,,,,,,,,,,,,7/8 Mostly Cloudy,8000.0,,FEW,2000,SCT,7900.0,BKN,20000.0,,
KRDR,12-04-2005,15:00,METAR,,,0.0,,,9999.0,Diamond Dust,-20.0,-23.0,30.23,1026.8,,,,76,,,,,,,,TRACE,,,7/8 Mostly Cloudy,8000.0,,FEW,3500,BKN,7900.0,,,,
KRDR,12-04-2005,14:00,METAR,,,1.0,,,9999.0,Diamond Dust,-21.0,-24.0,30.22,1026.6,,,,76,,,,,,,,,,,4/8 Partly Cloudy,72000.0,,FEW,3500,SCT,7900.0,,,,
KRDR,12-04-2005,13:00,METAR,,320,4.0,,,9999.0,Diamond Dust,-21.0,-23.0,30.21,1026.1,,,,76,,,,,,,,,,,4/8 Partly Cloudy,72000.0,,FEW,3500,SCT,7900.0,,,,
KRDR,12-04-2005,12:00,METAR,,320,5.0,,,9999.0,Diamond Dust,-20.0,-23.0,30.20,1025.7,,,,76,,,,,,,,,TRACE,,2/8 Mostly Clear,72000.0,,FEW,3500,FEW,7900.0,,,,
KRDR,12-04-2005,11:00,METAR,,330,5.0,,,9999.0,Light Snow,-18.0,-20.0,30.20,1025.3,,,,71,,,,,,,,,,,7/8 Mostly Cloudy,3400.0,,FEW,500,SCT,3500.0,BKN,7900.0,,
KRDR,12-04-2005,10:00,METAR,,340,6.0,,,9999.0,Light Snow,-17.0,-19.0,30.19,1025.1,,,,71,,,,,,,,,,,8/8 Overcast,3400.0,,FEW,500,OVC,3500.0,,,,
KRDR,12-04-2005,09:00,METAR,,350,8.0,,,9999.0,Light Snow,-16.0,-18.0,30.20,1025.1,,,,71,,,,,,,,TRACE,,,8/8 Overcast,4900.0,,SCT,1000,OVC,5000.0,,,,
KRDR,12-04-2005,08:00,METAR,,350,7.0,,,9999.0,Light Snow,-16.0,-18.0,30.18,1024.4,,,,71,,,,,,,,,,,8/8 Overcast,4900.0,,SCT,1000,OVC,5000.0,,,,
KRDR,12-04-2005,07:00,METAR,,330,8.0,,,9999.0,,-16.0,-18.0,30.18,1024.4,,,,,,,,,,,,,,,7/8 Mostly Cloudy,8000.0,,SCT,1100,BKN,7900.0,,,,
KRDR,12-04-2005,06:00,METAR,,330,7.0,,,9999.0,,-16.0,-18.0,30.18,1024.4,,,,,,,,,,,,,,,8/8 Overcast,4900.0,,SCT,2300,OVC,5000.0,,,,
KRDR,12-04-2005,05:00,METAR,,330,5.0,,,9999.0,,-17.0,-19.0,30.15,1023.8,,,,,,,,,,,,,,,7/8 Mostly Cloudy,1500.0,,BKN,1500,BKN,7900.0,,,,
KRDR,12-04-2005,04:00,METAR,,320,4.0,,,9999.0,,-17.0,-19.0,30.15,1023.9,,,,,,,,,,,,,,,7/8 Mostly Cloudy,1100.0,,BKN,1100,,,,,,
KRDR,12-04-2005,03:00,METAR,,350,5.0,,,9999.0,,-17.0,-19.0,30.14,1023.7,,,,,,,,,,,,,,,4/8 Partly Cloudy,72000.0,,SCT,1100,,,,,,
KRDR,12-04-2005,02:00,METAR,,340,3.0,,,9999.0,,-17.0,-20.0,30.13,1023.3,,,,,,,,,,,,,,,4/8 Partly Cloudy,72000.0,,SCT,900,SCT,25000.0,,,,
KRDR,12-04-2005,01:00,METAR,,320,3.0,,,9999.0,,-16.0,-18.0,30.13,1023.1,,,,,,,,,,,,,,,7/8 Mostly Cloudy,1000.0,,FEW,900,BKN,3000.0,,,,
KRDR,12-04-2005,00:00,METAR,,350,2.0,,,9999.0,,-15.0,-17.0,30.12,1022.8,,,,,,,,,,,,,TRACE,,2/8 Mostly Clear,72000.0,,FEW,500,,,,,,
KRDR,12-03-2005,23:00,METAR,,30,2.0,,,9999.0,,-12.0,-15.0,30.12,1022.6,,,,,,,,,,,,,,,4/8 Partly Cloudy,72000.0,,SCT,1100,,,,,,
KRDR,12-03-2005,22:00,METAR,,20,5.0,,,9999.0,Light Snow,-11.0,-14.0,30.11,1022.3,,,,71,,,,,,,,,,,4/8 Partly Cloudy,72000.0,,FEW,700,SCT,2500.0,,,,
KRDR,12-03-2005,21:08,SPECI,,360,3.0,,,9999.0,,-11.0,-14.0,30.09,,,,,,,,,,,,,,,,7/8 Mostly Cloudy,7000.0,,FEW,1200,SCT,6900.0,BKN,20000.0,,
KRDR,12-03-2005,21:00,METAR,,30,3.0,,,9999.0,Light Snow,-11.0,-14.0,30.09,1021.4,,,,71,,,,,,,,TRACE,,,7/8 Mostly Cloudy,3900.0,,FEW,1200,SCT,4000.0,BKN,6900.0,BKN,20000.0
KRDR,12-03-2005,20:00,METAR,,360,4.0,,,4800.0,Light Snow,-11.0,-15.0,30.09,1021.4,,,,71,,,,,,,,,,,8/8 Overcast,3900.0,,SCT,1200,BKN,4000.0,OVC,6900.0,,
KRDR,12-03-2005,19:43,SPECI,,360,3.0,,,3200.0,Light Snow,-11.0,-14.0,30.09,,,,,71,,,,,,,,,,,8/8 Overcast,3900.0,,SCT,1200,OVC,4000.0,,,,
KRDR,12-03-2005,19:27,SPECI,,360,4.0,,,4800.0,Light Snow,-11.0,-14.0,30.09,,,,,71,,,,,,,,,,,8/8 Overcast,3900.0,,SCT,1200,OVC,4000.0,,,,
KRDR,12-03-2005,19:12,SPECI,,360,3.0,,,3200.0,Light Snow,-11.0,-14.0,30.10,,,,,71,,,,,,,,,,,8/8 Overcast,1200.0,,BKN,1200,OVC,4000.0,,,,
KRDR,12-03-2005,19:00,METAR,,360,3.0,,,4800.0,Light Snow,-11.0,-14.0,30.10,1021.7,,,,71,,,,,,,,,,,8/8 Overcast,3900.0,,SCT,1200,BKN,4000.0,OVC,7900.0,,
KRDR,12-03-2005,18:00,METAR,,40,3.0,,,6400.0,Light Snow,-11.0,-14.0,30.11,1022.2,,,,71,,,,,,,,,TRACE,,8/8 Overcast,3900.0,,SCT,1500,BKN,4000.0,OVC,7900.0,,
KRDR,12-03-2005,17:00,METAR,,10,3.0,,,9999.0,Light Snow,-12.0,-14.0,30.12,1022.5,,,,71,,,,,,,,,,,8/8 Overcast,3900.0,,SCT,1500,BKN,4000.0,OVC,7900.0,,
KRDR,12-03-2005,16:04,SPECI,,340,4.0,,,6400.0,Light Snow,-13.0,-15.0,30.13,,,,,71,,,,,,,,,,,8/8 Overcast,4400.0,,SCT,2400,BKN,4500.0,OVC,7900.0,,
KRDR,12-03-2005,16:00,METAR,,340,4.0,,,9999.0,,-13.0,-15.0,30.13,1022.9,,,,,,,,,,,,,,,7/8 Mostly Cloudy,2000.0,,FEW,1000,SCT,2000.0,BKN,9900.0,BKN,20000.0
KRDR,12-03-2005,15:10,SPECI,,320,2.0,,,9999.0,Haze,-15.0,-17.0,30.12,,,,,5,,,,,,,,,,,8/8 Overcast,8000.0,,SCT,2000,BKN,7900.0,OVC,20000.0,,
KRDR,12-03-2005,15:00,METAR,,310,2.0,,,9999.0,,-15.0,-17.0,30.11,1022.4,,,,,,,,,,,,TRACE,,,7/8 Mostly Cloudy,2000.0,,FEW,1000,SCT,2000.0,BKN,9900.0,BKN,20000.0
KRDR,12-03-2005,14:00,METAR,,350,4.0,,,9999.0,,-16.0,-17.0,30.09,1021.7,,,,,,,,,,,,,,,7/8 Mostly Cloudy,4400.0,,FEW,2500,SCT,4500.0,BKN,20000.0,,
KRDR,12-03-2005,13:08,SPECI,,350,3.0,,,9999.0,Light Snow,-13.0,-15.0,30.09,,,,,71,,,,,,,,,,,8/8 Overcast,4400.0,,OVC,4500,,,,,,
KRDR,12-03-2005,13:00,METAR,,10,4.0,,,9999.0,Light Snow,-13.0,-15.0,30.09,1021.6,,,,71,,,,,,,,,,,8/8 Overcast,4400.0,,SCT,2500,OVC,4500.0,,,,
KRDR,12-03-2005,12:00,METAR,,,5.0,,,9999.0,Light Snow,-13.0,-15.0,30.10,1022.0,,,,71,,,,,,,,,TRACE,,7/8 Mostly Cloudy,4900.0,,BKN,5000,,,,,,
KRDR,12-03-2005,11:00,METAR,,360,3.0,,,9999.0,,-13.0,-16.0,30.11,1022.1,,,,,,,,,,,,,,,8/8 Overcast,6000.0,,OVC,5900,,,,,,
KRDR,12-03-2005,10:00,METAR,,310,2.0,,,9999.0,,-15.0,-17.0,30.13,1022.9,,,,,,,,,,,,,,,8/8 Overcast,6000.0,,OVC,5900,,,,,,
KRDR,12-03-2005,09:00,METAR,,330,1.0,,,9999.0,,-14.0,-16.0,30.13,1022.9,,,,,,,,,,,,,,,8/8 Overcast,6000.0,,OVC,5900,,,,,,
KRDR,12-03-2005,08:00,METAR,,330,1.0,,,9999.0,,-14.0,-16.0,30.14,1023.2,,,,,,,,,,,,,,,8/8 Overcast,8000.0,,SCT,2500,OVC,7900.0,,,,
KRDR,12-03-2005,07:00,METAR,,300,1.0,,,9999.0,,-14.0,-16.0,30.14,1023.2,,,,,,,,,,,,,,,8/8 Overcast,9000.0,,SCT,2200,OVC,8900.0,,,,
KRDR,12-03-2005,06:00,METAR,,,2.0,,,9999.0,,-15.0,-17.0,30.15,1023.6,,,,,,,,,,,,,,,7/8 Mostly Cloudy,10000.0,,FEW,2300,BKN,9900.0,,,,
KRDR,12-03-2005,05:00,METAR,,,1.0,,,9999.0,,-14.0,-17.0,30.15,1023.6,,,,,,,,,,,,,,,7/8 Mostly Cloudy,10000.0,,BKN,9900,,,,,,
KRDR,12-03-2005,04:00,METAR,,,0.0,,,9999.0,,-14.0,-17.0,30.14,1023.4,,,,,,,,,,,,,,,7/8 Mostly Cloudy,10000.0,,BKN,9900,,,,,,
KRDR,12-03-2005,03:00,METAR,,360,1.0,,,9999.0,,-13.0,-17.0,30.14,1023.4,,,,,,,,,,,,,,,7/8 Mostly Cloudy,10000.0,,BKN,9900,,,,,,
KRDR,12-03-2005,02:00,METAR,,,0.0,,,9999.0,,-13.0,-17.0,30.14,1023.5,,,,,,,,,,,,,,,7/8 Mostly Cloudy,20000.0,,SCT,11000,BKN,20000.0,,,,
KRDR,12-03-2005,01:00,METAR,,70,2.0,,,9999.0,,-13.0,-17.0,30.14,1023.5,,,,,,,,,,,,,,,8/8 Overcast,12000.0,,SCT,2500,BKN,12000.0,OVC,20000.0,,
KRDR,12-03-2005,00:00,METAR,,70,2.0,,,9999.0,,-13.0,-17.0,30.15,1023.8,,,,,,,,,,,,,,,8/8 Overcast,12000.0,,SCT,2500,BKN,12000.0,OVC,20000.0,,
KRDR,12-02-2005,23:00,METAR,,50,4.0,,,9999.0,,-12.0,-16.0,30.15,1023.7,,,,,,,,,,,,,,,8/8 Overcast,12000.0,,SCT,2100,BKN,12000.0,OVC,20000.0,,
KRDR,12-02-2005,22:00,METAR,,40,3.0,,,9999.0,,-12.0,-17.0,30.13,1023.0,,,,,,,,,,,,,,,8/8 Overcast,12000.0,,FEW,2500,BKN,12000.0,OVC,20000.0,,
KRDR,12-02-2005,21:00,METAR,,,2.0,,,9999.0,,-12.0,-18.0,30.13,1023.0,,,,,,,,,,,,,,,8/8 Overcast,20000.0,,SCT,9900,OVC,20000.0,,,,
KRDR,12-02-2005,20:00,METAR,,,0.0,,,9999.0,,-12.0,-18.0,30.15,1023.6,,,,,,,,,,,,,,,7/8 Mostly Cloudy,10000.0,,FEW,3000,SCT,9900.0,BKN,20000.0,,
KRDR,12-02-2005,19:00,METAR,,330,1.0,,,9999.0,,-13.0,-18.0,30.17,1024.4,,,,,,,,,,,,,,,7/8 Mostly Cloudy,10000.0,,FEW,3000,SCT,9900.0,BKN,20000.0,,
KRDR,12-02-2005,18:00,METAR,,,0.0,,,9999.0,,-14.0,-18.0,30.19,1024.9,,,,,,,,,,,,,,,4/8 Partly Cloudy,72000.0,,FEW,3000,FEW,9900.0,SCT,20000.0,,
KRDR,12-02-2005,17:00,METAR,,,0.0,,,9999.0,,-15.0,-17.0,30.22,1025.8,,,,,,,,,,,,,,,4/8 Partly Cloudy,72000.0,,FEW,9900,SCT,20000.0,,,,
KRDR,12-02-2005,16:00,METAR,,290,2.0,,,9999.0,,-16.0,-19.0,30.19,1024.9,,,,,,,,,,,,,,,2/8 Mostly Clear,72000.0,,FEW,9900,FEW,20000.0,,,,
KRDR,12-02-2005,15:00,METAR,,270,3.0,,,9999.0,,-18.0,-21.0,30.19,1024.9,,,,,,,,,,,,,,,2/8 Mostly Clear,72000.0,,FEW,20000,,,,,,
KRDR,12-02-2005,14:00,METAR,,270,1.0,,,9999.0,,-20.0,-23.0,30.19,1025.0,,,,,,,,,,,,,,,2/8 Mostly Clear,72000.0,,FEW,20000,,,,,,
KRDR,12-02-2005,13:00,METAR,,280,6.0,,,9999.0,,-20.0,-23.0,30.19,1024.9,,,,,,,,,,,,,,,Clear,72000.0,,,73000,,,,,,
KRDR,12-02-2005,12:00,METAR,,270,6.0,,,9999.0,,-20.0,-22.0,30.19,1024.9,,,,,,,,,,,,,,,Clear,72000.0,,,73000,,,,,,
KRDR,12-02-2005,11:00,METAR,,260,6.0,,,9999.0,,-19.0,-22.0,30.19,1024.7,,,,,,,,,,,,,,,Clear,72000.0,,,73000,,,,,,
KRDR,12-02-2005,10:00,METAR,,270,6.0,,,9999.0,,-19.0,-21.0,30.19,1024.7,,,,,,,,,,,,,,,Clear,72000.0,,,73000,,,,,,
KRDR,12-02-2005,09:00,METAR,,270,7.0,,,9999.0,,-18.0,-20.0,30.19,1024.7,,,,,,,,,,,,,,,Clear,72000.0,,,73000,,,,,,
KRDR,12-02-2005,08:00,METAR,,290,5.0,,,9999.0,,-17.0,-20.0,30.18,1024.4,,,,,,,,,,,,,,,2/8 Mostly Clear,72000.0,,FEW,4000,,,,,,
KRDR,12-02-2005,07:00,METAR,,260,6.0,,,9999.0,,-16.0,-19.0,30.19,1024.8,,,,,,,,,,,,,,,2/8 Mostly Clear,72000.0,,FEW,3700,,,,,,
KRDR,12-02-2005,06:00,METAR,,280,5.0,,,9999.0,,-14.0,-17.0,30.19,1024.6,,,,,,,,,,,,,,,4/8 Partly Cloudy,72000.0,,SCT,3900,,,,,,
KRDR,12-02-2005,05:00,METAR,,250,3.0,,,9999.0,,-12.0,-15.0,30.18,1024.2,,,,,,,,,,,,,,,7/8 Mostly Cloudy,3700.0,,BKN,3800,,,,,,
KRDR,12-02-2005,04:06,SPECI,,270,3.0,,,9999.0,,-12.0,-14.0,30.17,,,,,,,,,,,,,,,,7/8 Mostly Cloudy,3200.0,,BKN,3300,,,,,,
KRDR,12-02-2005,04:00,METAR,,280,3.0,,,9999.0,,-12.0,-14.0,30.17,1023.9,,,,,,,,,,,,,,,7/8 Mostly Cloudy,3600.0,,BKN,3700,,,,,,
KRDR,12-02-2005,03:00,METAR,,300,5.0,,,9999.0,,-11.0,-15.0,30.17,1023.8,,,,,,,,,,,,,,,7/8 Mostly Cloudy,3500.0,,BKN,3600,,,,,,
KRDR,12-02-2005,02:00,METAR,,310,7.0,,,9999.0,,-11.0,-17.0,30.17,1023.8,,,,,,,,,,,,,,,7/8 Mostly Cloudy,3500.0,,BKN,3600,,,,,,
KRDR,12-02-2005,01:42,SPECI,,320,6.0,,,9999.0,,-11.0,-17.0,30.17,,,,,,,,,,,,,,,,7/8 Mostly Cloudy,3500.0,,BKN,3600,,,,,,
KRDR,12-02-2005,01:00,METAR,,290,7.0,,,9999.0,,-11.0,-15.0,30.17,1023.9,,,,,,,,,,,,,,,8/8 Overcast,3400.0,,SCT,1300,OVC,3500.0,,,,
KRDR,12-02-2005,00:06,SPECI,,270,4.0,,,9999.0,,-11.0,-13.0,30.17,,,,,,,,,,,,,,,,8/8 Overcast,3000.0,,SCT,1300,OVC,3000.0,,,,
KRDR,12-02-2005,00:00,METAR,,300,3.0,,,8000.0,Light Snow,-11.0,-13.0,30.17,1024.1,,,,71,,,,,,,,,,,8/8 Overcast,3000.0,,SCT,1300,OVC,3000.0,,,,
KRDR,12-01-2005,23:44,SPECI,,320,5.0,,,4800.0,Light Snow,-11.0,-13.0,30.17,,,,,71,,,,,,,,,,,8/8 Overcast,3000.0,,SCT,1300,OVC,3000.0,,,,
KRDR,12-01-2005,23:00,METAR,,280,4.0,,,9999.0,,-11.0,-14.0,30.16,1023.9,,,,,,,,,,,,,,,7/8 Mostly Cloudy,3800.0,,FEW,600,BKN,3900.0,,,,
KRDR,12-01-2005,22:00,METAR,,280,8.0,,,9999.0,,-10.0,-16.0,30.16,1023.8,,,,,,,,,,,,,,,7/8 Mostly Cloudy,3800.0,,BKN,3900,,,,,,
KRDR,12-01-2005,20:00,METAR,,310,12.0,,,9999.0,,-10.0,-16.0,30.15,1023.5,,,,,,,,,,,,,,,7/8 Mostly Cloudy,3000.0,,BKN,3000,,,,,,
KRDR,12-01-2005,19:18,SPECI,,300,14.0,,,9999.0,,-10.0,-16.0,30.15,,,,,,,,,,,,,,,,7/8 Mostly Cloudy,3000.0,,BKN,3000,,,,,,
KRDR,12-01-2005,19:00,METAR,,290,9.0,,,9999.0,Light Snow,-10.0,-16.0,30.15,1023.6,,,,71,,,,,,,,,,,8/8 Overcast,3000.0,,OVC,3000,,,,,,
KRDR,12-01-2005,18:00,METAR,,310,10.0,,,9999.0,,-10.0,-16.0,30.16,1023.8,,,,,,,,,,,,,,,8/8 Overcast,3000.0,,OVC,3000,,,,,,
KRDR,12-01-2005,17:00,METAR,,320,11.0,,,9999.0,,-10.0,-17.0,30.17,1024.0,,,,,,,,,,,,,,,8/8 Overcast,3100.0,,OVC,3100,,,,,,
KRDR,12-01-2005,16:00,METAR,,320,12.0,,,9999.0,,-11.0,-17.0,30.17,1024.0,,,,,,,,,,,,,,,8/8 Overcast,3100.0,,OVC,3200,,,,,,
KRDR,12-01-2005,15:00,METAR,,290,9.0,,,9999.0,,-11.0,-17.0,30.17,1024.0,,,,,,,,,,,,,,,8/8 Overcast,3100.0,,OVC,3200,,,,,,
KRDR,12-01-2005,14:00,METAR,,270,5.0,,,9999.0,,-11.0,-16.0,30.16,1023.6,,,,,,,,,,,,,,,8/8 Overcast,3400.0,,OVC,3500,,,,,,
KRDR,12-01-2005,13:00,METAR,,260,4.0,,,9999.0,,-11.0,-16.0,30.13,1022.8,,,,,,,,,,,,,,,8/8 Overcast,3400.0,,OVC,3500,,,,,,
KRDR,12-01-2005,12:37,SPECI,,280,5.0,,,9999.0,,-11.0,-17.0,30.13,,,,,,,,,,,,,,,,8/8 Overcast,3400.0,,OVC,3500,,,,,,
KRDR,12-01-2005,12:00,METAR,,300,4.0,,,9999.0,Light Snow,-12.0,-16.0,30.13,1022.8,,,,71,,,,,,,,,.01 IN,.01 IN,8/8 Overcast,3400.0,,OVC,3500,,,,,,
KRDR,12-01-2005,11:00,METAR,,310,6.0,,,9999.0,Light Snow,-11.0,-16.0,30.14,1023.1,,,,71,,,,,,,,,,,8/8 Overcast,3900.0,,FEW,2000,OVC,4000.0,,,,
KRDR,12-01-2005,10:31,SPECI,,310,7.0,,,8000.0,Light Snow,-11.0,-16.0,30.14,,,,,71,,,,,,,,,,,8/8 Overcast,3400.0,,SCT,2400,OVC,3500.0,,,,
KRDR,12-01-2005,10:00,METAR,,320,6.0,,,4800.0,Light Snow,-11.0,-13.0,30.14,1023.0,,,,71,,,,,,,,,,,8/8 Overcast,1000.0,,BKN,1000,OVC,3500.0,,,,
KRDR,12-01-2005,09:46,SPECI,,320,5.0,,,3200.0,Light Snow,-11.0,-11.0,30.14,,,,,71,,,,,,,,,,,Sky Obscured (Unable to Estimate),1200.0,100.0,,1200,,,,,,
KRDR,12-01-2005,09:20,METAR,,260,2.0,,,9999.0,Light Snow,-11.0,-14.0,30.14,,,,,71,,,,,,,,,,,8/8 Overcast,3400.0,,SCT,2000,OVC,3500.0,,,,
KRDR,12-01-2005,09:00,METAR,,260,3.0,,,9999.0,,-11.0,-14.0,30.14,1023.0,,,,,,,,,,,,,,,8/8 Overcast,3900.0,,FEW,1500,OVC,4000.0,,,,
KRDR,12-01-2005,08:00,METAR,,260,3.0,,,9999.0,,-11.0,-15.0,30.14,1023.0,,,,,,,,,,,,,,,8/8 Overcast,3900.0,,FEW,2500,OVC,4000.0,,,,
KRDR,12-01-2005,07:00,METAR,,270,3.0,,,9999.0,,-12.0,-16.0,30.15,1023.2,,,,,,,,,,,,,,,8/8 Overcast,4400.0,,OVC,4500,,,,,,
KRDR,12-01-2005,06:00,METAR,,300,5.0,,,9999.0,,-11.0,-16.0,30.15,1023.1,,,,,,,,,,,,,TRACE,,7/8 Mostly Cloudy,3900.0,,BKN,4000,,,,,,
KRDR,12-01-2005,05:00,METAR,,300,7.0,,,9999.0,,-10.0,-15.0,30.14,1022.8,,,,,,,,,,,,,,,8/8 Overcast,3900.0,,OVC,4000,,,,,,
KRDR,12-01-2005,04:06,SPECI,,310,6.0,,,9999.0,,-9.0,-13.0,30.13,,,,,,,,,,,,,,,,8/8 Overcast,3900.0,,OVC,4000,,,,,,
KRDR,12-01-2005,04:00,METAR,,300,6.0,,,9999.0,Light Snow,-9.0,-13.0,30.12,1022.2,,,,71,,,,,,,,,,,8/8 Overcast,3900.0,,SCT,2600,OVC,4000.0,,,,
KRDR,12-01-2005,03:10,SPECI,,310,7.0,,,9999.0,Light Snow,-9.0,-13.0,30.13,,,,,71,,,,,,,,,,,8/8 Overcast,3400.0,,SCT,1500,OVC,3500.0,,,,
KRDR,12-01-2005,03:00,METAR,,320,5.0,,,9999.0,,-9.0,-13.0,30.11,1021.9,,,,,,,,,,,,,,,8/8 Overcast,3900.0,,SCT,2600,OVC,4000.0,,,,
KRDR,12-01-2005,02:00,METAR,,280,4.0,,,9999.0,,-10.0,-13.0,30.11,1022.0,,,,,,,,,,,,,,,7/8 Mostly Cloudy,3900.0,,BKN,4000,,,,,,
KRDR,12-01-2005,01:00,METAR,,300,4.0,,,9999.0,,-10.0,-14.0,30.12,1022.3,,,,,,,,,,,,,,,8/8 Overcast,4900.0,,OVC,5000,,,,,,
KRDR,12-01-2005,00:00,METAR,,320,8.0,,,9999.0,,-9.0,-12.0,30.09,1021.3,,,,,,,,,,,,,,,7/8 Mostly Cloudy,3000.0,,BKN,3000,BKN,7900.0,,,,
KRDR,11-30-2005,23:00,METAR,,330,6.0,,,9999.0,,-9.0,-12.0,30.09,1021.3,,,,,,,,,,,,,,,7/8 Mostly Cloudy,8000.0,,SCT,3300,BKN,7900.0,BKN,20000.0,,
KRDR,11-30-2005,22:15,SPECI,,330,5.0,,,9999.0,,-8.0,-12.0,30.06,,,,,,,,,,,,,,,,7/8 Mostly Cloudy,8000.0,,SCT,1500,BKN,7900.0,BKN,20000.0,,
KRDR,11-30-2005,22:02,SPECI,,320,6.0,,,9999.0,Light Snow,-8.0,-12.0,30.06,,,,,71,,,,,,,,,,,7/8 Mostly Cloudy,8000.0,,SCT,1500,BKN,7900.0,BKN,20000.0,,
KRDR,11-30-2005,22:00,METAR,,320,6.0,,,9999.0,,-8.0,-12.0,30.06,1020.2,,,,,,,,,,,,,,,7/8 Mostly Cloudy,8000.0,,SCT,1500,BKN,7900.0,BKN,20000.0,,
KRDR,11-30-2005,21:00,METAR,,320,8.0,,,9999.0,,-6.0,-13.0,30.03,1019.1,,,,,,,,,,,,,,,7/8 Mostly Cloudy,8000.0,,FEW,3000,SCT,7900.0,BKN,20000.0,,
KRDR,11-30-2005,20:00,METAR,,320,8.0,,,9999.0,,-6.0,-11.0,30.01,1018.3,,,,,,,,,,,,,,,7/8 Mostly Cloudy,8000.0,,SCT,3000,SCT,7900.0,BKN,15000.0,,
KRDR,11-30-2005,19:00,METAR,,330,7.0,,,9999.0,Light Snow,-6.0,-9.0,30.02,1018.5,,,,71,,,,,,,,,,,8/8 Overcast,3200.0,,FEW,1400,BKN,3300.0,OVC,5900.0,,
KRDR,11-30-2005,18:27,SPECI,,300,8.0,,,9999.0,Light Snow,-5.0,-9.0,30.02,,,,,71,,,,,,,,,,,8/8 Overcast,3200.0,,FEW,1500,BKN,3300.0,OVC,5900.0,,
KRDR,11-30-2005,18:17,SPECI,,280,9.0,,,9999.0,,-5.0,-9.0,30.02,,,,,,,,,,,,,,,,8/8 Overcast,3200.0,,FEW,1500,BKN,3300.0,OVC,5900.0,,
KRDR,11-30-2005,18:01,SPECI,,270,9.0,,,9999.0,Light Snow,-6.0,-9.0,30.01,,,,,71,,,,,,,,,,,8/8 Overcast,3200.0,,FEW,400,BKN,3300.0,OVC,5900.0,,
KRDR,11-30-2005,18:00,METAR,,250,8.0,,,9999.0,,-6.0,-9.0,30.01,1018.4,,,,,,,,,,,,,,,8/8 Overcast,3200.0,,BKN,3300,OVC,5900.0,,,,
KRDR,11-30-2005,17:39,SPECI,,270,6.0,,,9999.0,,-6.0,-9.0,30.01,,,,,,,,,,,,,,,,7/8 Mostly Cloudy,3200.0,,BKN,3300,BKN,4700.0,,,,
KRDR,11-30-2005,17:26,SPECI,,260,8.0,,,9999.0,,-6.0,-9.0,30.02,,,,,,,,,,,,,,,,7/8 Mostly Cloudy,3200.0,,FEW,2800,BKN,3300.0,BKN,4700.0,,
KRDR,11-30-2005,17:00,METAR,,260,7.0,,,9999.0,Light Snow,-6.0,-9.0,30.02,1018.7,,,,71,,,,,,,,,,,7/8 Mostly Cloudy,3200.0,,BKN,3300,BKN,4700.0,,,,
KRDR,11-30-2005,16:27,SPECI,,260,8.0,,,8000.0,Light Snow,-6.0,-10.0,30.01,,,,,71,,,,,,,,,,,8/8 Overcast,3200.0,,OVC,3300,,,,,,
KRDR,11-30-2005,16:00,METAR,,230,7.0,,,9999.0,,-6.0,-10.0,30.00,1018.0,,,,,,,,,,,,,,,8/8 Overcast,3800.0,,OVC,3900,,,,,,
KRDR,11-30-2005,15:00,METAR,,200,4.0,,,9999.0,,-8.0,-10.0,29.98,1017.6,,,,,,,,,,,,,,,8/8 Overcast,4400.0,,FEW,3300,OVC,4500.0,,,,
KRDR,11-30-2005,14:00,METAR,,180,4.0,,,9999.0,Light Snow,-8.0,-10.0,29.97,1017.5,,,,71,,,,,,,,,,,8/8 Overcast,3200.0,,OVC,3300,,,,,,
KRDR,11-30-2005,13:00,METAR,,180,3.0,,,9999.0,Light Snow,-8.0,-10.0,29.96,1017.1,,,,71,,,,,,,,,,,8/8 Overcast,3400.0,,FEW,2500,OVC,3500.0,,,,
KRDR,11-30-2005,12:00,METAR,,,0.0,,,9999.0,Light Snow,-9.0,-11.0,29.96,1017.0,,,,71,,,,,,,,,TRACE,.08 IN,8/8 Overcast,3900.0,,FEW,2500,OVC,4000.0,,,,
KRDR,11-30-2005,11:00,METAR,,130,3.0,,,9999.0,,-9.0,-11.0,29.95,1016.6,,,,,,,,,,,,,,,8/8 Overcast,3900.0,,OVC,4000,,,,,,
KRDR,11-30-2005,08:00,METAR,,,2.0,,,9999.0,,-9.0,-11.0,29.94,1016.1,,,,,,,,,,,,,,,8/8 Overcast,3900.0,,OVC,4000,,,,,,
KRDR,11-30-2005,07:00,METAR,,150,2.0,,,9999.0,,-9.0,-12.0,29.95,1016.3,,,,,,,,,,,,,,,8/8 Overcast,3900.0,,FEW,1600,OVC,4000.0,,,,
KRDR,11-30-2005,06:00,METAR,,180,3.0,,,9999.0,,-10.0,-12.0,29.94,1016.1,,,,,,,,,,,,,,,8/8 Overcast,3900.0,,SCT,1600,OVC,4000.0,,,,
KRDR,11-30-2005,05:00,METAR,,200,3.0,,,9999.0,,-13.0,-15.0,29.94,1016.1,,,,,,,,,,,,,,,7/8 Mostly Cloudy,3900.0,,SCT,2200,BKN,4000.0,,,,
KRDR,11-30-2005,04:00,METAR,,200,3.0,,,9999.0,,-15.0,-18.0,29.94,1016.2,,,,,,,,,,,,,,,2/8 Mostly Clear,72000.0,,FEW,2500,,,,,,
KRDR,11-30-2005,03:00,METAR,,210,3.0,,,9999.0,,-15.0,-17.0,29.93,1016.0,,,,,,,,,,,,,,,Clear,72000.0,,,73000,,,,,,
KRDR,11-30-2005,02:00,METAR,,230,4.0,,,9999.0,,-16.0,-18.0,29.93,1015.9,,,,,,,,,,,,,,,2/8 Mostly Clear,72000.0,,FEW,3000,FEW,20000.0,,,,
KRDR,11-30-2005,01:00,METAR,,260,4.0,,,9999.0,,-15.0,-17.0,29.93,1015.8,,,,,,,,,,,,,,,2/8 Mostly Clear,72000.0,,FEW,3000,FEW,20000.0,,,,
KRDR,11-30-2005,00:00,METAR,,300,6.0,,,9999.0,,-11.0,-15.0,29.93,1015.7,,,,,,,,,,,,,.05 IN,,2/8 Mostly Clear,72000.0,,FEW,3000,FEW,9900.0,,,,
KRDR,11-29-2005,23:00,METAR,,310,8.0,,,9999.0,,-9.0,-14.0,29.93,1015.6,,,,,,,,,,,,,,,2/8 Mostly Clear,72000.0,,FEW,3000,FEW,9900.0,,,,
KRDR,11-29-2005,22:00,METAR,,310,9.0,,,9999.0,,-8.0,-13.0,29.91,1014.9,,,,,,,,,,,,,,,4/8 Partly Cloudy,72000.0,,FEW,1300,SCT,9900.0,,,,
KRDR,11-29-2005,21:00,METAR,,320,13.0,,,9999.0,,-7.0,-11.0,29.88,1013.8,,,,,,,,,,,,.06 IN,,,4/8 Partly Cloudy,72000.0,,SCT,1000,SCT,20000.0,,,,
KRDR,11-29-2005,20:31,SPECI,,320,10.0,,,9999.0,,-7.0,-11.0,29.88,,,,,,,,,,,,,,,,7/8 Mostly Cloudy,3000.0,,FEW,1000,SCT,3000.0,BKN,20000.0,,
KRDR,11-29-2005,20:17,SPECI,,320,14.0,,,4800.0,Light Snow,-7.0,-11.0,29.87,,,,,71,,,,,,,,,,,8/8 Overcast,3000.0,,SCT,1300,OVC,3000.0,,,,
KRDR,11-29-2005,20:00,METAR,,320,13.0,,,9999.0,,-7.0,-11.0,29.87,1013.5,,,,,,,,,,,,,,,8/8 Overcast,3200.0,,SCT,2400,OVC,3300.0,,,,
KRDR,11-29-2005,19:14,SPECI,,320,17.0,,,9999.0,,-7.0,-10.0,29.86,,,,,,,,,,,,,,,,7/8 Mostly Cloudy,3000.0,,SCT,1000,BKN,3000.0,,,,
KRDR,11-29-2005,19:00,METAR,,330,15.0,,,1600.0,Light Snow,-7.0,-10.0,29.86,1013.1,,,,71,,,,,,,,,,,8/8 Overcast,1000.0,,OVC,1000,,,,,,
KRDR,11-29-2005,18:22,SPECI,,310,13.0,,,1600.0,Light Snow,-7.0,-10.0,29.86,,,,,71,,,,,,,,,,,8/8 Overcast,1000.0,,OVC,1000,,,,,,
KRDR,11-29-2005,18:08,SPECI,,340,10.0,,,3200.0,Light Snow,-7.0,-10.0,29.86,,,,,71,,,,,,,,,,,8/8 Overcast,1000.0,,BKN,1000,OVC,3000.0,,,,
KRDR,11-29-2005,18:00,METAR,,340,13.0,,,1600.0,Light Snow,-7.0,-10.0,29.86,1013.1,,,,71,,,,,,,,,.03 IN,,8/8 Overcast,1000.0,,BKN,1000,OVC,3000.0,,,,
KRDR,11-29-2005,17:07,SPECI,,340,17.0,,,1600.0,Light Snow,-7.0,-11.0,29.86,,,,,71,,,,,,,,,,,8/8 Overcast,1400.0,,OVC,1400,,,,,,
KRDR,11-29-2005,17:00,METAR,,330,15.0,,,9999.0,Light Snow,-7.0,-11.0,29.85,1012.7,,,,71,,,,,,,,,,,8/8 Overcast,1400.0,,OVC,1400,,,,,,
KRDR,11-29-2005,16:37,SPECI,,340,17.0,,,4800.0,Light Snow,-7.0,-11.0,29.85,,,,,71,,,,,,,,,,,8/8 Overcast,1100.0,,OVC,1100,,,,,,
KRDR,11-29-2005,16:00,METAR,,330,14.0,,,9999.0,,-8.0,-11.0,29.85,1012.8,,,,,,,,,,,,,,,7/8 Mostly Cloudy,3000.0,,FEW,1100,SCT,3000.0,BKN,25000.0,,
KRDR,11-29-2005,15:00,METAR,,330,18.0,,,9999.0,,-8.0,-11.0,29.82,1011.7,,,,,,,,,,,,TRACE,,,7/8 Mostly Cloudy,3100.0,,SCT,1500,SCT,3100.0,BKN,25000.0,,
KRDR,11-29-2005,14:32,SPECI,,320,11.0,,,8000.0,Light Snow,-8.0,-11.0,29.82,,,,,71,,,,,,,,,,,7/8 Mostly Cloudy,3100.0,,SCT,1500,BKN,3100.0,,,,
KRDR,11-29-2005,14:00,METAR,,330,10.0,,,8000.0,Light Snow,-9.0,-11.0,29.81,1011.6,,,,71,,,,,,,,,,,7/8 Mostly Cloudy,1400.0,,BKN,1400,,,,,,
KRDR,11-29-2005,13:00,METAR,,350,13.0,19.0,,6400.0,Light Snow/Blowing Snow,-8.0,-10.0,29.79,1010.7,,,,71,38,,,,,,,,,,7/8 Mostly Cloudy,1400.0,,BKN,1400,,,,,,
KRDR,11-29-2005,12:00,METAR,,350,22.0,28.0,350/31KTS,6400.0,Light Snow/Blowing Snow,-8.0,-11.0,29.77,1008.9,,,,71,38,,,,,,,,TRACE,.02 IN,7/8 Mostly Cloudy,1400.0,,BKN,1400,,,,,,
KRDR,11-29-2005,11:00,METAR,,340,19.0,28.0,350/31KTS,6400.0,Light Snow/Blowing Snow,-8.0,-11.0,29.75,1008.9,,,,71,38,,,,,,,,,,8/8 Overcast,1400.0,,OVC,1400,,,,,,
KRDR,11-29-2005,10:12,SPECI,,330,22.0,29.0,,6400.0,Light Snow/Blowing Snow,-8.0,-11.0,29.73,,,,,71,38,,,,,,,,,,8/8 Overcast,1400.0,,OVC,1400,,,,,,
KRDR,11-29-2005,10:00,METAR,,330,22.0,26.0,340/31KTS,9999.0,Blowing Snow,-8.0,-12.0,29.72,1008.2,,,,38,,,,,,,,,,,7/8 Mostly Cloudy,1400.0,,BKN,1400,,,,,,
KRDR,11-29-2005,09:39,SPECI,,330,23.0,28.0,,9999.0,Blowing Snow,-9.0,-12.0,29.72,,,,,38,,,,,,,,,,,7/8 Mostly Cloudy,1400.0,,BKN,1400,,,,,,
KRDR,11-29-2005,09:00,METAR,,330,23.0,28.0,340/37KTS,9999.0,Blowing Snow,-9.0,-12.0,29.72,1008.1,,,,38,,,,,,,,,,,4/8 Partly Cloudy,72000.0,,SCT,1400,,,,,,
KRDR,11-29-2005,08:41,SPECI,,330,22.0,31.0,,8000.0,Blowing Snow,-9.0,-12.0,29.71,,,,,38,,,,,,,,,,,4/8 Partly Cloudy,72000.0,,SCT,1400,,,,,,
KRDR,11-29-2005,08:00,METAR,,330,24.0,31.0,340/34KTS,6400.0,Blowing Snow,-9.0,-12.0,29.70,1007.6,,,,38,,,,,,,,,,,7/8 Mostly Cloudy,1400.0,,BKN,1400,,,,,,
KRDR,11-29-2005,07:00,METAR,,330,25.0,33.0,340/37KTS,6400.0,Blowing Snow,-9.0,-12.0,29.70,1007.5,,,,38,,,,,,,,,,,7/8 Mostly Cloudy,1400.0,,BKN,1400,,,,,,
KRDR,11-29-2005,06:03,SPECI,,340,26.0,31.0,,1600.0,Blowing Snow,-9.0,-11.0,29.69,,,,,38,,,,,,,,,,,8/8 Overcast,1300.0,,OVC,1300,,,,,,
KRDR,11-29-2005,06:00,METAR,,330,27.0,32.0,350/39KTS,800.0,Blowing Snow,-9.0,-11.0,29.69,1007.2,,,,38,,,,,,,,,.02 IN,,8/8 Overcast,1300.0,,OVC,1300,,,,,,
KRDR,11-29-2005,05:46,SPECI,,340,26.0,31.0,,1200.0,Blowing Snow,-8.0,-11.0,29.69,,,,,38,,,,,,,,,,,8/8 Overcast,1300.0,,OVC,1300,,,,,,
KRDR,11-29-2005,05:42,SPECI,,340,25.0,33.0,,400.0,Blowing Snow,-8.0,-11.0,29.69,,,,,38,,,,,,,,,,,8/8 Overcast,1200.0,,OVC,1200,,,,,,
KRDR,11-29-2005,05:17,SPECI,,330,27.0,33.0,,1600.0,Blowing Snow,-8.0,-11.0,29.68,,,,,38,,,,,,,,,,,8/8 Overcast,1400.0,,OVC,1400,,,,,,
KRDR,11-29-2005,05:06,SPECI,,330,26.0,35.0,,400.0,Blowing Snow,-8.0,-11.0,29.68,,,,,38,,,,,,,,,,,Sky Obscured (Unable to Estimate),900.0,100.0,,900,,,,,,
KRDR,11-29-2005,05:00,METAR,,350,28.0,40.0,340/40KTS,1600.0,Blowing Snow,-8.0,-11.0,29.68,1006.8,,,,38,,,,,,,,,,,8/8 Overcast,1300.0,,SCT,900,OVC,1300.0,,,,
KRDR,11-29-2005,04:11,SPECI,,330,25.0,32.0,,1600.0,Blowing Snow,-8.0,-11.0,29.68,,,,,38,,,,,,,,,,,8/8 Overcast,1300.0,,OVC,1300,,,,,,
KRDR,11-29-2005,04:00,METAR,,340,28.0,33.0,340/38KTS,1200.0,Snow/Blowing Snow,-8.0,-10.0,29.67,1006.6,,,,73,38,,,,,,,,,,Sky Obscured (Unable to Estimate),900.0,100.0,,900,,,,,,
KRDR,11-29-2005,03:48,SPECI,,330,27.0,33.0,,800.0,Snow/Blowing Snow,-8.0,-10.0,29.67,,,,,73,38,,,,,,,,,,Sky Obscured (Unable to Estimate),600.0,100.0,,600,,,,,,
KRDR,11-29-2005,03:45,METAR,,330,27.0,33.0,,400.0,Snow/Blowing Snow,-8.0,-10.0,29.67,,,,,73,38,,,,,,,,,,Sky Obscured (Unable to Estimate),600.0,100.0,,600,,,,,,
KRDR,11-29-2005,03:21,SPECI,,330,27.0,36.0,,800.0,Snow/Blowing Snow,-8.0,-11.0,29.67,,,,,73,38,,,,,,,,,,8/8 Overcast,1200.0,,SCT,900,OVC,1200.0,,,,
KRDR,11-29-2005,03:20,METAR,,330,27.0,36.0,,800.0,Snow/Blowing Snow,-8.0,-11.0,29.67,,,,,73,38,,,,,,,,,,8/8 Overcast,1200.0,,SCT,900,OVC,1200.0,,,,
KRDR,11-29-2005,03:05,SPECI,,340,25.0,36.0,,1200.0,Blowing Snow,-8.0,-11.0,29.67,,,,,38,,,,,,,,,,,8/8 Overcast,1200.0,,SCT,900,OVC,1200.0,,,,
KRDR,11-29-2005,03:00,METAR,,340,29.0,36.0,340/39KTS,4800.0,Blowing Snow,-8.0,-11.0,29.67,1006.5,,,,38,,,,,,,,,,,8/8 Overcast,1500.0,,SCT,900,OVC,1500.0,,,,
KRDR,11-29-2005,02:00,METAR,,340,27.0,38.0,350/41KTS,6400.0,Blowing Snow,-8.0,-12.0,29.65,1005.7,,,,38,,,,,,,,,,,8/8 Overcast,1800.0,,SCT,900,OVC,1800.0,,,,
KRDR,11-29-2005,01:00,METAR,,340,27.0,35.0,350/40KTS,4800.0,Blowing Snow,-8.0,-11.0,29.64,1005.5,,,,38,,,,,,,,,,,8/8 Overcast,1800.0,,SCT,900,OVC,1800.0,,,,
KRDR,11-29-2005,00:00,METAR,,340,30.0,38.0,,1200.0,Blowing Snow,-9.0,-11.0,29.65,1006.0,,,,38,,,,,,,,,,,7/8 Mostly Cloudy,900.0,,BKN,900,,,,,,
KRDR,11-28-2005,23:00,METAR,,340,33.0,40.0,340/42KTS,800.0,Blowing Snow,-9.0,-12.0,29.65,1006.0,,,,38,,,,,,,,,,,7/8 Mostly Cloudy,900.0,,BKN,900,,,,,,
KRDR,11-28-2005,22:00,METAR,,340,33.0,40.0,,800.0,Blowing Snow,-10.0,-12.0,29.65,1006.0,,,,38,,,,,,,,,,,8/8 Overcast,900.0,,OVC,900,,,,,,
KRDR,11-28-2005,21:00,METAR,,340,28.0,40.0,,800.0,Blowing Snow,-9.0,-12.0,29.65,1006.4,,,,38,,,,,,,,,,,8/8 Overcast,900.0,,OVC,900,,,,,,
KRDR,11-28-2005,20:00,METAR,,340,27.0,34.0,,1600.0,Blowing Snow,-9.0,-11.0,29.66,1006.4,,,,38,,,,,,,,,,,8/8 Overcast,500.0,,BKN,500,OVC,1200.0,,,,
KRDR,11-28-2005,19:00,METAR,,360,28.0,39.0,,1200.0,Blowing Snow,-9.0,-12.0,29.68,1007.0,,,,38,,,,,,,,,,,8/8 Overcast,500.0,,BKN,500,OVC,1500.0,,,,
KRDR,11-28-2005,17:00,METAR,,360,26.0,36.0,,1600.0,Light Snow/Blowing Snow,-9.0,-11.0,29.71,1008.1,,,,71,38,,,,,,,,,,8/8 Overcast,800.0,,BKN,800,OVC,1500.0,,,,
KRDR,11-28-2005,16:00,METAR,,360,27.0,36.0,,1600.0,Blowing Snow,-8.0,-9.0,29.75,1009.5,,,,38,,,,,,,,,,,8/8 Overcast,800.0,,BKN,800,OVC,1500.0,,,,
KRDR,11-28-2005,15:00,METAR,,350,25.0,36.0,,1600.0,Blowing Snow,-8.0,-9.0,29.76,1009.8,,,,38,,,,,,,,.01 IN,,,8/8 Overcast,800.0,,BKN,800,OVC,1500.0,,,,
KRDR,11-28-2005,14:00,METAR,,360,25.0,33.0,350/35KTS,2400.0,Blowing Snow,-7.0,-9.0,29.77,1010.1,,,,38,,,,,,,,,,,8/8 Overcast,1000.0,,SCT,600,BKN,1000.0,OVC,2000.0,,
KRDR,11-28-2005,13:00,METAR,,350,23.0,34.0,340/36KTS,2400.0,Light Snow/Blowing Snow,-6.0,-7.0,29.75,1008.8,,,,71,38,,,,,,,,,,8/8 Overcast,800.0,,OVC,800,,,,,,
KRDR,11-28-2005,12:22,SPECI,,350,23.0,31.0,,2400.0,Light Snow/Blowing Snow,-5.0,-7.0,29.75,,,,,71,38,,,,,,,,,,8/8 Overcast,700.0,,OVC,700,,,,,,
KRDR,11-28-2005,12:02,SPECI,,350,23.0,29.0,,4800.0,Light Snow/Blowing Snow,-5.0,-7.0,29.76,,,,,71,38,,,,,,,,,,8/8 Overcast,1000.0,,OVC,1000,,,,,,
KRDR,11-28-2005,12:00,METAR,,350,23.0,30.0,350/32KTS,4800.0,Light Snow/Blowing Snow,-5.0,-7.0,29.76,1009.2,,,,71,38,,,,,,,,.12 IN,.16 IN,8/8 Overcast,1000.0,,OVC,1000,,,,,,
KRDR,11-28-2005,11:00,METAR,,350,21.0,27.0,350/30KTS,6400.0,Light Snow/Blowing Snow,-5.0,-6.0,29.77,1009.5,,,,71,38,,,,,,,,,,8/8 Overcast,1100.0,,OVC,1100,,,,,,
KRDR,11-28-2005,10:00,METAR,,350,21.0,28.0,350/28KTS,4800.0,Light Snow/Blowing Snow,-5.0,-6.0,29.77,1009.4,,,,71,38,,,,,,,,,,8/8 Overcast,1100.0,,OVC,1100,,,,,,
KRDR,11-28-2005,09:00,METAR,,350,19.0,27.0,350/28KTS,4800.0,Light Snow/Blowing Snow,-5.0,-6.0,29.77,1009.6,,,,71,38,,,,,,,.06 IN,,,8/8 Overcast,1000.0,,OVC,1000,,,,,,
KRDR,11-28-2005,08:37,SPECI,,350,22.0,,,8000.0,Light Snow/Blowing Snow,-5.0,-6.0,29.77,,,,,71,38,,,,,,,,,,8/8 Overcast,1200.0,,SCT,900,OVC,1200.0,,,,
KRDR,11-28-2005,08:08,SPECI,,350,20.0,26.0,,3200.0,Light Snow/Blowing Snow,-5.0,-6.0,29.76,,,,,71,38,,,,,,,,,,8/8 Overcast,1400.0,,SCT,900,OVC,1400.0,,,,
KRDR,11-28-2005,06:48,SPECI,,350,19.0,25.0,,1200.0,Snow/Blowing Snow/Drifting Snow,-4.0,-6.0,29.77,,,,,73,38,36,,,,,,,,,Sky Obscured (Unable to Estimate),600.0,100.0,,600,,,,,,
KRDR,11-28-2005,06:44,SPECI,,350,19.0,25.0,,800.0,Heavy Snow/Heavy Blowing Snow/Heavy Drifting Snow,-4.0,-6.0,29.77,,,,,75,39,37,,,,,,,,,Sky Obscured (Unable to Estimate),600.0,100.0,,600,,,,,,
KRDR,11-28-2005,06:32,SPECI,,350,19.0,26.0,,200.0,Heavy Snow/Heavy Blowing Snow/Heavy Drifting Snow,-4.0,-6.0,29.77,,,,,75,39,37,,,,,,,,,Sky Obscured (Unable to Estimate),500.0,100.0,,500,,,,,,
KRDR,11-28-2005,06:23,SPECI,,350,16.0,24.0,,400.0,Snow/Blowing Snow,-4.0,-6.0,29.77,,,,,73,38,,,,,,,,,,Sky Obscured (Unable to Estimate),800.0,100.0,,800,,,,,,
KRDR,11-28-2005,06:20,METAR,,350,16.0,24.0,,400.0,Snow/Blowing Snow,-4.0,-6.0,29.77,,,,,73,38,,,,,,,,,,Sky Obscured (Unable to Estimate),800.0,100.0,,800,,,,,,
KRDR,11-28-2005,06:00,METAR,,350,18.0,25.0,020/28KTS,1200.0,Light Snow/Blowing Snow,-4.0,-6.0,29.78,1009.8,,,,71,38,,,,,,,,.04 IN,,8/8 Overcast,1200.0,,OVC,1200,,,,,,
KRDR,11-28-2005,05:40,SPECI,,350,18.0,25.0,,1200.0,Light Snow,-4.0,-6.0,29.77,,,,,71,,,,,,,,,,,8/8 Overcast,1200.0,,OVC,1200,,,,,,
KRDR,11-28-2005,05:16,SPECI,,350,18.0,25.0,,2400.0,Light Snow,-4.0,-6.0,29.77,,,,,71,,,,,,,,,,,8/8 Overcast,1200.0,,OVC,1200,,,,,,
KRDR,11-28-2005,05:00,METAR,,360,19.0,25.0,350/27KTS,6400.0,Snow Grains/Light Snow,-4.0,-6.0,29.76,1009.3,,,,77,71,,,,,,,,,,8/8 Overcast,1500.0,,OVC,1500,,,,,,
KRDR,11-28-2005,04:45,METAR,,350,18.0,25.0,,4800.0,Snow Grains/Light Snow,-4.0,-6.0,29.77,,,,,77,71,,,,,,,,,,8/8 Overcast,1700.0,,OVC,1700,,,,,,
KRDR,11-28-2005,04:08,SPECI,,350,19.0,27.0,,2400.0,Snow Grains/Light Snow,-5.0,-7.0,29.76,,,,,77,71,,,,,,,,,,8/8 Overcast,2000.0,,OVC,2000,,,,,,
KRDR,11-28-2005,04:04,SPECI,,350,19.0,26.0,,2400.0,Snow Grains/Light Snow,-5.0,-7.0,29.76,,,,,77,71,,,,,,,,,,8/8 Overcast,2000.0,,OVC,2000,,,,,,
KRDR,11-28-2005,04:00,METAR,,350,17.0,25.0,360/26KTS,4800.0,Snow Grains/Light Snow,-5.0,-7.0,29.77,1009.5,,,,77,71,,,,,,,,,,8/8 Overcast,2100.0,,OVC,2100,,,,,,
KRDR,11-28-2005,03:36,SPECI,,350,18.0,25.0,,4800.0,Snow Grains,-4.0,-7.0,29.76,,,,,77,,,,,,,,,,,8/8 Overcast,1800.0,,OVC,1800,,,,,,
KRDR,11-28-2005,03:19,SPECI,,350,18.0,25.0,,8000.0,Snow/Freezing Drizzle,-4.0,-7.0,29.76,,,,,56,73,,,,,,,,,,8/8 Overcast,2000.0,,OVC,2000,,,,,,
KRDR,11-28-2005,03:00,METAR,,350,18.0,24.0,,8000.0,Snow/Light Freezing Rain,-4.0,-7.0,29.76,1009.7,,,,66,73,,,,,,,.02 IN,,,8/8 Overcast,2000.0,,OVC,2000,,,,,,
KRDR,11-28-2005,02:12,SPECI,,350,16.0,24.0,,9999.0,Snow/Light Freezing Rain,-4.0,-8.0,29.75,,,,,66,73,,,,,,,,,,8/8 Overcast,1500.0,,OVC,1500,,,,,,
KRDR,11-28-2005,02:00,METAR,,350,15.0,24.0,,9999.0,,-4.0,-8.0,29.75,1009.2,,,,,,,,,,,,,,,8/8 Overcast,1600.0,,OVC,1600,,,,,,
KRDR,11-28-2005,01:31,SPECI,,350,17.0,23.0,,9999.0,,-4.0,-8.0,29.75,,,,,,,,,,,,,,,,8/8 Overcast,1700.0,,OVC,1700,,,,,,
KRDR,11-28-2005,01:13,SPECI,,350,15.0,23.0,,9999.0,Snow/Freezing Drizzle,-4.0,-8.0,29.75,,,,,56,73,,,,,,,,,,8/8 Overcast,1500.0,,OVC,1500,,,,,,
KRDR,11-28-2005,01:00,METAR,,350,15.0,21.0,,9999.0,,-4.0,-8.0,29.75,1009.0,,,,,,,,,,,,,,,8/8 Overcast,1400.0,,OVC,1400,,,,,,
KRDR,11-28-2005,00:28,SPECI,,350,15.0,23.0,,9999.0,,-4.0,-8.0,29.73,,,,,,,,,,,,,,,,8/8 Overcast,1500.0,,OVC,1500,,,,,,
KRDR,11-28-2005,00:00,METAR,,350,18.0,,,9999.0,,-4.0,-8.0,29.72,1008.4,,,,,,,,,,,,,,,8/8 Overcast,1500.0,,OVC,1500,,,,,,
KRDR,11-27-2005,23:00,METAR,,350,16.0,23.0,,9999.0,,-3.0,-7.0,29.71,1007.7,,,,,,,,,,,,,,,8/8 Overcast,1600.0,,OVC,1600,,,,,,
KRDR,11-27-2005,22:00,METAR,,350,15.0,,,9999.0,,-3.0,-7.0,29.70,1007.6,,,,,,,,,,,,,,,8/8 Overcast,1800.0,,BKN,1800,OVC,20000.0,,,,
KRDR,11-27-2005,21:00,METAR,,350,12.0,,,9999.0,,-2.0,-7.0,29.67,1006.3,,,,,,,,,,,,,,,8/8 Overcast,2000.0,,BKN,2000,OVC,20000.0,,,,
KRDR,11-27-2005,20:00,METAR,,360,12.0,,,9999.0,,-3.0,-7.0,29.67,1006.5,,,,,,,,,,,,,,,8/8 Overcast,2000.0,,BKN,2000,OVC,20000.0,,,,
KRDR,11-27-2005,19:00,METAR,,360,13.0,,,9999.0,,-2.0,-7.0,29.67,1006.4,,,,,,,,,,,,,,,8/8 Overcast,2500.0,,BKN,2500,OVC,20000.0,,,,
KRDR,11-27-2005,18:00,METAR,,350,13.0,,,9999.0,,-3.0,-7.0,29.67,1006.5,,,,,,,,,,,,,,,7/8 Mostly Cloudy,2800.0,,BKN,2800,BKN,20000.0,,,,
KRDR,11-27-2005,17:45,METAR,,350,15.0,,,9999.0,,-3.0,-7.0,29.67,,,,,,,,,,,,,,,,8/8 Overcast,2600.0,,BKN,2600,OVC,20000.0,,,,
KRDR,11-27-2005,17:00,METAR,,350,12.0,,,9999.0,,-4.0,-7.0,29.68,1006.7,,,,,,,,,,,,,,,7/8 Mostly Cloudy,20000.0,,BKN,20000,,,,,,
KRDR,11-27-2005,16:00,METAR,,10,9.0,,,9999.0,,-5.0,-8.0,29.67,1006.6,,,,,,,,,,,,,,,7/8 Mostly Cloudy,25000.0,,FEW,15000,BKN,25000.0,,,,
KRDR,11-27-2005,15:00,METAR,,340,7.0,,,9999.0,,-7.0,-9.0,29.67,1006.7,,,,,,,,,,,,,,,7/8 Mostly Cloudy,25000.0,,FEW,15000,BKN,25000.0,,,,
KRDR,11-27-2005,14:00,METAR,,320,5.0,,,9999.0,,-9.0,-11.0,29.65,1005.9,,,,,,,,,,,,,,,4/8 Partly Cloudy,72000.0,,FEW,15000,SCT,25000.0,,,,
KRDR,11-27-2005,13:00,METAR,,,0.0,,,9999.0,,-9.0,-10.0,29.64,1005.6,,,,,,,,,,,,,,,7/8 Mostly Cloudy,20000.0,,SCT,15000,BKN,20000.0,,,,
KRDR,11-27-2005,12:00,METAR,,330,2.0,,,9999.0,,-8.0,-10.0,29.63,1005.3,,,,,,,,,,,,,,,4/8 Partly Cloudy,72000.0,,SCT,15000,,,,,,
KRDR,11-27-2005,11:00,METAR,,40,3.0,,,9999.0,,-6.0,-9.0,29.61,1004.5,,,,,,,,,,,,,,,4/8 Partly Cloudy,72000.0,,SCT,15000,,,,,,
KRDR,11-27-2005,10:00,METAR,,40,4.0,,,9999.0,,-6.0,-8.0,29.61,1004.5,,,,,,,,,,,,,,,4/8 Partly Cloudy,72000.0,,SCT,15000,,,,,,
KRDR,11-27-2005,09:00,METAR,,30,4.0,,,9999.0,,-6.0,-8.0,29.62,1004.8,,,,,,,,,,,,,,,4/8 Partly Cloudy,72000.0,,SCT,15000,,,,,,
KRDR,11-27-2005,08:00,METAR,,50,2.0,,,9999.0,,-5.0,-8.0,29.62,1004.8,,,,,,,,,,,,,,,4/8 Partly Cloudy,72000.0,,SCT,15000,,,,,,
KRDR,11-27-2005,07:00,METAR,,90,3.0,,,9999.0,,-5.0,-8.0,29.62,1004.8,,,,,,,,,,,,,,,4/8 Partly Cloudy,72000.0,,SCT,15000,,,,,,
KRDR,11-27-2005,06:00,METAR,,60,2.0,,,9999.0,,-5.0,-8.0,29.64,1005.5,,,,,,,,,,,,,,,8/8 Overcast,15000.0,,OVC,15000,,,,,,
KRDR,11-27-2005,05:00,METAR,,120,2.0,,,9999.0,,-5.0,-8.0,29.64,1005.5,,,,,,,,,,,,,,,8/8 Overcast,15000.0,,OVC,15000,,,,,,
KRDR,11-27-2005,04:00,METAR,,130,3.0,,,9999.0,,-5.0,-8.0,29.65,1005.8,,,,,,,,,,,,,,,7/8 Mostly Cloudy,15000.0,,BKN,15000,,,,,,
KRDR,11-27-2005,03:00,METAR,,140,2.0,,,9999.0,,-5.0,-8.0,29.64,1005.5,,,,,,,,,,,,,,,7/8 Mostly Cloudy,20000.0,,BKN,20000,,,,,,
KRDR,11-27-2005,02:00,METAR,,,0.0,,,9999.0,,-6.0,-9.0,29.64,1005.6,,,,,,,,,,,,,,,4/8 Partly Cloudy,72000.0,,SCT,20000,,,,,,
KRDR,11-27-2005,01:00,METAR,,120,2.0,,,9999.0,,-7.0,-9.0,29.63,1005.3,,,,,,,,,,,,,,,4/8 Partly Cloudy,72000.0,,SCT,20000,,,,,,
KRDR,11-27-2005,00:00,METAR,,160,3.0,,,9999.0,,-6.0,-10.0,29.63,1005.3,,,,,,,,,,,,,,,7/8 Mostly Cloudy,20000.0,,BKN,20000,,,,,,
KRDR,11-26-2005,23:00,METAR,,180,9.0,14.0,,9999.0,,-5.0,-10.0,29.63,1005.1,,,,,,,,,,,,,,,7/8 Mostly Cloudy,20000.0,,BKN,20000,,,,,,
KRDR,11-26-2005,22:00,METAR,,170,13.0,,,9999.0,,-4.0,-10.0,29.62,1004.9,,,,,,,,,,,,,,,7/8 Mostly Cloudy,20000.0,,BKN,20000,,,,,,
KRDR,11-26-2005,21:00,METAR,,160,9.0,,,9999.0,,-4.0,-10.0,29.62,1004.9,,,,,,,,,,,,,,,7/8 Mostly Cloudy,20000.0,,BKN,20000,,,,,,
KRDR,11-26-2005,20:00,METAR,,150,12.0,,,9999.0,,-5.0,-10.0,29.65,1006.0,,,,,,,,,,,,,,,7/8 Mostly Cloudy,20000.0,,BKN,20000,,,,,,
KRDR,11-26-2005,19:00,METAR,,160,13.0,20.0,,9999.0,,-5.0,-10.0,29.68,1006.8,,,,,,,,,,,,,,,4/8 Partly Cloudy,72000.0,,SCT,20000,,,,,,
KRDR,11-26-2005,18:00,METAR,,160,15.0,,,9999.0,,-5.0,-10.0,29.71,1007.9,,,,,,,,,,,,,,,2/8 Mostly Clear,72000.0,,FEW,20000,,,,,,
KRDR,11-26-2005,17:00,METAR,,160,16.0,,,9999.0,,-6.0,-10.0,29.73,1008.8,,,,,,,,,,,,,,,2/8 Mostly Clear,72000.0,,FEW,4000,FEW,20000.0,,,,
KRDR,11-26-2005,16:00,METAR,,160,15.0,20.0,,9999.0,,-7.0,-11.0,29.76,1009.7,,,,,,,,,,,,,,,4/8 Partly Cloudy,72000.0,,FEW,3500,SCT,6900.0,,,,
KRDR,11-26-2005,15:00,METAR,,150,8.0,,,9999.0,,-9.0,-11.0,29.77,1010.3,,,,,,,,,,,,,,,2/8 Mostly Clear,72000.0,,FEW,3500,FEW,6900.0,,,,
KRDR,11-26-2005,14:00,METAR,,170,8.0,,,9999.0,,-10.0,-12.0,29.77,1010.3,,,,,,,,,,,,,,,4/8 Partly Cloudy,72000.0,,FEW,3500,SCT,6900.0,,,,
KRDR,11-26-2005,13:00,METAR,,150,9.0,,,9999.0,,-8.0,-11.0,29.79,1010.8,,,,,,,,,,,,,,,8/8 Overcast,3400.0,,OVC,3500,,,,,,
KRDR,11-26-2005,12:00,METAR,,150,12.0,,,9999.0,,-8.0,-11.0,29.80,1011.1,,,,,,,,,,,,,,,8/8 Overcast,4000.0,,OVC,4100,,,,,,
KRDR,11-26-2005,11:00,METAR,,150,11.0,,,9999.0,,-8.0,-11.0,29.82,1011.8,,,,,,,,,,,,,,,8/8 Overcast,8000.0,,OVC,7900,,,,,,
KRDR,11-26-2005,10:00,METAR,,150,9.0,,,9999.0,,-8.0,-11.0,29.84,1012.5,,,,,,,,,,,,,,,8/8 Overcast,11000.0,,OVC,11000,,,,,,
KRDR,11-26-2005,09:00,METAR,,170,11.0,,,9999.0,,-8.0,-11.0,29.85,1012.9,,,,,,,,,,,,,,,7/8 Mostly Cloudy,11000.0,,BKN,11000,,,,,,
KRDR,11-26-2005,08:00,METAR,,160,9.0,,,9999.0,,-8.0,-11.0,29.86,1013.2,,,,,,,,,,,,,,,7/8 Mostly Cloudy,11000.0,,SCT,5000,BKN,11000.0,,,,
KRDR,11-26-2005,07:00,METAR,,160,10.0,,,9999.0,,-7.0,-10.0,29.86,1013.2,,,,,,,,,,,,,,,7/8 Mostly Cloudy,4900.0,,SCT,2400,BKN,5000.0,,,,
KRDR,11-26-2005,06:00,METAR,,160,9.0,,,9999.0,,-7.0,-10.0,29.87,1014.3,,,,,,,,,,,,,,,8/8 Overcast,2400.0,,BKN,2400,OVC,5000.0,,,,
KRDR,11-26-2005,05:00,METAR,,150,8.0,,,9999.0,,-7.0,-10.0,29.89,1014.3,,,,,,,,,,,,,,,8/8 Overcast,2600.0,,OVC,2600,,,,,,
KRDR,11-26-2005,04:00,METAR,,130,5.0,,,9999.0,,-6.0,-8.0,29.90,1014.5,,,,,,,,,,,,,,,8/8 Overcast,2600.0,,BKN,2600,OVC,5000.0,,,,
KRDR,11-26-2005,03:00,METAR,,140,3.0,,,9999.0,,-6.0,-9.0,29.92,1015.3,,,,,,,,,,,,,,,8/8 Overcast,2600.0,,OVC,2600,,,,,,
KRDR,11-26-2005,02:00,METAR,,180,3.0,,,9999.0,Light Snow,-6.0,-9.0,29.92,1015.3,,,,71,,,,,,,,,,,8/8 Overcast,2500.0,,OVC,2500,,,,,,
KRDR,11-26-2005,01:00,METAR,,140,3.0,,,9999.0,Light Snow,-6.0,-9.0,29.93,1015.5,,,,71,,,,,,,,,,,8/8 Overcast,2200.0,,OVC,2200,,,,,,
KRDR,11-26-2005,00:17,SPECI,,120,3.0,,,9999.0,Light Snow,-6.0,-10.0,29.92,,,,,71,,,,,,,,,,,8/8 Overcast,2200.0,,OVC,2200,,,,,,
KRDR,11-26-2005,00:00,METAR,,120,4.0,,,9999.0,,-6.0,-10.0,29.92,1014.8,,,,,,,,,,,,,TRACE,,7/8 Mostly Cloudy,3400.0,,SCT,2200,BKN,3500.0,,,,
KRDR,11-25-2005,23:02,SPECI,,130,4.0,,,9999.0,,-6.0,-10.0,29.92,,,,,,,,,,,,,,,,7/8 Mostly Cloudy,3400.0,,SCT,2600,BKN,3500.0,,,,
KRDR,11-25-2005,23:00,METAR,,120,4.0,,,9999.0,,-6.0,-10.0,29.91,1014.7,,,,,,,,,,,,,,,7/8 Mostly Cloudy,3900.0,,SCT,2200,BKN,4000.0,,,,
KRDR,11-25-2005,22:00,METAR,,130,7.0,,,9999.0,,-6.0,-10.0,29.90,1014.2,,,,,,,,,,,,,,,7/8 Mostly Cloudy,6500.0,,SCT,1900,BKN,6400.0,,,,
KRDR,11-25-2005,21:00,METAR,,120,8.0,,,9999.0,,-6.0,-10.0,29.90,1014.5,,,,,,,,,,,,TRACE,,,7/8 Mostly Cloudy,6500.0,,SCT,1900,BKN,6400.0,,,,
KRDR,11-25-2005,20:20,SPECI,,140,7.0,,,9999.0,,-6.0,-10.0,29.90,,,,,,,,,,,,,,,,4/8 Partly Cloudy,6500.0,,SCT,6400,,,,,,
KRDR,11-25-2005,20:00,METAR,,130,9.0,,,9999.0,Light Snow,-6.0,-10.0,29.90,1014.4,,,,71,,,,,,,,,,,8/8 Overcast,6500.0,,SCT,2100,OVC,6400.0,,,,
KRDR,11-25-2005,19:00,METAR,,120,7.0,,,9999.0,Light Snow,-7.0,-10.0,29.92,1015.2,,,,71,,,,,,,,,,,8/8 Overcast,6500.0,,SCT,2100,OVC,6400.0,,,,
KRDR,11-25-2005,18:16,SPECI,,120,9.0,,,9999.0,Light Snow,-7.0,-10.0,29.93,,,,,71,,,,,,,,,,,8/8 Overcast,6500.0,,SCT,2800,OVC,6400.0,,,,
KRDR,11-25-2005,18:02,SPECI,,130,8.0,,,9999.0,Light Snow,-7.0,-10.0,29.94,,,,,71,,,,,,,,,,,8/8 Overcast,2800.0,,BKN,2800,OVC,6400.0,,,,
KRDR,11-25-2005,18:00,METAR,,130,8.0,,,9999.0,Light Snow,-7.0,-10.0,29.94,1015.6,,,,71,,,,,,,,,TRACE,,8/8 Overcast,2800.0,,BKN,2800,OVC,6400.0,,,,
KRDR,11-25-2005,17:00,METAR,,120,8.0,,,6400.0,Light Snow,-8.0,-10.0,29.95,1016.0,,,,71,,,,,,,,,,,8/8 Overcast,2400.0,,BKN,2400,OVC,6400.0,,,,
KRDR,11-25-2005,16:44,SPECI,,130,8.0,,,6400.0,Light Snow,-8.0,-10.0,29.95,,,,,71,,,,,,,,,,,8/8 Overcast,2400.0,,BKN,2400,OVC,6400.0,,,,
KRDR,11-25-2005,16:00,METAR,,130,12.0,,,3200.0,Light Snow,-8.0,-10.0,29.95,1015.9,,,,71,,,,,,,,,,,8/8 Overcast,2400.0,,BKN,2400,OVC,6400.0,,,,
KRDR,11-25-2005,15:00,METAR,,120,9.0,,,3200.0,Light Snow,-8.0,-11.0,29.95,1016.0,,,,71,,,,,,,,TRACE,,,8/8 Overcast,2100.0,,SCT,1400,BKN,2100.0,OVC,3500.0,,
KRDR,11-25-2005,14:09,SPECI,,120,9.0,,,4800.0,Light Snow,-8.0,-11.0,29.95,,,,,71,,,,,,,,,,,8/8 Overcast,2400.0,,SCT,1200,BKN,2400.0,OVC,3500.0,,
KRDR,11-25-2005,14:00,METAR,,110,9.0,,,4800.0,Light Snow,-8.0,-11.0,29.94,1015.7,,,,71,,,,,,,,,,,8/8 Overcast,3400.0,,SCT,1200,BKN,3500.0,OVC,5900.0,,
KRDR,11-25-2005,13:00,METAR,,130,11.0,,,9999.0,Light Snow,-8.0,-11.0,29.93,1015.3,,,,71,,,,,,,,,,,8/8 Overcast,4400.0,,SCT,1900,BKN,4500.0,OVC,5900.0,,
KRDR,11-25-2005,12:00,METAR,,130,10.0,,,9999.0,Light Snow,-8.0,-12.0,29.95,1015.9,,,,71,,,,,,,,,TRACE,,8/8 Overcast,3400.0,,SCT,1700,BKN,3500.0,OVC,5900.0,,
KRDR,11-24-2005,05:30,METAR,,340,12.0,,,9999.0,,-11.0,-17.0,30.06,,,,,,,,,,,,,,,,Clear,72000.0,,,73000,,,,,,
KRDR,11-24-2005,05:00,METAR,,350,18.0,,,9999.0,,-11.0,-17.0,30.02,1018.5,,,,,,,,,,,,,,,Clear,72000.0,,,73000,,,,,,
KRDR,11-24-2005,04:00,METAR,,350,13.0,,,9999.0,,-10.0,-15.0,30.01,1018.1,,,,,,,,,,,,,,,Clear,72000.0,,,73000,,,,,,
KRDR,11-24-2005,03:00,METAR,,340,17.0,26.0,,9999.0,,-9.0,-15.0,30.00,1017.7,,,,,,,,,,,,,,,2/8 Mostly Clear,72000.0,,FEW,25000,,,,,,
KRDR,11-24-2005,02:00,METAR,,350,22.0,30.0,,9999.0,,-8.0,-15.0,29.97,1016.4,,,,,,,,,,,,,,,2/8 Mostly Clear,72000.0,,FEW,25000,,,,,,
KRDR,11-24-2005,01:00,METAR,,350,21.0,28.0,,9999.0,,-7.0,-13.0,29.92,1014.7,,,,,,,,,,,,,,,7/8 Mostly Cloudy,25000.0,,SCT,2500,BKN,25000.0,,,,
KRDR,11-24-2005,00:00,METAR,,340,22.0,29.0,,9999.0,,-6.0,-9.0,29.91,1014.3,,,,,,,,,,,,,,,7/8 Mostly Cloudy,3900.0,,FEW,2500,SCT,4000.0,BKN,15000.0,,
KRDR,11-23-2005,23:00,METAR,,360,23.0,29.0,,9999.0,,-4.0,-7.0,29.87,1012.9,,,,,,,,,,,,,,,7/8 Mostly Cloudy,3900.0,,SCT,2500,BKN,4000.0,BKN,15000.0,,
KRDR,11-23-2005,22:00,METAR,,340,21.0,29.0,,9999.0,,-2.0,-5.0,29.84,1011.7,,,,,,,,,,,,,,,7/8 Mostly Cloudy,3400.0,,SCT,2300,BKN,3500.0,BKN,15000.0,,
KRDR,11-23-2005,21:00,METAR,,350,18.0,26.0,350/28KTS,9999.0,,-2.0,-7.0,29.78,1009.4,,,,,,,,,,,,,,,7/8 Mostly Cloudy,4400.0,,SCT,2300,BKN,4500.0,BKN,15000.0,,
KRDR,11-23-2005,20:26,SPECI,,340,18.0,27.0,,9999.0,,-1.0,-6.0,29.77,,,,,,,,,,,,,,,,7/8 Mostly Cloudy,15000.0,,SCT,2300,BKN,15000.0,,,,
KRDR,11-23-2005,20:00,METAR,,350,21.0,25.0,340/29KTS,9999.0,,-1.0,-5.0,29.77,1009.1,,,,,,,,,,,,,,,7/8 Mostly Cloudy,2300.0,,BKN,2300,,,,,,
KRDR,11-23-2005,19:00,METAR,,350,18.0,26.0,350/35KTS,9999.0,,0.0,-4.0,29.74,1008.1,,,,,,,,,,,,,,,7/8 Mostly Cloudy,2000.0,,BKN,2000,,,,,,
KRDR,11-23-2005,18:00,METAR,,340,18.0,27.0,350/32KTS,9999.0,,1.0,-3.0,29.71,1007.4,,,,,,,,,,,,,,,8/8 Overcast,2100.0,,OVC,2100,,,,,,
KRDR,11-23-2005,17:03,SPECI,,340,19.0,27.0,,9999.0,,1.0,-3.0,29.69,,,,,,,,,,,,,,,,8/8 Overcast,2400.0,,BKN,2400,OVC,15000.0,,,,
KRDR,11-23-2005,17:00,METAR,,330,22.0,28.0,340/33KTS,9999.0,,1.0,-3.0,29.68,1006.2,,,,,,,,,,,,,,,8/8 Overcast,15000.0,,SCT,2200,OVC,15000.0,,,,
KRDR,11-23-2005,16:36,SPECI,,340,22.0,29.0,,9999.0,,2.0,-3.0,29.68,,,,,,,,,,,,,,,,7/8 Mostly Cloudy,15000.0,,SCT,2200,BKN,15000.0,,,,
KRDR,11-23-2005,16:00,METAR,,340,24.0,29.0,350/35KTS,9999.0,,2.0,-2.0,29.66,1005.6,,,,,,,,,,,,,,,7/8 Mostly Cloudy,2100.0,,BKN,2100,,,,,,
KRDR,11-23-2005,15:38,SPECI,,340,19.0,26.0,,9999.0,,2.0,-1.0,29.65,,,,,,,,,,,,,,,,7/8 Mostly Cloudy,2100.0,,BKN,2100,,,,,,
KRDR,11-23-2005,15:00,METAR,,340,21.0,29.0,340/32KTS,9999.0,,3.0,0.0,29.63,1003.6,,,,,,,,,,,,,,,7/8 Mostly Cloudy,3100.0,,SCT,2800,BKN,3100.0,,,,
KRDR,11-23-2005,14:00,METAR,,340,22.0,26.0,350/29KTS,9999.0,,5.0,0.0,29.60,1003.2,,,,,,,,,,,,,,,7/8 Mostly Cloudy,4400.0,,SCT,2800,BKN,4500.0,,,,
KRDR,11-23-2005,13:00,METAR,,320,14.0,,,9999.0,,5.0,2.0,29.56,1002.1,,,,,,,,,,,,,,,7/8 Mostly Cloudy,3600.0,,BKN,3700,BKN,12000.0,,,,
KRDR,11-23-2005,12:00,METAR,,320,15.0,,,9999.0,,5.0,2.0,29.54,1001.4,,,,,,,,,,,,,,,8/8 Overcast,12000.0,,SCT,3500,BKN,12000.0,OVC,20000.0,,
KRDR,11-23-2005,11:00,METAR,,310,10.0,,,9999.0,,4.0,1.0,29.51,1000.4,,,,,,,,,,,,,,,7/8 Mostly Cloudy,20000.0,,SCT,12000,BKN,20000.0,,,,
KRDR,11-23-2005,10:00,METAR,,300,11.0,,,9999.0,,4.0,1.0,29.48,999.3,,,,,,,,,,,,,,,4/8 Partly Cloudy,72000.0,,SCT,20000,,,,,,
KRDR,11-23-2005,09:00,METAR,,300,11.0,,,9999.0,,4.0,1.0,29.48,999.3,,,,,,,,,,,,,,,7/8 Mostly Cloudy,20000.0,,BKN,20000,,,,,,
KRDR,11-23-2005,08:00,METAR,,320,9.0,,,9999.0,,5.0,1.0,29.47,999.0,,,,,,,,,,,,,,,7/8 Mostly Cloudy,20000.0,,BKN,20000,,,,,,
KRDR,11-23-2005,07:00,METAR,,310,9.0,,,9999.0,,4.0,-1.0,29.44,997.9,,,,,,,,,,,,,,,7/8 Mostly Cloudy,20000.0,,BKN,20000,,,,,,
KRDR,11-23-2005,06:00,METAR,,300,12.0,,,9999.0,,5.0,1.0,29.45,998.3,,,,,,,,,,,,,,,4/8 Partly Cloudy,72000.0,,SCT,12000,SCT,20000.0,,,,
KRDR,11-23-2005,05:00,METAR,,300,12.0,,,9999.0,,5.0,1.0,29.44,997.9,,,,,,,,,,,,,,,7/8 Mostly Cloudy,20000.0,,SCT,12000,BKN,20000.0,,,,
KRDR,11-23-2005,04:00,METAR,,290,10.0,,,9999.0,,5.0,2.0,29.46,998.6,,,,,,,,,,,,,,,7/8 Mostly Cloudy,12000.0,,BKN,12000,BKN,20000.0,,,,
KRDR,11-23-2005,03:00,METAR,,250,3.0,,,9999.0,,4.0,2.0,29.48,1000.6,,,,,,,,,,,,,,,7/8 Mostly Cloudy,12000.0,,BKN,12000,BKN,20000.0,,,,
KRDR,11-23-2005,02:00,METAR,,160,8.0,,,9999.0,,2.0,2.0,29.51,1000.6,,,,,,,,,,,,,,,8/8 Overcast,12000.0,,BKN,12000,OVC,20000.0,,,,
KRDR,11-23-2005,01:00,METAR,,170,8.0,,,9999.0,,2.0,2.0,29.56,1002.4,,,,,,,,,,,,,,,8/8 Overcast,12000.0,,BKN,12000,OVC,20000.0,,,,
KRDR,11-23-2005,00:00,METAR,,170,7.0,,,9999.0,,2.0,1.0,29.60,1003.9,,,,,,,,,,,,,,,8/8 Overcast,12000.0,,BKN,12000,OVC,20000.0,,,,
KRDR,11-22-2005,23:00,METAR,,170,7.0,,,9999.0,,2.0,1.0,29.64,1005.2,,,,,,,,,,,,,,,7/8 Mostly Cloudy,20000.0,,SCT,9900,BKN,20000.0,,,,
KRDR,11-22-2005,22:00,METAR,,180,9.0,,,9999.0,,2.0,1.0,29.68,1006.5,,,,,,,,,,,,,,,7/8 Mostly Cloudy,20000.0,,SCT,9900,BKN,20000.0,,,,
KRDR,11-22-2005,21:00,METAR,,170,8.0,,,9999.0,,2.0,0.0,29.74,1008.4,,,,,,,,,,,,,,,7/8 Mostly Cloudy,11000.0,,FEW,7400,BKN,11000.0,BKN,20000.0,,
KRDR,11-22-2005,20:00,METAR,,170,8.0,,,9999.0,,2.0,0.0,29.74,1008.6,,,,,,,,,,,,,,,8/8 Overcast,8000.0,,BKN,7900,OVC,20000.0,,,,
KRDR,11-22-2005,19:00,METAR,,190,10.0,,,9999.0,,2.0,-1.0,29.81,1010.9,,,,,,,,,,,,,,,8/8 Overcast,8000.0,,BKN,7900,OVC,20000.0,,,,
KRDR,11-22-2005,18:00,METAR,,190,10.0,,,9999.0,,2.0,0.0,29.85,1012.1,,,,,,,,,,,,,,,8/8 Overcast,10000.0,,BKN,9900,OVC,20000.0,,,,
KRDR,11-22-2005,17:00,METAR,,180,9.0,,,9999.0,,2.0,0.0,29.90,1013.9,,,,,,,,,,,,,,,8/8 Overcast,10000.0,,BKN,9900,OVC,20000.0,,,,
KRDR,11-22-2005,16:00,METAR,,180,9.0,,,9999.0,,1.0,-2.0,29.90,1014.1,,,,,,,,,,,,,,,8/8 Overcast,7500.0,,BKN,7400,OVC,20000.0,,,,
KRDR,11-22-2005,15:00,METAR,,150,6.0,,,9999.0,,-1.0,-1.0,29.91,1014.5,,,,,,,,,,,,,,,7/8 Mostly Cloudy,7500.0,,BKN,7400,BKN,20000.0,,,,
KRDR,11-22-2005,14:00,METAR,,140,6.0,,,9999.0,,-1.0,-1.0,29.94,1015.6,,,,,,,,,,,,,,,7/8 Mostly Cloudy,8000.0,,BKN,7900,BKN,20000.0,,,,
KRDR,11-22-2005,13:00,METAR,,140,5.0,,,9999.0,,-1.0,-2.0,29.94,1015.4,,,,,,,,,,,,,,,7/8 Mostly Cloudy,8000.0,,BKN,7900,BKN,20000.0,,,,
KRDR,11-22-2005,12:47,SPECI,,160,4.0,,,9999.0,,-1.0,-2.0,29.95,,,,,,,,,,,,,,,,8/8 Overcast,7500.0,,BKN,7400,OVC,20000.0,,,,
KRDR,11-22-2005,12:00,METAR,,200,4.0,,,9999.0,,-1.0,-2.0,29.95,1015.9,,,,,,,,,,,,,TRACE,,7/8 Mostly Cloudy,20000.0,,SCT,7900,BKN,20000.0,,,,
KRDR,11-22-2005,11:00,METAR,,180,3.0,,,9999.0,,-1.0,-1.0,29.96,1016.1,,,,,,,,,,,,,,,8/8 Overcast,7000.0,,OVC,6900,,,,,,
KRDR,11-22-2005,10:00,METAR,,180,5.0,,,9999.0,,0.0,-1.0,29.96,1016.2,,,,,,,,,,,,,,,8/8 Overcast,7000.0,,OVC,6900,,,,,,
KRDR,11-22-2005,09:00,METAR,,170,4.0,,,9999.0,,0.0,-1.0,30.00,1017.4,,,,,,,,,,,,TRACE,,,8/8 Overcast,7000.0,,OVC,6900,,,,,,
KRDR,11-22-2005,08:00,METAR,,160,4.0,,,9999.0,,0.0,-1.0,30.01,1017.7,,,,,,,,,,,,,,,8/8 Overcast,7000.0,,OVC,6900,,,,,,
KRDR,11-22-2005,07:45,METAR,,150,4.0,,,9999.0,,0.0,-1.0,30.01,,,,,,,,,,,,,,,,8/8 Overcast,7000.0,,FEW,4000,OVC,6900.0,,,,
KRDR,11-22-2005,07:00,METAR,,230,4.0,,,9999.0,Light Snow,0.0,-1.0,30.04,1018.6,,,,71,,,,,,,,,,,8/8 Overcast,4900.0,,BKN,5000,OVC,7400.0,,,,
KRDR,11-22-2005,06:00,METAR,,220,2.0,,,9999.0,Light Snow,0.0,-1.0,30.06,1019.5,,,,71,,,,,,,,,TRACE,,8/8 Overcast,4900.0,,OVC,5000,,,,,,
KRDR,11-22-2005,05:00,METAR,,210,4.0,,,9999.0,Light Snow,-1.0,-2.0,30.07,1019.7,,,,71,,,,,,,,,,,8/8 Overcast,8000.0,,SCT,5000,OVC,7900.0,,,,
KRDR,11-22-2005,04:48,SPECI,,200,5.0,,,9999.0,Light Snow,-1.0,-2.0,30.07,,,,,71,,,,,,,,,,,8/8 Overcast,8000.0,,SCT,4500,OVC,7900.0,,,,
KRDR,11-22-2005,04:00,METAR,,200,4.0,,,9999.0,,-1.0,-2.0,30.08,1020.2,,,,,,,,,,,,,,,8/8 Overcast,5500.0,,OVC,5400,,,,,,
KRDR,11-22-2005,03:00,METAR,,190,5.0,,,9999.0,,-1.0,-2.0,30.10,1020.7,,,,,,,,,,,,,,,7/8 Mostly Cloudy,7000.0,,BKN,6900,BKN,20000.0,,,,
KRDR,11-22-2005,02:00,METAR,,190,4.0,,,9999.0,,-1.0,-3.0,30.12,1021.5,,,,,,,,,,,,,,,7/8 Mostly Cloudy,8000.0,,BKN,7900,BKN,20000.0,,,,
KRDR,11-22-2005,01:00,METAR,,250,4.0,,,9999.0,,-2.0,-3.0,30.15,1022.5,,,,,,,,,,,,,,,7/8 Mostly Cloudy,9000.0,,BKN,8900,,,,,,
KRDR,11-22-2005,00:00,METAR,,300,4.0,,,9999.0,,-1.0,-3.0,30.17,1023.2,,,,,,,,,,,,,,,7/8 Mostly Cloudy,25000.0,,FEW,9900,BKN,25000.0,,,,
KRDR,11-21-2005,23:00,METAR,,350,6.0,,,9999.0,,-1.0,-3.0,30.18,1023.5,,,,,,,,,,,,,,,7/8 Mostly Cloudy,10000.0,,FEW,2200,SCT,9900.0,BKN,25000.0,,
KRDR,11-21-2005,22:00,METAR,,350,6.0,,,9999.0,,1.0,-3.0,30.20,1024.1,,,,,,,,,,,,,,,8/8 Overcast,11000.0,,FEW,2200,BKN,11000.0,OVC,25000.0,,
KRDR,11-21-2005,21:00,METAR,,340,8.0,,,9999.0,,2.0,-2.0,30.20,1024.0,,,,,,,,,,,,,,,8/8 Overcast,18000.0,,FEW,2200,FEW,11000.0,BKN,18000.0,OVC,25000.0
KRDR,11-21-2005,20:00,METAR,,360,9.0,,,9999.0,,2.0,-2.0,30.21,1024.4,,,,,,,,,,,,,,,8/8 Overcast,18000.0,,FEW,2200,FEW,12000.0,BKN,18000.0,OVC,25000.0
KRDR,11-21-2005,19:00,METAR,,360,11.0,,,9999.0,,2.0,-2.0,30.21,1024.4,,,,,,,,,,,,,,,8/8 Overcast,18000.0,,FEW,2200,BKN,18000.0,OVC,25000.0,,
KRDR,11-21-2005,18:00,METAR,,360,11.0,,,9999.0,,2.0,0.0,30.21,1024.4,,,,,,,,,,,,,,,7/8 Mostly Cloudy,18000.0,,FEW,2200,SCT,18000.0,BKN,25000.0,,
KRDR,11-21-2005,17:00,METAR,,330,12.0,,,9999.0,,2.0,-1.0,30.22,1024.5,,,,,,,,,,,,,,,7/8 Mostly Cloudy,18000.0,,FEW,3000,SCT,18000.0,BKN,25000.0,,
KRDR,11-21-2005,16:00,METAR,,320,12.0,,,9999.0,,1.0,-1.0,30.21,1024.4,,,,,,,,,,,,,,,7/8 Mostly Cloudy,25000.0,,SCT,18000,BKN,25000.0,,,,
KRDR,11-21-2005,15:00,METAR,,330,12.0,,,9999.0,,1.0,-1.0,30.18,1023.2,,,,,,,,,,,,,,,7/8 Mostly Cloudy,25000.0,,FEW,3000,BKN,25000.0,,,,
KRDR,11-21-2005,14:00,METAR,,330,12.0,,,9999.0,,1.0,-1.0,30.17,1023.0,,,,,,,,,,,,,,,4/8 Partly Cloudy,72000.0,,FEW,3000,SCT,25000.0,,,,
KRDR,11-21-2005,13:00,METAR,,350,14.0,,,9999.0,,1.0,-1.0,30.13,1021.6,,,,,,,,,,,,,,,4/8 Partly Cloudy,72000.0,,SCT,25000,,,,,,
KRDR,11-21-2005,12:00,METAR,,340,11.0,,,9999.0,,1.0,-2.0,30.10,1020.6,,,,,,,,,,,,,,,4/8 Partly Cloudy,72000.0,,SCT,25000,,,,,,
KRDR,11-21-2005,11:00,METAR,,330,11.0,,,9999.0,,2.0,-2.0,30.07,1019.4,,,,,,,,,,,,,,,7/8 Mostly Cloudy,25000.0,,BKN,25000,,,,,,
KRDR,11-21-2005,10:00,METAR,,320,13.0,,,9999.0,,3.0,-2.0,30.04,1018.2,,,,,,,,,,,,,,,7/8 Mostly Cloudy,25000.0,,BKN,25000,,,,,,
KRDR,11-21-2005,09:00,METAR,,320,14.0,,,9999.0,,4.0,-1.0,30.02,1017.5,,,,,,,,,,,,,,,7/8 Mostly Cloudy,25000.0,,BKN,25000,,,,,,
KRDR,11-21-2005,08:00,METAR,,320,16.0,22.0,,9999.0,,5.0,-1.0,29.98,1016.2,,,,,,,,,,,,,,,7/8 Mostly Cloudy,25000.0,,BKN,25000,,,,,,
KRDR,11-21-2005,07:00,METAR,,310,13.0,,,9999.0,,5.0,0.0,29.95,1015.4,,,,,,,,,,,,,,,7/8 Mostly Cloudy,25000.0,,BKN,25000,,,,,,
KRDR,11-21-2005,06:00,METAR,,310,11.0,,,9999.0,,5.0,1.0,29.94,1015.0,,,,,,,,,,,,,,,4/8 Partly Cloudy,72000.0,,SCT,25000,,,,,,
KRDR,11-21-2005,05:00,METAR,,290,14.0,,,9999.0,,6.0,1.0,29.93,1014.5,,,,,,,,,,,,,,,4/8 Partly Cloudy,72000.0,,SCT,25000,,,,,,
KRDR,11-21-2005,04:00,METAR,,310,12.0,,,9999.0,,6.0,1.0,29.92,1014.2,,,,,,,,,,,,,,,Clear,72000.0,,,73000,,,,,,
KRDR,11-21-2005,03:00,METAR,,320,13.0,,,9999.0,,6.0,1.0,29.90,1013.7,,,,,,,,,,,,,,,2/8 Mostly Clear,72000.0,,FEW,25000,,,,,,
KRDR,11-21-2005,02:00,METAR,,310,9.0,,,9999.0,,6.0,1.0,29.88,1013.1,,,,,,,,,,,,,,,Clear,72000.0,,,73000,,,,,,
KRDR,11-21-2005,01:00,METAR,,310,9.0,,,9999.0,,6.0,1.0,29.87,1012.8,,,,,,,,,,,,,,,2/8 Mostly Clear,72000.0,,FEW,25000,,,,,,
KRDR,11-21-2005,00:00,METAR,,330,11.0,,,9999.0,,7.0,1.0,29.87,1012.7,,,,,,,,,,,,,,,2/8 Mostly Clear,72000.0,,FEW,25000,,,,,,
KRDR,11-20-2005,23:00,METAR,,290,11.0,,,9999.0,,7.0,2.0,29.85,1012.0,,,,,,,,,,,,,,,4/8 Partly Cloudy,72000.0,,SCT,25000,,,,,,
KRDR,11-20-2005,22:00,METAR,,320,5.0,,,9999.0,,9.0,3.0,29.84,1011.6,,,,,,,,,,,,,,,4/8 Partly Cloudy,72000.0,,SCT,25000,,,,,,
KRDR,11-20-2005,21:00,METAR,,300,11.0,,,9999.0,,10.0,2.0,29.84,1011.6,,,,,,,,,,,,,,,4/8 Partly Cloudy,72000.0,,SCT,25000,,,,,,
KRDR,11-20-2005,20:00,METAR,,290,12.0,,,9999.0,,10.0,2.0,29.85,1011.9,,,,,,,,,,,,,,,2/8 Mostly Clear,72000.0,,FEW,25000,,,,,,
KRDR,11-20-2005,19:00,METAR,,290,12.0,,,9999.0,,10.0,4.0,29.86,1012.2,,,,,,,,,,,,,,,2/8 Mostly Clear,72000.0,,FEW,25000,,,,,,
KRDR,11-20-2005,18:00,METAR,,290,12.0,,,9999.0,,9.0,2.0,29.88,1012.9,,,,,,,,,,,,,,,2/8 Mostly Clear,72000.0,,FEW,25000,,,,,,
KRDR,11-20-2005,17:00,METAR,,290,11.0,,,9999.0,,8.0,2.0,29.88,1012.9,,,,,,,,,,,,,,,2/8 Mostly Clear,72000.0,,FEW,25000,,,,,,
KRDR,11-20-2005,16:00,METAR,,280,14.0,,,9999.0,,6.0,1.0,29.87,1012.8,,,,,,,,,,,,,,,2/8 Mostly Clear,72000.0,,FEW,25000,,,,,,
KRDR,11-20-2005,15:38,SPECI,,280,12.0,,,9999.0,,5.0,1.0,29.88,,,,,,,,,,,,,,,,2/8 Mostly Clear,72000.0,,FEW,25000,,,,,,
KRDR,11-20-2005,15:00,METAR,,280,13.0,,,9999.0,,4.0,0.0,29.88,1013.2,,,,,,,,,,,,,,,2/8 Mostly Clear,72000.0,,FEW,25000,,,,,,
KRDR,11-20-2005,14:07,SPECI,,270,7.0,,,9999.0,,2.0,-1.0,29.89,,,,,,,,,,,,,,,,2/8 Mostly Clear,72000.0,,FEW,25000,,,,,,
KRDR,11-20-2005,14:00,METAR,,260,8.0,,,9999.0,,2.0,1.0,29.90,1013.9,,,,,,,,,,,,,,,2/8 Mostly Clear,72000.0,,FEW,25000,,,,,,
KRDR,11-20-2005,13:00,METAR,,220,6.0,,,9999.0,,0.0,0.0,29.92,1014.6,,,,,,,,,,,,,,,Clear,72000.0,,,73000,,,,,,
KRDR,11-20-2005,12:23,SPECI,,220,7.0,,,9999.0,,-1.0,-2.0,29.91,,,,,,,,,,,,,,,,Clear,72000.0,,,73000,,,,,,
KRDR,11-20-2005,12:00,METAR,,210,8.0,,,9999.0,,-1.0,-2.0,29.92,1014.7,,,,,,,,,,,,,,,Clear,72000.0,,,73000,,,,,,
KRDR,11-20-2005,11:00,METAR,,220,11.0,,,9999.0,,0.0,-2.0,29.95,1015.8,,,,,,,,,,,,,,,Clear,72000.0,,,73000,,,,,,
KRDR,11-20-2005,10:00,METAR,,190,11.0,,,9999.0,,-1.0,-2.0,29.97,1016.4,,,,,,,,,,,,,,,Clear,72000.0,,,73000,,,,,,
KRDR,11-20-2005,09:00,METAR,,210,12.0,,,9999.0,,-1.0,-2.0,30.01,1017.8,,,,,,,,,,,,,,,Clear,72000.0,,,73000,,,,,,
KRDR,11-20-2005,08:00,METAR,,210,12.0,,,9999.0,,-1.0,-2.0,30.05,1019.0,,,,,,,,,,,,,,,Clear,72000.0,,,73000,,,,,,
KRDR,11-20-2005,07:00,METAR,,180,7.0,,,9999.0,,-1.0,-3.0,30.08,1020.2,,,,,,,,,,,,,,,Clear,72000.0,,,73000,,,,,,
KRDR,11-20-2005,06:00,METAR,,220,8.0,,,9999.0,,0.0,-2.0,30.09,1020.6,,,,,,,,,,,,,,,4/8 Partly Cloudy,72000.0,,SCT,1800,,,,,,
KRDR,11-20-2005,05:00,METAR,,220,6.0,,,9999.0,,0.0,-2.0,30.13,1021.8,,,,,,,,,,,,,,,8/8 Overcast,2100.0,,OVC,2100,,,,,,
KRDR,11-20-2005,04:00,METAR,,210,8.0,,,9999.0,,-1.0,-3.0,30.13,1021.8,,,,,,,,,,,,,,,8/8 Overcast,2300.0,,OVC,2300,,,,,,
KRDR,11-20-2005,03:19,SPECI,,180,5.0,,,9999.0,,-2.0,-4.0,29.11,,,,,,,,,,,,,,,,7/8 Mostly Cloudy,2400.0,,BKN,2400,,,,,,
KRDR,11-20-2005,03:00,METAR,,180,4.0,,,9999.0,,-3.0,-4.0,30.15,1022.5,,,,,,,,,,,,,,,Clear,72000.0,,,73000,,,,,,
KRDR,11-20-2005,02:00,METAR,,200,2.0,,,9999.0,,-3.0,-4.0,30.17,1023.2,,,,,,,,,,,,,,,2/8 Mostly Clear,72000.0,,FEW,2500,,,,,,
KRDR,11-20-2005,01:14,SPECI,,,2.0,,,9999.0,,-3.0,-3.0,30.18,,,,,,,,,,,,,,,,4/8 Partly Cloudy,72000.0,,SCT,2500,,,,,,
KRDR,11-20-2005,01:00,METAR,,,2.0,,,9999.0,,-2.0,-2.0,30.18,1023.6,,,,,,,,,,,,,,,7/8 Mostly Cloudy,2800.0,,BKN,2800,,,,,,
KRDR,11-20-2005,00:00,METAR,,340,2.0,,,9999.0,,-2.0,-2.0,30.20,1024.3,,,,,,,,,,,,,,,8/8 Overcast,2100.0,,OVC,2100,,,,,,
KRDR,11-19-2005,23:00,METAR,,360,5.0,,,9999.0,,0.0,-1.0,30.21,1024.4,,,,,,,,,,,,,,,8/8 Overcast,2100.0,,OVC,2100,,,,,,
KRDR,11-19-2005,22:00,METAR,,340,9.0,,,9999.0,,0.0,-1.0,30.20,1024.0,,,,,,,,,,,,,,,8/8 Overcast,2800.0,,OVC,2800,,,,,,
KRDR,11-19-2005,21:00,METAR,,360,13.0,,,9999.0,,1.0,-1.0,30.16,1022.7,,,,,,,,,,,,,,,8/8 Overcast,1700.0,,OVC,1700,,,,,,
KRDR,11-19-2005,20:17,SPECI,,350,13.0,,,9999.0,,0.0,-1.0,30.15,,,,,,,,,,,,,,,,8/8 Overcast,1500.0,,OVC,1500,,,,,,
KRDR,11-19-2005,20:00,METAR,,350,13.0,,,9999.0,,0.0,-1.0,30.15,1022.4,,,,,,,,,,,,,,,8/8 Overcast,1200.0,,OVC,1200,,,,,,
KRDR,11-19-2005,19:00,METAR,,360,15.0,21.0,,9999.0,,0.0,-1.0,30.12,1021.4,,,,,,,,,,,,,,,8/8 Overcast,1100.0,,OVC,1100,,,,,,
KRDR,11-19-2005,18:00,METAR,,350,16.0,21.0,,9999.0,,1.0,-1.0,30.12,1021.4,,,,,,,,,,,,,,,8/8 Overcast,1100.0,,OVC,1100,,,,,,
KRDR,11-19-2005,17:00,METAR,,360,18.0,28.0,010/28KTS,9999.0,,1.0,0.0,30.10,1020.6,,,,,,,,,,,,,,,8/8 Overcast,1300.0,,OVC,1300,,,,,,
KRDR,11-19-2005,16:00,METAR,,340,18.0,25.0,010/31KTS,9999.0,,1.0,0.0,30.07,1019.6,,,,,,,,,,,,,,,8/8 Overcast,1800.0,,OVC,1800,,,,,,
KRDR,11-19-2005,15:00,METAR,,340,20.0,27.0,360/27KTS,9999.0,,2.0,0.0,30.04,1018.5,,,,,,,,,,,,,,,8/8 Overcast,1600.0,,OVC,1600,,,,,,
KRDR,11-19-2005,14:31,SPECI,,350,17.0,22.0,,9999.0,,2.0,1.0,30.03,,,,,,,,,,,,,,,,8/8 Overcast,1400.0,,OVC,1400,,,,,,
KRDR,11-19-2005,14:15,SPECI,,350,15.0,,,9999.0,,2.0,1.0,30.01,,,,,,,,,,,,,,,,8/8 Overcast,1600.0,,OVC,1600,,,,,,
KRDR,11-19-2005,14:00,METAR,,340,14.0,,,9999.0,Drizzle,2.0,1.0,30.00,1017.1,,,,51,,,,,,,,,,,8/8 Overcast,1500.0,,FEW,900,OVC,1500.0,,,,
KRDR,11-19-2005,13:24,SPECI,,340,10.0,,,9999.0,,3.0,1.0,29.96,,,,,,,,,,,,,,,,8/8 Overcast,2000.0,,OVC,2000,,,,,,
KRDR,11-19-2005,13:00,METAR,,340,14.0,,340/26KTS,9999.0,,3.0,1.0,29.94,1015.1,,,,,,,,,,,,,,,8/8 Overcast,3000.0,,SCT,2500,OVC,3000.0,,,,
KRDR,11-19-2005,12:00,METAR,,340,13.0,,,9999.0,,3.0,0.0,29.90,1013.7,,,,,,,,,,,,,,,8/8 Overcast,3900.0,,SCT,2500,OVC,4000.0,,,,
KRDR,11-19-2005,11:00,METAR,,330,11.0,,,9999.0,,3.0,1.0,29.87,1012.7,,,,,,,,,,,,,,,8/8 Overcast,3900.0,,SCT,2500,OVC,4000.0,,,,
KRDR,11-19-2005,10:00,METAR,,330,11.0,,,9999.0,,3.0,1.0,29.83,1011.4,,,,,,,,,,,,,,,8/8 Overcast,3900.0,,OVC,4000,,,,,,
KRDR,11-19-2005,09:00,METAR,,320,11.0,,,9999.0,,3.0,1.0,29.80,1010.4,,,,,,,,,,,,,,,8/8 Overcast,3200.0,,OVC,3300,,,,,,
KRDR,11-19-2005,08:00,METAR,,320,9.0,,,9999.0,,3.0,1.0,29.76,1009.2,,,,,,,,,,,,,,,8/8 Overcast,7000.0,,OVC,6900,,,,,,
KRDR,11-19-2005,07:00,METAR,,320,9.0,,,9999.0,,3.0,1.0,29.73,1008.1,,,,,,,,,,,,,,,8/8 Overcast,5500.0,,OVC,5400,,,,,,
KRDR,11-19-2005,06:00,METAR,,320,10.0,,,9999.0,,2.0,0.0,29.69,1006.8,,,,,,,,,,,,,,,8/8 Overcast,9000.0,,OVC,8900,,,,,,
KRDR,11-19-2005,05:00,METAR,,320,9.0,,,9999.0,,3.0,1.0,29.66,1005.7,,,,,,,,,,,,,,,8/8 Overcast,8000.0,,FEW,5000,OVC,7900.0,,,,
KRDR,11-19-2005,04:00,METAR,,300,10.0,,,9999.0,,3.0,1.0,29.63,1004.7,,,,,,,,,,,,,,,8/8 Overcast,8000.0,,FEW,5000,OVC,7900.0,,,,
KRDR,11-19-2005,03:00,METAR,,290,6.0,,,9999.0,,3.0,1.0,29.61,1004.0,,,,,,,,,,,,,,,8/8 Overcast,9000.0,,SCT,7400,OVC,8900.0,,,,
KRDR,11-19-2005,02:00,METAR,,290,6.0,,,9999.0,,3.0,1.0,29.59,1003.4,,,,,,,,,,,,,,,8/8 Overcast,9000.0,,SCT,7400,OVC,8900.0,,,,
KRDR,11-19-2005,01:00,METAR,,270,8.0,,,9999.0,Rain,3.0,2.0,29.57,1002.7,,,,61,,,,,,,,,,,8/8 Overcast,5500.0,,FEW,2000,OVC,5400.0,,,,
KRDR,11-19-2005,00:00,METAR,,,2.0,,,9999.0,Rain,4.0,3.0,29.58,1003.1,,,,61,,,,,,,,,,,8/8 Overcast,5500.0,,FEW,2000,OVC,5400.0,,,,
KRDR,11-18-2005,23:06,SPECI,,,1.0,,,9999.0,Rain,4.0,2.0,29.57,,,,,61,,,,,,,,,,,8/8 Overcast,3900.0,,BKN,4000,OVC,5400.0,,,,
KRDR,11-18-2005,23:00,METAR,,,2.0,,,9999.0,,4.0,2.0,29.57,1002.7,,,,,,,,,,,,,,,8/8 Overcast,3900.0,,FEW,2300,BKN,4000.0,OVC,5400.0,,
KRDR,11-18-2005,22:05,SPECI,,220,5.0,,,9999.0,Ice Pellets/Rain,4.0,0.0,29.56,,,,,61,79,,,,,,,,,,8/8 Overcast,8000.0,,FEW,5000,BKN,7900.0,OVC,9900.0,,
KRDR,11-18-2005,22:00,METAR,,230,8.0,,,9999.0,,4.0,-1.0,29.56,1002.3,,,,,,,,,,,,,,,8/8 Overcast,8000.0,,FEW,5000,BKN,7900.0,OVC,9900.0,,
KRDR,11-18-2005,21:00,METAR,,210,6.0,,,9999.0,,4.0,-1.0,29.56,1002.3,,,,,,,,,,,,,,,8/8 Overcast,8000.0,,BKN,7900,OVC,9900.0,,,,
KRDR,11-18-2005,20:00,METAR,,190,10.0,,,9999.0,,4.0,-1.0,29.58,1003.0,,,,,,,,,,,,,,,8/8 Overcast,10000.0,,BKN,9900,OVC,20000.0,,,,
KRDR,11-18-2005,19:00,METAR,,200,12.0,,,9999.0,,3.0,-1.0,29.60,1003.8,,,,,,,,,,,,,,,8/8 Overcast,10000.0,,BKN,9900,OVC,20000.0,,,,
KRDR,11-18-2005,18:00,METAR,,190,10.0,,,9999.0,,2.0,-1.0,29.64,1005.0,,,,,,,,,,,,,TRACE,,8/8 Overcast,10000.0,,SCT,6900,BKN,9900.0,OVC,20000.0,,
KRDR,11-18-2005,17:15,SPECI,,160,11.0,,,9999.0,,1.0,-1.0,29.68,,,,,,,,,,,,,,,,8/8 Overcast,10000.0,,SCT,4000,BKN,9900.0,OVC,20000.0,,
KRDR,11-18-2005,17:00,METAR,,160,10.0,,,9999.0,Rain,1.0,-1.0,29.70,1007.1,,,,61,,,,,,,,,,,8/8 Overcast,10000.0,,SCT,4000,BKN,9900.0,OVC,20000.0,,
KRDR,11-18-2005,16:28,SPECI,,160,9.0,,,9999.0,Rain,0.0,-2.0,29.73,,,,,61,,,,,,,,,,,8/8 Overcast,10000.0,,SCT,5400,BKN,9900.0,OVC,20000.0,,
KRDR,11-18-2005,16:00,METAR,,200,12.0,,,9999.0,,0.0,-3.0,29.75,1008.9,,,,,,,,,,,,,,,8/8 Overcast,20000.0,,FEW,9900,OVC,20000.0,,,,
KRDR,11-18-2005,15:00,METAR,,190,10.0,,,9999.0,,-1.0,-3.0,29.78,1010.1,,,,,,,,,,,,,,,7/8 Mostly Cloudy,20000.0,,FEW,9900,BKN,20000.0,,,,
KRDR,11-18-2005,14:00,METAR,,170,10.0,,,9999.0,,-3.0,-3.0,29.84,1012.0,,,,,,,,,,,,,,,7/8 Mostly Cloudy,20000.0,,FEW,9900,BKN,20000.0,,,,
KRDR,11-18-2005,13:00,METAR,,170,11.0,,,9999.0,,-3.0,-5.0,29.88,1013.4,,,,,,,,,,,,,,,7/8 Mostly Cloudy,20000.0,,SCT,9900,BKN,20000.0,,,,
KRDR,11-18-2005,12:00,METAR,,180,8.0,,,9999.0,,-3.0,-5.0,29.92,1014.9,,,,,,,,,,,,,,TRACE,4/8 Partly Cloudy,72000.0,,FEW,9900,SCT,20000.0,,,,
KRDR,11-18-2005,11:00,METAR,,180,5.0,,,9999.0,,-3.0,-5.0,29.96,1016.3,,,,,,,,,,,,,,,7/8 Mostly Cloudy,10000.0,,SCT,2000,BKN,9900.0,,,,
KRDR,11-18-2005,10:00,METAR,,210,6.0,,,9999.0,,-2.0,-5.0,30.01,1018.1,,,,,,,,,,,,,,,8/8 Overcast,2600.0,,OVC,2600,,,,,,
KRDR,11-18-2005,09:00,METAR,,330,3.0,,,9999.0,,-2.0,-6.0,30.06,1019.8,,,,,,,,,,,,,,,8/8 Overcast,2400.0,,OVC,2400,,,,,,
KRDR,11-18-2005,08:00,METAR,,280,5.0,,,9999.0,,-2.0,-6.0,30.05,1019.5,,,,,,,,,,,,,,,8/8 Overcast,2300.0,,OVC,2300,,,,,,
KRDR,11-18-2005,07:00,METAR,,310,7.0,,,9999.0,,-3.0,-6.0,30.07,1020.3,,,,,,,,,,,,,,,8/8 Overcast,2200.0,,OVC,2200,,,,,,
KRDR,11-18-2005,05:28,SPECI,,330,6.0,,,9999.0,,-2.0,-6.0,30.09,,,,,,,,,,,,,,,,8/8 Overcast,2100.0,,OVC,2100,,,,,,
KRDR,11-18-2005,05:00,METAR,,310,8.0,,,9999.0,,-2.0,-5.0,30.10,1021.3,,,,,,,,,,,,,,,8/8 Overcast,2100.0,,BKN,2100,OVC,3000.0,,,,
KRDR,11-18-2005,04:00,METAR,,320,5.0,,,9999.0,,-3.0,-5.0,30.10,1021.4,,,,,,,,,,,,,,,8/8 Overcast,2300.0,,BKN,2300,OVC,3000.0,,,,
KRDR,11-18-2005,03:00,METAR,,300,10.0,,,9999.0,,-2.0,-6.0,30.10,1021.4,,,,,,,,,,,,,,,8/8 Overcast,2700.0,,OVC,2700,,,,,,
KRDR,11-18-2005,02:15,SPECI,,360,5.0,,,9999.0,,-3.0,-6.0,30.11,1021.7,,,,,,,,,,,,,,,8/8 Overcast,2700.0,,OVC,2700,,,,,,
KRDR,11-18-2005,02:00,METAR,,320,8.0,,,9999.0,,-3.0,-6.0,30.11,1021.7,,,,,,,,,,,,,,,8/8 Overcast,2700.0,,OVC,2700,,,,,,
KRDR,11-18-2005,01:00,METAR,,220,4.0,,,9999.0,,-4.0,-4.0,30.13,1022.6,,,,,,,,,,,,,,,8/8 Overcast,2200.0,,OVC,2200,,,,,,
KRDR,11-18-2005,00:41,SPECI,,220,4.0,,,9999.0,,-4.0,-4.0,30.13,,,,,,,,,,,,,,,,8/8 Overcast,2200.0,,OVC,2200,,,,,,
KRDR,11-18-2005,00:00,METAR,,190,8.0,,,9999.0,Snow Grains,-5.0,-5.0,30.13,1022.7,,,,77,,,,,,,,,,,8/8 Overcast,1700.0,,OVC,1700,,,,,,
KRDR,11-17-2005,23:41,SPECI,,190,8.0,,,9999.0,Snow Grains,-5.0,-5.0,30.13,,,,,77,,,,,,,,,,,8/8 Overcast,1600.0,,OVC,1600,,,,,,
KRDR,11-17-2005,23:12,SPECI,,160,7.0,,,9999.0,Freezing Drizzle,-5.0,-5.0,30.14,,,,,56,,,,,,,,,,,8/8 Overcast,1600.0,,OVC,1600,,,,,,
KRDR,11-17-2005,23:00,METAR,,170,8.0,,,9999.0,Freezing Drizzle,-6.0,-6.0,30.14,1023.1,,,,56,,,,,,,,,,,8/8 Overcast,1600.0,,OVC,1600,,,,,,
KRDR,11-17-2005,22:45,METAR,,160,9.0,,,9999.0,Freezing Drizzle,-6.0,-6.0,30.15,,,,,56,,,,,,,,,,,8/8 Overcast,1700.0,,OVC,1700,,,,,,
KRDR,11-17-2005,22:00,METAR,,170,10.0,,,9999.0,,-6.0,-6.0,30.17,1024.0,,,,,,,,,,,,,,,8/8 Overcast,1900.0,,OVC,1900,,,,,,
KRDR,11-17-2005,21:05,SPECI,,180,11.0,,,9999.0,,-6.0,-7.0,30.18,,,,,,,,,,,,,,,,8/8 Overcast,2000.0,,OVC,2000,,,,,,
KRDR,11-17-2005,21:00,METAR,,180,12.0,,,9999.0,Light Snow,-6.0,-7.0,30.19,1024.7,,,,71,,,,,,,,,,,8/8 Overcast,2000.0,,OVC,2000,,,,,,
KRDR,11-17-2005,20:00,METAR,,180,16.0,,,9999.0,Light Snow,-7.0,-8.0,30.20,1025.0,,,,71,,,,,,,,,,,8/8 Overcast,1700.0,,BKN,1700,OVC,3600.0,,,,
KRDR,11-17-2005,19:08,SPECI,,170,14.0,,,3200.0,Light Snow,-7.0,-7.0,30.22,,,,,71,,,,,,,,,,,8/8 Overcast,3100.0,,OVC,3100,,,,,,
KRDR,11-17-2005,19:00,METAR,,180,13.0,,,4800.0,Light Snow,-8.0,-8.0,30.24,1026.4,,,,71,,,,,,,,,,,8/8 Overcast,3100.0,,OVC,3100,,,,,,
KRDR,11-17-2005,18:00,METAR,,170,12.0,,,9999.0,Light Snow,-8.0,-10.0,30.28,1028.0,,,,71,,,,,,,,,,,8/8 Overcast,3500.0,,OVC,3600,,,,,,
KRDR,11-17-2005,17:00,METAR,,170,13.0,,,9999.0,Light Snow,-9.0,-10.0,30.30,1028.7,,,,71,,,,,,,,,,,8/8 Overcast,3500.0,,OVC,3600,,,,,,
KRDR,11-17-2005,16:00,METAR,,170,12.0,,,9999.0,Light Snow,-10.0,-11.0,30.32,1029.3,,,,71,,,,,,,,,,,8/8 Overcast,3900.0,,OVC,4000,,,,,,
KRDR,11-17-2005,15:00,METAR,,170,12.0,,,9999.0,,-11.0,-11.0,30.32,1029.3,,,,,,,,,,,,,,,7/8 Mostly Cloudy,3900.0,,BKN,4000,BKN,6900.0,,,,
KRDR,11-17-2005,14:00,METAR,,170,11.0,,,9999.0,,-11.0,-12.0,30.33,1029.7,,,,,,,,,,,,,,,7/8 Mostly Cloudy,12000.0,,SCT,6900,BKN,12000.0,,,,
KRDR,11-17-2005,13:00,METAR,,170,9.0,,,9999.0,,-12.0,-12.0,30.34,1030.0,,,,,,,,,,,,,,,7/8 Mostly Cloudy,15000.0,,FEW,5000,BKN,15000.0,,,,
KRDR,11-17-2005,12:00,METAR,,170,6.0,,,9999.0,,-13.0,-16.0,30.33,1029.8,,,,,,,,,,,,,,,4/8 Partly Cloudy,72000.0,,SCT,20000,,,,,,
KRDR,11-17-2005,11:00,METAR,,180,6.0,,,9999.0,,-14.0,-16.0,30.34,1030.0,,,,,,,,,,,,,,,4/8 Partly Cloudy,72000.0,,SCT,20000,,,,,,
KRDR,11-17-2005,10:00,METAR,,160,7.0,,,9999.0,,-14.0,-17.0,30.34,1030.0,,,,,,,,,,,,,,,4/8 Partly Cloudy,72000.0,,SCT,20000,,,,,,
KRDR,11-17-2005,09:00,METAR,,180,6.0,,,9999.0,,-15.0,-17.0,30.35,1030.4,,,,,,,,,,,,,,,4/8 Partly Cloudy,72000.0,,SCT,20000,,,,,,
KRDR,11-17-2005,08:00,METAR,,170,4.0,,,9999.0,,-15.0,-18.0,30.36,1030.7,,,,,,,,,,,,,,,Clear,72000.0,,,73000,,,,,,
KRDR,11-17-2005,07:00,METAR,,180,4.0,,,9999.0,,-15.0,-18.0,30.37,1031.1,,,,,,,,,,,,,,,Clear,72000.0,,,73000,,,,,,
KRDR,11-17-2005,06:00,METAR,,210,4.0,,,9999.0,,-16.0,-16.0,30.38,1031.5,,,,,,,,,,,,,,,Clear,72000.0,,,73000,,,,,,
KRDR,11-17-2005,05:00,METAR,,200,5.0,,,9999.0,,-15.0,-18.0,30.39,1031.8,,,,,,,,,,,,,,,Clear,72000.0,,,73000,,,,,,
KRDR,11-17-2005,04:00,METAR,,270,2.0,,,9999.0,,-15.0,-18.0,30.37,1031.1,,,,,,,,,,,,,,,Clear,72000.0,,,73000,,,,,,
KRDR,11-17-2005,03:00,METAR,,300,2.0,,,9999.0,,-15.0,-18.0,30.36,1030.8,,,,,,,,,,,,,,,Clear,72000.0,,,73000,,,,,,
KRDR,11-17-2005,02:00,METAR,,320,3.0,,,9999.0,,-15.0,-18.0,30.37,1031.2,,,,,,,,,,,,,,,Clear,72000.0,,,73000,,,,,,
KRDR,11-17-2005,01:00,METAR,,290,4.0,,,9999.0,,-15.0,-15.0,30.40,1032.2,,,,,,,,,,,,,,,2/8 Mostly Clear,72000.0,,FEW,4000,FEW,20000.0,,,,
KRDR,11-17-2005,00:00,METAR,,290,4.0,,,9999.0,,-15.0,-15.0,30.40,1032.2,,,,,,,,,,,,,,,2/8 Mostly Clear,72000.0,,FEW,4000,FEW,20000.0,,,,
KRDR,11-16-2005,23:00,METAR,,310,9.0,,,9999.0,,-13.0,-17.0,30.36,1030.7,,,,,,,,,,,,,,,2/8 Mostly Clear,72000.0,,FEW,4000,FEW,20000.0,,,,
KRDR,11-16-2005,22:00,METAR,,320,13.0,,,9999.0,,-12.0,-17.0,30.35,1030.4,,,,,,,,,,,,,,,2/8 Mostly Clear,72000.0,,FEW,4000,FEW,20000.0,,,,
KRDR,11-16-2005,21:00,METAR,,310,12.0,17.0,,9999.0,,-11.0,-16.0,30.34,1029.8,,,,,,,,,,,,,,,2/8 Mostly Clear,72000.0,,FEW,2500,FEW,4000.0,FEW,20000.0,,
KRDR,11-16-2005,20:00,METAR,,330,13.0,20.0,,9999.0,,-10.0,-16.0,30.33,1029.4,,,,,,,,,,,,,,,2/8 Mostly Clear,72000.0,,FEW,2500,FEW,4000.0,FEW,20000.0,,
KRDR,11-16-2005,19:00,METAR,,340,16.0,,,9999.0,,-11.0,-16.0,30.33,1029.6,,,,,,,,,,,,,,,7/8 Mostly Cloudy,3200.0,,SCT,2700,BKN,3300.0,,,,
KRDR,11-16-2005,18:47,SPECI,,330,14.0,20.0,,9999.0,,-10.0,-16.0,30.33,,,,,,,,,,,,,,,,7/8 Mostly Cloudy,2700.0,,BKN,2700,,,,,,
KRDR,11-16-2005,18:00,METAR,,330,16.0,22.0,320/26KTS,9999.0,,-11.0,-16.0,30.32,1029.3,,,,,,,,,,,,,TRACE,,4/8 Partly Cloudy,72000.0,,SCT,2100,,,,,,
KRDR,11-16-2005,17:00,METAR,,330,17.0,24.0,330/26KTS,9999.0,,-11.0,-16.0,30.32,1029.0,,,,,,,,,,,,,,,2/8 Mostly Clear,72000.0,,FEW,3500,FEW,7900.0,,,,
KRDR,11-16-2005,16:00,METAR,,330,19.0,26.0,330/28KTS,9999.0,,-12.0,-16.0,30.30,1028.3,,,,,,,,,,,,,,,4/8 Partly Cloudy,72000.0,,FEW,3500,FEW,7900.0,SCT,20000.0,,
KRDR,11-16-2005,15:00,METAR,,320,18.0,22.0,,9999.0,,-12.0,-17.0,30.27,1027.2,,,,,,,,,,,,,,,7/8 Mostly Cloudy,3400.0,,BKN,3500,BKN,7900.0,,,,
KRDR,11-16-2005,14:08,SPECI,,320,19.0,24.0,,9999.0,,-13.0,-17.0,30.25,,,,,,,,,,,,,,,,7/8 Mostly Cloudy,3300.0,,BKN,3400,BKN,6900.0,,,,
KRDR,11-16-2005,14:00,METAR,,330,15.0,26.0,,9999.0,,-13.0,-17.0,30.24,1026.4,,,,,,,,,,,,,,,7/8 Mostly Cloudy,2800.0,,BKN,2800,BKN,5000.0,,,,
KRDR,11-16-2005,13:00,METAR,,320,20.0,26.0,330/25KTS,8000.0,Light Snow/Blowing Snow,-13.0,-16.0,30.23,1025.8,,,,71,38,,,,,,,,,,7/8 Mostly Cloudy,1000.0,,SCT,700,BKN,1000.0,,,,
KRDR,11-16-2005,12:00,METAR,,330,17.0,24.0,330/26KTS,8000.0,Light Snow/Blowing Snow,-12.0,-15.0,30.21,1025.0,,,,71,38,,,,,,,,TRACE,,7/8 Mostly Cloudy,1000.0,,BKN,1000,,,,,,
KRDR,11-16-2005,11:00,METAR,,330,18.0,26.0,330/29KTS,8000.0,Light Snow/Blowing Snow,-12.0,-15.0,30.19,1024.3,,,,71,38,,,,,,,,,,7/8 Mostly Cloudy,1100.0,,BKN,1100,,,,,,
KRDR,11-16-2005,10:00,METAR,,330,22.0,30.0,330/35KTS,8000.0,Light Snow/Blowing Snow,-10.0,-13.0,30.17,1023.4,,,,71,38,,,,,,,,,,7/8 Mostly Cloudy,1100.0,,BKN,1100,,,,,,
KRDR,11-16-2005,09:00,METAR,,330,24.0,31.0,330/31KTS,8000.0,Light Snow/Blowing Snow,-10.0,-13.0,30.16,1023.0,,,,71,38,,,,,,,TRACE,,,7/8 Mostly Cloudy,1300.0,,BKN,1300,,,,,,
KRDR,11-16-2005,08:28,SPECI,,330,21.0,29.0,,8000.0,Light Snow/Blowing Snow,-9.0,-13.0,30.15,,,,,71,38,,,,,,,,,,7/8 Mostly Cloudy,1200.0,,BKN,1200,,,,,,
KRDR,11-16-2005,08:00,METAR,,330,18.0,26.0,330/31KTS,9999.0,,-10.0,-13.0,30.14,1022.3,,,,,,,,,,,,,,,2/8 Mostly Clear,72000.0,,FEW,1500,,,,,,
KRDR,11-16-2005,07:00,METAR,,330,22.0,28.0,330/34KTS,9999.0,,-10.0,-13.0,30.13,1022.1,,,,,,,,,,,,,,,2/8 Mostly Clear,72000.0,,FEW,1500,,,,,,
KRDR,11-16-2005,06:33,SPECI,,320,22.0,28.0,,9999.0,,-10.0,-13.0,30.13,,,,,,,,,,,,,,,,4/8 Partly Cloudy,72000.0,,SCT,1500,,,,,,
KRDR,11-16-2005,06:00,METAR,,330,17.0,26.0,330/28KTS,9999.0,Light Snow/Blowing Snow,-9.0,-12.0,30.13,1022.1,,,,71,38,,,,,,,,TRACE,,7/8 Mostly Cloudy,1500.0,,FEW,900,BKN,1500.0,,,,
KRDR,11-16-2005,05:00,METAR,,330,19.0,28.0,330/32KTS,9999.0,Light Snow/Blowing Snow,-8.0,-11.0,30.13,1021.9,,,,71,38,,,,,,,,,,8/8 Overcast,1300.0,,SCT,900,OVC,1300.0,,,,
KRDR,11-16-2005,04:00,METAR,,320,24.0,30.0,330/31KTS,9999.0,Light Snow/Blowing Snow,-7.0,-10.0,30.12,1021.7,,,,71,38,,,,,,,,,,8/8 Overcast,1500.0,,OVC,1500,,,,,,
KRDR,11-16-2005,03:00,METAR,,320,21.0,31.0,320/33KTS,9999.0,Light Snow/Blowing Snow,-6.0,-9.0,30.11,1021.3,,,,71,38,,,,,,,TRACE,,,8/8 Overcast,2000.0,,FEW,1100,OVC,2000.0,,,,
KRDR,11-16-2005,02:30,METAR,,320,24.0,33.0,,9999.0,Light Snow/Blowing Snow,-6.0,-9.0,30.11,,,,,71,38,,,,,,,,,,8/8 Overcast,1900.0,,OVC,1900,,,,,,
KRDR,11-16-2005,02:00,METAR,,320,21.0,30.0,320/31KTS,9999.0,,-6.0,-9.0,30.11,1021.0,,,,,,,,,,,,,,,8/8 Overcast,2100.0,,OVC,2100,,,,,,
KRDR,11-16-2005,01:00,METAR,,330,25.0,33.0,330/33KTS,9999.0,Light Snow/Blowing Snow,-6.0,-9.0,30.09,1020.6,,,,71,38,,,,,,,,,,8/8 Overcast,2100.0,,OVC,2100,,,,,,
KRDR,11-16-2005,00:00,METAR,,300,21.0,30.0,330/36KTS,9999.0,Light Snow/Drifting Snow,-5.0,-8.0,30.08,1020.4,,,,71,36,,,,,,,,TRACE,,8/8 Overcast,2500.0,,BKN,2500,OVC,4000.0,,,,
KRDR,11-15-2005,23:00,METAR,,330,26.0,35.0,330/35KTS,9999.0,Light Snow/Drifting Snow,-4.0,-7.0,30.06,1019.6,,,,71,36,,,,,,,,,,8/8 Overcast,2600.0,,BKN,2600,OVC,4000.0,,,,
KRDR,11-15-2005,22:00,METAR,,310,25.0,32.0,330/32KTS,9999.0,Light Snow,-3.0,-7.0,30.05,1019.2,,,,71,,,,,,,,,,,8/8 Overcast,2600.0,,BKN,2600,OVC,5900.0,,,,
KRDR,11-15-2005,21:21,SPECI,,330,20.0,31.0,,9999.0,Light Snow/Drifting Snow,-3.0,-6.0,30.04,,,,,71,36,,,,,,,,,,8/8 Overcast,2200.0,,OVC,2200,,,,,,
KRDR,11-15-2005,21:00,METAR,,340,22.0,33.0,330/33KTS,9999.0,,-2.0,-7.0,30.04,1018.8,,,,,,,,,,,,,,,8/8 Overcast,2400.0,,SCT,1500,BKN,2400.0,OVC,7900.0,,
KRDR,11-15-2005,20:00,METAR,,340,29.0,33.0,320/34KTS,9999.0,,-2.0,-6.0,30.03,1018.3,,,,,,,,,,,,,,,7/8 Mostly Cloudy,2400.0,,SCT,1500,BKN,2400.0,BKN,7900.0,,
KRDR,11-15-2005,19:00,METAR,,340,25.0,32.0,330/32KTS,9999.0,,-2.0,-5.0,30.02,1017.9,,,,,,,,,,,,,,,8/8 Overcast,2000.0,,BKN,2000,BKN,4000.0,OVC,8900.0,,
KRDR,11-15-2005,18:00,METAR,,320,21.0,,320/32KTS,9999.0,,-2.0,-5.0,30.00,1017.4,,,,,,,,,,,,,,,8/8 Overcast,1800.0,,BKN,1800,OVC,5000.0,,,,
KRDR,11-15-2005,17:00,METAR,,330,21.0,29.0,340/29KTS,9999.0,,-2.0,-5.0,30.00,1017.2,,,,,,,,,,,,,,,8/8 Overcast,1600.0,,BKN,1600,OVC,5000.0,,,,
KRDR,11-15-2005,16:00,METAR,,320,16.0,25.0,320/26KTS,9999.0,,-2.0,-4.0,29.97,1016.5,,,,,,,,,,,,,,,8/8 Overcast,1600.0,,BKN,1600,OVC,5000.0,,,,
KRDR,11-15-2005,15:00,METAR,,330,17.0,24.0,330/27KTS,9999.0,,-1.0,-3.0,29.95,1015.7,,,,,,,,,,,,,,,8/8 Overcast,1500.0,,BKN,1500,OVC,5000.0,,,,
KRDR,11-15-2005,14:03,SPECI,,330,19.0,,,9999.0,,0.0,-3.0,29.90,,,,,,,,,,,,,,,,7/8 Mostly Cloudy,1500.0,,FEW,500,BKN,1500.0,,,,
KRDR,11-15-2005,14:00,METAR,,330,16.0,27.0,330/27KTS,9999.0,,0.0,-2.0,29.91,1014.3,,,,,,,,,,,,,,,8/8 Overcast,800.0,,BKN,800,BKN,1500.0,OVC,5000.0,,
KRDR,11-15-2005,13:00,METAR,,290,13.0,,,9999.0,,0.0,-1.0,29.87,1012.9,,,,,,,,,,,,,,,8/8 Overcast,600.0,,OVC,700,,,,,,
KRDR,11-15-2005,12:00,METAR,,260,9.0,,,9999.0,,1.0,0.0,29.87,1012.6,,,,,,,,,,,,,.05 IN,,8/8 Overcast,700.0,,OVC,700,,,,,,
KRDR,11-15-2005,11:00,METAR,,230,7.0,,,9999.0,,2.0,1.0,29.86,1012.4,,,,,,,,,,,,,,,8/8 Overcast,500.0,,OVC,700,,,,,,
KRDR,11-15-2005,10:00,METAR,,220,7.0,,,9999.0,,2.0,1.0,29.85,1012.0,,,,,,,,,,,,,,,8/8 Overcast,500.0,,OVC,700,,,,,,
KRDR,11-15-2005,09:16,SPECI,,230,7.0,,,9999.0,Mist,2.0,2.0,29.84,,,,,10,,,,,,,,,,,8/8 Overcast,600.0,,OVC,1000,,,,,,
KRDR,11-15-2005,09:00,METAR,,190,4.0,,,9999.0,Light Snow/Rain/Mist,2.0,2.0,29.84,1011.6,,,,61,71,10,,,,,,.05 IN,,,8/8 Overcast,800.0,,FEW,400,OVC,1100.0,,,,
KRDR,11-15-2005,08:12,SPECI,,220,10.0,,,9999.0,Light Snow/Rain,3.0,2.0,29.84,,,,,61,71,,,,,,,,,,8/8 Overcast,800.0,,FEW,400,OVC,1000.0,,,,
KRDR,11-15-2005,08:00,METAR,,160,13.0,18.0,,9999.0,Light Snow,3.0,2.0,29.83,1011.3,,,,71,,,,,,,,,,,8/8 Overcast,800.0,,OVC,1100,,,,,,
KRDR,11-15-2005,07:44,SPECI,,170,14.0,19.0,,9999.0,Light Snow,3.0,2.0,29.84,,,,,71,,,,,,,,,,,8/8 Overcast,800.0,,OVC,1000,,,,,,
KRDR,11-15-2005,06:00,METAR,,150,11.0,19.0,,9999.0,Snow Grains/Rain,3.0,1.0,29.84,1011.7,,,,61,77,,,,,,,,.19 IN,,8/8 Overcast,500.0,,OVC,500,,,,,,
KRDR,11-15-2005,05:00,METAR,,150,18.0,23.0,,9999.0,Light Snow/Rain,2.0,1.0,29.84,1011.7,,,,61,71,,,,,,,,,,8/8 Overcast,500.0,,OVC,500,,,,,,
KRDR,11-15-2005,04:00,METAR,,140,12.0,18.0,,9999.0,Light Snow/Rain,2.0,1.0,29.85,1012.1,,,,61,71,,,,,,,,,,8/8 Overcast,500.0,,OVC,500,,,,,,
KRDR,11-15-2005,03:00,METAR,,130,17.0,,,6400.0,Light Snow/Rain,2.0,2.0,29.84,1011.8,,,,61,71,,,,,,,.12 IN,,,8/8 Overcast,500.0,,OVC,500,,,,,,
KRDR,11-15-2005,02:26,SPECI,,130,15.0,,,4800.0,Light Snow/Rain,1.0,1.0,29.86,,,,,61,71,,,,,,,,,,8/8 Overcast,500.0,,OVC,500,,,,,,
KRDR,11-15-2005,02:13,SPECI,,130,14.0,19.0,,4800.0,Light Snow,1.0,1.0,29.86,,,,,71,,,,,,,,,,,8/8 Overcast,500.0,,OVC,500,,,,,,
KRDR,11-15-2005,02:00,METAR,,120,13.0,,,4800.0,Light Snow,1.0,1.0,29.86,1012.5,,,,71,,,,,,,,,,,8/8 Overcast,500.0,,OVC,500,,,,,,
KRDR,11-15-2005,01:31,SPECI,,130,14.0,,,4800.0,Light Snow,1.0,1.0,29.86,,,,,71,,,,,,,,,,,8/8 Overcast,500.0,,OVC,500,,,,,,
KRDR,11-15-2005,01:00,METAR,,130,13.0,,,8000.0,Light Snow/Rain,1.0,1.0,29.85,1012.2,,,,61,71,,,,,,,,,,8/8 Overcast,600.0,,OVC,600,,,,,,
KRDR,11-15-2005,00:00,METAR,,120,11.0,,,9999.0,Light Snow/Rain,1.0,1.0,29.85,1012.2,,,,61,71,,,,,,,,.06 IN,,8/8 Overcast,600.0,,OVC,600,,,,,,
KRDR,11-14-2005,23:37,SPECI,,120,13.0,,,8000.0,Light Snow/Rain,1.0,1.0,29.84,,,,,61,71,,,,,,,,,,8/8 Overcast,600.0,,OVC,600,,,,,,
KRDR,11-14-2005,23:00,METAR,,120,14.0,,,8000.0,Light Snow/Mist,1.0,1.0,29.84,1011.9,,,,71,10,,,,,,,,,,8/8 Overcast,500.0,,BKN,500,OVC,900.0,,,,
KRDR,11-14-2005,22:00,METAR,,110,14.0,,,6400.0,Light Snow/Mist,1.0,1.0,29.84,1012.1,,,,71,10,,,,,,,,,,8/8 Overcast,500.0,,BKN,500,OVC,1200.0,,,,
KRDR,11-14-2005,21:39,SPECI,,110,14.0,,,6400.0,Light Snow,1.0,1.0,29.84,,,,,71,,,,,,,,,,,8/8 Overcast,600.0,,OVC,600,,,,,,
KRDR,11-14-2005,21:21,SPECI,,110,16.0,,,8000.0,Snow Grains,1.0,1.0,29.84,,,,,77,,,,,,,,,,,8/8 Overcast,600.0,,OVC,600,,,,,,
KRDR,11-14-2005,21:00,METAR,,110,13.0,,,4800.0,Light Snow/Mist,1.0,1.0,29.84,1012.1,,,,71,10,,,,,,,.03 IN,,,8/8 Overcast,400.0,,OVC,400,,,,,,
KRDR,11-14-2005,20:00,METAR,,100,13.0,,,6400.0,Light Snow/Mist,1.0,1.0,29.86,1012.6,,,,71,10,,,,,,,,,,8/8 Overcast,400.0,,OVC,400,,,,,,
KRDR,11-14-2005,19:08,SPECI,,90,13.0,,,6400.0,Light Snow/Mist,1.0,1.0,29.88,,,,,71,10,,,,,,,,,,Sky Obscured (Unable to Estimate),400.0,100.0,,400,,,,,,
KRDR,11-14-2005,19:02,SPECI,,100,13.0,,,3200.0,Light Snow/Mist,0.0,0.0,29.89,,,,,71,10,,,,,,,,,,Sky Obscured (Unable to Estimate),400.0,100.0,,400,,,,,,
KRDR,11-14-2005,19:00,METAR,,90,13.0,,,1600.0,Light Snow/Mist,0.0,0.0,29.89,1013.7,,,,71,10,,,,,,,,,,Sky Obscured (Unable to Estimate),400.0,0.0,,400,,,,,,
KRDR,11-14-2005,18:34,SPECI,,100,11.0,,,1600.0,Light Snow,0.0,0.0,29.91,,,,,71,,,,,,,,,,,8/8 Overcast,1200.0,,OVC,1200,,,,,,
KRDR,11-14-2005,18:00,METAR,,110,12.0,,,2400.0,Light Snow/Mist,0.0,0.0,29.93,1015.3,,,,71,10,,,,,,,,,,Sky Obscured (Unable to Estimate),1000.0,100.0,,1000,,,,,,
KRDR,11-14-2005,17:41,SPECI,,100,11.0,,,2400.0,Light Snow,0.0,0.0,29.94,,,,,71,,,,,,,,,,,Sky Obscured (Unable to Estimate),1000.0,100.0,,1000,,,,,,
KRDR,11-14-2005,17:00,METAR,,100,11.0,,,4000.0,Light Snow,0.0,0.0,29.96,1016.2,,,,71,,,,,,,,,,,8/8 Overcast,1500.0,,OVC,1500,,,,,,
KRDR,11-14-2005,16:36,SPECI,,100,11.0,,,4000.0,Light Snow,0.0,0.0,29.96,,,,,71,,,,,,,,,,,8/8 Overcast,1400.0,,OVC,1400,,,,,,
KRDR,11-14-2005,16:24,SPECI,,110,9.0,,,2400.0,Light Snow,0.0,0.0,29.97,,,,,71,,,,,,,,,,,8/8 Overcast,1500.0,,OVC,1500,,,,,,
KRDR,11-14-2005,16:11,SPECI,,110,11.0,,,2400.0,Light Snow,0.0,0.0,29.98,,,,,71,,,,,,,,,,,8/8 Overcast,2000.0,,OVC,2000,,,,,,
KRDR,11-14-2005,16:00,METAR,,110,10.0,,,6400.0,Light Snow,0.0,0.0,29.98,1017.0,,,,71,,,,,,,,,,,8/8 Overcast,2000.0,,BKN,2000,BKN,5000.0,OVC,7900.0,,
KRDR,11-14-2005,15:39,SPECI,,120,11.0,,,8000.0,Light Snow,0.0,0.0,29.99,,,,,71,,,,,,,,,,,8/8 Overcast,2000.0,,BKN,2000,BKN,5000.0,OVC,7900.0,,
KRDR,11-14-2005,15:35,SPECI,,120,10.0,,,9999.0,Light Snow,0.0,0.0,29.99,,,,,71,,,,,,,,,,,8/8 Overcast,4400.0,,FEW,2000,SCT,4500.0,OVC,7900.0,,
KRDR,11-14-2005,15:00,METAR,,100,10.0,,,9999.0,,-1.0,-1.0,30.00,1017.4,,,,,,,,,,,,,,,8/8 Overcast,3900.0,,FEW,1500,BKN,4000.0,OVC,6900.0,,
KRDR,11-14-2005,14:00,METAR,,100,7.0,,,9999.0,,-2.0,-2.0,30.02,1018.1,,,,,,,,,,,,,,,8/8 Overcast,3900.0,,BKN,4000,OVC,9900.0,,,,
KRDR,11-14-2005,13:00,METAR,,110,8.0,,,9999.0,,-2.0,-2.0,30.04,1018.8,,,,,,,,,,,,,,,8/8 Overcast,8000.0,,FEW,2500,BKN,7900.0,OVC,15000.0,,
KRDR,11-14-2005,12:00,METAR,,120,7.0,,,9999.0,,-2.0,-2.0,30.07,1020.0,,,,,,,,,,,,,,,8/8 Overcast,8000.0,,FEW,2500,BKN,7900.0,OVC,15000.0,,
KRDR,11-14-2005,11:00,METAR,,120,6.0,,,9999.0,,-3.0,-3.0,30.08,1020.4,,,,,,,,,,,,,,,8/8 Overcast,10000.0,,FEW,4500,SCT,9900.0,OVC,15000.0,,
KRDR,11-14-2005,10:00,METAR,,110,6.0,,,9999.0,,-4.0,-4.0,30.09,1020.7,,,,,,,,,,,,,,,7/8 Mostly Cloudy,15000.0,,FEW,9900,BKN,15000.0,,,,
KRDR,11-14-2005,09:00,METAR,,110,6.0,,,9999.0,,-4.0,-4.0,30.11,1021.4,,,,,,,,,,,,,,,7/8 Mostly Cloudy,15000.0,,FEW,9900,BKN,15000.0,,,,
KRDR,11-14-2005,08:00,METAR,,140,5.0,,,9999.0,,-4.0,-4.0,30.13,1022.1,,,,,,,,,,,,,,,4/8 Partly Cloudy,72000.0,,SCT,15000,,,,,,
KRDR,11-14-2005,07:00,METAR,,150,5.0,,,9999.0,,-4.0,-4.0,30.14,1022.3,,,,,,,,,,,,,,,4/8 Partly Cloudy,72000.0,,SCT,15000,,,,,,
KRDR,11-14-2005,06:00,METAR,,110,3.0,,,9999.0,,-4.0,-4.0,30.14,1022.3,,,,,,,,,,,,,,,4/8 Partly Cloudy,72000.0,,SCT,15000,,,,,,
KRDR,11-14-2005,05:00,METAR,,160,3.0,,,9999.0,,-4.0,-4.0,30.15,1022.5,,,,,,,,,,,,,,,2/8 Mostly Clear,72000.0,,FEW,15000,,,,,,
KRDR,11-14-2005,04:00,METAR,,,0.0,,,9999.0,,-3.0,-3.0,30.15,1022.5,,,,,,,,,,,,,,,Clear,72000.0,,,73000,,,,,,
KRDR,11-14-2005,03:00,METAR,,180,3.0,,,9999.0,,-4.0,-4.0,30.15,1022.6,,,,,,,,,,,,,,,Clear,72000.0,,,73000,,,,,,
KRDR,11-14-2005,02:00,METAR,,,0.0,,,9999.0,,-3.0,-3.0,30.15,1022.6,,,,,,,,,,,,,,,Clear,72000.0,,,73000,,,,,,
KRDR,11-14-2005,01:00,METAR,,210,2.0,,,9999.0,,-2.0,-2.0,30.15,1022.5,,,,,,,,,,,,,,,7/8 Mostly Cloudy,8000.0,,FEW,3000,BKN,7900.0,BKN,25000.0,,
KRDR,11-14-2005,00:00,METAR,,310,1.0,,,9999.0,,-1.0,-1.0,30.14,1022.2,,,,,,,,,,,,,,,7/8 Mostly Cloudy,8000.0,,FEW,3000,BKN,7900.0,BKN,25000.0,,
KRDR,11-13-2005,23:00,METAR,,310,4.0,,,9999.0,,-1.0,-2.0,30.13,1021.8,,,,,,,,,,,,,,,7/8 Mostly Cloudy,10000.0,,FEW,2500,SCT,9900.0,BKN,25000.0,,
KRDR,11-13-2005,22:00,METAR,,320,10.0,,,9999.0,,1.0,-2.0,30.13,1021.7,,,,,,,,,,,,,,,7/8 Mostly Cloudy,6000.0,,FEW,2500,SCT,5900.0,BKN,12000.0,BKN,25000.0
KRDR,11-13-2005,21:00,METAR,,310,9.0,,,9999.0,,1.0,-3.0,30.12,1021.4,,,,,,,,,,,,,,,7/8 Mostly Cloudy,6000.0,,FEW,2500,SCT,5900.0,BKN,12000.0,BKN,25000.0
KRDR,11-13-2005,20:00,METAR,,310,14.0,,,9999.0,,2.0,-3.0,30.10,1020.6,,,,,,,,,,,,,,,7/8 Mostly Cloudy,12000.0,,SCT,5900,BKN,12000.0,BKN,25000.0,,
KRDR,11-13-2005,19:00,METAR,,320,13.0,,,9999.0,,3.0,-2.0,30.09,1020.3,,,,,,,,,,,,,,,4/8 Partly Cloudy,72000.0,,FEW,2500,SCT,12000.0,SCT,25000.0,,
KRDR,11-13-2005,18:00,METAR,,320,14.0,,,9999.0,,3.0,-2.0,30.07,1019.6,,,,,,,,,,,,,,,7/8 Mostly Cloudy,12000.0,,FEW,2500,SCT,12000.0,BKN,25000.0,,
KRDR,11-13-2005,17:00,METAR,,320,14.0,19.0,,9999.0,,2.0,-2.0,30.04,1018.8,,,,,,,,,,,,,,,8/8 Overcast,12000.0,,BKN,12000,OVC,25000.0,,,,
KRDR,11-13-2005,16:00,METAR,,330,15.0,20.0,,9999.0,,2.0,-1.0,30.01,1017.5,,,,,,,,,,,,,,,8/8 Overcast,12000.0,,BKN,12000,OVC,25000.0,,,,
KRDR,11-13-2005,15:00,METAR,,320,15.0,,,9999.0,,1.0,-1.0,29.98,1006.7,,,,,,,,,,,,,,,8/8 Overcast,12000.0,,OVC,12000,,,,,,
KRDR,11-13-2005,14:00,METAR,,330,18.0,23.0,330/28KTS,9999.0,,1.0,0.0,29.94,1015.3,,,,,,,,,,,,,,,7/8 Mostly Cloudy,10000.0,,BKN,9900,,,,,,
KRDR,11-13-2005,13:00,METAR,,330,18.0,25.0,310/27KTS,9999.0,,2.0,0.0,29.89,1013.5,,,,,,,,,,,,,,,7/8 Mostly Cloudy,10000.0,,BKN,9900,,,,,,
KRDR,11-13-2005,12:00,METAR,,330,19.0,,340/31KTS,9999.0,,2.0,0.0,29.85,1012.2,,,,,,,,,,,,,.08 IN,.32 IN,7/8 Mostly Cloudy,10000.0,,BKN,9900,,,,,,
KRDR,11-13-2005,11:00,METAR,,320,18.0,25.0,340/27KTS,9999.0,,2.0,1.0,29.82,1011.1,,,,,,,,,,,,,,,7/8 Mostly Cloudy,10000.0,,BKN,9900,,,,,,
KRDR,11-13-2005,10:00,METAR,,320,20.0,25.0,,9999.0,,2.0,1.0,29.77,1009.3,,,,,,,,,,,,,,,7/8 Mostly Cloudy,10000.0,,FEW,2000,BKN,9900.0,,,,
KRDR,11-13-2005,09:20,METAR,,320,18.0,27.0,,9999.0,,2.0,2.0,29.75,,,,,,,,,,,,,,,,7/8 Mostly Cloudy,10000.0,,FEW,2000,BKN,9900.0,,,,
KRDR,11-13-2005,09:00,METAR,,320,19.0,25.0,,9999.0,Rain,2.0,2.0,29.73,1007.9,,,,61,,,,,,,,.08 IN,,,8/8 Overcast,2000.0,,SCT,500,OVC,2000.0,,,,
KRDR,11-13-2005,08:00,METAR,,320,20.0,28.0,,9999.0,Rain,2.0,2.0,29.68,1006.4,,,,61,,,,,,,,,,,8/8 Overcast,2000.0,,SCT,500,OVC,2000.0,,,,
KRDR,11-13-2005,07:00,METAR,,340,22.0,30.0,,9999.0,Rain,2.0,2.0,29.65,1005.3,,,,61,,,,,,,,,,,8/8 Overcast,600.0,,BKN,600,OVC,1500.0,,,,
KRDR,11-13-2005,06:00,METAR,,330,22.0,28.0,,9999.0,Rain,1.0,1.0,29.63,1003.9,,,,61,,,,,,,,,.26 IN,,8/8 Overcast,600.0,,BKN,600,OVC,1500.0,,,,
KRDR,11-13-2005,05:00,METAR,,340,20.0,27.0,,8000.0,Light Snow/Rain,1.0,1.0,29.61,1003.9,,,,61,71,,,,,,,,,,8/8 Overcast,700.0,,BKN,700,OVC,1600.0,,,,
KRDR,11-13-2005,04:00,METAR,,350,24.0,32.0,,8000.0,Light Snow/Rain,1.0,1.0,29.59,1003.3,,,,61,71,,,,,,,,,,8/8 Overcast,700.0,,BKN,700,OVC,1600.0,,,,
KRDR,11-13-2005,03:00,METAR,,360,23.0,28.0,360/31KTS,8000.0,Light Snow/Rain,1.0,1.0,29.56,,,,,61,71,,,,,,,.12 IN,,,8/8 Overcast,500.0,,BKN,500,OVC,1500.0,,,,
KRDR,11-13-2005,02:33,SPECI,,360,26.0,31.0,,8000.0,Light Snow/Rain,1.0,1.0,29.55,,,,,61,71,,,,,,,,,,8/8 Overcast,500.0,,BKN,500,OVC,1500.0,,,,
KRDR,11-13-2005,02:00,METAR,,10,21.0,26.0,360/30KTS,3200.0,Light Snow,0.0,0.0,29.56,1002.3,,,,71,,,,,,,,,,,8/8 Overcast,500.0,,BKN,500,OVC,1500.0,,,,
KRDR,11-13-2005,01:37,SPECI,,10,21.0,28.0,,3200.0,Light Snow,0.0,0.0,29.56,,,,,71,,,,,,,,,,,8/8 Overcast,500.0,,BKN,500,OVC,1500.0,,,,
KRDR,11-13-2005,01:18,SPECI,,350,23.0,30.0,,1600.0,Light Snow,0.0,0.0,29.55,,,,,71,,,,,,,,,,,Sky Obscured (Unable to Estimate),400.0,100.0,,400,,,,,,
KRDR,11-13-2005,01:00,METAR,,350,21.0,30.0,360/31KTS,1600.0,Light Snow/Rain,1.0,1.0,29.54,1001.5,,,,61,71,,,,,,,,,,8/8 Overcast,500.0,,SCT,100,OVC,500.0,,,,
KRDR,11-13-2005,00:00,METAR,,350,23.0,29.0,360/31KTS,9999.0,Rain,3.0,3.0,29.53,1001.1,,,,61,,,,,,,,,IN,,8/8 Overcast,1000.0,,SCT,500,BKN,1000.0,OVC,2500.0,,
KRDR,11-12-2005,23:27,SPECI,,360,25.0,30.0,,9999.0,Rain,4.0,4.0,29.53,,,,,61,,,,,,,,,,,8/8 Overcast,1100.0,,SCT,500,SCT,1100.0,BKN,1400.0,OVC,2500.0
KRDR,11-12-2005,23:00,METAR,,360,23.0,29.0,360/29KTS,9999.0,Rain,4.0,3.0,29.53,1001.3,,,,61,,,,,,,,,,,8/8 Overcast,1500.0,,FEW,500,BKN,1500.0,OVC,2500.0,,
KRDR,11-12-2005,22:34,SPECI,,360,19.0,29.0,,9999.0,Rain,5.0,3.0,29.55,,,,,61,,,,,,,,,,,8/8 Overcast,1600.0,,FEW,500,BKN,1600.0,OVC,2500.0,,
KRDR,11-12-2005,22:00,METAR,,360,19.0,28.0,360/28KTS,9999.0,,5.0,3.0,29.56,1002.1,,,,,,,,,,,,,,,8/8 Overcast,1000.0,,FEW,500,SCT,1000.0,BKN,2500.0,OVC,7900.0
KRDR,11-12-2005,21:00,METAR,,360,20.0,24.0,350/30KTS,9999.0,,4.0,3.0,29.54,1001.6,,,,,,,,,,,,,,,8/8 Overcast,1000.0,,FEW,500,SCT,1000.0,BKN,2600.0,OVC,7900.0
KRDR,11-12-2005,20:00,METAR,,350,21.0,30.0,350/30KTS,9999.0,,4.0,3.0,29.54,1001.4,,,,,,,,,,,,,,,8/8 Overcast,1000.0,,FEW,500,SCT,1000.0,BKN,2400.0,OVC,7900.0
KRDR,11-12-2005,19:48,SPECI,,350,22.0,,,9999.0,,4.0,3.0,29.54,,,,,,,,,,,,,,,,8/8 Overcast,2400.0,,SCT,1000,BKN,2400.0,OVC,7900.0,,
KRDR,11-12-2005,19:00,METAR,,350,17.0,,,9999.0,,5.0,3.0,29.58,1002.8,,,,,,,,,,,,,,,8/8 Overcast,3400.0,,SCT,1000,BKN,3500.0,OVC,7900.0,,
KRDR,11-12-2005,18:00,METAR,,350,12.0,,,9999.0,,4.0,3.0,29.62,1004.0,,,,,,,,,,,,,,,8/8 Overcast,3400.0,,FEW,1000,SCT,3500.0,OVC,7900.0,,
KRDR,11-12-2005,17:00,METAR,,350,17.0,,,9999.0,,5.0,3.0,29.62,1004.0,,,,,,,,,,,,,,,8/8 Overcast,8000.0,,SCT,5000,BKN,7900.0,OVC,9900.0,,
KRDR,11-12-2005,16:00,METAR,,350,11.0,,,9999.0,,4.0,4.0,29.66,1005.4,,,,,,,,,,,,,,,8/8 Overcast,8000.0,,FEW,5000,SCT,7900.0,OVC,9900.0,,
KRDR,11-12-2005,15:00,METAR,,350,9.0,,,9999.0,,3.0,3.0,29.66,1005.4,,,,,,,,,,,,,,,8/8 Overcast,10000.0,,SCT,7900,OVC,9900.0,,,,
KRDR,11-12-2005,14:00,METAR,,360,9.0,,,9999.0,,3.0,3.0,29.64,1004.6,,,,,,,,,,,,,,,8/8 Overcast,10000.0,,OVC,9900,,,,,,
KRDR,11-12-2005,13:00,METAR,,350,7.0,,,9999.0,,3.0,2.0,29.64,1004.8,,,,,,,,,,,,,,,7/8 Mostly Cloudy,12000.0,,BKN,12000,,,,,,
KRDR,11-12-2005,12:00,METAR,,360,6.0,,,9999.0,,3.0,2.0,29.66,1005.4,,,,,,,,,,,,,,,7/8 Mostly Cloudy,11000.0,,BKN,11000,,,,,,
KRDR,11-12-2005,11:00,METAR,,350,7.0,,,9999.0,,3.0,2.0,29.69,1006.4,,,,,,,,,,,,,,,8/8 Overcast,11000.0,,OVC,11000,,,,,,
KRDR,11-12-2005,10:00,METAR,,350,7.0,,,9999.0,,3.0,2.0,29.69,1006.2,,,,,,,,,,,,,,,8/8 Overcast,11000.0,,OVC,11000,,,,,,
KRDR,11-12-2005,09:00,METAR,,340,5.0,,,9999.0,,3.0,3.0,29.71,1006.8,,,,,,,,,,,,,,,7/8 Mostly Cloudy,25000.0,,SCT,12000,BKN,25000.0,,,,
KRDR,11-12-2005,08:00,METAR,,350,6.0,,,9999.0,,4.0,3.0,29.71,1006.8,,,,,,,,,,,,,,,2/8 Mostly Clear,72000.0,,FEW,25000,,,,,,
KRDR,11-12-2005,07:00,METAR,,350,6.0,,,9999.0,,4.0,3.0,29.71,1006.9,,,,,,,,,,,,,,,2/8 Mostly Clear,72000.0,,FEW,25000,,,,,,
KRDR,11-12-2005,06:00,METAR,,320,4.0,,,9999.0,,4.0,4.0,29.72,1007.1,,,,,,,,,,,,,,,2/8 Mostly Clear,72000.0,,FEW,25000,,,,,,
KRDR,11-12-2005,05:00,METAR,,350,4.0,,,9999.0,,4.0,4.0,29.72,1007.2,,,,,,,,,,,,,,,2/8 Mostly Clear,72000.0,,FEW,25000,,,,,,
KRDR,11-12-2005,04:00,METAR,,350,4.0,,,9999.0,,5.0,5.0,29.72,1007.3,,,,,,,,,,,,,,,2/8 Mostly Clear,72000.0,,FEW,25000,,,,,,
KRDR,11-12-2005,03:00,METAR,,350,6.0,,,9999.0,,5.0,5.0,29.70,1006.7,,,,,,,,,,,,,,,4/8 Partly Cloudy,72000.0,,SCT,15000,,,,,,
KRDR,11-12-2005,02:00,METAR,,360,8.0,,,9999.0,,8.0,6.0,29.70,1006.7,,,,,,,,,,,,,,,4/8 Partly Cloudy,72000.0,,SCT,15000,,,,,,
KRDR,11-12-2005,01:00,METAR,,360,7.0,,,9999.0,,8.0,5.0,29.67,1005.9,,,,,,,,,,,,,,,4/8 Partly Cloudy,72000.0,,SCT,15000,,,,,,
KRDR,11-12-2005,00:00,METAR,,300,5.0,,,9999.0,,9.0,5.0,29.66,1005.4,,,,,,,,,,,,,,,4/8 Partly Cloudy,72000.0,,SCT,15000,,,,,,
KRDR,11-11-2005,23:00,METAR,,350,3.0,,,9999.0,,12.0,5.0,29.65,1004.8,,,,,,,,,,,,,,,2/8 Mostly Clear,72000.0,,FEW,15000,,,,,,
KRDR,11-11-2005,22:00,METAR,,280,9.0,,,9999.0,,17.0,5.0,29.61,1003.5,,,,,,,,,,,,,,,2/8 Mostly Clear,72000.0,,FEW,15000,,,,,,
KRDR,11-11-2005,21:00,METAR,,280,7.0,,,9999.0,,19.0,4.0,29.61,1003.3,,,,,,,,,,,,,,,2/8 Mostly Clear,72000.0,,FEW,15000,,,,,,
KRDR,11-11-2005,20:00,METAR,,310,6.0,,,9999.0,,18.0,4.0,29.61,1003.4,,,,,,,,,,,,,,,2/8 Mostly Clear,72000.0,,FEW,15000,,,,,,
KRDR,11-11-2005,19:00,METAR,,260,3.0,,,9999.0,,16.0,5.0,29.62,1003.7,,,,,,,,,,,,,,,4/8 Partly Cloudy,72000.0,,SCT,15000,,,,,,
KRDR,11-11-2005,18:00,METAR,,290,5.0,,,9999.0,,16.0,3.0,29.64,1004.3,,,,,,,,,,,,,,,4/8 Partly Cloudy,72000.0,,SCT,15000,,,,,,
KRDR,11-11-2005,17:00,METAR,,240,5.0,,,9999.0,,13.0,3.0,29.65,1004.8,,,,,,,,,,,,,,,4/8 Partly Cloudy,72000.0,,SCT,15000,SCT,25000.0,,,,
KRDR,11-11-2005,16:00,METAR,,200,7.0,,,9999.0,,10.0,2.0,29.65,1004.9,,,,,,,,,,,,,,,4/8 Partly Cloudy,72000.0,,SCT,15000,SCT,25000.0,,,,
KRDR,11-11-2005,15:00,METAR,,180,11.0,,,9999.0,,7.0,1.0,29.64,1004.6,,,,,,,,,,,,,,,7/8 Mostly Cloudy,25000.0,,SCT,15000,BKN,25000.0,,,,
KRDR,11-11-2005,14:00,METAR,,190,7.0,,,9999.0,,3.0,0.0,29.64,1004.9,,,,,,,,,,,,,,,7/8 Mostly Cloudy,25000.0,,SCT,15000,BKN,25000.0,,,,
KRDR,11-11-2005,13:00,METAR,,170,9.0,,,9999.0,,3.0,0.0,29.65,1005.1,,,,,,,,,,,,,,,4/8 Partly Cloudy,72000.0,,SCT,25000,,,,,,
KRDR,11-11-2005,12:00,METAR,,170,7.0,,,9999.0,,3.0,0.0,29.65,1005.2,,,,,,,,,,,,,,,4/8 Partly Cloudy,72000.0,,SCT,25000,,,,,,
KRDR,11-11-2005,11:00,METAR,,170,8.0,,,9999.0,,2.0,0.0,29.66,1005.4,,,,,,,,,,,,,,,Clear,72000.0,,,73000,,,,,,
KRDR,11-11-2005,10:00,METAR,,170,7.0,,,9999.0,,1.0,-1.0,29.67,1005.8,,,,,,,,,,,,,,,Clear,72000.0,,,73000,,,,,,
KRDR,11-11-2005,09:00,METAR,,170,8.0,,,9999.0,,3.0,0.0,29.69,1006.4,,,,,,,,,,,,,,,Clear,72000.0,,,73000,,,,,,
KRDR,11-11-2005,08:00,METAR,,180,8.0,,,9999.0,,3.0,0.0,29.71,1007.1,,,,,,,,,,,,,,,Clear,72000.0,,,73000,,,,,,
KRDR,11-11-2005,07:00,METAR,,160,6.0,,,9999.0,,3.0,0.0,29.72,1007.5,,,,,,,,,,,,,,,Clear,72000.0,,,73000,,,,,,
KRDR,11-11-2005,06:00,METAR,,170,6.0,,,9999.0,,4.0,0.0,29.74,1008.2,,,,,,,,,,,,,,,Clear,72000.0,,,73000,,,,,,
KRDR,11-11-2005,05:00,METAR,,170,7.0,,,9999.0,,3.0,0.0,29.77,1009.4,,,,,,,,,,,,,,,Clear,72000.0,,,73000,,,,,,
KRDR,11-11-2005,04:00,METAR,,190,6.0,,,9999.0,,3.0,1.0,29.79,1010.1,,,,,,,,,,,,,,,2/8 Mostly Clear,72000.0,,FEW,25000,,,,,,
KRDR,11-11-2005,03:00,METAR,,160,5.0,,,9999.0,,4.0,1.0,29.79,1010.2,,,,,,,,,,,,,,,2/8 Mostly Clear,72000.0,,FEW,25000,,,,,,
KRDR,11-11-2005,01:00,METAR,,170,5.0,,,9999.0,,5.0,2.0,29.82,1011.0,,,,,,,,,,,,,,,4/8 Partly Cloudy,72000.0,,SCT,25000,,,,,,
KRDR,11-11-2005,00:00,METAR,,150,3.0,,,9999.0,,7.0,2.0,29.84,1011.6,,,,,,,,,,,,,,,4/8 Partly Cloudy,72000.0,,SCT,25000,,,,,,
KRDR,11-10-2005,23:00,METAR,,140,3.0,,,9999.0,,10.0,3.0,29.84,1011.5,,,,,,,,,,,,,,,7/8 Mostly Cloudy,25000.0,,BKN,25000,,,,,,
KRDR,11-10-2005,22:00,METAR,,230,4.0,,,9999.0,,12.0,2.0,29.85,1011.8,,,,,,,,,,,,,,,7/8 Mostly Cloudy,25000.0,,BKN,25000,,,,,,
KRDR,11-10-2005,21:00,METAR,,250,5.0,,,9999.0,,13.0,1.0,29.85,1011.9,,,,,,,,,,,,,,,7/8 Mostly Cloudy,25000.0,,BKN,25000,,,,,,
KRDR,11-10-2005,20:00,METAR,,240,8.0,,,9999.0,,13.0,1.0,29.85,1011.9,,,,,,,,,,,,,,,4/8 Partly Cloudy,72000.0,,SCT,25000,,,,,,
KRDR,11-10-2005,19:00,METAR,,260,9.0,,,9999.0,,12.0,1.0,29.86,1012.1,,,,,,,,,,,,,,,4/8 Partly Cloudy,72000.0,,FEW,15000,SCT,25000.0,,,,
KRDR,11-10-2005,18:00,METAR,,260,7.0,,,9999.0,,8.0,-1.0,29.88,1013.0,,,,,,,,,,,,,,,4/8 Partly Cloudy,72000.0,,FEW,15000,SCT,25000.0,,,,
KRDR,11-10-2005,17:00,METAR,,240,7.0,,,9999.0,,8.0,-2.0,29.88,1013.2,,,,,,,,,,,,,,,4/8 Partly Cloudy,72000.0,,SCT,15000,SCT,25000.0,,,,
KRDR,11-10-2005,16:00,METAR,,250,5.0,,,9999.0,,6.0,-1.0,29.89,1013.6,,,,,,,,,,,,,,,4/8 Partly Cloudy,72000.0,,SCT,15000,,,,,,
KRDR,11-10-2005,15:00,METAR,,220,5.0,,,9999.0,,2.0,-1.0,29.90,1013.9,,,,,,,,,,,,,,,4/8 Partly Cloudy,72000.0,,SCT,15000,,,,,,
KRDR,11-10-2005,14:00,METAR,,200,8.0,,,9999.0,,0.0,-2.0,29.90,1013.9,,,,,,,,,,,,,,,7/8 Mostly Cloudy,15000.0,,BKN,15000,,,,,,
KRDR,11-10-2005,13:00,METAR,,180,6.0,,,9999.0,,-2.0,-2.0,29.91,1014.3,,,,,,,,,,,,,,,4/8 Partly Cloudy,72000.0,,SCT,24000,,,,,,
KRDR,11-10-2005,12:00,METAR,,160,6.0,,,9999.0,,-1.0,-2.0,29.91,1014.3,,,,,,,,,,,,,,,4/8 Partly Cloudy,72000.0,,SCT,24000,,,,,,
KRDR,11-10-2005,11:00,METAR,,160,7.0,,,9999.0,,-1.0,-2.0,29.94,1015.2,,,,,,,,,,,,,,,7/8 Mostly Cloudy,24000.0,,BKN,24000,,,,,,
KRDR,11-10-2005,10:00,METAR,,180,7.0,,,9999.0,,-2.0,-2.0,29.96,1016.2,,,,,,,,,,,,,,,4/8 Partly Cloudy,72000.0,,FEW,12000,SCT,23000.0,,,,
KRDR,11-10-2005,09:00,METAR,,180,8.0,,,9999.0,,-1.0,-2.0,29.97,1016.3,,,,,,,,,,,,,,,8/8 Overcast,12000.0,,OVC,12000,,,,,,
KRDR,11-10-2005,08:00,METAR,,180,7.0,,,9999.0,,0.0,-1.0,30.01,1017.7,,,,,,,,,,,,,,,8/8 Overcast,12000.0,,OVC,12000,,,,,,
KRDR,11-10-2005,07:00,METAR,,180,9.0,,,9999.0,,0.0,-1.0,30.04,1018.7,,,,,,,,,,,,,,,8/8 Overcast,12000.0,,BKN,12000,OVC,23000.0,,,,
KRDR,11-10-2005,06:00,METAR,,190,8.0,,,9999.0,,-1.0,-1.0,30.07,1019.8,,,,,,,,,,,,,,,7/8 Mostly Cloudy,15000.0,,BKN,15000,BKN,23000.0,,,,
KRDR,11-10-2005,05:00,METAR,,170,5.0,,,9999.0,,-1.0,-1.0,30.08,1020.2,,,,,,,,,,,,,,,7/8 Mostly Cloudy,23000.0,,SCT,15000,BKN,23000.0,,,,
KRDR,11-10-2005,04:00,METAR,,180,4.0,,,9999.0,,-2.0,-3.0,30.11,1021.1,,,,,,,,,,,,,,,7/8 Mostly Cloudy,23000.0,,BKN,23000,,,,,,
KRDR,11-10-2005,03:00,METAR,,160,4.0,,,9999.0,,-2.0,-2.0,30.12,1021.6,,,,,,,,,,,,,,,7/8 Mostly Cloudy,23000.0,,BKN,23000,,,,,,
KRDR,11-10-2005,02:00,METAR,,180,3.0,,,9999.0,,-1.0,-2.0,30.14,1022.2,,,,,,,,,,,,,,,7/8 Mostly Cloudy,25000.0,,BKN,25000,,,,,,
KRDR,11-10-2005,01:01,SPECI,,,,,,,,,,30.14,,,,,,,,,,,,,,,,,20000.0,,SCT,2500,BKN,20000.0,,,,
KRDR,11-10-2005,01:00,METAR,,260,4.0,,,9999.0,,0.0,-2.0,30.14,1022.3,,,,,,,,,,,,,,,7/8 Mostly Cloudy,2500.0,,BKN,2500,,,,,,
KRDR,11-10-2005,00:00,METAR,,260,5.0,,,9999.0,,2.0,-1.0,30.15,1022.5,,,,,,,,,,,,,,,7/8 Mostly Cloudy,2700.0,,BKN,2700,,,,,,
KRDR,11-09-2005,23:00,METAR,,290,5.0,,,9999.0,,3.0,-2.0,30.15,1022.5,,,,,,,,,,,,,,,7/8 Mostly Cloudy,2700.0,,BKN,2700,,,,,,
KRDR,11-09-2005,22:00,METAR,,300,10.0,,,9999.0,,3.0,-1.0,30.16,1022.7,,,,,,,,,,,,,,,7/8 Mostly Cloudy,2700.0,,BKN,2700,,,,,,
KRDR,11-09-2005,21:00,METAR,,300,14.0,,,9999.0,,3.0,-1.0,30.15,1022.0,,,,,,,,,,,,,,,7/8 Mostly Cloudy,2600.0,,BKN,2600,,,,,,
KRDR,11-09-2005,20:00,METAR,,300,14.0,,,9999.0,,3.0,-1.0,30.14,1022.0,,,,,,,,,,,,,,,4/8 Partly Cloudy,72000.0,,SCT,2800,,,,,,
KRDR,11-09-2005,19:00,METAR,,290,18.0,,,9999.0,,5.0,-1.0,30.12,1021.2,,,,,,,,,,,,,,,4/8 Partly Cloudy,72000.0,,SCT,2800,,,,,,
KRDR,11-09-2005,18:00,METAR,,310,17.0,23.0,,9999.0,,4.0,-1.0,30.12,1021.4,,,,,,,,,,,,,,,7/8 Mostly Cloudy,2700.0,,BKN,2700,,,,,,
KRDR,11-09-2005,17:35,SPECI,,310,18.0,24.0,,9999.0,,4.0,-1.0,30.12,,,,,,,,,,,,,,,,7/8 Mostly Cloudy,2700.0,,BKN,2700,,,,,,
KRDR,11-09-2005,17:00,METAR,,320,16.0,24.0,,9999.0,,4.0,-1.0,30.12,1021.2,,,,,,,,,,,,,,,7/8 Mostly Cloudy,3000.0,,BKN,3000,,,,,,
KRDR,11-09-2005,16:00,METAR,,310,17.0,23.0,,9999.0,,2.0,-1.0,30.10,1019.5,,,,,,,,,,,,,,,7/8 Mostly Cloudy,3000.0,,BKN,3000,,,,,,
KRDR,11-09-2005,15:00,METAR,,300,18.0,26.0,,9999.0,,2.0,-1.0,30.07,1019.5,,,,,,,,,,,,,,,4/8 Partly Cloudy,72000.0,,SCT,3000,,,,,,
KRDR,11-09-2005,14:00,METAR,,310,16.0,22.0,,9999.0,,1.0,-1.0,30.02,1017.8,,,,,,,,,,,,,,,4/8 Partly Cloudy,72000.0,,SCT,3000,,,,,,
KRDR,11-09-2005,13:00,METAR,,320,20.0,25.0,350/32KTS,9999.0,,2.0,-1.0,29.95,1015.5,,,,,,,,,,,,,,,7/8 Mostly Cloudy,3000.0,,BKN,3000,,,,,,
KRDR,11-09-2005,12:00,METAR,,320,22.0,27.0,320/31KTS,9999.0,,2.0,-1.0,29.94,1015.0,,,,,,,,,,,,,IN,.05 IN,8/8 Overcast,2700.0,,OVC,2700,,,,,,
KRDR,11-09-2005,11:00,METAR,,310,20.0,31.0,310/34KTS,9999.0,,2.0,-1.0,29.91,1014.2,,,,,,,,,,,,,,,8/8 Overcast,2500.0,,OVC,2500,,,,,,
KRDR,11-09-2005,10:00,METAR,,300,25.0,34.0,300/40KTS,9999.0,,2.0,0.0,29.87,1012.7,,,,,,,,,,,,,,,8/8 Overcast,2400.0,,OVC,2400,,,,,,
KRDR,11-09-2005,09:00,METAR,,310,24.0,31.0,310/37KTS,9999.0,,2.0,-2.0,29.83,1011.3,,,,,,,,,,,,TRACE,,,8/8 Overcast,2300.0,,OVC,2300,,,,,,
KRDR,11-09-2005,08:00,METAR,,300,29.0,35.0,290/45KTS,9999.0,,2.0,-1.0,29.76,1008.8,,,,,,,,,,,,,,,8/8 Overcast,2300.0,,BKN,2300,OVC,4000.0,,,,
KRDR,11-09-2005,07:00,METAR,,300,27.0,37.0,290/42KTS,9999.0,,2.0,1.0,29.70,1006.8,,,,,,,,,,,,,,,8/8 Overcast,2000.0,,BKN,2000,OVC,4000.0,,,,
KRDR,11-09-2005,06:20,METAR,,290,26.0,36.0,,9999.0,,2.0,2.0,29.64,,,,,,,,,,,,,,,,8/8 Overcast,2000.0,,BKN,2000,OVC,4000.0,,,,
KRDR,11-09-2005,06:00,METAR,,290,30.0,38.0,290/38KTS,9999.0,Light Rain Showers,2.0,1.0,29.61,1003.9,,,,80,,,,,,,,,.05 IN,,8/8 Overcast,2400.0,,BKN,2400,OVC,5000.0,,,,
KRDR,11-09-2005,05:00,METAR,,270,24.0,32.0,270/32KTS,9999.0,,3.0,1.0,29.58,1002.8,,,,,,,,,,,,,,,8/8 Overcast,2800.0,,BKN,2800,OVC,5000.0,,,,
KRDR,11-09-2005,04:00,METAR,,260,22.0,31.0,280/31KTS,9999.0,,4.0,1.0,29.57,1002.7,,,,,,,,,,,,,,,8/8 Overcast,2800.0,,BKN,2800,OVC,5000.0,,,,
KRDR,11-09-2005,03:00,METAR,,270,11.0,,260/28KTS,9999.0,,4.0,4.0,29.58,1002.9,,,,,,,,,,,,.05 IN,,,8/8 Overcast,2200.0,,BKN,2200,OVC,5000.0,,,,
KRDR,11-09-2005,02:39,SPECI,,260,16.0,23.0,,9999.0,,3.0,3.0,29.59,,,,,,,,,,,,,,,,8/8 Overcast,2500.0,,BKN,2500,OVC,5000.0,,,,
KRDR,11-09-2005,02:00,METAR,,260,23.0,28.0,250/32KTS,9999.0,Light Rain Showers,4.0,4.0,29.61,1004.0,,,,80,,,,,,,,,,,8/8 Overcast,2000.0,,SCT,1500,BKN,2000.0,OVC,5000.0,,
KRDR,11-09-2005,01:28,SPECI,,270,23.0,26.0,,8000.0,Light Rain Showers,6.0,5.0,29.62,,,,,80,,,,,,,,,,,8/8 Overcast,2000.0,,BKN,2000,OVC,12000.0,,,,
KRDR,11-09-2005,01:17,SPECI,,270,20.0,28.0,,8000.0,Light Rain Showers,6.0,5.0,29.62,,,,,80,,,,,,,,,,,8/8 Overcast,12000.0,,SCT,2000,BKN,12000.0,OVC,20000.0,,
KRDR,11-09-2005,01:10,SPECI,,270,24.0,28.0,,8000.0,Light Rain Showers,7.0,5.0,29.62,,,,,80,,,,,,,,,,,8/8 Overcast,12000.0,,FEW,4000,BKN,12000.0,OVC,20000.0,,
KRDR,11-09-2005,01:00,METAR,,260,14.0,,,9999.0,,8.0,5.0,29.60,1003.5,,,,,,,,,,,,,,,8/8 Overcast,12000.0,,FEW,4000,SCT,12000.0,OVC,20000.0,,
KRDR,11-09-2005,00:00,METAR,,240,8.0,,,9999.0,,7.0,4.0,29.60,,,,,,,,,,,,,,,,8/8 Overcast,20000.0,,SCT,12000,OVC,20000.0,,,,
KRDR,11-08-2005,23:00,METAR,,130,8.0,,,9999.0,,7.0,4.0,29.59,,,,,,,,,,,,,,,,8/8 Overcast,12000.0,,FEW,7900,SCT,12000.0,OVC,20000.0,,
KRDR,11-08-2005,22:00,METAR,,140,8.0,,,9999.0,,8.0,4.0,29.64,,,,,,,,,,,,,,,,8/8 Overcast,15000.0,,FEW,7900,SCT,15000.0,OVC,20000.0,,
KRDR,11-08-2005,21:00,METAR,,130,12.0,,,9999.0,,8.0,4.0,29.66,,,,,,,,,,,,,,,,8/8 Overcast,20000.0,,SCT,7900,OVC,20000.0,,,,
KRDR,11-08-2005,20:00,METAR,,130,12.0,,,9999.0,,9.0,5.0,29.68,,,,,,,,,,,,,,,,8/8 Overcast,20000.0,,SCT,7900,OVC,20000.0,,,,
KRDR,11-08-2005,19:11,SPECI,,130,12.0,,,9999.0,,7.0,6.0,29.73,,,,,,,,,,,,,,,,7/8 Mostly Cloudy,8000.0,,SCT,1000,BKN,7900.0,BKN,20000.0,,
KRDR,11-08-2005,19:00,METAR,,120,12.0,,,9999.0,,7.0,6.0,29.77,,,,,,,,,,,,,,,,7/8 Mostly Cloudy,900.0,,BKN,900,BKN,7900.0,,,,
KRDR,11-08-2005,18:30,METAR,,120,13.0,,,9999.0,,7.0,6.0,29.77,,,,,,,,,,,,,,,,7/8 Mostly Cloudy,900.0,,BKN,900,BKN,7900.0,,,,
KRDR,11-08-2005,18:00,METAR,,120,12.0,,,4800.0,Mist,5.0,5.0,29.82,,,,,10,,,,,,,,,IN,,8/8 Overcast,800.0,,BKN,800,OVC,7900.0,,,,
KRDR,11-08-2005,17:25,METAR,,120,12.0,,,4800.0,Mist,4.0,4.0,29.86,,,,,10,,,,,,,,,,,8/8 Overcast,600.0,,BKN,600,OVC,7900.0,,,,
KRDR,11-08-2005,17:00,METAR,,110,11.0,,,3200.0,Mist,3.0,3.0,29.88,,,,,10,,,,,,,,,,,8/8 Overcast,500.0,,OVC,500,,,,,,
KRDR,11-08-2005,16:10,SPECI,,110,5.0,,,3200.0,Mist,2.0,2.0,29.91,,,,,10,,,,,,,,,,,8/8 Overcast,500.0,,BKN,500,OVC,7900.0,,,,
KRDR,11-08-2005,16:00,METAR,,110,7.0,,,2400.0,Mist,2.0,2.0,29.92,,,,,10,,,,,,,,,,,8/8 Overcast,300.0,,BKN,300,OVC,7900.0,,,,
KRDR,11-08-2005,15:42,SPECI,,110,5.0,,,2400.0,Mist,2.0,2.0,29.93,,,,,10,,,,,,,,,,,8/8 Overcast,300.0,,OVC,300,,,,,,
KRDR,11-08-2005,15:00,METAR,,110,8.0,,,2400.0,Rain/Mist,1.0,1.0,29.94,,,,,61,10,,,,,,,TRACE,,,8/8 Overcast,300.0,,OVC,300,,,,,,
KRDR,11-08-2005,14:44,SPECI,,90,8.0,,,2400.0,Rain/Mist,1.0,1.0,29.95,,,,,61,10,,,,,,,,,,8/8 Overcast,400.0,,OVC,400,,,,,,
KRDR,11-08-2005,14:33,SPECI,,90,8.0,,,2400.0,Rain/Mist,1.0,1.0,29.95,,,,,61,10,,,,,,,,,,8/8 Overcast,8000.0,,SCT,300,OVC,7900.0,,,,
KRDR,11-08-2005,14:00,METAR,,100,4.0,,,2400.0,Mist,0.0,0.0,30.02,,,,,10,,,,,,,,,,,8/8 Overcast,8000.0,,OVC,7900,,,,,,
KRDR,11-08-2005,13:28,SPECI,,100,4.0,,,1600.0,Mist,0.0,0.0,30.02,,,,,10,,,,,,,,,,,8/8 Overcast,9000.0,,BKN,8900,OVC,20000.0,,,,
KRDR,11-08-2005,13:00,METAR,,90,4.0,,,8000.0,Mist,0.0,0.0,30.02,1017.9,,,,10,,,,,,,,,,,8/8 Overcast,9000.0,,BKN,8900,OVC,20000.0,,,,
KRDR,11-08-2005,12:00,METAR,,30,2.0,,,8000.0,Mist,-1.0,-1.0,30.03,1018.3,,,,10,,,,,,,,,,,8/8 Overcast,10000.0,,OVC,9900,,,,,,
KRDR,11-08-2005,11:00,METAR,,50,3.0,,,9999.0,Mist,0.0,0.0,30.04,1018.6,,,,10,,,,,,,,,,,8/8 Overcast,10000.0,,OVC,9900,,,,,,
KRDR,11-08-2005,10:00,METAR,,40,3.0,,,9999.0,,0.0,0.0,30.06,1019.1,,,,,,,,,,,,,,,8/8 Overcast,10000.0,,OVC,9900,,,,,,
KRDR,11-08-2005,09:00,METAR,,,2.0,,,9999.0,,1.0,1.0,30.07,1019.6,,,,,,,,,,,,,,,8/8 Overcast,10000.0,,OVC,9900,,,,,,
KRDR,11-08-2005,08:00,METAR,,360,4.0,,,9999.0,,-1.0,-1.0,30.10,1020.5,,,,,,,,,,,,,,,7/8 Mostly Cloudy,22000.0,,SCT,9900,BKN,22000.0,,,,
KRDR,11-08-2005,07:00,METAR,,310,2.0,,,9999.0,,-1.0,-1.0,30.11,1021.0,,,,,,,,,,,,,,,7/8 Mostly Cloudy,22000.0,,FEW,14000,BKN,22000.0,,,,
KRDR,11-08-2005,06:00,METAR,,320,2.0,,,9999.0,,-1.0,-1.0,30.12,1021.3,,,,,,,,,,,,,,,7/8 Mostly Cloudy,22000.0,,BKN,22000,,,,,,
KRDR,11-08-2005,05:00,METAR,,340,2.0,,,9999.0,,0.0,0.0,30.13,1021.4,,,,,,,,,,,,,,,8/8 Overcast,23000.0,,OVC,23000,,,,,,
KRDR,11-08-2005,04:00,METAR,,320,2.0,,,9999.0,,0.0,0.0,30.13,1021.5,,,,,,,,,,,,,,,8/8 Overcast,20000.0,,OVC,20000,,,,,,
KRDR,11-08-2005,03:00,METAR,,310,3.0,,,9999.0,,0.0,0.0,30.10,1020.6,,,,,,,,,,,,,,,8/8 Overcast,25000.0,,OVC,25000,,,,,,
KRDR,11-08-2005,02:00,METAR,,310,4.0,,,9999.0,,1.0,1.0,30.09,1020.5,,,,,,,,,,,,,,,7/8 Mostly Cloudy,25000.0,,FEW,2500,BKN,25000.0,,,,
KRDR,11-07-2005,23:00,METAR,,260,5.0,,,9999.0,,2.0,1.0,30.06,1019.5,,,,,,,,,,,,,,,4/8 Partly Cloudy,72000.0,,FEW,2500,SCT,25000.0,,,,
KRDR,11-07-2005,22:00,METAR,,320,11.0,,,9999.0,,8.0,3.0,30.04,1018.5,,,,,,,,,,,,,,,7/8 Mostly Cloudy,25000.0,,SCT,2500,BKN,25000.0,,,,
KRDR,11-07-2005,21:00,METAR,,280,12.0,,,9999.0,,8.0,3.0,29.99,1016.7,,,,,,,,,,,,,,,4/8 Partly Cloudy,72000.0,,SCT,2500,SCT,25000.0,,,,
KRDR,11-07-2005,20:00,METAR,,280,12.0,,,9999.0,,10.0,3.0,29.96,1015.6,,,,,,,,,,,,,,,4/8 Partly Cloudy,72000.0,,FEW,3000,SCT,25000.0,,,,
KRDR,11-07-2005,19:00,METAR,,300,12.0,,,9999.0,,10.0,3.0,29.94,1014.9,,,,,,,,,,,,,,,2/8 Mostly Clear,72000.0,,FEW,1000,FEW,25000.0,,,,
KRDR,11-07-2005,18:00,METAR,,280,13.0,,,9999.0,,10.0,3.0,29.93,1014.5,,,,,,,,,,,,,,,2/8 Mostly Clear,72000.0,,FEW,1000,FEW,25000.0,,,,
KRDR,11-07-2005,17:00,METAR,,270,12.0,,,9999.0,,10.0,3.0,29.93,1014.6,,,,,,,,,,,,,,,2/8 Mostly Clear,72000.0,,FEW,8900,FEW,25000.0,,,,
KRDR,11-07-2005,16:00,METAR,,260,7.0,,,9999.0,,8.0,3.0,29.91,1013.9,,,,,,,,,,,,,,,2/8 Mostly Clear,72000.0,,FEW,8900,FEW,25000.0,,,,
KRDR,11-07-2005,15:00,METAR,,260,7.0,,,9999.0,,5.0,3.0,29.89,1013.2,,,,,,,,,,,,,,,4/8 Partly Cloudy,72000.0,,SCT,8900,,,,,,
KRDR,11-07-2005,14:00,METAR,,240,6.0,,,9999.0,,2.0,2.0,29.86,1012.3,,,,,,,,,,,,,,,2/8 Mostly Clear,72000.0,,FEW,9900,,,,,,
KRDR,11-07-2005,13:00,METAR,,250,4.0,,,9999.0,,3.0,2.0,29.84,1011.5,,,,,,,,,,,,,,,8/8 Overcast,10000.0,,BKN,9900,OVC,20000.0,,,,
KRDR,11-07-2005,11:00,METAR,,170,3.0,,,9999.0,,1.0,1.0,29.79,1010.1,,,,,,,,,,,,,,,8/8 Overcast,10000.0,,BKN,9900,OVC,20000.0,,,,
KRDR,11-07-2005,10:00,METAR,,200,3.0,,,9999.0,,1.0,1.0,29.79,1010.0,,,,,,,,,,,,,,,7/8 Mostly Cloudy,20000.0,,BKN,20000,,,,,,
KRDR,11-07-2005,09:00,METAR,,,0.0,,,9999.0,,2.0,2.0,29.78,1009.5,,,,,,,,,,,,,,,7/8 Mostly Cloudy,20000.0,,BKN,20000,,,,,,
KRDR,11-07-2005,08:00,METAR,,130,2.0,,,9999.0,,2.0,1.0,29.78,1009.5,,,,,,,,,,,,,,,7/8 Mostly Cloudy,20000.0,,BKN,20000,,,,,,
KRDR,11-07-2005,07:00,METAR,,90,1.0,,,9999.0,,2.0,2.0,29.77,1009.4,,,,,,,,,,,,,,,7/8 Mostly Cloudy,20000.0,,BKN,20000,,,,,,
KRDR,11-07-2005,06:00,METAR,,,0.0,,,9999.0,,3.0,2.0,29.76,1009.0,,,,,,,,,,,,,,,7/8 Mostly Cloudy,20000.0,,SCT,8900,BKN,20000.0,,,,
KRDR,11-07-2005,05:00,METAR,,170,4.0,,,9999.0,,1.0,1.0,29.75,1008.7,,,,,,,,,,,,,,,7/8 Mostly Cloudy,9000.0,,BKN,8900,,,,,,
KRDR,11-07-2005,04:00,METAR,,160,4.0,,,9999.0,,3.0,2.0,29.77,1009.5,,,,,,,,,,,,,,,8/8 Overcast,10000.0,,OVC,9900,,,,,,
KRDR,11-07-2005,03:00,METAR,,120,3.0,,,9999.0,,5.0,3.0,29.77,1009.4,,,,,,,,,,,,,,,8/8 Overcast,10000.0,,OVC,9900,,,,,,
KRDR,11-07-2005,02:00,METAR,,270,1.0,,,9999.0,,5.0,4.0,29.78,1009.8,,,,,,,,,,,,,,,8/8 Overcast,9000.0,,OVC,8900,,,,,,
KRDR,11-07-2005,01:00,METAR,,180,3.0,,,9999.0,,5.0,4.0,29.77,1009.6,,,,,,,,,,,,,,,8/8 Overcast,10000.0,,BKN,9900,OVC,25000.0,,,,
KRDR,11-07-2005,00:00,METAR,,180,3.0,,,9999.0,,4.0,4.0,29.79,1010.3,,,,,,,,,,,,,,,7/8 Mostly Cloudy,10000.0,,BKN,9900,BKN,25000.0,,,,
KRDR,11-06-2005,23:00,METAR,,130,1.0,,,9999.0,,7.0,3.0,29.78,1009.9,,,,,,,,,,,,,,,7/8 Mostly Cloudy,11000.0,,BKN,11000,BKN,25000.0,,,,
KRDR,11-06-2005,22:00,METAR,,200,4.0,,,9999.0,,8.0,4.0,29.78,1009.9,,,,,,,,,,,,,,,7/8 Mostly Cloudy,25000.0,,FEW,3000,BKN,25000.0,,,,
KRDR,11-06-2005,21:00,METAR,,210,7.0,,,9999.0,,10.0,3.0,29.77,1009.4,,,,,,,,,,,,,,,7/8 Mostly Cloudy,25000.0,,BKN,25000,,,,,,
KRDR,11-06-2005,20:00,METAR,,190,7.0,,,9999.0,,10.0,4.0,29.78,1009.8,,,,,,,,,,,,,,,7/8 Mostly Cloudy,25000.0,,BKN,25000,,,,,,
KRDR,11-06-2005,19:00,METAR,,210,4.0,,,9999.0,,9.0,4.0,29.78,1009.9,,,,,,,,,,,,,,,7/8 Mostly Cloudy,25000.0,,BKN,25000,,,,,,
KRDR,11-06-2005,18:00,METAR,,210,7.0,,,9999.0,,7.0,3.0,29.79,1010.2,,,,,,,,,,,,,,,4/8 Partly Cloudy,72000.0,,SCT,25000,,,,,,
KRDR,11-06-2005,17:00,METAR,,220,4.0,,,9999.0,,4.0,0.0,29.80,1010.4,,,,,,,,,,,,,,,2/8 Mostly Clear,72000.0,,FEW,25000,,,,,,
KRDR,11-06-2005,16:00,METAR,,200,7.0,,,9999.0,,3.0,0.0,29.79,1010.2,,,,,,,,,,,,,,,2/8 Mostly Clear,72000.0,,FEW,25000,,,,,,
KRDR,11-06-2005,15:00,METAR,,180,4.0,,,9999.0,,0.0,0.0,29.81,1010.8,,,,,,,,,,,,,,,2/8 Mostly Clear,72000.0,,FEW,8900,FEW,25000.0,,,,
KRDR,11-06-2005,14:00,METAR,,200,6.0,,,9999.0,,-2.0,-2.0,29.82,1011.1,,,,,,,,,,,,,,,2/8 Mostly Clear,72000.0,,FEW,8900,,,,,,
KRDR,11-06-2005,13:00,METAR,,150,3.0,,,9999.0,,-1.0,-1.0,29.82,1011.1,,,,,,,,,,,,,,,7/8 Mostly Cloudy,12000.0,,SCT,8900,BKN,12000.0,,,,
KRDR,11-06-2005,12:00,METAR,,130,4.0,,,9999.0,,-1.0,-1.0,29.83,1011.6,,,,,,,,,,,,,,,4/8 Partly Cloudy,72000.0,,SCT,20000,,,,,,
KRDR,11-06-2005,11:00,METAR,,100,3.0,,,9999.0,,-2.0,-2.0,29.84,1011.7,,,,,,,,,,,,,,,Clear,72000.0,,,73000,,,,,,
KRDR,11-06-2005,10:00,METAR,,130,3.0,,,9999.0,,-2.0,-2.0,29.84,1011.8,,,,,,,,,,,,,,,Clear,72000.0,,,73000,,,,,,
KRDR,11-06-2005,09:00,METAR,,170,3.0,,,9999.0,,-1.0,-1.0,29.85,1011.9,,,,,,,,,,,,,,,Clear,72000.0,,,73000,,,,,,
KRDR,11-06-2005,08:00,METAR,,190,4.0,,,9999.0,,-2.0,-2.0,29.84,1011.7,,,,,,,,,,,,,,,Clear,72000.0,,,73000,,,,,,
KRDR,11-06-2005,07:00,METAR,,190,4.0,,,9999.0,,-2.0,-2.0,29.84,1011.7,,,,,,,,,,,,,,,Clear,72000.0,,,73000,,,,,,
KRDR,11-06-2005,06:00,METAR,,250,5.0,,,9999.0,,-1.0,-1.0,29.84,1011.9,,,,,,,,,,,,,,,Clear,72000.0,,,73000,,,,,,
KRDR,11-06-2005,05:00,METAR,,220,5.0,,,9999.0,,0.0,0.0,29.85,1012.0,,,,,,,,,,,,,,,Clear,72000.0,,,73000,,,,,,
KRDR,11-06-2005,04:00,METAR,,200,3.0,,,9999.0,,0.0,0.0,29.85,1012.1,,,,,,,,,,,,,,,Clear,72000.0,,,73000,,,,,,
KRDR,11-06-2005,03:00,METAR,,250,4.0,,,9999.0,,1.0,1.0,29.85,1012.1,,,,,,,,,,,,,,,Clear,72000.0,,,73000,,,,,,
KRDR,11-06-2005,02:00,METAR,,200,4.0,,,9999.0,,2.0,2.0,29.85,1012.1,,,,,,,,,,,,,,,Clear,72000.0,,,73000,,,,,,
KRDR,11-06-2005,01:00,METAR,,220,5.0,,,9999.0,,2.0,2.0,29.85,1012.1,,,,,,,,,,,,,,,Clear,72000.0,,,73000,,,,,,
KRDR,11-06-2005,00:00,METAR,,170,6.0,,,9999.0,,3.0,3.0,29.84,1011.7,,,,,,,,,,,,,,,Clear,72000.0,,,73000,,,,,,
KRDR,11-05-2005,23:00,METAR,,170,6.0,,,9999.0,,6.0,5.0,29.83,1011.2,,,,,,,,,,,,,,,Clear,72000.0,,,73000,,,,,,
KRDR,11-05-2005,22:00,METAR,,180,9.0,,,9999.0,,9.0,5.0,29.83,1011.1,,,,,,,,,,,,,,,2/8 Mostly Clear,72000.0,,FEW,2000,,,,,,
KRDR,11-05-2005,21:00,METAR,,180,12.0,,,9999.0,,9.0,5.0,29.82,1010.8,,,,,,,,,,,,,,,2/8 Mostly Clear,72000.0,,FEW,2000,,,,,,
KRDR,11-05-2005,20:00,METAR,,180,8.0,,,9999.0,,7.0,4.0,29.82,1010.8,,,,,,,,,,,,,,,4/8 Partly Cloudy,72000.0,,SCT,1500,,,,,,
KRDR,11-05-2005,19:00,METAR,,170,8.0,,,9999.0,,6.0,4.0,29.82,1010.8,,,,,,,,,,,,,,,7/8 Mostly Cloudy,1100.0,,BKN,1100,,,,,,
KRDR,11-05-2005,18:00,METAR,,180,9.0,,,9999.0,,5.0,4.0,29.83,1011.3,,,,,,,,,,,,,,,7/8 Mostly Cloudy,800.0,,BKN,800,,,,,,
KRDR,11-05-2005,17:00,METAR,,160,10.0,,,9999.0,,4.0,3.0,29.83,1011.3,,,,,,,,,,,,,,,8/8 Overcast,800.0,,OVC,800,,,,,,
KRDR,11-05-2005,16:00,METAR,,190,9.0,,,9999.0,,2.0,2.0,29.84,1011.7,,,,,,,,,,,,,,,8/8 Overcast,800.0,,OVC,800,,,,,,
KRDR,11-05-2005,15:30,METAR,,210,9.0,,,9999.0,,2.0,2.0,29.84,,,,,,,,,,,,,,,,8/8 Overcast,800.0,,BKN,800,OVC,3000.0,,,,
KRDR,11-05-2005,15:00,METAR,,170,10.0,,,9999.0,,2.0,2.0,29.82,1011.0,,,,,,,,,,,,,,,7/8 Mostly Cloudy,4900.0,,SCT,1000,BKN,5000.0,,,,
KRDR,11-05-2005,14:00,METAR,,150,7.0,,,9999.0,,1.0,1.0,29.82,1011.0,,,,,,,,,,,,,,,2/8 Mostly Clear,72000.0,,FEW,2000,FEW,5900.0,,,,
KRDR,11-05-2005,13:10,SPECI,,150,8.0,,,9999.0,,1.0,1.0,29.82,,,,,,,,,,,,,,,,4/8 Partly Cloudy,72000.0,,FEW,2000,SCT,5900.0,,,,
KRDR,11-05-2005,13:00,METAR,,160,6.0,,,9999.0,,1.0,1.0,29.82,1011.0,,,,,,,,,,,,,,,7/8 Mostly Cloudy,2000.0,,BKN,2000,BKN,5900.0,,,,
KRDR,11-05-2005,12:00,METAR,,150,7.0,,,9999.0,,2.0,2.0,29.82,1011.0,,,,,,,,,,,,,,,8/8 Overcast,1800.0,,BKN,1800,BKN,3500.0,OVC,5900.0,,
KRDR,11-05-2005,11:00,METAR,,150,5.0,,,9999.0,,2.0,2.0,29.82,1011.0,,,,,,,,,,,,,,,8/8 Overcast,1800.0,,BKN,1800,OVC,7900.0,,,,
KRDR,11-05-2005,10:00,METAR,,130,3.0,,,9999.0,,2.0,2.0,29.81,1010.8,,,,,,,,,,,,,,,8/8 Overcast,1800.0,,OVC,1800,,,,,,
KRDR,11-05-2005,09:00,METAR,,160,2.0,,,9999.0,,2.0,2.0,29.82,1011.2,,,,,,,,,,,,,,,8/8 Overcast,1500.0,,OVC,1500,,,,,,
KRDR,11-05-2005,08:00,METAR,,190,3.0,,,9999.0,,2.0,2.0,29.83,1011.5,,,,,,,,,,,,,,,8/8 Overcast,1500.0,,OVC,1500,,,,,,
KRDR,11-05-2005,07:00,METAR,,180,2.0,,,9999.0,,2.0,2.0,29.84,1011.7,,,,,,,,,,,,,,,8/8 Overcast,1500.0,,SCT,800,OVC,1500.0,,,,
KRDR,11-05-2005,06:00,METAR,,180,2.0,,,9999.0,,2.0,2.0,29.84,1011.7,,,,,,,,,,,,,,,8/8 Overcast,1500.0,,FEW,800,OVC,1500.0,,,,
KRDR,11-05-2005,05:30,METAR,,170,3.0,,,9999.0,,2.0,2.0,29.83,,,,,,,,,,,,,,,,8/8 Overcast,1500.0,,FEW,800,OVC,1500.0,,,,
KRDR,11-05-2005,05:00,METAR,,210,3.0,,,9999.0,,2.0,2.0,29.83,1011.5,,,,,,,,,,,,,,,8/8 Overcast,1500.0,,OVC,1500,,,,,,
KRDR,11-05-2005,04:00,METAR,,220,3.0,,,9999.0,,2.0,2.0,29.84,1011.7,,,,,,,,,,,,,,,8/8 Overcast,1500.0,,OVC,1500,,,,,,
KRDR,11-05-2005,03:00,METAR,,230,5.0,,,9999.0,,2.0,2.0,29.83,1011.6,,,,,,,,,,,,,,,8/8 Overcast,18000.0,,OVC,18000,,,,,,
KRDR,11-05-2005,02:00,METAR,,230,5.0,,,9999.0,,2.0,2.0,29.83,1011.4,,,,,,,,,,,,,,,8/8 Overcast,1800.0,,OVC,1800,,,,,,
KRDR,11-05-2005,01:00,METAR,,210,3.0,,,9999.0,,2.0,2.0,29.84,1011.7,,,,,,,,,,,,,,,8/8 Overcast,1500.0,,OVC,1500,,,,,,
KRDR,11-05-2005,00:38,SPECI,,200,3.0,,,9999.0,,2.0,2.0,29.83,,,,,,,,,,,,,,,,8/8 Overcast,1500.0,,OVC,1500,,,,,,
KRDR,11-05-2005,00:00,METAR,,170,3.0,,,9999.0,,2.0,2.0,29.83,,,,,,,,,,,,,,,,8/8 Overcast,1300.0,,OVC,1300,,,,,,
KRDR,11-04-2005,22:00,METAR,,300,4.0,,,9999.0,,3.0,2.0,29.81,,,,,,,,,,,,,,,,8/8 Overcast,1300.0,,OVC,1300,,,,,,
KRDR,11-04-2005,21:00,METAR,,350,3.0,,,9999.0,,3.0,3.0,29.81,,,,,,,,,,,,,,,,8/8 Overcast,1300.0,,OVC,1300,,,,,,
KRDR,11-04-2005,20:00,METAR,,20,4.0,,,9999.0,,3.0,3.0,29.79,,,,,,,,,,,,,,,,8/8 Overcast,1300.0,,FEW,600,OVC,1300.0,,,,
KRDR,11-04-2005,19:00,METAR,,20,4.0,,,9999.0,Mist,3.0,3.0,29.80,,,,,10,,,,,,,,,,,7/8 Mostly Cloudy,1000.0,,FEW,500,BKN,1000.0,,,,
KRDR,11-04-2005,18:00,METAR,,350,6.0,,,8000.0,Mist,3.0,3.0,29.79,,,,,10,,,,,,,,,IN,,8/8 Overcast,1100.0,,FEW,400,OVC,1100.0,,,,
KRDR,11-04-2005,17:36,SPECI,,340,7.0,,,8000.0,Mist,2.0,2.0,29.79,,,,,10,,,,,,,,,,,8/8 Overcast,1000.0,,SCT,400,OVC,1000.0,,,,
KRDR,11-04-2005,17:14,SPECI,,300,6.0,,,8000.0,Mist,2.0,2.0,29.81,,,,,10,,,,,,,,,,,8/8 Overcast,700.0,,SCT,300,OVC,700.0,,,,
KRDR,11-04-2005,17:00,METAR,,290,5.0,,,6400.0,Drizzle/Mist,2.0,2.0,29.81,,,,,51,10,,,,,,,,,,8/8 Overcast,600.0,,OVC,600,,,,,,
KRDR,11-04-2005,16:00,METAR,,300,5.0,,,6400.0,Drizzle/Mist,2.0,2.0,29.79,,,,,51,10,,,,,,,,,,8/8 Overcast,600.0,,OVC,600,,,,,,
KRDR,11-04-2005,15:47,SPECI,,300,5.0,,,6400.0,Drizzle/Mist,2.0,2.0,29.78,,,,,51,10,,,,,,,,,,8/8 Overcast,600.0,,OVC,600,,,,,,
KRDR,11-04-2005,15:00,METAR,,320,5.0,,,6400.0,Mist,1.0,1.0,29.78,,,,,10,,,,,,,,,,,8/8 Overcast,600.0,,OVC,600,,,,,,
KRDR,11-04-2005,14:15,SPECI,,300,5.0,,,8000.0,Mist,1.0,1.0,29.77,,,,,10,,,,,,,,,,,8/8 Overcast,600.0,,OVC,600,,,,,,
KRDR,11-04-2005,14:00,METAR,,310,5.0,,,8000.0,Mist,1.0,1.0,29.77,,,,,10,,,,,,,,,,,8/8 Overcast,500.0,,OVC,500,,,,,,
KRDR,11-04-2005,13:00,METAR,,340,5.0,,,8000.0,Mist,0.0,0.0,29.74,,,,,10,,,,,,,,,,,8/8 Overcast,500.0,,OVC,500,,,,,,
KRDR,11-04-2005,12:34,SPECI,,340,7.0,,,8000.0,Mist,0.0,0.0,29.74,,,,,10,,,,,,,,,,,8/8 Overcast,500.0,,OVC,500,,,,,,
KRDR,11-04-2005,12:00,METAR,,340,4.0,,,2400.0,Mist,0.0,0.0,29.73,1008.1,,,,10,,,,,,,,,IN,,8/8 Overcast,300.0,,BKN,300,OVC,700.0,,,,
KRDR,11-04-2005,11:00,METAR,,340,6.0,,,400.0,Fog or Ice Fog,0.0,0.0,29.73,1008.1,,,,44,,,,,,,,,,,8/8 Overcast,400.0,,OVC,400,,,,,,
KRDR,11-04-2005,10:00,METAR,,340,9.0,,,400.0,Fog or Ice Fog,0.0,0.0,29.72,1007.6,,,,44,,,,,,,,,,,8/8 Overcast,300.0,,OVC,300,,,,,,
KRDR,11-04-2005,09:17,SPECI,,320,7.0,,,400.0,Fog or Ice Fog,0.0,0.0,29.74,,,,,44,,,,,,,,,,,8/8 Overcast,400.0,,OVC,400,,,,,,
KRDR,11-04-2005,09:00,METAR,,320,8.0,,,8000.0,Mist,0.0,0.0,29.73,1008.0,,,,10,,,,,,,,TRACE,,,8/8 Overcast,300.0,,OVC,300,,,,,,
KRDR,11-04-2005,08:41,SPECI,,330,6.0,,,8000.0,Mist,0.0,0.0,29.73,,,,,10,,,,,,,,,,,8/8 Overcast,300.0,,OVC,300,,,,,,
KRDR,11-04-2005,08:00,METAR,,350,6.0,,,8000.0,Light Snow/Mist,0.0,0.0,29.73,1008.0,,,,71,10,,,,,,,,,,8/8 Overcast,500.0,,OVC,500,,,,,,
KRDR,11-04-2005,07:00,METAR,,340,6.0,,,4800.0,Light Snow/Mist,0.0,0.0,29.75,1008.7,,,,71,10,,,,,,,,,,8/8 Overcast,500.0,,OVC,500,,,,,,
KRDR,11-04-2005,06:00,METAR,,350,6.0,,,3200.0,Light Snow/Mist,0.0,0.0,29.74,1008.5,,,,71,10,,,,,,,,.18 IN,,8/8 Overcast,400.0,,OVC,400,,,,,,
KRDR,11-04-2005,05:00,METAR,,350,6.0,,,1600.0,Light Snow/Mist,0.0,0.0,29.75,1008.7,,,,71,10,,,,,,,,,,8/8 Overcast,500.0,,OVC,500,,,,,,
KRDR,11-04-2005,04:00,METAR,,10,6.0,,,1600.0,Light Snow/Mist,0.0,0.0,29.76,1009.0,,,,71,10,,,,,,,,,,8/8 Overcast,500.0,,OVC,500,,,,,,
KRDR,11-04-2005,03:00,METAR,,10,7.0,,,3200.0,Light Snow/Mist,1.0,1.0,29.77,1009.4,,,,71,10,,,,,,,.11 IN,,,8/8 Overcast,500.0,,OVC,500,,,,,,
KRDR,11-04-2005,02:00,METAR,,50,5.0,,,3200.0,Light Snow/Mist,0.0,0.0,29.78,1009.7,,,,71,10,,,,,,,,,,8/8 Overcast,500.0,,OVC,500,,,,,,
KRDR,11-04-2005,01:00,METAR,,60,4.0,,,4800.0,Light Snow/Mist,0.0,0.0,29.81,1010.6,,,,71,10,,,,,,,,,,8/8 Overcast,600.0,,OVC,600,,,,,,
KRDR,11-04-2005,00:14,SPECI,,70,6.0,,,4800.0,Light Snow/Mist,1.0,1.0,29.82,,,,,71,10,,,,,,,,,,8/8 Overcast,600.0,,OVC,600,,,,,,
KRDR,11-04-2005,00:00,METAR,,80,8.0,,,6400.0,Light Snow/Rain/Mist,2.0,2.0,29.82,1011.1,,,,61,71,10,,,,,,,.2 IN,,8/8 Overcast,700.0,,OVC,700,,,,,,
KRDR,11-03-2005,23:22,SPECI,,70,5.0,,,6400.0,Rain/Mist,3.0,3.0,29.82,,,,,61,10,,,,,,,,,,8/8 Overcast,800.0,,OVC,800,,,,,,
KRDR,11-03-2005,23:05,SPECI,,70,9.0,,,6400.0,Rain/Mist,3.0,3.0,29.82,,,,,61,10,,,,,,,,,,8/8 Overcast,1100.0,,SCT,800,OVC,1100.0,,,,
KRDR,11-03-2005,23:00,METAR,,50,6.0,,,8000.0,Rain,3.0,3.0,29.82,1011.1,,,,61,,,,,,,,,,,8/8 Overcast,1100.0,,BKN,1100,OVC,2000.0,,,,
KRDR,11-03-2005,22:00,METAR,,40,9.0,,,8000.0,Rain,4.0,4.0,29.82,1010.8,,,,61,,,,,,,,,,,8/8 Overcast,1400.0,,BKN,1400,OVC,3000.0,,,,
KRDR,11-03-2005,21:37,SPECI,,40,7.0,,,8000.0,Rain,4.0,4.0,29.83,,,,,61,,,,,,,,,,,8/8 Overcast,1200.0,,BKN,1200,OVC,4000.0,,,,
KRDR,11-03-2005,21:00,METAR,,20,7.0,,,8000.0,Rain,4.0,3.0,29.86,1012.2,,,,61,,,,,,,,.02 IN,,,8/8 Overcast,1600.0,,OVC,1600,,,,,,
KRDR,11-03-2005,20:00,METAR,,40,3.0,,,9999.0,Rain,4.0,2.0,29.88,1012.9,,,,61,,,,,,,,,,,8/8 Overcast,2000.0,,OVC,2000,,,,,,
KRDR,11-03-2005,19:52,SPECI,,40,3.0,,,9999.0,Rain,4.0,2.0,29.88,,,,,61,,,,,,,,,,,8/8 Overcast,2000.0,,OVC,2000,,,,,,
KRDR,11-03-2005,19:00,METAR,,50,5.0,,,9999.0,,4.0,2.0,29.88,1012.9,,,,,,,,,,,,,,,8/8 Overcast,1700.0,,OVC,1700,,,,,,
KRDR,11-03-2005,18:00,METAR,,60,8.0,,,9999.0,,4.0,2.0,29.89,1013.5,,,,,,,,,,,,,,,8/8 Overcast,1500.0,,OVC,1500,,,,,,
KRDR,11-03-2005,17:00,METAR,,70,9.0,,,9999.0,,4.0,2.0,29.90,1013.6,,,,,,,,,,,,,,,8/8 Overcast,1500.0,,OVC,1500,,,,,,
KRDR,11-03-2005,16:00,METAR,,70,7.0,,,9999.0,,4.0,1.0,29.90,1013.7,,,,,,,,,,,,,,,8/8 Overcast,1500.0,,OVC,1500,,,,,,
KRDR,11-03-2005,15:19,SPECI,,50,8.0,,,9999.0,,4.0,2.0,29.91,,,,,,,,,,,,,,,,8/8 Overcast,1400.0,,BKN,1400,OVC,1900.0,,,,
KRDR,11-03-2005,15:00,METAR,,40,9.0,,,9999.0,,4.0,2.0,29.91,1014.1,,,,,,,,,,,,,,,8/8 Overcast,1500.0,,OVC,1500,,,,,,
KRDR,11-03-2005,14:00,METAR,,30,8.0,,,9999.0,,4.0,2.0,29.91,1013.9,,,,,,,,,,,,,,,8/8 Overcast,1500.0,,OVC,1500,,,,,,
KRDR,11-03-2005,13:00,METAR,,360,7.0,,,9999.0,,4.0,2.0,29.91,1013.9,,,,,,,,,,,,,,,8/8 Overcast,1800.0,,OVC,1800,,,,,,
KRDR,11-03-2005,12:00,METAR,,360,7.0,,,9999.0,,4.0,2.0,29.91,1013.9,,,,,,,,,,,,,,,8/8 Overcast,2200.0,,OVC,2200,,,,,,
KRDR,11-03-2005,11:00,METAR,,340,9.0,,,9999.0,,4.0,1.0,29.91,1013.8,,,,,,,,,,,,,,,8/8 Overcast,2200.0,,OVC,2200,,,,,,
KRDR,11-03-2005,10:00,METAR,,330,9.0,,,9999.0,,4.0,1.0,29.90,1013.0,,,,,,,,,,,,,,,8/8 Overcast,2500.0,,OVC,2500,,,,,,
KRDR,11-03-2005,09:00,METAR,,340,11.0,,,9999.0,,4.0,1.0,29.89,1013.0,,,,,,,,,,,,,,,8/8 Overcast,2200.0,,OVC,2200,,,,,,
KRDR,11-03-2005,08:00,METAR,,320,12.0,,,9999.0,,5.0,1.0,29.87,1012.3,,,,,,,,,,,,,,,8/8 Overcast,2500.0,,OVC,2500,,,,,,
KRDR,11-03-2005,07:24,SPECI,,320,15.0,,,9999.0,,5.0,1.0,29.87,,,,,,,,,,,,,,,,8/8 Overcast,2500.0,,OVC,2500,,,,,,
KRDR,11-03-2005,07:00,METAR,,330,13.0,,,9999.0,,5.0,1.0,29.85,1011.5,,,,,,,,,,,,,,,8/8 Overcast,3000.0,,OVC,3000,,,,,,
KRDR,11-03-2005,06:00,METAR,,300,17.0,24.0,,9999.0,,5.0,1.0,29.83,1011.0,,,,,,,,,,,,,,,8/8 Overcast,3100.0,,BKN,3200,OVC,12000.0,,,,
KRDR,11-03-2005,05:00,METAR,,290,15.0,,300/28KTS,9999.0,,6.0,1.0,29.81,1010.3,,,,,,,,,,,,,,,7/8 Mostly Cloudy,3400.0,,BKN,3500,BKN,12000.0,,,,
KRDR,11-03-2005,04:00,METAR,,300,20.0,30.0,300/32KTS,9999.0,,6.0,1.0,29.79,1009.0,,,,,,,,,,,,,,,7/8 Mostly Cloudy,3100.0,,BKN,3200,BKN,12000.0,,,,
KRDR,11-03-2005,03:00,METAR,,290,21.0,26.0,300/30KTS,9999.0,,7.0,1.0,29.74,1008.1,,,,,,,,,,,,,,,8/8 Overcast,3400.0,,BKN,3500,OVC,12000.0,,,,
KRDR,11-03-2005,02:00,METAR,,270,15.0,21.0,,9999.0,,7.0,1.0,29.71,1007.0,,,,,,,,,,,,,,,7/8 Mostly Cloudy,12000.0,,FEW,4000,SCT,12000.0,BKN,20000.0,,
KRDR,11-03-2005,01:00,METAR,,270,15.0,23.0,270/25KTS,9999.0,,7.0,1.0,29.68,1006.0,,,,,,,,,,,,,,,7/8 Mostly Cloudy,12000.0,,FEW,4500,SCT,12000.0,BKN,20000.0,,
KRDR,11-03-2005,00:00,METAR,,270,19.0,30.0,270/34KTS,9999.0,,8.0,1.0,29.65,1004.9,,,,,,,,,,,,,,,7/8 Mostly Cloudy,20000.0,,FEW,12000,BKN,20000.0,,,,
KRDR,11-02-2005,23:00,METAR,,270,22.0,34.0,280/34KTS,9999.0,,11.0,0.0,29.58,1002.7,,,,,,,,,,,,,,,7/8 Mostly Cloudy,20000.0,,FEW,12000,BKN,20000.0,,,,
KRDR,11-02-2005,22:00,METAR,,260,17.0,26.0,270/31KTS,9999.0,,16.0,-2.0,29.52,1000.4,,,,,,,,,,,,,,,7/8 Mostly Cloudy,20000.0,,FEW,12000,BKN,20000.0,,,,
KRDR,11-02-2005,21:00,METAR,,250,19.0,25.0,250/31KTS,9999.0,,17.0,-2.0,29.50,999.7,,,,,,,,,,,,,,,4/8 Partly Cloudy,72000.0,,FEW,12000,SCT,20000.0,,,,
KRDR,11-02-2005,20:00,METAR,,280,17.0,26.0,270/26KTS,9999.0,,18.0,0.0,29.51,999.9,,,,,,,,,,,,,,,4/8 Partly Cloudy,72000.0,,FEW,12000,SCT,20000.0,,,,
KRDR,11-02-2005,19:00,METAR,,260,14.0,,,9999.0,,16.0,1.0,29.51,1000.0,,,,,,,,,,,,,,,7/8 Mostly Cloudy,20000.0,,FEW,12000,BKN,20000.0,,,,
KRDR,11-02-2005,18:20,METAR,,260,9.0,,,9999.0,,14.0,3.0,29.53,,,,,,,,,,,,,,,,4/8 Partly Cloudy,72000.0,,FEW,12000,SCT,20000.0,,,,
KRDR,11-02-2005,18:00,METAR,,220,11.0,,,9999.0,,12.0,3.0,29.53,1001.1,,,,,,,,,,,,,,,7/8 Mostly Cloudy,20000.0,,SCT,12000,BKN,20000.0,,,,
KRDR,11-02-2005,17:00,METAR,,190,14.0,21.0,,9999.0,,9.0,2.0,29.57,1002.4,,,,,,,,,,,,,,,7/8 Mostly Cloudy,12000.0,,FEW,8900,BKN,12000.0,BKN,20000.0,,
KRDR,11-02-2005,16:00,METAR,,160,15.0,,,9999.0,,8.0,3.0,29.58,1002.8,,,,,,,,,,,,,,,8/8 Overcast,12000.0,,FEW,8900,BKN,12000.0,OVC,20000.0,,
KRDR,11-02-2005,15:00,METAR,,160,10.0,19.0,,9999.0,,6.0,3.0,29.61,1003.8,,,,,,,,,,,,,,,8/8 Overcast,12000.0,,FEW,8900,BKN,12000.0,OVC,20000.0,,
KRDR,11-02-2005,14:00,METAR,,150,13.0,,,9999.0,,5.0,3.0,29.64,1004.6,,,,,,,,,,,,,,,8/8 Overcast,12000.0,,FEW,8900,BKN,12000.0,OVC,20000.0,,
KRDR,11-02-2005,13:00,METAR,,140,11.0,,,9999.0,,5.0,3.0,29.68,1006.0,,,,,,,,,,,,,,,7/8 Mostly Cloudy,12000.0,,BKN,12000,,,,,,
KRDR,11-02-2005,12:00,METAR,,150,9.0,,,9999.0,,5.0,4.0,29.72,1009.3,,,,,,,,,,,,,,,7/8 Mostly Cloudy,12000.0,,BKN,12000,,,,,,
KRDR,11-02-2005,11:00,METAR,,140,8.0,,,9999.0,,4.0,4.0,29.77,1009.3,,,,,,,,,,,,,,,2/8 Mostly Clear,72000.0,,FEW,12000,,,,,,
KRDR,11-02-2005,10:00,METAR,,150,5.0,,,9999.0,,4.0,4.0,29.83,1011.0,,,,,,,,,,,,,,,2/8 Mostly Clear,72000.0,,FEW,12000,,,,,,
KRDR,11-02-2005,09:00,METAR,,150,5.0,,,9999.0,,4.0,4.0,29.86,1013.1,,,,,,,,,,,,,,,7/8 Mostly Cloudy,12000.0,,BKN,12000,,,,,,
KRDR,11-02-2005,08:00,METAR,,160,3.0,,,9999.0,,3.0,2.0,29.89,1013.1,,,,,,,,,,,,,,,7/8 Mostly Cloudy,10000.0,,BKN,9900,,,,,,
KRDR,11-02-2005,07:00,METAR,,140,2.0,,,9999.0,,3.0,2.0,29.91,1013.8,,,,,,,,,,,,,,,7/8 Mostly Cloudy,11000.0,,BKN,11000,,,,,,
KRDR,11-02-2005,06:00,METAR,,180,4.0,,,9999.0,,1.0,1.0,29.91,1013.9,,,,,,,,,,,,,,,4/8 Partly Cloudy,72000.0,,SCT,12000,,,,,,
KRDR,11-02-2005,05:00,METAR,,240,3.0,,,9999.0,,2.0,1.0,29.92,1014.3,,,,,,,,,,,,,,,Clear,72000.0,,,73000,,,,,,
KRDR,11-02-2005,04:00,METAR,,240,4.0,,,9999.0,,5.0,2.0,29.92,1014.2,,,,,,,,,,,,,,,4/8 Partly Cloudy,72000.0,,SCT,5400,,,,,,
KRDR,11-02-2005,03:00,METAR,,260,3.0,,,9999.0,,5.0,3.0,29.92,1014.2,,,,,,,,,,,,,,,8/8 Overcast,5500.0,,OVC,5400,,,,,,
KRDR,11-02-2005,02:00,METAR,,240,4.0,,,9999.0,,6.0,2.0,29.93,1014.6,,,,,,,,,,,,,,,8/8 Overcast,4900.0,,OVC,5000,,,,,,
KRDR,11-02-2005,01:00,METAR,,270,6.0,,,9999.0,,6.0,2.0,29.94,1015.0,,,,,,,,,,,,,,,7/8 Mostly Cloudy,4400.0,,BKN,4500,,,,,,
KRDR,11-02-2005,00:00,METAR,,320,10.0,,,9999.0,,9.0,3.0,29.93,1014.5,,,,,,,,,,,,,,,8/8 Overcast,3900.0,,BKN,4000,OVC,20000.0,,,,
KRDR,11-01-2005,23:00,METAR,,320,11.0,,,9999.0,,9.0,4.0,29.89,1013.3,,,,,,,,,,,,,,,8/8 Overcast,3900.0,,OVC,4000,,,,,,
KRDR,11-01-2005,22:00,METAR,,330,11.0,,,9999.0,,10.0,4.0,29.87,1012.6,,,,,,,,,,,,,,,7/8 Mostly Cloudy,3900.0,,BKN,4000,BKN,20000.0,,,,
KRDR,11-01-2005,21:00,METAR,,330,15.0,,,9999.0,,11.0,4.0,29.84,1011.4,,,,,,,,,,,,,,,7/8 Mostly Cloudy,4900.0,,BKN,5000,BKN,9900.0,,,,
KRDR,11-01-2005,20:00,METAR,,290,17.0,,,9999.0,,11.0,3.0,29.80,1010.1,,,,,,,,,,,,,,,2/8 Mostly Clear,72000.0,,FEW,5000,FEW,22000.0,,,,
KRDR,11-01-2005,19:00,METAR,,310,17.0,,,9999.0,,11.0,3.0,29.78,1009.6,,,,,,,,,,,,,,,2/8 Mostly Clear,72000.0,,FEW,5000,FEW,12000.0,,,,
KRDR,11-01-2005,18:00,METAR,,290,18.0,24.0,,9999.0,,10.0,3.0,29.76,1008.8,,,,,,,,,,,,,,,2/8 Mostly Clear,72000.0,,FEW,12000,,,,,,
KRDR,11-01-2005,17:00,METAR,,290,17.0,25.0,,9999.0,,9.0,2.0,29.74,1008.1,,,,,,,,,,,,,,,2/8 Mostly Clear,72000.0,,FEW,12000,,,,,,
KRDR,11-01-2005,16:00,METAR,,280,17.0,23.0,,9999.0,,8.0,1.0,29.71,1007.3,,,,,,,,,,,,,,,2/8 Mostly Clear,72000.0,,FEW,9900,,,,,,
KRDR,11-01-2005,15:00,METAR,,260,10.0,,,9999.0,,7.0,2.0,29.72,1007.5,,,,,,,,,,,,,,,2/8 Mostly Clear,72000.0,,FEW,9900,,,,,,
KRDR,11-01-2005,14:00,METAR,,210,6.0,,,9999.0,,4.0,3.0,29.72,1007.6,,,,,,,,,,,,,,,4/8 Partly Cloudy,72000.0,,FEW,6900,SCT,9900.0,,,,
KRDR,11-01-2005,13:00,METAR,,150,12.0,,,9999.0,,3.0,3.0,29.72,1007.6,,,,,,,,,,,,,,,8/8 Overcast,10000.0,,SCT,6900,OVC,9900.0,,,,
KRDR,11-01-2005,12:00,METAR,,150,8.0,,,9999.0,,4.0,4.0,29.74,1009.2,,,,,,,,,,,,,,,8/8 Overcast,10000.0,,FEW,6900,OVC,9900.0,,,,
KRDR,11-01-2005,11:36,SPECI,,170,10.0,,,9999.0,,4.0,4.0,29.75,,,,,,,,,,,,,,,,7/8 Mostly Cloudy,7500.0,,BKN,7400,,,,,,
KRDR,11-01-2005,11:00,METAR,,170,11.0,,,9999.0,,4.0,2.0,29.78,1009.6,,,,,,,,,,,,,,,7/8 Mostly Cloudy,6000.0,,FEW,5000,BKN,5900.0,,,,
KRDR,11-01-2005,10:00,METAR,,150,7.0,,,9999.0,Rain,4.0,2.0,29.79,1009.9,,,,61,,,,,,,,,,,8/8 Overcast,6500.0,,SCT,2500,OVC,6400.0,,,,
KRDR,11-01-2005,09:00,METAR,,180,9.0,,,9999.0,,5.0,1.0,29.85,1011.6,,,,,,,,,,,,,,,8/8 Overcast,6500.0,,OVC,6400,,,,,,
KRDR,11-01-2005,08:00,METAR,,180,7.0,,,9999.0,,4.0,0.0,29.87,1012.3,,,,,,,,,,,,,,,7/8 Mostly Cloudy,10000.0,,BKN,9900,,,,,,
KRDR,11-01-2005,07:00,METAR,,180,5.0,,,9999.0,,2.0,0.0,29.89,1013.1,,,,,,,,,,,,,,,7/8 Mostly Cloudy,12000.0,,BKN,12000,,,,,,
KRDR,11-01-2005,06:00,METAR,,190,6.0,,,9999.0,,2.0,0.0,29.92,1014.2,,,,,,,,,,,,,,,Clear,72000.0,,,73000,,,,,,
KRDR,11-01-2005,05:00,METAR,,210,4.0,,,9999.0,,1.0,-1.0,29.95,1015.3,,,,,,,,,,,,,,,Clear,72000.0,,,73000,,,,,,
KRDR,11-01-2005,04:00,METAR,,200,5.0,,,9999.0,,1.0,-2.0,29.97,1016.1,,,,,,,,,,,,,,,Clear,72000.0,,,73000,,,,,,
KRDR,11-01-2005,03:00,METAR,,220,6.0,,,9999.0,,1.0,-2.0,30.00,1017.1,,,,,,,,,,,,,,,4/8 Partly Cloudy,72000.0,,SCT,20000,,,,,,
KRDR,11-01-2005,02:00,METAR,,210,4.0,,,9999.0,,2.0,-1.0,30.01,1017.6,,,,,,,,,,,,,,,2/8 Mostly Clear,72000.0,,FEW,12000,FEW,20000.0,,,,
KRDR,11-01-2005,01:00,METAR,,250,5.0,,,9999.0,,3.0,0.0,30.03,1018.3,,,,,,,,,,,,,,,2/8 Mostly Clear,72000.0,,FEW,20000,,,,,,
KRDR,10-31-2005,22:00,METAR,,300,8.0,,,9999.0,,11.0,-2.0,30.05,1018.4,,,,,,,,,,,,,,,2/8 Mostly Clear,72000.0,,FEW,5000,,,,,,
KRDR,10-31-2005,21:00,METAR,,300,11.0,,,9999.0,,12.0,-1.0,30.06,1018.9,,,,,,,,,,,,,,,2/8 Mostly Clear,72000.0,,FEW,5000,,,,,,
KRDR,10-31-2005,20:00,METAR,,300,11.0,,,9999.0,,12.0,-1.0,30.06,1018.7,,,,,,,,,,,,,,,2/8 Mostly Clear,72000.0,,FEW,5000,,,,,,
KRDR,10-31-2005,19:00,METAR,,300,9.0,,,9999.0,,11.0,2.0,30.08,1019.6,,,,,,,,,,,,,,,2/8 Mostly Clear,72000.0,,FEW,5000,,,,,,
KRDR,10-31-2005,18:00,METAR,,280,11.0,,,9999.0,,10.0,2.0,30.10,1020.4,,,,,,,,,,,,,,,2/8 Mostly Clear,72000.0,,FEW,5000,,,,,,
KRDR,10-31-2005,17:00,METAR,,290,12.0,,,9999.0,,9.0,2.0,30.12,1021.1,,,,,,,,,,,,,,,2/8 Mostly Clear,72000.0,,FEW,5000,,,,,,
KRDR,10-31-2005,16:00,METAR,,300,11.0,,,9999.0,,7.0,3.0,30.12,1021.2,,,,,,,,,,,,,,,2/8 Mostly Clear,72000.0,,FEW,5000,,,,,,
KRDR,10-31-2005,15:00,METAR,,300,10.0,,,9999.0,,7.0,4.0,30.12,1021.0,,,,,,,,,,,,,,,2/8 Mostly Clear,72000.0,,FEW,2000,FEW,5000.0,,,,
KRDR,10-31-2005,14:00,METAR,,280,8.0,,,9999.0,,5.0,4.0,30.11,1020.7,,,,,,,,,,,,,,,2/8 Mostly Clear,72000.0,,FEW,1700,FEW,5000.0,,,,
KRDR,10-31-2005,13:00,METAR,,300,7.0,,,9999.0,,3.0,2.0,30.09,1020.2,,,,,,,,,,,,,,,2/8 Mostly Clear,72000.0,,FEW,1700,FEW,5000.0,,,,
KRDR,10-31-2005,12:24,SPECI,,290,7.0,,,9999.0,,4.0,3.0,30.10,,,,,,,,,,,,,,,,2/8 Mostly Clear,72000.0,,FEW,1700,FEW,5000.0,,,,
KRDR,10-31-2005,12:00,METAR,,310,8.0,,,9999.0,,5.0,4.0,30.09,1020.1,,,,,,,,,,,,,,,8/8 Overcast,1900.0,,BKN,1900,OVC,5000.0,,,,
KRDR,10-31-2005,11:00,METAR,,310,11.0,,,9999.0,,7.0,5.0,30.08,1019.7,,,,,,,,,,,,,,,8/8 Overcast,1700.0,,OVC,1700,,,,,,
KRDR,10-31-2005,10:00,METAR,,290,9.0,,,9999.0,,7.0,5.0,30.06,1018.9,,,,,,,,,,,,,,,8/8 Overcast,1700.0,,OVC,1700,,,,,,
KRDR,10-31-2005,09:00,METAR,,290,10.0,,,9999.0,,7.0,5.0,30.05,1018.5,,,,,,,,,,,,,,,8/8 Overcast,1700.0,,OVC,1700,,,,,,
KRDR,10-31-2005,08:00,METAR,,300,8.0,,,9999.0,,7.0,5.0,30.05,1018.5,,,,,,,,,,,,,,,8/8 Overcast,1200.0,,OVC,1200,,,,,,
KRDR,10-31-2005,07:00,METAR,,290,11.0,,,9999.0,,7.0,5.0,30.04,1018.2,,,,,,,,,,,,,,,8/8 Overcast,1800.0,,OVC,1800,,,,,,
KRDR,10-31-2005,06:00,METAR,,290,9.0,,,9999.0,,7.0,4.0,30.03,1018.3,,,,,,,,,,,,,.01 IN,,8/8 Overcast,2400.0,,OVC,2400,,,,,,
KRDR,10-31-2005,05:00,METAR,,260,9.0,,,9999.0,,6.0,5.0,30.04,1018.3,,,,,,,,,,,,,,,8/8 Overcast,2600.0,,OVC,2600,,,,,,
KRDR,10-31-2005,04:00,METAR,,270,5.0,,,9999.0,,5.0,4.0,30.04,1018.5,,,,,,,,,,,,,,,7/8 Mostly Cloudy,2600.0,,BKN,2600,,,,,,
KRDR,10-31-2005,03:00,METAR,,280,8.0,,,9999.0,,5.0,4.0,30.03,1018.1,,,,,,,,,,,,.01 IN,,,7/8 Mostly Cloudy,4900.0,,FEW,2000,BKN,5000.0,,,,
KRDR,10-31-2005,02:00,METAR,,280,11.0,,,9999.0,,7.0,4.0,30.03,1018.2,,,,,,,,,,,,,,,8/8 Overcast,5500.0,,SCT,4000,OVC,5400.0,,,,
KRDR,10-31-2005,01:00,METAR,,260,11.0,,,9999.0,,9.0,3.0,29.99,1016.7,,,,,,,,,,,,,,,7/8 Mostly Cloudy,6000.0,,SCT,4000,BKN,5900.0,BKN,20000.0,,
KRDR,10-31-2005,00:04,SPECI,,270,14.0,,,9999.0,Light Rain Showers,9.0,5.0,30.01,,,,,80,,,,,,,,,,,8/8 Overcast,4900.0,,OVC,5000,,,,,,
KRDR,10-31-2005,00:00,METAR,,260,11.0,,,9999.0,,9.0,3.0,29.99,1016.6,,,,,,,,,,,,,,,7/8 Mostly Cloudy,6000.0,,SCT,4000,BKN,5900.0,BKN,20000.0,,
KRDR,10-30-2005,23:00,METAR,,270,9.0,,,9999.0,,10.0,4.0,29.97,,,,,,,,,,,,,,,,8/8 Overcast,8000.0,,FEW,4000,BKN,7900.0,OVC,20000.0,,
KRDR,10-30-2005,22:00,METAR,,260,9.0,,,9999.0,,11.0,4.0,29.96,,,,,,,,,,,,,,,,8/8 Overcast,3900.0,,SCT,1500,BKN,4000.0,OVC,7900.0,,
KRDR,10-30-2005,21:00,METAR,,280,8.0,,,9999.0,,12.0,5.0,29.95,,,,,,,,,,,,,,,,8/8 Overcast,20000.0,,SCT,9900,OVC,20000.0,,,,
KRDR,10-30-2005,20:00,METAR,,260,7.0,,,9999.0,,12.0,5.0,29.95,,,,,,,,,,,,,,,,7/8 Mostly Cloudy,20000.0,,FEW,12000,BKN,20000.0,,,,
KRDR,10-30-2005,19:00,METAR,,260,8.0,,,9999.0,,11.0,6.0,29.95,,,,,,,,,,,,,,,,7/8 Mostly Cloudy,20000.0,,FEW,12000,BKN,20000.0,,,,
KRDR,10-30-2005,18:00,METAR,,210,3.0,,,9999.0,,12.0,10.0,29.96,,,,,,,,,,,,,,,,7/8 Mostly Cloudy,20000.0,,FEW,12000,BKN,20000.0,,,,
KRDR,10-30-2005,17:00,METAR,,150,5.0,,,9999.0,,8.0,6.0,29.97,,,,,,,,,,,,,,,,7/8 Mostly Cloudy,20000.0,,FEW,12000,BKN,20000.0,,,,
KRDR,10-30-2005,16:00,METAR,,,0.0,,,9999.0,,6.0,5.0,29.97,,,,,,,,,,,,,,,,7/8 Mostly Cloudy,20000.0,,FEW,12000,BKN,20000.0,,,,
KRDR,10-30-2005,15:00,METAR,,260,2.0,,,9999.0,,5.0,5.0,29.97,,,,,,,,,,,,,,,,7/8 Mostly Cloudy,20000.0,,FEW,12000,BKN,20000.0,,,,
KRDR,10-30-2005,14:00,METAR,,230,4.0,,,8000.0,Mist,2.0,2.0,29.96,,,,,10,,,,,,,,,,,7/8 Mostly Cloudy,20000.0,,FEW,12000,BKN,20000.0,,,,
KRDR,10-30-2005,13:13,SPECI,,250,4.0,,,6400.0,Mist,2.0,2.0,29.97,,,,,10,,,,,,,,,,,7/8 Mostly Cloudy,20000.0,,FEW,12000,BKN,20000.0,,,,
KRDR,10-30-2005,13:00,METAR,,230,5.0,,,4000.0,,1.0,1.0,29.96,,,,,,,,,,,,,,,,7/8 Mostly Cloudy,20000.0,,FEW,12000,BKN,20000.0,,,,
KRDR,10-30-2005,12:19,SPECI,,200,6.0,,,3200.0,Mist,3.0,3.0,29.96,,,,,10,,,,,,,,,,,7/8 Mostly Cloudy,20000.0,,BKN,20000,,,,,,
KRDR,10-30-2005,12:00,METAR,,200,6.0,,,4800.0,Mist,3.0,3.0,29.96,,,,,10,,,,,,,,,,,7/8 Mostly Cloudy,20000.0,,BKN,20000,,,,,,
KRDR,10-28-2005,21:00,METAR,,150,14.0,,,9999.0,,17.0,7.0,29.87,,,,,,,,,,,,,,,,7/8 Mostly Cloudy,25000.0,,BKN,25000,,,,,,
KRDR,10-28-2005,20:00,METAR,,150,3.0,,,9999.0,,16.0,7.0,29.89,,,,,,,,,,,,,,,,4/8 Partly Cloudy,72000.0,,SCT,25000,,,,,,
KRDR,10-28-2005,19:00,METAR,,170,16.0,,,9999.0,,16.0,6.0,29.91,,,,,,,,,,,,,,,,7/8 Mostly Cloudy,25000.0,,BKN,25000,,,,,,
KRDR,10-28-2005,18:00,METAR,,170,11.0,,,9999.0,,14.0,6.0,29.93,,,,,,,,,,,,,,,,4/8 Partly Cloudy,72000.0,,SCT,25000,,,,,,
KRDR,10-28-2005,17:00,METAR,,180,15.0,,,9999.0,,13.0,6.0,29.96,,,,,,,,,,,,,,,,4/8 Partly Cloudy,72000.0,,SCT,25000,,,,,,
KRDR,10-28-2005,16:00,METAR,,170,16.0,22.0,,9999.0,,10.0,5.0,29.96,,,,,,,,,,,,,,,,4/8 Partly Cloudy,72000.0,,SCT,25000,,,,,,
KRDR,10-28-2005,15:00,METAR,,170,17.0,22.0,,9999.0,,8.0,4.0,29.97,,,,,,,,,,,,,,,,2/8 Mostly Clear,72000.0,,FEW,20000,,,,,,
KRDR,10-28-2005,14:00,METAR,,170,18.0,,,9999.0,,6.0,4.0,29.97,,,,,,,,,,,,,,,,2/8 Mostly Clear,72000.0,,FEW,20000,,,,,,
KRDR,10-28-2005,13:00,METAR,,160,13.0,,,9999.0,,6.0,4.0,29.98,,,,,,,,,,,,,,,,4/8 Partly Cloudy,72000.0,,SCT,20000,,,,,,
KRDR,10-28-2005,12:30,METAR,,160,13.0,,,9999.0,,6.0,4.0,29.98,,,,,,,,,,,,,,,,4/8 Partly Cloudy,72000.0,,SCT,20000,,,,,,
KRDR,10-27-2005,23:00,METAR,,150,12.0,,,9999.0,,13.0,5.0,30.09,,,,,,,,,,,,,,,,2/8 Mostly Clear,72000.0,,FEW,25000,,,,,,
KRDR,10-27-2005,22:00,METAR,,160,14.0,19.0,,9999.0,,15.0,4.0,30.10,,,,,,,,,,,,,,,,2/8 Mostly Clear,72000.0,,FEW,25000,,,,,,
KRDR,10-27-2005,21:00,METAR,,170,13.0,,,9999.0,,15.0,5.0,30.11,,,,,,,,,,,,,,,,2/8 Mostly Clear,72000.0,,FEW,25000,,,,,,
KRDR,10-27-2005,20:00,METAR,,160,12.0,,,9999.0,,15.0,5.0,30.13,,,,,,,,,,,,,,,,2/8 Mostly Clear,72000.0,,FEW,25000,,,,,,
KRDR,10-27-2005,19:00,METAR,,140,14.0,,,9999.0,,13.0,4.0,30.15,,,,,,,,,,,,,,,,2/8 Mostly Clear,72000.0,,FEW,25000,,,,,,
KRDR,10-27-2005,18:00,METAR,,170,13.0,,,9999.0,,11.0,4.0,30.17,,,,,,,,,,,,,,,,2/8 Mostly Clear,72000.0,,FEW,25000,,,,,,
KRDR,10-27-2005,17:00,METAR,,160,11.0,,,9999.0,,9.0,4.0,30.19,,,,,,,,,,,,,,,,2/8 Mostly Clear,72000.0,,FEW,25000,,,,,,
KRDR,10-27-2005,16:00,METAR,,170,9.0,,,9999.0,,6.0,3.0,30.19,,,,,,,,,,,,,,,,2/8 Mostly Clear,72000.0,,FEW,25000,,,,,,
KRDR,10-27-2005,15:00,METAR,,170,8.0,,,9999.0,,3.0,2.0,30.19,,,,,,,,,,,,,,,,2/8 Mostly Clear,72000.0,,FEW,25000,,,,,,
KRDR,10-27-2005,14:00,METAR,,160,6.0,,,9999.0,,1.0,0.0,30.20,,,,,,,,,,,,,,,,2/8 Mostly Clear,72000.0,,FEW,25000,,,,,,
KRDR,10-27-2005,13:00,METAR,,160,5.0,,,9999.0,Mist,0.0,0.0,30.20,,,,,10,,,,,,,,,,,2/8 Mostly Clear,72000.0,,FEW,25000,,,,,,
KRDR,10-27-2005,12:30,METAR,,150,6.0,,,9999.0,Mist,0.0,0.0,30.20,,,,,10,,,,,,,,,,,Clear,72000.0,,,73000,,,,,,
KRDR,10-26-2005,21:20,METAR,,140,7.0,,,9999.0,,14.0,3.0,30.17,,,,,,,,,,,,,,,,2/8 Mostly Clear,72000.0,,FEW,25000,,,,,,
KRDR,10-26-2005,21:00,METAR,,140,6.0,,,9999.0,,13.0,2.0,30.17,,,,,,,,,,,,,,,,2/8 Mostly Clear,72000.0,,FEW,25000,,,,,,
KRDR,10-26-2005,20:00,METAR,,150,5.0,,,9999.0,,13.0,3.0,30.18,,,,,,,,,,,,,,,,2/8 Mostly Clear,72000.0,,FEW,25000,,,,,,
KRDR,10-26-2005,19:00,METAR,,120,7.0,,,9999.0,,12.0,2.0,30.18,,,,,,,,,,,,,,,,Clear,72000.0,,,73000,,,,,,
KRDR,10-26-2005,18:00,METAR,,,2.0,,,9999.0,,11.0,3.0,30.20,,,,,,,,,,,,,,,,Clear,72000.0,,,73000,,,,,,
KRDR,10-26-2005,17:00,METAR,,,2.0,,,9999.0,,8.0,2.0,30.20,,,,,,,,,,,,,,,,Clear,72000.0,,,73000,,,,,,
KRDR,10-26-2005,16:00,METAR,,,2.0,,,9999.0,,5.0,2.0,30.20,,,,,,,,,,,,,,,,Clear,72000.0,,,73000,,,,,,
KRDR,10-26-2005,15:00,METAR,,,0.0,,,9999.0,,1.0,0.0,30.18,,,,,,,,,,,,,,,,Clear,72000.0,,,73000,,,,,,
KRDR,10-26-2005,14:00,METAR,,290,2.0,,,9999.0,,-2.0,-2.0,30.18,,,,,,,,,,,,,,,,Clear,72000.0,,,73000,,,,,,
KRDR,10-26-2005,13:00,METAR,,,0.0,,,9999.0,,-4.0,-4.0,30.16,,,,,,,,,,,,,,,,Clear,72000.0,,,73000,,,,,,
KRDR,10-26-2005,12:30,METAR,,20,1.0,,,9999.0,,-2.0,-2.0,30.16,,,,,,,,,,,,,,,,Clear,72000.0,,,73000,,,,,,
KRDR,10-25-2005,21:30,METAR,,250,2.0,,,9999.0,,14.0,1.0,30.01,,,,,,,,,,,,,,,,Clear,72000.0,,,73000,,,,,,
KRDR,10-25-2005,21:00,METAR,,250,4.0,,,9999.0,,14.0,1.0,30.01,,,,,,,,,,,,,,,,Clear,72000.0,,,73000,,,,,,
KRDR,10-25-2005,20:00,METAR,,220,10.0,,,9999.0,,14.0,1.0,30.00,,,,,,,,,,,,,,,,Clear,72000.0,,,73000,,,,,,
KRDR,10-25-2005,19:00,METAR,,220,6.0,,,9999.0,,13.0,1.0,30.02,,,,,,,,,,,,,,,,Clear,72000.0,,,73000,,,,,,
KRDR,10-25-2005,18:00,METAR,,200,9.0,,,9999.0,,12.0,1.0,30.04,,,,,,,,,,,,,,,,Clear,72000.0,,,73000,,,,,,
KRDR,10-25-2005,17:00,METAR,,170,8.0,,,9999.0,,9.0,2.0,30.07,,,,,,,,,,,,,,,,Clear,72000.0,,,73000,,,,,,
KRDR,10-25-2005,16:00,METAR,,200,8.0,,,9999.0,,7.0,1.0,30.09,,,,,,,,,,,,,,,,Clear,72000.0,,,73000,,,,,,
KRDR,10-25-2005,15:00,METAR,,190,9.0,,,9999.0,,4.0,1.0,30.08,,,,,,,,,,,,,,,,Clear,72000.0,,,73000,,,,,,
KRDR,10-25-2005,14:00,METAR,,180,7.0,,,9999.0,,0.0,-1.0,30.08,,,,,,,,,,,,,,,,Clear,72000.0,,,73000,,,,,,
KRDR,10-25-2005,13:00,METAR,,170,5.0,,,9999.0,,-2.0,-2.0,30.10,,,,,,,,,,,,,,,,Clear,72000.0,,,73000,,,,,,
KRDR,10-25-2005,12:30,METAR,,180,6.0,,,9999.0,,-1.0,-1.0,30.11,,,,,,,,,,,,,,,,Clear,72000.0,,,73000,,,,,,
KRDR,10-24-2005,21:30,METAR,,170,7.0,,,9999.0,,10.0,1.0,30.25,,,,,,,,,,,,,,,,Clear,72000.0,,,73000,,,,,,
KRDR,10-24-2005,21:00,METAR,,180,5.0,,,9999.0,,10.0,1.0,30.26,,,,,,,,,,,,,,,,Clear,72000.0,,,73000,,,,,,
KRDR,10-24-2005,20:00,METAR,,200,6.0,,,9999.0,,10.0,1.0,30.27,,,,,,,,,,,,,,,,Clear,72000.0,,,73000,,,,,,
KRDR,10-24-2005,19:00,METAR,,190,5.0,,,9999.0,,8.0,0.0,30.30,,,,,,,,,,,,,,,,Clear,72000.0,,,73000,,,,,,
KRDR,10-24-2005,18:00,METAR,,200,3.0,,,9999.0,,8.0,1.0,30.31,,,,,,,,,,,,,,,,2/8 Mostly Clear,72000.0,,FEW,3000,,,,,,
KRDR,10-24-2005,17:00,METAR,,220,9.0,,,9999.0,,6.0,0.0,30.33,,,,,,,,,,,,,,,,2/8 Mostly Clear,72000.0,,FEW,3000,,,,,,
KRDR,10-24-2005,16:00,METAR,,190,5.0,,,9999.0,,6.0,0.0,30.34,,,,,,,,,,,,,,,,2/8 Mostly Clear,72000.0,,FEW,3000,,,,,,
KRDR,10-24-2005,15:00,METAR,,220,4.0,,,9999.0,,4.0,1.0,30.34,,,,,,,,,,,,,,,,2/8 Mostly Clear,72000.0,,FEW,2500,,,,,,
KRDR,10-24-2005,14:00,METAR,,230,3.0,,,9999.0,,1.0,1.0,30.34,,,,,,,,,,,,,,,,4/8 Partly Cloudy,72000.0,,SCT,2500,,,,,,
KRDR,10-24-2005,13:00,METAR,,170,3.0,,,9999.0,,3.0,1.0,30.33,,,,,,,,,,,,,,,,8/8 Overcast,2500.0,,BKN,2500,OVC,9900.0,,,,
KRDR,10-24-2005,12:30,METAR,,160,3.0,,,9999.0,,3.0,1.0,30.33,,,,,,,,,,,,,,,,7/8 Mostly Cloudy,2500.0,,BKN,2500,,,,,,
KRDR,10-21-2005,21:30,METAR,,310,16.0,23.0,,9999.0,,10.0,-2.0,30.11,,,,,,,,,,,,,,,,4/8 Partly Cloudy,72000.0,,SCT,4500,,,,,,
KRDR,10-21-2005,21:00,METAR,,310,17.0,25.0,,9999.0,,10.0,-2.0,30.10,,,,,,,,,,,,,,,,4/8 Partly Cloudy,72000.0,,SCT,4500,SCT,25000.0,,,,
KRDR,10-21-2005,20:00,METAR,,330,15.0,26.0,,9999.0,,11.0,0.0,30.10,,,,,,,,,,,,,,,,4/8 Partly Cloudy,72000.0,,SCT,3000,SCT,25000.0,,,,
KRDR,10-21-2005,19:00,METAR,,330,15.0,23.0,,9999.0,,9.0,0.0,30.11,,,,,,,,,,,,,,,,4/8 Partly Cloudy,72000.0,,SCT,3000,SCT,25000.0,,,,
KRDR,10-21-2005,18:00,METAR,,320,16.0,,,9999.0,,7.0,1.0,30.13,,,,,,,,,,,,,,,,7/8 Mostly Cloudy,7000.0,,SCT,2500,BKN,6900.0,,,,
KRDR,10-21-2005,17:00,METAR,,320,13.0,19.0,,9999.0,,7.0,1.0,30.13,,,,,,,,,,,,,,,,7/8 Mostly Cloudy,7000.0,,SCT,2500,BKN,6900.0,,,,
KRDR,10-21-2005,16:00,METAR,,310,19.0,,,9999.0,,6.0,1.0,30.12,,,,,,,,,,,,,,,,4/8 Partly Cloudy,72000.0,,SCT,2500,SCT,6900.0,,,,
KRDR,10-21-2005,15:00,METAR,,310,17.0,21.0,,9999.0,,6.0,1.0,30.10,,,,,,,,,,,,,,,,4/8 Partly Cloudy,72000.0,,FEW,2000,SCT,6900.0,SCT,25000.0,,
KRDR,10-21-2005,14:15,SPECI,,310,15.0,21.0,,9999.0,,6.0,3.0,30.09,,,,,,,,,,,,,,,,7/8 Mostly Cloudy,10000.0,,SCT,2000,SCT,9900.0,BKN,25000.0,,
KRDR,10-21-2005,14:00,METAR,,310,15.0,,,9999.0,,7.0,3.0,30.09,,,,,,,,,,,,,,,,7/8 Mostly Cloudy,2000.0,,BKN,2000,,,,,,
KRDR,10-21-2005,13:00,METAR,,330,19.0,,,9999.0,,8.0,4.0,30.06,,,,,,,,,,,,,,,,8/8 Overcast,1500.0,,OVC,1500,,,,,,
KRDR,10-21-2005,12:30,METAR,,320,15.0,,,9999.0,,8.0,4.0,30.05,,,,,,,,,,,,,,,,8/8 Overcast,1500.0,,OVC,1500,,,,,,
KRDR,10-20-2005,21:30,METAR,,160,9.0,,,9999.0,,11.0,7.0,30.02,,,,,,,,,,,,,,,,8/8 Overcast,25000.0,,FEW,9900,OVC,25000.0,,,,
KRDR,10-20-2005,21:00,METAR,,170,11.0,,,9999.0,,11.0,7.0,30.03,,,,,,,,,,,,,,,,8/8 Overcast,25000.0,,FEW,9900,OVC,25000.0,,,,
KRDR,10-20-2005,20:00,METAR,,160,11.0,,,9999.0,,10.0,6.0,30.04,,,,,,,,,,,,,,,,8/8 Overcast,25000.0,,FEW,9900,OVC,25000.0,,,,
KRDR,10-20-2005,19:00,METAR,,160,9.0,,,9999.0,,9.0,7.0,30.05,,,,,,,,,,,,,,,,7/8 Mostly Cloudy,10000.0,,FEW,1000,SCT,9900.0,BKN,25000.0,,
KRDR,10-20-2005,18:00,METAR,,140,8.0,,,8000.0,Mist,7.0,7.0,30.07,,,,,10,,,,,,,,,,,7/8 Mostly Cloudy,25000.0,,SCT,500,BKN,25000.0,,,,
KRDR,10-20-2005,17:17,SPECI,,150,10.0,,,6400.0,Mist,5.0,5.0,30.09,,,,,10,,,,,,,,,,,8/8 Overcast,400.0,,OVC,400,,,,,,
KRDR,10-20-2005,17:00,METAR,,170,9.0,,,2400.0,Mist,5.0,5.0,30.09,,,,,10,,,,,,,,,,,7/8 Mostly Cloudy,400.0,,BKN,400,,,,,,
KRDR,10-20-2005,16:00,METAR,,160,10.0,,,2400.0,Mist,5.0,5.0,30.09,,,,,10,,,,,,,,,,,7/8 Mostly Cloudy,500.0,,BKN,500,,,,,,
KRDR,10-20-2005,15:00,METAR,,170,4.0,,,400.0,Fog or Ice Fog,4.0,4.0,30.10,,,,,45,,,,,,,,,,,Sky Obscured (Unable to Estimate),100.0,100.0,,100,,,,,,
KRDR,10-20-2005,14:00,METAR,,120,7.0,,,400.0,Fog or Ice Fog,4.0,4.0,30.09,,,,,45,,,,,,,,,,,Sky Obscured (Unable to Estimate),100.0,100.0,,100,,,,,,
KRDR,10-20-2005,13:00,METAR,,140,6.0,,,400.0,Fog or Ice Fog,4.0,4.0,30.09,,,,,45,,,,,,,,,,,Sky Obscured (Unable to Estimate),100.0,100.0,,100,,,,,,
KRDR,10-20-2005,12:30,METAR,,120,6.0,,,400.0,Fog or Ice Fog,4.0,4.0,30.09,,,,,45,,,,,,,,,,,Sky Obscured (Unable to Estimate),100.0,100.0,,100,,,,,,
KRDR,10-19-2005,21:30,METAR,,30,5.0,,,9999.0,,14.0,6.0,30.05,,,,,,,,,,,,,,,,2/8 Mostly Clear,72000.0,,FEW,6400,FEW,25000.0,,,,
KRDR,10-19-2005,21:00,METAR,,,1.0,,,9999.0,,14.0,6.0,30.05,,,,,,,,,,,,,,,,2/8 Mostly Clear,72000.0,,FEW,6400,FEW,25000.0,,,,
KRDR,10-19-2005,20:00,METAR,,,2.0,,,9999.0,,14.0,6.0,30.06,,,,,,,,,,,,,,,,2/8 Mostly Clear,72000.0,,FEW,6400,FEW,25000.0,,,,
KRDR,10-19-2005,19:00,METAR,,330,2.0,,,9999.0,,13.0,6.0,30.07,,,,,,,,,,,,,,,,2/8 Mostly Clear,72000.0,,FEW,6900,FEW,25000.0,,,,
KRDR,10-19-2005,18:00,METAR,,270,3.0,,,9999.0,,11.0,6.0,30.09,,,,,,,,,,,,,,,,4/8 Partly Cloudy,72000.0,,SCT,9900,,,,,,
KRDR,10-19-2005,17:00,METAR,,230,5.0,,,9999.0,,9.0,6.0,30.09,,,,,,,,,,,,,,,,4/8 Partly Cloudy,72000.0,,FEW,1000,SCT,9900.0,,,,
KRDR,10-19-2005,16:00,METAR,,190,7.0,,,9999.0,,7.0,6.0,30.10,,,,,,,,,,,,,,,,4/8 Partly Cloudy,72000.0,,SCT,1000,SCT,9900.0,,,,
KRDR,10-19-2005,15:00,METAR,,190,7.0,,,8000.0,Mist,5.0,5.0,30.10,,,,,10,,,,,,,,,,,7/8 Mostly Cloudy,1000.0,,BKN,1000,,,,,,
KRDR,10-19-2005,14:37,SPECI,,200,7.0,,,6400.0,Mist,5.0,5.0,30.10,,,,,10,,,,,,,,,,,7/8 Mostly Cloudy,1000.0,,BKN,1000,,,,,,
KRDR,10-19-2005,14:00,METAR,,210,8.0,,,3200.0,Mist,4.0,4.0,30.08,,,,,10,,,,,,,,,,,8/8 Overcast,1000.0,,OVC,1000,,,,,,
KRDR,10-19-2005,13:35,SPECI,,220,5.0,,,3200.0,Mist,4.0,4.0,30.09,,,,,10,,,,,,,,,,,8/8 Overcast,1000.0,,OVC,1000,,,,,,
KRDR,10-19-2005,13:00,METAR,,190,4.0,,,8000.0,Mist,4.0,4.0,30.09,,,,,10,,,,,,,,,,,7/8 Mostly Cloudy,1000.0,,BKN,1000,,,,,,
KRDR,10-19-2005,12:30,METAR,,190,5.0,,,9999.0,,3.0,3.0,30.08,,,,,,,,,,,,,,,,4/8 Partly Cloudy,72000.0,,SCT,1000,,,,,,
KRDR,10-18-2005,21:30,METAR,,360,19.0,23.0,,9999.0,,6.0,6.0,29.87,,,,,,,,,,,,,,,,8/8 Overcast,2000.0,,OVC,2000,,,,,,
KRDR,10-18-2005,21:00,METAR,,360,17.0,24.0,,9999.0,,6.0,6.0,29.85,,,,,,,,,,,,,TRACE,,,8/8 Overcast,2000.0,,OVC,2000,,,,,,
KRDR,10-18-2005,20:00,METAR,,360,16.0,,,9999.0,,6.0,6.0,29.79,,,,,,,,,,,,,,,,8/8 Overcast,2000.0,,BKN,2000,OVC,8900.0,,,,
KRDR,10-18-2005,19:42,SPECI,,360,17.0,,,9999.0,,7.0,6.0,29.78,,,,,,,,,,,,,,,,8/8 Overcast,2000.0,,BKN,2000,OVC,8900.0,,,,
KRDR,10-18-2005,19:00,METAR,,10,16.0,,,9999.0,Rain,7.0,6.0,29.72,,,,,61,,,,,,,,,,,8/8 Overcast,1000.0,,BKN,1000,OVC,9900.0,,,,
KRDR,10-18-2005,18:00,METAR,,360,15.0,,,9999.0,Rain,8.0,6.0,29.70,,,,,61,,,,,,,,,IN,,8/8 Overcast,4900.0,,FEW,3000,SCT,5000.0,OVC,9900.0,,
KRDR,10-18-2005,17:00,METAR,,10,11.0,,,9999.0,,9.0,6.0,29.68,,,,,,,,,,,,,,,,7/8 Mostly Cloudy,10000.0,,FEW,6900,BKN,9900.0,,,,
KRDR,10-18-2005,16:00,METAR,,40,8.0,,,9999.0,,8.0,6.0,29.66,,,,,,,,,,,,,,,,8/8 Overcast,10000.0,,SCT,6900,BKN,9900.0,OVC,25000.0,,
KRDR,10-18-2005,15:00,METAR,,50,8.0,,,9999.0,,8.0,6.0,29.67,,,,,,,,,,,,,TRACE,,,8/8 Overcast,10000.0,,SCT,6900,BKN,9900.0,OVC,25000.0,,
KRDR,10-18-2005,14:30,METAR,,40,6.0,,,9999.0,,7.0,5.0,29.68,,,,,,,,,,,,,,,,8/8 Overcast,10000.0,,BKN,9900,OVC,25000.0,,,,
KRDR,10-18-2005,14:00,METAR,,,7.0,,,9999.0,Rain,7.0,5.0,29.71,,,,,61,,,,,,,,,,,8/8 Overcast,4900.0,,BKN,5000,OVC,9900.0,,,,
KRDR,10-18-2005,13:42,SPECI,,90,7.0,,,9999.0,Rain,7.0,4.0,29.69,,,,,61,,,,,,,,,,,8/8 Overcast,4900.0,,BKN,5000,OVC,9900.0,,,,
KRDR,10-18-2005,13:00,METAR,,,4.0,,,9999.0,,7.0,4.0,29.71,,,,,,,,,,,,,,,,7/8 Mostly Cloudy,7000.0,,BKN,6900,BKN,9900.0,BKN,25000.0,,
KRDR,10-18-2005,12:30,METAR,,90,6.0,,,9999.0,,8.0,4.0,29.69,,,,,,,,,,,,,,,,7/8 Mostly Cloudy,10000.0,,BKN,9900,BKN,25000.0,,,,
KRDR,10-17-2005,21:30,METAR,,290,7.0,,,9999.0,,15.0,1.0,29.80,,,,,,,,,,,,,,,,7/8 Mostly Cloudy,25000.0,,FEW,15000,BKN,25000.0,,,,
KRDR,10-17-2005,21:00,METAR,,300,7.0,,,9999.0,,15.0,2.0,29.80,,,,,,,,,,,,,,,,7/8 Mostly Cloudy,25000.0,,FEW,15000,BKN,25000.0,,,,
KRDR,10-17-2005,20:00,METAR,,300,10.0,,,9999.0,,15.0,1.0,29.82,,,,,,,,,,,,,,,,7/8 Mostly Cloudy,25000.0,,BKN,25000,,,,,,
KRDR,10-17-2005,19:00,METAR,,320,12.0,,,9999.0,,14.0,1.0,29.82,,,,,,,,,,,,,,,,4/8 Partly Cloudy,72000.0,,SCT,25000,,,,,,
KRDR,10-17-2005,18:00,METAR,,300,9.0,,,9999.0,,14.0,2.0,29.84,,,,,,,,,,,,,,,,4/8 Partly Cloudy,72000.0,,SCT,25000,,,,,,
KRDR,10-17-2005,17:00,METAR,,290,10.0,,,9999.0,,13.0,1.0,29.84,,,,,,,,,,,,,,,,2/8 Mostly Clear,72000.0,,FEW,25000,,,,,,
KRDR,10-17-2005,16:00,METAR,,310,10.0,,,9999.0,,11.0,3.0,29.82,,,,,,,,,,,,,,,,4/8 Partly Cloudy,72000.0,,SCT,25000,,,,,,
KRDR,10-17-2005,15:00,METAR,,310,13.0,,,9999.0,,10.0,5.0,29.81,,,,,,,,,,,,,,,,2/8 Mostly Clear,72000.0,,FEW,25000,,,,,,
KRDR,10-17-2005,14:00,METAR,,280,10.0,,,9999.0,,8.0,5.0,29.80,,,,,,,,,,,,,,,,2/8 Mostly Clear,72000.0,,FEW,25000,,,,,,
KRDR,10-17-2005,13:00,METAR,,280,9.0,,,9999.0,,7.0,6.0,29.77,,,,,,,,,,,,,,,,2/8 Mostly Clear,72000.0,,FEW,25000,,,,,,
KRDR,10-17-2005,12:30,METAR,,290,9.0,,,9999.0,,8.0,6.0,29.76,,,,,,,,,,,,,,,,Clear,72000.0,,,73000,,,,,,
KRDR,10-14-2005,21:30,METAR,,290,14.0,,,9999.0,,17.0,2.0,30.03,,,,,,,,,,,,,,,,Clear,72000.0,,,73000,,,,,,
KRDR,10-14-2005,21:00,METAR,,300,18.0,24.0,,9999.0,,18.0,3.0,30.02,,,,,,,,,,,,,,,,Clear,72000.0,,,73000,,,,,,
KRDR,10-14-2005,20:00,METAR,,280,17.0,23.0,,9999.0,,17.0,4.0,30.01,,,,,,,,,,,,,,,,2/8 Mostly Clear,72000.0,,FEW,3000,,,,,,
KRDR,10-14-2005,19:00,METAR,,290,18.0,22.0,,9999.0,,17.0,4.0,30.02,,,,,,,,,,,,,,,,2/8 Mostly Clear,72000.0,,FEW,3000,,,,,,
KRDR,10-14-2005,18:00,METAR,,300,13.0,22.0,,9999.0,,16.0,6.0,30.01,,,,,,,,,,,,,,,,Clear,72000.0,,,73000,,,,,,
KRDR,10-14-2005,17:00,METAR,,300,13.0,,,9999.0,,15.0,7.0,29.99,,,,,,,,,,,,,,,,Clear,72000.0,,,73000,,,,,,
KRDR,10-14-2005,16:00,METAR,,300,13.0,,,9999.0,,14.0,6.0,29.98,,,,,,,,,,,,,,,,Clear,72000.0,,,73000,,,,,,
KRDR,10-14-2005,15:00,METAR,,300,12.0,21.0,,9999.0,,13.0,6.0,29.96,,,,,,,,,,,,,,,,Clear,72000.0,,,73000,,,,,,
KRDR,10-14-2005,14:00,METAR,,290,11.0,,,9999.0,,11.0,5.0,29.93,,,,,,,,,,,,,,,,2/8 Mostly Clear,72000.0,,FEW,12000,,,,,,
KRDR,10-14-2005,13:00,METAR,,290,9.0,,,9999.0,,11.0,6.0,29.89,,,,,,,,,,,,,,,,2/8 Mostly Clear,72000.0,,FEW,12000,,,,,,
KRDR,10-14-2005,12:30,METAR,,300,12.0,,,9999.0,,11.0,6.0,29.87,,,,,,,,,,,,,,,,2/8 Mostly Clear,72000.0,,FEW,12000,,,,,,
KRDR,10-13-2005,21:30,METAR,,210,10.0,,,9999.0,,15.0,11.0,29.89,,,,,,,,,,,,,,,,2/8 Mostly Clear,72000.0,,FEW,9900,FEW,25000.0,,,,
KRDR,10-13-2005,21:00,METAR,,210,10.0,,,9999.0,,16.0,10.0,29.89,,,,,,,,,,,,,,,,4/8 Partly Cloudy,72000.0,,FEW,2000,SCT,25000.0,,,,
KRDR,10-13-2005,20:00,METAR,,190,8.0,,,9999.0,,16.0,11.0,29.90,,,,,,,,,,,,,,,,2/8 Mostly Clear,72000.0,,FEW,2000,FEW,25000.0,,,,
KRDR,10-13-2005,19:00,METAR,,210,7.0,,,9999.0,,15.0,9.0,29.92,,,,,,,,,,,,,,,,2/8 Mostly Clear,72000.0,,FEW,1500,FEW,25000.0,,,,
KRDR,10-13-2005,18:00,METAR,,210,6.0,,,9999.0,,14.0,10.0,29.95,,,,,,,,,,,,,,,,2/8 Mostly Clear,72000.0,,FEW,1500,,,,,,
KRDR,10-13-2005,17:00,METAR,,220,5.0,,,9999.0,Mist,13.0,10.0,29.97,,,,,10,,,,,,,,,,,2/8 Mostly Clear,72000.0,,FEW,1500,,,,,,
KRDR,10-13-2005,16:00,METAR,,190,1.0,,,8000.0,Mist,12.0,10.0,29.97,,,,,10,,,,,,,,,,,Clear,72000.0,,,73000,,,,,,
KRDR,10-13-2005,15:00,METAR,,280,4.0,,,6400.0,Mist,9.0,9.0,29.97,,,,,10,,,,,,,,,,,2/8 Mostly Clear,72000.0,,FEW,100,,,,,,
KRDR,10-13-2005,14:00,METAR,,240,1.0,,,4800.0,Mist,6.0,6.0,29.97,,,,,10,,,,,,,,,,,2/8 Mostly Clear,72000.0,,FEW,100,,,,,,
KRDR,10-13-2005,13:00,METAR,,260,2.0,,,4800.0,Mist,6.0,6.0,29.97,,,,,10,,,,,,,,,,,7/8 Mostly Cloudy,4900.0,,BKN,5000,BKN,20000.0,,,,
KRDR,10-13-2005,12:31,SPECI,,280,2.0,,,4800.0,Mist,6.0,6.0,29.96,,,,,10,,,,,,,,,,,7/8 Mostly Cloudy,4900.0,,BKN,5000,,,,,,
KRDR,10-12-2005,21:30,METAR,,160,4.0,,,9999.0,,14.0,12.0,30.01,,,,,,,,,,,,,,,,8/8 Overcast,20000.0,,SCT,4500,OVC,20000.0,,,,
KRDR,10-12-2005,21:00,METAR,,170,3.0,,,9999.0,,14.0,11.0,30.01,,,,,,,,,,,,,,,,8/8 Overcast,20000.0,,SCT,4500,OVC,20000.0,,,,
KRDR,10-12-2005,20:00,METAR,,140,3.0,,,9999.0,Rain,13.0,11.0,30.01,,,,,61,,,,,,,,,,,8/8 Overcast,4400.0,,BKN,4500,OVC,20000.0,,,,
KRDR,10-12-2005,19:44,SPECI,,140,3.0,,,9999.0,Rain,13.0,11.0,30.01,,,,,61,,,,,,,,,,,8/8 Overcast,4400.0,,BKN,4500,OVC,20000.0,,,,
KRDR,10-12-2005,19:00,METAR,,160,4.0,,,9999.0,Mist,13.0,11.0,30.01,,,,,10,,,,,,,,,,,8/8 Overcast,4400.0,,BKN,4500,OVC,20000.0,,,,
KRDR,10-12-2005,18:00,METAR,,160,4.0,,,9999.0,Mist,12.0,11.0,30.02,,,,,10,,,,,,,,,,,8/8 Overcast,4400.0,,BKN,4500,OVC,20000.0,,,,
KRDR,10-12-2005,17:00,METAR,,170,2.0,,,9999.0,Mist,11.0,10.0,30.02,,,,,10,,,,,,,,,,,8/8 Overcast,4400.0,,BKN,4500,OVC,20000.0,,,,
KRDR,10-12-2005,16:00,METAR,,160,3.0,,,8000.0,Mist,10.0,9.0,30.02,,,,,10,,,,,,,,,,,7/8 Mostly Cloudy,12000.0,,SCT,4500,BKN,12000.0,BKN,20000.0,,
KRDR,10-12-2005,15:00,METAR,,140,4.0,,,4800.0,Mist,9.0,8.0,30.02,,,,,10,,,,,,,,,,,7/8 Mostly Cloudy,12000.0,,SCT,4500,BKN,12000.0,BKN,20000.0,,
KRDR,10-12-2005,14:36,SPECI,,130,3.0,,,4800.0,Mist,8.0,8.0,30.02,,,,,10,,,,,,,,,,,7/8 Mostly Cloudy,12000.0,,SCT,4500,BKN,12000.0,BKN,20000.0,,
KRDR,10-12-2005,14:00,METAR,,150,4.0,,,3200.0,Mist,7.0,7.0,30.02,,,,,10,,,,,,,,,,,7/8 Mostly Cloudy,12000.0,,BKN,12000,BKN,20000.0,,,,
KRDR,10-12-2005,13:28,SPECI,,120,4.0,,,3200.0,Mist,6.0,6.0,30.01,,,,,10,,,,,,,,,,,7/8 Mostly Cloudy,12000.0,,SCT,7900,BKN,12000.0,BKN,20000.0,,
KRDR,10-12-2005,13:00,METAR,,110,3.0,,,4800.0,Mist,6.0,6.0,30.01,,,,,10,,,,,,,,,,,7/8 Mostly Cloudy,12000.0,,SCT,7900,BKN,12000.0,BKN,20000.0,,
KRDR,10-12-2005,12:30,METAR,,110,3.0,,,3200.0,Mist,5.0,5.0,30.01,,,,,10,,,,,,,,,,,7/8 Mostly Cloudy,12000.0,,BKN,12000,BKN,20000.0,,,,
KRDR,10-11-2005,21:30,METAR,,160,8.0,,,9999.0,,16.0,9.0,30.06,,,,,,,,,,,,,,,,7/8 Mostly Cloudy,20000.0,,SCT,9900,BKN,20000.0,,,,
KRDR,10-11-2005,21:00,METAR,,160,8.0,,,9999.0,,16.0,8.0,30.06,,,,,,,,,,,,,,,,4/8 Partly Cloudy,72000.0,,FEW,9900,SCT,20000.0,,,,
KRDR,10-11-2005,20:00,METAR,,170,11.0,,,9999.0,,17.0,8.0,30.08,,,,,,,,,,,,,,,,4/8 Partly Cloudy,72000.0,,FEW,9900,SCT,20000.0,,,,
KRDR,10-11-2005,19:00,METAR,,160,9.0,,,9999.0,,17.0,8.0,30.08,,,,,,,,,,,,,,,,4/8 Partly Cloudy,72000.0,,SCT,9900,SCT,20000.0,,,,
KRDR,10-11-2005,18:00,METAR,,170,6.0,,,9999.0,,15.0,9.0,30.10,,,,,,,,,,,,,,,,4/8 Partly Cloudy,72000.0,,SCT,20000,,,,,,
KRDR,10-11-2005,17:00,METAR,,160,6.0,,,9999.0,,14.0,9.0,30.11,,,,,,,,,,,,,,,,2/8 Mostly Clear,72000.0,,FEW,20000,,,,,,
KRDR,10-11-2005,16:00,METAR,,160,4.0,,,9999.0,,11.0,11.0,30.13,,,,,,,,,,,,,,,,2/8 Mostly Clear,72000.0,,FEW,20000,,,,,,
KRDR,10-11-2005,15:00,METAR,,,3.0,,,9999.0,Mist,7.0,7.0,30.15,,,,,10,,,,,,,,,,,Clear,72000.0,,,73000,,,,,,
KRDR,10-11-2005,14:00,METAR,,180,1.0,,,6400.0,Mist,4.0,4.0,30.15,,,,,10,,,,,,,,,,,2/8 Mostly Clear,72000.0,,FEW,0,,,,,,
KRDR,10-11-2005,13:09,SPECI,,220,2.0,,,2400.0,Mist,2.0,2.0,30.15,,,,,10,,,,,,,,,,,2/8 Mostly Clear,72000.0,,FEW,0,,,,,,
KRDR,10-11-2005,13:00,METAR,,200,1.0,,,1200.0,Mist,2.0,2.0,30.15,,,,,10,,,,,,,,,,,4/8 Partly Cloudy,72000.0,,SCT,0,,,,,,
KRDR,10-11-2005,12:30,METAR,,230,1.0,,,400.0,Fog or Ice Fog,2.0,2.0,30.15,,,,,45,,,,,,,,,,,Sky Obscured (Unable to Estimate),100.0,100.0,,100,,,,,,
KRDR,10-07-2005,21:30,METAR,,150,16.0,22.0,,9999.0,,7.0,1.0,30.11,,,,,,,,,,,,,,,,4/8 Partly Cloudy,72000.0,,SCT,2500,,,,,,
KRDR,10-07-2005,21:00,METAR,,170,16.0,24.0,,9999.0,,8.0,2.0,30.12,,,,,,,,,,,,,,,,4/8 Partly Cloudy,72000.0,,SCT,2500,,,,,,
KRDR,10-07-2005,20:00,METAR,,170,17.0,,,9999.0,,7.0,1.0,30.15,,,,,,,,,,,,,,,,4/8 Partly Cloudy,72000.0,,SCT,2500,,,,,,
KRDR,10-07-2005,19:00,METAR,,180,14.0,22.0,,9999.0,,6.0,1.0,30.19,,,,,,,,,,,,,,,,7/8 Mostly Cloudy,2400.0,,BKN,2400,,,,,,
KRDR,10-07-2005,18:00,METAR,,170,18.0,,,9999.0,,6.0,1.0,30.22,,,,,,,,,,,,,,,,7/8 Mostly Cloudy,2000.0,,BKN,2000,,,,,,
KRDR,10-07-2005,17:00,METAR,,170,15.0,21.0,,9999.0,,5.0,0.0,30.25,,,,,,,,,,,,,,,,7/8 Mostly Cloudy,2000.0,,BKN,2000,,,,,,
KRDR,10-07-2005,16:00,METAR,,170,10.0,,,9999.0,,3.0,0.0,30.27,,,,,,,,,,,,,,,,7/8 Mostly Cloudy,2000.0,,BKN,2000,,,,,,
KRDR,10-07-2005,15:00,METAR,,160,14.0,,,9999.0,,2.0,-1.0,30.29,,,,,,,,,,,,,,,,7/8 Mostly Cloudy,2000.0,,BKN,2000,,,,,,
KRDR,10-07-2005,14:00,METAR,,170,12.0,,,9999.0,,2.0,-1.0,30.30,,,,,,,,,,,,,,,,7/8 Mostly Cloudy,2000.0,,BKN,2000,,,,,,
KRDR,10-07-2005,13:00,METAR,,160,11.0,,,9999.0,,2.0,-1.0,30.31,,,,,,,,,,,,,,,,8/8 Overcast,2000.0,,OVC,2000,,,,,,
KRDR,10-07-2005,12:30,METAR,,160,6.0,,,9999.0,,1.0,-1.0,30.32,,,,,,,,,,,,,,,,8/8 Overcast,2100.0,,OVC,2100,,,,,,
KRDR,10-06-2005,21:30,METAR,,360,13.0,,,9999.0,,3.0,1.0,30.36,,,,,,,,,,,,,,,,8/8 Overcast,1800.0,,OVC,1800,,,,,,
KRDR,10-06-2005,21:00,METAR,,340,16.0,,,9999.0,,3.0,1.0,30.36,,,,,,,,,,,,,,,,7/8 Mostly Cloudy,1600.0,,BKN,1600,,,,,,
KRDR,10-06-2005,20:00,METAR,,340,16.0,,,9999.0,,3.0,1.0,30.36,,,,,,,,,,,,,,,,8/8 Overcast,1600.0,,OVC,1600,,,,,,
KRDR,10-06-2005,19:00,METAR,,340,14.0,,,9999.0,,3.0,1.0,30.35,,,,,,,,,,,,,,,,7/8 Mostly Cloudy,1600.0,,BKN,1600,,,,,,
KRDR,10-06-2005,18:00,METAR,,330,15.0,,,9999.0,,3.0,1.0,30.36,,,,,,,,,,,,,,,,8/8 Overcast,1500.0,,OVC,1500,,,,,,
KRDR,10-06-2005,17:00,METAR,,330,18.0,,,9999.0,,2.0,0.0,30.35,,,,,,,,,,,,,,,,8/8 Overcast,1500.0,,OVC,1500,,,,,,
KRDR,10-06-2005,16:00,METAR,,330,15.0,,,9999.0,,1.0,0.0,30.33,,,,,,,,,,,,,,,,8/8 Overcast,1500.0,,OVC,1500,,,,,,
KRDR,10-06-2005,15:00,METAR,,320,15.0,23.0,,9999.0,,1.0,0.0,30.31,,,,,,,,,,,,,,,,8/8 Overcast,1500.0,,OVC,1500,,,,,,
KRDR,10-06-2005,14:00,METAR,,330,15.0,,,9999.0,,0.0,-1.0,30.28,,,,,,,,,,,,,,,,8/8 Overcast,1500.0,,OVC,1500,,,,,,
KRDR,10-06-2005,13:00,METAR,,330,18.0,,,9999.0,,0.0,-1.0,30.26,,,,,,,,,,,,,,,,8/8 Overcast,1200.0,,OVC,1200,,,,,,
KRDR,10-06-2005,12:30,METAR,,330,16.0,,,9999.0,,0.0,-1.0,30.24,,,,,,,,,,,,,,,,8/8 Overcast,1200.0,,OVC,1200,,,,,,
KRDR,10-05-2005,21:30,METAR,,30,21.0,28.0,,1200.0,Rain/Mist,6.0,6.0,29.70,,,,,61,10,,,,,,,,,,8/8 Overcast,700.0,,OVC,700,,,,,,
KRDR,10-05-2005,21:00,METAR,,30,20.0,28.0,,1200.0,Rain/Mist,6.0,6.0,29.70,,,,,61,10,,,,,,,.27 IN,,,8/8 Overcast,800.0,,SCT,400,OVC,800.0,,,,
KRDR,10-05-2005,20:00,METAR,,30,16.0,20.0,030/30KTS,1200.0,Rain/Mist,6.0,6.0,29.71,,,,,61,10,,,,,,,,,,8/8 Overcast,800.0,,SCT,300,OVC,800.0,,,,
KRDR,10-05-2005,19:00,METAR,,30,18.0,25.0,040/28KTS,1200.0,Rain/Mist,6.0,6.0,29.73,,,,,61,10,,,,,,,,,,8/8 Overcast,800.0,,SCT,400,OVC,800.0,,,,
KRDR,10-05-2005,18:00,METAR,,30,20.0,29.0,,1200.0,Rain/Mist,6.0,6.0,29.76,,,,,61,10,,,,,,,,.2 IN,,8/8 Overcast,800.0,,SCT,400,OVC,800.0,,,,
KRDR,10-05-2005,17:30,METAR,,40,18.0,25.0,,1200.0,Rain/Mist,6.0,6.0,29.78,,,,,61,10,,,,,,,,,,8/8 Overcast,800.0,,SCT,400,OVC,800.0,,,,
KRDR,10-05-2005,17:00,METAR,,40,18.0,27.0,020/30KTS,1200.0,Rain/Mist,6.0,6.0,29.77,,,,,61,10,,,,,,,,,,8/8 Overcast,1000.0,,SCT,500,OVC,1000.0,,,,
KRDR,10-05-2005,16:00,METAR,,40,16.0,24.0,,1200.0,Rain/Mist,5.0,5.0,29.78,,,,,61,10,,,,,,,,,,8/8 Overcast,1000.0,,SCT,500,OVC,1000.0,,,,
KRDR,10-05-2005,15:00,METAR,,40,21.0,,,1200.0,Rain/Mist,5.0,5.0,29.78,,,,,61,10,,,,,,,.14 IN,,,7/8 Mostly Cloudy,1200.0,,SCT,700,BKN,1200.0,,,,
KRDR,10-05-2005,14:00,METAR,,30,17.0,26.0,,800.0,Rain/Mist,5.0,5.0,29.81,,,,,61,10,,,,,,,,,,7/8 Mostly Cloudy,1000.0,,SCT,500,BKN,1000.0,,,,
KRDR,10-05-2005,13:15,SPECI,,30,15.0,,,800.0,Rain/Mist,5.0,5.0,29.83,,,,,61,10,,,,,,,,,,7/8 Mostly Cloudy,1000.0,,SCT,500,BKN,1000.0,,,,
KRDR,10-05-2005,13:00,METAR,,20,16.0,23.0,,3200.0,Rain/Mist,5.0,5.0,29.81,,,,,61,10,,,,,,,,,,7/8 Mostly Cloudy,1000.0,,SCT,500,BKN,1000.0,,,,
KRDR,10-05-2005,12:30,METAR,,30,15.0,25.0,,3200.0,Rain,5.0,5.0,29.82,,,,,61,,,,,,,,,,,8/8 Overcast,1000.0,,SCT,500,OVC,1000.0,,,,
KRDR,10-04-2005,21:20,METAR,,10,17.0,,,9999.0,Rain,7.0,5.0,30.16,,,,,61,,,,,,,,,,,8/8 Overcast,6000.0,,FEW,2000,SCT,5900.0,OVC,8900.0,,
KRDR,10-04-2005,21:00,METAR,,10,18.0,25.0,020/25KTS,9999.0,Rain,7.0,5.0,30.17,,,,,61,,,,,,,,,,,8/8 Overcast,6000.0,,FEW,2000,SCT,5900.0,OVC,8900.0,,
KRDR,10-04-2005,20:00,METAR,,10,16.0,24.0,020/27KTS,9999.0,Rain,6.0,4.0,30.18,,,,,61,,,,,,,,,,,8/8 Overcast,6000.0,,FEW,2000,SCT,5900.0,OVC,8900.0,,
KRDR,10-04-2005,19:00,METAR,,350,22.0,29.0,,9999.0,Rain,6.0,4.0,30.18,,,,,61,,,,,,,,,,,8/8 Overcast,9000.0,,FEW,5900,BKN,8900.0,OVC,11000.0,,
KRDR,10-04-2005,18:48,SPECI,,360,19.0,26.0,,9999.0,Rain,7.0,4.0,30.19,,,,,61,,,,,,,,,,,8/8 Overcast,9000.0,,FEW,5900,BKN,8900.0,OVC,11000.0,,
KRDR,10-04-2005,18:00,METAR,,350,22.0,25.0,360/25KTS,9999.0,,8.0,3.0,30.22,,,,,,,,,,,,,,,,8/8 Overcast,9000.0,,FEW,5900,BKN,8900.0,OVC,11000.0,,
KRDR,10-04-2005,17:00,METAR,,10,17.0,23.0,,9999.0,,7.0,3.0,30.26,,,,,,,,,,,,,,,,8/8 Overcast,9000.0,,FEW,5900,BKN,8900.0,OVC,12000.0,,
KRDR,10-04-2005,16:00,METAR,,360,18.0,22.0,,9999.0,,8.0,3.0,30.26,,,,,,,,,,,,,,,,7/8 Mostly Cloudy,9000.0,,FEW,5900,SCT,8900.0,BKN,12000.0,,
KRDR,10-04-2005,15:00,METAR,,360,14.0,20.0,010/25KTS,9999.0,,7.0,3.0,30.27,,,,,,,,,,,,,,,,7/8 Mostly Cloudy,9000.0,,FEW,5900,SCT,8900.0,BKN,12000.0,,
KRDR,10-04-2005,14:00,METAR,,360,16.0,22.0,,9999.0,,6.0,3.0,30.26,,,,,,,,,,,,,,,,7/8 Mostly Cloudy,12000.0,,FEW,5900,BKN,12000.0,,,,
KRDR,10-04-2005,13:00,METAR,,10,14.0,19.0,,9999.0,,4.0,2.0,30.25,,,,,,,,,,,,,,,,4/8 Partly Cloudy,72000.0,,FEW,5900,SCT,12000.0,,,,
KRDR,10-04-2005,12:30,METAR,,10,14.0,,,9999.0,,4.0,2.0,30.26,,,,,,,,,,,,,,,,4/8 Partly Cloudy,72000.0,,FEW,5900,SCT,12000.0,,,,
KRDR,10-03-2005,21:30,METAR,,20,15.0,,,9999.0,,12.0,4.0,30.04,,,,,,,,,,,,,,,,8/8 Overcast,8000.0,,OVC,7900,,,,,,
KRDR,10-03-2005,21:00,METAR,,10,15.0,,,9999.0,,12.0,4.0,30.04,,,,,,,,,,,,,,,,8/8 Overcast,8000.0,,OVC,7900,,,,,,
KRDR,10-03-2005,20:00,METAR,,10,14.0,,,9999.0,,12.0,4.0,30.03,,,,,,,,,,,,,,,,8/8 Overcast,8000.0,,OVC,7900,,,,,,
KRDR,10-03-2005,19:00,METAR,,10,13.0,,,9999.0,,11.0,4.0,30.05,,,,,,,,,,,,,,,,8/8 Overcast,8500.0,,OVC,8400,,,,,,
KRDR,10-03-2005,18:00,METAR,,10,14.0,,,9999.0,,12.0,4.0,30.06,,,,,,,,,,,,,,,,8/8 Overcast,9000.0,,OVC,8900,,,,,,
KRDR,10-03-2005,17:00,METAR,,10,11.0,,,9999.0,,12.0,4.0,30.06,,,,,,,,,,,,,,,,8/8 Overcast,10000.0,,OVC,9900,,,,,,
KRDR,10-03-2005,16:00,METAR,,360,12.0,,,9999.0,,11.0,4.0,30.07,,,,,,,,,,,,,,,,7/8 Mostly Cloudy,11000.0,,BKN,11000,,,,,,
KRDR,10-03-2005,15:00,METAR,,360,6.0,,,9999.0,,10.0,4.0,30.07,,,,,,,,,,,,,,,,8/8 Overcast,12000.0,,BKN,12000,OVC,25000.0,,,,
KRDR,10-03-2005,14:00,METAR,,,1.0,,,9999.0,,9.0,6.0,30.04,,,,,,,,,,,,,,,,7/8 Mostly Cloudy,12000.0,,BKN,12000,BKN,25000.0,,,,
KRDR,10-03-2005,13:00,METAR,,,1.0,,,9999.0,,8.0,4.0,30.02,,,,,,,,,,,,,,,,7/8 Mostly Cloudy,15000.0,,SCT,12000,BKN,15000.0,BKN,25000.0,,
KRDR,10-03-2005,12:30,METAR,,350,1.0,,,9999.0,,8.0,4.0,30.02,,,,,,,,,,,,,,,,7/8 Mostly Cloudy,12000.0,,BKN,12000,BKN,15000.0,,,,
KRDR,09-30-2005,21:30,METAR,,260,17.0,25.0,,9999.0,,29.0,9.0,29.46,,,,,,,,,,,,,,,,7/8 Mostly Cloudy,25000.0,,BKN,25000,,,,,,
KRDR,09-30-2005,21:00,METAR,,260,14.0,21.0,,9999.0,,30.0,8.0,29.46,,,,,,,,,,,,,,,,7/8 Mostly Cloudy,25000.0,,BKN,25000,,,,,,
KRDR,09-30-2005,20:00,METAR,,270,10.0,,,9999.0,,27.0,8.0,29.47,,,,,,,,,,,,,,,,7/8 Mostly Cloudy,25000.0,,BKN,25000,,,,,,
KRDR,09-30-2005,19:00,METAR,,240,12.0,,,9999.0,,27.0,7.0,29.47,,,,,,,,,,,,,,,,7/8 Mostly Cloudy,25000.0,,BKN,25000,,,,,,
KRDR,09-30-2005,18:00,METAR,,190,8.0,,,9999.0,,26.0,6.0,29.48,,,,,,,,,,,,,,,,7/8 Mostly Cloudy,25000.0,,BKN,25000,,,,,,
KRDR,09-30-2005,17:00,METAR,,190,8.0,,,9999.0,,23.0,7.0,29.49,,,,,,,,,,,,,,,,2/8 Mostly Clear,72000.0,,FEW,11000,FEW,25000.0,,,,
KRDR,09-30-2005,16:00,METAR,,200,8.0,,,9999.0,,19.0,8.0,29.51,,,,,,,,,,,,,,,,2/8 Mostly Clear,72000.0,,FEW,11000,FEW,25000.0,,,,
KRDR,09-30-2005,15:00,METAR,,160,6.0,,,9999.0,,13.0,8.0,29.52,,,,,,,,,,,,,,,,7/8 Mostly Cloudy,25000.0,,SCT,11000,BKN,25000.0,,,,
KRDR,09-30-2005,14:00,METAR,,140,6.0,,,9999.0,,12.0,7.0,29.53,,,,,,,,,,,,,,,,7/8 Mostly Cloudy,11000.0,,BKN,11000,BKN,25000.0,,,,
KRDR,09-30-2005,13:00,METAR,,160,4.0,,,9999.0,,11.0,6.0,29.54,,,,,,,,,,,,,,,,7/8 Mostly Cloudy,11000.0,,BKN,11000,BKN,25000.0,,,,
KRDR,09-30-2005,12:30,METAR,,170,5.0,,,9999.0,,10.0,7.0,29.55,,,,,,,,,,,,,,,,7/8 Mostly Cloudy,11000.0,,BKN,11000,BKN,25000.0,,,,
KRDR,09-29-2005,21:30,METAR,,230,15.0,20.0,,9999.0,,22.0,3.0,29.59,,,,,,,,,,,,,,,,7/8 Mostly Cloudy,15000.0,,BKN,15000,BKN,25000.0,,,,
KRDR,09-29-2005,21:00,METAR,,210,12.0,20.0,,9999.0,,21.0,3.0,29.60,,,,,,,,,,,,,,,,7/8 Mostly Cloudy,12000.0,,BKN,12000,BKN,20000.0,,,,
KRDR,09-29-2005,20:00,METAR,,190,11.0,,,9999.0,,18.0,5.0,29.63,,,,,,,,,,,,,,,,7/8 Mostly Cloudy,12000.0,,BKN,12000,BKN,20000.0,,,,
KRDR,09-29-2005,19:00,METAR,,200,16.0,,,9999.0,,16.0,3.0,29.65,,,,,,,,,,,,,,,,7/8 Mostly Cloudy,10000.0,,BKN,9900,BKN,18000.0,,,,
KRDR,09-29-2005,18:00,METAR,,190,13.0,19.0,,9999.0,,15.0,3.0,29.71,,,,,,,,,,,,,,,,7/8 Mostly Cloudy,10000.0,,FEW,5400,BKN,9900.0,BKN,18000.0,,
KRDR,09-29-2005,17:00,METAR,,180,14.0,21.0,,9999.0,,13.0,2.0,29.71,,,,,,,,,,,,,,,,7/8 Mostly Cloudy,11000.0,,BKN,11000,BKN,18000.0,,,,
KRDR,09-29-2005,16:00,METAR,,170,21.0,25.0,,9999.0,,12.0,2.0,29.75,,,,,,,,,,,,,,,,8/8 Overcast,11000.0,,BKN,11000,OVC,18000.0,,,,
KRDR,09-29-2005,15:00,METAR,,200,17.0,23.0,,9999.0,,10.0,1.0,29.81,,,,,,,,,,,,,,,,8/8 Overcast,12000.0,,BKN,12000,OVC,18000.0,,,,
KRDR,09-29-2005,14:00,METAR,,200,14.0,,,9999.0,,7.0,1.0,29.85,,,,,,,,,,,,,,,,7/8 Mostly Cloudy,12000.0,,BKN,12000,BKN,18000.0,,,,
KRDR,09-29-2005,13:00,METAR,,180,12.0,,,9999.0,,7.0,0.0,29.90,,,,,,,,,,,,,,,,7/8 Mostly Cloudy,12000.0,,BKN,12000,BKN,18000.0,,,,
KRDR,09-29-2005,12:28,SPECI,,180,12.0,,,9999.0,,7.0,0.0,29.91,,,,,,,,,,,,,,,,7/8 Mostly Cloudy,12000.0,,BKN,12000,BKN,18000.0,,,,
KRDR,09-28-2005,21:10,SPECI,,300,12.0,21.0,,9999.0,,14.0,-3.0,30.17,,,,,,,,,,,,,,,,2/8 Mostly Clear,72000.0,,FEW,5000,,,,,,
KRDR,09-28-2005,21:00,METAR,,320,12.0,19.0,,9999.0,,14.0,-2.0,30.17,,,,,,,,,,,,,,,,2/8 Mostly Clear,72000.0,,FEW,5000,,,,,,
KRDR,09-28-2005,20:00,METAR,,310,16.0,20.0,,9999.0,,14.0,-1.0,30.18,,,,,,,,,,,,,,,,2/8 Mostly Clear,72000.0,,FEW,4400,,,,,,
KRDR,09-28-2005,19:00,METAR,,330,12.0,22.0,,9999.0,,12.0,-2.0,30.19,,,,,,,,,,,,,,,,2/8 Mostly Clear,72000.0,,FEW,4400,,,,,,
KRDR,09-28-2005,18:00,METAR,,340,14.0,20.0,,9999.0,,12.0,-1.0,30.20,,,,,,,,,,,,,,,,2/8 Mostly Clear,72000.0,,FEW,4400,,,,,,
KRDR,09-28-2005,17:00,METAR,,330,16.0,23.0,,9999.0,,10.0,-1.0,30.21,,,,,,,,,,,,,,,,4/8 Partly Cloudy,72000.0,,SCT,4400,,,,,,
KRDR,09-28-2005,16:00,METAR,,340,15.0,21.0,,9999.0,,9.0,0.0,30.21,,,,,,,,,,,,,,,,7/8 Mostly Cloudy,3900.0,,FEW,2700,BKN,4000.0,,,,
KRDR,09-28-2005,15:00,METAR,,320,15.0,,,9999.0,,7.0,2.0,30.19,,,,,,,,,,,,,,,,7/8 Mostly Cloudy,3400.0,,SCT,2700,BKN,3500.0,,,,
KRDR,09-28-2005,14:00,METAR,,300,11.0,,,9999.0,,6.0,2.0,30.17,,,,,,,,,,,,,,,,7/8 Mostly Cloudy,3400.0,,FEW,2500,BKN,3500.0,,,,
KRDR,09-28-2005,13:37,SPECI,,300,11.0,,,9999.0,,6.0,3.0,30.16,,,,,,,,,,,,,,,,7/8 Mostly Cloudy,3400.0,,SCT,2200,BKN,3500.0,,,,
KRDR,09-28-2005,13:07,SPECI,,300,8.0,,,9999.0,,7.0,3.0,30.15,,,,,,,,,,,,,,,,7/8 Mostly Cloudy,2200.0,,BKN,2200,BKN,4000.0,BKN,25000.0,,
KRDR,09-28-2005,13:00,METAR,,300,7.0,,,9999.0,,6.0,3.0,30.14,,,,,,,,,,,,,,,,7/8 Mostly Cloudy,3400.0,,FEW,2500,BKN,3500.0,BKN,25000.0,,
KRDR,09-28-2005,12:30,METAR,,290,7.0,,,9999.0,,6.0,3.0,30.13,,,,,,,,,,,,,,,,7/8 Mostly Cloudy,3900.0,,BKN,4000,BKN,25000.0,,,,
KRDR,09-27-2005,21:34,SPECI,,280,16.0,,,9999.0,,26.0,6.0,29.67,,,,,,,,,,,,,,,,7/8 Mostly Cloudy,18000.0,,BKN,18000,BKN,25000.0,,,,
KRDR,09-27-2005,21:00,METAR,,220,14.0,19.0,220/26KTS,9999.0,,26.0,6.0,29.66,,,,,,,,,,,,,,,,7/8 Mostly Cloudy,25000.0,,BKN,25000,,,,,,
KRDR,09-27-2005,20:00,METAR,,210,19.0,24.0,,9999.0,,27.0,5.0,29.66,,,,,,,,,,,,,,,,7/8 Mostly Cloudy,25000.0,,BKN,25000,,,,,,
KRDR,09-27-2005,19:00,METAR,,190,15.0,,,9999.0,,26.0,7.0,29.69,,,,,,,,,,,,,,,,7/8 Mostly Cloudy,25000.0,,BKN,25000,,,,,,
KRDR,09-27-2005,18:00,METAR,,190,15.0,,,9999.0,,26.0,7.0,29.70,,,,,,,,,,,,,,,,4/8 Partly Cloudy,72000.0,,SCT,25000,,,,,,
KRDR,09-27-2005,17:00,METAR,,190,13.0,,,9999.0,,23.0,7.0,29.72,,,,,,,,,,,,,,,,4/8 Partly Cloudy,72000.0,,SCT,25000,,,,,,
KRDR,09-27-2005,16:00,METAR,,190,12.0,,,9999.0,,22.0,7.0,29.74,,,,,,,,,,,,,,,,4/8 Partly Cloudy,72000.0,,SCT,25000,,,,,,
KRDR,09-27-2005,15:00,METAR,,190,9.0,,,9999.0,,17.0,7.0,29.77,,,,,,,,,,,,,,,,2/8 Mostly Clear,72000.0,,FEW,25000,,,,,,
KRDR,09-27-2005,14:00,METAR,,200,6.0,,,9999.0,,14.0,7.0,29.78,,,,,,,,,,,,,,,,2/8 Mostly Clear,72000.0,,FEW,25000,,,,,,
KRDR,09-27-2005,13:00,METAR,,190,9.0,,,9999.0,,12.0,6.0,29.79,,,,,,,,,,,,,,,,4/8 Partly Cloudy,72000.0,,FEW,12000,SCT,25000.0,,,,
KRDR,09-27-2005,12:30,METAR,,220,8.0,,,9999.0,,12.0,6.0,29.79,,,,,,,,,,,,,,,,4/8 Partly Cloudy,72000.0,,FEW,12000,SCT,25000.0,,,,
KRDR,09-26-2005,21:30,METAR,,240,9.0,,,9999.0,,23.0,3.0,29.95,,,,,,,,,,,,,,,,2/8 Mostly Clear,72000.0,,FEW,25000,,,,,,
KRDR,09-26-2005,21:00,METAR,,240,10.0,,,9999.0,,23.0,2.0,29.95,,,,,,,,,,,,,,,,2/8 Mostly Clear,72000.0,,FEW,25000,,,,,,
KRDR,09-26-2005,20:00,METAR,,250,10.0,,,9999.0,,23.0,4.0,29.96,,,,,,,,,,,,,,,,2/8 Mostly Clear,72000.0,,FEW,25000,,,,,,
KRDR,09-26-2005,19:00,METAR,,240,13.0,,,9999.0,,23.0,6.0,29.97,,,,,,,,,,,,,,,,Clear,72000.0,,,73000,,,,,,
KRDR,09-26-2005,18:00,METAR,,250,6.0,,,9999.0,,21.0,7.0,29.98,,,,,,,,,,,,,,,,Clear,72000.0,,,73000,,,,,,
KRDR,09-26-2005,17:00,METAR,,230,10.0,,,9999.0,,19.0,6.0,29.99,,,,,,,,,,,,,,,,2/8 Mostly Clear,72000.0,,FEW,25000,,,,,,
KRDR,09-26-2005,16:00,METAR,,230,8.0,,,9999.0,,18.0,7.0,29.98,,,,,,,,,,,,,,,,2/8 Mostly Clear,72000.0,,FEW,25000,,,,,,
KRDR,09-26-2005,15:00,METAR,,240,9.0,,,9999.0,,13.0,7.0,29.99,,,,,,,,,,,,,,,,2/8 Mostly Clear,72000.0,,FEW,25000,,,,,,
KRDR,09-26-2005,14:00,METAR,,250,10.0,,,9999.0,,11.0,6.0,29.98,,,,,,,,,,,,,,,,2/8 Mostly Clear,72000.0,,FEW,25000,,,,,,
KRDR,09-26-2005,13:00,METAR,,240,10.0,,,9999.0,,9.0,6.0,29.98,,,,,,,,,,,,,,,,2/8 Mostly Clear,72000.0,,FEW,12000,,,,,,
KRDR,09-26-2005,12:30,METAR,,240,9.0,,,9999.0,,9.0,6.0,29.97,,,,,,,,,,,,,,,,2/8 Mostly Clear,72000.0,,FEW,12000,,,,,,
KRDR,09-23-2005,21:27,SPECI,,140,12.0,21.0,,9999.0,,19.0,6.0,29.98,,,,,,,,,,,,,,,,8/8 Overcast,10000.0,,SCT,5900,BKN,9900.0,OVC,20000.0,,
KRDR,09-23-2005,21:00,METAR,,150,11.0,20.0,,9999.0,,18.0,6.0,30.00,,,,,,,,,,,,,,,,8/8 Overcast,11000.0,,BKN,11000,OVC,20000.0,,,,
KRDR,09-23-2005,20:00,METAR,,150,13.0,22.0,,9999.0,,18.0,6.0,30.03,,,,,,,,,,,,,,,,7/8 Mostly Cloudy,11000.0,,BKN,11000,BKN,20000.0,,,,
KRDR,09-23-2005,19:00,METAR,,150,13.0,23.0,,9999.0,,17.0,7.0,30.07,,,,,,,,,,,,,,,,7/8 Mostly Cloudy,11000.0,,FEW,7900,BKN,11000.0,BKN,20000.0,,
KRDR,09-23-2005,18:00,METAR,,160,17.0,23.0,,9999.0,,17.0,6.0,30.11,,,,,,,,,,,,,,,,7/8 Mostly Cloudy,11000.0,,FEW,7900,SCT,11000.0,BKN,20000.0,,
KRDR,09-23-2005,17:00,METAR,,150,17.0,23.0,,9999.0,,17.0,7.0,30.13,,,,,,,,,,,,,,,,7/8 Mostly Cloudy,11000.0,,FEW,7900,SCT,11000.0,BKN,20000.0,,
KRDR,09-23-2005,16:00,METAR,,140,16.0,20.0,,9999.0,,15.0,7.0,30.16,,,,,,,,,,,,,,,,7/8 Mostly Cloudy,11000.0,,FEW,7900,SCT,11000.0,BKN,20000.0,,
KRDR,09-23-2005,15:00,METAR,,130,10.0,,,9999.0,,11.0,7.0,30.18,,,,,,,,,,,,,,,,7/8 Mostly Cloudy,11000.0,,SCT,7900,BKN,11000.0,BKN,20000.0,,
KRDR,09-23-2005,14:00,METAR,,130,5.0,,,9999.0,,8.0,6.0,30.19,,,,,,,,,,,,,,,,7/8 Mostly Cloudy,10000.0,,BKN,9900,BKN,20000.0,,,,
KRDR,09-23-2005,13:00,METAR,,110,6.0,,,9999.0,,7.0,5.0,30.20,,,,,,,,,,,,,,,,7/8 Mostly Cloudy,10000.0,,BKN,9900,BKN,20000.0,,,,
KRDR,09-23-2005,12:12,SPECI,,140,5.0,,,9999.0,,8.0,5.0,30.20,,,,,,,,,,,,,,,,7/8 Mostly Cloudy,9000.0,,BKN,8900,BKN,20000.0,,,,
KRDR,09-22-2005,21:30,METAR,,360,5.0,,,9999.0,,18.0,4.0,30.16,,,,,,,,,,,,,,,,4/8 Partly Cloudy,72000.0,,SCT,4000,,,,,,
KRDR,09-22-2005,21:00,METAR,,360,8.0,,,9999.0,,17.0,4.0,30.16,,,,,,,,,,,,,,,,4/8 Partly Cloudy,72000.0,,SCT,4000,,,,,,
KRDR,09-22-2005,20:00,METAR,,350,5.0,,,9999.0,,17.0,6.0,30.17,,,,,,,,,,,,,,,,4/8 Partly Cloudy,72000.0,,SCT,4000,,,,,,
KRDR,09-22-2005,19:00,METAR,,300,4.0,,,9999.0,,18.0,7.0,30.17,,,,,,,,,,,,,,,,4/8 Partly Cloudy,72000.0,,SCT,4000,,,,,,
KRDR,09-22-2005,18:00,METAR,,360,8.0,,,9999.0,,17.0,8.0,30.18,,,,,,,,,,,,,,,,4/8 Partly Cloudy,72000.0,,SCT,4000,,,,,,
KRDR,09-22-2005,17:00,METAR,,350,8.0,,,9999.0,,16.0,8.0,30.18,,,,,,,,,,,,,,,,2/8 Mostly Clear,72000.0,,FEW,4000,,,,,,
KRDR,09-22-2005,16:00,METAR,,340,7.0,,,9999.0,,14.0,7.0,30.18,,,,,,,,,,,,,,,,Clear,72000.0,,,73000,,,,,,
KRDR,09-22-2005,15:00,METAR,,340,7.0,,,9999.0,,11.0,6.0,30.16,,,,,,,,,,,,,,,,Clear,72000.0,,,73000,,,,,,
KRDR,09-22-2005,14:00,METAR,,310,7.0,,,9999.0,,9.0,4.0,30.15,,,,,,,,,,,,,,,,Clear,72000.0,,,73000,,,,,,
KRDR,09-22-2005,13:00,METAR,,280,4.0,,,9999.0,,6.0,3.0,30.14,,,,,,,,,,,,,,,,Clear,72000.0,,,73000,,,,,,
KRDR,09-22-2005,12:30,METAR,,280,4.0,,,9999.0,,5.0,3.0,30.13,,,,,,,,,,,,,,,,Clear,72000.0,,,73000,,,,,,
KRDR,09-21-2005,21:30,METAR,,340,17.0,26.0,,9999.0,,20.0,4.0,29.90,,,,,,,,,,,,,,,,7/8 Mostly Cloudy,22000.0,,FEW,12000,BKN,22000.0,,,,
KRDR,09-21-2005,21:00,METAR,,340,19.0,26.0,350/28KTS,9999.0,,21.0,7.0,29.87,,,,,,,,,,,,,,,,7/8 Mostly Cloudy,22000.0,,SCT,12000,BKN,22000.0,,,,
KRDR,09-21-2005,20:00,METAR,,340,16.0,21.0,,9999.0,,21.0,11.0,29.85,,,,,,,,,,,,,,,,7/8 Mostly Cloudy,22000.0,,SCT,12000,BKN,22000.0,,,,
KRDR,09-21-2005,19:00,METAR,,340,13.0,,,9999.0,,20.0,11.0,29.84,,,,,,,,,,,,,,,,8/8 Overcast,12000.0,,BKN,12000,OVC,22000.0,,,,
KRDR,09-21-2005,18:00,METAR,,330,9.0,,,9999.0,,17.0,11.0,29.85,,,,,,,,,,,,,,,,8/8 Overcast,12000.0,,BKN,12000,OVC,22000.0,,,,
KRDR,09-21-2005,17:00,METAR,,350,9.0,,,9999.0,,16.0,11.0,29.83,,,,,,,,,,,,,,,,8/8 Overcast,12000.0,,BKN,12000,OVC,22000.0,,,,
KRDR,09-21-2005,16:00,METAR,,320,9.0,,,9999.0,,14.0,11.0,29.84,,,,,,,,,,,,,,,,8/8 Overcast,12000.0,,BKN,12000,OVC,22000.0,,,,
KRDR,09-21-2005,15:00,METAR,,320,7.0,,,9999.0,,13.0,10.0,29.84,,,,,,,,,,,,,,,,8/8 Overcast,12000.0,,BKN,12000,OVC,22000.0,,,,
KRDR,09-21-2005,14:00,METAR,,310,5.0,,,9999.0,,11.0,9.0,29.83,,,,,,,,,,,,,,,,7/8 Mostly Cloudy,22000.0,,SCT,12000,BKN,22000.0,,,,
KRDR,09-21-2005,13:00,METAR,,280,3.0,,,9999.0,,8.0,8.0,29.84,,,,,,,,,,,,,,,,7/8 Mostly Cloudy,22000.0,,SCT,12000,BKN,22000.0,,,,
KRDR,09-21-2005,12:30,METAR,,,2.0,,,9999.0,,8.0,7.0,29.84,,,,,,,,,,,,,,,,7/8 Mostly Cloudy,20000.0,,FEW,12000,BKN,20000.0,,,,
KRDR,09-20-2005,21:30,METAR,,,4.0,,,9999.0,,26.0,6.0,29.97,,,,,,,,,,,,,,,,2/8 Mostly Clear,72000.0,,FEW,25000,,,,,,
KRDR,09-20-2005,21:00,METAR,,360,3.0,,,9999.0,,26.0,6.0,29.98,,,,,,,,,,,,,,,,2/8 Mostly Clear,72000.0,,FEW,25000,,,,,,
KRDR,09-20-2005,20:00,METAR,,340,4.0,,,9999.0,,26.0,6.0,29.99,,,,,,,,,,,,,,,,Clear,72000.0,,,73000,,,,,,
KRDR,09-20-2005,19:00,METAR,,360,4.0,,,9999.0,,26.0,8.0,30.00,,,,,,,,,,,,,,,,Clear,72000.0,,,73000,,,,,,
KRDR,09-20-2005,18:00,METAR,,330,8.0,,,9999.0,,24.0,7.0,30.01,,,,,,,,,,,,,,,,2/8 Mostly Clear,72000.0,,FEW,9900,,,,,,
KRDR,09-20-2005,17:00,METAR,,330,9.0,,,9999.0,,23.0,8.0,30.01,,,,,,,,,,,,,,,,2/8 Mostly Clear,72000.0,,FEW,9900,,,,,,
KRDR,09-20-2005,16:00,METAR,,300,10.0,,,9999.0,,21.0,8.0,30.00,,,,,,,,,,,,,,,,Clear,72000.0,,,73000,,,,,,
KRDR,09-20-2005,15:00,METAR,,290,6.0,,,9999.0,,19.0,7.0,29.99,,,,,,,,,,,,,,,,Clear,72000.0,,,73000,,,,,,
KRDR,09-20-2005,14:00,METAR,,270,10.0,,,9999.0,,16.0,7.0,29.97,,,,,,,,,,,,,,,,Clear,72000.0,,,73000,,,,,,
KRDR,09-20-2005,13:00,METAR,,250,8.0,,,9999.0,,13.0,6.0,29.96,,,,,,,,,,,,,,,,Clear,72000.0,,,73000,,,,,,
KRDR,09-20-2005,12:29,SPECI,,250,8.0,,,9999.0,,13.0,6.0,29.94,,,,,,,,,,,,,,,,Clear,72000.0,,,73000,,,,,,
KRDR,09-19-2005,21:30,METAR,,240,8.0,,,9999.0,,23.0,11.0,29.91,,,,,,,,,,,,,,,,2/8 Mostly Clear,72000.0,,FEW,4000,,,,,,
KRDR,09-19-2005,21:00,METAR,,,4.0,,,9999.0,,23.0,12.0,29.92,,,,,,,,,,,,,,,,2/8 Mostly Clear,72000.0,,FEW,3000,,,,,,
KRDR,09-19-2005,20:00,METAR,,,6.0,,,9999.0,,22.0,11.0,29.93,,,,,,,,,,,,,,,,2/8 Mostly Clear,72000.0,,FEW,3000,,,,,,
KRDR,09-19-2005,19:00,METAR,,,3.0,,,9999.0,,21.0,12.0,29.95,,,,,,,,,,,,,,,,2/8 Mostly Clear,72000.0,,FEW,3000,FEW,25000.0,,,,
KRDR,09-19-2005,18:00,METAR,,,4.0,,,9999.0,,19.0,11.0,29.97,,,,,,,,,,,,,,,,2/8 Mostly Clear,72000.0,,FEW,3000,FEW,25000.0,,,,
KRDR,09-19-2005,17:00,METAR,,,6.0,,,9999.0,,18.0,12.0,29.99,,,,,,,,,,,,,,,,2/8 Mostly Clear,72000.0,,FEW,2800,,,,,,
KRDR,09-19-2005,16:00,METAR,,,2.0,,,9999.0,,17.0,12.0,30.00,,,,,,,,,,,,,,,,2/8 Mostly Clear,72000.0,,FEW,4000,FEW,25000.0,,,,
KRDR,09-19-2005,15:00,METAR,,,1.0,,,9999.0,,16.0,11.0,30.01,,,,,,,,,,,,,,,,2/8 Mostly Clear,72000.0,,FEW,25000,,,,,,
KRDR,09-19-2005,14:00,METAR,,270,3.0,,,9999.0,,13.0,12.0,30.00,,,,,,,,,,,,,,,,2/8 Mostly Clear,72000.0,,FEW,12000,FEW,25000.0,,,,
KRDR,09-19-2005,13:00,METAR,,220,2.0,,,9999.0,,11.0,11.0,30.00,,,,,,,,,,,,,,,.13 IN,4/8 Partly Cloudy,72000.0,,FEW,5000,FEW,12000.0,SCT,25000.0,,
KRDR,09-19-2005,12:30,METAR,,270,2.0,,,9999.0,,11.0,11.0,29.99,,,,,,,,,,,,,,,,4/8 Partly Cloudy,72000.0,,FEW,12000,SCT,25000.0,,,,
KRDR,09-16-2005,21:30,METAR,,90,8.0,,,9999.0,,26.0,13.0,29.91,,,,,,,,,,,,,,,,2/8 Mostly Clear,72000.0,,FEW,12000,FEW,25000.0,,,,
KRDR,09-16-2005,21:00,METAR,,120,6.0,,,9999.0,,25.0,12.0,29.91,,,,,,,,,,,,,,,,2/8 Mostly Clear,72000.0,,FEW,25000,,,,,,
KRDR,09-16-2005,20:00,METAR,,120,7.0,,,9999.0,,24.0,13.0,29.95,,,,,,,,,,,,,,,,2/8 Mostly Clear,72000.0,,FEW,12000,FEW,25000.0,,,,
KRDR,09-16-2005,19:00,METAR,,110,7.0,,,9999.0,,23.0,14.0,29.97,,,,,,,,,,,,,,,,4/8 Partly Cloudy,72000.0,,FEW,12000,SCT,25000.0,,,,
KRDR,09-16-2005,18:00,METAR,,70,6.0,,,9999.0,,20.0,13.0,30.00,,,,,,,,,,,,,,,,7/8 Mostly Cloudy,12000.0,,BKN,12000,BKN,25000.0,,,,
KRDR,09-16-2005,17:00,METAR,,50,7.0,,,9999.0,,17.0,12.0,30.03,,,,,,,,,,,,,,,,7/8 Mostly Cloudy,12000.0,,BKN,12000,BKN,25000.0,,,,
KRDR,09-16-2005,16:00,METAR,,10,7.0,,,9999.0,,14.0,11.0,30.05,,,,,,,,,,,,,,,,7/8 Mostly Cloudy,12000.0,,BKN,12000,,,,,,
KRDR,09-16-2005,15:00,METAR,,360,6.0,,,9999.0,,13.0,11.0,30.06,,,,,,,,,,,,,,,,4/8 Partly Cloudy,72000.0,,SCT,12000,,,,,,
KRDR,09-16-2005,14:00,METAR,,330,10.0,,,9999.0,,11.0,10.0,30.06,,,,,,,,,,,,,,,,4/8 Partly Cloudy,72000.0,,SCT,9900,,,,,,
KRDR,09-16-2005,13:00,METAR,,330,7.0,,,9999.0,,9.0,9.0,30.06,,,,,,,,,,,,,,,,4/8 Partly Cloudy,72000.0,,SCT,9900,,,,,,
KRDR,09-16-2005,12:30,METAR,,340,6.0,,,9999.0,,8.0,8.0,30.05,,,,,,,,,,,,,,,,4/8 Partly Cloudy,72000.0,,SCT,9900,,,,,,
KRDR,09-15-2005,21:25,METAR,,190,7.0,,,9999.0,,26.0,8.0,29.92,,,,,,,,,,,,,,,,4/8 Partly Cloudy,72000.0,,FEW,5000,FEW,12000.0,SCT,25000.0,,
KRDR,09-15-2005,21:00,METAR,,260,8.0,,,9999.0,,26.0,7.0,29.92,,,,,,,,,,,,,,,,4/8 Partly Cloudy,72000.0,,FEW,5000,FEW,12000.0,SCT,25000.0,,
KRDR,09-15-2005,20:00,METAR,,190,8.0,,,9999.0,,25.0,9.0,29.93,,,,,,,,,,,,,,,,4/8 Partly Cloudy,72000.0,,FEW,5000,FEW,12000.0,SCT,25000.0,,
KRDR,09-15-2005,19:00,METAR,,170,6.0,,,9999.0,,24.0,11.0,29.95,,,,,,,,,,,,,,,,4/8 Partly Cloudy,72000.0,,FEW,5000,SCT,25000.0,,,,
KRDR,09-15-2005,18:00,METAR,,180,6.0,,,9999.0,,23.0,9.0,29.95,,,,,,,,,,,,,,,,7/8 Mostly Cloudy,25000.0,,FEW,5000,BKN,25000.0,,,,
KRDR,09-15-2005,17:00,METAR,,230,2.0,,,9999.0,,22.0,11.0,29.96,,,,,,,,,,,,,,,,7/8 Mostly Cloudy,25000.0,,FEW,12000,BKN,25000.0,,,,
KRDR,09-15-2005,16:00,METAR,,300,3.0,,,9999.0,,19.0,11.0,29.96,,,,,,,,,,,,,,,,7/8 Mostly Cloudy,25000.0,,FEW,12000,BKN,25000.0,,,,
KRDR,09-15-2005,15:00,METAR,,330,6.0,,,9999.0,,17.0,12.0,29.95,,,,,,,,,,,,,,,,7/8 Mostly Cloudy,25000.0,,FEW,12000,BKN,25000.0,,,,
KRDR,09-15-2005,14:00,METAR,,210,3.0,,,9999.0,,14.0,12.0,29.92,,,,,,,,,,,,,,,,4/8 Partly Cloudy,72000.0,,FEW,12000,SCT,25000.0,,,,
KRDR,09-15-2005,13:00,METAR,,,0.0,,,9999.0,,10.0,9.0,29.92,,,,,,,,,,,,,,,,2/8 Mostly Clear,72000.0,,FEW,12000,FEW,25000.0,,,,
KRDR,09-15-2005,12:28,SPECI,,210,1.0,,,9999.0,,8.0,8.0,29.91,,,,,,,,,,,,,,,,2/8 Mostly Clear,72000.0,,FEW,12000,FEW,20000.0,,,,
KRDR,09-14-2005,21:25,METAR,,80,5.0,,,9999.0,,20.0,7.0,29.92,,,,,,,,,,,,,,,,7/8 Mostly Cloudy,25000.0,,SCT,8900,BKN,25000.0,,,,
KRDR,09-14-2005,21:00,METAR,,90,6.0,,,9999.0,,20.0,7.0,29.92,,,,,,,,,,,,,,,,7/8 Mostly Cloudy,25000.0,,SCT,8900,BKN,25000.0,,,,
KRDR,09-14-2005,20:00,METAR,,,2.0,,,9999.0,,20.0,6.0,29.93,,,,,,,,,,,,,,,,7/8 Mostly Cloudy,25000.0,,SCT,8900,BKN,25000.0,,,,
KRDR,09-14-2005,19:00,METAR,,,2.0,,,9999.0,,19.0,6.0,29.95,,,,,,,,,,,,,,,,7/8 Mostly Cloudy,25000.0,,FEW,8900,BKN,25000.0,,,,
KRDR,09-14-2005,18:00,METAR,,,2.0,,,9999.0,,19.0,7.0,29.95,,,,,,,,,,,,,,,,7/8 Mostly Cloudy,25000.0,,FEW,8900,BKN,25000.0,,,,
KRDR,09-14-2005,17:00,METAR,,220,1.0,,,9999.0,,18.0,6.0,29.96,,,,,,,,,,,,,,,,7/8 Mostly Cloudy,25000.0,,FEW,8900,BKN,25000.0,,,,
KRDR,09-14-2005,16:00,METAR,,270,3.0,,,9999.0,,17.0,6.0,29.97,,,,,,,,,,,,,,,,4/8 Partly Cloudy,72000.0,,FEW,7900,SCT,25000.0,,,,
KRDR,09-14-2005,15:00,METAR,,220,4.0,,,9999.0,,14.0,7.0,29.96,,,,,,,,,,,,,,,,4/8 Partly Cloudy,72000.0,,FEW,7900,SCT,25000.0,,,,
KRDR,09-14-2005,14:00,METAR,,250,4.0,,,9999.0,,11.0,8.0,29.96,,,,,,,,,,,,,,,,2/8 Mostly Clear,72000.0,,FEW,7900,FEW,25000.0,,,,
KRDR,09-14-2005,13:00,METAR,,230,4.0,,,9999.0,,7.0,6.0,29.95,,,,,,,,,,,,,,,,2/8 Mostly Clear,72000.0,,FEW,4000,FEW,25000.0,,,,
KRDR,09-14-2005,12:30,METAR,,200,2.0,,,9999.0,,6.0,6.0,29.94,,,,,,,,,,,,,,,,2/8 Mostly Clear,72000.0,,FEW,4000,FEW,25000.0,,,,
KRDR,09-13-2005,21:30,METAR,,270,7.0,,,9999.0,,18.0,8.0,29.82,,,,,,,,,,,,,,,,7/8 Mostly Cloudy,10000.0,,SCT,5900,BKN,9900.0,,,,
KRDR,09-13-2005,21:00,METAR,,260,11.0,,,9999.0,,18.0,6.0,29.82,,,,,,,,,,,,,,,,7/8 Mostly Cloudy,10000.0,,SCT,5000,BKN,9900.0,,,,
KRDR,09-13-2005,20:00,METAR,,290,14.0,19.0,,9999.0,,18.0,8.0,29.82,,,,,,,,,,,,,,,,7/8 Mostly Cloudy,4900.0,,FEW,2000,SCT,5000.0,BKN,9900.0,,
KRDR,09-13-2005,19:00,METAR,,270,11.0,15.0,,9999.0,,17.0,8.0,29.82,,,,,,,,,,,,,,,,7/8 Mostly Cloudy,3900.0,,FEW,2000,SCT,4000.0,BKN,9900.0,,
KRDR,09-13-2005,18:00,METAR,,270,9.0,17.0,,9999.0,,14.0,10.0,29.82,,,,,,,,,,,,,,.01 IN,,7/8 Mostly Cloudy,3900.0,,SCT,2000,BKN,4000.0,BKN,9900.0,,
KRDR,09-13-2005,17:18,SPECI,,270,11.0,,,9999.0,,15.0,12.0,29.82,,,,,,,,,,,,,,,,8/8 Overcast,2000.0,,BKN,2000,OVC,6900.0,,,,
KRDR,09-13-2005,17:00,METAR,,280,9.0,,,9999.0,,16.0,13.0,29.81,,,,,,,,,,,,,,,,7/8 Mostly Cloudy,7000.0,,SCT,2000,BKN,6900.0,BKN,20000.0,,
KRDR,09-13-2005,16:00,METAR,,280,7.0,,,9999.0,,15.0,14.0,29.80,,,,,,,,,,,,,,,,7/8 Mostly Cloudy,7000.0,,SCT,1400,BKN,6900.0,BKN,20000.0,,
KRDR,09-13-2005,15:00,METAR,,270,7.0,,,9999.0,,13.0,13.0,29.82,,,,,,,,,,,,,.07 IN,,,7/8 Mostly Cloudy,6000.0,,FEW,3000,BKN,5900.0,BKN,9900.0,BKN,20000.0
KRDR,09-13-2005,14:25,METAR,,260,4.0,,,9999.0,,13.0,13.0,29.82,,,,,,,,,,,,,,,,7/8 Mostly Cloudy,6000.0,,FEW,3000,SCT,5900.0,BKN,9900.0,BKN,20000.0
KRDR,09-13-2005,14:00,METAR,,280,5.0,,,9999.0,Rain,12.0,12.0,29.83,,,,,61,,,,,,,,,,,7/8 Mostly Cloudy,6000.0,,FEW,3000,BKN,5900.0,BKN,9900.0,,
KRDR,09-13-2005,13:00,METAR,,260,12.0,19.0,,9999.0,Rain/Mist,12.0,12.0,29.83,,,,,61,10,,,,,,,,,.15 IN,8/8 Overcast,6000.0,,SCT,3000,OVC,5900.0,,,,
KRDR,09-13-2005,12:30,METAR,,260,14.0,20.0,,9999.0,Rain/Mist,13.0,12.0,29.83,,,,,61,10,,,,,,,,,,8/8 Overcast,6000.0,,FEW,3000,BKN,5900.0,OVC,9900.0,,
KRDR,09-12-2005,21:30,METAR,,240,8.0,,,9999.0,,19.0,7.0,29.89,,,,,,,,,,,,,,,,8/8 Overcast,12000.0,,SCT,7900,BKN,12000.0,OVC,25000.0,,
KRDR,09-12-2005,21:00,METAR,,260,9.0,,,9999.0,,20.0,7.0,29.89,,,,,,,,,,,,,,,,8/8 Overcast,12000.0,,SCT,7900,BKN,12000.0,OVC,25000.0,,
KRDR,09-12-2005,20:00,METAR,,250,5.0,,,9999.0,,21.0,6.0,29.90,,,,,,,,,,,,,,,,8/8 Overcast,12000.0,,FEW,7900,BKN,12000.0,OVC,25000.0,,
KRDR,09-12-2005,19:00,METAR,,220,4.0,,,9999.0,,21.0,7.0,29.91,,,,,,,,,,,,,,,,7/8 Mostly Cloudy,12000.0,,FEW,7900,BKN,12000.0,BKN,25000.0,,
KRDR,09-12-2005,18:00,METAR,,,1.0,,,9999.0,,21.0,7.0,29.92,,,,,,,,,,,,,,,,7/8 Mostly Cloudy,12000.0,,FEW,7900,BKN,12000.0,BKN,25000.0,,
KRDR,09-12-2005,17:00,METAR,,330,5.0,,,9999.0,,18.0,6.0,29.92,,,,,,,,,,,,,,,,8/8 Overcast,12000.0,,FEW,7900,BKN,12000.0,OVC,25000.0,,
KRDR,09-12-2005,16:00,METAR,,300,4.0,,,9999.0,,17.0,6.0,29.93,,,,,,,,,,,,,,,,7/8 Mostly Cloudy,12000.0,,FEW,7900,BKN,12000.0,BKN,25000.0,,
KRDR,09-12-2005,15:00,METAR,,260,2.0,,,9999.0,,15.0,9.0,29.91,,,,,,,,,,,,,,,,7/8 Mostly Cloudy,12000.0,,FEW,7900,BKN,12000.0,BKN,25000.0,,
KRDR,09-12-2005,14:00,METAR,,,2.0,,,9999.0,,14.0,9.0,29.92,,,,,,,,,,,,,,,,7/8 Mostly Cloudy,12000.0,,FEW,7900,SCT,12000.0,BKN,25000.0,,
KRDR,09-12-2005,13:00,METAR,,270,3.0,,,9999.0,,12.0,9.0,29.92,,,,,,,,,,,,,,,.45 IN,7/8 Mostly Cloudy,25000.0,,SCT,12000,BKN,25000.0,,,,
KRDR,09-12-2005,12:30,METAR,,200,2.0,,,9999.0,,11.0,8.0,29.92,,,,,,,,,,,,,,,,7/8 Mostly Cloudy,25000.0,,FEW,12000,BKN,25000.0,,,,
KRDR,09-09-2005,21:30,METAR,,130,14.0,19.0,,9999.0,,22.0,19.0,29.72,,,,,,,,,,,,,,,,7/8 Mostly Cloudy,10000.0,,FEW,3000,BKN,9900.0,BKN,25000.0,,
KRDR,09-09-2005,21:00,METAR,,140,9.0,15.0,,9999.0,Thunderstorm,22.0,19.0,29.72,,,,,17,,,,,,,,TRACE,,,7/8 Mostly Cloudy,10000.0,,SCT,3000,BKN,9900.0,BKN,25000.0,,
KRDR,09-09-2005,20:38,SPECI,,130,13.0,20.0,,9999.0,Thunderstorm with Rain or Snow/Light Rain Showers,22.0,19.0,29.72,,,,,95,80,,,,,,,,,,7/8 Mostly Cloudy,10000.0,,SCT,3000,BKN,9900.0,BKN,25000.0,,
KRDR,09-09-2005,20:00,METAR,,130,16.0,28.0,160/31KTS,9999.0,,24.0,19.0,29.65,,,,,,,,,,,,,,,,7/8 Mostly Cloudy,10000.0,,BKN,9900,BKN,25000.0,,,,
KRDR,09-09-2005,19:00,METAR,,120,10.0,,,9999.0,,22.0,19.0,29.66,,,,,,,,,,,,,,,,7/8 Mostly Cloudy,10000.0,,BKN,9900,BKN,25000.0,,,,
KRDR,09-09-2005,18:40,SPECI,,150,13.0,19.0,,9999.0,,22.0,19.0,29.69,,,,,,,,,,,,,,,,7/8 Mostly Cloudy,10000.0,,BKN,9900,BKN,25000.0,,,,
KRDR,09-09-2005,18:00,METAR,,130,11.0,15.0,,9999.0,Thunderstorm,21.0,21.0,29.68,,,,,17,,,,,,,,,.44 IN,,7/8 Mostly Cloudy,10000.0,,FEW,1500,BKN,9900.0,BKN,25000.0,,
KRDR,09-09-2005,17:45,METAR,,140,8.0,15.0,,9999.0,Thunderstorm,20.0,20.0,29.68,,,,,17,,,,,,,,,,,7/8 Mostly Cloudy,10000.0,,FEW,1500,BKN,9900.0,BKN,25000.0,,
KRDR,09-09-2005,17:00,METAR,,140,15.0,22.0,140/32KTS,9999.0,Light Rain Showers,21.0,20.0,29.68,,,,,80,,,,,,,,,,,7/8 Mostly Cloudy,4900.0,,FEW,1000,SCT,5000.0,BKN,9900.0,BKN,25000.0
KRDR,09-09-2005,16:00,METAR,,110,24.0,32.0,130/39KTS,9999.0,,19.0,19.0,29.65,,,,,,,,,,,,,,,,7/8 Mostly Cloudy,10000.0,,FEW,1000,FEW,2000.0,BKN,9900.0,BKN,25000.0
KRDR,09-09-2005,15:00,METAR,,130,18.0,23.0,160/32KTS,9999.0,Light Rain Showers,19.0,19.0,29.75,,,,,80,,,,,,,,.42 IN,,,7/8 Mostly Cloudy,2000.0,,FEW,1000,SCT,2000.0,BKN,9900.0,BKN,25000.0
KRDR,09-09-2005,14:45,METAR,,130,17.0,22.0,,9999.0,Thunderstorm with Rain or Snow/Light Rain Showers,18.0,18.0,29.77,,,,,95,80,,,,,,,,,,7/8 Mostly Cloudy,2000.0,,FEW,500,SCT,2000.0,BKN,6900.0,BKN,9900.0
KRDR,09-09-2005,14:28,SPECI,,140,18.0,29.0,,4800.0,Thunderstorm with Rain or Snow/Light Rain Showers,19.0,19.0,29.77,,,,,95,80,,,,,,,,,,8/8 Overcast,2000.0,,FEW,500,BKN,2000.0,BKN,6900.0,OVC,9900.0
KRDR,09-09-2005,14:20,METAR,,150,22.0,32.0,,1200.0,Thunderstorm with Rain or Snow/Rain Showers,19.0,19.0,29.75,,,,,95,81,,,,,,,,,,8/8 Overcast,500.0,,BKN,500,OVC,2000.0,,,,
KRDR,09-09-2005,14:10,SPECI,,160,24.0,30.0,,3200.0,Thunderstorm with Rain or Snow/Light Rain Showers,19.0,19.0,29.75,,,,,95,80,,,,,,,,,,8/8 Overcast,2000.0,,SCT,1000,BKN,2000.0,OVC,9900.0,,
KRDR,09-09-2005,14:00,METAR,,170,22.0,30.0,150/35KTS,8000.0,Light Rain Showers,19.0,19.0,29.78,,,,,80,,,,,,,,,,,8/8 Overcast,2000.0,,SCT,1000,BKN,2000.0,OVC,9900.0,,
KRDR,09-09-2005,13:45,METAR,,140,21.0,29.0,,9999.0,Thunderstorm with Rain or Snow/Light Rain Showers,19.0,19.0,29.74,,,,,95,80,,,,,,,,,,7/8 Mostly Cloudy,2000.0,,FEW,1000,SCT,2000.0,BKN,9900.0,BKN,25000.0
KRDR,09-09-2005,13:30,METAR,,150,19.0,26.0,,3200.0,Thunderstorm with Rain or Snow/Light Rain Showers,18.0,18.0,29.73,,,,,95,80,,,,,,,,,,7/8 Mostly Cloudy,2000.0,,SCT,1000,BKN,2000.0,BKN,9900.0,BKN,25000.0
KRDR,09-09-2005,13:00,METAR,,130,25.0,33.0,,9999.0,Thunderstorm with Rain or Snow/Light Rain Showers,18.0,18.0,29.78,,,,,95,80,,,,,,,,,,7/8 Mostly Cloudy,3000.0,,SCT,1000,BKN,3000.0,BKN,9900.0,BKN,25000.0
KRDR,09-09-2005,12:50,METAR,,160,12.0,,,9999.0,Light Rain Showers/Thunderstorm,18.0,18.0,29.79,,,,,80,17,,,,,,,,,,8/8 Overcast,3000.0,,SCT,1000,BKN,3000.0,OVC,9900.0,,
KRDR,09-09-2005,12:45,METAR,,160,10.0,,,9999.0,Thunderstorm,18.0,18.0,29.78,,,,,17,,,,,,,,,,,8/8 Overcast,1000.0,,BKN,1000,BKN,3000.0,OVC,9900.0,,
KRDR,09-09-2005,12:30,METAR,,140,12.0,,,9999.0,,18.0,18.0,29.78,,,,,,,,,,,,,,,,7/8 Mostly Cloudy,10000.0,,SCT,1000,BKN,9900.0,BKN,20000.0,,
KRDR,09-08-2005,21:30,METAR,,140,8.0,,,9999.0,,24.0,17.0,29.95,,,,,,,,,,,,,,,,4/8 Partly Cloudy,72000.0,,SCT,3000,SCT,25000.0,,,,
KRDR,09-08-2005,21:00,METAR,,120,8.0,,,9999.0,,25.0,18.0,29.95,,,,,,,,,,,,,,,,4/8 Partly Cloudy,72000.0,,FEW,3000,SCT,25000.0,,,,
KRDR,09-08-2005,20:00,METAR,,130,9.0,,,9999.0,,25.0,17.0,29.97,,,,,,,,,,,,,,,,2/8 Mostly Clear,72000.0,,FEW,3500,FEW,25000.0,,,,
KRDR,09-08-2005,19:00,METAR,,120,8.0,,,9999.0,,24.0,17.0,29.99,,,,,,,,,,,,,,,,2/8 Mostly Clear,72000.0,,FEW,3500,FEW,25000.0,,,,
KRDR,09-08-2005,18:00,METAR,,110,10.0,,,9999.0,,22.0,16.0,30.02,,,,,,,,,,,,,,,,Clear,72000.0,,,73000,,,,,,
KRDR,09-08-2005,17:00,METAR,,140,10.0,,,9999.0,,21.0,15.0,30.03,,,,,,,,,,,,,,,,2/8 Mostly Clear,72000.0,,FEW,2500,FEW,9900.0,,,,
KRDR,09-08-2005,16:16,SPECI,,130,8.0,,,9999.0,,19.0,14.0,30.05,,,,,,,,,,,,,,,,7/8 Mostly Cloudy,10000.0,,SCT,2500,BKN,9900.0,,,,
KRDR,09-08-2005,16:00,METAR,,120,7.0,,,9999.0,,17.0,13.0,30.06,,,,,,,,,,,,,,,,8/8 Overcast,2500.0,,BKN,2500,OVC,9900.0,,,,
KRDR,09-08-2005,15:36,SPECI,,120,7.0,,,9999.0,,16.0,12.0,30.07,,,,,,,,,,,,,,,,8/8 Overcast,2000.0,,BKN,2000,OVC,9900.0,,,,
KRDR,09-08-2005,15:00,METAR,,120,6.0,,,9999.0,,16.0,12.0,30.07,,,,,,,,,,,,,,,,8/8 Overcast,3000.0,,SCT,2000,BKN,3000.0,BKN,9900.0,OVC,20000.0
KRDR,09-08-2005,14:00,METAR,,90,6.0,,,9999.0,,14.0,11.0,30.09,,,,,,,,,,,,,,,,7/8 Mostly Cloudy,3900.0,,FEW,2000,SCT,4000.0,BKN,9900.0,BKN,20000.0
KRDR,09-08-2005,13:00,METAR,,,2.0,,,9999.0,,11.0,10.0,30.09,,,,,,,,,,,,,,,,7/8 Mostly Cloudy,11000.0,,FEW,7900,SCT,11000.0,BKN,20000.0,,
KRDR,09-08-2005,12:30,METAR,,100,3.0,,,9999.0,,11.0,10.0,30.10,,,,,,,,,,,,,,,,7/8 Mostly Cloudy,20000.0,,SCT,7900,BKN,20000.0,,,,
KRDR,09-07-2005,21:30,METAR,,,3.0,,,9999.0,,23.0,5.0,30.21,,,,,,,,,,,,,,,,7/8 Mostly Cloudy,11000.0,,FEW,4000,SCT,11000.0,BKN,25000.0,,
KRDR,09-07-2005,21:00,METAR,,,3.0,,,9999.0,,23.0,4.0,30.22,,,,,,,,,,,,,,,,7/8 Mostly Cloudy,11000.0,,FEW,4000,SCT,11000.0,BKN,25000.0,,
KRDR,09-07-2005,20:00,METAR,,,5.0,,,9999.0,,23.0,5.0,30.24,,,,,,,,,,,,,,,,7/8 Mostly Cloudy,25000.0,,FEW,4000,FEW,12000.0,BKN,25000.0,,
KRDR,09-07-2005,19:00,METAR,,170,7.0,,,9999.0,,22.0,6.0,30.26,,,,,,,,,,,,,,,,7/8 Mostly Cloudy,25000.0,,FEW,12000,BKN,25000.0,,,,
KRDR,09-07-2005,18:00,METAR,,160,8.0,,,9999.0,,22.0,7.0,30.27,,,,,,,,,,,,,,,,7/8 Mostly Cloudy,25000.0,,FEW,12000,BKN,25000.0,,,,
KRDR,09-07-2005,17:00,METAR,,,4.0,,,9999.0,,22.0,7.0,30.28,,,,,,,,,,,,,,,,7/8 Mostly Cloudy,25000.0,,FEW,4000,FEW,12000.0,BKN,25000.0,,
KRDR,09-07-2005,16:00,METAR,,,2.0,,,9999.0,,21.0,7.0,30.29,,,,,,,,,,,,,,,,7/8 Mostly Cloudy,25000.0,,FEW,4000,FEW,12000.0,BKN,25000.0,,
KRDR,09-07-2005,15:00,METAR,,,2.0,,,9999.0,,18.0,11.0,30.30,,,,,,,,,,,,,,,,7/8 Mostly Cloudy,25000.0,,FEW,12000,BKN,25000.0,,,,
KRDR,09-07-2005,14:00,METAR,,230,3.0,,,9999.0,,15.0,10.0,30.30,,,,,,,,,,,,,,,,4/8 Partly Cloudy,72000.0,,FEW,12000,SCT,25000.0,,,,
KRDR,09-07-2005,13:00,METAR,,170,4.0,,,9999.0,,9.0,8.0,30.29,,,,,,,,,,,,,,,,4/8 Partly Cloudy,72000.0,,FEW,12000,SCT,25000.0,,,,
KRDR,09-07-2005,12:30,METAR,,210,3.0,,,9999.0,,9.0,7.0,30.29,,,,,,,,,,,,,,,,4/8 Partly Cloudy,72000.0,,FEW,4000,FEW,12000.0,SCT,25000.0,,
KRDR,09-06-2005,21:25,METAR,,300,14.0,18.0,,9999.0,,22.0,6.0,30.19,,,,,,,,,,,,,,,,4/8 Partly Cloudy,72000.0,,FEW,12000,SCT,25000.0,,,,
KRDR,09-06-2005,21:00,METAR,,290,16.0,20.0,,9999.0,,23.0,6.0,30.19,,,,,,,,,,,,,,,,4/8 Partly Cloudy,72000.0,,FEW,12000,SCT,25000.0,,,,
KRDR,09-06-2005,20:00,METAR,,290,13.0,19.0,,9999.0,,22.0,7.0,30.19,,,,,,,,,,,,,,,,4/8 Partly Cloudy,72000.0,,FEW,15000,SCT,25000.0,,,,
KRDR,09-06-2005,19:00,METAR,,270,13.0,21.0,,9999.0,,21.0,6.0,30.18,,,,,,,,,,,,,,,,7/8 Mostly Cloudy,25000.0,,SCT,15000,BKN,25000.0,,,,
KRDR,09-06-2005,18:00,METAR,,290,10.0,,,9999.0,,21.0,9.0,30.18,,,,,,,,,,,,,,,,2/8 Mostly Clear,72000.0,,FEW,25000,,,,,,
KRDR,09-06-2005,17:00,METAR,,280,11.0,,,9999.0,,20.0,8.0,30.17,,,,,,,,,,,,,,,,Clear,72000.0,,,73000,,,,,,
KRDR,09-06-2005,16:00,METAR,,290,11.0,,,9999.0,,19.0,8.0,30.17,,,,,,,,,,,,,,,,Clear,72000.0,,,73000,,,,,,
KRDR,09-06-2005,15:00,METAR,,280,11.0,,,9999.0,,17.0,9.0,30.14,,,,,,,,,,,,,,,,Clear,72000.0,,,73000,,,,,,
KRDR,09-06-2005,14:00,METAR,,260,7.0,,,9999.0,,15.0,10.0,30.09,,,,,,,,,,,,,,,,Clear,72000.0,,,73000,,,,,,
KRDR,09-06-2005,13:00,METAR,,220,7.0,,,9999.0,,14.0,11.0,30.08,,,,,,,,,,,,,,,.03 IN,Clear,72000.0,,,73000,,,,,,
KRDR,09-06-2005,12:30,METAR,,210,4.0,,,9999.0,,12.0,10.0,30.06,,,,,,,,,,,,,,,,Clear,72000.0,,,73000,,,,,,
KRDR,09-01-2005,21:30,METAR,,290,20.0,26.0,,9999.0,,23.0,4.0,29.87,,,,,,,,,,,,,,,,2/8 Mostly Clear,72000.0,,FEW,7900,,,,,,
KRDR,09-01-2005,21:00,METAR,,280,17.0,24.0,310/29KTS,9999.0,,23.0,4.0,29.87,,,,,,,,,,,,,,,,2/8 Mostly Clear,72000.0,,FEW,4000,FEW,7900.0,,,,
KRDR,09-01-2005,20:00,METAR,,280,21.0,27.0,300/31KTS,9999.0,,22.0,4.0,29.87,,,,,,,,,,,,,,,,2/8 Mostly Clear,72000.0,,FEW,7900,,,,,,
KRDR,09-01-2005,19:00,METAR,,280,19.0,27.0,300/29KTS,9999.0,,21.0,6.0,29.86,,,,,,,,,,,,,,,,2/8 Mostly Clear,72000.0,,FEW,7900,,,,,,
KRDR,09-01-2005,18:00,METAR,,280,19.0,29.0,280/29KTS,9999.0,,20.0,6.0,29.86,,,,,,,,,,,,,,,,2/8 Mostly Clear,72000.0,,FEW,7900,,,,,,
KRDR,09-01-2005,17:00,METAR,,290,19.0,25.0,270/28KTS,9999.0,,18.0,7.0,29.85,,,,,,,,,,,,,,,,2/8 Mostly Clear,72000.0,,FEW,7900,,,,,,
KRDR,09-01-2005,16:00,METAR,,270,18.0,24.0,290/29KTS,9999.0,,17.0,7.0,29.83,,,,,,,,,,,,,,,,2/8 Mostly Clear,72000.0,,FEW,7900,FEW,12000.0,,,,
KRDR,09-01-2005,15:00,METAR,,280,20.0,27.0,280/29KTS,9999.0,,16.0,7.0,29.83,,,,,,,,,,,,,,,,2/8 Mostly Clear,72000.0,,FEW,7900,FEW,12000.0,,,,
KRDR,09-01-2005,14:00,METAR,,260,19.0,25.0,,9999.0,,14.0,7.0,29.81,,,,,,,,,,,,,,,,4/8 Partly Cloudy,72000.0,,FEW,7900,SCT,12000.0,,,,
KRDR,09-01-2005,13:00,METAR,,260,17.0,22.0,,9999.0,,13.0,7.0,29.79,,,,,,,,,,,,,,,,4/8 Partly Cloudy,72000.0,,FEW,7900,SCT,12000.0,,,,
KRDR,08-31-2005,20:00,METAR,,240,19.0,27.0,250/29KTS,9999.0,,21.0,7.0,29.75,,,,,,,,,,,,,,,,4/8 Partly Cloudy,72000.0,,SCT,4000,,,,,,
KRDR,08-31-2005,19:00,METAR,,230,19.0,23.0,,9999.0,,21.0,9.0,29.76,,,,,,,,,,,,,,,,7/8 Mostly Cloudy,3900.0,,BKN,4000,,,,,,
KRDR,08-31-2005,18:00,METAR,,250,14.0,20.0,,9999.0,,19.0,9.0,29.76,,,,,,,,,,,,,,,,7/8 Mostly Cloudy,4400.0,,BKN,4500,BKN,11000.0,,,,
KRDR,08-31-2005,17:00,METAR,,250,15.0,21.0,,9999.0,,19.0,11.0,29.77,,,,,,,,,,,,,,,,7/8 Mostly Cloudy,3400.0,,BKN,3500,BKN,11000.0,,,,
KRDR,08-31-2005,16:00,METAR,,240,14.0,19.0,,9999.0,,18.0,11.0,29.76,,,,,,,,,,,,,,,,7/8 Mostly Cloudy,11000.0,,SCT,2800,SCT,11000.0,BKN,20000.0,,
KRDR,08-31-2005,15:00,METAR,,240,11.0,16.0,,9999.0,,17.0,12.0,29.75,,,,,,,,,,,,,,,,7/8 Mostly Cloudy,4900.0,,FEW,2500,SCT,5000.0,BKN,11000.0,BKN,20000.0
KRDR,08-31-2005,14:00,METAR,,240,11.0,,,9999.0,,17.0,13.0,29.76,,,,,,,,,,,,,,,,7/8 Mostly Cloudy,4900.0,,SCT,2500,BKN,5000.0,BKN,11000.0,BKN,20000.0
KRDR,08-31-2005,13:00,METAR,,240,9.0,,,9999.0,,16.0,13.0,29.74,,,,,,,,,,,,,,,,7/8 Mostly Cloudy,6000.0,,BKN,5900,BKN,11000.0,BKN,20000.0,,
KRDR,08-31-2005,12:30,METAR,,240,11.0,,,9999.0,,16.0,13.0,29.74,,,,,,,,,,,,,,,,7/8 Mostly Cloudy,11000.0,,SCT,5900,BKN,11000.0,BKN,20000.0,,
KRDR,08-30-2005,21:30,METAR,,110,11.0,,,9999.0,,26.0,14.0,29.78,,,,,,,,,,,,,,,,2/8 Mostly Clear,72000.0,,FEW,25000,,,,,,
KRDR,08-30-2005,21:00,METAR,,110,13.0,,,9999.0,,26.0,15.0,29.79,,,,,,,,,,,,,,,,2/8 Mostly Clear,72000.0,,FEW,3000,,,,,,
KRDR,08-30-2005,20:00,METAR,,110,12.0,,,9999.0,,25.0,16.0,29.81,,,,,,,,,,,,,,,,2/8 Mostly Clear,72000.0,,FEW,3000,,,,,,
KRDR,08-30-2005,19:00,METAR,,130,10.0,,,9999.0,,24.0,16.0,29.82,,,,,,,,,,,,,,,,2/8 Mostly Clear,72000.0,,FEW,3200,,,,,,
KRDR,08-30-2005,18:00,METAR,,110,10.0,,,9999.0,,23.0,16.0,29.84,,,,,,,,,,,,,,,,4/8 Partly Cloudy,72000.0,,SCT,3200,,,,,,
KRDR,08-30-2005,17:00,METAR,,110,8.0,,,9999.0,,22.0,16.0,29.86,,,,,,,,,,,,,,,,2/8 Mostly Clear,72000.0,,FEW,2400,,,,,,
KRDR,08-30-2005,16:00,METAR,,110,8.0,,,9999.0,,20.0,15.0,29.87,,,,,,,,,,,,,,,,2/8 Mostly Clear,72000.0,,FEW,500,,,,,,
KRDR,08-30-2005,15:00,METAR,,110,10.0,,,9999.0,,17.0,15.0,29.88,,,,,,,,,,,,,,,,4/8 Partly Cloudy,72000.0,,SCT,500,,,,,,
KRDR,08-30-2005,14:00,METAR,,110,6.0,,,6400.0,Mist,15.0,14.0,29.89,,,,,10,,,,,,,,,,,4/8 Partly Cloudy,72000.0,,SCT,300,,,,,,
KRDR,08-30-2005,13:40,SPECI,,110,7.0,,,4800.0,Mist,14.0,14.0,29.89,,,,,10,,,,,,,,,,,4/8 Partly Cloudy,72000.0,,SCT,300,,,,,,
KRDR,08-30-2005,13:10,SPECI,,,3.0,,,3200.0,Mist,13.0,13.0,29.89,,,,,10,,,,,,,,,,,4/8 Partly Cloudy,72000.0,,SCT,200,,,,,,
KRDR,08-30-2005,13:00,METAR,,,0.0,,,4000.0,Mist,12.0,12.0,29.89,,,,,10,,,,,,,,,,,4/8 Partly Cloudy,72000.0,,FEW,300,SCT,800.0,,,,
KRDR,08-30-2005,12:39,SPECI,,350,2.0,,,4000.0,Mist,10.0,10.0,29.89,,,,,10,,,,,,,,,,,2/8 Mostly Clear,72000.0,,FEW,300,,,,,,
KRDR,08-30-2005,12:30,METAR,,360,2.0,,,4800.0,Mist,9.0,9.0,29.89,,,,,10,,,,,,,,,,,Clear,72000.0,,,73000,,,,,,
KRDR,08-29-2005,21:30,METAR,,10,7.0,,,9999.0,,24.0,12.0,29.91,,,,,,,,,,,,,,,,2/8 Mostly Clear,72000.0,,FEW,2000,,,,,,
KRDR,08-29-2005,21:00,METAR,,,1.0,,,9999.0,,23.0,12.0,29.91,,,,,,,,,,,,,,,,2/8 Mostly Clear,72000.0,,FEW,2000,,,,,,
KRDR,08-29-2005,20:00,METAR,,50,5.0,,,9999.0,,23.0,14.0,29.92,,,,,,,,,,,,,,,,2/8 Mostly Clear,72000.0,,FEW,2000,,,,,,
KRDR,08-29-2005,19:00,METAR,,20,8.0,,,9999.0,,23.0,14.0,29.93,,,,,,,,,,,,,,,,2/8 Mostly Clear,72000.0,,FEW,2000,,,,,,
KRDR,08-29-2005,18:00,METAR,,,5.0,,,9999.0,,21.0,14.0,29.95,,,,,,,,,,,,,,,,4/8 Partly Cloudy,72000.0,,SCT,2000,,,,,,
KRDR,08-29-2005,17:00,METAR,,,4.0,,,9999.0,,19.0,14.0,29.97,,,,,,,,,,,,,,,,4/8 Partly Cloudy,72000.0,,SCT,2100,,,,,,
KRDR,08-29-2005,16:00,METAR,,,5.0,,,9999.0,,18.0,14.0,29.98,,,,,,,,,,,,,,,,4/8 Partly Cloudy,72000.0,,SCT,2500,,,,,,
KRDR,08-29-2005,15:00,METAR,,,4.0,,,9999.0,,17.0,14.0,29.98,,,,,,,,,,,,,,,,2/8 Mostly Clear,72000.0,,FEW,3000,,,,,,
KRDR,08-29-2005,14:00,METAR,,360,3.0,,,9999.0,,16.0,14.0,29.97,,,,,,,,,,,,,,,,Clear,72000.0,,,73000,,,,,,
KRDR,08-29-2005,13:00,METAR,,290,2.0,,,9999.0,,12.0,12.0,29.98,,,,,,,,,,,,,,,,Clear,72000.0,,,73000,,,,,,
KRDR,08-29-2005,12:30,METAR,,270,2.0,,,9999.0,,11.0,11.0,29.97,,,,,,,,,,,,,,,,Clear,72000.0,,,73000,,,,,,
KRDR,08-26-2005,21:25,METAR,,260,10.0,16.0,,9999.0,,23.0,11.0,29.78,,,,,,,,,,,,,,,,7/8 Mostly Cloudy,8000.0,,SCT,4500,BKN,7900.0,BKN,25000.0,,
KRDR,08-26-2005,21:00,METAR,,260,13.0,18.0,,9999.0,,23.0,11.0,29.79,,,,,,,,,,,,,,,,7/8 Mostly Cloudy,25000.0,,SCT,4500,BKN,25000.0,,,,
KRDR,08-26-2005,20:00,METAR,,240,14.0,17.0,,9999.0,,23.0,12.0,29.81,,,,,,,,,,,,,,,,7/8 Mostly Cloudy,25000.0,,SCT,4500,BKN,25000.0,,,,
KRDR,08-26-2005,19:00,METAR,,260,7.0,13.0,,9999.0,,20.0,12.0,29.83,,,,,,,,,,,,,,,,7/8 Mostly Cloudy,4400.0,,BKN,4500,,,,,,
KRDR,08-26-2005,18:00,METAR,,260,10.0,19.0,,9999.0,,21.0,11.0,29.84,,,,,,,,,,,,,,,,7/8 Mostly Cloudy,3900.0,,BKN,4000,,,,,,
KRDR,08-26-2005,17:00,METAR,,250,12.0,,,9999.0,,20.0,11.0,29.86,,,,,,,,,,,,,,,,4/8 Partly Cloudy,72000.0,,SCT,5000,SCT,15000.0,,,,
KRDR,08-26-2005,16:00,METAR,,240,10.0,,,9999.0,,19.0,11.0,29.86,,,,,,,,,,,,,,,,Clear,72000.0,,,73000,,,,,,
KRDR,08-26-2005,15:00,METAR,,230,9.0,,,9999.0,,18.0,11.0,29.87,,,,,,,,,,,,,,,,Clear,72000.0,,,73000,,,,,,
KRDR,08-26-2005,14:00,METAR,,230,7.0,,,9999.0,,16.0,11.0,29.89,,,,,,,,,,,,,,,,Clear,72000.0,,,73000,,,,,,
KRDR,08-26-2005,13:00,METAR,,170,3.0,,,9999.0,,14.0,12.0,29.89,,,,,,,,,,,,,,,,2/8 Mostly Clear,72000.0,,FEW,12000,,,,,,
KRDR,08-26-2005,12:30,METAR,,140,3.0,,,9999.0,,13.0,10.0,29.89,,,,,,,,,,,,,,,,2/8 Mostly Clear,72000.0,,FEW,12000,,,,,,
KRDR,08-25-2005,21:30,METAR,,290,5.0,,,9999.0,,21.0,15.0,29.93,,,,,,,,,,,,,,,,8/8 Overcast,4900.0,,BKN,5000,BKN,6900.0,OVC,12000.0,,
KRDR,08-25-2005,21:00,METAR,,,2.0,,,9999.0,,22.0,14.0,29.94,,,,,,,,,,,,,,,,8/8 Overcast,4900.0,,BKN,5000,BKN,6900.0,OVC,12000.0,,
KRDR,08-25-2005,20:00,METAR,,,3.0,,,9999.0,,22.0,14.0,29.94,,,,,,,,,,,,,,,,7/8 Mostly Cloudy,12000.0,,SCT,4500,BKN,12000.0,BKN,25000.0,,
KRDR,08-25-2005,19:00,METAR,,340,4.0,,,9999.0,,22.0,13.0,29.90,,,,,,,,,,,,,,,,7/8 Mostly Cloudy,3900.0,,FEW,2000,SCT,4000.0,BKN,12000.0,BKN,25000.0
KRDR,08-25-2005,18:00,METAR,,100,3.0,,,9999.0,,21.0,16.0,29.92,,,,,,,,,,,,,,.04 IN,,7/8 Mostly Cloudy,3900.0,,SCT,2000,BKN,4000.0,BKN,12000.0,,
KRDR,08-25-2005,17:18,SPECI,,230,5.0,,,9999.0,Thunderstorm with Rain or Snow/Light Rain Showers,21.0,18.0,29.99,,,,,95,80,,,,,,,,,,8/8 Overcast,3900.0,,SCT,2000,BKN,4000.0,OVC,25000.0,,
KRDR,08-25-2005,17:12,SPECI,,240,2.0,,,9999.0,Thunderstorm,22.0,18.0,29.97,,,,,17,,,,,,,,,,,8/8 Overcast,3900.0,,SCT,2000,BKN,4000.0,OVC,25000.0,,
KRDR,08-25-2005,17:00,METAR,,180,2.0,,,9999.0,,22.0,19.0,29.94,,,,,,,,,,,,,,,,7/8 Mostly Cloudy,3900.0,,SCT,1500,BKN,4000.0,BKN,25000.0,,
KRDR,08-25-2005,16:20,METAR,,170,5.0,,,9999.0,,22.0,19.0,29.95,,,,,,,,,,,,,,,,7/8 Mostly Cloudy,3900.0,,SCT,1500,BKN,4000.0,,,,
KRDR,08-25-2005,16:00,METAR,,160,6.0,,,9999.0,Mist,21.0,21.0,29.96,,,,,10,,,,,,,,,,,7/8 Mostly Cloudy,1000.0,,BKN,1000,BKN,4000.0,,,,
KRDR,08-25-2005,15:00,METAR,,180,3.0,,,4800.0,Mist,19.0,19.0,29.96,,,,,10,,,,,,,,.03 IN,,,8/8 Overcast,1000.0,,BKN,1000,OVC,3000.0,,,,
KRDR,08-25-2005,14:49,SPECI,,180,6.0,,,6400.0,Thunderstorm with Rain or Snow/Light Rain Showers/Mist,19.0,19.0,29.96,,,,,95,80,10,,,,,,,,,8/8 Overcast,1000.0,,BKN,1000,OVC,3000.0,,,,
KRDR,08-25-2005,14:25,METAR,,180,4.0,,,6400.0,Thunderstorm/Mist,19.0,19.0,29.96,,,,,17,10,,,,,,,,,,8/8 Overcast,1000.0,,BKN,1000,OVC,3000.0,,,,
KRDR,08-25-2005,14:00,METAR,,200,5.0,,,6400.0,Rain/Mist,19.0,19.0,,,,,,61,10,,,,,,,,,,8/8 Overcast,1000.0,,BKN,1000,OVC,3000.0,,,,
KRDR,08-25-2005,13:20,METAR,,240,3.0,,,8000.0,Light Rain Showers/Mist,19.0,19.0,29.85,,,,,80,10,,,,,,,,,,7/8 Mostly Cloudy,3000.0,,FEW,1000,BKN,3000.0,BKN,12000.0,,
KRDR,08-25-2005,13:00,METAR,,160,6.0,,,8000.0,Mist,19.0,19.0,29.96,,,,,10,,,,,,,,,,,7/8 Mostly Cloudy,3000.0,,FEW,1000,SCT,3000.0,BKN,12000.0,,
KRDR,08-25-2005,12:30,METAR,,160,5.0,,,6400.0,Mist,18.0,18.0,29.95,,,,,10,,,,,,,,,,,8/8 Overcast,1000.0,,BKN,1000,OVC,3000.0,,,,
KRDR,08-24-2005,21:30,METAR,,150,16.0,22.0,,9999.0,,23.0,17.0,29.85,,,,,,,,,,,,,,,,8/8 Overcast,3900.0,,FEW,3000,BKN,4000.0,OVC,8900.0,,
KRDR,08-24-2005,21:00,METAR,,150,17.0,26.0,160/31KTS,9999.0,,23.0,17.0,29.85,,,,,,,,,,,,,,,,8/8 Overcast,3800.0,,BKN,3900,OVC,8900.0,,,,
KRDR,08-24-2005,20:00,METAR,,140,17.0,23.0,160/29KTS,9999.0,,24.0,17.0,29.84,,,,,,,,,,,,,,,,8/8 Overcast,3400.0,,BKN,3500,OVC,8900.0,,,,
KRDR,08-24-2005,19:00,METAR,,130,19.0,27.0,150/31KTS,9999.0,,25.0,17.0,29.84,,,,,,,,,,,,,,,,7/8 Mostly Cloudy,9000.0,,SCT,3000,BKN,8900.0,BKN,15000.0,,
KRDR,08-24-2005,18:00,METAR,,140,21.0,28.0,160/29KTS,9999.0,,24.0,18.0,29.85,,,,,,,,,,,,,,,,7/8 Mostly Cloudy,9000.0,,SCT,2600,BKN,8900.0,BKN,15000.0,,
KRDR,08-24-2005,17:00,METAR,,150,20.0,26.0,,9999.0,,23.0,17.0,29.86,,,,,,,,,,,,,,,,7/8 Mostly Cloudy,9000.0,,SCT,2600,BKN,8900.0,BKN,15000.0,,
KRDR,08-24-2005,16:00,METAR,,150,19.0,24.0,,9999.0,,20.0,16.0,29.87,,,,,,,,,,,,,,,,8/8 Overcast,2000.0,,BKN,2000,OVC,7900.0,,,,
KRDR,08-24-2005,15:10,SPECI,,140,16.0,23.0,,9999.0,,19.0,16.0,29.88,,,,,,,,,,,,,,,,7/8 Mostly Cloudy,2100.0,,BKN,2100,BKN,5900.0,BKN,9900.0,,
KRDR,08-24-2005,15:00,METAR,,140,15.0,24.0,,9999.0,,19.0,16.0,29.88,,,,,,,,,,,,,,,,8/8 Overcast,6000.0,,SCT,2200,BKN,5900.0,OVC,9900.0,,
KRDR,08-24-2005,14:00,METAR,,160,14.0,21.0,,9999.0,,18.0,15.0,29.89,,,,,,,,,,,,,,,,7/8 Mostly Cloudy,6000.0,,FEW,2200,SCT,6400.0,BKN,9900.0,,
KRDR,08-24-2005,13:00,METAR,,140,13.0,20.0,,9999.0,,17.0,14.0,29.90,,,,,,,,,,,,,,,,7/8 Mostly Cloudy,10000.0,,SCT,6400,BKN,9900.0,,,,
KRDR,08-24-2005,12:30,METAR,,130,13.0,19.0,,9999.0,,17.0,14.0,29.87,,,,,,,,,,,,,,,,7/8 Mostly Cloudy,12000.0,,FEW,7900,BKN,12000.0,,,,
KRDR,08-23-2005,21:30,METAR,,140,16.0,,,9999.0,,24.0,15.0,29.98,,,,,,,,,,,,,,,,2/8 Mostly Clear,72000.0,,FEW,4000,FEW,25000.0,,,,
KRDR,08-23-2005,21:00,METAR,,140,16.0,21.0,,9999.0,,24.0,15.0,29.99,,,,,,,,,,,,,,,,2/8 Mostly Clear,72000.0,,FEW,4000,FEW,25000.0,,,,
KRDR,08-23-2005,20:00,METAR,,130,16.0,20.0,,9999.0,,24.0,15.0,30.00,,,,,,,,,,,,,,,,2/8 Mostly Clear,72000.0,,FEW,4000,FEW,25000.0,,,,
KRDR,08-23-2005,19:00,METAR,,130,16.0,,,9999.0,,23.0,15.0,30.01,,,,,,,,,,,,,,,,4/8 Partly Cloudy,72000.0,,FEW,3500,SCT,25000.0,,,,
KRDR,08-23-2005,18:00,METAR,,150,15.0,22.0,,9999.0,,22.0,14.0,30.03,,,,,,,,,,,,,,,,2/8 Mostly Clear,72000.0,,FEW,25000,,,,,,
KRDR,08-23-2005,17:00,METAR,,150,13.0,22.0,,9999.0,,21.0,14.0,30.05,,,,,,,,,,,,,,,,2/8 Mostly Clear,72000.0,,FEW,25000,,,,,,
KRDR,08-23-2005,16:00,METAR,,140,16.0,,,9999.0,,19.0,14.0,30.06,,,,,,,,,,,,,,,,2/8 Mostly Clear,72000.0,,FEW,25000,,,,,,
KRDR,08-23-2005,15:00,METAR,,150,19.0,,,9999.0,,17.0,13.0,30.09,,,,,,,,,,,,,,,,2/8 Mostly Clear,72000.0,,FEW,25000,,,,,,
KRDR,08-23-2005,14:00,METAR,,150,12.0,,,9999.0,,14.0,13.0,30.10,,,,,,,,,,,,,,,,2/8 Mostly Clear,72000.0,,FEW,25000,,,,,,
KRDR,08-23-2005,13:00,METAR,,130,9.0,,,9999.0,,12.0,12.0,30.09,,,,,,,,,,,,,,,,2/8 Mostly Clear,72000.0,,FEW,25000,,,,,,
KRDR,08-23-2005,12:30,METAR,,130,6.0,,,9999.0,,11.0,11.0,30.09,,,,,,,,,,,,,,,,2/8 Mostly Clear,72000.0,,FEW,25000,,,,,,
KRDR,08-22-2005,21:30,METAR,,130,10.0,,,9999.0,,21.0,12.0,30.12,,,,,,,,,,,,,,,,2/8 Mostly Clear,72000.0,,FEW,25000,,,,,,
KRDR,08-22-2005,21:00,METAR,,120,11.0,,,9999.0,,21.0,11.0,30.13,,,,,,,,,,,,,,,,2/8 Mostly Clear,72000.0,,FEW,3500,FEW,25000.0,,,,
KRDR,08-22-2005,20:00,METAR,,170,12.0,,,9999.0,,20.0,11.0,30.15,,,,,,,,,,,,,,,,4/8 Partly Cloudy,72000.0,,SCT,3500,SCT,25000.0,,,,
KRDR,08-22-2005,19:00,METAR,,120,10.0,,,9999.0,,20.0,11.0,30.16,,,,,,,,,,,,,,,,4/8 Partly Cloudy,72000.0,,SCT,3500,SCT,25000.0,,,,
KRDR,08-22-2005,18:00,METAR,,110,8.0,,,9999.0,,18.0,10.0,30.18,,,,,,,,,,,,,,,,7/8 Mostly Cloudy,3400.0,,BKN,3500,,,,,,
KRDR,08-22-2005,17:00,METAR,,140,9.0,,,9999.0,,18.0,9.0,30.20,,,,,,,,,,,,,,,,7/8 Mostly Cloudy,3400.0,,BKN,3500,,,,,,
KRDR,08-22-2005,16:00,METAR,,120,10.0,,,9999.0,,17.0,10.0,30.21,,,,,,,,,,,,,,,,4/8 Partly Cloudy,72000.0,,SCT,3500,,,,,,
KRDR,08-22-2005,15:00,METAR,,120,8.0,,,9999.0,,16.0,11.0,30.21,,,,,,,,,,,,,,,,2/8 Mostly Clear,72000.0,,FEW,3500,,,,,,
KRDR,08-22-2005,14:00,METAR,,100,4.0,,,9999.0,,12.0,11.0,30.21,,,,,,,,,,,,,,,,Clear,72000.0,,,73000,,,,,,
KRDR,08-22-2005,13:00,METAR,,90,2.0,,,9999.0,,9.0,9.0,30.21,,,,,,,,,,,,,,,.01 IN,2/8 Mostly Clear,72000.0,,FEW,500,,,,,,
KRDR,08-22-2005,12:30,METAR,,100,2.0,,,9999.0,,8.0,8.0,30.21,,,,,,,,,,,,,,,,2/8 Mostly Clear,72000.0,,FEW,500,,,,,,
KRDR,08-19-2005,21:30,METAR,,260,9.0,,,9999.0,,24.0,9.0,29.85,,,,,,,,,,,,,,,,4/8 Partly Cloudy,72000.0,,SCT,3500,,,,,,
KRDR,08-19-2005,21:00,METAR,,240,8.0,,,9999.0,,24.0,8.0,29.87,,,,,,,,,,,,,,,,4/8 Partly Cloudy,72000.0,,SCT,3500,,,,,,
KRDR,08-19-2005,20:00,METAR,,240,7.0,,,9999.0,,24.0,11.0,29.86,,,,,,,,,,,,,,,,4/8 Partly Cloudy,72000.0,,SCT,3500,,,,,,
KRDR,08-19-2005,19:00,METAR,,250,8.0,,,9999.0,,22.0,8.0,29.87,,,,,,,,,,,,,,,,2/8 Mostly Clear,72000.0,,FEW,3500,,,,,,
KRDR,08-19-2005,18:00,METAR,,,6.0,,,9999.0,,21.0,9.0,29.88,,,,,,,,,,,,,,.01 IN,,Clear,72000.0,,,73000,,,,,,
KRDR,08-19-2005,17:00,METAR,,260,7.0,,,9999.0,,20.0,11.0,29.89,,,,,,,,,,,,,,,,4/8 Partly Cloudy,72000.0,,FEW,2500,FEW,9900.0,SCT,20000.0,,
KRDR,08-19-2005,16:00,METAR,,290,9.0,,,9999.0,,18.0,14.0,29.88,,,,,,,,,,,,,,,,4/8 Partly Cloudy,72000.0,,FEW,2500,SCT,9900.0,SCT,20000.0,,
KRDR,08-19-2005,15:00,METAR,,280,7.0,,,9999.0,,15.0,15.0,29.87,,,,,,,,,,,,,.01 IN,,,7/8 Mostly Cloudy,10000.0,,BKN,9900,BKN,20000.0,,,,
KRDR,08-19-2005,14:00,METAR,,290,6.0,,,9999.0,,14.0,14.0,29.85,,,,,,,,,,,,,,,,7/8 Mostly Cloudy,10000.0,,SCT,6900,BKN,9900.0,,,,
KRDR,08-19-2005,13:25,METAR,,300,5.0,,,9999.0,,14.0,14.0,29.85,,,,,,,,,,,,,,,,7/8 Mostly Cloudy,10000.0,,SCT,6900,BKN,9900.0,,,,
KRDR,08-19-2005,13:00,METAR,,320,5.0,,,9999.0,Light Rain Showers,14.0,14.0,29.85,,,,,80,,,,,,,,,,,7/8 Mostly Cloudy,8000.0,,FEW,3000,SCT,7900.0,BKN,11000.0,,
KRDR,08-19-2005,12:30,METAR,,320,5.0,,,9999.0,Light Rain Showers,14.0,14.0,29.84,,,,,80,,,,,,,,,,,7/8 Mostly Cloudy,3000.0,,FEW,1000,BKN,3000.0,BKN,11000.0,,
KRDR,08-18-2005,21:30,METAR,,110,7.0,,,9999.0,,25.0,20.0,29.75,,,,,,,,,,,,,,,,7/8 Mostly Cloudy,3400.0,,SCT,2200,BKN,3500.0,,,,
KRDR,08-18-2005,21:00,METAR,,100,6.0,,,9999.0,,24.0,19.0,29.76,,,,,,,,,,,,,,,,7/8 Mostly Cloudy,3900.0,,FEW,1300,BKN,4000.0,,,,
KRDR,08-18-2005,20:07,SPECI,,110,5.0,,,9999.0,,24.0,19.0,29.75,,,,,,,,,,,,,,,,7/8 Mostly Cloudy,3400.0,,SCT,1300,BKN,3500.0,,,,
KRDR,08-18-2005,20:00,METAR,,120,5.0,,,9999.0,,23.0,19.0,29.75,,,,,,,,,,,,,,,,7/8 Mostly Cloudy,1300.0,,BKN,1300,BKN,3700.0,,,,
KRDR,08-18-2005,19:00,METAR,,60,3.0,,,9999.0,,22.0,19.0,29.74,,,,,,,,,,,,,,,,7/8 Mostly Cloudy,1300.0,,BKN,1300,BKN,3000.0,,,,
KRDR,08-18-2005,18:00,METAR,,50,5.0,,,9999.0,,22.0,19.0,29.74,,,,,,,,,,,,,,,,7/8 Mostly Cloudy,1200.0,,BKN,1200,BKN,3000.0,,,,
KRDR,08-18-2005,17:00,METAR,,30,3.0,,,9999.0,,21.0,18.0,29.76,,,,,,,,,,,,,,,,8/8 Overcast,1200.0,,BKN,1200,OVC,3000.0,,,,
KRDR,08-18-2005,16:48,SPECI,,40,4.0,,,9999.0,,21.0,19.0,29.75,,,,,,,,,,,,,,,,8/8 Overcast,1100.0,,BKN,1100,OVC,3000.0,,,,
KRDR,08-18-2005,16:00,METAR,,320,3.0,,,9999.0,,21.0,19.0,29.75,,,,,,,,,,,,,,,,7/8 Mostly Cloudy,20000.0,,SCT,1000,BKN,20000.0,,,,
KRDR,08-18-2005,15:20,METAR,,360,4.0,,,9999.0,,19.0,18.0,29.74,,,,,,,,,,,,,,,,7/8 Mostly Cloudy,2500.0,,FEW,400,SCT,2500.0,BKN,20000.0,,
KRDR,08-18-2005,15:00,METAR,,340,5.0,,,9999.0,Mist,18.0,18.0,29.75,,,,,10,,,,,,,,,,,8/8 Overcast,2500.0,,SCT,400,OVC,2500.0,,,,
KRDR,08-18-2005,14:00,METAR,,320,5.0,,,4800.0,Mist,16.0,16.0,29.74,,,,,10,,,,,,,,,,,8/8 Overcast,2200.0,,FEW,300,BKN,2200.0,OVC,20000.0,,
KRDR,08-18-2005,13:00,METAR,,330,5.0,,,4800.0,Mist,16.0,16.0,29.73,,,,,10,,,,,,,,,,,7/8 Mostly Cloudy,2800.0,,FEW,300,BKN,2800.0,BKN,20000.0,,
KRDR,08-18-2005,12:30,METAR,,310,4.0,,,4000.0,Mist,16.0,16.0,29.73,,,,,10,,,,,,,,,,,7/8 Mostly Cloudy,2300.0,,FEW,200,BKN,2300.0,BKN,20000.0,,
KRDR,08-17-2005,21:30,METAR,,90,6.0,,,9999.0,,22.0,20.0,29.75,,,,,,,,,,,,,,,,8/8 Overcast,4900.0,,FEW,1500,SCT,5000.0,OVC,9900.0,,
KRDR,08-17-2005,21:00,METAR,,90,7.0,,,9999.0,,22.0,19.0,29.75,,,,,,,,,,,,,,,,8/8 Overcast,4900.0,,SCT,1500,BKN,5000.0,OVC,9900.0,,
KRDR,08-17-2005,20:00,METAR,,90,11.0,,,9999.0,,20.0,18.0,29.77,,,,,,,,,,,,,,,,8/8 Overcast,2000.0,,FEW,1500,SCT,2000.0,BKN,5000.0,OVC,9900.0
KRDR,08-17-2005,19:00,METAR,,100,11.0,,,9999.0,,19.0,19.0,29.79,,,,,,,,,,,,,,,,8/8 Overcast,2500.0,,FEW,1000,SCT,2500.0,BKN,5000.0,OVC,9900.0
KRDR,08-17-2005,18:00,METAR,,90,12.0,,,9999.0,,18.0,18.0,29.81,,,,,,,,,,,,,,1.18 IN,,8/8 Overcast,2500.0,,FEW,1000,SCT,2500.0,BKN,5000.0,OVC,9900.0
KRDR,08-17-2005,17:00,METAR,,80,13.0,,,9999.0,,18.0,18.0,29.82,,,,,,,,,,,,,,,,8/8 Overcast,4900.0,,SCT,1000,BKN,5000.0,OVC,9900.0,,
KRDR,08-17-2005,16:25,METAR,,110,15.0,,,9999.0,Light Rain Showers,17.0,17.0,29.84,,,,,80,,,,,,,,,,,8/8 Overcast,4900.0,,FEW,1500,BKN,5000.0,OVC,9900.0,,
KRDR,08-17-2005,16:19,SPECI,,110,13.0,,,9999.0,,17.0,17.0,29.85,,,,,,,,,,,,,,,,8/8 Overcast,4900.0,,FEW,1500,BKN,5000.0,OVC,9900.0,,
KRDR,08-17-2005,16:00,METAR,,90,8.0,,,9999.0,Light Rain Showers,17.0,17.0,29.89,,,,,80,,,,,,,,,,,8/8 Overcast,4900.0,,FEW,1500,BKN,5000.0,OVC,9900.0,,
KRDR,08-17-2005,15:33,SPECI,,100,9.0,,,9999.0,Light Rain Showers,17.0,17.0,29.89,,,,,80,,,,,,,,,,,8/8 Overcast,1500.0,,SCT,500,BKN,1500.0,OVC,5000.0,,
KRDR,08-17-2005,15:08,SPECI,,,2.0,,,3200.0,Light Rain Showers/Thunderstorm/Mist,17.0,17.0,29.89,,,,,80,17,10,,,,,,,,,8/8 Overcast,1500.0,,SCT,500,BKN,1500.0,OVC,5000.0,,
KRDR,08-17-2005,15:00,METAR,,360,6.0,,,4800.0,Light Rain Showers/Mist,17.0,17.0,29.90,,,,,80,10,,,,,,,1.1 IN,,,8/8 Overcast,1500.0,,FEW,500,SCT,1500.0,OVC,5000.0,,
KRDR,08-17-2005,14:39,SPECI,,80,6.0,,,4800.0,Light Rain Showers/Mist,16.0,16.0,29.89,,,,,80,10,,,,,,,,,,8/8 Overcast,1500.0,,SCT,500,BKN,1500.0,OVC,5000.0,,
KRDR,08-17-2005,14:00,METAR,,60,6.0,,,3200.0,Light Rain Showers/Mist,16.0,16.0,29.88,,,,,80,10,,,,,,,,,,8/8 Overcast,4900.0,,FEW,500,SCT,1500.0,OVC,5000.0,,
KRDR,08-17-2005,13:45,METAR,,60,9.0,,,3200.0,Thunderstorm with Rain or Snow/Light Rain Showers/Mist,17.0,17.0,29.90,,,,,95,80,10,,,,,,,,,8/8 Overcast,1500.0,,SCT,500,BKN,1500.0,OVC,5000.0,,
KRDR,08-17-2005,13:22,SPECI,,60,7.0,,,4800.0,Thunderstorm with Rain or Snow/Light Rain Showers/Mist,17.0,17.0,29.91,,,,,95,80,10,,,,,,,,,8/8 Overcast,500.0,,FEW,200,SCT,500.0,BKN,1500.0,OVC,5000.0
KRDR,08-17-2005,13:06,SPECI,,340,13.0,,,1200.0,Thunderstorm with Rain or Snow/Light Rain Showers/Mist,17.0,17.0,29.92,,,,,95,80,10,,,,,,,,,8/8 Overcast,500.0,,FEW,200,SCT,500.0,BKN,1500.0,OVC,5000.0
KRDR,08-17-2005,13:00,METAR,,,5.0,,,3200.0,Thunderstorm with Rain or Snow/Light Rain Showers/Mist,16.0,16.0,29.90,,,,,95,80,10,,,,,,,,,8/8 Overcast,500.0,,FEW,200,SCT,500.0,BKN,1500.0,OVC,5000.0
KRDR,08-17-2005,12:30,METAR,,350,8.0,,,3200.0,Thunderstorm with Rain or Snow/Light Rain Showers/Mist,16.0,16.0,29.91,,,,,95,80,10,,,,,,,,,8/8 Overcast,500.0,,FEW,200,SCT,500.0,BKN,1000.0,OVC,5000.0
KRDR,08-16-2005,21:30,METAR,,50,7.0,,,9999.0,,24.0,11.0,30.11,,,,,,,,,,,,,,,,2/8 Mostly Clear,72000.0,,FEW,25000,,,,,,
KRDR,08-16-2005,21:00,METAR,,60,7.0,,,9999.0,,24.0,11.0,30.12,,,,,,,,,,,,,,,,2/8 Mostly Clear,72000.0,,FEW,25000,,,,,,
KRDR,08-16-2005,20:00,METAR,,30,7.0,,,9999.0,,23.0,10.0,30.13,,,,,,,,,,,,,,,,2/8 Mostly Clear,72000.0,,FEW,25000,,,,,,
KRDR,08-16-2005,19:00,METAR,,40,8.0,,,9999.0,,23.0,9.0,30.15,,,,,,,,,,,,,,,,2/8 Mostly Clear,72000.0,,FEW,12000,FEW,25000.0,,,,
KRDR,08-16-2005,18:00,METAR,,50,5.0,,,9999.0,,22.0,9.0,30.17,,,,,,,,,,,,,,,,4/8 Partly Cloudy,72000.0,,FEW,5000,FEW,12000.0,SCT,25000.0,,
KRDR,08-16-2005,17:00,METAR,,90,7.0,,,9999.0,,21.0,10.0,30.17,,,,,,,,,,,,,,,,7/8 Mostly Cloudy,12000.0,,FEW,5000,SCT,12000.0,BKN,25000.0,,
KRDR,08-16-2005,16:00,METAR,,50,7.0,,,9999.0,,20.0,10.0,30.18,,,,,,,,,,,,,,,,7/8 Mostly Cloudy,18000.0,,FEW,4500,BKN,18000.0,,,,
KRDR,08-16-2005,15:00,METAR,,40,7.0,,,9999.0,,18.0,10.0,30.18,,,,,,,,,,,,,,,,4/8 Partly Cloudy,72000.0,,FEW,9900,SCT,25000.0,,,,
KRDR,08-16-2005,14:00,METAR,,360,4.0,,,9999.0,,16.0,12.0,30.18,,,,,,,,,,,,,,,,4/8 Partly Cloudy,72000.0,,FEW,9900,SCT,25000.0,,,,
KRDR,08-16-2005,13:00,METAR,,320,4.0,,,9999.0,,14.0,13.0,30.18,,,,,,,,,,,,,,,,4/8 Partly Cloudy,72000.0,,FEW,9900,SCT,25000.0,,,,
KRDR,08-16-2005,12:30,METAR,,,2.0,,,9999.0,,12.0,12.0,30.17,,,,,,,,,,,,,,,,2/8 Mostly Clear,72000.0,,FEW,9900,,,,,,
KRDR,08-15-2005,21:30,METAR,,250,5.0,,,9999.0,,27.0,10.0,30.03,,,,,,,,,,,,,,,,2/8 Mostly Clear,72000.0,,FEW,5000,,,,,,
KRDR,08-15-2005,21:00,METAR,,,4.0,,,9999.0,,27.0,11.0,30.03,,,,,,,,,,,,,,,,2/8 Mostly Clear,72000.0,,FEW,5000,FEW,9900.0,,,,
KRDR,08-15-2005,20:00,METAR,,,3.0,,,9999.0,,26.0,12.0,30.05,,,,,,,,,,,,,,,,4/8 Partly Cloudy,72000.0,,FEW,5000,SCT,9900.0,,,,
KRDR,08-15-2005,19:00,METAR,,,3.0,,,9999.0,,25.0,12.0,30.06,,,,,,,,,,,,,,,,7/8 Mostly Cloudy,10000.0,,FEW,5900,BKN,9900.0,,,,
KRDR,08-15-2005,18:00,METAR,,,2.0,,,9999.0,,23.0,13.0,30.07,,,,,,,,,,,,,,,,7/8 Mostly Cloudy,10000.0,,FEW,5900,BKN,9900.0,,,,
KRDR,08-15-2005,17:00,METAR,,240,3.0,,,9999.0,,22.0,14.0,30.07,,,,,,,,,,,,,,,,8/8 Overcast,10000.0,,SCT,5900,OVC,9900.0,,,,
KRDR,08-15-2005,16:00,METAR,,280,5.0,,,9999.0,,21.0,12.0,30.07,,,,,,,,,,,,,,,,7/8 Mostly Cloudy,10000.0,,FEW,5900,BKN,9900.0,,,,
KRDR,08-15-2005,15:00,METAR,,250,3.0,,,9999.0,,20.0,14.0,30.06,,,,,,,,,,,,,,,,4/8 Partly Cloudy,72000.0,,FEW,6900,SCT,9900.0,,,,
KRDR,08-15-2005,14:00,METAR,,240,8.0,,,9999.0,,18.0,14.0,30.06,,,,,,,,,,,,,,,,2/8 Mostly Clear,72000.0,,FEW,9900,,,,,,
KRDR,08-15-2005,13:00,METAR,,230,4.0,,,9999.0,,15.0,14.0,30.06,,,,,,,,,,,,,,,,Clear,72000.0,,,73000,,,,,,
KRDR,08-15-2005,12:30,METAR,,200,4.0,,,9999.0,,14.0,14.0,30.06,,,,,,,,,,,,,,,,Clear,72000.0,,,73000,,,,,,
KRDR,08-12-2005,21:30,METAR,,280,17.0,,,9999.0,,21.0,7.0,29.95,,,,,,,,,,,,,,,,7/8 Mostly Cloudy,25000.0,,SCT,5000,BKN,25000.0,,,,
KRDR,08-12-2005,21:00,METAR,,290,14.0,25.0,,9999.0,,20.0,8.0,29.95,,,,,,,,,,,,,,,,7/8 Mostly Cloudy,25000.0,,SCT,4000,BKN,25000.0,,,,
KRDR,08-12-2005,20:00,METAR,,300,14.0,20.0,,9999.0,,21.0,9.0,29.95,,,,,,,,,,,,,,,,7/8 Mostly Cloudy,3900.0,,BKN,4000,,,,,,
KRDR,08-12-2005,19:00,METAR,,290,14.0,,,9999.0,,21.0,9.0,29.94,,,,,,,,,,,,,,,,4/8 Partly Cloudy,72000.0,,SCT,3900,,,,,,
KRDR,08-12-2005,18:00,METAR,,280,14.0,,,9999.0,,20.0,9.0,29.94,,,,,,,,,,,,,,,,4/8 Partly Cloudy,72000.0,,SCT,5900,,,,,,
KRDR,08-12-2005,17:00,METAR,,300,15.0,20.0,,9999.0,,19.0,9.0,29.94,,,,,,,,,,,,,,,,7/8 Mostly Cloudy,25000.0,,SCT,5000,BKN,25000.0,,,,
KRDR,08-12-2005,15:00,METAR,,300,15.0,,,9999.0,,17.0,11.0,29.92,,,,,,,,,,,,,,,,4/8 Partly Cloudy,72000.0,,FEW,5000,SCT,25000.0,,,,
KRDR,08-12-2005,14:00,METAR,,310,10.0,,,9999.0,,16.0,12.0,29.91,,,,,,,,,,,,,,,,7/8 Mostly Cloudy,25000.0,,SCT,6900,BKN,25000.0,,,,
KRDR,08-12-2005,13:00,METAR,,280,7.0,,,9999.0,,14.0,12.0,29.90,,,,,,,,,,,,,,,,4/8 Partly Cloudy,72000.0,,SCT,6900,SCT,25000.0,,,,
KRDR,08-12-2005,12:30,METAR,,290,6.0,,,9999.0,,13.0,12.0,29.88,,,,,,,,,,,,,,,,4/8 Partly Cloudy,72000.0,,SCT,6900,SCT,25000.0,,,,
KRDR,08-11-2005,21:25,METAR,,,2.0,,,3200.0,Rain/Mist,17.0,17.0,29.85,,,,,61,10,,,,,,,,,,8/8 Overcast,800.0,,SCT,300,OVC,800.0,,,,
KRDR,08-11-2005,21:00,METAR,,,2.0,,,2400.0,Rain/Mist,16.0,16.0,29.86,,,,,61,10,,,,,,,.03 IN,,,8/8 Overcast,700.0,,SCT,200,OVC,700.0,,,,
KRDR,08-11-2005,20:40,SPECI,,170,3.0,,,2400.0,Rain/Mist,16.0,16.0,29.86,,,,,61,10,,,,,,,,,,8/8 Overcast,700.0,,SCT,200,OVC,700.0,,,,
KRDR,08-11-2005,20:00,METAR,,150,2.0,,,3200.0,Rain/Mist,16.0,16.0,29.87,,,,,61,10,,,,,,,,,,8/8 Overcast,800.0,,SCT,300,OVC,800.0,,,,
KRDR,08-11-2005,19:40,SPECI,,140,3.0,,,3200.0,Rain/Mist,16.0,16.0,29.88,,,,,61,10,,,,,,,,,,8/8 Overcast,800.0,,SCT,300,OVC,800.0,,,,
KRDR,08-11-2005,19:00,METAR,,120,5.0,,,3200.0,Rain/Mist,16.0,16.0,29.87,,,,,61,10,,,,,,,,,,8/8 Overcast,1500.0,,SCT,900,BKN,1500.0,OVC,3000.0,,
KRDR,08-11-2005,18:31,SPECI,,100,5.0,,,3200.0,Rain/Mist,15.0,15.0,29.89,,,,,61,10,,,,,,,,,,8/8 Overcast,1500.0,,SCT,900,BKN,1500.0,OVC,3000.0,,
KRDR,08-11-2005,18:00,METAR,,110,8.0,,,9999.0,Rain/Mist,15.0,15.0,29.90,,,,,61,10,,,,,,,,.71 IN,,8/8 Overcast,2100.0,,SCT,1200,BKN,2100.0,OVC,3500.0,,
KRDR,08-11-2005,17:00,METAR,,90,10.0,,,6400.0,Rain/Mist,14.0,14.0,29.99,,,,,61,10,,,,,,,,,,8/8 Overcast,2800.0,,BKN,2800,OVC,4000.0,,,,
KRDR,08-11-2005,16:16,SPECI,,110,9.0,,,6400.0,Rain/Mist,14.0,14.0,29.94,,,,,61,10,,,,,,,,,,8/8 Overcast,2000.0,,BKN,2000,OVC,4000.0,,,,
KRDR,08-11-2005,16:00,METAR,,120,8.0,,,4000.0,Rain/Mist,14.0,14.0,29.96,,,,,61,10,,,,,,,,,,8/8 Overcast,4400.0,,SCT,2000,BKN,4500.0,OVC,7900.0,,
KRDR,08-11-2005,15:00,METAR,,150,5.0,,,4000.0,Rain/Mist,14.0,14.0,29.97,,,,,61,10,,,,,,,.54 IN,,,8/8 Overcast,4900.0,,SCT,2000,BKN,5000.0,OVC,7900.0,,
KRDR,08-11-2005,14:25,METAR,,,3.0,,,3200.0,Rain/Mist,14.0,14.0,29.98,,,,,61,10,,,,,,,,,,8/8 Overcast,4900.0,,SCT,2000,BKN,5000.0,OVC,8400.0,,
KRDR,08-11-2005,14:00,METAR,,80,5.0,,,4800.0,Rain/Mist,14.0,14.0,29.96,,,,,61,10,,,,,,,,,,8/8 Overcast,6500.0,,SCT,3500,BKN,6400.0,OVC,8400.0,,
KRDR,08-11-2005,13:00,METAR,,,0.0,,,6400.0,Rain/Mist,14.0,14.0,29.99,,,,,61,10,,,,,,,,,,8/8 Overcast,7000.0,,SCT,3500,BKN,6900.0,OVC,8400.0,,
KRDR,08-11-2005,12:35,SPECI,,200,6.0,,,6400.0,Rain/Mist,14.0,14.0,30.00,,,,,61,10,,,,,,,,,,7/8 Mostly Cloudy,7000.0,,FEW,4000,SCT,6900.0,BKN,8400.0,,
KRDR,08-10-2005,21:28,SPECI,,,5.0,,,9999.0,,22.0,8.0,30.09,,,,,,,,,,,,,,,,7/8 Mostly Cloudy,12000.0,,BKN,12000,,,,,,
KRDR,08-10-2005,21:00,METAR,,,5.0,,,9999.0,,22.0,8.0,30.11,,,,,,,,,,,,,,,,7/8 Mostly Cloudy,12000.0,,BKN,12000,,,,,,
KRDR,08-10-2005,20:00,METAR,,,3.0,,,9999.0,,22.0,8.0,30.12,,,,,,,,,,,,,,,,7/8 Mostly Cloudy,12000.0,,BKN,12000,,,,,,
KRDR,08-10-2005,19:00,METAR,,210,3.0,,,9999.0,,21.0,8.0,30.13,,,,,,,,,,,,,,,,7/8 Mostly Cloudy,12000.0,,BKN,12000,BKN,25000.0,,,,
KRDR,08-10-2005,18:00,METAR,,,0.0,,,9999.0,,20.0,9.0,30.13,,,,,,,,,,,,,,,,7/8 Mostly Cloudy,12000.0,,FEW,5000,SCT,12000.0,BKN,25000.0,,
KRDR,08-10-2005,17:00,METAR,,,0.0,,,9999.0,,19.0,10.0,30.14,,,,,,,,,,,,,,,,8/8 Overcast,12000.0,,FEW,4000,SCT,12000.0,OVC,25000.0,,
KRDR,08-10-2005,16:00,METAR,,,1.0,,,9999.0,,18.0,11.0,30.13,,,,,,,,,,,,,,,,8/8 Overcast,25000.0,,FEW,12000,OVC,25000.0,,,,
KRDR,08-10-2005,15:00,METAR,,,2.0,,,9999.0,,18.0,11.0,30.13,,,,,,,,,,,,,,,,7/8 Mostly Cloudy,25000.0,,FEW,12000,BKN,25000.0,,,,
KRDR,08-10-2005,14:00,METAR,,,2.0,,,9999.0,,16.0,12.0,30.12,,,,,,,,,,,,,,,,7/8 Mostly Cloudy,25000.0,,FEW,12000,BKN,25000.0,,,,
KRDR,08-10-2005,13:00,METAR,,240,4.0,,,9999.0,,13.0,12.0,30.12,,,,,,,,,,,,,,,,7/8 Mostly Cloudy,25000.0,,FEW,12000,BKN,25000.0,,,,
KRDR,08-10-2005,12:32,SPECI,,230,1.0,,,9999.0,,12.0,11.0,30.10,,,,,,,,,,,,,,,,7/8 Mostly Cloudy,25000.0,,FEW,12000,BKN,25000.0,,,,
KRDR,08-09-2005,21:28,SPECI,,340,11.0,,,9999.0,,27.0,9.0,30.01,,,,,,,,,,,,,,,,4/8 Partly Cloudy,72000.0,,FEW,5000,SCT,25000.0,,,,
KRDR,08-09-2005,21:00,METAR,,350,11.0,,,9999.0,,27.0,10.0,30.01,,,,,,,,,,,,,,,,4/8 Partly Cloudy,72000.0,,FEW,5000,SCT,25000.0,,,,
KRDR,08-09-2005,20:00,METAR,,360,12.0,,,9999.0,,27.0,12.0,30.01,,,,,,,,,,,,,,,,7/8 Mostly Cloudy,25000.0,,FEW,5000,BKN,25000.0,,,,
KRDR,08-09-2005,19:00,METAR,,340,10.0,,,9999.0,,26.0,13.0,30.01,,,,,,,,,,,,,,,,7/8 Mostly Cloudy,25000.0,,SCT,5000,BKN,25000.0,,,,
KRDR,08-09-2005,18:00,METAR,,320,7.0,,,9999.0,,26.0,14.0,30.00,,,,,,,,,,,,,,,,7/8 Mostly Cloudy,25000.0,,SCT,5000,BKN,25000.0,,,,
KRDR,08-09-2005,17:00,METAR,,340,10.0,,,9999.0,,24.0,14.0,29.99,,,,,,,,,,,,,,,,7/8 Mostly Cloudy,25000.0,,FEW,4000,FEW,8900.0,BKN,25000.0,,
KRDR,08-09-2005,16:00,METAR,,330,8.0,,,9999.0,,23.0,14.0,30.00,,,,,,,,,,,,,,,,4/8 Partly Cloudy,72000.0,,FEW,8900,SCT,25000.0,,,,
KRDR,08-09-2005,15:00,METAR,,350,9.0,,,9999.0,,21.0,16.0,30.00,,,,,,,,,,,,,,,,2/8 Mostly Clear,72000.0,,FEW,8900,FEW,25000.0,,,,
KRDR,08-09-2005,14:00,METAR,,330,6.0,,,9999.0,,20.0,16.0,29.99,,,,,,,,,,,,,,,,7/8 Mostly Cloudy,8500.0,,FEW,5900,BKN,8400.0,BKN,25000.0,,
KRDR,08-09-2005,13:00,METAR,,240,3.0,,,9999.0,,19.0,18.0,29.97,,,,,,,,,,,,,,,,7/8 Mostly Cloudy,8500.0,,FEW,5900,BKN,8400.0,BKN,25000.0,,
KRDR,08-09-2005,12:40,METAR,,240,4.0,,,9999.0,,18.0,18.0,29.97,,,,,,,,,,,,,,,,7/8 Mostly Cloudy,8000.0,,FEW,5900,BKN,7900.0,BKN,25000.0,,
KRDR,08-08-2005,21:28,SPECI,,340,10.0,,,9999.0,,28.0,13.0,29.91,,,,,,,,,,,,,,,,7/8 Mostly Cloudy,12000.0,,FEW,6900,BKN,12000.0,BKN,25000.0,,
KRDR,08-08-2005,21:00,METAR,,340,10.0,,,9999.0,,29.0,15.0,29.88,,,,,,,,,,,,,,,,7/8 Mostly Cloudy,12000.0,,BKN,12000,BKN,25000.0,,,,
KRDR,08-08-2005,20:00,METAR,,340,10.0,,,9999.0,,30.0,16.0,29.88,,,,,,,,,,,,,,,,4/8 Partly Cloudy,72000.0,,FEW,15000,SCT,25000.0,,,,
KRDR,08-08-2005,19:00,METAR,,10,7.0,,,9999.0,,30.0,17.0,29.87,,,,,,,,,,,,,,,,7/8 Mostly Cloudy,25000.0,,BKN,25000,,,,,,
KRDR,08-08-2005,18:00,METAR,,350,12.0,,,9999.0,,28.0,19.0,29.86,,,,,,,,,,,,,,,,7/8 Mostly Cloudy,25000.0,,BKN,25000,,,,,,
KRDR,08-08-2005,17:00,METAR,,350,14.0,,,9999.0,,28.0,19.0,29.82,,,,,,,,,,,,,,,,4/8 Partly Cloudy,72000.0,,SCT,25000,,,,,,
KRDR,08-08-2005,16:00,METAR,,350,14.0,,,9999.0,,28.0,19.0,29.82,,,,,,,,,,,,,,,,4/8 Partly Cloudy,72000.0,,SCT,25000,,,,,,
KRDR,08-08-2005,15:00,METAR,,340,12.0,,,9999.0,,27.0,21.0,29.79,,,,,,,,,,,,,,,,2/8 Mostly Clear,72000.0,,FEW,25000,,,,,,
KRDR,08-08-2005,14:00,METAR,,340,15.0,,,9999.0,,25.0,21.0,29.76,,,,,,,,,,,,,,,,2/8 Mostly Clear,72000.0,,FEW,25000,,,,,,
KRDR,08-08-2005,13:00,METAR,,310,9.0,,,9999.0,,23.0,19.0,29.73,,,,,,,,,,,,,,,,2/8 Mostly Clear,72000.0,,FEW,25000,,,,,,
KRDR,08-08-2005,12:30,METAR,,300,7.0,,,9999.0,,22.0,19.0,29.72,,,,,,,,,,,,,,,,Clear,72000.0,,,73000,,,,,,
KRDR,08-04-2005,21:36,METAR,,290,18.0,23.0,,9999.0,,26.0,4.0,30.14,,,,,,,,,,,,,,,,2/8 Mostly Clear,72000.0,,FEW,5000,,,,,,
KRDR,08-04-2005,21:00,METAR,,300,18.0,,300/27KTS,9999.0,,26.0,7.0,30.14,,,,,,,,,,,,,,,,2/8 Mostly Clear,72000.0,,FEW,5000,,,,,,
KRDR,08-04-2005,20:00,METAR,,310,19.0,26.0,,9999.0,,26.0,8.0,30.13,,,,,,,,,,,,,,,,2/8 Mostly Clear,72000.0,,FEW,5000,,,,,,
KRDR,08-04-2005,19:00,METAR,,290,18.0,26.0,,9999.0,,25.0,8.0,30.14,,,,,,,,,,,,,,,,2/8 Mostly Clear,72000.0,,FEW,5000,,,,,,
KRDR,08-04-2005,18:00,METAR,,290,17.0,,,9999.0,,24.0,8.0,30.14,,,,,,,,,,,,,,,,2/8 Mostly Clear,72000.0,,FEW,5000,,,,,,
KRDR,08-04-2005,17:00,METAR,,290,16.0,,,9999.0,,23.0,7.0,30.15,,,,,,,,,,,,,,,,2/8 Mostly Clear,72000.0,,FEW,5000,,,,,,
KRDR,08-04-2005,16:00,METAR,,280,19.0,,,9999.0,,22.0,8.0,30.16,,,,,,,,,,,,,,,,2/8 Mostly Clear,72000.0,,FEW,5000,,,,,,
KRDR,08-04-2005,15:00,METAR,,280,13.0,,,9999.0,,21.0,11.0,30.15,,,,,,,,,,,,,,,,Clear,72000.0,,,73000,,,,,,
KRDR,08-04-2005,14:00,METAR,,270,12.0,,,9999.0,,18.0,12.0,30.14,,,,,,,,,,,,,,,,Clear,72000.0,,,73000,,,,,,
KRDR,08-04-2005,13:00,METAR,,280,9.0,,,9999.0,,17.0,12.0,30.13,,,,,,,,,,,,,,,,Clear,72000.0,,,73000,,,,,,
KRDR,08-04-2005,12:26,METAR,,280,10.0,,,9999.0,,17.0,12.0,30.12,,,,,,,,,,,,,,,,Clear,72000.0,,,73000,,,,,,
KRDR,08-03-2005,21:33,METAR,,320,12.0,,,9999.0,,23.0,14.0,29.93,,,,,,,,,,,,,,,,8/8 Overcast,12000.0,,FEW,6900,BKN,12000.0,OVC,20000.0,,
KRDR,08-03-2005,21:00,METAR,,340,11.0,,,9999.0,,24.0,13.0,29.92,,,,,,,,,,,,,,,,8/8 Overcast,12000.0,,FEW,6900,BKN,12000.0,OVC,20000.0,,
KRDR,08-03-2005,20:00,METAR,,320,13.0,,,9999.0,,23.0,13.0,29.91,,,,,,,,,,,,,,,,8/8 Overcast,12000.0,,FEW,6900,BKN,12000.0,OVC,20000.0,,
KRDR,08-03-2005,19:00,METAR,,340,9.0,20.0,350/25KTS,9999.0,,25.0,12.0,29.90,,,,,,,,,,,,,,,,7/8 Mostly Cloudy,12000.0,,FEW,6900,SCT,12000.0,BKN,20000.0,,
KRDR,08-03-2005,18:00,METAR,,350,17.0,,340/25KTS,9999.0,,27.0,14.0,29.87,,,,,,,,,,,,,,,,7/8 Mostly Cloudy,25000.0,,FEW,15000,BKN,25000.0,,,,
KRDR,08-03-2005,17:00,METAR,,340,16.0,,,9999.0,,26.0,18.0,29.86,,,,,,,,,,,,,,,,4/8 Partly Cloudy,72000.0,,FEW,12000,SCT,25000.0,,,,
KRDR,08-03-2005,16:00,METAR,,350,19.0,,360/25KTS,9999.0,,25.0,17.0,29.83,,,,,,,,,,,,,,,,4/8 Partly Cloudy,72000.0,,FEW,12000,SCT,25000.0,,,,
KRDR,08-03-2005,15:00,METAR,,360,15.0,,,9999.0,,24.0,18.0,29.83,,,,,,,,,,,,,,,,4/8 Partly Cloudy,72000.0,,FEW,12000,SCT,25000.0,,,,
KRDR,08-03-2005,14:00,METAR,,330,12.0,18.0,,9999.0,,24.0,20.0,29.82,,,,,,,,,,,,,,,,7/8 Mostly Cloudy,12000.0,,FEW,4000,SCT,12000.0,BKN,25000.0,,
KRDR,08-03-2005,13:00,METAR,,340,7.0,,,9999.0,,22.0,21.0,29.83,,,,,,,,,,,,,,,,7/8 Mostly Cloudy,12000.0,,FEW,4000,SCT,12000.0,BKN,25000.0,,
KRDR,08-03-2005,12:36,SPECI,,350,4.0,,,9999.0,,22.0,21.0,29.83,,,,,,,,,,,,,,,,7/8 Mostly Cloudy,12000.0,,FEW,4000,SCT,12000.0,BKN,25000.0,,
KRDR,08-02-2005,21:00,METAR,,170,11.0,,,9999.0,,34.0,20.0,29.77,,,,,,,,,,,,,,,,2/8 Mostly Clear,72000.0,,FEW,2500,FEW,25000.0,,,,
KRDR,08-02-2005,20:00,METAR,,150,12.0,,,9999.0,,34.0,21.0,29.77,,,,,,,,,,,,,,,,4/8 Partly Cloudy,72000.0,,FEW,2500,SCT,25000.0,,,,
KRDR,08-02-2005,19:00,METAR,,170,14.0,19.0,,9999.0,,33.0,21.0,29.78,,,,,,,,,,,,,,,,2/8 Mostly Clear,72000.0,,FEW,2500,FEW,25000.0,,,,
KRDR,08-02-2005,18:00,METAR,,160,10.0,,,9999.0,,33.0,22.0,29.80,,,,,,,,,,,,,,,,2/8 Mostly Clear,72000.0,,FEW,2500,FEW,9900.0,,,,
KRDR,08-02-2005,17:00,METAR,,170,10.0,,,9999.0,,32.0,22.0,29.80,,,,,,,,,,,,,,,,2/8 Mostly Clear,72000.0,,FEW,2500,FEW,9900.0,,,,
KRDR,08-02-2005,16:00,METAR,,150,7.0,,,9999.0,,29.0,24.0,29.81,,,,,,,,,,,,,,,,4/8 Partly Cloudy,72000.0,,FEW,4000,SCT,9900.0,,,,
KRDR,08-02-2005,15:00,METAR,,,4.0,,,9999.0,,25.0,23.0,29.82,,,,,,,,,,,,,,,,4/8 Partly Cloudy,72000.0,,FEW,4000,SCT,9900.0,,,,
KRDR,08-02-2005,14:00,METAR,,160,11.0,,,9999.0,,22.0,22.0,29.83,,,,,,,,,,,,,,,,7/8 Mostly Cloudy,10000.0,,FEW,4000,BKN,9900.0,,,,
KRDR,08-02-2005,13:31,SPECI,,160,13.0,,,9999.0,Precipitation in the Vicinity,21.0,21.0,29.85,,,,,16,,,,,,,,,,,8/8 Overcast,10000.0,,FEW,4000,BKN,9900.0,OVC,15000.0,,
KRDR,08-02-2005,12:44,METAR,,,3.0,,,9999.0,Thunderstorm,21.0,20.0,29.87,,,,,17,,,,,,,,,,,8/8 Overcast,10000.0,,FEW,5000,BKN,9900.0,OVC,15000.0,,
KRDR,08-02-2005,12:30,METAR,,110,6.0,,,9999.0,,21.0,21.0,29.84,,,,,,,,,,,,,,,,8/8 Overcast,10000.0,,FEW,5000,BKN,9900.0,OVC,15000.0,,
KRDR,08-01-2005,21:00,METAR,,160,7.0,,,9999.0,,34.0,14.0,29.96,,,,,,,,,,,,,,,,4/8 Partly Cloudy,72000.0,,FEW,12000,SCT,25000.0,,,,
KRDR,08-01-2005,20:00,METAR,,,5.0,,,9999.0,,32.0,15.0,29.98,,,,,,,,,,,,,,,,4/8 Partly Cloudy,72000.0,,FEW,12000,SCT,25000.0,,,,
KRDR,08-01-2005,19:00,METAR,,240,7.0,,,9999.0,,31.0,16.0,29.99,,,,,,,,,,,,,,,,4/8 Partly Cloudy,72000.0,,FEW,12000,SCT,25000.0,,,,
KRDR,08-01-2005,18:00,METAR,,210,5.0,,,9999.0,,31.0,16.0,30.01,,,,,,,,,,,,,,,,2/8 Mostly Clear,72000.0,,FEW,25000,,,,,,
KRDR,08-01-2005,17:00,METAR,,160,10.0,,,9999.0,,30.0,17.0,30.03,,,,,,,,,,,,,,,,2/8 Mostly Clear,72000.0,,FEW,25000,,,,,,
KRDR,08-01-2005,16:00,METAR,,180,9.0,,,9999.0,,28.0,18.0,30.04,,,,,,,,,,,,,,,,2/8 Mostly Clear,72000.0,,FEW,25000,,,,,,
KRDR,08-01-2005,15:00,METAR,,170,5.0,,,9999.0,,27.0,19.0,30.04,,,,,,,,,,,,,,,,2/8 Mostly Clear,72000.0,,FEW,25000,,,,,,
KRDR,08-01-2005,14:00,METAR,,,2.0,,,9999.0,,23.0,17.0,30.06,,,,,,,,,,,,,,,,2/8 Mostly Clear,72000.0,,FEW,25000,,,,,,
KRDR,08-01-2005,12:36,METAR,,,0.0,,,9999.0,,18.0,17.0,30.06,,,,,,,,,,,,,,,,2/8 Mostly Clear,72000.0,,FEW,25000,,,,,,
KRDR,07-29-2005,21:30,METAR,,120,9.0,,,9999.0,,26.0,13.0,30.06,,,,,,,,,,,,,,,,2/8 Mostly Clear,72000.0,,FEW,12000,,,,,,
KRDR,07-29-2005,20:00,METAR,,140,9.0,,,9999.0,,26.0,12.0,30.10,,,,,,,,,,,,,,,,4/8 Partly Cloudy,72000.0,,FEW,5000,SCT,12000.0,,,,
KRDR,07-29-2005,19:00,METAR,,140,12.0,,,9999.0,,25.0,11.0,30.12,,,,,,,,,,,,,,,,4/8 Partly Cloudy,72000.0,,SCT,5000,SCT,12000.0,,,,
KRDR,07-29-2005,17:00,METAR,,130,8.0,,,9999.0,,23.0,9.0,30.16,,,,,,,,,,,,,,,,4/8 Partly Cloudy,72000.0,,SCT,5000,SCT,12000.0,,,,
KRDR,07-29-2005,16:00,METAR,,140,8.0,,,9999.0,,21.0,9.0,30.17,,,,,,,,,,,,,,,,7/8 Mostly Cloudy,4900.0,,BKN,5000,BKN,12000.0,,,,
KRDR,07-29-2005,13:00,METAR,,110,6.0,,,9999.0,,14.0,9.0,30.17,,,,,,,,,,,,,,,,7/8 Mostly Cloudy,12000.0,,FEW,5000,BKN,12000.0,,,,
KRDR,07-28-2005,21:00,METAR,,340,7.0,,,9999.0,,22.0,8.0,30.08,,,,,,,,,,,,,,,,4/8 Partly Cloudy,72000.0,,FEW,5900,SCT,8900.0,,,,
KRDR,07-28-2005,20:00,METAR,,,6.0,,,9999.0,,22.0,8.0,30.08,,,,,,,,,,,,,,,,4/8 Partly Cloudy,72000.0,,SCT,4000,,,,,,
KRDR,07-28-2005,19:00,METAR,,,6.0,,,9999.0,,21.0,10.0,30.09,,,,,,,,,,,,,,,,7/8 Mostly Cloudy,30000.0,,SCT,4500,BKN,30000.0,,,,
KRDR,07-28-2005,18:00,METAR,,,6.0,,,9999.0,,20.0,12.0,30.08,,,,,,,,,,,,,,,,4/8 Partly Cloudy,72000.0,,SCT,5000,SCT,30000.0,,,,
KRDR,07-28-2005,17:00,METAR,,330,9.0,,,9999.0,,20.0,12.0,30.08,,,,,,,,,,,,,,,,7/8 Mostly Cloudy,20000.0,,FEW,5000,BKN,20000.0,,,,
KRDR,07-28-2005,16:00,METAR,,300,4.0,,,9999.0,,18.0,13.0,30.08,,,,,,,,,,,,,,,,7/8 Mostly Cloudy,10000.0,,FEW,6900,SCT,9900.0,BKN,20000.0,,
KRDR,07-28-2005,15:00,METAR,,320,7.0,,,9999.0,,17.0,13.0,30.08,,,,,,,,,,,,,,,,7/8 Mostly Cloudy,10000.0,,SCT,6900,BKN,9900.0,,,,
KRDR,07-28-2005,14:00,METAR,,320,8.0,,,9999.0,,15.0,12.0,30.07,,,,,,,,,,,,,,,,7/8 Mostly Cloudy,6000.0,,FEW,4500,SCT,5900.0,BKN,9900.0,,
KRDR,07-28-2005,13:00,METAR,,310,6.0,,,9999.0,,14.0,13.0,30.05,,,,,,,,,,,,,,,,7/8 Mostly Cloudy,16000.0,,SCT,9900,BKN,16000.0,,,,
KRDR,07-28-2005,12:30,METAR,,300,4.0,,,9999.0,,13.0,13.0,30.04,,,,,,,,,,,,,,,,4/8 Partly Cloudy,72000.0,,FEW,12000,SCT,20000.0,,,,
KRDR,07-27-2005,21:00,METAR,,,2.0,,,9999.0,Light Rain Showers,17.0,13.0,30.05,,,,,80,,,,,,,,.04 IN,,,8/8 Overcast,4900.0,,FEW,3000,SCT,5000.0,BKN,6900.0,OVC,20000.0
KRDR,07-27-2005,20:00,METAR,,300,2.0,,,9999.0,Light Rain Showers,16.0,13.0,30.07,,,,,80,,,,,,,,,,,8/8 Overcast,9000.0,,FEW,2500,SCT,5900.0,BKN,8900.0,OVC,20000.0
KRDR,07-27-2005,19:40,METAR,,300,5.0,,,9999.0,,16.0,13.0,30.08,,,,,,,,,,,,,,,,8/8 Overcast,4400.0,,FEW,2500,SCT,4500.0,BKN,7900.0,OVC,20000.0
KRDR,07-27-2005,19:00,METAR,,,5.0,,,9999.0,Light Rain Showers,16.0,14.0,30.05,,,,,80,,,,,,,,,,,8/8 Overcast,4400.0,,FEW,2500,SCT,4500.0,BKN,7900.0,OVC,20000.0
KRDR,07-27-2005,17:44,METAR,,300,5.0,,,9999.0,Light Rain Showers,18.0,12.0,30.07,,,,,80,,,,,,,,,,,8/8 Overcast,6000.0,,FEW,4500,BKN,5900.0,OVC,20000.0,,
KRDR,07-27-2005,16:37,METAR,,310,8.0,,,9999.0,Light Rain Showers,19.0,13.0,30.06,,,,,80,,,,,,,,,,,8/8 Overcast,20000.0,,FEW,7900,OVC,20000.0,,,,
KRDR,07-27-2005,16:00,METAR,,300,9.0,,,9999.0,,19.0,12.0,30.06,,,,,,,,,,,,,,,,8/8 Overcast,20000.0,,FEW,7900,OVC,20000.0,,,,
KRDR,07-27-2005,15:00,METAR,,280,7.0,,,9999.0,,19.0,12.0,30.05,,,,,,,,,,,,,,,,7/8 Mostly Cloudy,20000.0,,FEW,7900,BKN,20000.0,,,,
KRDR,07-27-2005,14:00,METAR,,280,9.0,,,9999.0,,17.0,11.0,30.05,,,,,,,,,,,,,,,,7/8 Mostly Cloudy,20000.0,,FEW,7900,BKN,20000.0,,,,
KRDR,07-27-2005,13:00,METAR,,250,11.0,,,9999.0,,15.0,11.0,30.04,,,,,,,,,,,,,,,,7/8 Mostly Cloudy,20000.0,,FEW,9900,BKN,20000.0,,,,
KRDR,07-27-2005,12:30,METAR,,240,9.0,,,9999.0,,14.0,11.0,30.04,,,,,,,,,,,,,,,,7/8 Mostly Cloudy,20000.0,,FEW,9900,BKN,20000.0,,,,
KRDR,07-26-2005,21:00,METAR,,330,7.0,,,9999.0,,22.0,9.0,30.15,,,,,,,,,,,,,,,,7/8 Mostly Cloudy,20000.0,,SCT,5000,BKN,20000.0,,,,
KRDR,07-26-2005,20:00,METAR,,300,6.0,,,9999.0,,20.0,8.0,30.16,,,,,,,,,,,,,,,,7/8 Mostly Cloudy,12000.0,,SCT,5000,BKN,12000.0,BKN,20000.0,,
KRDR,07-26-2005,19:00,METAR,,330,8.0,,,9999.0,,20.0,10.0,30.16,,,,,,,,,,,,,,,,7/8 Mostly Cloudy,20000.0,,SCT,5000,BKN,20000.0,,,,
KRDR,07-26-2005,18:00,METAR,,330,10.0,,,9999.0,,19.0,8.0,30.17,,,,,,,,,,,,,,,,7/8 Mostly Cloudy,4900.0,,BKN,5000,BKN,20000.0,,,,
KRDR,07-26-2005,17:00,METAR,,320,9.0,,,9999.0,,17.0,8.0,30.18,,,,,,,,,,,,,,,,7/8 Mostly Cloudy,3400.0,,BKN,3500,BKN,20000.0,,,,
KRDR,07-26-2005,16:00,METAR,,330,12.0,18.0,,9999.0,,17.0,9.0,30.17,,,,,,,,,,,,,,,,4/8 Partly Cloudy,72000.0,,FEW,3500,SCT,20000.0,,,,
KRDR,07-26-2005,15:00,METAR,,340,11.0,,,9999.0,,16.0,9.0,30.16,,,,,,,,,,,,,,,,2/8 Mostly Clear,72000.0,,FEW,2500,SCT,20000.0,,,,
KRDR,07-26-2005,14:00,METAR,,330,9.0,,,9999.0,,14.0,10.0,30.16,,,,,,,,,,,,,,,,4/8 Partly Cloudy,72000.0,,FEW,12000,SCT,20000.0,,,,
KRDR,07-26-2005,13:00,METAR,,310,7.0,,,9999.0,,12.0,10.0,30.14,,,,,,,,,,,,,,,,2/8 Mostly Clear,72000.0,,FEW,20000,,,,,,
KRDR,07-26-2005,12:30,METAR,,300,8.0,,,9999.0,,11.0,9.0,30.14,,,,,,,,,,,,,,,,2/8 Mostly Clear,72000.0,,FEW,20000,,,,,,
KRDR,07-25-2005,21:30,METAR,,320,8.0,,,9999.0,,17.0,15.0,30.00,,,,,,,,,,,,,,,,7/8 Mostly Cloudy,6000.0,,FEW,2000,FEW,4000.0,SCT,5900.0,BKN,9900.0
KRDR,07-25-2005,21:00,METAR,,320,11.0,,,9999.0,Light Rain Showers,16.0,16.0,30.01,,,,,80,,,,,,,,.02 IN,,,8/8 Overcast,3900.0,,FEW,2000,SCT,4000.0,BKN,5900.0,OVC,9900.0
KRDR,07-25-2005,20:00,METAR,,320,11.0,,,9999.0,Light Rain Showers,17.0,15.0,30.01,,,,,80,,,,,,,,,,,8/8 Overcast,3900.0,,FEW,2000,SCT,4000.0,BKN,5900.0,OVC,9900.0
KRDR,07-25-2005,19:00,METAR,,340,9.0,,,9999.0,Light Rain Showers,17.0,16.0,30.03,,,,,80,,,,,,,,,,,8/8 Overcast,5500.0,,FEW,4000,BKN,5400.0,OVC,9900.0,,
KRDR,07-25-2005,18:00,METAR,,360,4.0,,,9999.0,Light Rain Showers,17.0,14.0,30.04,,,,,80,,,,,,,,,.03 IN,,8/8 Overcast,6000.0,,FEW,5000,BKN,5900.0,OVC,9900.0,,
KRDR,07-25-2005,17:00,METAR,,10,7.0,,,9999.0,Light Rain Showers,16.0,14.0,30.02,,,,,80,,,,,,,,,,,8/8 Overcast,7000.0,,FEW,5000,BKN,6900.0,OVC,11000.0,,
KRDR,07-25-2005,15:35,METAR,,340,8.0,,,9999.0,Light Rain Showers,16.0,14.0,30.01,,,,,80,,,,,,,,,,,8/8 Overcast,3900.0,,FEW,3000,SCT,4000.0,BKN,6900.0,OVC,20000.0
KRDR,07-25-2005,15:08,SPECI,,350,10.0,,,4800.0,Thunderstorm with Rain or Snow/Light Rain Showers,16.0,14.0,29.99,,,,,95,80,,,,,,,,,,8/8 Overcast,7000.0,,SCT,4000,BKN,6900.0,OVC,20000.0,,
KRDR,07-25-2005,15:00,METAR,,330,8.0,,,9999.0,Thunderstorm,17.0,12.0,29.99,,,,,17,,,,,,,,,,,8/8 Overcast,7000.0,,FEW,4000,BKN,6900.0,OVC,20000.0,,
KRDR,07-25-2005,14:40,SPECI,,340,8.0,,,9999.0,Thunderstorm,17.0,12.0,29.99,,,,,17,,,,,,,,,,,7/8 Mostly Cloudy,12000.0,,FEW,4000,BKN,12000.0,BKN,22000.0,,
KRDR,07-25-2005,14:00,METAR,,360,9.0,,,9999.0,,17.0,12.0,29.99,,,,,,,,,,,,,,,,8/8 Overcast,12000.0,,SCT,5000,BKN,12000.0,OVC,20000.0,,
KRDR,07-25-2005,13:00,METAR,,350,13.0,,,9999.0,,16.0,14.0,29.96,,,,,,,,,,,,,,,.4 IN,7/8 Mostly Cloudy,12000.0,,FEW,5000,BKN,12000.0,BKN,20000.0,,
KRDR,07-25-2005,12:30,METAR,,340,13.0,,,9999.0,,16.0,14.0,29.95,,,,,,,,,,,,,,,,7/8 Mostly Cloudy,12000.0,,BKN,12000,BKN,22000.0,,,,
KRDR,07-22-2005,21:00,METAR,,,4.0,,,9999.0,,28.0,12.0,30.12,,,,,,,,,,,,,,,,4/8 Partly Cloudy,72000.0,,SCT,20000,,,,,,
KRDR,07-22-2005,20:00,METAR,,,6.0,,,9999.0,,27.0,11.0,30.14,,,,,,,,,,,,,,,,2/8 Mostly Clear,72000.0,,FEW,20000,,,,,,
KRDR,07-22-2005,19:00,METAR,,50,6.0,,,9999.0,,27.0,11.0,30.16,,,,,,,,,,,,,,,,2/8 Mostly Clear,72000.0,,FEW,20000,,,,,,
KRDR,07-22-2005,18:00,METAR,,50,5.0,,,9999.0,,26.0,12.0,30.16,,,,,,,,,,,,,,,,2/8 Mostly Clear,72000.0,,FEW,20000,,,,,,
KRDR,07-22-2005,17:00,METAR,,60,7.0,12.0,,9999.0,,25.0,13.0,30.17,,,,,,,,,,,,,,,,2/8 Mostly Clear,72000.0,,FEW,12000,,,,,,
KRDR,07-22-2005,16:00,METAR,,,5.0,,,9999.0,,24.0,13.0,30.19,,,,,,,,,,,,,,,,2/8 Mostly Clear,72000.0,,FEW,12000,,,,,,
KRDR,07-22-2005,15:00,METAR,,20,5.0,,,9999.0,,21.0,14.0,30.19,,,,,,,,,,,,,,,,2/8 Mostly Clear,72000.0,,FEW,12000,,,,,,
KRDR,07-22-2005,14:00,METAR,,360,5.0,,,9999.0,,20.0,14.0,30.19,,,,,,,,,,,,,,,,2/8 Mostly Clear,72000.0,,FEW,12000,,,,,,
KRDR,07-22-2005,13:00,METAR,,360,6.0,,,9999.0,,17.0,14.0,30.18,,,,,,,,,,,,,,,,2/8 Mostly Clear,72000.0,,FEW,12000,,,,,,
KRDR,07-21-2005,21:00,METAR,,120,6.0,,,9999.0,,24.0,10.0,30.09,,,,,,,,,,,,,,,,7/8 Mostly Cloudy,12000.0,,SCT,7900,BKN,12000.0,BKN,25000.0,,
KRDR,07-21-2005,20:00,METAR,,100,5.0,,,9999.0,,24.0,9.0,30.09,,,,,,,,,,,,,,,,7/8 Mostly Cloudy,12000.0,,SCT,7900,BKN,12000.0,BKN,25000.0,,
KRDR,07-21-2005,19:00,METAR,,,6.0,,,9999.0,,24.0,11.0,30.12,,,,,,,,,,,,,,,,7/8 Mostly Cloudy,12000.0,,FEW,8900,SCT,12000.0,BKN,25000.0,,
KRDR,07-21-2005,18:00,METAR,,110,2.0,,,9999.0,,24.0,10.0,30.14,,,,,,,,,,,,,,,,4/8 Partly Cloudy,72000.0,,FEW,8900,FEW,12000.0,SCT,25000.0,,
KRDR,07-21-2005,17:00,METAR,,,3.0,,,9999.0,,23.0,12.0,30.13,,,,,,,,,,,,,,,,4/8 Partly Cloudy,72000.0,,FEW,12000,SCT,25000.0,,,,
KRDR,07-21-2005,16:00,METAR,,120,5.0,,,9999.0,,22.0,12.0,30.13,,,,,,,,,,,,,,,,4/8 Partly Cloudy,72000.0,,SCT,25000,,,,,,
KRDR,07-21-2005,15:00,METAR,,100,7.0,,,9999.0,,20.0,13.0,30.11,,,,,,,,,,,,,,,,2/8 Mostly Clear,72000.0,,FEW,25000,,,,,,
KRDR,07-21-2005,14:00,METAR,,,4.0,,,9999.0,,18.0,12.0,30.12,,,,,,,,,,,,,,,,2/8 Mostly Clear,72000.0,,FEW,25000,,,,,,
KRDR,07-21-2005,13:00,METAR,,,4.0,,,9999.0,,16.0,11.0,30.12,,,,,,,,,,,,,,,,2/8 Mostly Clear,72000.0,,FEW,4000,,,,,,
KRDR,07-21-2005,12:30,METAR,,340,3.0,,,9999.0,,14.0,12.0,30.12,,,,,,,,,,,,,,,,2/8 Mostly Clear,72000.0,,FEW,4000,,,,,,
KRDR,07-20-2005,21:00,METAR,,320,8.0,,,9999.0,,26.0,13.0,29.99,,,,,,,,,,,,,,,,4/8 Partly Cloudy,72000.0,,FEW,6900,SCT,9900.0,,,,
KRDR,07-20-2005,20:00,METAR,,300,9.0,,,9999.0,,26.0,13.0,29.98,,,,,,,,,,,,,,,,4/8 Partly Cloudy,72000.0,,FEW,6900,SCT,9900.0,,,,
KRDR,07-20-2005,19:00,METAR,,340,7.0,,,9999.0,,26.0,13.0,29.98,,,,,,,,,,,,,,,,7/8 Mostly Cloudy,10000.0,,FEW,6900,BKN,9900.0,,,,
KRDR,07-20-2005,18:00,METAR,,340,9.0,,,9999.0,,25.0,13.0,29.96,,,,,,,,,,,,,,.01 IN,,7/8 Mostly Cloudy,10000.0,,FEW,6900,BKN,9900.0,,,,
KRDR,07-20-2005,17:00,METAR,,320,8.0,,,9999.0,,25.0,11.0,29.95,,,,,,,,,,,,,,,,4/8 Partly Cloudy,72000.0,,FEW,6900,SCT,9900.0,,,,
KRDR,07-20-2005,16:00,METAR,,320,9.0,,,9999.0,,24.0,13.0,29.94,,,,,,,,,,,,,,,,7/8 Mostly Cloudy,10000.0,,FEW,6900,BKN,9900.0,,,,
KRDR,07-20-2005,15:00,METAR,,320,7.0,,,9999.0,,23.0,13.0,29.91,,,,,,,,,,,,,,,,4/8 Partly Cloudy,72000.0,,FEW,7900,SCT,9900.0,,,,
KRDR,07-20-2005,14:00,METAR,,300,6.0,,,9999.0,,21.0,13.0,29.89,,,,,,,,,,,,,,,,2/8 Mostly Clear,72000.0,,FEW,5000,FEW,7900.0,,,,
KRDR,07-20-2005,13:00,METAR,,310,6.0,,,9999.0,,18.0,13.0,29.86,,,,,,,,,,,,,,,,2/8 Mostly Clear,72000.0,,FEW,5000,FEW,7900.0,,,,
KRDR,07-20-2005,12:30,METAR,,310,4.0,,,9999.0,,17.0,14.0,29.85,,,,,,,,,,,,,,,,2/8 Mostly Clear,72000.0,,FEW,7900,FEW,25000.0,,,,
KRDR,07-19-2005,21:00,METAR,,170,17.0,21.0,,9999.0,,31.0,21.0,29.64,,,,,,,,,,,,,,,,Clear,72000.0,,,73000,,,,,,
KRDR,07-19-2005,20:00,METAR,,160,15.0,21.0,,9999.0,,30.0,20.0,29.66,,,,,,,,,,,,,,,,Clear,72000.0,,,73000,,,,,,
KRDR,07-19-2005,19:00,METAR,,170,14.0,20.0,,9999.0,,28.0,18.0,29.68,,,,,,,,,,,,,,,,Clear,72000.0,,,73000,,,,,,
KRDR,07-19-2005,18:00,METAR,,150,16.0,21.0,,9999.0,,26.0,17.0,29.71,,,,,,,,,,,,,,,,Clear,72000.0,,,73000,,,,,,
KRDR,07-19-2005,17:00,METAR,,170,17.0,22.0,,9999.0,,24.0,16.0,29.73,,,,,,,,,,,,,,,,Clear,72000.0,,,73000,,,,,,
KRDR,07-19-2005,16:00,METAR,,150,13.0,,,9999.0,,23.0,16.0,29.75,,,,,,,,,,,,,,,,Clear,72000.0,,,73000,,,,,,
KRDR,07-19-2005,15:00,METAR,,140,13.0,20.0,,9999.0,,20.0,14.0,29.79,,,,,,,,,,,,,,,,Clear,72000.0,,,73000,,,,,,
KRDR,07-19-2005,14:00,METAR,,140,15.0,20.0,,9999.0,,18.0,13.0,29.83,,,,,,,,,,,,,,,,Clear,72000.0,,,73000,,,,,,
KRDR,07-19-2005,13:00,METAR,,140,10.0,,,9999.0,,15.0,13.0,29.85,,,,,,,,,,,,,,,,Clear,72000.0,,,73000,,,,,,
KRDR,07-19-2005,12:30,METAR,,140,10.0,,,9999.0,,14.0,12.0,29.86,,,,,,,,,,,,,,,,Clear,72000.0,,,73000,,,,,,
KRDR,07-18-2005,21:30,METAR,,300,10.0,18.0,,9999.0,,19.0,12.0,29.87,,,,,,,,,,,,,,,,7/8 Mostly Cloudy,3900.0,,BKN,4000,BKN,9900.0,,,,
KRDR,07-18-2005,21:00,METAR,,310,13.0,18.0,,9999.0,,19.0,11.0,29.87,,,,,,,,,,,,,,,,8/8 Overcast,3700.0,,FEW,3000,BKN,3800.0,OVC,9900.0,,
KRDR,07-18-2005,20:00,METAR,,300,12.0,,,9999.0,,19.0,12.0,29.86,,,,,,,,,,,,,,,,8/8 Overcast,3700.0,,FEW,3000,BKN,3800.0,OVC,9900.0,,
KRDR,07-18-2005,19:00,METAR,,300,12.0,,,9999.0,,18.0,11.0,29.85,,,,,,,,,,,,,,,,8/8 Overcast,3700.0,,FEW,3000,SCT,3800.0,OVC,9900.0,,
KRDR,07-18-2005,18:00,METAR,,300,8.0,,,9999.0,,17.0,12.0,29.84,,,,,,,,,,,,,,IN,,8/8 Overcast,3400.0,,FEW,2700,SCT,3500.0,OVC,9900.0,,
KRDR,07-18-2005,17:24,SPECI,,320,11.0,,,9999.0,Drizzle,16.0,13.0,29.83,,,,,51,,,,,,,,,,,7/8 Mostly Cloudy,3400.0,,FEW,2500,SCT,3500.0,BKN,9900.0,,
KRDR,07-18-2005,17:00,METAR,,290,14.0,20.0,,9999.0,,18.0,13.0,29.82,,,,,,,,,,,,,,,,7/8 Mostly Cloudy,3400.0,,FEW,2500,SCT,3500.0,BKN,9900.0,,
KRDR,07-18-2005,16:20,METAR,,310,15.0,20.0,,9999.0,Precipitation in the Vicinity,16.0,13.0,29.80,,,,,16,,,,,,,,,,,8/8 Overcast,3900.0,,FEW,2500,BKN,4000.0,OVC,9900.0,,
KRDR,07-18-2005,16:00,METAR,,290,14.0,21.0,,9999.0,,17.0,12.0,29.78,,,,,,,,,,,,,,,,8/8 Overcast,2500.0,,BKN,2500,OVC,9900.0,,,,
KRDR,07-18-2005,15:45,METAR,,290,13.0,21.0,,9999.0,,17.0,11.0,29.78,,,,,,,,,,,,,,,,8/8 Overcast,2400.0,,BKN,2400,OVC,9900.0,,,,
KRDR,07-18-2005,15:00,METAR,,290,16.0,21.0,290/26KTS,9999.0,,18.0,11.0,29.75,,,,,,,,,,,,,,,,7/8 Mostly Cloudy,3400.0,,FEW,2000,SCT,3500.0,BKN,9900.0,BKN,20000.0
KRDR,07-18-2005,14:00,METAR,,280,14.0,22.0,,9999.0,,17.0,12.0,29.74,,,,,,,,,,,,,,,,7/8 Mostly Cloudy,3400.0,,SCT,2000,SCT,3500.0,SCT,6400.0,BKN,9900.0
KRDR,07-18-2005,13:00,METAR,,290,20.0,,,9999.0,,16.0,12.0,29.72,,,,,,,,,,,,,,,,7/8 Mostly Cloudy,2000.0,,BKN,2000,BKN,7900.0,BKN,20000.0,,
KRDR,07-18-2005,12:30,METAR,,280,13.0,,,9999.0,,16.0,13.0,29.70,,,,,,,,,,,,,,,,8/8 Overcast,2300.0,,BKN,2300,OVC,4000.0,,,,
KRDR,07-15-2005,21:30,METAR,,320,5.0,,,9999.0,Cloud Development Not Observable,28.0,10.0,30.00,,,,,0,0,0,,,,,,,,,4/8 Partly Cloudy,72000.0,,SCT,25000,,,,,,
KRDR,07-15-2005,21:00,METAR,,290,4.0,,,9999.0,Cloud Development Not Observable,28.0,10.0,30.01,,,,,0,0,0,,,,,,,,,4/8 Partly Cloudy,72000.0,,SCT,25000,,,,,,
KRDR,07-15-2005,20:00,METAR,,330,4.0,,,9999.0,Cloud Development Not Observable,28.0,12.0,30.02,,,,,0,0,0,,,,,,,,,4/8 Partly Cloudy,72000.0,,SCT,25000,,,,,,
KRDR,07-15-2005,19:00,METAR,,320,6.0,,,9999.0,Cloud Development Not Observable,28.0,10.0,30.02,,,,,0,0,0,,,,,,,,,4/8 Partly Cloudy,72000.0,,SCT,25000,,,,,,
KRDR,07-15-2005,18:00,METAR,,340,9.0,,,9999.0,Cloud Development Not Observable,28.0,10.0,30.03,,,,,0,0,0,,,,,,,,,4/8 Partly Cloudy,72000.0,,SCT,25000,,,,,,
KRDR,07-15-2005,17:00,METAR,,330,9.0,,,9999.0,Cloud Development Not Observable,27.0,11.0,30.04,,,,,0,0,0,,,,,,,,,2/8 Mostly Clear,72000.0,,FEW,25000,,,,,,
KRDR,07-15-2005,16:00,METAR,,340,7.0,,,9999.0,Cloud Development Not Observable,26.0,12.0,30.03,,,,,0,0,0,,,,,,,,,4/8 Partly Cloudy,72000.0,,SCT,25000,,,,,,
KRDR,07-15-2005,15:00,METAR,,310,7.0,,,9999.0,,25.0,15.0,30.04,,,,,,,,,,,,,,,,2/8 Mostly Clear,72000.0,,FEW,25000,,,,,,
KRDR,07-15-2005,14:00,METAR,,300,4.0,,,9999.0,Cloud Development Not Observable,22.0,16.0,30.04,,,,,0,0,0,,,,,,,,,2/8 Mostly Clear,72000.0,,FEW,25000,,,,,,
KRDR,07-15-2005,13:00,METAR,,280,4.0,,,9999.0,Cloud Development Not Observable,20.0,15.0,30.03,,,,,0,0,0,,,,,,,,,2/8 Mostly Clear,72000.0,,FEW,25000,,,,,,
KRDR,07-15-2005,12:30,METAR,,290,4.0,,,9999.0,Cloud Development Not Observable,19.0,15.0,30.03,,,,,0,0,0,,,,,,,,,2/8 Mostly Clear,72000.0,,FEW,25000,,,,,,
KRDR,07-14-2005,21:30,METAR,,330,9.0,,,9999.0,Cloud Development Not Observable,28.0,23.0,29.97,,,,,0,0,0,,,,,,,,,7/8 Mostly Cloudy,10000.0,,SCT,5000,BKN,9900.0,BKN,22000.0,,
KRDR,07-14-2005,21:00,METAR,,340,10.0,,,9999.0,Cloud Development Not Observable,28.0,22.0,29.96,,,,,0,0,0,,,,,,,,,7/8 Mostly Cloudy,15000.0,,SCT,5000,BKN,15000.0,BKN,22000.0,,
KRDR,07-14-2005,20:00,METAR,,190,11.0,,,9999.0,Cloud Development Not Observable,32.0,20.0,29.93,,,,,0,0,0,,,,,,,,,7/8 Mostly Cloudy,15000.0,,FEW,5000,SCT,15000.0,BKN,22000.0,,
KRDR,07-14-2005,19:00,METAR,,160,8.0,,,9999.0,Cloud Development Not Observable,29.0,22.0,29.93,,,,,0,0,0,,,,,,,,,7/8 Mostly Cloudy,22000.0,,SCT,12000,BKN,22000.0,,,,
KRDR,07-14-2005,18:00,METAR,,170,11.0,,,9999.0,Cloud Development Not Observable,30.0,22.0,29.94,,,,,0,0,0,,,,,,,,,7/8 Mostly Cloudy,22000.0,,SCT,12000,BKN,22000.0,,,,
KRDR,07-14-2005,17:00,METAR,,210,11.0,,,9999.0,Cloud Development Not Observable,28.0,21.0,29.98,,,,,0,0,0,,,,,,,,,7/8 Mostly Cloudy,22000.0,,SCT,12000,BKN,22000.0,,,,
KRDR,07-14-2005,16:00,METAR,,170,12.0,,,9999.0,Cloud Development Not Observable,27.0,21.0,29.95,,,,,0,0,0,,,,,,,,,7/8 Mostly Cloudy,22000.0,,SCT,12000,BKN,22000.0,,,,
KRDR,07-14-2005,15:00,METAR,,170,8.0,,,9999.0,Cloud Development Not Observable,25.0,20.0,29.95,,,,,0,0,0,,,,,,,,,7/8 Mostly Cloudy,12000.0,,BKN,12000,BKN,22000.0,,,,
KRDR,07-14-2005,14:00,METAR,,150,7.0,,,9999.0,Cloud Development Not Observable,23.0,19.0,29.96,,,,,0,0,0,,,,,,,,,7/8 Mostly Cloudy,12000.0,,BKN,12000,BKN,22000.0,,,,
KRDR,07-14-2005,13:00,METAR,,150,5.0,,,9999.0,Cloud Development Not Observable,22.0,19.0,29.99,,,,,0,0,0,,,,,,,,,7/8 Mostly Cloudy,22000.0,,SCT,12000,BKN,22000.0,,,,
KRDR,07-14-2005,12:30,METAR,,160,4.0,,,9999.0,Cloud Development Not Observable,21.0,19.0,30.01,,,,,0,0,0,,,,,,,,,7/8 Mostly Cloudy,22000.0,,SCT,12000,BKN,22000.0,,,,
KRDR,07-13-2005,21:30,METAR,,130,7.0,,,9999.0,Cloud Development Not Observable,31.0,16.0,30.05,,,,,0,0,0,,,,,,,,,Clear,72000.0,,,73000,,,,,,
KRDR,07-13-2005,21:00,METAR,,150,9.0,,,9999.0,Cloud Development Not Observable,31.0,17.0,30.06,,,,,0,0,0,,,,,,,,,Clear,72000.0,,,73000,,,,,,
KRDR,07-13-2005,20:00,METAR,,160,6.0,,,9999.0,Cloud Development Not Observable,30.0,18.0,30.08,,,,,0,0,0,,,,,,,,,Clear,72000.0,,,73000,,,,,,
KRDR,07-13-2005,19:00,METAR,,140,10.0,,,9999.0,Cloud Development Not Observable,30.0,18.0,30.09,,,,,0,0,0,,,,,,,,,Clear,72000.0,,,73000,,,,,,
KRDR,07-13-2005,18:00,METAR,,170,6.0,,,9999.0,Cloud Development Not Observable,29.0,18.0,30.11,,,,,0,0,0,,,,,,,,,Clear,72000.0,,,73000,,,,,,
KRDR,07-13-2005,17:00,METAR,,180,6.0,,,9999.0,Cloud Development Not Observable,29.0,19.0,30.12,,,,,0,0,0,,,,,,,,,Clear,72000.0,,,73000,,,,,,
KRDR,07-13-2005,16:00,METAR,,200,7.0,,,9999.0,Cloud Development Not Observable,28.0,19.0,30.13,,,,,0,0,0,,,,,,,,,Clear,72000.0,,,73000,,,,,,
KRDR,07-13-2005,15:00,METAR,,190,7.0,,,9999.0,Cloud Development Not Observable,27.0,19.0,30.13,,,,,0,0,0,,,,,,,,,Clear,72000.0,,,73000,,,,,,
KRDR,07-13-2005,14:00,METAR,,200,5.0,,,9999.0,Cloud Development Not Observable,25.0,19.0,30.15,,,,,0,0,0,,,,,,,,,Clear,72000.0,,,73000,,,,,,
KRDR,07-13-2005,13:00,METAR,,190,4.0,,,9999.0,Cloud Development Not Observable,23.0,20.0,30.15,,,,,0,0,0,,,,,,,,,Clear,72000.0,,,73000,,,,,,
KRDR,07-13-2005,12:30,METAR,,190,5.0,,,9999.0,Cloud Development Not Observable,21.0,19.0,30.14,,,,,0,0,0,,,,,,,,,Clear,72000.0,,,73000,,,,,,
KRDR,07-12-2005,21:30,METAR,,320,4.0,,,9999.0,Cloud Development Not Observable,30.0,15.0,30.14,,,,,0,0,0,,,,,,,,,2/8 Mostly Clear,72000.0,,FEW,3000,,,,,,
KRDR,07-12-2005,21:00,METAR,,310,5.0,,,9999.0,Cloud Development Not Observable,30.0,16.0,30.14,,,,,0,0,0,,,,,,,,,2/8 Mostly Clear,72000.0,,FEW,3000,,,,,,
KRDR,07-12-2005,20:00,METAR,,,4.0,,,9999.0,Cloud Development Not Observable,29.0,15.0,30.14,,,,,0,0,0,,,,,,,,,2/8 Mostly Clear,72000.0,,FEW,3000,,,,,,
KRDR,07-12-2005,19:00,METAR,,,6.0,,,9999.0,Cloud Development Not Observable,29.0,16.0,30.14,,,,,0,0,0,,,,,,,,,2/8 Mostly Clear,72000.0,,FEW,3000,,,,,,
KRDR,07-12-2005,18:00,METAR,,,5.0,,,9999.0,Cloud Development Not Observable,28.0,15.0,30.14,,,,,0,0,0,,,,,,,,,2/8 Mostly Clear,72000.0,,FEW,3000,,,,,,
KRDR,07-12-2005,17:00,METAR,,,3.0,,,9999.0,Cloud Development Not Observable,28.0,17.0,30.14,,,,,0,0,0,,,,,,,,,2/8 Mostly Clear,72000.0,,FEW,3000,,,,,,
KRDR,07-12-2005,16:00,METAR,,,4.0,,,9999.0,Cloud Development Not Observable,26.0,16.0,30.14,,,,,0,0,0,,,,,,,,,Clear,72000.0,,,73000,,,,,,
KRDR,07-12-2005,15:00,METAR,,,3.0,,,9999.0,Cloud Development Not Observable,26.0,18.0,30.14,,,,,0,0,0,,,,,,,,,Clear,72000.0,,,73000,,,,,,
KRDR,07-12-2005,14:00,METAR,,320,5.0,,,9999.0,Cloud Development Not Observable,24.0,19.0,30.13,,,,,0,0,0,,,,,,,,,Clear,72000.0,,,73000,,,,,,
KRDR,07-12-2005,13:00,METAR,,320,4.0,,,9999.0,Cloud Development Not Observable,22.0,19.0,30.12,,,,,0,0,0,,,,,,,,,Clear,72000.0,,,73000,,,,,,
KRDR,07-12-2005,12:30,METAR,,300,3.0,,,9999.0,Cloud Development Not Observable,21.0,19.0,30.11,,,,,0,0,0,,,,,,,,,Clear,72000.0,,,73000,,,,,,
KRDR,07-11-2005,21:30,METAR,,300,4.0,,,9999.0,Cloud Development Not Observable,27.0,21.0,29.93,,,,,0,0,0,,,,,,,,,7/8 Mostly Cloudy,8000.0,,SCT,3500,BKN,7900.0,BKN,20000.0,,
KRDR,07-11-2005,21:00,METAR,,300,6.0,,,9999.0,Cloud Development Not Observable,27.0,22.0,29.95,,,,,0,0,0,,,,,,,,,7/8 Mostly Cloudy,3400.0,,FEW,1500,SCT,3500.0,BKN,7900.0,BKN,20000.0
KRDR,07-11-2005,20:00,METAR,,280,6.0,,,9999.0,Cloud Development Not Observable,25.0,23.0,29.94,,,,,0,0,0,,,,,,,,,7/8 Mostly Cloudy,3400.0,,SCT,1500,BKN,3500.0,BKN,7900.0,BKN,20000.0
KRDR,07-11-2005,19:00,METAR,,340,4.0,,,9999.0,Cloud Development Not Observable,24.0,24.0,29.93,,,,,0,0,0,,,,,,,,,8/8 Overcast,3000.0,,SCT,1000,BKN,3000.0,BKN,7900.0,OVC,20000.0
KRDR,07-11-2005,18:00,METAR,,30,4.0,,,9999.0,Mist/Cloud Development Not Observable,23.0,23.0,29.91,,,,,10,0,0,,,,,,,.05 IN,,8/8 Overcast,8000.0,,SCT,3000,BKN,7900.0,OVC,20000.0,,
KRDR,07-11-2005,17:50,METAR,,50,4.0,,,9999.0,Mist/Cloud Development Not Observable,23.0,23.0,29.91,,,,,10,0,0,,,,,,,,,8/8 Overcast,8000.0,,SCT,3000,BKN,7900.0,OVC,20000.0,,
KRDR,07-11-2005,17:12,SPECI,,310,5.0,,,8000.0,Light Rain Showers/Mist/Cloud Development Not Observable,23.0,23.0,29.90,,,,,80,10,0,,,,,,,,,8/8 Overcast,3000.0,,BKN,3000,OVC,7900.0,,,,
KRDR,07-11-2005,17:00,METAR,,280,7.0,,,9999.0,Precipitation in the Vicinity/Mist/Cloud Development Not Observable,23.0,22.0,29.90,,,,,10,16,0,,,,,,,,,8/8 Overcast,8000.0,,FEW,3000,BKN,7900.0,OVC,20000.0,,
KRDR,07-11-2005,16:00,METAR,,320,8.0,,,9999.0,Precipitation in the Vicinity/Mist/Cloud Development Not Observable,24.0,22.0,29.88,,,,,10,16,0,,,,,,,,,8/8 Overcast,8000.0,,FEW,4000,BKN,7900.0,OVC,20000.0,,
KRDR,07-11-2005,15:00,METAR,,,3.0,,,9999.0,Mist/Cloud Development Not Observable,24.0,23.0,29.86,,,,,10,0,0,,,,,,.01 IN,,,8/8 Overcast,3900.0,,FEW,2500,SCT,4000.0,BKN,7900.0,OVC,20000.0
KRDR,07-11-2005,14:25,METAR,,260,3.0,,,8000.0,Mist/Cloud Development Not Observable,24.0,23.0,29.85,,,,,10,0,0,,,,,,,,,7/8 Mostly Cloudy,8000.0,,SCT,4000,BKN,7900.0,BKN,20000.0,,
KRDR,07-11-2005,14:09,SPECI,,,2.0,,,8000.0,Thunderstorm with Rain or Snow/Light Rain Showers/Mist,23.0,22.0,29.83,,,,,95,80,10,,,,,,,,,7/8 Mostly Cloudy,3900.0,,FEW,2000,BKN,4000.0,BKN,7900.0,BKN,20000.0
KRDR,07-11-2005,14:00,METAR,,230,2.0,,,9999.0,Mist/Cloud Development Not Observable,24.0,22.0,29.85,,,,,10,0,0,,,,,,,,,7/8 Mostly Cloudy,3900.0,,FEW,2000,SCT,4000.0,BKN,7900.0,BKN,20000.0
KRDR,07-11-2005,13:00,METAR,,140,2.0,,,6400.0,Mist/Cloud Development Not Observable,23.0,23.0,29.84,,,,,10,0,0,,,,,,,,.13 IN,7/8 Mostly Cloudy,3900.0,,FEW,2000,SCT,4000.0,BKN,7900.0,BKN,20000.0
KRDR,07-11-2005,12:30,METAR,,160,3.0,,,4800.0,Mist/Cloud Development Not Observable,22.0,22.0,29.83,,,,,10,0,0,,,,,,,,,7/8 Mostly Cloudy,3900.0,,FEW,1800,SCT,4000.0,BKN,7900.0,BKN,20000.0
KRDR,07-08-2005,21:30,METAR,,,3.0,,,9999.0,Cloud Development Not Observable,28.0,20.0,29.91,,,,,0,0,0,,,,,,,,,7/8 Mostly Cloudy,12000.0,,FEW,2500,BKN,12000.0,BKN,25000.0,,
KRDR,07-08-2005,21:00,METAR,,,5.0,,,9999.0,Cloud Development Not Observable,29.0,21.0,29.91,,,,,0,0,0,,,,,,,,,7/8 Mostly Cloudy,12000.0,,FEW,2500,BKN,12000.0,BKN,25000.0,,
KRDR,07-08-2005,20:00,METAR,,190,7.0,,,9999.0,Cloud Development Not Observable,29.0,22.0,29.91,,,,,0,0,0,,,,,,,,,7/8 Mostly Cloudy,12000.0,,FEW,2500,SCT,12000.0,BKN,25000.0,,
KRDR,07-08-2005,19:00,METAR,,,3.0,,,9999.0,Cloud Development Not Observable,28.0,22.0,29.91,,,,,0,0,0,,,,,,,,,7/8 Mostly Cloudy,25000.0,,FEW,2500,BKN,25000.0,,,,
KRDR,07-08-2005,18:00,METAR,,,2.0,,,9999.0,Cloud Development Not Observable,26.0,20.0,29.92,,,,,0,0,0,,,,,,,,,7/8 Mostly Cloudy,25000.0,,FEW,2300,BKN,25000.0,,,,
KRDR,07-08-2005,17:00,METAR,,,0.0,,,9999.0,Cloud Development Not Observable,25.0,20.0,29.92,,,,,0,0,0,,,,,,,,,7/8 Mostly Cloudy,25000.0,,FEW,2300,BKN,25000.0,,,,
KRDR,07-08-2005,16:00,METAR,,,4.0,,,9999.0,Cloud Development Not Observable,24.0,19.0,29.91,,,,,0,0,0,,,,,,,,,7/8 Mostly Cloudy,20000.0,,FEW,3000,BKN,20000.0,,,,
KRDR,07-08-2005,15:00,METAR,,,2.0,,,9999.0,Cloud Development Not Observable,23.0,19.0,29.91,,,,,0,0,0,,,,,,,,,7/8 Mostly Cloudy,20000.0,,BKN,20000,,,,,,
KRDR,07-08-2005,14:00,METAR,,,3.0,,,9999.0,Cloud Development Not Observable,21.0,20.0,29.91,,,,,0,0,0,,,,,,,,,7/8 Mostly Cloudy,25000.0,,FEW,2000,BKN,25000.0,,,,
KRDR,07-08-2005,13:00,METAR,,170,5.0,,,9999.0,Cloud Development Not Observable,19.0,19.0,29.90,,,,,0,0,0,,,,,,,,,8/8 Overcast,25000.0,,FEW,2000,OVC,25000.0,,,,
KRDR,07-08-2005,12:33,SPECI,,,3.0,,,9999.0,Cloud Development Not Observable,19.0,19.0,29.89,,,,,0,0,0,,,,,,,,,8/8 Overcast,25000.0,,FEW,2000,OVC,25000.0,,,,
KRDR,07-07-2005,21:37,SPECI,,170,15.0,23.0,,9999.0,Cloud Development Not Observable,30.0,20.0,29.87,,,,,0,0,0,,,,,,,,,4/8 Partly Cloudy,72000.0,,FEW,2000,SCT,25000.0,,,,
KRDR,07-07-2005,21:00,METAR,,160,19.0,23.0,,9999.0,Cloud Development Not Observable,30.0,20.0,29.86,,,,,0,0,0,,,,,,,,,4/8 Partly Cloudy,72000.0,,FEW,2000,SCT,25000.0,,,,
KRDR,07-07-2005,20:00,METAR,,160,16.0,24.0,,9999.0,Cloud Development Not Observable,30.0,20.0,29.89,,,,,0,0,0,,,,,,,,,4/8 Partly Cloudy,72000.0,,FEW,2000,SCT,25000.0,,,,
KRDR,07-07-2005,19:00,METAR,,170,18.0,25.0,,9999.0,Cloud Development Not Observable,29.0,20.0,29.89,,,,,0,0,0,,,,,,,,,7/8 Mostly Cloudy,25000.0,,FEW,5000,BKN,25000.0,,,,
KRDR,07-07-2005,18:00,METAR,,150,16.0,,,9999.0,Cloud Development Not Observable,29.0,20.0,29.91,,,,,0,0,0,,,,,,,,,7/8 Mostly Cloudy,25000.0,,FEW,12000,BKN,25000.0,,,,
KRDR,07-07-2005,17:00,METAR,,160,12.0,,,9999.0,Cloud Development Not Observable,27.0,20.0,29.92,,,,,0,0,0,,,,,,,,,7/8 Mostly Cloudy,25000.0,,FEW,12000,BKN,25000.0,,,,
KRDR,07-07-2005,16:00,METAR,,150,12.0,,,9999.0,Cloud Development Not Observable,25.0,18.0,29.93,,,,,0,0,0,,,,,,,,,7/8 Mostly Cloudy,25000.0,,SCT,12000,BKN,25000.0,,,,
KRDR,07-07-2005,15:00,METAR,,170,10.0,,,9999.0,Cloud Development Not Observable,23.0,18.0,29.94,,,,,0,0,0,,,,,,,,,7/8 Mostly Cloudy,25000.0,,FEW,12000,BKN,25000.0,,,,
KRDR,07-07-2005,14:00,METAR,,170,9.0,,,9999.0,Cloud Development Not Observable,21.0,17.0,29.94,,,,,0,0,0,,,,,,,,,4/8 Partly Cloudy,72000.0,,SCT,25000,,,,,,
KRDR,07-07-2005,13:00,METAR,,170,10.0,,,9999.0,Cloud Development Not Observable,20.0,16.0,29.94,,,,,0,0,0,,,,,,,,,4/8 Partly Cloudy,72000.0,,SCT,25000,,,,,,
KRDR,07-07-2005,12:31,SPECI,,170,11.0,,,9999.0,Cloud Development Not Observable,19.0,16.0,29.95,,,,,0,0,0,,,,,,,,,4/8 Partly Cloudy,72000.0,,SCT,25000,,,,,,
KRDR,07-06-2005,21:30,METAR,,160,11.0,,,9999.0,Cloud Development Not Observable,26.0,16.0,29.99,,,,,0,0,0,,,,,,,,,2/8 Mostly Clear,72000.0,,FEW,12000,,,,,,
KRDR,07-06-2005,21:00,METAR,,160,11.0,,,9999.0,Cloud Development Not Observable,26.0,15.0,30.00,,,,,0,0,0,,,,,,,,,4/8 Partly Cloudy,72000.0,,SCT,12000,,,,,,
KRDR,07-06-2005,20:00,METAR,,170,12.0,,,9999.0,Cloud Development Not Observable,26.0,15.0,30.01,,,,,0,0,0,,,,,,,,,4/8 Partly Cloudy,72000.0,,SCT,12000,,,,,,
KRDR,07-06-2005,19:00,METAR,,150,9.0,,,9999.0,Cloud Development Not Observable,25.0,16.0,30.02,,,,,0,0,0,,,,,,,,,4/8 Partly Cloudy,72000.0,,SCT,12000,SCT,25000.0,,,,
KRDR,07-06-2005,18:00,METAR,,160,9.0,,,9999.0,Cloud Development Not Observable,25.0,17.0,30.03,,,,,0,0,0,,,,,,,,,4/8 Partly Cloudy,72000.0,,FEW,12000,SCT,25000.0,,,,
KRDR,07-06-2005,17:00,METAR,,160,8.0,,,9999.0,Cloud Development Not Observable,23.0,17.0,30.05,,,,,0,0,0,,,,,,,,,4/8 Partly Cloudy,72000.0,,FEW,12000,SCT,25000.0,,,,
KRDR,07-06-2005,16:00,METAR,,180,7.0,,,9999.0,Cloud Development Not Observable,22.0,16.0,30.06,,,,,0,0,0,,,,,,,,,4/8 Partly Cloudy,72000.0,,FEW,5000,SCT,12000.0,SCT,25000.0,,
KRDR,07-06-2005,15:00,METAR,,180,8.0,,,9999.0,Cloud Development Not Observable,22.0,16.0,30.06,,,,,0,0,0,,,,,,,,,4/8 Partly Cloudy,72000.0,,FEW,5000,FEW,12000.0,SCT,25000.0,,
KRDR,07-06-2005,14:00,METAR,,180,9.0,,,9999.0,Cloud Development Not Observable,20.0,15.0,30.07,,,,,0,0,0,,,,,,,,,2/8 Mostly Clear,72000.0,,FEW,5000,FEW,25000.0,,,,
KRDR,07-06-2005,13:00,METAR,,190,7.0,,,9999.0,Cloud Development Not Observable,18.0,15.0,30.07,,,,,0,0,0,,,,,,,,,4/8 Partly Cloudy,72000.0,,FEW,5000,SCT,25000.0,,,,
KRDR,07-06-2005,12:34,SPECI,,170,6.0,,,9999.0,Cloud Development Not Observable,17.0,15.0,30.06,,,,,0,0,0,,,,,,,,,4/8 Partly Cloudy,72000.0,,FEW,5000,SCT,25000.0,,,,
KRDR,07-05-2005,21:30,METAR,,200,1.0,,,9999.0,Cloud Development Not Observable,22.0,12.0,30.12,,,,,0,0,0,,,,,,,,,4/8 Partly Cloudy,72000.0,,SCT,4200,,,,,,
KRDR,07-05-2005,21:00,METAR,,170,6.0,,,9999.0,Cloud Development Not Observable,22.0,12.0,30.12,,,,,0,0,0,,,,,,,,,4/8 Partly Cloudy,72000.0,,SCT,4200,,,,,,
KRDR,07-05-2005,20:00,METAR,,220,1.0,,,9999.0,Cloud Development Not Observable,22.0,12.0,30.13,,,,,0,0,0,,,,,,,,,7/8 Mostly Cloudy,3900.0,,BKN,4000,,,,,,
KRDR,07-05-2005,19:00,METAR,,,3.0,,,9999.0,Cloud Development Not Observable,21.0,12.0,30.14,,,,,0,0,0,,,,,,,,,7/8 Mostly Cloudy,3100.0,,BKN,3200,,,,,,
KRDR,07-05-2005,18:00,METAR,,,5.0,,,9999.0,Cloud Development Not Observable,20.0,11.0,30.15,,,,,0,0,0,,,,,,,,,7/8 Mostly Cloudy,3000.0,,BKN,3000,,,,,,
KRDR,07-05-2005,17:00,METAR,,,3.0,,,9999.0,Cloud Development Not Observable,20.0,12.0,30.15,,,,,0,0,0,,,,,,,,,7/8 Mostly Cloudy,3000.0,,BKN,3000,BKN,25000.0,,,,
KRDR,07-05-2005,16:00,METAR,,,3.0,,,9999.0,Cloud Development Not Observable,18.0,12.0,30.16,,,,,0,0,0,,,,,,,,,7/8 Mostly Cloudy,2000.0,,BKN,2000,BKN,25000.0,,,,
KRDR,07-05-2005,15:00,METAR,,,1.0,,,9999.0,Cloud Development Not Observable,18.0,11.0,30.17,,,,,0,0,0,,,,,,,,,7/8 Mostly Cloudy,25000.0,,SCT,2000,BKN,25000.0,,,,
KRDR,07-05-2005,14:00,METAR,,,0.0,,,9999.0,Cloud Development Not Observable,17.0,12.0,30.17,,,,,0,0,0,,,,,,,,,4/8 Partly Cloudy,72000.0,,FEW,2000,SCT,25000.0,,,,
KRDR,07-05-2005,13:00,METAR,,280,5.0,,,9999.0,Cloud Development Not Observable,14.0,14.0,30.16,,,,,0,0,0,,,,,,,,.19 IN,7/8 Mostly Cloudy,25000.0,,SCT,3300,BKN,25000.0,,,,
KRDR,07-05-2005,12:32,SPECI,,300,5.0,,,9999.0,Cloud Development Not Observable,13.0,13.0,30.16,,,,,0,0,0,,,,,,,,,7/8 Mostly Cloudy,3200.0,,BKN,3300,,,,,,
KRDR,06-30-2005,21:30,METAR,,310,18.0,25.0,,9999.0,Cloud Development Not Observable,20.0,13.0,29.75,,,,,0,0,0,,,,,,,,,7/8 Mostly Cloudy,10000.0,,SCT,5000,BKN,9900.0,BKN,25000.0,,
KRDR,06-30-2005,21:00,METAR,,310,21.0,33.0,320/33KTS,9999.0,Cloud Development Not Observable,20.0,13.0,29.73,,,,,0,0,0,,,,,,,,,7/8 Mostly Cloudy,3900.0,,FEW,2500,SCT,4000.0,BKN,9900.0,,
KRDR,06-30-2005,20:00,METAR,,310,17.0,23.0,320/29KTS,9999.0,Cloud Development Not Observable,18.0,14.0,29.70,,,,,0,0,0,,,,,,,,,8/8 Overcast,3900.0,,SCT,2500,BKN,4000.0,OVC,9900.0,,
KRDR,06-30-2005,19:19,SPECI,,300,20.0,25.0,,9999.0,Cloud Development Not Observable,17.0,13.0,29.69,,,,,0,0,0,,,,,,,,,8/8 Overcast,3400.0,,SCT,2500,OVC,3500.0,,,,
KRDR,06-30-2005,19:00,METAR,,300,23.0,27.0,310/30KTS,9999.0,Cloud Development Not Observable,17.0,14.0,29.68,,,,,0,0,0,,,,,,,,,8/8 Overcast,2500.0,,BKN,2500,OVC,3500.0,,,,
KRDR,06-30-2005,18:00,METAR,,300,21.0,27.0,300/30KTS,9999.0,Cloud Development Not Observable,16.0,14.0,29.63,,,,,0,0,0,,,,,,,.03 IN,,8/8 Overcast,2700.0,,BKN,2700,OVC,3500.0,,,,
KRDR,06-30-2005,17:40,SPECI,,300,16.0,25.0,,9999.0,Cloud Development Not Observable,16.0,14.0,29.63,,,,,0,0,0,,,,,,,,,8/8 Overcast,2500.0,,BKN,2500,OVC,3500.0,,,,
KRDR,06-30-2005,17:00,METAR,,290,17.0,27.0,300/29KTS,9999.0,Rain/Cloud Development Not Observable,15.0,15.0,29.59,,,,,61,0,0,,,,,,,,,8/8 Overcast,2500.0,,FEW,1500,BKN,2500.0,OVC,3500.0,,
KRDR,06-30-2005,16:00,METAR,,300,16.0,26.0,290/34KTS,9999.0,Rain/Cloud Development Not Observable,15.0,15.0,29.55,,,,,61,0,0,,,,,,,,,8/8 Overcast,2200.0,,FEW,1200,BKN,2200.0,OVC,3000.0,,
KRDR,06-30-2005,15:00,METAR,,280,18.0,28.0,310/30KTS,9999.0,Rain/Cloud Development Not Observable,15.0,15.0,29.52,,,,,61,0,0,,,,,,TRACE,,,8/8 Overcast,2500.0,,FEW,1200,BKN,2500.0,OVC,3000.0,,
KRDR,06-30-2005,14:00,METAR,,280,19.0,28.0,290/28KTS,9999.0,Rain/Cloud Development Not Observable,15.0,15.0,29.48,,,,,61,0,0,,,,,,,,,8/8 Overcast,2500.0,,SCT,1200,OVC,2500.0,,,,
KRDR,06-30-2005,13:00,METAR,,280,17.0,22.0,,9999.0,Light Rain Showers/Cloud Development Not Observable,15.0,15.0,29.45,,,,,80,0,0,,,,,,,,2.13 IN,8/8 Overcast,2500.0,,SCT,1200,OVC,2500.0,,,,
KRDR,06-30-2005,12:36,SPECI,,300,16.0,24.0,,9999.0,Light Rain Showers/Cloud Development Not Observable,14.0,14.0,29.44,,,,,80,0,0,,,,,,,,,8/8 Overcast,1200.0,,OVC,1200,,,,,,
KRDR,06-29-2005,21:30,METAR,,30,4.0,,,2400.0,Light Rain Showers/Mist/Cloud Development Not Observable,18.0,18.0,29.54,,,,,80,10,0,,,,,,,,,8/8 Overcast,1000.0,,BKN,1000,OVC,2000.0,,,,
KRDR,06-29-2005,21:00,METAR,,50,5.0,,,3200.0,Light Rain Showers/Mist/Cloud Development Not Observable,18.0,18.0,29.58,,,,,80,10,0,,,,,,.04 IN,,,8/8 Overcast,1000.0,,FEW,500,BKN,1000.0,OVC,2000.0,,
KRDR,06-29-2005,20:30,METAR,,60,7.0,,,3200.0,Light Rain Showers/Mist/Cloud Development Not Observable,18.0,18.0,29.59,,,,,80,10,0,,,,,,,,,8/8 Overcast,1000.0,,BKN,1000,OVC,2000.0,,,,
KRDR,06-29-2005,20:00,METAR,,80,8.0,,,9999.0,Light Rain Showers/Cloud Development Not Observable,18.0,18.0,29.60,,,,,80,0,0,,,,,,,,,8/8 Overcast,1500.0,,SCT,1000,BKN,1500.0,OVC,4000.0,,
KRDR,06-29-2005,19:00,METAR,,100,15.0,20.0,,9999.0,Light Rain Showers/Cloud Development Not Observable,19.0,19.0,29.63,,,,,80,0,0,,,,,,,,,8/8 Overcast,2000.0,,FEW,1000,BKN,2000.0,OVC,4000.0,,
KRDR,06-29-2005,18:45,METAR,,100,17.0,24.0,,9999.0,Light Rain Showers/Cloud Development Not Observable,19.0,19.0,29.63,,,,,80,0,0,,,,,,,,,8/8 Overcast,2000.0,,BKN,2000,OVC,4000.0,,,,
KRDR,06-29-2005,18:22,SPECI,,110,14.0,22.0,,9999.0,Cloud Development Not Observable,20.0,19.0,29.65,,,,,0,0,0,,,,,,,,,8/8 Overcast,4400.0,,SCT,1500,BKN,4500.0,OVC,9900.0,,
KRDR,06-29-2005,18:00,METAR,,110,15.0,22.0,,9999.0,Cloud Development Not Observable,20.0,20.0,29.64,,,,,0,0,0,,,,,,,.09 IN,,8/8 Overcast,1300.0,,BKN,1300,OVC,9900.0,,,,
KRDR,06-29-2005,17:00,METAR,,120,10.0,16.0,,9999.0,Cloud Development Not Observable,18.0,18.0,29.69,,,,,0,0,0,,,,,,,,,8/8 Overcast,1500.0,,SCT,1000,BKN,1500.0,OVC,9900.0,,
KRDR,06-29-2005,16:00,METAR,,100,10.0,16.0,,9999.0,Cloud Development Not Observable,18.0,18.0,29.70,,,,,0,0,0,,,,,,,,,8/8 Overcast,1200.0,,SCT,800,BKN,1200.0,OVC,9900.0,,
KRDR,06-29-2005,15:28,SPECI,,90,12.0,16.0,,9999.0,Cloud Development Not Observable,18.0,18.0,29.71,,,,,0,0,0,,,,,,,,,8/8 Overcast,2000.0,,SCT,1000,BKN,2000.0,OVC,9900.0,,
KRDR,06-29-2005,15:00,METAR,,,3.0,,,9999.0,Light Rain Showers/Cloud Development Not Observable,18.0,18.0,29.72,,,,,80,0,0,,,,,,.07 IN,,,8/8 Overcast,1500.0,,FEW,500,BKN,1500.0,OVC,9900.0,,
KRDR,06-29-2005,14:24,SPECI,,90,13.0,18.0,,9999.0,Light Rain Showers/Cloud Development Not Observable,18.0,18.0,29.74,,,,,80,0,0,,,,,,,,,8/8 Overcast,1500.0,,BKN,1500,OVC,9900.0,,,,
KRDR,06-29-2005,14:00,METAR,,100,12.0,,,9999.0,Light Rain Showers/Cloud Development Not Observable,18.0,18.0,29.74,,,,,80,0,0,,,,,,,,,8/8 Overcast,3000.0,,FEW,1500,SCT,3000.0,BKN,12000.0,OVC,20000.0
KRDR,06-29-2005,13:00,METAR,,100,10.0,,,9999.0,Light Rain Showers/Cloud Development Not Observable,18.0,18.0,29.76,,,,,80,0,0,,,,,,,,,8/8 Overcast,12000.0,,SCT,3000,BKN,12000.0,OVC,20000.0,,
KRDR,06-29-2005,12:30,METAR,,90,11.0,,,9999.0,Light Rain Showers/Cloud Development Not Observable,18.0,18.0,29.77,,,,,80,0,0,,,,,,,,,8/8 Overcast,6000.0,,SCT,3000,OVC,5900.0,,,,
KRDR,06-28-2005,21:30,METAR,,30,8.0,,,9999.0,Cloud Development Not Observable,22.0,15.0,30.01,,,,,0,0,0,,,,,,,,,7/8 Mostly Cloudy,12000.0,,SCT,2500,BKN,12000.0,,,,
KRDR,06-28-2005,21:00,METAR,,30,5.0,,,9999.0,Cloud Development Not Observable,21.0,15.0,30.02,,,,,0,0,0,,,,,,,,,7/8 Mostly Cloudy,12000.0,,SCT,2500,BKN,12000.0,,,,
KRDR,06-28-2005,20:00,METAR,,,4.0,,,9999.0,Cloud Development Not Observable,19.0,14.0,30.03,,,,,0,0,0,,,,,,,,,7/8 Mostly Cloudy,12000.0,,SCT,2500,BKN,12000.0,,,,
KRDR,06-28-2005,19:20,METAR,,,4.0,,,9999.0,Cloud Development Not Observable,19.0,15.0,30.04,,,,,0,0,0,,,,,,,,,7/8 Mostly Cloudy,2500.0,,FEW,1500,SCT,2500.0,BKN,12000.0,,
KRDR,06-28-2005,19:00,METAR,,,5.0,,,9999.0,Cloud Development Not Observable,19.0,14.0,30.03,,,,,0,0,0,,,,,,,,,7/8 Mostly Cloudy,2500.0,,SCT,1500,BKN,2500.0,,,,
KRDR,06-28-2005,18:00,METAR,,,4.0,,,9999.0,Cloud Development Not Observable,17.0,14.0,30.06,,,,,0,0,0,,,,,,,,,8/8 Overcast,1500.0,,BKN,1500,OVC,2500.0,,,,
KRDR,06-28-2005,17:00,METAR,,300,6.0,,,9999.0,Cloud Development Not Observable,16.0,14.0,30.09,,,,,0,0,0,,,,,,,,,8/8 Overcast,1100.0,,BKN,1100,OVC,2000.0,,,,
KRDR,06-28-2005,16:00,METAR,,300,5.0,,,9999.0,Cloud Development Not Observable,15.0,14.0,30.07,,,,,0,0,0,,,,,,,,,8/8 Overcast,1100.0,,BKN,1100,OVC,2000.0,,,,
KRDR,06-28-2005,15:20,METAR,,,6.0,,,9999.0,Cloud Development Not Observable,15.0,14.0,30.06,,,,,0,0,0,,,,,,,,,8/8 Overcast,1000.0,,BKN,1000,OVC,2000.0,,,,
KRDR,06-28-2005,15:00,METAR,,,6.0,,,9999.0,Cloud Development Not Observable,15.0,15.0,30.05,,,,,0,0,0,,,,,,,,,8/8 Overcast,900.0,,BKN,900,OVC,1500.0,,,,
KRDR,06-28-2005,13:00,METAR,,,2.0,,,9999.0,Cloud Development Not Observable,13.0,13.0,30.06,,,,,0,0,0,,,,,,,,,8/8 Overcast,500.0,,BKN,500,OVC,1500.0,,,,
KRDR,06-28-2005,12:30,METAR,,330,3.0,,,9999.0,Mist/Cloud Development Not Observable,13.0,13.0,30.06,,,,,10,0,0,,,,,,,,,8/8 Overcast,500.0,,BKN,500,OVC,1500.0,,,,
KRDR,06-27-2005,21:30,METAR,,330,11.0,,,9999.0,Cloud Development Not Observable,18.0,17.0,29.93,,,,,0,0,0,,,,,,,,,8/8 Overcast,1000.0,,BKN,1000,OVC,1800.0,,,,
KRDR,06-27-2005,21:00,METAR,,330,11.0,,,9999.0,Cloud Development Not Observable,18.0,17.0,29.91,,,,,0,0,0,,,,,,,,,8/8 Overcast,1200.0,,BKN,1200,OVC,3500.0,,,,
KRDR,06-27-2005,20:00,METAR,,330,8.0,,,9999.0,Cloud Development Not Observable,19.0,17.0,29.91,,,,,0,0,0,,,,,,,,,8/8 Overcast,1800.0,,FEW,1000,BKN,1800.0,OVC,3500.0,,
KRDR,06-27-2005,19:00,METAR,,340,9.0,,,9999.0,Cloud Development Not Observable,19.0,17.0,29.90,,,,,0,0,0,,,,,,,,,8/8 Overcast,1800.0,,BKN,1800,OVC,3500.0,,,,
KRDR,06-27-2005,18:00,METAR,,340,9.0,,,9999.0,Cloud Development Not Observable,20.0,17.0,29.87,,,,,0,0,0,,,,,,,,,8/8 Overcast,1500.0,,BKN,1500,OVC,3500.0,,,,
KRDR,06-27-2005,17:00,METAR,,340,10.0,,,9999.0,Cloud Development Not Observable,21.0,17.0,29.85,,,,,0,0,0,,,,,,,,,7/8 Mostly Cloudy,1700.0,,BKN,1700,BKN,3500.0,,,,
KRDR,06-27-2005,16:00,METAR,,320,10.0,,,9999.0,Cloud Development Not Observable,19.0,18.0,29.84,,,,,0,0,0,,,,,,,,,7/8 Mostly Cloudy,1800.0,,BKN,1800,,,,,,
KRDR,06-27-2005,15:00,METAR,,310,9.0,,,9999.0,Cloud Development Not Observable,20.0,17.0,29.81,,,,,0,0,0,,,,,,,,,7/8 Mostly Cloudy,2100.0,,BKN,2100,,,,,,
KRDR,06-27-2005,14:08,SPECI,,290,7.0,,,9999.0,Cloud Development Not Observable,20.0,17.0,29.79,,,,,0,0,0,,,,,,,,,7/8 Mostly Cloudy,1500.0,,BKN,1500,BKN,25000.0,,,,
KRDR,06-27-2005,14:00,METAR,,280,9.0,,,9999.0,Cloud Development Not Observable,19.0,17.0,29.78,,,,,0,0,0,,,,,,,,,4/8 Partly Cloudy,72000.0,,FEW,1400,SCT,25000.0,,,,
KRDR,06-27-2005,13:45,METAR,,300,9.0,15.0,,9999.0,Cloud Development Not Observable,19.0,17.0,29.77,,,,,0,0,0,,,,,,,,,7/8 Mostly Cloudy,25000.0,,SCT,1400,BKN,25000.0,,,,
KRDR,06-27-2005,13:00,METAR,,280,9.0,,,9999.0,Cloud Development Not Observable,18.0,17.0,29.76,,,,,0,0,0,,,,,,,,,7/8 Mostly Cloudy,1400.0,,BKN,1400,BKN,25000.0,,,,
KRDR,06-24-2005,21:30,METAR,,250,13.0,19.0,,9999.0,Cloud Development Not Observable,25.0,8.0,29.97,,,,,0,0,0,,,,,,,,,4/8 Partly Cloudy,72000.0,,FEW,3000,FEW,12000.0,SCT,25000.0,,
KRDR,06-24-2005,21:00,METAR,,250,15.0,20.0,,9999.0,Cloud Development Not Observable,25.0,9.0,29.97,,,,,0,0,0,,,,,,,,,4/8 Partly Cloudy,72000.0,,FEW,12000,SCT,25000.0,,,,
KRDR,06-24-2005,20:00,METAR,,250,15.0,21.0,,9999.0,Cloud Development Not Observable,25.0,8.0,29.97,,,,,0,0,0,,,,,,,,,4/8 Partly Cloudy,72000.0,,FEW,12000,SCT,25000.0,,,,
KRDR,06-24-2005,19:00,METAR,,270,11.0,22.0,,9999.0,Cloud Development Not Observable,24.0,8.0,29.96,,,,,0,0,0,,,,,,,,,4/8 Partly Cloudy,72000.0,,FEW,12000,SCT,25000.0,,,,
KRDR,06-24-2005,18:00,METAR,,270,13.0,21.0,,9999.0,Cloud Development Not Observable,23.0,8.0,29.96,,,,,0,0,0,,,,,,,,,7/8 Mostly Cloudy,12000.0,,FEW,3500,SCT,12000.0,BKN,25000.0,,
KRDR,06-24-2005,17:00,METAR,,240,14.0,,,9999.0,Cloud Development Not Observable,22.0,11.0,29.96,,,,,0,0,0,,,,,,,,,7/8 Mostly Cloudy,12000.0,,FEW,3500,SCT,12000.0,BKN,25000.0,,
KRDR,06-24-2005,16:00,METAR,,230,12.0,16.0,,9999.0,Cloud Development Not Observable,21.0,11.0,29.96,,,,,0,0,0,,,,,,,,,2/8 Mostly Clear,72000.0,,FEW,3500,FEW,20000.0,,,,
KRDR,06-24-2005,15:00,METAR,,270,10.0,,,9999.0,Cloud Development Not Observable,20.0,10.0,29.96,,,,,0,0,0,,,,,,,,,2/8 Mostly Clear,72000.0,,FEW,3500,,,,,,
KRDR,06-24-2005,14:00,METAR,,240,6.0,,,9999.0,Cloud Development Not Observable,19.0,12.0,29.95,,,,,0,0,0,,,,,,,,,2/8 Mostly Clear,72000.0,,FEW,3500,,,,,,
KRDR,06-24-2005,13:00,METAR,,250,6.0,,,9999.0,Cloud Development Not Observable,17.0,11.0,29.93,,,,,0,0,0,,,,,,,,,2/8 Mostly Clear,72000.0,,FEW,3500,,,,,,
KRDR,06-24-2005,12:30,METAR,,250,6.0,,,9999.0,Cloud Development Not Observable,16.0,12.0,29.92,,,,,0,0,0,,,,,,,,,2/8 Mostly Clear,72000.0,,FEW,3500,,,,,,
KRDR,06-23-2005,21:30,METAR,,260,9.0,,,9999.0,Cloud Development Not Observable,24.0,19.0,29.51,,,,,0,0,0,,,,,,,,,7/8 Mostly Cloudy,12000.0,,SCT,5000,BKN,12000.0,BKN,25000.0,,
KRDR,06-23-2005,21:00,METAR,,250,8.0,,,9999.0,Cloud Development Not Observable,27.0,25.0,29.46,,,,,0,0,0,,,,,,.01 IN,,,7/8 Mostly Cloudy,12000.0,,SCT,5000,BKN,12000.0,BKN,25000.0,,
KRDR,06-23-2005,20:35,SPECI,,250,11.0,,,9999.0,Light Rain Showers/Cloud Development Not Observable,27.0,25.0,29.50,,,,,80,0,0,,,,,,,,,7/8 Mostly Cloudy,12000.0,,SCT,5000,BKN,12000.0,BKN,25000.0,,
KRDR,06-23-2005,20:00,METAR,,150,12.0,,,9999.0,Cloud Development Not Observable,29.0,25.0,29.46,,,,,0,0,0,,,,,,,,,7/8 Mostly Cloudy,12000.0,,SCT,5000,BKN,12000.0,BKN,25000.0,,
KRDR,06-23-2005,19:35,SPECI,,170,12.0,18.0,,9999.0,Light Rain Showers/Cloud Development Not Observable,30.0,24.0,29.50,,,,,80,0,0,,,,,,,,,7/8 Mostly Cloudy,12000.0,,SCT,5000,BKN,12000.0,BKN,25000.0,,
KRDR,06-23-2005,19:00,METAR,,150,15.0,19.0,,9999.0,Cloud Development Not Observable,33.0,24.0,29.50,,,,,0,0,0,,,,,,,,,4/8 Partly Cloudy,72000.0,,FEW,5000,FEW,15000.0,SCT,25000.0,,
KRDR,06-23-2005,18:00,METAR,,130,14.0,19.0,,9999.0,Cloud Development Not Observable,32.0,24.0,29.52,,,,,0,0,0,,,,,,,,,2/8 Mostly Clear,72000.0,,FEW,15000,FEW,25000.0,,,,
KRDR,06-23-2005,17:00,METAR,,160,9.0,,,9999.0,Cloud Development Not Observable,32.0,25.0,29.54,,,,,0,0,0,,,,,,,,,7/8 Mostly Cloudy,25000.0,,FEW,15000,BKN,25000.0,,,,
KRDR,06-23-2005,16:00,METAR,,140,7.0,,,9999.0,Cloud Development Not Observable,31.0,26.0,29.57,,,,,0,0,0,,,,,,,,,7/8 Mostly Cloudy,25000.0,,FEW,15000,BKN,25000.0,,,,
KRDR,06-23-2005,15:00,METAR,,,1.0,,,9999.0,Cloud Development Not Observable,29.0,25.0,29.59,,,,,0,0,0,,,,,,,,,7/8 Mostly Cloudy,25000.0,,FEW,15000,BKN,25000.0,,,,
KRDR,06-23-2005,14:00,METAR,,160,7.0,,,9999.0,Cloud Development Not Observable,27.0,25.0,29.61,,,,,0,0,0,,,,,,,,,7/8 Mostly Cloudy,25000.0,,FEW,15000,BKN,25000.0,,,,
KRDR,06-23-2005,13:00,METAR,,160,6.0,,,9999.0,Cloud Development Not Observable,26.0,25.0,29.62,,,,,0,0,0,,,,,,,,,4/8 Partly Cloudy,72000.0,,SCT,25000,,,,,,
KRDR,06-23-2005,12:30,METAR,,160,5.0,,,9999.0,Cloud Development Not Observable,24.0,24.0,29.61,,,,,0,0,0,,,,,,,,,4/8 Partly Cloudy,72000.0,,SCT,25000,,,,,,
KRDR,06-22-2005,21:30,METAR,,170,14.0,18.0,,9999.0,Cloud Development Not Observable,30.0,21.0,29.84,,,,,0,0,0,,,,,,,,,7/8 Mostly Cloudy,12000.0,,FEW,5900,BKN,12000.0,BKN,25000.0,,
KRDR,06-22-2005,21:00,METAR,,180,18.0,22.0,,9999.0,Cloud Development Not Observable,30.0,21.0,29.84,,,,,0,0,0,,,,,,,,,7/8 Mostly Cloudy,12000.0,,FEW,5900,BKN,12000.0,BKN,25000.0,,
KRDR,06-22-2005,20:00,METAR,,170,16.0,22.0,,9999.0,Cloud Development Not Observable,30.0,21.0,29.85,,,,,0,0,0,,,,,,,,,7/8 Mostly Cloudy,12000.0,,FEW,5900,SCT,12000.0,BKN,25000.0,,
KRDR,06-22-2005,19:00,METAR,,160,16.0,24.0,190/27KTS,9999.0,Cloud Development Not Observable,30.0,21.0,29.87,,,,,0,0,0,,,,,,,,,7/8 Mostly Cloudy,12000.0,,FEW,5900,SCT,12000.0,BKN,25000.0,,
KRDR,06-22-2005,18:00,METAR,,170,18.0,24.0,,9999.0,Cloud Development Not Observable,29.0,21.0,29.89,,,,,0,0,0,,,,,,,,,7/8 Mostly Cloudy,25000.0,,FEW,12000,BKN,25000.0,,,,
KRDR,06-22-2005,17:00,METAR,,190,17.0,24.0,,9999.0,Cloud Development Not Observable,29.0,21.0,29.91,,,,,0,0,0,,,,,,,,,7/8 Mostly Cloudy,25000.0,,FEW,12000,BKN,25000.0,,,,
KRDR,06-22-2005,16:00,METAR,,160,16.0,,,9999.0,Cloud Development Not Observable,27.0,21.0,29.94,,,,,0,0,0,,,,,,,,,7/8 Mostly Cloudy,25000.0,,BKN,25000,,,,,,
KRDR,06-22-2005,15:00,METAR,,160,15.0,,,9999.0,Cloud Development Not Observable,25.0,20.0,29.95,,,,,0,0,0,,,,,,,,,7/8 Mostly Cloudy,25000.0,,BKN,25000,,,,,,
KRDR,06-22-2005,14:00,METAR,,160,10.0,,,9999.0,Cloud Development Not Observable,24.0,20.0,29.97,,,,,0,0,0,,,,,,,,,7/8 Mostly Cloudy,25000.0,,BKN,25000,,,,,,
KRDR,06-22-2005,13:00,METAR,,160,7.0,,,9999.0,Cloud Development Not Observable,23.0,20.0,29.99,,,,,0,0,0,,,,,,,,,4/8 Partly Cloudy,72000.0,,SCT,25000,,,,,,
KRDR,06-22-2005,12:35,SPECI,,150,7.0,,,9999.0,Cloud Development Not Observable,21.0,19.0,30.02,,,,,0,0,0,,,,,,,,,4/8 Partly Cloudy,72000.0,,SCT,25000,,,,,,
KRDR,06-21-2005,21:30,METAR,,150,8.0,,,9999.0,Cloud Development Not Observable,29.0,14.0,30.12,,,,,0,0,0,,,,,,,,,2/8 Mostly Clear,72000.0,,FEW,5900,FEW,22000.0,,,,
KRDR,06-21-2005,21:00,METAR,,160,5.0,,,9999.0,Cloud Development Not Observable,29.0,14.0,30.12,,,,,0,0,0,,,,,,,,,4/8 Partly Cloudy,72000.0,,FEW,5900,FEW,12000.0,SCT,22000.0,,
KRDR,06-21-2005,20:00,METAR,,140,6.0,,,9999.0,Cloud Development Not Observable,29.0,14.0,30.13,,,,,0,0,0,,,,,,,,,4/8 Partly Cloudy,72000.0,,FEW,12000,SCT,22000.0,,,,
KRDR,06-21-2005,19:00,METAR,,80,6.0,,,9999.0,Cloud Development Not Observable,28.0,17.0,30.13,,,,,0,0,0,,,,,,,,,7/8 Mostly Cloudy,22000.0,,FEW,7900,FEW,12000.0,BKN,22000.0,,
KRDR,06-21-2005,18:00,METAR,,40,3.0,,,9999.0,Cloud Development Not Observable,28.0,17.0,30.14,,,,,0,0,0,,,,,,,,,7/8 Mostly Cloudy,12000.0,,FEW,7900,SCT,12000.0,BKN,22000.0,,
KRDR,06-21-2005,17:00,METAR,,30,6.0,,,9999.0,Cloud Development Not Observable,26.0,15.0,30.16,,,,,0,0,0,,,,,,,,,7/8 Mostly Cloudy,12000.0,,FEW,7900,SCT,12000.0,BKN,22000.0,,
KRDR,06-21-2005,16:00,METAR,,60,7.0,,,9999.0,Cloud Development Not Observable,25.0,17.0,30.15,,,,,0,0,0,,,,,,,,,7/8 Mostly Cloudy,12000.0,,FEW,7900,SCT,12000.0,BKN,22000.0,,
KRDR,06-21-2005,15:00,METAR,,30,6.0,,,9999.0,Cloud Development Not Observable,24.0,16.0,30.15,,,,,0,0,0,,,,,,,,,7/8 Mostly Cloudy,22000.0,,SCT,12000,BKN,22000.0,,,,
KRDR,06-21-2005,14:00,METAR,,300,3.0,,,9999.0,Cloud Development Not Observable,22.0,18.0,30.21,,,,,0,0,0,,,,,,,,,7/8 Mostly Cloudy,22000.0,,SCT,12000,BKN,22000.0,,,,
KRDR,06-21-2005,13:00,METAR,,290,3.0,,,9999.0,Cloud Development Not Observable,21.0,17.0,30.19,,,,,0,0,0,,,,,,,,,7/8 Mostly Cloudy,22000.0,,FEW,12000,BKN,22000.0,,,,
KRDR,06-21-2005,12:30,METAR,,230,3.0,,,9999.0,Cloud Development Not Observable,19.0,18.0,30.18,,,,,0,0,0,,,,,,,,,7/8 Mostly Cloudy,22000.0,,FEW,12000,BKN,22000.0,,,,
KRDR,06-20-2005,21:30,METAR,,,4.0,,,9999.0,Cloud Development Not Observable,30.0,12.0,30.05,,,,,0,0,0,,,,,,,,,2/8 Mostly Clear,72000.0,,FEW,4000,,,,,,
KRDR,06-20-2005,21:00,METAR,,,3.0,,,9999.0,Cloud Development Not Observable,30.0,13.0,30.05,,,,,0,0,0,,,,,,,,,2/8 Mostly Clear,72000.0,,FEW,4000,FEW,20000.0,,,,
KRDR,06-20-2005,20:00,METAR,,,3.0,,,9999.0,Cloud Development Not Observable,29.0,16.0,30.05,,,,,0,0,0,,,,,,,,,2/8 Mostly Clear,72000.0,,FEW,20000,,,,,,
KRDR,06-20-2005,19:00,METAR,,,5.0,,,9999.0,Cloud Development Not Observable,28.0,15.0,30.05,,,,,0,0,0,,,,,,,,,4/8 Partly Cloudy,72000.0,,FEW,12000,SCT,20000.0,,,,
KRDR,06-20-2005,18:00,METAR,,,2.0,,,9999.0,Cloud Development Not Observable,26.0,16.0,30.04,,,,,0,0,0,,,,,,,,,7/8 Mostly Cloudy,20000.0,,FEW,5000,FEW,12000.0,BKN,20000.0,,
KRDR,06-20-2005,17:00,METAR,,,1.0,,,9999.0,Cloud Development Not Observable,24.0,17.0,30.05,,,,,0,0,0,,,,,,,,,7/8 Mostly Cloudy,12000.0,,FEW,5000,SCT,12000.0,BKN,20000.0,,
KRDR,06-20-2005,16:00,METAR,,,2.0,,,9999.0,Cloud Development Not Observable,23.0,17.0,30.07,,,,,0,0,0,,,,,,,,,8/8 Overcast,12000.0,,FEW,5000,SCT,12000.0,OVC,20000.0,,
KRDR,06-20-2005,15:00,METAR,,180,6.0,,,9999.0,Cloud Development Not Observable,23.0,17.0,30.12,,,,,0,0,0,,,,,,,,,8/8 Overcast,12000.0,,FEW,5000,BKN,12000.0,OVC,20000.0,,
KRDR,06-20-2005,14:00,METAR,,,3.0,,,9999.0,Cloud Development Not Observable,23.0,17.0,30.12,,,,,0,0,0,,,,,,,,,7/8 Mostly Cloudy,12000.0,,FEW,5000,SCT,12000.0,BKN,20000.0,,
KRDR,06-20-2005,13:00,METAR,,,2.0,,,9999.0,Cloud Development Not Observable,21.0,18.0,30.09,,,,,0,0,0,,,,,,,,,7/8 Mostly Cloudy,20000.0,,FEW,5000,FEW,12000.0,BKN,20000.0,,
KRDR,06-20-2005,12:30,METAR,,,2.0,,,9999.0,Cloud Development Not Observable,20.0,18.0,30.08,,,,,0,0,0,,,,,,,,,7/8 Mostly Cloudy,20000.0,,BKN,20000,,,,,,
KRDR,06-17-2005,21:30,METAR,,140,11.0,,,9999.0,Cloud Development Not Observable,27.0,15.0,29.88,,,,,0,0,0,,,,,,,,,7/8 Mostly Cloudy,20000.0,,BKN,20000,,,,,,
KRDR,06-17-2005,21:00,METAR,,130,14.0,,,9999.0,Cloud Development Not Observable,26.0,15.0,29.89,,,,,0,0,0,,,,,,,,,7/8 Mostly Cloudy,20000.0,,BKN,20000,,,,,,
KRDR,06-17-2005,20:00,METAR,,140,11.0,,,9999.0,Cloud Development Not Observable,27.0,14.0,29.90,,,,,0,0,0,,,,,,,,,7/8 Mostly Cloudy,20000.0,,BKN,20000,,,,,,
KRDR,06-17-2005,19:00,METAR,,130,13.0,,,9999.0,Cloud Development Not Observable,26.0,13.0,29.92,,,,,0,0,0,,,,,,,,,7/8 Mostly Cloudy,20000.0,,BKN,20000,,,,,,
KRDR,06-17-2005,18:00,METAR,,140,13.0,,,9999.0,Cloud Development Not Observable,25.0,14.0,29.93,,,,,0,0,0,,,,,,,,,7/8 Mostly Cloudy,20000.0,,BKN,20000,,,,,,
KRDR,06-17-2005,17:00,METAR,,150,10.0,,,9999.0,Cloud Development Not Observable,24.0,15.0,29.95,,,,,0,0,0,,,,,,,,,7/8 Mostly Cloudy,20000.0,,BKN,20000,,,,,,
KRDR,06-17-2005,16:00,METAR,,130,7.0,,,9999.0,Cloud Development Not Observable,23.0,15.0,29.96,,,,,0,0,0,,,,,,,,,7/8 Mostly Cloudy,20000.0,,BKN,20000,,,,,,
KRDR,06-17-2005,15:00,METAR,,130,6.0,,,9999.0,Cloud Development Not Observable,22.0,15.0,29.95,,,,,0,0,0,,,,,,,,,7/8 Mostly Cloudy,20000.0,,BKN,20000,,,,,,
KRDR,06-17-2005,14:00,METAR,,130,6.0,,,9999.0,Cloud Development Not Observable,20.0,14.0,,,,,,0,0,0,,,,,,,,,7/8 Mostly Cloudy,20000.0,,BKN,20000,,,,,,
KRDR,06-17-2005,13:00,METAR,,110,5.0,,,9999.0,Cloud Development Not Observable,17.0,14.0,29.85,,,,,0,0,0,,,,,,,,,7/8 Mostly Cloudy,20000.0,,BKN,20000,,,,,,
KRDR,06-16-2005,21:20,METAR,,190,4.0,,,9999.0,Cloud Development Not Observable,25.0,13.0,29.98,,,,,0,0,0,,,,,,,,,2/8 Mostly Clear,72000.0,,FEW,5000,FEW,25000.0,,,,
KRDR,06-16-2005,21:00,METAR,,,2.0,,,9999.0,Cloud Development Not Observable,25.0,14.0,29.98,,,,,0,0,0,,,,,,,,,2/8 Mostly Clear,72000.0,,FEW,5000,FEW,25000.0,,,,
KRDR,06-16-2005,20:00,METAR,,100,2.0,,,9999.0,Cloud Development Not Observable,24.0,13.0,30.00,,,,,0,0,0,,,,,,,,,4/8 Partly Cloudy,72000.0,,FEW,5000,SCT,25000.0,,,,
KRDR,06-16-2005,19:00,METAR,,130,4.0,,,9999.0,Cloud Development Not Observable,24.0,13.0,30.01,,,,,0,0,0,,,,,,,,,4/8 Partly Cloudy,72000.0,,FEW,5000,SCT,25000.0,,,,
KRDR,06-16-2005,18:00,METAR,,,4.0,,,9999.0,Cloud Development Not Observable,23.0,12.0,30.02,,,,,0,0,0,,,,,,,,,4/8 Partly Cloudy,72000.0,,SCT,25000,,,,,,
KRDR,06-16-2005,17:00,METAR,,180,6.0,,,9999.0,Cloud Development Not Observable,23.0,11.0,30.03,,,,,0,0,0,,,,,,,,,4/8 Partly Cloudy,72000.0,,SCT,25000,,,,,,
KRDR,06-16-2005,16:00,METAR,,,3.0,,,9999.0,Cloud Development Not Observable,22.0,12.0,30.05,,,,,0,0,0,,,,,,,,,2/8 Mostly Clear,72000.0,,FEW,25000,,,,,,
KRDR,06-16-2005,15:00,METAR,,,3.0,,,9999.0,Cloud Development Not Observable,20.0,13.0,30.05,,,,,0,0,0,,,,,,,,,2/8 Mostly Clear,72000.0,,FEW,25000,,,,,,
KRDR,06-16-2005,14:00,METAR,,,3.0,,,9999.0,Cloud Development Not Observable,19.0,13.0,30.06,,,,,0,0,0,,,,,,,,,2/8 Mostly Clear,72000.0,,FEW,25000,,,,,,
KRDR,06-16-2005,13:00,METAR,,,0.0,,,9999.0,Cloud Development Not Observable,16.0,12.0,30.06,,,,,0,0,0,,,,,,,,,2/8 Mostly Clear,72000.0,,FEW,25000,,,,,,
KRDR,06-16-2005,12:30,METAR,,,1.0,,,9999.0,Cloud Development Not Observable,15.0,15.0,30.06,,,,,0,0,0,,,,,,,,,2/8 Mostly Clear,72000.0,,FEW,25000,,,,,,
KRDR,06-15-2005,21:30,METAR,,80,4.0,,,9999.0,Cloud Development Not Observable,23.0,13.0,30.01,,,,,0,0,0,,,,,,,,,4/8 Partly Cloudy,72000.0,,SCT,4500,SCT,25000.0,,,,
KRDR,06-15-2005,21:00,METAR,,50,6.0,,,9999.0,Cloud Development Not Observable,22.0,12.0,30.01,,,,,0,0,0,,,,,,,,,4/8 Partly Cloudy,72000.0,,SCT,4500,SCT,25000.0,,,,
KRDR,06-15-2005,20:00,METAR,,80,5.0,,,9999.0,Cloud Development Not Observable,23.0,13.0,30.01,,,,,0,0,0,,,,,,,,,4/8 Partly Cloudy,72000.0,,SCT,4500,SCT,25000.0,,,,
KRDR,06-15-2005,19:00,METAR,,30,5.0,,,9999.0,Cloud Development Not Observable,21.0,12.0,30.02,,,,,0,0,0,,,,,,,,,4/8 Partly Cloudy,72000.0,,SCT,2500,SCT,25000.0,,,,
KRDR,06-15-2005,18:00,METAR,,360,7.0,,,9999.0,Cloud Development Not Observable,21.0,14.0,30.03,,,,,0,0,0,,,,,,,,,4/8 Partly Cloudy,72000.0,,SCT,2500,SCT,25000.0,,,,
KRDR,06-15-2005,17:00,METAR,,50,5.0,,,9999.0,Cloud Development Not Observable,21.0,14.0,30.03,,,,,0,0,0,,,,,,,,,4/8 Partly Cloudy,72000.0,,SCT,2500,,,,,,
KRDR,06-15-2005,16:00,METAR,,50,2.0,,,9999.0,Cloud Development Not Observable,19.0,14.0,30.03,,,,,0,0,0,,,,,,,,,4/8 Partly Cloudy,72000.0,,SCT,2000,SCT,12000.0,,,,
KRDR,06-15-2005,15:00,METAR,,50,2.0,,,9999.0,Cloud Development Not Observable,18.0,13.0,30.03,,,,,0,0,0,,,,,,,,,4/8 Partly Cloudy,72000.0,,FEW,1500,FEW,4000.0,SCT,12000.0,,
KRDR,06-15-2005,14:00,METAR,,30,4.0,,,9999.0,Cloud Development Not Observable,17.0,16.0,30.03,,,,,0,0,0,,,,,,,,,7/8 Mostly Cloudy,3900.0,,FEW,500,SCT,4000.0,BKN,12000.0,,
KRDR,06-15-2005,13:00,METAR,,30,5.0,,,9999.0,Cloud Development Not Observable,15.0,15.0,30.02,,,,,0,0,0,,,,,,,,,7/8 Mostly Cloudy,3900.0,,FEW,500,BKN,4000.0,BKN,12000.0,,
KRDR,06-15-2005,12:30,METAR,,360,4.0,,,9999.0,Cloud Development Not Observable,14.0,14.0,30.00,,,,,0,0,0,,,,,,,,,7/8 Mostly Cloudy,4400.0,,FEW,500,SCT,4500.0,BKN,12000.0,,
KRDR,06-14-2005,21:30,METAR,,330,11.0,,,9999.0,Rain/Drizzle/Mist,18.0,18.0,29.78,,,,,61,51,10,,,,,,,,,7/8 Mostly Cloudy,1200.0,,SCT,700,BKN,1200.0,BKN,2000.0,BKN,7900.0
KRDR,06-14-2005,21:00,METAR,,330,11.0,,,9999.0,Rain/Drizzle/Mist,18.0,18.0,29.78,,,,,61,51,10,,,,,,.01 IN,,,7/8 Mostly Cloudy,1300.0,,FEW,500,SCT,1300.0,BKN,2000.0,BKN,7900.0
KRDR,06-14-2005,20:17,SPECI,,330,10.0,,,9999.0,Drizzle/Mist/Cloud Development Not Observable,17.0,17.0,29.76,,,,,51,10,0,,,,,,,,,8/8 Overcast,1200.0,,SCT,800,BKN,1200.0,OVC,2000.0,,
KRDR,06-14-2005,20:00,METAR,,320,12.0,,,9999.0,Drizzle/Mist/Cloud Development Not Observable,17.0,17.0,29.76,,,,,51,10,0,,,,,,,,,8/8 Overcast,900.0,,BKN,900,OVC,1300.0,,,,
KRDR,06-14-2005,19:45,METAR,,330,10.0,,,8000.0,Drizzle/Mist/Cloud Development Not Observable,17.0,17.0,29.76,,,,,51,10,0,,,,,,,,,8/8 Overcast,900.0,,BKN,900,OVC,1200.0,,,,
KRDR,06-14-2005,19:00,METAR,,320,12.0,,,3200.0,Drizzle/Mist/Cloud Development Not Observable,16.0,16.0,29.74,,,,,51,10,0,,,,,,,,,8/8 Overcast,800.0,,BKN,800,OVC,1200.0,,,,
KRDR,06-14-2005,18:00,METAR,,320,9.0,,,3200.0,Drizzle/Mist/Cloud Development Not Observable,16.0,16.0,29.73,,,,,51,10,0,,,,,,,IN,,8/8 Overcast,600.0,,BKN,600,OVC,1200.0,,,,
KRDR,06-14-2005,17:34,SPECI,,330,11.0,,,3200.0,Drizzle/Mist/Cloud Development Not Observable,16.0,16.0,29.72,,,,,51,10,0,,,,,,,,,8/8 Overcast,800.0,,BKN,800,OVC,1200.0,,,,
KRDR,06-14-2005,17:00,METAR,,330,13.0,,,8000.0,Drizzle/Mist/Cloud Development Not Observable,16.0,16.0,29.71,,,,,51,10,0,,,,,,,,,8/8 Overcast,700.0,,BKN,700,OVC,1200.0,,,,
KRDR,06-14-2005,16:00,METAR,,330,13.0,,,6400.0,Drizzle/Mist/Cloud Development Not Observable,15.0,15.0,29.69,,,,,51,10,0,,,,,,,,,8/8 Overcast,500.0,,OVC,500,,,,,,
KRDR,06-14-2005,15:45,METAR,,340,13.0,,,6400.0,Drizzle/Mist/Cloud Development Not Observable,16.0,16.0,29.69,,,,,51,10,0,,,,,,,,,8/8 Overcast,500.0,,OVC,500,,,,,,
KRDR,06-14-2005,15:10,SPECI,,330,10.0,,,3200.0,Drizzle/Mist/Cloud Development Not Observable,16.0,16.0,29.68,,,,,51,10,0,,,,,,,,,8/8 Overcast,500.0,,OVC,500,,,,,,
KRDR,06-14-2005,15:00,METAR,,330,13.0,,,6400.0,Drizzle/Mist/Cloud Development Not Observable,15.0,15.0,29.67,,,,,51,10,0,,,,,,TRACE,,,8/8 Overcast,500.0,,BKN,500,OVC,1000.0,,,,
KRDR,06-14-2005,14:00,METAR,,330,10.0,,,9999.0,Drizzle/Mist/Cloud Development Not Observable,15.0,15.0,29.66,,,,,51,10,0,,,,,,,,,8/8 Overcast,500.0,,BKN,500,OVC,1000.0,,,,
KRDR,06-14-2005,13:40,SPECI,,330,11.0,,,9999.0,Rain/Cloud Development Not Observable,15.0,15.0,29.65,,,,,61,0,0,,,,,,,,,8/8 Overcast,500.0,,BKN,500,OVC,1000.0,,,,
KRDR,06-14-2005,13:00,METAR,,340,12.0,,,9999.0,Cloud Development Not Observable,15.0,15.0,29.64,,,,,0,0,0,,,,,,,,,8/8 Overcast,500.0,,BKN,500,OVC,1000.0,,,,
KRDR,06-14-2005,12:30,METAR,,330,11.0,,,9999.0,Cloud Development Not Observable,15.0,15.0,29.64,,,,,0,0,0,,,,,,,,,8/8 Overcast,500.0,,BKN,500,OVC,1000.0,,,,
KRDR,06-13-2005,21:30,METAR,,360,5.0,,,9999.0,Rain/Mist/Cloud Development Not Observable,17.0,17.0,29.72,,,,,61,10,0,,,,,,,,,8/8 Overcast,2000.0,,FEW,1000,BKN,2000.0,OVC,3000.0,,
KRDR,06-13-2005,21:00,METAR,,360,5.0,,,9999.0,Rain/Mist/Cloud Development Not Observable,17.0,17.0,29.72,,,,,61,10,0,,,,,,.05 IN,,,8/8 Overcast,2200.0,,FEW,1200,BKN,2200.0,OVC,3000.0,,
KRDR,06-13-2005,20:00,METAR,,360,6.0,,,9999.0,Light Rain Showers/Cloud Development Not Observable,16.0,16.0,29.74,,,,,80,0,0,,,,,,,,,8/8 Overcast,2200.0,,FEW,1200,BKN,2200.0,OVC,3000.0,,
KRDR,06-13-2005,19:00,METAR,,360,7.0,,,9999.0,Light Rain Showers/Cloud Development Not Observable,17.0,17.0,29.75,,,,,80,0,0,,,,,,,,,8/8 Overcast,1800.0,,SCT,1200,BKN,1800.0,OVC,3000.0,,
KRDR,06-13-2005,18:00,METAR,,350,10.0,,,9999.0,Light Rain Showers/Cloud Development Not Observable,16.0,16.0,29.75,,,,,80,0,0,,,,,,,.03 IN,,8/8 Overcast,2000.0,,SCT,1200,BKN,2000.0,OVC,3000.0,,
KRDR,06-13-2005,17:06,SPECI,,10,10.0,,,9999.0,Light Rain Showers/Cloud Development Not Observable,17.0,15.0,29.77,,,,,80,0,0,,,,,,,,,8/8 Overcast,1500.0,,BKN,1500,OVC,2000.0,,,,
KRDR,06-13-2005,17:00,METAR,,10,11.0,,,9999.0,Cloud Development Not Observable,17.0,15.0,29.77,,,,,0,0,0,,,,,,,,,8/8 Overcast,1500.0,,BKN,1500,OVC,2000.0,,,,
KRDR,06-13-2005,16:00,METAR,,10,8.0,,,9999.0,Cloud Development Not Observable,17.0,15.0,29.78,,,,,0,0,0,,,,,,,,,8/8 Overcast,1500.0,,BKN,1500,OVC,3000.0,,,,
KRDR,06-13-2005,15:00,METAR,,10,8.0,,,9999.0,Cloud Development Not Observable,16.0,15.0,29.80,,,,,0,0,0,,,,,,,,,8/8 Overcast,1200.0,,BKN,1200,OVC,2000.0,,,,
KRDR,06-13-2005,14:33,SPECI,,350,8.0,,,9999.0,Cloud Development Not Observable,16.0,16.0,29.81,,,,,0,0,0,,,,,,,,,8/8 Overcast,1000.0,,BKN,1000,OVC,1500.0,,,,
KRDR,06-13-2005,14:00,METAR,,10,8.0,,,9999.0,Cloud Development Not Observable,16.0,16.0,29.82,,,,,0,0,0,,,,,,,,,8/8 Overcast,700.0,,BKN,700,OVC,1500.0,,,,
KRDR,06-13-2005,13:00,METAR,,360,9.0,,,9999.0,Cloud Development Not Observable,16.0,16.0,29.82,,,,,0,0,0,,,,,,,,1.62 IN,8/8 Overcast,700.0,,BKN,700,OVC,1200.0,,,,
KRDR,06-13-2005,12:40,SPECI,,360,8.0,,,9999.0,Cloud Development Not Observable,16.0,16.0,29.81,,,,,0,0,0,,,,,,,,,8/8 Overcast,600.0,,BKN,600,OVC,1200.0,,,,
KRDR,06-10-2005,21:30,METAR,,150,8.0,,,9999.0,,21.0,15.0,29.82,,,,,,,,,,,,,,,,7/8 Mostly Cloudy,3400.0,,FEW,2500,BKN,3500.0,BKN,9900.0,,
KRDR,06-10-2005,20:00,METAR,,140,4.0,,,9999.0,,19.0,14.0,29.83,,,,,,,,,,,,,,,,7/8 Mostly Cloudy,3900.0,,FEW,2000,BKN,4000.0,BKN,9900.0,,
KRDR,06-10-2005,19:00,METAR,,130,7.0,,,9999.0,,19.0,15.0,29.83,,,,,,,,,,,,,,,,8/8 Overcast,3900.0,,SCT,2000,BKN,4000.0,OVC,9900.0,,
KRDR,06-10-2005,18:00,METAR,,160,5.0,,,9999.0,,18.0,16.0,29.84,,,,,,,,,,,,,,.02 IN,,8/8 Overcast,3900.0,,FEW,2000,SCT,4000.0,BKN,9900.0,OVC,20000.0
KRDR,06-10-2005,17:05,SPECI,,160,8.0,,,9999.0,,17.0,16.0,29.85,,,,,,,,,,,,,,,,8/8 Overcast,3400.0,,FEW,2000,BKN,3500.0,OVC,9900.0,,
KRDR,06-10-2005,17:00,METAR,,180,5.0,,,9999.0,Light Rain Showers,17.0,17.0,29.86,,,,,80,,,,,,,,,,,8/8 Overcast,3000.0,,SCT,2000,BKN,3000.0,OVC,9900.0,,
KRDR,06-10-2005,16:00,METAR,,140,7.0,,,9999.0,Light Rain Showers,16.0,15.0,29.86,,,,,80,,,,,,,,,,,8/8 Overcast,3000.0,,SCT,2000,BKN,3000.0,OVC,9900.0,,
KRDR,06-10-2005,15:20,METAR,,120,6.0,,,9999.0,Light Rain Showers,16.0,15.0,29.85,,,,,80,,,,,,,,,,,8/8 Overcast,8000.0,,SCT,2000,BKN,7900.0,OVC,12000.0,,
KRDR,06-10-2005,15:00,METAR,,140,8.0,,,9999.0,,18.0,14.0,29.85,,,,,,,,,,,,,TRACE,,,8/8 Overcast,7000.0,,FEW,4000,BKN,6900.0,OVC,12000.0,,
KRDR,06-10-2005,14:00,METAR,,130,5.0,,,9999.0,,17.0,14.0,29.85,,,,,,,,,,,,,,,,8/8 Overcast,7000.0,,FEW,5000,BKN,6900.0,OVC,12000.0,,
KRDR,06-10-2005,13:40,SPECI,,150,4.0,,,9999.0,,17.0,15.0,29.85,,,,,,,,,,,,,,,,7/8 Mostly Cloudy,8000.0,,FEW,5000,BKN,7900.0,BKN,12000.0,,
KRDR,06-10-2005,13:10,SPECI,,180,4.0,,,9999.0,Light Rain Showers,17.0,16.0,29.85,,,,,80,,,,,,,,,,,7/8 Mostly Cloudy,8000.0,,FEW,5000,BKN,7900.0,BKN,12000.0,,
KRDR,06-10-2005,13:00,METAR,,180,3.0,,,9999.0,,16.0,16.0,29.85,,,,,,,,,,,,,,,,8/8 Overcast,8000.0,,FEW,5000,BKN,7900.0,OVC,20000.0,,
KRDR,06-10-2005,12:30,METAR,,190,4.0,,,9999.0,,16.0,15.0,29.86,,,,,,,,,,,,,,,,8/8 Overcast,10000.0,,FEW,5000,BKN,9900.0,OVC,20000.0,,
KRDR,06-09-2005,21:30,METAR,,250,7.0,,,9999.0,,20.0,11.0,29.88,,,,,,,,,,,,,,,,7/8 Mostly Cloudy,20000.0,,SCT,4000,BKN,20000.0,,,,
KRDR,06-09-2005,21:00,METAR,,290,9.0,,,9999.0,,21.0,10.0,29.88,,,,,,,,,,,,,,,,7/8 Mostly Cloudy,20000.0,,SCT,4000,BKN,20000.0,,,,
KRDR,06-09-2005,20:00,METAR,,280,8.0,,,9999.0,,20.0,11.0,29.86,,,,,,,,,,,,,,,,7/8 Mostly Cloudy,20000.0,,SCT,400,BKN,20000.0,,,,
KRDR,06-09-2005,19:00,METAR,,300,8.0,14.0,,9999.0,,20.0,11.0,29.88,,,,,,,,,,,,,,,,7/8 Mostly Cloudy,20000.0,,SCT,4000,BKN,20000.0,,,,
KRDR,06-09-2005,18:00,METAR,,300,8.0,,,9999.0,,18.0,10.0,29.88,,,,,,,,,,,,,,,,7/8 Mostly Cloudy,20000.0,,SCT,3500,BKN,20000.0,,,,
KRDR,06-09-2005,17:00,METAR,,280,9.0,,,9999.0,,18.0,10.0,29.86,,,,,,,,,,,,,,,,4/8 Partly Cloudy,72000.0,,FEW,3000,SCT,20000.0,,,,
KRDR,06-09-2005,16:00,METAR,,280,10.0,15.0,,9999.0,,17.0,10.0,29.86,,,,,,,,,,,,,,,,4/8 Partly Cloudy,72000.0,,FEW,2500,SCT,25000.0,,,,
KRDR,06-09-2005,15:00,METAR,,280,13.0,17.0,,9999.0,,16.0,9.0,29.85,,,,,,,,,,,,,,,,4/8 Partly Cloudy,72000.0,,FEW,2500,SCT,25000.0,,,,
KRDR,06-09-2005,14:00,METAR,,270,14.0,,,9999.0,,15.0,10.0,29.85,,,,,,,,,,,,,,,,4/8 Partly Cloudy,72000.0,,SCT,2500,,,,,,
KRDR,06-09-2005,13:00,METAR,,260,12.0,,,9999.0,,14.0,10.0,29.83,,,,,,,,,,,,,,,,2/8 Mostly Clear,72000.0,,FEW,2500,FEW,12000.0,,,,
KRDR,06-09-2005,12:30,METAR,,250,9.0,,,9999.0,,13.0,10.0,29.82,,,,,,,,,,,,,,,,2/8 Mostly Clear,72000.0,,FEW,12000,,,,,,
KRDR,06-08-2005,21:30,METAR,,190,17.0,23.0,,9999.0,,22.0,11.0,29.51,,,,,,,,,,,,,,,,7/8 Mostly Cloudy,10000.0,,SCT,5000,BKN,9900.0,,,,
KRDR,06-08-2005,21:00,METAR,,170,17.0,22.0,,9999.0,,22.0,13.0,29.50,,,,,,,,,,,,,,,,4/8 Partly Cloudy,72000.0,,FEW,5000,SCT,12000.0,,,,
KRDR,06-08-2005,20:00,METAR,,190,18.0,25.0,210/29KTS,9999.0,,23.0,11.0,29.50,,,,,,,,,,,,,,,,4/8 Partly Cloudy,72000.0,,SCT,3500,,,,,,
KRDR,06-08-2005,19:00,METAR,,180,10.0,,,9999.0,,22.0,18.0,29.50,,,,,,,,,,,,,,,,4/8 Partly Cloudy,72000.0,,SCT,2500,SCT,5000.0,,,,
KRDR,06-08-2005,18:00,METAR,,190,8.0,,,9999.0,,19.0,19.0,29.52,,,,,,,,,,,,,,.02 IN,,4/8 Partly Cloudy,72000.0,,FEW,600,SCT,2000.0,,,,
KRDR,06-08-2005,17:30,METAR,,200,9.0,,,9999.0,,18.0,18.0,29.51,,,,,,,,,,,,,,,,4/8 Partly Cloudy,72000.0,,FEW,600,SCT,1500.0,,,,
KRDR,06-08-2005,17:00,METAR,,,2.0,,,9999.0,,17.0,17.0,29.53,,,,,,,,,,,,,,,,7/8 Mostly Cloudy,600.0,,BKN,600,BKN,1500.0,,,,
KRDR,06-08-2005,16:00,METAR,,90,6.0,,,2400.0,Drizzle/Mist,14.0,14.0,29.51,,,,,51,10,,,,,,,,,,8/8 Overcast,400.0,,BKN,400,OVC,800.0,,,,
KRDR,06-08-2005,15:00,METAR,,80,9.0,,,2400.0,Drizzle/Mist,13.0,13.0,29.51,,,,,51,10,,,,,,,.03 IN,,,8/8 Overcast,400.0,,BKN,400,OVC,800.0,,,,
KRDR,06-08-2005,14:00,METAR,,80,11.0,,,3200.0,Drizzle/Mist,13.0,13.0,29.51,,,,,51,10,,,,,,,,,,8/8 Overcast,400.0,,BKN,400,OVC,800.0,,,,
KRDR,06-08-2005,13:00,METAR,,70,12.0,22.0,,4800.0,Rain/Mist,13.0,13.0,29.53,,,,,61,10,,,,,,,,,,8/8 Overcast,400.0,,BKN,400,OVC,1000.0,,,,
KRDR,06-08-2005,12:32,SPECI,,50,12.0,20.0,,9999.0,Rain/Mist,13.0,13.0,29.53,,,,,61,10,,,,,,,,,,8/8 Overcast,500.0,,BKN,500,OVC,1000.0,,,,
