Platform Id,Date,Time (UTC),Report Type,Wind Condition,Wind Direction,Wind Speed (Knots),Wind Gust Speed,Peak Wind (Knots),Visibility (M),Weather,Air Temp (C),Dew Point (C),Altimeter (inHg),SLP (Millibars),Present Automated 1,Present Automated 2,Present Automated 3,Present Manual 1,Present Manual 2,Present Manual 3,Present Manual 4,Present Manual 5,Present Manual 6,Present Manual 7,Precip Hr1,Precip Hr3,Precip Hr6,Precip Hr24,Cloud Cover,Cloud Ceiling (Feet),Lowest Cloud Base Height (Feet),Cloud Cover1,Cloudbase 1,Cloud Cover2,Cloudbase 2,Cloud Cover3,Cloudbase 3,Cloud Cover4,Cloudbase 4
KRDR,04-08-2021,23:57,METAR,Normal,20,11.0,,,6400.0,Light Rain/Mist,5.4,5.4,29.59,1003.2,61,10,,,,,,,,,.01 IN,,.03 IN,,,300.0,300.0,OVC,300.0,,,,,,
KRDR,04-08-2021,23:31,SPECI,Normal,20,10.0,,,9999.0,Light Rain,5.0,5.0,29.59,1003.2,61,,,,,,,,,,,,,,,500.0,500.0,OVC,500.0,,,,,,
KRDR,04-08-2021,22:57,METAR,Normal,20,12.0,,,9999.0,Light Drizzle,5.6,5.6,29.59,1003.1,51,,,,,,,,,,TRACE,,,,,500.0,500.0,OVC,500.0,,,,,,
KRDR,04-08-2021,22:52,SPECI,Normal,20,11.0,,,9999.0,Light Drizzle,6.0,6.0,29.59,1003.1,51,,,,,,,,,,,,,,,500.0,500.0,OVC,500.0,,,,,,
KRDR,04-08-2021,22:30,SPECI,Normal,20,11.0,,,9999.0,Light Drizzle,6.0,6.0,29.60,1003.5,51,,,,,,,,,,,,,,,600.0,600.0,OVC,600.0,,,,,,
KRDR,04-08-2021,21:57,METAR,Normal,30,13.0,,,9999.0,Light Drizzle,5.7,5.7,29.60,1003.5,51,,,,,,,,,,,,,,,700.0,700.0,OVC,700.0,,,,,,
KRDR,04-08-2021,21:29,SPECI,Normal,30,11.0,,,9999.0,Light Drizzle,6.0,6.0,29.60,1003.5,51,,,,,,,,,,,,,,,600.0,600.0,OVC,600.0,,,,,,
KRDR,04-08-2021,20:57,SPECI,Normal,30,9.0,,,9999.0,Mist,6.0,6.0,29.60,1003.4,10,,,,,,,,,,,,,,,500.0,500.0,OVC,500.0,,,,,,
KRDR,04-08-2021,20:57,METAR,Normal,30,9.0,,,9999.0,,6.0,6.0,29.60,1003.4,,,,,,,,,,,,,,,,400.0,500.0,OVC,500.0,,,,,,
KRDR,04-08-2021,20:56,METAR,Normal,30,8.0,,,9999.0,Light Drizzle,5.8,5.8,29.60,1003.4,51,,,,,,,,,,TRACE,TRACE,,,,500.0,500.0,OVC,500.0,,,,,,
KRDR,04-08-2021,20:05,SPECI,Normal,30,10.0,,,6400.0,Light Drizzle,6.0,6.0,29.62,1004.1,51,,,,,,,,,,,,,,,500.0,500.0,OVC,500.0,,,,,,
KRDR,04-08-2021,19:56,METAR,Normal,20,12.0,,,6400.0,Light Drizzle,5.8,5.8,29.62,1004.1,51,,,,,,,,,,TRACE,,,,,400.0,400.0,OVC,400.0,,,,,,
KRDR,04-08-2021,19:51,SPECI,Normal,20,10.0,,,6400.0,Light Drizzle,6.0,6.0,29.62,1004.1,51,,,,,,,,,,,,,,,400.0,400.0,OVC,400.0,,,,,,
KRDR,04-08-2021,19:45,SPECI,Normal,20,10.0,,,6400.0,Light Drizzle,6.0,6.0,29.62,1004.1,51,,,,,,,,,,,,,,,400.0,500.0,BKN,500.0,OVC,900.0,,,,
KRDR,04-08-2021,19:33,SPECI,Normal,20,11.0,,,6400.0,Light Drizzle,6.0,6.0,29.62,1004.1,51,,,,,,,,,,,,,,,700.0,700.0,OVC,700.0,,,,,,
KRDR,04-08-2021,19:07,SPECI,Normal,10,12.0,,,9999.0,Light Drizzle,6.0,6.0,29.62,1004.1,51,,,,,,,,,,,,,,,800.0,800.0,OVC,800.0,,,,,,
KRDR,04-08-2021,18:56,METAR,Normal,30,12.0,,,9999.0,,6.1,6.1,29.62,1004.1,,,,,,,,,,,,,,,,800.0,800.0,OVC,800.0,,,,,,
KRDR,04-08-2021,17:56,METAR,Normal,20,10.0,,,9999.0,,6.2,6.2,29.64,1004.7,,,,,,,,,,,,,.01 IN,,,900.0,900.0,OVC,900.0,,,,,,
KRDR,04-08-2021,17:36,SPECI,Normal,40,10.0,,,9999.0,,6.0,6.0,29.64,1004.7,,,,,,,,,,,,,,,,800.0,1000.0,OVC,1000.0,,,,,,
KRDR,04-08-2021,16:56,METAR,Normal,40,9.0,,,9999.0,,6.1,6.1,29.65,1005.1,,,,,,,,,,,,,,,,800.0,800.0,BKN,800.0,OVC,1400.0,,,,
KRDR,04-08-2021,15:56,METAR,Normal,10,10.0,,,9999.0,,5.5,5.5,29.66,1005.4,,,,,,,,,,,TRACE,,TRACE,,,700.0,800.0,OVC,800.0,,,,,,
KRDR,04-08-2021,14:56,METAR,Normal,10,10.0,,,9999.0,,5.2,5.2,29.67,1005.9,,,,,,,,,,,,.01 IN,,,,800.0,800.0,OVC,800.0,,,,,,
KRDR,04-08-2021,14:26,SPECI,Normal,30,9.0,,,9999.0,,5.0,5.0,29.69,1006.5,,,,,,,,,,,,,,,,800.0,800.0,OVC,800.0,,,,,,
KRDR,04-08-2021,14:06,SPECI,Normal,10,8.0,,,9999.0,,5.0,5.0,29.69,1006.4,,,,,,,,,,,,,,,,900.0,1000.0,OVC,1000.0,,,,,,
KRDR,04-08-2021,13:56,METAR,Normal,10,10.0,,,9999.0,,4.5,4.5,29.69,1006.4,,,,,,,,,,,.01 IN,,,,,900.0,900.0,OVC,900.0,,,,,,
KRDR,04-08-2021,13:48,SPECI,Normal,20,9.0,,,9999.0,,4.0,4.0,29.69,1006.4,,,,,,,,,,,,,,,,900.0,900.0,OVC,900.0,,,,,,
KRDR,04-08-2021,12:56,METAR,Normal,10,9.0,,,9999.0,Light Drizzle,4.1,4.1,29.71,1007.1,51,,,,,,,,,,TRACE,,,,,900.0,900.0,OVC,900.0,,,,,,
KRDR,04-08-2021,11:56,METAR,Normal,360,8.0,,,9999.0,Light Drizzle,4.8,4.8,29.72,1007.4,51,,,,,,,,,,.04 IN,,.04 IN,.03 IN,,900.0,1000.0,OVC,1000.0,,,,,,
KRDR,04-08-2021,11:46,SPECI,Normal,10,9.0,,,9999.0,Light Rain,5.0,5.0,29.72,1007.4,61,,,,,,,,,,,,,,,900.0,1000.0,OVC,1000.0,,,,,,
KRDR,04-08-2021,11:36,SPECI,Normal,20,9.0,,,9999.0,Light Rain,5.0,5.0,29.72,1007.4,61,,,,,,,,,,,,,,,900.0,900.0,OVC,900.0,,,,,,
KRDR,04-08-2021,10:56,METAR,Normal,20,8.0,,,9999.0,Light Rain,5.4,5.4,29.73,1007.6,61,,,,,,,,,,TRACE,,,,,1000.0,1100.0,OVC,1100.0,,,,,,
KRDR,04-08-2021,10:46,SPECI,Normal,30,8.0,,,9999.0,Light Drizzle,6.0,6.0,29.73,1007.6,51,,,,,,,,,,,,,,,1000.0,1100.0,OVC,1100.0,,,,,,
KRDR,04-08-2021,10:36,SPECI,Normal,30,11.0,,,9999.0,Light Rain,6.0,6.0,29.73,1007.6,61,,,,,,,,,,,,,,,1200.0,1200.0,BKN,1200.0,OVC,2600.0,,,,
KRDR,04-08-2021,10:13,SPECI,Normal,30,13.0,,,9999.0,Light Rain,6.0,6.0,29.73,1007.6,61,,,,,,,,,,,,,,,1200.0,1300.0,FEW,1300.0,OVC,2700.0,,,,
KRDR,04-08-2021,09:56,METAR,Normal,30,12.0,,,9999.0,Light Drizzle,6.2,6.1,29.74,1007.9,51,,,,,,,,,,TRACE,,,,,2600.0,2600.0,OVC,2600.0,,,,,,
KRDR,04-08-2021,08:56,METAR,Normal,60,10.0,,,9999.0,Light Drizzle,7.3,5.6,29.75,1008.3,51,,,,,,,,,,TRACE,TRACE,,,,2100.0,2200.0,OVC,2200.0,,,,,,
KRDR,04-08-2021,08:43,SPECI,Normal,50,12.0,,,9999.0,Light Drizzle,8.0,,29.76,1008.6,51,,,,,,,,,,,,,,,2100.0,2200.0,OVC,2200.0,,,,,,
KRDR,04-08-2021,07:56,METAR,Normal,30,7.0,,,9999.0,,8.6,-2.1,29.77,1008.9,,,,,,,,,,,,,,,,2400.0,2400.0,OVC,2400.0,,,,,,
KRDR,04-08-2021,07:36,SPECI,Normal,20,6.0,,,9999.0,,9.0,-2.0,29.77,1008.9,,,,,,,,,,,,,,,,2600.0,2600.0,BKN,2600.0,OVC,4000.0,,,,
KRDR,04-08-2021,06:56,METAR,Normal,20,9.0,,,9999.0,,8.9,-3.3,29.78,1009.2,,,,,,,,,,,,,,,,4000.0,4000.0,OVC,4000.0,,,,,,
KRDR,04-08-2021,05:56,METAR,Normal,20,10.0,,,9999.0,,9.2,-3.4,29.79,1009.6,,,,,,,,,,,,,,,,5500.0,5500.0,BKN,5500.0,OVC,7000.0,,,,
KRDR,04-08-2021,04:56,METAR,Normal,10,9.0,,,9999.0,,8.4,-3.8,29.81,1010.4,,,,,,,,,,,,,,,4/8 Partly Cloudy,72000.0,9500.0,SCT,9600.0,,,,,,
KRDR,04-08-2021,03:56,METAR,Normal,20,10.0,,,9999.0,,8.4,-3.8,29.82,1010.8,,,,,,,,,,,,,,,,6000.0,6000.0,BKN,6000.0,,,,,,
KRDR,04-08-2021,02:56,METAR,Normal,20,7.0,,,9999.0,,7.7,-4.7,29.85,1011.9,,,,,,,,,,,,,,,,16000.0,12000.0,FEW,12000.0,BKN,16000.0,,,,
KRDR,04-08-2021,01:56,METAR,Normal,40,7.0,,,9999.0,,11.0,-4.7,29.85,1011.9,,,,,,,,,,,,,,,,17000.0,12000.0,FEW,12000.0,BKN,17000.0,,,,
KRDR,04-08-2021,00:56,METAR,Normal,60,13.0,20.0,,9999.0,,11.4,-3.9,29.84,1011.6,,,,,,,,,,,,,,,,17000.0,12000.0,FEW,12000.0,BKN,17000.0,,,,
KRDR,04-07-2021,23:56,METAR,Normal,60,13.0,21.0,,9999.0,,12.9,-5.2,29.83,1011.2,,,,,,,,,,,,,,,,17000.0,17000.0,BKN,17000.0,OVC,19000.0,,,,
KRDR,04-07-2021,22:59,METAR,Normal,50,12.0,,070/26KTS,9999.0,,13.9,-6.4,29.84,1011.6,,,,,,,,,,,,,,,,15000.0,15000.0,BKN,15000.0,OVC,17000.0,,,,
KRDR,04-07-2021,21:59,METAR,Normal,40,16.0,23.0,050/26KTS,9999.0,,15.0,-8.5,29.83,1011.2,,,,,,,,,,,,,,,,14000.0,14000.0,BKN,14000.0,OVC,17000.0,,,,
KRDR,04-07-2021,21:01,SPECI,Normal,60,16.0,24.0,,9999.0,,15.0,-7.0,29.84,1011.5,,,,,,,,,,,,,,,,15000.0,15000.0,BKN,15000.0,OVC,21000.0,,,,
KRDR,04-07-2021,20:56,METAR,Normal,60,18.0,24.0,,9999.0,,14.9,-6.6,29.84,1011.5,,,,,,,,,,,,,,,,14000.0,14000.0,BKN,14000.0,OVC,21000.0,,,,
KRDR,04-07-2021,19:56,METAR,Normal,60,15.0,20.0,,9999.0,,14.8,-5.1,29.86,1012.3,,,,,,,,,,,,,,,,17000.0,17000.0,BKN,17000.0,OVC,19000.0,,,,
KRDR,04-07-2021,18:56,METAR,Normal,60,12.0,20.0,,9999.0,,14.0,-3.8,29.88,1012.9,,,,,,,,,,,,,,,,17000.0,17000.0,BKN,17000.0,OVC,20000.0,,,,
KRDR,04-07-2021,18:22,SPECI,Normal,50,13.0,19.0,,9999.0,,14.0,-4.0,29.89,1013.2,,,,,,,,,,,,,,,,18000.0,18000.0,OVC,18000.0,,,,,,
KRDR,04-07-2021,17:56,METAR,Normal,70,13.0,,,9999.0,,13.1,-3.2,29.91,1013.8,,,,,,,,,,,,,,,,24000.0,24000.0,OVC,24000.0,,,,,,
KRDR,04-07-2021,16:56,METAR,Normal,50,13.0,,,9999.0,,12.3,-3.9,29.91,1013.8,,,,,,,,,,,,,,,,24000.0,24000.0,OVC,24000.0,,,,,,
KRDR,04-07-2021,15:56,METAR,Normal,30,12.0,,,9999.0,,9.8,-4.9,29.92,1014.2,,,,,,,,,,,,,,,,20000.0,20000.0,BKN,20000.0,,,,,,
KRDR,04-07-2021,14:56,METAR,Normal,10,12.0,,,9999.0,,7.6,-5.1,29.91,1013.9,,,,,,,,,,,,,,,,20000.0,20000.0,BKN,20000.0,,,,,,
KRDR,04-07-2021,13:56,METAR,Normal,10,9.0,,,9999.0,,4.3,-5.8,29.94,1015.0,,,,,,,,,,,,,,,,18000.0,8000.0,FEW,8000.0,BKN,18000.0,,,,
KRDR,04-07-2021,12:56,METAR,Normal,20,11.0,,,9999.0,,2.0,-6.1,29.92,1014.4,,,,,,,,,,,,,,,,18000.0,18000.0,BKN,18000.0,,,,,,
KRDR,04-07-2021,11:56,METAR,Normal,360,9.0,,,9999.0,,1.3,-6.3,29.93,1014.7,,,,,,,,,,,,,,,4/8 Partly Cloudy,72000.0,18000.0,SCT,18000.0,,,,,,
KRDR,04-07-2021,10:56,METAR,Normal,360,9.0,,,9999.0,,-0.2,-5.8,29.92,1014.3,,,,,,,,,,,,,,,4/8 Partly Cloudy,72000.0,18000.0,SCT,18000.0,,,,,,
KRDR,04-07-2021,10:16,SPECI,Normal,350,7.0,,,9999.0,,0.0,-6.0,29.93,1014.7,,,,,,,,,,,,,,,4/8 Partly Cloudy,72000.0,18000.0,SCT,18000.0,,,,,,
KRDR,04-07-2021,09:56,METAR,Normal,360,5.0,,,9999.0,,0.6,-5.4,29.94,1014.9,,,,,,,,,,,,,,,4/8 Partly Cloudy,72000.0,18000.0,SCT,18000.0,,,,,,
KRDR,04-07-2021,08:56,METAR,Normal,30,6.0,,,9999.0,,1.5,-5.6,29.93,1014.6,,,,,,,,,,,,,,,,14000.0,14000.0,OVC,14000.0,,,,,,
KRDR,04-07-2021,07:56,METAR,Normal,360,8.0,,,9999.0,,-0.1,-5.7,29.93,1014.7,,,,,,,,,,,,,,,,16000.0,16000.0,BKN,16000.0,,,,,,
KRDR,04-07-2021,06:56,METAR,Normal,20,8.0,,,9999.0,,1.1,-6.0,29.95,1015.3,,,,,,,,,,,,,,,4/8 Partly Cloudy,72000.0,15000.0,SCT,15000.0,,,,,,
KRDR,04-07-2021,05:56,METAR,Normal,10,8.0,,,9999.0,,4.9,-5.8,29.95,1015.2,,,,,,,,,,,,,,,4/8 Partly Cloudy,72000.0,15000.0,SCT,15000.0,,,,,,
KRDR,04-07-2021,04:56,METAR,Normal,30,8.0,,,9999.0,,7.0,-6.0,29.96,1015.5,,,,,,,,,,,,,,,,15000.0,15000.0,BKN,15000.0,,,,,,
KRDR,04-07-2021,03:56,METAR,Normal,20,9.0,,,9999.0,,8.2,-6.0,29.96,1015.6,,,,,,,,,,,,,,,,15000.0,15000.0,BKN,15000.0,,,,,,
KRDR,04-07-2021,02:56,METAR,Normal,20,9.0,,,9999.0,,7.6,-6.2,29.95,1015.3,,,,,,,,,,,,,,,,15000.0,15000.0,OVC,15000.0,,,,,,
KRDR,04-07-2021,01:56,METAR,Normal,20,8.0,,,9999.0,,8.2,-6.4,29.93,1014.7,,,,,,,,,,,,,,,,15000.0,15000.0,OVC,15000.0,,,,,,
KRDR,04-07-2021,00:57,METAR,Normal,30,7.0,,,9999.0,,10.3,-7.0,29.92,1014.5,,,,,,,,,,,,,,,,20000.0,14000.0,FEW,14000.0,OVC,20000.0,,,,
KRDR,04-06-2021,23:55,METAR,Normal,20,9.0,,,9999.0,,12.9,-7.2,29.92,1014.5,,,,,,,,,,,,,,,,25000.0,18000.0,FEW,18000.0,OVC,25000.0,,,,
KRDR,04-06-2021,22:56,METAR,Normal,20,9.0,18.0,,9999.0,,13.7,-7.1,29.92,1014.4,,,,,,,,,,,,,,,,25000.0,18000.0,FEW,18000.0,OVC,25000.0,,,,
KRDR,04-06-2021,21:56,METAR,Normal,30,12.0,,,9999.0,,14.2,-6.7,29.91,1014.0,,,,,,,,,,,,,,,,25000.0,18000.0,FEW,18000.0,BKN,25000.0,,,,
KRDR,04-06-2021,20:59,METAR,Normal,20,15.0,20.0,,9999.0,,14.1,-6.7,29.90,1013.6,,,,,,,,,,,,,,,,25000.0,18000.0,FEW,18000.0,BKN,25000.0,,,,
KRDR,04-06-2021,19:56,METAR,Normal,20,11.0,,,9999.0,,13.7,-5.0,29.92,1014.2,,,,,,,,,,,,,,,,25000.0,15000.0,FEW,15000.0,SCT,20000.0,BKN,25000.0,,
KRDR,04-06-2021,18:56,METAR,Normal,50,9.0,,,9999.0,,12.9,-5.7,29.94,1015.0,,,,,,,,,,,,,,,4/8 Partly Cloudy,72000.0,15000.0,FEW,15000.0,SCT,20000.0,,,,
KRDR,04-06-2021,17:56,METAR,Normal,30,11.0,19.0,,9999.0,,12.4,-4.7,29.94,1015.0,,,,,,,,,,,,,,,4/8 Partly Cloudy,72000.0,15000.0,FEW,15000.0,SCT,20000.0,,,,
KRDR,04-06-2021,17:23,SPECI,Normal,50,8.0,18.0,,9999.0,,12.0,-4.0,29.95,1015.3,,,,,,,,,,,,,,,4/8 Partly Cloudy,72000.0,15000.0,FEW,15000.0,SCT,20000.0,,,,
KRDR,04-06-2021,16:56,METAR,Normal,40,10.0,,,9999.0,,11.0,-3.5,29.95,1015.3,,,,,,,,,,,,,,,2/8 Mostly Clear,72000.0,15000.0,FEW,15000.0,FEW,20000.0,,,,
KRDR,04-06-2021,15:56,METAR,Normal,30,7.0,,,9999.0,,8.2,-1.3,29.97,1016.1,,,,,,,,,,,,,,,4/8 Partly Cloudy,72000.0,15000.0,FEW,15000.0,SCT,25000.0,,,,
KRDR,04-06-2021,14:56,METAR,Normal,30,8.0,,,9999.0,,5.1,-0.1,29.96,1015.8,,,,,,,,,,,,,,,4/8 Partly Cloudy,72000.0,15000.0,FEW,15000.0,SCT,25000.0,,,,
KRDR,04-06-2021,13:56,METAR,Normal,10,9.0,,,9999.0,,2.6,-0.2,29.96,1015.8,,,,,,,,,,,,,,,4/8 Partly Cloudy,72000.0,15000.0,FEW,15000.0,SCT,25000.0,,,,
KRDR,04-06-2021,12:56,METAR,Normal,330,5.0,,,9999.0,,-1.0,-1.3,29.98,1016.4,,,,,,,,,,,,,,,,15000.0,15000.0,BKN,15000.0,,,,,,
KRDR,04-06-2021,11:56,METAR,Normal,300,4.0,,,9999.0,,-3.8,-3.9,29.97,1016.1,,,,,,,,,,,,,,,4/8 Partly Cloudy,72000.0,15000.0,SCT,15000.0,,,,,,
KRDR,04-06-2021,10:56,METAR,Normal,360,7.0,,,9999.0,,-2.8,-3.5,29.93,1014.6,,,,,,,,,,,,,,,2/8 Mostly Clear,72000.0,15000.0,FEW,15000.0,,,,,,
KRDR,04-06-2021,09:56,METAR,Normal,340,5.0,,,9999.0,,-2.0,-2.8,29.91,1013.8,,,,,,,,,,,,,,,2/8 Mostly Clear,72000.0,15000.0,FEW,15000.0,,,,,,
KRDR,04-06-2021,08:56,METAR,Normal,330,5.0,,,9999.0,,0.1,-2.1,29.89,1013.0,,,,,,,,,,,,,,,2/8 Mostly Clear,72000.0,15000.0,FEW,15000.0,,,,,,
KRDR,04-06-2021,07:56,METAR,Normal,360,11.0,,,9999.0,,2.9,-1.8,29.85,1011.6,,,,,,,,,,,,,,,Clear,72000.0,,,,,,,,,
KRDR,04-06-2021,06:56,METAR,Normal,350,11.0,,,9999.0,,1.6,-3.3,29.85,1011.7,,,,,,,,,,,,,,,Clear,72000.0,,,,,,,,,
KRDR,04-06-2021,05:56,METAR,Normal,340,8.0,,,9999.0,,2.3,-4.5,29.83,1011.0,,,,,,,,,,,,,,,4/8 Partly Cloudy,72000.0,15000.0,SCT,15000.0,,,,,,
KRDR,04-06-2021,04:56,METAR,Normal,340,8.0,,,9999.0,,4.0,-5.8,29.81,1010.4,,,,,,,,,,,,,,,2/8 Mostly Clear,72000.0,15000.0,FEW,15000.0,,,,,,
KRDR,04-06-2021,03:56,METAR,Normal,360,8.0,,,9999.0,,3.9,-5.8,29.79,1009.8,,,,,,,,,,,,,,,Clear,72000.0,,,,,,,,,
KRDR,04-06-2021,02:56,METAR,Normal,10,8.0,,,9999.0,,6.8,-6.2,29.78,1009.5,,,,,,,,,,,,,,,2/8 Mostly Clear,72000.0,14000.0,FEW,14000.0,,,,,,
KRDR,04-06-2021,01:56,METAR,Normal,360,10.0,,,9999.0,,9.4,-5.7,29.77,1009.2,,,,,,,,,,,,,,,4/8 Partly Cloudy,72000.0,14000.0,SCT,14000.0,,,,,,
KRDR,04-06-2021,00:56,METAR,Normal,360,10.0,,,9999.0,,13.1,-5.0,29.74,1008.3,,,,,,,,,,,,,,,4/8 Partly Cloudy,72000.0,14000.0,SCT,14000.0,,,,,,
KRDR,04-05-2021,23:56,METAR,Normal,340,18.0,25.0,340/28KTS,9999.0,,16.7,-4.5,29.71,1007.1,,,,,,,,,,,,,,,4/8 Partly Cloudy,72000.0,14000.0,SCT,14000.0,,,,,,
KRDR,04-05-2021,22:56,METAR,Normal,360,17.0,25.0,,9999.0,,18.6,1.1,29.68,1006.1,,,,,,,,,,,,,,,,14000.0,14000.0,BKN,14000.0,,,,,,
KRDR,04-05-2021,21:56,METAR,Normal,20,16.0,,360/28KTS,9999.0,,20.1,0.5,29.66,1005.3,,,,,,,,,,,,,,,,15000.0,6000.0,FEW,6000.0,BKN,15000.0,,,,
KRDR,04-05-2021,20:56,METAR,Normal,10,17.0,23.0,20/30KTS,9999.0,,21.1,-0.3,29.63,1004.2,,,,,,,,,,,,,,,4/8 Partly Cloudy,72000.0,6000.0,FEW,6000.0,SCT,15000.0,,,,
KRDR,04-05-2021,19:56,METAR,Normal,360,18.0,28.0,350/28KTS,9999.0,,20.8,-2.3,29.62,1003.8,,,,,,,,,,,,,,,4/8 Partly Cloudy,72000.0,6000.0,FEW,6000.0,SCT,15000.0,,,,
KRDR,04-05-2021,18:56,METAR,Normal,350,16.0,,,9999.0,,20.2,-3.5,29.63,1004.2,,,,,,,,,,,,,,,4/8 Partly Cloudy,72000.0,15000.0,SCT,15000.0,,,,,,
KRDR,04-05-2021,17:56,METAR,Normal,330,11.0,,,9999.0,,17.6,-3.2,29.64,1004.5,,,,,,,,,,,,,,,2/8 Mostly Clear,72000.0,14000.0,FEW,14000.0,FEW,23000.0,,,,
KRDR,04-05-2021,16:56,METAR,Normal,310,6.0,,,9999.0,,14.7,-3.6,29.64,1004.4,,,,,,,,,,,,,,,4/8 Partly Cloudy,72000.0,16000.0,SCT,16000.0,SCT,20000.0,,,,
KRDR,04-05-2021,15:56,METAR,Normal,230,5.0,,,9999.0,,11.9,-3.5,29.66,1005.1,,,,,,,,,,,,,,,,15000.0,15000.0,BKN,15000.0,,,,,,
KRDR,04-05-2021,14:56,METAR,Calm,,0.0,,,9999.0,,8.0,-3.8,29.67,1005.6,,,,,,,,,,,,,,,,15000.0,15000.0,BKN,15000.0,,,,,,
KRDR,04-05-2021,13:56,METAR,Calm,,0.0,,,9999.0,,4.0,-3.5,29.66,1005.3,,,,,,,,,,,,,,,,15000.0,15000.0,BKN,15000.0,,,,,,
KRDR,04-05-2021,12:56,METAR,Calm,,0.0,,,9999.0,,-0.7,-3.2,29.65,1005.1,,,,,,,,,,,,,,,Clear,72000.0,,,,,,,,,
KRDR,04-05-2021,11:56,METAR,Calm,,0.0,,,9999.0,,-2.5,-5.6,29.68,1006.1,,,,,,,,,,,,,,,Clear,72000.0,,,,,,,,,
KRDR,04-05-2021,10:56,METAR,Normal,230,3.0,,,9999.0,,-3.2,-5.8,29.70,1006.7,,,,,,,,,,,,,,,Clear,72000.0,,,,,,,,,
KRDR,04-05-2021,09:56,METAR,Calm,,0.0,,,9999.0,,-1.9,-6.3,29.71,1007.0,,,,,,,,,,,,,,,Clear,72000.0,,,,,,,,,
KRDR,04-05-2021,08:56,METAR,Calm,,0.0,,,9999.0,,-0.8,-5.8,29.72,1007.3,,,,,,,,,,,,,,,Clear,72000.0,,,,,,,,,
KRDR,04-05-2021,07:56,METAR,Calm,,0.0,,,9999.0,,0.8,-5.9,29.76,1008.6,,,,,,,,,,,,,,,Clear,72000.0,,,,,,,,,
KRDR,04-05-2021,06:56,METAR,Normal,70,3.0,,,9999.0,,1.7,-5.9,29.79,1009.7,,,,,,,,,,,,,,,Clear,72000.0,,,,,,,,,
KRDR,04-05-2021,05:56,METAR,Normal,60,3.0,,,9999.0,,4.4,-5.4,29.80,1010.0,,,,,,,,,,,,,,,Clear,72000.0,,,,,,,,,
KRDR,04-05-2021,04:56,METAR,Normal,90,5.0,,,9999.0,,8.3,-5.2,29.80,1010.0,,,,,,,,,,,,,,,Clear,72000.0,,,,,,,,,
KRDR,04-05-2021,03:56,METAR,Normal,10,8.0,,,9999.0,,11.9,-5.6,29.82,1010.6,,,,,,,,,,,,,,,4/8 Partly Cloudy,72000.0,12000.0,SCT,12000.0,,,,,,
KRDR,04-05-2021,02:56,METAR,Normal,110,6.0,,,9999.0,,12.9,-5.7,29.86,1012.1,,,,,,,,,,,,,,,2/8 Mostly Clear,72000.0,12000.0,FEW,12000.0,,,,,,
KRDR,04-05-2021,01:56,METAR,Normal,100,6.0,,,9999.0,,13.7,-6.5,29.88,1012.8,,,,,,,,,,,,,,,Clear,72000.0,,,,,,,,,
KRDR,04-05-2021,00:56,METAR,Normal,90,5.0,,,9999.0,,15.9,-5.8,29.88,1012.8,,,,,,,,,,,,,,,,12000.0,12000.0,BKN,12000.0,,,,,,
KRDR,04-04-2021,23:56,METAR,Normal,80,7.0,,,9999.0,,18.2,-6.5,29.87,1012.5,,,,,,,,,,,,,,,4/8 Partly Cloudy,72000.0,12000.0,SCT,12000.0,,,,,,
KRDR,04-04-2021,22:56,METAR,Normal,80,8.0,,,9999.0,,19.4,-7.1,29.89,1013.1,,,,,,,,,,,,,,,2/8 Mostly Clear,72000.0,21000.0,FEW,21000.0,,,,,,
KRDR,04-04-2021,21:56,METAR,Normal,40,4.0,,,9999.0,,19.9,-7.5,29.91,1013.7,,,,,,,,,,,,,,,2/8 Mostly Clear,72000.0,13000.0,FEW,13000.0,,,,,,
KRDR,04-04-2021,20:56,METAR,Normal,70,6.0,,,9999.0,,20.0,-7.4,29.93,1014.3,,,,,,,,,,,,,,,Clear,72000.0,,,,,,,,,
KRDR,04-04-2021,19:56,METAR,Normal,40,7.0,15.0,,9999.0,,20.2,-6.4,29.94,1014.6,,,,,,,,,,,,,,,Clear,72000.0,,,,,,,,,
KRDR,04-04-2021,18:56,METAR,Normal,50,11.0,15.0,,9999.0,,18.4,-5.7,29.97,1015.6,,,,,,,,,,,,,,,Clear,72000.0,,,,,,,,,
KRDR,04-04-2021,17:56,METAR,Normal,30,8.0,,,9999.0,,16.6,-5.8,29.98,1015.9,,,,,,,,,,,,,,,Clear,72000.0,,,,,,,,,
KRDR,04-04-2021,16:56,METAR,Normal,20,11.0,,,9999.0,,13.8,-5.9,30.00,1016.7,,,,,,,,,,,,,,,Clear,72000.0,,,,,,,,,
KRDR,04-04-2021,15:56,METAR,Normal,360,12.0,,,9999.0,,10.1,-5.5,30.00,1016.8,,,,,,,,,,,,,,,Clear,72000.0,,,,,,,,,
KRDR,04-04-2021,14:56,METAR,Normal,350,10.0,,,9999.0,,7.1,-5.9,30.00,1016.9,,,,,,,,,,,,,,,2/8 Mostly Clear,72000.0,19000.0,FEW,19000.0,,,,,,
KRDR,04-04-2021,13:56,METAR,Normal,340,10.0,,,9999.0,,4.4,-5.4,29.99,1016.6,,,,,,,,,,,,,,,Clear,72000.0,,,,,,,,,
KRDR,04-04-2021,12:56,METAR,Normal,320,8.0,,,9999.0,,2.0,-5.9,29.98,1016.2,,,,,,,,,,,,,,,Clear,72000.0,,,,,,,,,
KRDR,04-04-2021,11:56,METAR,Normal,320,11.0,,,9999.0,,0.7,-6.6,29.97,1015.8,,,,,,,,,,,,,,,Clear,72000.0,,,,,,,,,
KRDR,04-04-2021,10:56,METAR,Normal,310,10.0,,,9999.0,,1.7,-7.4,29.95,1015.1,,,,,,,,,,,,,,,Clear,72000.0,,,,,,,,,
KRDR,04-04-2021,09:56,METAR,Normal,310,11.0,,,9999.0,,2.9,-7.6,29.93,1014.3,,,,,,,,,,,,,,,Clear,72000.0,,,,,,,,,
KRDR,04-04-2021,08:56,METAR,Normal,320,10.0,,,9999.0,,5.1,-6.5,29.92,1013.9,,,,,,,,,,,,,,,Clear,72000.0,,,,,,,,,
KRDR,04-04-2021,07:56,METAR,Normal,290,7.0,,,9999.0,,5.3,-6.0,29.90,1013.3,,,,,,,,,,,,,,,Clear,72000.0,,,,,,,,,
KRDR,04-04-2021,06:56,METAR,Normal,230,10.0,,,9999.0,,7.7,-5.4,29.88,1012.6,,,,,,,,,,,,,,,Clear,72000.0,,,,,,,,,
KRDR,04-04-2021,05:56,METAR,Normal,210,8.0,,,9999.0,,11.2,-5.7,29.88,1012.6,,,,,,,,,,,,,,,Clear,72000.0,,,,,,,,,
KRDR,04-04-2021,04:56,METAR,Normal,200,6.0,,,9999.0,,10.7,-6.6,29.89,1012.9,,,,,,,,,,,,,,,Clear,72000.0,,,,,,,,,
KRDR,04-04-2021,03:56,METAR,Normal,150,9.0,,,9999.0,,10.0,-6.8,29.89,1013.0,,,,,,,,,,,,,,,Clear,72000.0,,,,,,,,,
KRDR,04-04-2021,02:56,METAR,Normal,140,9.0,,,9999.0,,11.0,-6.4,29.91,1013.8,,,,,,,,,,,,,,,Clear,72000.0,,,,,,,,,
KRDR,04-04-2021,01:56,METAR,Normal,160,12.0,,,9999.0,,14.5,-6.4,29.92,1014.1,,,,,,,,,,,,,,,Clear,72000.0,,,,,,,,,
KRDR,04-04-2021,00:56,METAR,Normal,170,12.0,,,9999.0,,17.1,-6.1,29.92,1014.3,,,,,,,,,,,,,,,4/8 Partly Cloudy,72000.0,12000.0,FEW,12000.0,SCT,14000.0,,,,
KRDR,04-03-2021,23:56,METAR,Normal,170,14.0,,,9999.0,,20.2,-6.4,29.94,1014.9,,,,,,,,,,,,,,,4/8 Partly Cloudy,72000.0,12000.0,FEW,12000.0,SCT,14000.0,,,,
KRDR,04-03-2021,22:56,METAR,Normal,180,12.0,19.0,,9999.0,,20.7,-6.9,29.97,1015.9,,,,,,,,,,,,,,,4/8 Partly Cloudy,72000.0,14000.0,SCT,14000.0,,,,,,
KRDR,04-03-2021,21:56,METAR,Normal,180,10.0,,,9999.0,,20.9,-6.7,29.99,1016.6,,,,,,,,,,,,,,,,14000.0,12000.0,SCT,12000.0,BKN,14000.0,,,,
KRDR,04-03-2021,20:56,METAR,Normal,170,14.0,,,9999.0,,20.1,-6.5,30.00,1016.9,,,,,,,,,,,,,,,,14000.0,12000.0,SCT,12000.0,BKN,14000.0,,,,
KRDR,04-03-2021,19:56,METAR,Normal,170,11.0,17.0,,9999.0,,18.9,-5.2,30.03,1017.9,,,,,,,,,,,,,,,,13000.0,13000.0,BKN,13000.0,,,,,,
KRDR,04-03-2021,18:56,METAR,Normal,170,12.0,17.0,,9999.0,,17.1,-6.1,30.06,1018.9,,,,,,,,,,,,,,,,12000.0,12000.0,BKN,12000.0,,,,,,
KRDR,04-03-2021,17:56,METAR,Normal,160,9.0,,,9999.0,,15.2,-7.0,30.08,1019.7,,,,,,,,,,,,,,,,12000.0,12000.0,BKN,12000.0,,,,,,
KRDR,04-03-2021,16:56,METAR,Normal,140,9.0,,,9999.0,,14.1,-7.9,30.12,1021.0,,,,,,,,,,,,,,,,12000.0,12000.0,BKN,12000.0,,,,,,
KRDR,04-03-2021,15:56,METAR,Normal,130,6.0,,,9999.0,,11.8,-6.6,30.13,1021.3,,,,,,,,,,,,,,,2/8 Mostly Clear,72000.0,15000.0,FEW,15000.0,,,,,,
KRDR,04-03-2021,14:56,METAR,Calm,,0.0,,,9999.0,,8.7,-4.5,30.12,1021.0,,,,,,,,,,,,,,,2/8 Mostly Clear,72000.0,22000.0,FEW,22000.0,,,,,,
KRDR,04-03-2021,13:58,METAR,Normal,20,3.0,,,9999.0,,5.7,-3.9,30.12,1021.0,,,,,,,,,,,,,,,2/8 Mostly Clear,72000.0,22000.0,FEW,22000.0,,,,,,
KRDR,04-03-2021,13:56,METAR,Calm,,0.0,,,9999.0,,5.6,-3.7,30.12,1021.0,,,,,,,,,,,,,,,Clear,72000.0,,,,,,,,,
KRDR,04-03-2021,11:56,METAR,Normal,250,3.0,,,9999.0,,-4.7,-6.7,30.08,1019.8,,,,,,,,,,,,,,,Clear,72000.0,,,,,,,,,
KRDR,04-03-2021,10:56,METAR,Normal,300,4.0,,,9999.0,,-5.0,-7.3,30.07,1019.4,,,,,,,,,,,,,,,Clear,72000.0,,,,,,,,,
KRDR,04-03-2021,09:56,METAR,Calm,,0.0,,,9999.0,,-4.0,-6.9,30.05,1018.7,,,,,,,,,,,,,,,Clear,72000.0,,,,,,,,,
KRDR,04-03-2021,08:56,METAR,Normal,310,3.0,,,9999.0,,-1.5,-7.4,30.03,1017.9,,,,,,,,,,,,,,,Clear,72000.0,,,,,,,,,
KRDR,04-03-2021,07:56,METAR,Normal,290,6.0,,,9999.0,,-1.1,-6.5,30.01,1017.2,,,,,,,,,,,,,,,Clear,72000.0,,,,,,,,,
KRDR,04-03-2021,06:56,METAR,Normal,280,4.0,,,9999.0,,0.3,-6.8,30.00,1016.9,,,,,,,,,,,,,,,Clear,72000.0,,,,,,,,,
KRDR,04-03-2021,05:56,METAR,Normal,310,7.0,,,9999.0,,1.7,-6.4,29.98,1016.2,,,,,,,,,,,,,,,Clear,72000.0,,,,,,,,,
KRDR,04-03-2021,04:56,METAR,Normal,310,9.0,,,9999.0,,5.3,-5.1,29.97,1015.9,,,,,,,,,,,,,,,Clear,72000.0,,,,,,,,,
KRDR,04-03-2021,03:56,METAR,Normal,320,8.0,,,9999.0,,8.0,-4.5,29.95,1015.2,,,,,,,,,,,,,,,Clear,72000.0,,,,,,,,,
KRDR,04-03-2021,02:56,METAR,Normal,340,9.0,,,9999.0,,8.8,-4.1,29.92,1014.3,,,,,,,,,,,,,,,Clear,72000.0,,,,,,,,,
KRDR,04-03-2021,01:56,METAR,Normal,350,11.0,,,9999.0,,12.1,-4.1,29.89,1013.2,,,,,,,,,,,,,,,Clear,72000.0,,,,,,,,,
KRDR,04-03-2021,00:56,METAR,Normal,350,13.0,,,9999.0,,15.2,-4.7,29.84,1011.5,,,,,,,,,,,,,,,Clear,72000.0,,,,,,,,,
KRDR,04-02-2021,23:56,METAR,Normal,300,13.0,,,9999.0,,18.9,-6.0,29.81,1010.4,,,,,,,,,,,,,,,Clear,72000.0,,,,,,,,,
KRDR,04-02-2021,22:56,METAR,Normal,290,16.0,,,9999.0,,20.2,-6.4,29.79,1009.6,,,,,,,,,,,,,,,Clear,72000.0,,,,,,,,,
KRDR,04-02-2021,21:56,METAR,Normal,300,14.0,,,9999.0,,20.4,-8.0,29.77,1008.9,,,,,,,,,,,,,,,,20000.0,20000.0,BKN,20000.0,,,,,,
KRDR,04-02-2021,20:56,METAR,Normal,260,13.0,17.0,,9999.0,,20.2,-2.2,29.77,1008.9,,,,,,,,,,,,,,,,20000.0,20000.0,BKN,20000.0,,,,,,
KRDR,04-02-2021,19:56,METAR,Normal,210,15.0,,,9999.0,Haze Smoke or Dust,18.0,-2.3,29.77,1008.9,05,,,,,,,,,,,,,,,17000.0,17000.0,BKN,17000.0,,,,,,
KRDR,04-02-2021,18:56,METAR,Normal,220,17.0,22.0,220/26KTS,9999.0,Haze Smoke or Dust,17.4,-2.3,29.78,1009.3,05,,,,,,,,,,,,,,,20000.0,20000.0,BKN,20000.0,,,,,,
KRDR,04-02-2021,17:56,METAR,Normal,200,19.0,28.0,190/28KTS,9999.0,Haze Smoke or Dust,15.1,-2.4,29.78,1009.3,05,,,,,,,,,,,,,,,20000.0,20000.0,BKN,20000.0,,,,,,
KRDR,04-02-2021,16:56,METAR,Normal,190,19.0,25.0,210/28KTS,9999.0,Haze Smoke or Dust,12.4,-3.0,29.80,1010.1,05,,,,,,,,,,,,,,2/8 Mostly Clear,72000.0,20000.0,FEW,20000.0,,,,,,
KRDR,04-02-2021,15:56,METAR,Normal,190,18.0,28.0,190/28KTS,9999.0,,9.2,-3.7,29.79,1009.9,,,,,,,,,,,,,,,2/8 Mostly Clear,72000.0,15000.0,FEW,15000.0,,,,,,
KRDR,04-02-2021,14:56,METAR,Normal,180,20.0,28.0,180/28KTS,9999.0,,5.8,-4.9,29.82,1011.0,,,,,,,,,,,,,,,2/8 Mostly Clear,72000.0,15000.0,FEW,15000.0,,,,,,
KRDR,04-02-2021,13:56,METAR,Normal,180,17.0,23.0,,9999.0,,3.5,-5.7,29.83,1011.4,,,,,,,,,,,,,,,2/8 Mostly Clear,72000.0,15000.0,FEW,15000.0,,,,,,
KRDR,04-02-2021,13:42,SPECI,Normal,170,18.0,22.0,,9999.0,,3.0,-6.0,29.83,1011.4,,,,,,,,,,,,,,,4/8 Partly Cloudy,72000.0,15000.0,SCT,15000.0,,,,,,
KRDR,04-02-2021,12:56,METAR,Normal,180,17.0,,,9999.0,,1.8,-6.1,29.83,1011.4,,,,,,,,,,,,,,,4/8 Partly Cloudy,72000.0,15000.0,SCT,15000.0,,,,,,
KRDR,04-02-2021,11:56,METAR,Normal,180,16.0,22.0,,9999.0,,1.8,-6.3,29.84,1011.6,,,,,,,,,,,,,,,2/8 Mostly Clear,72000.0,15000.0,FEW,15000.0,,,,,,
KRDR,04-02-2021,10:56,METAR,Normal,170,17.0,,,9999.0,,2.1,-6.5,29.85,1011.9,,,,,,,,,,,,,,,4/8 Partly Cloudy,72000.0,15000.0,SCT,15000.0,,,,,,
KRDR,04-02-2021,09:56,METAR,Normal,170,17.0,,200/26KTS,9999.0,,2.6,-6.8,29.87,1012.5,,,,,,,,,,,,,,,4/8 Partly Cloudy,72000.0,15000.0,SCT,15000.0,,,,,,
KRDR,04-02-2021,08:56,METAR,Normal,180,18.0,25.0,180/26KTS,9999.0,,3.5,-7.0,29.90,1013.6,,,,,,,,,,,,,,,4/8 Partly Cloudy,72000.0,15000.0,SCT,15000.0,,,,,,
KRDR,04-02-2021,07:56,METAR,Normal,180,20.0,24.0,170/33KTS,9999.0,,4.0,-7.5,29.91,1013.9,,,,,,,,,,,,,,,4/8 Partly Cloudy,72000.0,15000.0,SCT,15000.0,,,,,,
KRDR,04-02-2021,06:59,SPECI,Normal,180,21.0,33.0,,9999.0,,5.0,-8.0,29.92,1014.2,,,,,,,,,,,,,,,,15000.0,15000.0,BKN,15000.0,,,,,,
KRDR,04-02-2021,06:56,METAR,Normal,170,22.0,31.0,180/31KTS,9999.0,,5.1,-8.1,29.92,1014.2,,,,,,,,,,,,,,,Clear,72000.0,,,,,,,,,
KRDR,04-02-2021,05:56,METAR,Normal,170,24.0,30.0,,9999.0,,5.5,-8.0,29.95,1015.3,,,,,,,,,,,,,,,,15000.0,15000.0,BKN,15000.0,,,,,,
KRDR,04-02-2021,04:56,METAR,Normal,170,22.0,27.0,180/31KTS,9999.0,,5.4,-8.1,29.97,1016.1,,,,,,,,,,,,,,,,15000.0,15000.0,BKN,15000.0,,,,,,
KRDR,04-02-2021,03:56,METAR,Normal,170,22.0,27.0,180/32KTS,9999.0,,5.4,-7.8,30.00,1017.2,,,,,,,,,,,,,,,4/8 Partly Cloudy,72000.0,15000.0,SCT,15000.0,,,,,,
KRDR,04-02-2021,02:56,METAR,Normal,160,22.0,31.0,170/31KTS,9999.0,,5.7,-7.5,30.01,1017.6,,,,,,,,,,,,,,,4/8 Partly Cloudy,72000.0,15000.0,SCT,15000.0,,,,,,
KRDR,04-02-2021,01:56,METAR,Normal,160,18.0,24.0,160/26KTS,9999.0,,6.6,-7.8,30.04,1018.7,,,,,,,,,,,,,,,4/8 Partly Cloudy,72000.0,15000.0,SCT,15000.0,,,,,,
KRDR,04-02-2021,00:56,METAR,Normal,160,20.0,25.0,170/29KTS,9999.0,,8.3,-7.9,30.06,1019.5,,,,,,,,,,,,,,,4/8 Partly Cloudy,72000.0,15000.0,FEW,15000.0,SCT,20000.0,,,,
KRDR,04-01-2021,23:56,METAR,Normal,160,21.0,29.0,170/31KTS,9999.0,,11.2,-8.6,30.07,1019.8,,,,,,,,,,,,,,,4/8 Partly Cloudy,72000.0,15000.0,FEW,15000.0,SCT,20000.0,,,,
KRDR,04-01-2021,22:56,METAR,Normal,170,23.0,27.0,180/31KTS,9999.0,,11.7,-8.8,30.09,1020.5,,,,,,,,,,,,,,,4/8 Partly Cloudy,72000.0,15000.0,FEW,15000.0,SCT,20000.0,,,,
KRDR,04-01-2021,21:56,METAR,Normal,170,22.0,28.0,170/32KTS,9999.0,,12.8,-8.4,30.11,1021.1,,,,,,,,,,,,,,,4/8 Partly Cloudy,72000.0,15000.0,FEW,15000.0,SCT,20000.0,,,,
KRDR,04-01-2021,20:56,METAR,Normal,170,21.0,29.0,180/29KTS,9999.0,,12.2,-8.9,30.15,1022.5,,,,,,,,,,,,,,,4/8 Partly Cloudy,72000.0,15000.0,SCT,15000.0,,,,,,
KRDR,04-01-2021,19:56,METAR,Normal,180,22.0,28.0,180/28KTS,9999.0,,11.7,-9.3,30.18,1023.6,,,,,,,,,,,,,,,4/8 Partly Cloudy,72000.0,15000.0,FEW,15000.0,SCT,20000.0,,,,
KRDR,04-01-2021,18:56,METAR,Normal,180,17.0,25.0,,9999.0,,10.6,-9.2,30.23,1025.4,,,,,,,,,,,,,,,2/8 Mostly Clear,72000.0,20000.0,FEW,20000.0,,,,,,
KRDR,04-01-2021,17:56,METAR,Normal,190,17.0,23.0,,9999.0,,8.9,-10.1,30.25,1026.2,,,,,,,,,,,,,,,2/8 Mostly Clear,72000.0,20000.0,FEW,20000.0,,,,,,
KRDR,04-01-2021,16:56,METAR,Normal,190,18.0,22.0,,9999.0,,6.8,-10.9,30.28,1027.2,,,,,,,,,,,,,,,2/8 Mostly Clear,72000.0,20000.0,FEW,20000.0,,,,,,
KRDR,04-01-2021,15:56,METAR,Normal,180,16.0,21.0,,9999.0,,4.5,-12.0,30.31,1028.3,,,,,,,,,,,,,,,2/8 Mostly Clear,72000.0,20000.0,FEW,20000.0,,,,,,
KRDR,04-01-2021,14:56,METAR,Normal,190,15.0,,,9999.0,,1.4,-12.1,30.33,1029.0,,,,,,,,,,,,,,,2/8 Mostly Clear,72000.0,20000.0,FEW,20000.0,,,,,,
KRDR,04-01-2021,13:56,METAR,Normal,190,12.0,,,9999.0,,-2.1,-11.1,30.36,1030.1,,,,,,,,,,,,,,,2/8 Mostly Clear,72000.0,25000.0,FEW,25000.0,,,,,,
KRDR,04-01-2021,12:56,METAR,Normal,190,9.0,,,9999.0,,-5.7,-11.1,30.36,1030.1,,,,,,,,,,,,,,,Clear,72000.0,,,,,,,,,
KRDR,04-01-2021,11:56,METAR,Normal,190,6.0,,,9999.0,,-7.1,-11.8,30.38,1030.7,,,,,,,,,,,,,,,Clear,72000.0,,,,,,,,,
KRDR,04-01-2021,10:56,METAR,Normal,190,8.0,,,9999.0,,-8.0,-11.7,30.38,1030.8,,,,,,,,,,,,,,,Clear,72000.0,,,,,,,,,
KRDR,04-01-2021,09:56,METAR,Normal,200,9.0,,,9999.0,,-8.3,-12.0,30.38,1030.8,,,,,,,,,,,,,,,Clear,72000.0,,,,,,,,,
KRDR,04-01-2021,08:56,METAR,Normal,190,9.0,,,9999.0,,-9.0,-12.0,30.40,1031.5,,,,,,,,,,,,,,,Clear,72000.0,,,,,,,,,
KRDR,04-01-2021,07:56,METAR,Normal,200,7.0,,,9999.0,,-9.6,-13.1,30.41,1031.9,,,,,,,,,,,,,,,Clear,72000.0,,,,,,,,,
KRDR,04-01-2021,06:56,METAR,Normal,190,7.0,,,9999.0,,-10.3,-13.0,30.42,1032.4,,,,,,,,,,,,,,,Clear,72000.0,,,,,,,,,
KRDR,04-01-2021,05:56,METAR,Normal,180,6.0,,,9999.0,,-10.5,-13.9,30.42,1032.4,,,,,,,,,,,,,,,Clear,72000.0,,,,,,,,,
KRDR,04-01-2021,04:56,METAR,Normal,210,5.0,,,9999.0,,-9.0,-13.8,30.44,1033.0,,,,,,,,,,,,,,,Clear,72000.0,,,,,,,,,
KRDR,04-01-2021,03:56,METAR,Normal,190,5.0,,,9999.0,,-9.6,-14.6,30.45,1033.5,,,,,,,,,,,,,,,Clear,72000.0,,,,,,,,,
KRDR,04-01-2021,02:56,METAR,Normal,230,3.0,,,9999.0,,-7.6,-14.9,30.44,1033.2,,,,,,,,,,,,,,,Clear,72000.0,,,,,,,,,
KRDR,04-01-2021,01:56,METAR,Normal,260,3.0,,,9999.0,,-6.8,-13.7,30.44,1033.2,,,,,,,,,,,,,,,Clear,72000.0,,,,,,,,,
KRDR,04-01-2021,00:56,METAR,Normal,270,3.0,,,9999.0,,-2.3,-15.0,30.44,1033.1,,,,,,,,,,,,,,,Clear,72000.0,,,,,,,,,
KRDR,03-31-2021,23:56,METAR,Calm,,0.0,,,9999.0,,-0.1,-14.8,30.43,1032.7,,,,,,,,,,,,,,,Clear,72000.0,,,,,,,,,
KRDR,03-31-2021,22:56,METAR,Normal,340,9.0,,,9999.0,,0.4,-14.8,30.43,1032.6,,,,,,,,,,,,,,,2/8 Mostly Clear,72000.0,5000.0,FEW,5000.0,,,,,,
KRDR,03-31-2021,21:56,METAR,Normal,330,9.0,15.0,,9999.0,,0.2,-15.0,30.42,1032.3,,,,,,,,,,,,,,,2/8 Mostly Clear,72000.0,5000.0,FEW,5000.0,,,,,,
KRDR,03-31-2021,20:56,METAR,Normal,40,6.0,16.0,,9999.0,,0.2,-15.0,30.41,1031.9,,,,,,,,,,,,,,,4/8 Partly Cloudy,72000.0,5000.0,SCT,5000.0,,,,,,
KRDR,03-31-2021,19:56,METAR,Normal,350,11.0,15.0,,9999.0,,0.0,-14.8,30.42,1032.2,,,,,,,,,,,,,,,2/8 Mostly Clear,72000.0,4300.0,FEW,4300.0,,,,,,
KRDR,03-31-2021,19:31,SPECI,Normal,330,12.0,16.0,,9999.0,,-1.0,-14.0,30.42,1032.3,,,,,,,,,,,,,,,2/8 Mostly Clear,72000.0,4300.0,FEW,4300.0,,,,,,
KRDR,03-31-2021,18:56,METAR,Normal,340,9.0,15.0,,9999.0,,-1.4,-14.9,30.41,1031.9,,,,,,,,,,,,,,,2/8 Mostly Clear,72000.0,4300.0,FEW,4300.0,,,,,,
KRDR,03-31-2021,17:56,METAR,Normal,340,11.0,16.0,,9999.0,,-2.6,-14.1,30.42,1032.4,,,,,,,,,,,,,,,4/8 Partly Cloudy,72000.0,3800.0,SCT,3800.0,,,,,,
KRDR,03-31-2021,16:56,METAR,Normal,360,11.0,15.0,,9999.0,,-3.8,-13.2,30.41,1032.0,,,,,,,,,,,,,,,4/8 Partly Cloudy,72000.0,3300.0,SCT,3300.0,,,,,,
KRDR,03-31-2021,15:56,METAR,Normal,330,11.0,,,9999.0,,-5.5,-12.7,30.40,1031.7,,,,,,,,,,,,,,,4/8 Partly Cloudy,72000.0,2900.0,SCT,2900.0,,,,,,
KRDR,03-31-2021,14:56,METAR,Normal,350,10.0,,,9999.0,,-7.2,-11.6,30.38,1031.1,,,,,,,,,,,,,,,2/8 Mostly Clear,72000.0,2200.0,FEW,2200.0,,,,,,
KRDR,03-31-2021,13:56,METAR,Normal,340,10.0,,,9999.0,,-9.1,-12.1,30.37,1030.7,,,,,,,,,,,,,,,2/8 Mostly Clear,72000.0,2200.0,FEW,2200.0,,,,,,
KRDR,03-31-2021,12:56,METAR,Normal,320,6.0,,,9999.0,,-11.2,-13.0,30.34,1029.8,,,,,,,,,,,,,,,2/8 Mostly Clear,72000.0,2200.0,FEW,2200.0,,,,,,
KRDR,03-31-2021,11:56,METAR,Normal,340,7.0,,,9999.0,,-11.4,-13.3,30.30,1028.3,,,,,,,,,,,,,TRACE,,2/8 Mostly Clear,72000.0,2200.0,FEW,2200.0,,,,,,
KRDR,03-31-2021,11:16,SPECI,Normal,340,6.0,,,9999.0,,-11.0,-13.0,30.28,1027.7,,,,,,,,,,,,,,,2/8 Mostly Clear,72000.0,2200.0,FEW,2200.0,,,,,,
KRDR,03-31-2021,10:56,METAR,Normal,350,8.0,,,9999.0,,-10.2,-12.3,30.27,1027.3,,,,,,,,,,,,,,,,900.0,1200.0,FEW,1200.0,OVC,2200.0,,,,
KRDR,03-31-2021,10:41,SPECI,Normal,350,7.0,,,9999.0,,-11.0,-12.0,30.26,1027.0,,,,,,,,,,,,,,,,900.0,1300.0,SCT,1300.0,OVC,2000.0,,,,
KRDR,03-31-2021,09:56,METAR,Normal,360,7.0,,,9999.0,,-9.6,-11.5,30.24,1026.3,,,,,,,,,,,,,,,,3700.0,2100.0,SCT,2100.0,OVC,3700.0,,,,
KRDR,03-31-2021,08:56,METAR,Normal,350,9.0,,,9999.0,,-8.7,-10.5,30.21,1025.2,,,,,,,,,,,TRACE,TRACE,,,,2800.0,1000.0,FEW,1000.0,SCT,1800.0,OVC,2800.0,,
KRDR,03-31-2021,08:23,SPECI,Normal,360,10.0,,,9999.0,Light Snow,-9.0,-11.0,30.20,1024.9,71,,,,,,,,,,,,,,,3100.0,1200.0,FEW,1200.0,FEW,2000.0,OVC,3100.0,,
KRDR,03-31-2021,08:12,SPECI,Normal,360,9.0,,,9999.0,,-9.0,-10.0,30.19,1024.6,,,,,,,,,,,,,,,,3100.0,1300.0,FEW,1300.0,OVC,3100.0,,,,
KRDR,03-31-2021,07:56,METAR,Normal,350,11.0,,,9999.0,Light Snow,-8.5,-9.6,30.18,1024.2,71,,,,,,,,,,TRACE,,,,,3500.0,1300.0,FEW,1300.0,SCT,2100.0,OVC,3500.0,,
KRDR,03-31-2021,06:56,METAR,Normal,10,3.0,,,9999.0,Light Snow,-8.7,-9.8,30.16,1023.6,71,,,,,,,,,,TRACE,,,,,3200.0,3200.0,OVC,3200.0,,,,,,
KRDR,03-31-2021,05:56,METAR,Normal,10,5.0,,,9999.0,Light Snow,-8.7,-10.2,30.15,1023.2,71,,,,,,,,,,TRACE,,TRACE,,,3100.0,1400.0,FEW,1400.0,OVC,3100.0,,,,
KRDR,03-31-2021,04:56,METAR,Normal,10,6.0,,,9999.0,Light Snow,-8.6,-10.7,30.13,1022.5,71,,,,,,,,,,TRACE,,,,,3600.0,3600.0,OVC,3600.0,,,,,,
KRDR,03-31-2021,03:56,METAR,Normal,30,6.0,,,9999.0,,-8.7,-10.8,30.11,1021.8,,,,,,,,,,,,,,,,600.0,600.0,FEW,600.0,SCT,1600.0,BKN,2500.0,OVC,3500.0
KRDR,03-31-2021,02:56,METAR,Normal,40,7.0,,,9999.0,,-7.6,-10.3,30.07,1020.5,,,,,,,,,,,,,,,,4700.0,3700.0,FEW,3700.0,OVC,4700.0,,,,
KRDR,03-31-2021,01:56,METAR,Normal,20,10.0,20.0,,9999.0,,-4.7,-12.2,30.01,1018.3,,,,,,,,,,,,,,,,3400.0,2900.0,FEW,2900.0,BKN,3400.0,OVC,4600.0,,
KRDR,03-31-2021,00:56,METAR,Normal,340,14.0,23.0,,9999.0,,-4.2,-10.4,29.97,1016.9,,,,,,,,,,,,,,,,4100.0,2600.0,FEW,2600.0,BKN,4100.0,,,,
KRDR,03-30-2021,23:56,METAR,Normal,330,16.0,24.0,340/28KTS,9999.0,,-3.8,-12.2,29.92,1015.2,,,,,,,,,,,,,TRACE,,,3900.0,3900.0,OVC,3900.0,,,,,,
KRDR,03-30-2021,22:56,METAR,Normal,320,18.0,26.0,330/31KTS,9999.0,,-3.8,-11.8,29.89,1014.1,,,,,,,,,,,,,,,,3800.0,3000.0,FEW,3000.0,OVC,3800.0,,,,
KRDR,03-30-2021,21:56,METAR,Normal,320,21.0,30.0,310/36KTS,9999.0,,-3.8,-12.2,29.85,1012.7,,,,,,,,,,,TRACE,,,,,4000.0,2600.0,FEW,2600.0,OVC,4000.0,,,,
KRDR,03-30-2021,20:56,METAR,Normal,320,23.0,31.0,310/32KTS,9999.0,Light Snow,-3.9,-12.6,29.82,1011.6,71,,,,,,,,,,TRACE,TRACE,,,,3700.0,2000.0,FEW,2000.0,SCT,2800.0,BKN,3700.0,OVC,4600.0
KRDR,03-30-2021,19:56,METAR,Normal,310,24.0,30.0,310/32KTS,9999.0,Light Snow,-4.5,-12.2,29.79,1010.6,71,,,,,,,,,,TRACE,,,,,3500.0,2000.0,FEW,2000.0,FEW,2500.0,BKN,3500.0,OVC,4700.0
KRDR,03-30-2021,18:56,METAR,Normal,310,21.0,25.0,310/33KTS,9999.0,Light Snow,-5.2,-9.6,29.77,1010.0,,,,71,,,,,,,TRACE,,,,,2500.0,2500.0,OVC,2500.0,,,,,,
KRDR,03-30-2021,18:04,SPECI,Normal,310,21.0,33.0,,9999.0,Light Snow,-6.0,-9.0,29.75,1009.3,71,,,,,,,,,,,,,,,2300.0,1300.0,FEW,1300.0,BKN,2300.0,OVC,3000.0,,
KRDR,03-30-2021,17:56,METAR,Normal,300,22.0,35.0,310/35KTS,3200.0,Light Snow,-5.3,-8.7,29.74,1008.9,71,,,,,,,,,,TRACE,,TRACE,,,2200.0,1700.0,FEW,1700.0,BKN,2200.0,BKN,2900.0,,
KRDR,03-30-2021,17:49,SPECI,Normal,300,23.0,34.0,,3200.0,Light Snow,-5.0,-9.0,29.74,1008.9,71,,,,,,,,,,,,,,,2300.0,1400.0,FEW,1400.0,OVC,2300.0,,,,
KRDR,03-30-2021,17:37,SPECI,Normal,300,24.0,31.0,,2400.0,Light Snow,-5.0,-9.0,29.73,1008.6,,,,71,,,,,,,,,,,,2000.0,2000.0,OVC,2000.0,,,,,,
KRDR,03-30-2021,17:27,SPECI,Normal,300,25.0,31.0,,1600.0,Light Snow/Mist,-6.0,-8.0,29.72,1008.3,,,,71,10,,,,,,,,,,,2000.0,1200.0,FEW,1200.0,OVC,2000.0,,,,
KRDR,03-30-2021,17:17,SPECI,Normal,310,23.0,28.0,,1200.0,Snow,-6.0,-8.0,29.72,1008.2,72,,,,,,,,,,,,,,,200.0,1200.0,FEW,1200.0,OVC,1800.0,,,,
KRDR,03-30-2021,16:56,METAR,Normal,310,23.0,34.0,290/36KTS,600.0,Snow,-5.0,-11.4,29.71,1007.9,72,,,,,,,,,,TRACE,,,,,3000.0,200.0,FEW,200.0,SCT,1600.0,SCT,2300.0,BKN,3000.0
KRDR,03-30-2021,15:56,METAR,Normal,310,26.0,33.0,300/36KTS,9999.0,,-3.7,-14.8,29.67,1006.4,,,,,,,,,,,TRACE,,,,,3500.0,2700.0,FEW,2700.0,BKN,3500.0,BKN,4600.0,,
KRDR,03-30-2021,14:56,METAR,Normal,290,20.0,29.0,280/33KTS,9999.0,Light Snow,-5.3,-12.9,29.65,1005.7,71,,,,,,,,,,TRACE,TRACE,,,,3100.0,2000.0,FEW,2000.0,SCT,2600.0,BKN,3100.0,OVC,4800.0
KRDR,03-30-2021,13:56,METAR,Normal,300,17.0,31.0,310/33KTS,9999.0,Light Snow,-5.6,-11.9,29.61,1004.2,71,,,,,,,,,,TRACE,,,,,2000.0,1300.0,FEW,1300.0,SCT,2000.0,BKN,2600.0,OVC,3700.0
KRDR,03-30-2021,13:26,SPECI,Normal,290,20.0,29.0,,9999.0,,-6.0,-12.0,29.59,1003.5,,,,,,,,,,,,,,,,3000.0,1700.0,SCT,1700.0,SCT,2300.0,BKN,3000.0,OVC,4600.0
KRDR,03-30-2021,13:16,SPECI,Normal,300,21.0,27.0,,9999.0,,-6.0,-12.0,29.58,1003.1,,,,,,,,,,,,,,,,2000.0,2100.0,SCT,2100.0,BKN,2900.0,,,,
KRDR,03-30-2021,12:56,METAR,Normal,300,21.0,28.0,280/32KTS,9999.0,,-5.6,-13.0,29.56,1002.4,,,,,,,,,,,,,,,4/8 Partly Cloudy,72000.0,2400.0,SCT,2400.0,,,,,,
KRDR,03-30-2021,11:56,METAR,Normal,280,20.0,27.0,300/34KTS,9999.0,,-5.3,-12.3,29.53,1001.2,,,,,,,,,,,,,,,,3800.0,2200.0,FEW,2200.0,BKN,3800.0,,,,
KRDR,03-30-2021,10:56,METAR,Normal,300,24.0,33.0,290/44KTS,9999.0,,-4.4,-11.7,29.47,999.1,,,,,,,,,,,,,,,,4000.0,2500.0,SCT,2500.0,OVC,4000.0,,,,
KRDR,03-30-2021,09:56,METAR,Normal,290,31.0,44.0,300/44KTS,9999.0,,-3.9,-11.6,29.41,997.0,,,,,,,,,,,,,,,,4000.0,1700.0,SCT,1700.0,BKN,4000.0,,,,
KRDR,03-30-2021,08:56,METAR,Normal,290,24.0,36.0,300/37KTS,9999.0,,-3.0,-11.3,29.38,995.8,,,,,,,,,,,,,,,,1700.0,1700.0,BKN,1700.0,OVC,3400.0,,,,
KRDR,03-30-2021,08:52,SPECI,Normal,290,28.0,36.0,,9999.0,,-3.0,-11.0,29.39,996.1,,,,,,,,,,,,,,,,1700.0,1700.0,BKN,1700.0,OVC,3300.0,,,,
KRDR,03-30-2021,07:56,METAR,Normal,280,16.0,34.0,290/40KTS,9999.0,,-2.7,-10.7,29.39,996.0,,,,,,,,,,,,,,,,3400.0,3400.0,OVC,3400.0,,,,,,
KRDR,03-30-2021,06:56,METAR,Normal,270,20.0,29.0,290/40KTS,9999.0,,-2.3,-9.2,29.35,994.8,,,,,,,,,,,,,,,,3200.0,3200.0,OVC,3200.0,,,,,,
KRDR,03-30-2021,05:56,METAR,Normal,280,27.0,40.0,270/44KTS,9999.0,,-1.3,-9.7,29.34,994.5,,,,,,,,,,,,,,,,3600.0,3600.0,OVC,3600.0,,,,,,
KRDR,03-30-2021,04:56,METAR,Normal,280,28.0,37.0,270/46KTS,9999.0,,-0.7,-9.1,29.31,993.6,,,,,,,,,,,,,,,,3900.0,3900.0,OVC,3900.0,,,,,,
KRDR,03-30-2021,03:56,METAR,Normal,270,31.0,38.0,280/43KTS,9999.0,,0.1,-9.9,29.27,992.3,,,,,,,,,,,,,,,,4000.0,4000.0,BKN,4000.0,,,,,,
KRDR,03-30-2021,02:56,METAR,Normal,270,28.0,35.0,290/44KTS,9999.0,,2.4,-8.9,29.28,992.7,,,,,,,,,,,,,,,2/8 Mostly Clear,72000.0,8000.0,FEW,8000.0,,,,,,
KRDR,03-30-2021,01:56,METAR,Normal,280,20.0,33.0,300/46KTS,9999.0,,5.5,-6.1,29.26,991.9,,,,,,,,,,,,,,,4/8 Partly Cloudy,72000.0,8000.0,SCT,8000.0,,,,,,
KRDR,03-30-2021,00:56,METAR,Normal,280,27.0,37.0,300/39KTS,9999.0,,9.9,-5.6,29.19,989.5,,,,,,,,,,,,,,,4/8 Partly Cloudy,72000.0,15000.0,SCT,15000.0,,,,,,
KRDR,03-29-2021,23:56,METAR,Normal,290,21.0,33.0,300/35KTS,9999.0,,12.7,-3.6,29.14,987.6,,,,,,,,,,,,,,,4/8 Partly Cloudy,72000.0,15000.0,SCT,15000.0,,,,,,
KRDR,03-29-2021,22:56,METAR,Normal,280,22.0,32.0,290/38KTS,9999.0,,14.0,-0.1,29.13,987.2,,,,,,,,,,,,,,,4/8 Partly Cloudy,72000.0,20000.0,SCT,20000.0,,,,,,
KRDR,03-29-2021,21:56,METAR,Normal,280,26.0,35.0,300/39KTS,9999.0,,15.7,1.8,29.11,986.6,,,,,,,,,,,,,,,4/8 Partly Cloudy,72000.0,20000.0,SCT,20000.0,,,,,,
KRDR,03-29-2021,21:33,SPECI,Normal,300,28.0,36.0,,9999.0,Haze Smoke or Dust,18.0,-1.0,29.05,984.4,05,,,,,,,,,,,,,,4/8 Partly Cloudy,72000.0,15000.0,FEW,15000.0,SCT,20000.0,,,,
KRDR,03-29-2021,20:56,METAR,Normal,280,26.0,36.0,290/37KTS,9999.0,,21.1,-3.4,29.02,983.3,,,,,,,,,,,,,,,4/8 Partly Cloudy,72000.0,20000.0,SCT,20000.0,,,,,,
KRDR,03-29-2021,20:44,SPECI,Normal,270,18.0,24.0,,9999.0,,23.0,1.0,29.00,982.6,,,,,,,,,,,,,,,4/8 Partly Cloudy,72000.0,20000.0,SCT,20000.0,,,,,,
KRDR,03-29-2021,20:08,SPECI,Normal,240,16.0,26.0,,9999.0,,22.0,1.0,29.00,982.6,,,,,,,,,,,,,,,4/8 Partly Cloudy,72000.0,20000.0,SCT,20000.0,,,,,,
KRDR,03-29-2021,19:56,METAR,Normal,200,22.0,29.0,210/32KTS,9999.0,,21.7,0.2,29.01,982.9,,,,,,,,,,,,,,,4/8 Partly Cloudy,72000.0,20000.0,SCT,20000.0,,,,,,
KRDR,03-29-2021,18:56,METAR,Normal,180,20.0,24.0,170/30KTS,9999.0,,18.1,2.8,29.04,984.0,,,,,,,,,,,,,,,4/8 Partly Cloudy,72000.0,20000.0,SCT,20000.0,,,,,,
KRDR,03-29-2021,17:56,METAR,Normal,170,23.0,28.0,190/28KTS,9999.0,,16.3,2.3,29.06,984.8,,,,,,,,,,,,,,,4/8 Partly Cloudy,72000.0,20000.0,SCT,20000.0,,,,,,
KRDR,03-29-2021,16:56,METAR,Normal,170,17.0,24.0,180/28KTS,9999.0,,13.8,2.4,29.10,986.2,,,,,,,,,,,,,,,4/8 Partly Cloudy,72000.0,20000.0,SCT,20000.0,,,,,,
KRDR,03-29-2021,15:56,METAR,Normal,180,17.0,,190/26KTS,9999.0,,10.5,3.1,29.16,988.3,,,,,,,,,,,,,,,2/8 Mostly Clear,72000.0,20000.0,FEW,20000.0,,,,,,
KRDR,03-29-2021,14:56,METAR,Normal,180,20.0,27.0,210/28KTS,9999.0,,6.7,2.6,29.22,990.5,,,,,,,,,,,,,,,4/8 Partly Cloudy,72000.0,20000.0,SCT,20000.0,,,,,,
KRDR,03-29-2021,13:56,METAR,Normal,170,19.0,23.0,170/26KTS,9999.0,,4.5,1.9,29.26,991.9,,,,,,,,,,,,,,,4/8 Partly Cloudy,72000.0,20000.0,SCT,20000.0,,,,,,
KRDR,03-29-2021,12:56,METAR,Normal,170,17.0,,,9999.0,,2.6,1.1,29.29,993.0,,,,,,,,,,,,,,,Clear,72000.0,,,,,,,,,
KRDR,03-29-2021,11:56,METAR,Normal,180,13.0,,,9999.0,,2.6,1.1,29.32,994.0,,,,,,,,,,,,,,,4/8 Partly Cloudy,72000.0,14000.0,SCT,14000.0,,,,,,
KRDR,03-29-2021,10:56,METAR,Normal,180,17.0,24.0,,9999.0,,3.1,1.1,29.36,995.4,,,,,,,,,,,,,,,,13000.0,13000.0,BKN,13000.0,BKN,16000.0,,,,
KRDR,03-29-2021,09:56,METAR,Normal,170,14.0,21.0,,9999.0,,3.1,0.8,29.39,996.4,,,,,,,,,,,,,,,Clear,72000.0,,,,,,,,,
KRDR,03-29-2021,08:56,METAR,Normal,180,13.0,,,9999.0,,3.7,0.6,29.44,998.0,,,,,,,,,,,,,,,Clear,72000.0,,,,,,,,,
KRDR,03-29-2021,07:56,METAR,Normal,180,16.0,21.0,,9999.0,,4.1,-0.5,29.49,999.7,,,,,,,,,,,,,,,2/8 Mostly Clear,72000.0,14000.0,FEW,14000.0,,,,,,
KRDR,03-29-2021,06:56,METAR,Normal,180,15.0,,,9999.0,,4.4,-1.8,29.53,1001.2,,,,,,,,,,,,,,,4/8 Partly Cloudy,72000.0,12000.0,SCT,12000.0,,,,,,
KRDR,03-29-2021,05:56,METAR,Normal,170,16.0,21.0,,9999.0,,4.9,-3.1,29.57,1002.5,,,,,,,,,,,,,,,2/8 Mostly Clear,72000.0,19000.0,FEW,19000.0,,,,,,
KRDR,03-29-2021,04:56,METAR,Normal,170,14.0,,,9999.0,,4.8,-4.0,29.61,1003.9,,,,,,,,,,,,,,,,15000.0,15000.0,BKN,15000.0,,,,,,
KRDR,03-29-2021,03:56,METAR,Normal,160,13.0,,,9999.0,,4.4,-3.4,29.66,1005.7,,,,,,,,,,,,,,,Clear,72000.0,,,,,,,,,
KRDR,03-29-2021,02:56,METAR,Normal,160,14.0,,,9999.0,,4.6,-4.4,29.70,1007.1,,,,,,,,,,,,,,,Clear,72000.0,,,,,,,,,
KRDR,03-29-2021,01:56,METAR,Normal,150,13.0,,,9999.0,,5.0,-5.7,29.73,1008.3,,,,,,,,,,,,,,,Clear,72000.0,,,,,,,,,
KRDR,03-29-2021,00:56,METAR,Normal,150,14.0,,,9999.0,,6.9,-7.5,29.77,1009.8,,,,,,,,,,,,,,,,9500.0,9500.0,OVC,9600.0,,,,,,
KRDR,03-28-2021,23:56,METAR,Normal,170,12.0,,,9999.0,,7.9,-7.8,29.81,1011.1,,,,,,,,,,,,,,,,10000.0,10000.0,OVC,10000.0,,,,,,
KRDR,03-28-2021,22:56,METAR,Normal,170,16.0,20.0,,9999.0,,7.8,-8.7,29.83,1011.8,,,,,,,,,,,,,,,,10000.0,10000.0,BKN,10000.0,OVC,12000.0,,,,
KRDR,03-28-2021,21:56,METAR,Normal,190,17.0,,,9999.0,,7.2,-9.2,29.88,1013.5,,,,,,,,,,,,,,,,9500.0,6000.0,FEW,6000.0,OVC,9600.0,,,,
KRDR,03-28-2021,20:56,METAR,Normal,180,16.0,,,9999.0,,7.1,-8.9,29.90,1014.2,,,,,,,,,,,,,,,,8500.0,8500.0,BKN,8600.0,,,,,,
KRDR,03-28-2021,19:56,METAR,Normal,180,14.0,,,9999.0,,7.4,-9.5,29.92,1014.8,,,,,,,,,,,,,,,Clear,72000.0,,,,,,,,,
KRDR,03-28-2021,18:56,METAR,Normal,190,13.0,,,9999.0,,6.0,-9.9,29.98,1016.9,,,,,,,,,,,,,,,2/8 Mostly Clear,72000.0,11000.0,FEW,11000.0,FEW,17000.0,,,,
KRDR,03-28-2021,17:56,METAR,Normal,180,10.0,17.0,,9999.0,,5.4,-10.8,30.03,1018.6,,,,,,,,,,,,,,,Clear,72000.0,,,,,,,,,
KRDR,03-28-2021,16:56,METAR,Normal,180,10.0,,,9999.0,,4.2,-10.7,30.07,1020.0,,,,,,,,,,,,,,,Clear,72000.0,,,,,,,,,
KRDR,03-28-2021,15:56,METAR,Normal,160,7.0,,,9999.0,,3.0,-11.0,30.09,1020.7,,,,,,,,,,,,,,,Clear,72000.0,,,,,,,,,
KRDR,03-28-2021,14:56,METAR,Normal,190,5.0,,,9999.0,,1.2,-8.1,30.12,1021.8,,,,,,,,,,,,,,,Clear,72000.0,,,,,,,,,
KRDR,03-28-2021,13:56,METAR,Normal,220,3.0,,,9999.0,,-2.6,-5.9,30.12,1021.8,,,,,,,,,,,,,,,Clear,72000.0,,,,,,,,,
KRDR,03-28-2021,12:56,METAR,Normal,260,5.0,,,9999.0,,-8.7,-10.6,30.12,1022.0,,,,,,,,,,,,,,,Clear,72000.0,,,,,,,,,
KRDR,03-28-2021,11:56,METAR,Normal,280,3.0,,,9999.0,,-9.8,-11.2,30.12,1021.9,,,,,,,,,,,,,,,Clear,72000.0,,,,,,,,,
KRDR,03-28-2021,10:56,METAR,Normal,280,5.0,,,9999.0,,-10.0,-11.6,30.12,1021.8,,,,,,,,,,,,,,,Clear,72000.0,,,,,,,,,
KRDR,03-28-2021,09:56,METAR,Normal,300,5.0,,,9999.0,,-9.7,-11.3,30.12,1021.8,,,,,,,,,,,,,,,Clear,72000.0,,,,,,,,,
KRDR,03-28-2021,08:56,METAR,Normal,300,7.0,,,9999.0,,-9.0,-11.1,30.12,1021.7,,,,,,,,,,,,,,,Clear,72000.0,,,,,,,,,
KRDR,03-28-2021,07:56,METAR,Normal,300,6.0,,,9999.0,,-8.0,-10.9,30.11,1021.4,,,,,,,,,,,,,,,Clear,72000.0,,,,,,,,,
KRDR,03-28-2021,06:56,METAR,Normal,330,4.0,,,9999.0,,-8.3,-10.2,30.10,1021.0,,,,,,,,,,,,,,,Clear,72000.0,,,,,,,,,
KRDR,03-28-2021,05:56,METAR,Normal,310,6.0,,,9999.0,,-5.7,-9.4,30.11,1021.3,,,,,,,,,,,,,,,Clear,72000.0,,,,,,,,,
KRDR,03-28-2021,04:56,METAR,Normal,300,6.0,,,9999.0,,-5.8,-8.4,30.11,1021.3,,,,,,,,,,,,,,,Clear,72000.0,,,,,,,,,
KRDR,03-28-2021,03:56,METAR,Normal,290,5.0,,,9999.0,,-5.4,-7.8,30.10,1021.0,,,,,,,,,,,,,,,2/8 Mostly Clear,72000.0,6500.0,FEW,6500.0,,,,,,
KRDR,03-28-2021,02:56,METAR,Normal,310,6.0,,,9999.0,,-4.8,-8.7,30.10,1021.1,,,,,,,,,,,,,,,Clear,72000.0,,,,,,,,,
KRDR,03-28-2021,01:56,METAR,Normal,330,7.0,,,9999.0,,-1.9,-8.9,30.09,1020.7,,,,,,,,,,,,,,,Clear,72000.0,,,,,,,,,
KRDR,03-28-2021,00:56,METAR,Normal,350,12.0,,,9999.0,,1.7,-6.9,30.08,1020.3,,,,,,,,,,,,,,,,8000.0,8000.0,BKN,8000.0,,,,,,
KRDR,03-27-2021,23:56,METAR,Normal,340,18.0,26.0,360/26KTS,9999.0,,4.1,-9.3,30.05,1019.1,,,,,,,,,,,,,,,,6000.0,6000.0,OVC,6000.0,,,,,,
KRDR,03-27-2021,22:56,METAR,Normal,340,14.0,,,9999.0,,5.3,-8.6,30.02,1018.1,,,,,,,,,,,,,,,,5500.0,5500.0,BKN,5500.0,OVC,7000.0,,,,
KRDR,03-27-2021,21:56,METAR,Normal,330,14.0,22.0,,9999.0,,6.5,-9.4,30.00,1017.3,,,,,,,,,,,,,,,,6500.0,6500.0,OVC,6500.0,,,,,,
KRDR,03-27-2021,20:56,METAR,Normal,320,12.0,20.0,,9999.0,,7.6,-11.2,29.98,1016.6,,,,,,,,,,,,,,,,7000.0,7000.0,OVC,7000.0,,,,,,
KRDR,03-27-2021,19:56,METAR,Normal,10,13.0,20.0,,9999.0,,6.9,-11.3,29.99,1016.9,,,,,,,,,,,,,,,2/8 Mostly Clear,72000.0,6500.0,FEW,6500.0,,,,,,
KRDR,03-27-2021,18:56,METAR,Normal,340,8.0,16.0,,9999.0,,6.9,-9.9,30.00,1017.3,,,,,,,,,,,,,,,Clear,72000.0,,,,,,,,,
KRDR,03-27-2021,18:52,SPECI,Normal,10,14.0,16.0,,9999.0,,7.0,-10.0,30.00,1017.3,,,,,,,,,,,,,,,Clear,72000.0,,,,,,,,,
KRDR,03-27-2021,17:56,METAR,Normal,350,12.0,17.0,,9999.0,,5.7,-7.5,30.00,1017.3,,,,,,,,,,,,,,,Clear,72000.0,,,,,,,,,
KRDR,03-27-2021,16:56,METAR,Normal,340,12.0,19.0,,9999.0,,5.4,-5.9,30.00,1017.3,,,,,,,,,,,,,,,2/8 Mostly Clear,72000.0,19000.0,FEW,19000.0,,,,,,
KRDR,03-27-2021,15:56,METAR,Normal,30,14.0,,,9999.0,,3.9,-4.6,29.99,1017.1,,,,,,,,,,,,,,,Clear,72000.0,,,,,,,,,
KRDR,03-27-2021,14:56,METAR,Normal,360,12.0,,,9999.0,,1.6,-2.7,29.99,1017.1,,,,,,,,,,,,,,,Clear,72000.0,,,,,,,,,
KRDR,03-27-2021,13:56,METAR,Normal,360,12.0,,,9999.0,,-0.9,-1.7,29.98,1016.8,,,,,,,,,,,,,,,2/8 Mostly Clear,72000.0,8500.0,FEW,8600.0,,,,,,
KRDR,03-27-2021,12:57,METAR,Normal,350,11.0,,,9999.0,,-2.3,-2.3,29.96,1016.1,,,,,,,,,,,,,,,4/8 Partly Cloudy,72000.0,1100.0,FEW,1100.0,SCT,1500.0,,,,
KRDR,03-27-2021,12:43,SPECI,Normal,340,11.0,,,9999.0,,-2.0,-2.0,29.96,1016.1,,,,,,,,,,,,,,,,1100.0,200.0,SCT,200.0,BKN,1100.0,,,,
KRDR,03-27-2021,12:33,SPECI,Normal,340,9.0,,,4800.0,Mist,-1.0,-1.0,29.95,1015.7,,,,10,,,,,,,,,,,,200.0,200.0,BKN,200.0,BKN,1100.0,,,,
KRDR,03-27-2021,12:07,SPECI,Normal,360,7.0,,,3200.0,Mist,-1.0,-1.0,29.94,1015.4,10,,,,,,,,,,,,,,,100.0,200.0,OVC,200.0,,,,,,
KRDR,03-27-2021,11:56,METAR,Normal,360,10.0,,,4800.0,Mist,-1.0,-1.0,29.94,1015.3,10,,,,,,,,,,,,,,,100.0,200.0,OVC,200.0,,,,,,
KRDR,03-27-2021,11:49,SPECI,Normal,360,10.0,,,4800.0,Mist,-1.0,-1.0,29.94,1015.3,,,,10,,,,,,,,,,,,100.0,200.0,OVC,200.0,,,,,,
KRDR,03-27-2021,11:40,SPECI,Normal,350,9.0,,,8000.0,,-1.0,-1.0,29.94,1015.3,,,,,,,,,,,,,,,,200.0,200.0,BKN,200.0,OVC,600.0,,,,
KRDR,03-27-2021,11:36,SPECI,Normal,350,10.0,,,9999.0,,-1.0,-1.0,29.94,1015.3,,,,,,,,,,,,,,,,400.0,400.0,OVC,400.0,,,,,,
KRDR,03-27-2021,11:18,SPECI,Normal,,,,,9999.0,,-1.0,-2.0,29.94,1015.3,,,,,,,,,,,,,,,,600.0,600.0,BKN,600.0,OVC,5500.0,,,,
KRDR,03-27-2021,10:57,SPECI,Normal,350,14.0,,,9999.0,,0.0,-2.0,29.94,1015.3,,,,,,,,,,,,,,,,2500.0,800.0,FEW,800.0,BKN,2500.0,OVC,5500.0,,
KRDR,03-27-2021,10:56,METAR,Normal,350,15.0,,,9999.0,,-0.3,-1.6,29.94,1015.3,,,,,,,,,,,,,,,,2500.0,2500.0,BKN,2500.0,OVC,5500.0,,,,
KRDR,03-27-2021,10:36,SPECI,Normal,350,12.0,,,9999.0,,0.0,-1.0,29.94,1015.3,,,,,,,,,,,,,,,,2400.0,2500.0,BKN,2500.0,OVC,5000.0,,,,
KRDR,03-27-2021,09:56,METAR,Normal,350,9.0,,,9999.0,,0.4,0.3,29.92,1014.6,,,,,,,,,,,,,,,,5000.0,5000.0,OVC,5000.0,,,,,,
KRDR,03-27-2021,08:56,METAR,Normal,350,11.0,,,9999.0,,1.0,1.0,29.91,1014.2,,,,,,,,,,,,,,,,4800.0,800.0,FEW,800.0,OVC,4800.0,,,,
KRDR,03-27-2021,08:29,SPECI,Normal,320,9.0,,,9999.0,,1.0,1.0,29.92,1014.5,,,,,,,,,,,,,,,,4800.0,800.0,FEW,800.0,OVC,4800.0,,,,
KRDR,03-27-2021,07:56,METAR,Normal,320,7.0,,,9999.0,,0.7,0.7,29.91,1014.3,,,,,,,,,,,,,,,Clear,72000.0,,,,,,,,,
KRDR,03-27-2021,06:56,METAR,Normal,310,4.0,,,9999.0,,0.7,0.6,29.91,1014.3,,,,,,,,,,,,,,,2/8 Mostly Clear,72000.0,4500.0,FEW,4500.0,,,,,,
KRDR,03-27-2021,05:56,METAR,Calm,,0.0,,,9999.0,,0.1,0.0,29.91,1014.3,,,,,,,,,,,,,,,Clear,72000.0,,,,,,,,,
KRDR,03-27-2021,04:56,METAR,Normal,200,7.0,,,9999.0,,0.8,0.7,29.92,1014.7,,,,,,,,,,,,,,,4/8 Partly Cloudy,72000.0,4500.0,SCT,4500.0,,,,,,
KRDR,03-27-2021,03:56,METAR,Normal,240,6.0,,,9999.0,,0.0,0.0,29.92,1014.7,,,,,,,,,,,,,,,,11000.0,3000.0,FEW,3000.0,OVC,11000.0,,,,
KRDR,03-27-2021,02:56,METAR,Normal,240,4.0,,,9999.0,,1.8,1.8,29.91,1014.3,,,,,,,,,,,,,,,,16000.0,2200.0,FEW,2200.0,BKN,16000.0,,,,
KRDR,03-27-2021,01:56,METAR,Normal,230,5.0,,,9999.0,,3.5,3.4,29.91,1014.3,,,,,,,,,,,,,,,,16000.0,2200.0,FEW,2200.0,BKN,16000.0,,,,
KRDR,03-27-2021,00:56,METAR,Normal,180,6.0,,,9999.0,,3.1,3.0,29.90,1014.0,,,,,,,,,,,,,,,,16000.0,2200.0,FEW,2200.0,BKN,16000.0,,,,
KRDR,03-26-2021,23:56,METAR,Normal,180,9.0,,,9999.0,,6.2,3.9,29.89,1013.6,,,,,,,,,,,,,,,,16000.0,2200.0,FEW,2200.0,SCT,2800.0,BKN,16000.0,,
KRDR,03-26-2021,23:06,SPECI,Normal,200,5.0,,,9999.0,,7.0,3.0,29.88,1013.2,,,,,,,,,,,,,,,,3000.0,3000.0,OVC,3000.0,,,,,,
KRDR,03-26-2021,22:56,METAR,Normal,190,7.0,,,9999.0,,6.8,3.4,29.88,1013.2,,,,,,,,,,,,,,,,2900.0,2900.0,OVC,2900.0,,,,,,
KRDR,03-26-2021,21:56,METAR,Normal,180,8.0,,,9999.0,,6.5,4.0,29.88,1013.2,,,,,,,,,,,,,,,,2800.0,2800.0,OVC,2800.0,,,,,,
KRDR,03-26-2021,20:56,METAR,Normal,170,9.0,,,9999.0,,6.1,4.4,29.88,1013.2,,,,,,,,,,,,,,,,2700.0,2700.0,OVC,2700.0,,,,,,
KRDR,03-26-2021,20:16,SPECI,Normal,180,8.0,,,9999.0,,6.0,4.0,29.88,1013.2,,,,,,,,,,,,,,,,2400.0,2400.0,OVC,2400.0,,,,,,
KRDR,03-26-2021,19:56,METAR,Normal,170,9.0,,,9999.0,,5.5,4.1,29.89,1013.5,,,,,,,,,,,,,,,,1700.0,1700.0,BKN,1700.0,OVC,2800.0,,,,
KRDR,03-26-2021,18:56,METAR,Normal,170,10.0,,,9999.0,,4.3,3.7,29.90,1013.9,,,,,,,,,,,,,,,,1600.0,1600.0,OVC,1600.0,,,,,,
KRDR,03-26-2021,17:56,METAR,Normal,180,11.0,,,9999.0,,3.3,3.0,29.91,1014.3,,,,,,,,,,,,,,,,1300.0,1300.0,OVC,1300.0,,,,,,
KRDR,03-26-2021,17:47,SPECI,Normal,180,23.0,,,9999.0,,3.0,3.0,29.91,1014.3,,,,,,,,,,,,,,,,1300.0,1300.0,BKN,1300.0,,,,,,
KRDR,03-26-2021,17:27,SPECI,Normal,180,12.0,,,9999.0,,3.0,3.0,29.90,1013.9,,,,,,,,,,,,,,,,1000.0,1000.0,BKN,1000.0,OVC,1600.0,,,,
KRDR,03-26-2021,16:56,METAR,Normal,180,12.0,,,9999.0,,2.9,2.8,29.90,1013.8,,,,,,,,,,,,,,,,900.0,900.0,OVC,900.0,,,,,,
KRDR,03-26-2021,15:55,METAR,Normal,180,13.0,,,9999.0,,2.1,2.0,29.89,1013.6,,,,,,,,,,,,,,,,800.0,900.0,OVC,900.0,,,,,,
KRDR,03-26-2021,15:13,SPECI,Normal,180,13.0,,,9999.0,,1.0,1.0,29.88,1013.2,,,,,,,,,,,,,,,,900.0,900.0,BKN,900.0,OVC,4500.0,,,,
KRDR,03-26-2021,14:56,METAR,Normal,190,13.0,,,9999.0,,1.0,0.9,29.87,1012.9,,,,,,,,,,,,,,,,4500.0,1000.0,FEW,1000.0,BKN,4500.0,BKN,7000.0,,
KRDR,03-26-2021,14:54,SPECI,Normal,180,12.0,,,9999.0,,1.0,1.0,29.87,1012.9,,,,,,,,,,,,,,,,4500.0,1000.0,FEW,1000.0,BKN,4500.0,BKN,7000.0,,
KRDR,03-26-2021,14:20,SPECI,Normal,190,16.0,,,9999.0,,1.0,1.0,29.86,1012.5,,,,,,,,,,,,,,,,1000.0,1000.0,BKN,1000.0,BKN,4400.0,OVC,6000.0,,
KRDR,03-26-2021,13:56,METAR,Normal,180,12.0,,,9999.0,,0.5,0.4,29.86,1012.5,,,,,,,,,,,,,,,,4000.0,4000.0,BKN,4000.0,BKN,6000.0,,,,
KRDR,03-26-2021,12:56,METAR,Normal,180,13.0,,,9999.0,,0.5,0.5,29.85,1012.1,,,,,,,,,,,,,,,,4000.0,4000.0,BKN,4000.0,,,,,,
KRDR,03-26-2021,11:56,METAR,Normal,160,10.0,18.0,,9999.0,,0.4,0.4,29.83,1011.4,,,,,,,,,,,TRACE,,TRACE,,,5000.0,4300.0,SCT,4300.0,OVC,5000.0,,,,
KRDR,03-26-2021,11:41,SPECI,Normal,160,11.0,,,9999.0,,1.0,0.0,29.83,1011.3,,,,,,,,,,,,,,,,5000.0,4200.0,SCT,4200.0,OVC,5000.0,,,,
KRDR,03-26-2021,10:56,METAR,Normal,170,12.0,,,9999.0,Light Rain,1.2,0.0,29.83,1011.3,61,,,,,,,,,,TRACE,,,,,6000.0,3000.0,FEW,3000.0,FEW,3600.0,SCT,4400.0,OVC,6000.0
KRDR,03-26-2021,10:44,SPECI,Normal,170,11.0,,,9999.0,Light Rain,1.0,0.0,29.84,1011.6,61,,,,,,,,,,,,,,,6000.0,3600.0,FEW,3600.0,SCT,4400.0,OVC,6000.0,,
KRDR,03-26-2021,10:43,SPECI,Normal,170,11.0,,,9999.0,,1.0,0.0,29.83,1011.2,,,,,,,,,,,,,,,,6000.0,3600.0,FEW,3600.0,SCT,4400.0,OVC,6000.0,,
KRDR,03-26-2021,09:57,SPECI,Normal,160,12.0,,,9999.0,Light Rain,2.0,0.0,29.83,1011.2,61,,,,,,,,,,,,,,,9000.0,4300.0,FEW,4300.0,SCT,5500.0,BKN,9100.0,,
KRDR,03-26-2021,09:56,METAR,Normal,170,14.0,,,9999.0,,1.9,-0.2,29.83,1011.2,,,,,,,,,,,,,,,,9000.0,4300.0,FEW,4300.0,SCT,5500.0,BKN,9100.0,,
KRDR,03-26-2021,08:56,METAR,Normal,170,13.0,,,9999.0,,1.9,-0.2,29.83,1011.2,,,,,,,,,,,,,,,,9000.0,5500.0,FEW,5500.0,BKN,9100.0,OVC,10000.0,,
KRDR,03-26-2021,07:56,METAR,Normal,170,12.0,,,9999.0,,2.1,-0.2,29.83,1011.2,,,,,,,,,,,,,,,,6000.0,6000.0,BKN,6000.0,,,,,,
KRDR,03-26-2021,06:56,METAR,Normal,160,12.0,,,9999.0,,2.5,-0.3,29.83,1011.2,,,,,,,,,,,,,,,2/8 Mostly Clear,72000.0,10000.0,FEW,10000.0,,,,,,
KRDR,03-26-2021,05:56,METAR,Normal,150,13.0,,,9999.0,,3.7,-0.7,29.82,1010.9,,,,,,,,,,,,,,,,13000.0,10000.0,FEW,10000.0,BKN,13000.0,,,,
KRDR,03-26-2021,04:56,METAR,Normal,150,11.0,,,9999.0,,4.1,-1.9,29.81,1010.6,,,,,,,,,,,,,,,,15000.0,7000.0,FEW,7000.0,BKN,15000.0,,,,
KRDR,03-26-2021,03:56,METAR,Normal,150,10.0,,,9999.0,,4.9,-3.4,29.80,1010.4,,,,,,,,,,,,,,,,15000.0,7000.0,FEW,7000.0,BKN,15000.0,,,,
KRDR,03-26-2021,02:56,METAR,Normal,150,10.0,,,9999.0,,5.9,-3.7,29.80,1010.5,,,,,,,,,,,,,,,,15000.0,7000.0,FEW,7000.0,BKN,15000.0,,,,
KRDR,03-26-2021,01:56,METAR,Normal,150,9.0,,,9999.0,,7.0,-4.1,29.79,1010.3,,,,,,,,,,,,,,,,25000.0,7000.0,SCT,7000.0,BKN,25000.0,,,,
KRDR,03-26-2021,00:56,METAR,Normal,150,9.0,,,9999.0,,8.3,-3.9,29.78,1010.1,,,,,,,,,,,,,,,,25000.0,7000.0,SCT,7000.0,BKN,25000.0,,,,
KRDR,03-25-2021,23:56,METAR,Normal,160,11.0,,,9999.0,,10.9,-4.4,29.78,1010.0,,,,,,,,,,,,,,,,25000.0,7000.0,FEW,7000.0,BKN,25000.0,,,,
KRDR,03-25-2021,22:56,METAR,Normal,160,15.0,,,9999.0,,11.9,-5.1,29.78,1010.0,,,,,,,,,,,,,,,,25000.0,7000.0,FEW,7000.0,BKN,25000.0,,,,
KRDR,03-25-2021,21:56,METAR,Normal,150,16.0,23.0,,9999.0,,12.6,-5.4,29.78,1009.9,,,,,,,,,,,,,,,,25000.0,7000.0,FEW,7000.0,BKN,25000.0,,,,
KRDR,03-25-2021,20:56,METAR,Normal,150,17.0,22.0,,9999.0,,12.8,-4.8,29.79,1010.2,,,,,,,,,,,,,,,4/8 Partly Cloudy,72000.0,8000.0,FEW,8000.0,SCT,18000.0,,,,
KRDR,03-25-2021,19:56,METAR,Normal,170,15.0,21.0,,9999.0,,12.5,-4.2,29.80,1010.5,,,,,,,,,,,,,,,4/8 Partly Cloudy,72000.0,8000.0,FEW,8000.0,SCT,18000.0,,,,
KRDR,03-25-2021,18:56,METAR,Normal,160,12.0,19.0,,9999.0,,11.7,-3.3,29.82,1011.3,,,,,,,,,,,,,,,4/8 Partly Cloudy,72000.0,8000.0,FEW,8000.0,SCT,18000.0,,,,
KRDR,03-25-2021,17:56,METAR,Normal,140,12.0,17.0,,9999.0,,10.5,-3.6,29.83,1011.6,,,,,,,,,,,,,,,2/8 Mostly Clear,72000.0,10000.0,FEW,10000.0,FEW,20000.0,,,,
KRDR,03-25-2021,16:56,METAR,Normal,140,10.0,,,9999.0,,7.7,-3.2,29.86,1012.7,,,,,,,,,,,,,,,2/8 Mostly Clear,72000.0,10000.0,FEW,10000.0,FEW,18000.0,,,,
KRDR,03-25-2021,15:56,METAR,Normal,140,7.0,,,9999.0,,3.4,-3.2,29.87,1013.2,,,,,,,,,,,,,,,2/8 Mostly Clear,72000.0,10000.0,FEW,10000.0,FEW,18000.0,,,,
KRDR,03-25-2021,14:56,METAR,Normal,130,4.0,,,9999.0,,-0.9,-5.3,29.87,1013.3,,,,,,,,,,,,,,,2/8 Mostly Clear,72000.0,18000.0,FEW,18000.0,,,,,,
KRDR,03-25-2021,13:56,METAR,Calm,,0.0,,,9999.0,,-4.6,-7.5,29.88,1013.8,,,,,,,,,,,,,,,2/8 Mostly Clear,72000.0,18000.0,FEW,18000.0,,,,,,
KRDR,03-25-2021,12:56,METAR,Calm,,0.0,,,9999.0,,-10.0,-11.1,29.87,1013.5,,,,,,,,,,,,,,,Clear,72000.0,,,,,,,,,
KRDR,03-25-2021,11:56,METAR,Normal,340,3.0,,,9999.0,,-9.5,-10.6,29.86,1012.9,,,,,,,,,,,,,,,Clear,72000.0,,,,,,,,,
KRDR,03-25-2021,10:56,METAR,Normal,310,4.0,,,9999.0,,-10.2,-11.0,29.84,1012.2,,,,,,,,,,,,,,,Clear,72000.0,,,,,,,,,
KRDR,03-25-2021,09:56,METAR,Calm,,0.0,,,9999.0,,-9.4,-10.2,29.84,1012.2,,,,,,,,,,,,,,,Clear,72000.0,,,,,,,,,
KRDR,03-25-2021,08:56,METAR,Calm,,0.0,,,9999.0,,-9.6,-10.4,29.85,1012.6,,,,,,,,,,,,,,,Clear,72000.0,,,,,,,,,
KRDR,03-25-2021,07:56,METAR,Calm,,0.0,,,9999.0,,-8.0,-9.7,29.86,1012.8,,,,,,,,,,,,,,,Clear,72000.0,,,,,,,,,
KRDR,03-25-2021,06:56,METAR,Normal,320,6.0,,,9999.0,,-8.8,-10.2,29.87,1013.3,,,,,,,,,,,,,,,Clear,72000.0,,,,,,,,,
KRDR,03-25-2021,05:56,METAR,Normal,320,3.0,,,9999.0,,-7.0,-9.0,29.87,1013.3,,,,,,,,,,,,,,,Clear,72000.0,,,,,,,,,
KRDR,03-25-2021,04:56,METAR,Normal,320,6.0,,,9999.0,,-7.0,-9.3,29.88,1013.7,,,,,,,,,,,,,,,Clear,72000.0,,,,,,,,,
KRDR,03-25-2021,03:56,METAR,Normal,320,6.0,,,9999.0,,-5.7,-10.3,29.87,1013.4,,,,,,,,,,,,,,,Clear,72000.0,,,,,,,,,
KRDR,03-25-2021,02:56,METAR,Normal,350,6.0,,,9999.0,,-3.5,-10.4,29.86,1013.1,,,,,,,,,,,,,,,Clear,72000.0,,,,,,,,,
KRDR,03-25-2021,01:56,METAR,Normal,20,5.0,,,9999.0,,-2.8,-11.1,29.85,1012.8,,,,,,,,,,,,,,,Clear,72000.0,,,,,,,,,
KRDR,03-25-2021,00:56,METAR,Normal,20,8.0,,,9999.0,,-0.2,-10.2,29.84,1012.4,,,,,,,,,,,,,,,2/8 Mostly Clear,72000.0,15000.0,FEW,15000.0,,,,,,
KRDR,03-24-2021,23:56,METAR,Normal,10,13.0,,,9999.0,,4.5,-10.0,29.84,1012.2,,,,,,,,,,,,,,,Clear,72000.0,,,,,,,,,
KRDR,03-24-2021,22:56,METAR,Normal,10,14.0,,,9999.0,,5.8,-8.5,29.84,1012.1,,,,,,,,,,,,,,,Clear,72000.0,,,,,,,,,
KRDR,03-24-2021,21:56,METAR,Normal,350,14.0,22.0,,9999.0,,6.4,-7.6,29.84,1012.1,,,,,,,,,,,,,,,Clear,72000.0,,,,,,,,,
KRDR,03-24-2021,20:56,METAR,Normal,10,17.0,22.0,,9999.0,,6.6,-7.1,29.85,1012.4,,,,,,,,,,,,,,,Clear,72000.0,,,,,,,,,
KRDR,03-24-2021,19:56,METAR,Normal,360,14.0,21.0,,9999.0,,5.8,-7.8,29.86,1012.8,,,,,,,,,,,,,,,2/8 Mostly Clear,72000.0,20000.0,FEW,20000.0,,,,,,
KRDR,03-24-2021,18:56,METAR,Normal,10,18.0,22.0,,9999.0,,4.5,-8.3,29.88,1013.4,,,,,,,,,,,,,,,2/8 Mostly Clear,72000.0,20000.0,FEW,20000.0,,,,,,
KRDR,03-24-2021,17:56,METAR,Normal,20,17.0,,,9999.0,,3.1,-8.6,29.89,1013.8,,,,,,,,,,,,,TRACE,,2/8 Mostly Clear,72000.0,8000.0,FEW,8000.0,FEW,20000.0,,,,
KRDR,03-24-2021,16:56,METAR,Normal,10,16.0,20.0,,9999.0,,0.8,-8.7,29.91,1014.5,,,,,,,,,,,,,,,4/8 Partly Cloudy,72000.0,8000.0,FEW,8000.0,SCT,20000.0,,,,
KRDR,03-24-2021,15:56,METAR,Normal,350,17.0,21.0,,9999.0,,-1.8,-8.8,29.94,1015.7,,,,,,,,,,,,,,,4/8 Partly Cloudy,72000.0,8000.0,FEW,8000.0,SCT,20000.0,,,,
KRDR,03-24-2021,14:56,METAR,Normal,360,18.0,,,9999.0,,-4.3,-9.1,29.95,1016.1,,,,,,,,,,,,TRACE,,,4/8 Partly Cloudy,72000.0,8000.0,FEW,8000.0,SCT,20000.0,,,,
KRDR,03-24-2021,13:56,METAR,Normal,350,14.0,,,9999.0,,-7.6,-10.6,29.97,1016.8,,,,,,,,,,,,,,,4/8 Partly Cloudy,72000.0,8000.0,FEW,8000.0,SCT,20000.0,,,,
KRDR,03-24-2021,12:56,METAR,Normal,350,15.0,,,9999.0,,-7.7,-10.7,29.98,1017.1,,,,,,,,,,,,,,,,8000.0,8000.0,BKN,8000.0,,,,,,
KRDR,03-24-2021,11:56,METAR,Normal,350,18.0,,,9999.0,,-6.8,-10.2,29.98,1016.9,,,,,,,,,,,,,,,,7500.0,7500.0,OVC,7500.0,,,,,,
KRDR,03-24-2021,10:56,METAR,Normal,360,16.0,22.0,,9999.0,,-6.1,-9.5,29.99,1017.1,,,,,,,,,,,,,,,,8000.0,8000.0,OVC,8000.0,,,,,,
KRDR,03-24-2021,10:08,SPECI,Normal,350,15.0,22.0,,9999.0,,-6.0,-9.0,29.99,1016.9,,,,,,,,,,,,,,,,8000.0,8000.0,OVC,8000.0,,,,,,
KRDR,03-24-2021,10:01,SPECI,Normal,350,13.0,,,9999.0,Light Snow,-6.0,-9.0,29.99,1016.9,71,,,,,,,,,,,,,,,8500.0,8500.0,BKN,8600.0,,,,,,
KRDR,03-24-2021,09:56,METAR,Normal,360,15.0,21.0,,9999.0,,-5.8,-9.0,29.99,1016.9,,,,,,,,,,,,,,,,8500.0,8500.0,BKN,8600.0,,,,,,
KRDR,03-24-2021,08:56,METAR,Normal,350,17.0,22.0,,9999.0,,-5.6,-8.4,29.99,1016.9,,,,,,,,,,,,,,,4/8 Partly Cloudy,72000.0,1500.0,SCT,1500.0,,,,,,
KRDR,03-24-2021,07:56,METAR,Normal,360,17.0,23.0,360/26KTS,9999.0,,-5.0,-7.6,30.01,1017.6,,,,,,,,,,,,,,,4/8 Partly Cloudy,72000.0,1500.0,SCT,1500.0,,,,,,
KRDR,03-24-2021,07:36,SPECI,Normal,360,17.0,25.0,,9999.0,,-5.0,-7.0,30.02,1017.9,,,,,,,,,,,,,,,4/8 Partly Cloudy,72000.0,1500.0,SCT,1500.0,,,,,,
KRDR,03-24-2021,06:56,METAR,Normal,360,18.0,24.0,360/26KTS,9999.0,,-3.9,-6.4,30.03,1018.2,,,,,,,,,,,,,,,,1400.0,1500.0,OVC,1500.0,,,,,,
KRDR,03-24-2021,06:46,SPECI,Normal,360,17.0,26.0,,9999.0,,-4.0,-6.0,30.03,1018.2,,,,,,,,,,,,,,,,1400.0,1500.0,OVC,1500.0,,,,,,
KRDR,03-24-2021,05:56,METAR,Normal,360,18.0,22.0,,9999.0,,-3.3,-5.0,30.04,1018.6,,,,,,,,,,,,,,,,1300.0,1300.0,OVC,1300.0,,,,,,
KRDR,03-24-2021,04:56,METAR,Normal,360,18.0,24.0,010/27KTS,9999.0,,-2.7,-4.1,30.04,1018.6,,,,,,,,,,,,,,,,1200.0,1200.0,OVC,1200.0,,,,,,
KRDR,03-24-2021,04:46,SPECI,Normal,360,16.0,23.0,,9999.0,,-2.0,-4.0,30.04,1018.6,,,,,,,,,,,,,,,,1100.0,1200.0,OVC,1200.0,,,,,,
KRDR,03-24-2021,03:56,METAR,Normal,360,19.0,26.0,360/30KTS,9999.0,,-2.0,-2.8,30.04,1018.7,,,,,,,,,,,,,,,,1100.0,1100.0,OVC,1100.0,,,,,,
KRDR,03-24-2021,02:56,METAR,Normal,360,20.0,25.0,010/30KTS,9999.0,,-1.1,-1.9,30.04,,,,,,,,,,,,,,,,,1100.0,1100.0,OVC,1100.0,,,,,,
KRDR,03-24-2021,02:36,SPECI,Normal,360,18.0,24.0,,9999.0,,-1.0,-2.0,30.03,,,,,,,,,,,,,,,,,1100.0,1100.0,OVC,1100.0,,,,,,
KRDR,03-24-2021,01:56,METAR,Normal,360,19.0,30.0,360/30KTS,9999.0,,0.6,-0.4,30.02,,,,,,,,,,,,,,,,,1200.0,1200.0,OVC,1200.0,,,,,,
KRDR,03-24-2021,00:56,METAR,Normal,350,20.0,27.0,350/28KTS,9999.0,,2.6,0.2,30.01,1017.9,,,,,,,,,,,,,,,,18000.0,12000.0,SCT,12000.0,OVC,18000.0,,,,
KRDR,03-23-2021,23:56,METAR,Normal,360,20.0,26.0,010/30KTS,9999.0,,5.9,-0.4,29.99,1017.2,,,,,,,,,,,,,,,,18000.0,12000.0,SCT,12000.0,OVC,18000.0,,,,
KRDR,03-23-2021,22:56,METAR,Normal,360,21.0,27.0,360/27KTS,9999.0,,10.8,-2.3,29.96,1016.0,,,,,,,,,,,,,,,,18000.0,18000.0,BKN,18000.0,,,,,,
KRDR,03-23-2021,21:56,METAR,Normal,60,13.0,16.0,,9999.0,,14.1,-5.6,29.94,1015.1,,,,,,,,,,,,,,,,15000.0,15000.0,BKN,15000.0,,,,,,
KRDR,03-23-2021,20:56,METAR,Normal,60,7.0,,,9999.0,,14.6,-5.8,29.95,1015.4,,,,,,,,,,,,,,,,20000.0,5000.0,FEW,5000.0,FEW,10000.0,BKN,20000.0,,
KRDR,03-23-2021,19:56,METAR,Normal,90,9.0,,,9999.0,,13.6,-5.1,29.96,1015.8,,,,,,,,,,,,,,,,20000.0,10000.0,FEW,10000.0,BKN,20000.0,,,,
KRDR,03-23-2021,18:56,METAR,Normal,110,7.0,,,9999.0,,13.4,-5.7,29.98,1016.4,,,,,,,,,,,,,,,,20000.0,11000.0,FEW,11000.0,BKN,20000.0,,,,
KRDR,03-23-2021,17:56,METAR,Normal,130,10.0,,,9999.0,,12.7,-5.4,30.00,1017.0,,,,,,,,,,,,,,,,20000.0,11000.0,FEW,11000.0,BKN,20000.0,,,,
KRDR,03-23-2021,16:56,METAR,Normal,170,6.0,,,9999.0,,10.9,-3.6,30.01,1017.5,,,,,,,,,,,,,,,,20000.0,11000.0,FEW,11000.0,BKN,20000.0,,,,
KRDR,03-23-2021,15:56,METAR,Normal,160,7.0,,,9999.0,,8.6,-3.3,30.00,1017.2,,,,,,,,,,,,,,,,20000.0,11000.0,FEW,11000.0,BKN,20000.0,,,,
KRDR,03-23-2021,15:09,METAR,Normal,140,7.0,,,9999.0,,5.0,0.0,30.00,,,,,,,,,,,,,,,,,20000.0,5000.0,FEW,5000.0,SCT,11000.0,BKN,20000.0,,
KRDR,03-23-2021,14:56,METAR,Normal,130,7.0,,,9999.0,,3.1,-0.4,30.00,1017.3,,,,,,,,,,,,,,,,20000.0,5000.0,FEW,5000.0,SCT,11000.0,BKN,20000.0,,
KRDR,03-23-2021,13:56,METAR,Calm,,0.0,,,9999.0,,-1.3,-1.4,30.00,1017.4,,,,,,,,,,,,,,,,20000.0,5000.0,FEW,5000.0,SCT,11000.0,BKN,20000.0,,
KRDR,03-23-2021,12:56,METAR,Normal,130,3.0,,,9999.0,,-3.1,-3.7,29.98,1016.8,,,,,,,,,,,,,,,,11000.0,11000.0,OVC,11000.0,,,,,,
KRDR,03-23-2021,11:56,METAR,Normal,330,3.0,,,9999.0,,-5.3,-5.4,29.96,1016.0,,,,,,,,,,,,,,,,9000.0,9000.0,OVC,9100.0,,,,,,
KRDR,03-23-2021,10:56,METAR,Calm,,0.0,,,9999.0,,-4.0,-5.1,29.96,1016.0,,,,,,,,,,,,,,,,9000.0,9000.0,BKN,9100.0,,,,,,
KRDR,03-23-2021,09:56,METAR,Calm,,0.0,,,9999.0,,-4.2,-4.9,29.95,1015.6,,,,,,,,,,,,,,,,9000.0,9000.0,BKN,9100.0,,,,,,
KRDR,03-23-2021,08:56,METAR,Normal,170,3.0,,,9999.0,,-3.4,-4.8,29.94,1015.3,,,,,,,,,,,,,,,,9000.0,9000.0,BKN,9100.0,,,,,,
KRDR,03-23-2021,07:56,METAR,Normal,150,6.0,,,9999.0,,-1.4,-3.3,29.94,1015.2,,,,,,,,,,,,,,,,10000.0,10000.0,OVC,10000.0,,,,,,
KRDR,03-23-2021,06:56,METAR,Normal,190,5.0,,,9999.0,,-1.3,-3.5,29.94,1015.3,,,,,,,,,,,,,,,,12000.0,12000.0,OVC,12000.0,,,,,,
KRDR,03-23-2021,05:56,METAR,Normal,160,6.0,,,9999.0,,0.2,-2.5,29.94,1015.3,,,,,,,,,,,,,,,,15000.0,15000.0,OVC,15000.0,,,,,,
KRDR,03-23-2021,04:56,METAR,Normal,160,5.0,,,9999.0,,-0.3,-3.2,29.94,1015.4,,,,,,,,,,,,,,,Clear,72000.0,,,,,,,,,
KRDR,03-23-2021,03:56,METAR,Normal,150,7.0,,,9999.0,,0.8,-3.5,29.94,1015.4,,,,,,,,,,,,,,,4/8 Partly Cloudy,72000.0,15000.0,SCT,15000.0,,,,,,
KRDR,03-23-2021,02:56,METAR,Normal,160,8.0,,,9999.0,,2.3,-3.4,29.94,1015.4,,,,,,,,,,,,,,,2/8 Mostly Clear,72000.0,15000.0,FEW,15000.0,,,,,,
KRDR,03-23-2021,01:56,METAR,Normal,150,9.0,,,9999.0,,4.5,-3.5,29.94,1015.4,,,,,,,,,,,,,,,2/8 Mostly Clear,72000.0,15000.0,FEW,15000.0,,,,,,
KRDR,03-23-2021,00:56,METAR,Normal,160,6.0,,,9999.0,,5.4,-3.7,29.94,1015.6,,,,,,,,,,,,,,,2/8 Mostly Clear,72000.0,10000.0,FEW,10000.0,,,,,,
KRDR,03-22-2021,23:56,METAR,Normal,160,8.0,,,9999.0,,9.1,-3.5,29.93,1015.1,,,,,,,,,,,,,,,2/8 Mostly Clear,72000.0,10000.0,FEW,10000.0,,,,,,
KRDR,03-22-2021,22:56,METAR,Normal,160,8.0,,,9999.0,,10.0,-4.4,29.94,1015.3,,,,,,,,,,,,,,,2/8 Mostly Clear,72000.0,10000.0,FEW,10000.0,,,,,,
KRDR,03-22-2021,21:56,METAR,Normal,160,6.0,,,9999.0,,10.0,-4.4,29.94,1015.3,,,,,,,,,,,,,,,2/8 Mostly Clear,72000.0,10000.0,FEW,10000.0,,,,,,
KRDR,03-22-2021,20:56,METAR,Normal,170,4.0,,,9999.0,,9.2,-4.0,29.97,1016.3,,,,,,,,,,,,,,,2/8 Mostly Clear,72000.0,10000.0,FEW,10000.0,,,,,,
KRDR,03-22-2021,19:56,METAR,Normal,210,7.0,,,9999.0,,8.7,-3.8,29.99,1016.9,,,,,,,,,,,,,,,2/8 Mostly Clear,72000.0,10000.0,FEW,10000.0,,,,,,
KRDR,03-22-2021,18:56,METAR,Normal,90,3.0,,,9999.0,,7.4,-4.1,30.00,1017.3,,,,,,,,,,,,,,,2/8 Mostly Clear,72000.0,7000.0,FEW,7000.0,,,,,,
KRDR,03-22-2021,17:56,METAR,Normal,170,6.0,,,9999.0,,6.2,-4.3,30.03,1018.3,,,,,,,,,,,,,,,2/8 Mostly Clear,72000.0,7000.0,FEW,7000.0,,,,,,
KRDR,03-22-2021,16:56,METAR,Normal,70,3.0,,,9999.0,,4.5,-5.8,30.04,1018.6,,,,,,,,,,,,,,,2/8 Mostly Clear,72000.0,8000.0,FEW,8000.0,,,,,,
KRDR,03-22-2021,15:56,METAR,Normal,140,3.0,,,9999.0,,2.9,-3.0,30.05,1019.0,,,,,,,,,,,,,,,2/8 Mostly Clear,72000.0,8000.0,FEW,8000.0,,,,,,
KRDR,03-22-2021,14:56,METAR,Normal,30,4.0,,,9999.0,,0.8,-3.3,30.04,1018.7,,,,,,,,,,,,,,,2/8 Mostly Clear,72000.0,8000.0,FEW,8000.0,,,,,,
KRDR,03-22-2021,13:56,METAR,Normal,320,5.0,,,9999.0,,-1.7,-4.1,30.04,1018.8,,,,,,,,,,,,,,,2/8 Mostly Clear,72000.0,8000.0,FEW,8000.0,,,,,,
KRDR,03-22-2021,12:56,METAR,Normal,310,5.0,,,9999.0,,-6.3,-7.0,30.03,1018.6,,,,,,,,,,,,,,,Clear,72000.0,,,,,,,,,
KRDR,03-22-2021,11:56,METAR,Normal,310,3.0,,,9999.0,,-6.6,-7.1,30.02,1018.2,,,,,,,,,,,,,,.04 IN,Clear,72000.0,,,,,,,,,
KRDR,03-22-2021,10:56,METAR,Normal,300,8.0,,,9999.0,,-5.0,-6.3,30.00,1017.4,,,,,,,,,,,,,,,Clear,72000.0,,,,,,,,,
KRDR,03-22-2021,09:56,METAR,Normal,300,8.0,,,9999.0,,-4.2,-5.8,29.99,1017.1,,,,,,,,,,,,,,,Clear,72000.0,,,,,,,,,
KRDR,03-22-2021,08:56,METAR,Normal,310,7.0,,,9999.0,,-2.3,-5.0,29.98,1016.6,,,,,,,,,,,,,,,Clear,72000.0,,,,,,,,,
KRDR,03-22-2021,07:56,METAR,Normal,310,8.0,,,9999.0,,-1.0,-4.9,29.97,1016.3,,,,,,,,,,,,,,,Clear,72000.0,,,,,,,,,
KRDR,03-22-2021,06:56,METAR,Normal,310,9.0,,,9999.0,,-0.1,-3.8,29.96,1015.9,,,,,,,,,,,,,,,Clear,72000.0,,,,,,,,,
KRDR,03-22-2021,05:56,METAR,Normal,320,10.0,,,9999.0,,0.9,-2.5,29.94,1015.1,,,,,,,,,,,,,,,Clear,72000.0,,,,,,,,,
KRDR,03-22-2021,04:56,METAR,Normal,330,10.0,,,9999.0,,2.4,-1.4,29.92,1014.4,,,,,,,,,,,,,,,2/8 Mostly Clear,72000.0,8500.0,FEW,8600.0,,,,,,
KRDR,03-22-2021,03:56,METAR,Normal,330,13.0,,,9999.0,,4.7,0.3,29.90,1013.6,,,,,,,,,,,,,,,,7000.0,7000.0,BKN,7000.0,,,,,,
KRDR,03-22-2021,02:56,METAR,Normal,340,12.0,,,9999.0,,5.3,2.5,29.85,1012.1,,,,,,,,,,,,,,,2/8 Mostly Clear,72000.0,9500.0,FEW,9600.0,,,,,,
KRDR,03-22-2021,01:56,METAR,Calm,,0.0,,,9999.0,,5.7,5.7,29.82,1011.0,,,,,,,,,,,,,,,,10000.0,10000.0,BKN,10000.0,BKN,18000.0,,,,
KRDR,03-22-2021,00:56,METAR,Normal,180,8.0,,,9999.0,,6.7,6.7,29.79,1010.0,,,,,,,,,,,,,,,,17000.0,6000.0,SCT,6000.0,SCT,12000.0,BKN,17000.0,,
KRDR,03-21-2021,23:56,METAR,Normal,180,8.0,,,9999.0,,9.1,8.2,29.77,1009.3,,,,,,,,,,,,,.06 IN,,,17000.0,9000.0,FEW,9100.0,SCT,12000.0,BKN,17000.0,,
KRDR,03-21-2021,22:56,METAR,Normal,210,6.0,,,9999.0,,9.2,8.1,29.78,1009.6,,,,,,,,,,,,,,,,12000.0,9000.0,SCT,9100.0,BKN,12000.0,,,,
KRDR,03-21-2021,21:56,METAR,Normal,190,5.0,,,9999.0,,7.9,7.9,29.76,1008.9,,,,,,,,,,,,,,,,5500.0,3500.0,SCT,3500.0,BKN,5500.0,BKN,9100.0,,
KRDR,03-21-2021,20:56,METAR,Calm,,0.0,,,9999.0,,7.2,7.2,29.75,1008.5,,,,,,,,,,,.02 IN,.06 IN,,,,4700.0,3500.0,SCT,3500.0,BKN,4700.0,BKN,5500.0,,
KRDR,03-21-2021,20:50,SPECI,Normal,190,3.0,,,9999.0,,7.0,7.0,29.75,1008.5,,,,,,,,,,,,,,,,3500.0,3500.0,BKN,3500.0,BKN,4600.0,OVC,5500.0,,
KRDR,03-21-2021,19:56,METAR,Normal,340,3.0,,,9999.0,Light Rain,7.5,7.5,29.76,1008.8,61,,,,,,,,,,.02 IN,,,,,4700.0,3000.0,FEW,3000.0,SCT,3700.0,OVC,4700.0,,
KRDR,03-21-2021,18:56,METAR,Normal,320,7.0,,,9999.0,Light Rain,7.0,6.9,29.75,1008.5,61,,,,,,,,,,.02 IN,,,,,5500.0,2400.0,FEW,2400.0,OVC,5500.0,,,,
KRDR,03-21-2021,18:11,SPECI,Normal,340,7.0,,,9999.0,Rain,9.0,2.0,29.72,1007.4,,,,61,,,,,,,,,,,,7000.0,7000.0,OVC,7000.0,,,,,,
KRDR,03-21-2021,17:56,METAR,Normal,350,6.0,,,9999.0,,9.3,1.9,29.72,1007.4,,,,,,,,,,,,,,,,7000.0,7000.0,BKN,7000.0,OVC,10000.0,,,,
KRDR,03-21-2021,16:56,METAR,Normal,360,7.0,,,9999.0,,9.6,2.4,29.71,1006.9,,,,,,,,,,,,,,,,7000.0,7000.0,BKN,7000.0,OVC,10000.0,,,,
KRDR,03-21-2021,15:56,METAR,Normal,340,10.0,,,9999.0,,8.7,2.7,29.68,1005.9,,,,,,,,,,,,,,,,11000.0,8500.0,SCT,8600.0,BKN,11000.0,,,,
KRDR,03-21-2021,14:56,METAR,Normal,340,3.0,,,9999.0,,5.8,2.3,29.70,1006.7,,,,,,,,,,,,,,,,8500.0,8500.0,BKN,8600.0,OVC,18000.0,,,,
KRDR,03-21-2021,13:56,METAR,Normal,310,7.0,,,9999.0,,3.9,2.3,29.68,1006.1,,,,,,,,,,,,,,,,8500.0,8500.0,BKN,8600.0,,,,,,
KRDR,03-21-2021,12:56,METAR,Normal,200,3.0,,,9999.0,,2.8,2.2,29.68,1006.1,,,,,,,,,,,,,,,4/8 Partly Cloudy,72000.0,9000.0,SCT,9100.0,,,,,,
KRDR,03-21-2021,11:56,METAR,Normal,210,5.0,,,9999.0,,1.6,1.5,29.69,1006.3,,,,,,,,,,,,,,,,8500.0,8500.0,OVC,8600.0,,,,,,
KRDR,03-21-2021,10:56,METAR,Normal,180,9.0,,,9999.0,,2.2,1.6,29.69,1006.3,,,,,,,,,,,,,,,2/8 Mostly Clear,72000.0,18000.0,FEW,18000.0,,,,,,
KRDR,03-21-2021,09:56,METAR,Normal,200,6.0,,,9999.0,,4.4,2.3,29.68,1005.9,,,,,,,,,,,,,,,2/8 Mostly Clear,72000.0,16000.0,FEW,16000.0,,,,,,
KRDR,03-21-2021,08:56,METAR,Normal,200,8.0,,,9999.0,,6.2,2.5,29.68,1005.8,,,,,,,,,,,,,,,4/8 Partly Cloudy,72000.0,14000.0,FEW,14000.0,SCT,16000.0,,,,
KRDR,03-21-2021,07:56,METAR,Normal,180,10.0,,,9999.0,,7.1,2.4,29.68,1005.8,,,,,,,,,,,,,,,4/8 Partly Cloudy,72000.0,14000.0,SCT,14000.0,,,,,,
KRDR,03-21-2021,06:56,METAR,Normal,180,16.0,,,9999.0,,7.2,2.3,29.69,1006.2,,,,,,,,,,,,,,,2/8 Mostly Clear,72000.0,16000.0,FEW,16000.0,FEW,19000.0,,,,
KRDR,03-21-2021,05:56,METAR,Normal,190,13.0,,,9999.0,,7.7,2.6,29.71,1006.9,,,,,,,,,,,,,,,2/8 Mostly Clear,72000.0,13000.0,FEW,13000.0,,,,,,
KRDR,03-21-2021,04:56,METAR,Normal,180,19.0,,190/27KTS,9999.0,,9.2,2.7,29.69,1006.3,,,,,,,,,,,,,,,Clear,72000.0,,,,,,,,,
KRDR,03-21-2021,03:56,METAR,Normal,180,18.0,,180/28KTS,9999.0,,10.4,3.0,29.70,1006.7,,,,,,,,,,,,,,,2/8 Mostly Clear,72000.0,23000.0,FEW,23000.0,,,,,,
KRDR,03-21-2021,02:56,METAR,Normal,170,20.0,26.0,180/27KTS,9999.0,,11.4,3.9,29.70,1006.7,,,,,,,,,,,,,,,2/8 Mostly Clear,72000.0,23000.0,FEW,23000.0,,,,,,
KRDR,03-21-2021,01:56,METAR,Normal,170,19.0,24.0,160/28KTS,9999.0,,11.9,4.4,29.71,1007.1,,,,,,,,,,,,,,,4/8 Partly Cloudy,72000.0,16000.0,FEW,16000.0,SCT,20000.0,,,,
KRDR,03-21-2021,00:56,METAR,Normal,160,19.0,25.0,180/27KTS,9999.0,,13.6,4.7,29.71,1007.1,,,,,,,,,,,,,,,4/8 Partly Cloudy,72000.0,16000.0,FEW,16000.0,SCT,20000.0,,,,
KRDR,03-20-2021,23:56,METAR,Normal,190,19.0,28.0,190/30KTS,9999.0,,16.6,4.0,29.71,1007.0,,,,,,,,,,,,,,,4/8 Partly Cloudy,72000.0,16000.0,FEW,16000.0,SCT,20000.0,,,,
KRDR,03-20-2021,22:56,METAR,Normal,190,22.0,26.0,210/32KTS,9999.0,,16.9,3.9,29.70,1006.7,,,,,,,,,,,,,,,,20000.0,14000.0,FEW,14000.0,SCT,16000.0,BKN,20000.0,,
KRDR,03-20-2021,21:56,METAR,Normal,190,25.0,28.0,210/32KTS,9999.0,,17.8,3.3,29.72,1007.3,,,,,,,,,,,,,,,,20000.0,14000.0,SCT,14000.0,BKN,20000.0,,,,
KRDR,03-20-2021,20:56,METAR,Normal,200,20.0,29.0,190/30KTS,9999.0,,18.2,2.9,29.75,1008.3,,,,,,,,,,,,,,,,20000.0,14000.0,SCT,14000.0,BKN,20000.0,,,,
KRDR,03-20-2021,19:56,METAR,Normal,190,17.0,28.0,210/28KTS,9999.0,,16.6,3.3,29.77,1009.0,,,,,,,,,,,,,,,,15000.0,15000.0,BKN,15000.0,,,,,,
KRDR,03-20-2021,18:56,METAR,Normal,190,19.0,28.0,190/30KTS,9999.0,,14.9,2.8,29.80,1010.1,,,,,,,,,,,,,,,4/8 Partly Cloudy,72000.0,15000.0,SCT,15000.0,,,,,,
KRDR,03-20-2021,17:56,METAR,Normal,200,22.0,27.0,210/30KTS,9999.0,,14.5,2.7,29.81,1010.4,,,,,,,,,,,,,,,2/8 Mostly Clear,72000.0,15000.0,FEW,15000.0,,,,,,
KRDR,03-20-2021,16:56,METAR,Normal,190,20.0,28.0,180/28KTS,9999.0,,11.6,2.9,29.84,1011.5,,,,,,,,,,,,,,,2/8 Mostly Clear,72000.0,15000.0,FEW,15000.0,,,,,,
KRDR,03-20-2021,15:56,METAR,Normal,180,19.0,23.0,,9999.0,,8.1,1.9,29.88,1012.9,,,,,,,,,,,,,,,2/8 Mostly Clear,72000.0,15000.0,FEW,15000.0,,,,,,
KRDR,03-20-2021,14:56,METAR,Normal,180,15.0,,,9999.0,,5.6,1.1,29.90,1013.7,,,,,,,,,,,,,,,2/8 Mostly Clear,72000.0,15000.0,FEW,15000.0,,,,,,
KRDR,03-20-2021,13:56,METAR,Normal,170,12.0,,,9999.0,,2.4,0.0,29.92,1014.5,,,,,,,,,,,,,,,2/8 Mostly Clear,72000.0,15000.0,FEW,15000.0,,,,,,
KRDR,03-20-2021,12:56,METAR,Normal,170,9.0,,,9999.0,,0.7,-0.5,29.93,1014.8,,,,,,,,,,,,,,,Clear,72000.0,,,,,,,,,
KRDR,03-20-2021,11:56,METAR,Normal,180,8.0,,,9999.0,,0.1,-0.8,29.95,1015.4,,,,,,,,,,,,,,,Clear,72000.0,,,,,,,,,
KRDR,03-20-2021,10:56,METAR,Normal,170,11.0,,,9999.0,,0.0,-0.9,29.94,1015.0,,,,,,,,,,,,,,,Clear,72000.0,,,,,,,,,
KRDR,03-20-2021,09:56,METAR,Normal,170,10.0,,,9999.0,,1.2,-0.3,29.97,1016.0,,,,,,,,,,,,,,,Clear,72000.0,,,,,,,,,
KRDR,03-20-2021,08:56,METAR,Normal,170,11.0,,,9999.0,,1.3,-0.2,29.98,1016.4,,,,,,,,,,,,,,,Clear,72000.0,,,,,,,,,
KRDR,03-20-2021,07:56,METAR,Normal,180,10.0,,,9999.0,,2.1,-0.2,30.01,1017.3,,,,,,,,,,,,,,,Clear,72000.0,,,,,,,,,
KRDR,03-20-2021,06:56,METAR,Normal,180,13.0,,,9999.0,,2.6,-0.2,30.02,1017.7,,,,,,,,,,,,,,,Clear,72000.0,,,,,,,,,
KRDR,03-20-2021,05:56,METAR,Normal,180,15.0,,,9999.0,,3.1,0.2,30.05,1018.7,,,,,,,,,,,,,,,Clear,72000.0,,,,,,,,,
KRDR,03-20-2021,04:56,METAR,Normal,180,16.0,,,9999.0,,4.0,0.3,30.06,1019.2,,,,,,,,,,,,,,,Clear,72000.0,,,,,,,,,
KRDR,03-20-2021,03:56,METAR,Normal,180,15.0,,,9999.0,,4.9,-0.7,30.08,1019.8,,,,,,,,,,,,,,,Clear,72000.0,,,,,,,,,
KRDR,03-20-2021,02:56,METAR,Normal,180,13.0,,,9999.0,,5.7,-2.2,30.09,1020.3,,,,,,,,,,,,,,,Clear,72000.0,,,,,,,,,
KRDR,03-20-2021,01:56,METAR,Normal,170,11.0,,,9999.0,,7.6,-2.4,30.10,1020.7,,,,,,,,,,,,,,,Clear,72000.0,,,,,,,,,
KRDR,03-20-2021,00:56,METAR,Normal,190,15.0,24.0,,9999.0,,9.7,-3.9,30.10,1020.7,,,,,,,,,,,,,,,Clear,72000.0,,,,,,,,,
KRDR,03-19-2021,23:56,METAR,Normal,180,16.0,26.0,190/28KTS,9999.0,,11.7,-3.7,30.09,1020.3,,,,,,,,,,,,,,,Clear,72000.0,,,,,,,,,
KRDR,03-19-2021,22:56,METAR,Normal,180,21.0,30.0,210/31KTS,9999.0,,13.0,-4.2,30.10,1020.7,,,,,,,,,,,,,,,Clear,72000.0,,,,,,,,,
KRDR,03-19-2021,21:56,METAR,Normal,190,19.0,31.0,180/31KTS,9999.0,,13.4,-3.0,30.12,1021.3,,,,,,,,,,,,,,,Clear,72000.0,,,,,,,,,
KRDR,03-19-2021,20:56,METAR,Normal,190,22.0,30.0,170/32KTS,9999.0,,13.4,-2.6,30.14,1022.0,,,,,,,,,,,,,,,Clear,72000.0,,,,,,,,,
KRDR,03-19-2021,19:56,METAR,Normal,180,21.0,26.0,190/30KTS,9999.0,,13.0,-1.4,30.15,1022.2,,,,,,,,,,,,,,,Clear,72000.0,,,,,,,,,
KRDR,03-19-2021,18:56,METAR,Normal,180,23.0,30.0,180/30KTS,9999.0,,11.7,-1.5,30.18,1023.2,,,,,,,,,,,,,,,Clear,72000.0,,,,,,,,,
KRDR,03-19-2021,17:56,METAR,Normal,190,19.0,26.0,190/28KTS,9999.0,,10.1,-1.6,30.22,1024.7,,,,,,,,,,,,,,,Clear,72000.0,,,,,,,,,
KRDR,03-19-2021,17:01,METAR,Normal,190,21.0,26.0,210/27KTS,9999.0,Smoke or Ash,8.3,-2.1,30.24,1025.4,,,,04,,,,,,,,,,,Clear,72000.0,,,,,,,,,
KRDR,03-19-2021,16:56,METAR,Normal,200,21.0,27.0,200/27KTS,9999.0,,8.1,-2.3,30.24,1025.4,,,,,,,,,,,,,,,Clear,72000.0,,,,,,,,,
KRDR,03-19-2021,15:56,METAR,Normal,190,20.0,,210/26KTS,9999.0,,6.4,-3.8,30.27,1026.5,,,,,,,,,,,,,,,Clear,72000.0,,,,,,,,,
KRDR,03-19-2021,14:56,METAR,Normal,190,16.0,,,9999.0,,3.0,-1.2,30.29,1027.3,,,,,,,,,,,,,,,Clear,72000.0,,,,,,,,,
KRDR,03-19-2021,13:56,METAR,Normal,180,10.0,,,9999.0,,0.4,-0.6,30.30,1027.7,,,,,,,,,,,,,,,Clear,72000.0,,,,,,,,,
KRDR,03-19-2021,12:56,METAR,Normal,180,7.0,,,9999.0,,-2.7,-2.8,30.30,1027.8,,,,,,,,,,,,,,,Clear,72000.0,,,,,,,,,
KRDR,03-19-2021,11:56,METAR,Normal,180,8.0,,,9999.0,,-3.0,-3.1,30.30,1027.6,,,,,,,,,,,,,,,Clear,72000.0,,,,,,,,,
KRDR,03-19-2021,10:56,METAR,Normal,180,7.0,,,9999.0,,-4.3,-4.4,30.30,1027.5,,,,,,,,,,,,,,,Clear,72000.0,,,,,,,,,
KRDR,03-19-2021,09:56,METAR,Normal,190,7.0,,,9999.0,,-3.1,-3.4,30.32,1028.2,,,,,,,,,,,,,,,Clear,72000.0,,,,,,,,,
KRDR,03-19-2021,08:56,METAR,Normal,190,9.0,,,9999.0,,-2.4,-3.2,30.32,1028.1,,,,,,,,,,,,,,,Clear,72000.0,,,,,,,,,
KRDR,03-19-2021,07:56,METAR,Normal,200,8.0,,,9999.0,,0.7,-2.0,30.33,1028.4,,,,,,,,,,,,,,,Clear,72000.0,,,,,,,,,
KRDR,03-19-2021,06:56,METAR,Normal,190,10.0,,,9999.0,,1.1,-1.6,30.33,1028.4,,,,,,,,,,,,,,,Clear,72000.0,,,,,,,,,
KRDR,03-19-2021,05:56,METAR,Normal,200,7.0,,,9999.0,,0.6,-2.0,30.34,1028.8,,,,,,,,,,,,,,,Clear,72000.0,,,,,,,,,
KRDR,03-19-2021,04:56,METAR,Normal,190,7.0,,,9999.0,,1.4,-2.7,30.34,1028.9,,,,,,,,,,,,,,,Clear,72000.0,,,,,,,,,
KRDR,03-19-2021,03:56,METAR,Normal,190,8.0,,,9999.0,,1.8,-5.1,30.34,1028.9,,,,,,,,,,,,,,,Clear,72000.0,,,,,,,,,
KRDR,03-19-2021,02:56,METAR,Normal,180,9.0,,,9999.0,,0.9,-5.6,30.34,1029.1,,,,,,,,,,,,,,,Clear,72000.0,,,,,,,,,
KRDR,03-19-2021,01:56,METAR,Normal,180,8.0,,,9999.0,,2.4,-6.0,30.34,1029.2,,,,,,,,,,,,,,,Clear,72000.0,,,,,,,,,
KRDR,03-19-2021,00:56,METAR,Normal,180,6.0,,,9999.0,,3.8,-6.5,30.34,1029.4,,,,,,,,,,,,,,,Clear,72000.0,,,,,,,,,
KRDR,03-18-2021,23:56,METAR,Normal,190,8.0,,,9999.0,,9.7,-5.8,30.35,1029.5,,,,,,,,,,,,,,,Clear,72000.0,,,,,,,,,
KRDR,03-18-2021,22:56,METAR,Normal,220,8.0,,,9999.0,,11.4,-7.0,30.34,1029.0,,,,,,,,,,,,,,,Clear,72000.0,,,,,,,,,
KRDR,03-18-2021,21:56,METAR,Normal,190,8.0,,,9999.0,,11.6,-7.8,30.35,1029.3,,,,,,,,,,,,,,,2/8 Mostly Clear,72000.0,25000.0,FEW,25000.0,,,,,,
KRDR,03-18-2021,20:56,METAR,Normal,220,6.0,,,9999.0,,11.4,-7.9,30.36,1029.7,,,,,,,,,,,,,,,2/8 Mostly Clear,72000.0,18000.0,FEW,18000.0,,,,,,
KRDR,03-18-2021,19:56,METAR,Normal,190,7.0,,,9999.0,,11.2,-8.1,30.37,1030.0,,,,,,,,,,,,,,,Clear,72000.0,,,,,,,,,
KRDR,03-18-2021,18:56,METAR,Normal,210,6.0,,,9999.0,,9.9,-8.2,30.40,1031.1,,,,,,,,,,,,,,,Clear,72000.0,,,,,,,,,
KRDR,03-18-2021,17:56,METAR,Normal,170,5.0,,,9999.0,,9.2,-7.9,30.41,1031.5,,,,,,,,,,,,,,,Clear,72000.0,,,,,,,,,
KRDR,03-18-2021,16:56,METAR,Calm,,0.0,,,9999.0,,7.0,-7.4,30.43,1032.1,,,,,,,,,,,,,,,Clear,72000.0,,,,,,,,,
KRDR,03-18-2021,15:56,METAR,Calm,,0.0,,,9999.0,,,-5.3,30.43,1032.3,,,,,,,,,,,,,,,Clear,72000.0,,,,,,,,,
KRDR,03-18-2021,12:56,METAR,Calm,,0.0,,,9999.0,,-9.6,-10.8,30.40,1031.6,,,,,,,,,,,,,,,Clear,72000.0,,,,,,,,,
KRDR,03-18-2021,09:56,METAR,Normal,300,8.0,,,9999.0,,-8.3,-10.4,30.35,1029.6,,,,,,,,,,,,,,,Clear,72000.0,,,,,,,,,
KRDR,03-18-2021,08:56,METAR,Normal,310,6.0,,,9999.0,,-7.3,-10.0,30.33,1028.9,,,,,,,,,,,,,,,Clear,72000.0,,,,,,,,,
KRDR,03-18-2021,07:56,METAR,Normal,310,7.0,,,9999.0,,-6.6,-10.1,30.31,1028.2,,,,,,,,,,,,,,,Clear,72000.0,,,,,,,,,
KRDR,03-18-2021,06:56,METAR,Normal,320,6.0,,,9999.0,,-6.2,-9.8,30.29,1027.4,,,,,,,,,,,,,,,Clear,72000.0,,,,,,,,,
KRDR,03-18-2021,05:56,METAR,Normal,330,6.0,,,9999.0,,-6.8,-9.8,30.28,1027.2,,,,,,,,,,,,,,,Clear,72000.0,,,,,,,,,
KRDR,03-18-2021,04:56,METAR,Normal,350,5.0,,,9999.0,,-5.1,-8.7,30.26,1026.4,,,,,,,,,,,,,,,Clear,72000.0,,,,,,,,,
KRDR,03-18-2021,03:56,METAR,Normal,350,8.0,,,9999.0,,-5.2,-8.1,30.25,1026.2,,,,,,,,,,,,,,,Clear,72000.0,,,,,,,,,
KRDR,03-18-2021,02:56,METAR,Normal,360,6.0,,,9999.0,,-3.7,-5.3,30.24,1025.8,,,,,,,,,,,,,,,Clear,72000.0,,,,,,,,,
KRDR,03-18-2021,01:56,METAR,Normal,320,5.0,,,9999.0,,-2.7,-3.7,30.23,1025.5,,,,,,,,,,,,,,,Clear,72000.0,,,,,,,,,
KRDR,03-18-2021,00:56,METAR,Calm,,0.0,,,9999.0,,0.9,-2.7,30.22,1025.0,,,,,,,,,,,,,,,2/8 Mostly Clear,72000.0,3600.0,FEW,3600.0,,,,,,
KRDR,03-17-2021,23:56,METAR,Calm,,0.0,,,9999.0,,5.9,-1.3,30.21,1024.6,,,,,,,,,,,,,,,4/8 Partly Cloudy,72000.0,3600.0,SCT,3600.0,,,,,,
KRDR,03-17-2021,22:56,METAR,Normal,360,5.0,,,9999.0,,6.4,-0.4,30.19,1023.9,,,,,,,,,,,,,,,,3600.0,3600.0,BKN,3600.0,,,,,,
KRDR,03-17-2021,21:56,METAR,Normal,350,8.0,,,9999.0,,6.1,0.2,30.18,1023.5,,,,,,,,,,,,,,,,2800.0,2800.0,OVC,2800.0,,,,,,
KRDR,03-17-2021,21:26,SPECI,Normal,350,7.0,,,9999.0,,6.0,0.0,30.17,1023.2,,,,,,,,,,,,,,,,2900.0,2900.0,BKN,2900.0,OVC,4200.0,,,,
KRDR,03-17-2021,20:56,METAR,Normal,330,6.0,,,9999.0,,5.6,-0.9,30.17,1023.2,,,,,,,,,,,,,,,,4000.0,4000.0,OVC,4000.0,,,,,,
KRDR,03-17-2021,19:56,METAR,Normal,350,10.0,,,9999.0,,5.8,-1.8,30.16,1022.9,,,,,,,,,,,,,,,,3000.0,3000.0,BKN,3000.0,OVC,5000.0,,,,
KRDR,03-17-2021,18:56,METAR,Normal,20,5.0,,,9999.0,,5.5,-2.3,30.15,1022.4,,,,,,,,,,,,,,,,3000.0,3000.0,BKN,3000.0,OVC,4500.0,,,,
KRDR,03-17-2021,17:56,METAR,Normal,10,4.0,,,9999.0,,5.3,-2.1,30.14,1022.2,,,,,,,,,,,,,TRACE,,,3000.0,3000.0,BKN,3000.0,OVC,4400.0,,,,
KRDR,03-17-2021,16:56,METAR,Normal,360,3.0,,,9999.0,,4.5,-1.3,30.12,1021.5,,,,,,,,,,,,,,,,5000.0,2500.0,SCT,2500.0,BKN,5000.0,,,,
KRDR,03-17-2021,15:56,METAR,Normal,330,3.0,,,9999.0,,2.7,-0.6,30.12,1021.6,,,,,,,,,,,,,,,,6000.0,3000.0,SCT,3000.0,BKN,6000.0,,,,
KRDR,03-17-2021,14:56,METAR,Normal,310,4.0,,,9999.0,,1.0,0.0,30.11,1021.3,,,,,,,,,,,TRACE,TRACE,,,,4600.0,4600.0,OVC,4600.0,,,,,,
KRDR,03-17-2021,14:09,SPECI,Calm,,0.0,,,9999.0,,0.0,0.0,30.11,1021.3,,,,,,,,,,,,,,,,5000.0,5000.0,OVC,5000.0,,,,,,
KRDR,03-17-2021,13:56,METAR,Calm,,0.0,,,9999.0,Light Snow,-0.6,-0.7,30.11,1021.4,71,,,,,,,,,,TRACE,,,,,5000.0,3900.0,SCT,3900.0,OVC,5000.0,,,,
KRDR,03-17-2021,12:56,METAR,Normal,210,3.0,,,9999.0,,-1.6,-1.7,30.08,1020.3,,,,,,,,,,,,,,,,6000.0,4000.0,FEW,4000.0,OVC,6000.0,,,,
KRDR,03-17-2021,11:56,METAR,Normal,210,3.0,,,9999.0,,-1.3,-1.4,30.07,1019.9,,,,,,,,,,,TRACE,,TRACE,,,4200.0,4200.0,OVC,4200.0,,,,,,
KRDR,03-17-2021,11:42,SPECI,Normal,200,3.0,,,9999.0,,-1.0,-1.0,30.06,1019.6,,,,,,,,,,,,,,,,3800.0,3800.0,OVC,3800.0,,,,,,
KRDR,03-17-2021,10:56,METAR,Normal,290,3.0,,,9999.0,Light Snow,-1.2,-1.3,30.05,1019.2,71,,,,,,,,,,TRACE,,,,,1400.0,1500.0,OVC,1500.0,,,,,,
KRDR,03-17-2021,10:41,SPECI,Normal,260,3.0,,,9999.0,Precipitation,-2.0,-2.0,30.04,1018.9,41,,,,,,,,,,,,,,,1500.0,1500.0,OVC,1500.0,,,,,,
KRDR,03-17-2021,10:26,SPECI,Calm,,0.0,,,9999.0,,-2.0,-2.0,30.03,1018.6,,,,,,,,,,,,,,,,1600.0,1600.0,BKN,1600.0,OVC,2600.0,,,,
KRDR,03-17-2021,10:06,SPECI,Calm,,0.0,,,9999.0,,-1.0,-2.0,30.03,1018.6,,,,,,,,,,,,,,,,2600.0,2600.0,BKN,2600.0,OVC,3300.0,,,,
KRDR,03-17-2021,09:56,METAR,Calm,,0.0,,,9999.0,,-1.3,-1.4,30.03,1018.6,,,,,,,,,,,TRACE,,,,,3300.0,2800.0,SCT,2800.0,OVC,3300.0,,,,
KRDR,03-17-2021,09:08,SPECI,Calm,,0.0,,,9999.0,,-1.0,-2.0,30.03,1018.6,,,,,,,,,,,,,,,,3400.0,2200.0,FEW,2200.0,OVC,3400.0,,,,
KRDR,03-17-2021,09:01,SPECI,Calm,,0.0,,,9999.0,Precipitation,-2.0,-2.0,30.03,1018.6,41,,,,,,,,,,,,,,,3400.0,2200.0,FEW,2200.0,OVC,3400.0,,,,
KRDR,03-17-2021,08:56,METAR,Calm,,0.0,,,9999.0,,-1.4,-1.5,30.03,1018.6,,,,,,,,,,,,,,,,3400.0,2200.0,FEW,2200.0,OVC,3400.0,,,,
KRDR,03-17-2021,08:46,SPECI,Calm,,0.0,,,9999.0,,-1.0,-1.0,30.03,1018.6,,,,,,,,,,,,,,,,3800.0,2200.0,FEW,2200.0,SCT,2900.0,OVC,3800.0,,
KRDR,03-17-2021,07:56,METAR,Calm,,0.0,,,9999.0,,-1.2,-1.3,30.04,1018.9,,,,,,,,,,,,,,,,2500.0,2700.0,OVC,2700.0,,,,,,
KRDR,03-17-2021,07:36,SPECI,Calm,,0.0,,,9999.0,,-1.0,-1.0,30.03,1018.6,,,,,,,,,,,,,,,,2500.0,2800.0,OVC,2800.0,,,,,,
KRDR,03-17-2021,06:56,METAR,Calm,,0.0,,,9999.0,,-0.9,-1.3,30.03,1018.6,,,,,,,,,,,,,,,,3000.0,3000.0,OVC,3000.0,,,,,,
KRDR,03-17-2021,06:46,SPECI,Normal,190,3.0,,,9999.0,,-1.0,-1.0,30.03,1018.6,,,,,,,,,,,,,,,,3000.0,3000.0,OVC,3000.0,,,,,,
KRDR,03-17-2021,05:56,METAR,Calm,,0.0,,,9999.0,,-1.2,-1.8,30.03,1018.6,,,,,,,,,,,,,,,,2800.0,2800.0,OVC,2800.0,,,,,,
KRDR,03-17-2021,04:56,METAR,Calm,,0.0,,,9999.0,,-0.9,-1.5,30.03,1018.6,,,,,,,,,,,,,,,,2500.0,2600.0,OVC,2600.0,,,,,,
KRDR,03-17-2021,04:36,SPECI,Calm,,0.0,,,9999.0,,-1.0,-2.0,30.03,1018.6,,,,,,,,,,,,,,,,2500.0,2700.0,BKN,2700.0,OVC,3300.0,,,,
KRDR,03-17-2021,03:56,METAR,Calm,,0.0,,,9999.0,,-0.7,-1.4,30.03,1018.6,,,,,,,,,,,,,,,,3200.0,3200.0,OVC,3200.0,,,,,,
KRDR,03-17-2021,02:56,METAR,Calm,,0.0,,,9999.0,,-0.2,-1.3,30.02,1018.2,,,,,,,,,,,,,,,,3000.0,3000.0,BKN,3000.0,OVC,3600.0,,,,
KRDR,03-17-2021,01:56,METAR,Calm,,0.0,,,9999.0,,-0.1,-1.4,30.01,1017.9,,,,,,,,,,,,,,,,3200.0,3200.0,OVC,3200.0,,,,,,
KRDR,03-17-2021,00:56,METAR,Calm,,0.0,,,9999.0,,0.3,-1.5,30.00,1017.6,,,,,,,,,,,,,,,,3000.0,3000.0,OVC,3000.0,,,,,,
KRDR,03-17-2021,00:36,SPECI,Normal,210,3.0,,,9999.0,,1.0,-1.0,30.00,1017.5,,,,,,,,,,,,,,,,2600.0,2600.0,BKN,2600.0,OVC,3300.0,,,,
KRDR,03-16-2021,23:56,METAR,Normal,210,3.0,,,9999.0,,1.2,-1.4,29.99,1017.2,,,,,,,,,,,,,TRACE,,,3400.0,2700.0,FEW,2700.0,OVC,3400.0,,,,
KRDR,03-16-2021,22:56,METAR,Normal,200,5.0,,,9999.0,,1.6,-1.3,29.99,1017.2,,,,,,,,,,,,,,,,3300.0,3300.0,OVC,3300.0,,,,,,
KRDR,03-16-2021,21:56,METAR,Normal,200,6.0,,,9999.0,,1.7,-1.7,29.99,1017.1,,,,,,,,,,,,,,,,3300.0,3300.0,OVC,3300.0,,,,,,
KRDR,03-16-2021,20:59,METAR,Normal,220,6.0,,,9999.0,Light Snow,1.7,-1.6,29.99,,71,,,,,,,,,,TRACE,TRACE,,,,2200.0,2200.0,OVC,2200.0,,,,,,
KRDR,03-16-2021,19:55,METAR,Calm,,0.0,,,9999.0,Light Snow,1.7,-1.4,29.99,,71,,,,,,,,,,TRACE,,,,,2500.0,2500.0,OVC,2500.0,,,,,,
KRDR,03-16-2021,19:47,SPECI,Calm,,0.0,,,9999.0,Light Snow,2.0,-1.0,29.99,1017.0,71,,,,,,,,,,,,,,,2500.0,2500.0,OVC,2500.0,,,,,,
KRDR,03-16-2021,18:54,METAR,Normal,170,4.0,,,9999.0,Light Snow,1.4,-1.3,29.99,1017.2,71,,,,,,,,,,TRACE,,,,,1800.0,1800.0,OVC,1800.0,,,,,,
KRDR,03-16-2021,18:26,SPECI,Normal,140,5.0,,,9999.0,Light Snow,1.0,-1.0,29.99,1017.2,71,,,,,,,,,,,,,,,2000.0,2100.0,OVC,2100.0,,,,,,
KRDR,03-16-2021,17:56,METAR,Normal,130,6.0,,,9999.0,Light Snow,1.7,-1.2,30.00,1017.5,71,,,,,,,,,,TRACE,,TRACE,,,1800.0,1800.0,BKN,1800.0,OVC,6000.0,,,,
KRDR,03-16-2021,17:38,SPECI,Normal,130,8.0,,,9999.0,Light Snow,2.0,-1.0,29.99,1017.1,71,,,,,,,,,,,,,,,1800.0,1800.0,BKN,1800.0,OVC,4200.0,,,,
KRDR,03-16-2021,17:08,SPECI,Normal,130,8.0,,,9999.0,,1.0,-1.0,30.00,1017.5,,,,,,,,,,,,,,,,1700.0,1700.0,BKN,1700.0,OVC,4200.0,,,,
KRDR,03-16-2021,16:56,METAR,Normal,140,8.0,,,9999.0,Light Snow,1.4,-1.3,30.00,1017.5,71,,,,,,,,,,TRACE,,,,,1500.0,1500.0,BKN,1500.0,OVC,4200.0,,,,
KRDR,03-16-2021,16:46,SPECI,Normal,130,8.0,,,9999.0,Light Snow,1.0,-1.0,30.00,1017.5,71,,,,,,,,,,,,,,,1500.0,1500.0,BKN,1500.0,OVC,4000.0,,,,
KRDR,03-16-2021,15:56,METAR,Normal,130,6.0,,,9999.0,,0.5,-1.3,30.00,1017.5,,,,,,,,,,,,,,,,4000.0,2000.0,SCT,2000.0,OVC,4000.0,,,,
KRDR,03-16-2021,14:56,METAR,Normal,160,5.0,,,9999.0,,0.1,-0.9,29.98,1016.9,,,,,,,,,,,,,,,,4300.0,4300.0,OVC,4300.0,,,,,,
KRDR,03-16-2021,13:56,METAR,Normal,160,5.0,,,9999.0,,-0.7,-0.8,29.98,1016.9,,,,,,,,,,,,,,,,4300.0,4300.0,OVC,4300.0,,,,,,
KRDR,03-16-2021,12:56,METAR,Calm,,0.0,,,9999.0,,-1.4,-1.5,29.99,1017.2,,,,,,,,,,,,,,,,4200.0,4200.0,OVC,4200.0,,,,,,
KRDR,03-16-2021,12:06,SPECI,Calm,,0.0,,,9999.0,,-1.0,-1.0,29.98,1016.9,,,,,,,,,,,,,,,,3600.0,2200.0,SCT,2200.0,OVC,3600.0,,,,
KRDR,03-16-2021,11:56,METAR,Calm,,0.0,,,9999.0,,-1.3,-1.4,29.98,1016.9,,,,,,,,,,,,,,,,1500.0,1200.0,FEW,1200.0,BKN,2100.0,OVC,3600.0,,
KRDR,03-16-2021,11:26,SPECI,Calm,,0.0,,,9999.0,,-1.0,-1.0,29.98,1016.9,,,,,,,,,,,,,,,,1500.0,1500.0,OVC,1500.0,,,,,,
KRDR,03-16-2021,10:56,METAR,Calm,,0.0,,,9999.0,,-1.3,-1.4,29.97,1016.5,,,,,,,,,,,,,,,,1200.0,1200.0,BKN,1200.0,OVC,1900.0,,,,
KRDR,03-16-2021,10:26,SPECI,Calm,,0.0,,,9999.0,,-1.0,-1.0,29.96,1016.2,,,,,,,,,,,,,,,,1800.0,1200.0,SCT,1200.0,BKN,1800.0,OVC,6000.0,,
KRDR,03-16-2021,09:56,METAR,Normal,200,3.0,,,9999.0,,-0.9,-1.2,29.96,1016.2,,,,,,,,,,,,,,,,6500.0,1700.0,FEW,1700.0,OVC,6500.0,,,,
KRDR,03-16-2021,09:44,SPECI,Normal,210,4.0,,,9999.0,,-1.0,-1.0,29.96,1016.2,,,,,,,,,,,,,,,,6500.0,1600.0,SCT,1600.0,OVC,6500.0,,,,
KRDR,03-16-2021,08:56,METAR,Normal,180,6.0,,,9999.0,,-0.6,-0.7,29.98,1016.8,,,,,,,,,,,,,,,,1500.0,1800.0,OVC,1800.0,,,,,,
KRDR,03-16-2021,08:36,SPECI,Normal,190,5.0,,,9999.0,,-1.0,-1.0,29.98,1016.8,,,,,,,,,,,,,,,,1400.0,1700.0,OVC,1700.0,,,,,,
KRDR,03-16-2021,08:26,SPECI,Normal,190,5.0,,,9999.0,,0.0,-1.0,29.98,1016.8,,,,,,,,,,,,,,,,1400.0,1400.0,BKN,1400.0,OVC,1900.0,,,,
KRDR,03-16-2021,08:06,SPECI,Normal,200,5.0,,,9999.0,,0.0,0.0,29.98,1016.8,,,,,,,,,,,,,,,,1300.0,1300.0,OVC,1300.0,,,,,,
KRDR,03-16-2021,07:56,METAR,Normal,190,5.0,,,9999.0,,-0.4,-0.5,29.98,1016.8,,,,,,,,,,,,,,,,1300.0,1500.0,OVC,1500.0,,,,,,
KRDR,03-16-2021,04:56,METAR,Normal,130,5.0,,,9999.0,,-0.3,-0.7,30.00,1017.4,,,,,,,,,,,,,,,,1400.0,1500.0,BKN,1500.0,BKN,2300.0,OVC,2900.0,,
KRDR,03-16-2021,03:56,METAR,Normal,170,3.0,,,9999.0,,-0.2,-0.9,29.99,1017.2,,,,,,,,,,,,,,,,2700.0,2800.0,OVC,2800.0,,,,,,
KRDR,03-16-2021,03:26,SPECI,Normal,180,4.0,,,9999.0,,0.0,-1.0,29.99,1017.2,,,,,,,,,,,,,,,,3100.0,2200.0,FEW,2200.0,OVC,3100.0,,,,
KRDR,03-16-2021,02:56,METAR,Normal,140,3.0,,,9999.0,,-0.5,-1.5,30.00,1017.6,,,,,,,,,,,,,,,,2900.0,1900.0,FEW,1900.0,OVC,2900.0,,,,
KRDR,03-16-2021,02:06,SPECI,Normal,170,5.0,,,9999.0,,0.0,-2.0,29.99,1017.4,,,,,,,,,,,,,,,,2500.0,2700.0,BKN,2700.0,OVC,3500.0,,,,
KRDR,03-16-2021,01:56,METAR,Normal,170,6.0,,,9999.0,,-0.3,-1.6,29.99,1017.4,,,,,,,,,,,,,,,,3400.0,2700.0,SCT,2700.0,OVC,3400.0,,,,
KRDR,03-16-2021,01:26,SPECI,Normal,170,6.0,,,9999.0,,0.0,-2.0,29.99,1017.6,,,,,,,,,,,,,,,,3400.0,2400.0,SCT,2400.0,OVC,3400.0,,,,
KRDR,03-16-2021,00:56,METAR,Normal,170,9.0,,,9999.0,,0.5,-1.3,29.99,1017.6,,,,,,,,,,,,,,,,2100.0,2100.0,BKN,2100.0,,,,,,
KRDR,03-15-2021,23:56,METAR,Normal,160,11.0,,,9999.0,,1.1,-0.8,30.01,1018.1,,,,,,,,,,,,,,,,1800.0,1800.0,OVC,1800.0,,,,,,
KRDR,03-15-2021,22:56,METAR,Normal,170,13.0,,,9999.0,,1.4,-1.3,30.01,1018.1,,,,,,,,,,,,,,,,1700.0,1700.0,OVC,1700.0,,,,,,
KRDR,03-15-2021,21:56,METAR,Normal,170,14.0,,,9999.0,,1.7,-1.4,30.02,1018.4,,,,,,,,,,,,,,,,1900.0,1900.0,OVC,1900.0,,,,,,
KRDR,03-15-2021,20:56,METAR,Normal,170,17.0,,,9999.0,,2.1,-1.5,30.02,1018.3,,,,,,,,,,,,,,,,1700.0,1700.0,OVC,1700.0,,,,,,
KRDR,03-15-2021,19:56,METAR,Normal,170,14.0,20.0,,9999.0,,2.1,-0.5,30.03,1018.6,,,,,,,,,,,,,,,,1700.0,1700.0,BKN,1700.0,OVC,4000.0,,,,
KRDR,03-15-2021,19:43,SPECI,Normal,170,14.0,21.0,,9999.0,,2.0,-1.0,30.03,1018.6,,,,,,,,,,,,,,,,1700.0,1700.0,OVC,1700.0,,,,,,
KRDR,03-15-2021,19:02,SPECI,Normal,160,12.0,,,9999.0,Light Snow,2.0,-1.0,30.05,1019.3,71,,,,,,,,,,,,,,,1600.0,1600.0,BKN,1600.0,OVC,3800.0,,,,
KRDR,03-15-2021,18:56,METAR,Normal,150,12.0,,,9999.0,,2.0,-1.3,30.05,1019.3,,,,,,,,,,,,,,,,1600.0,1600.0,BKN,1600.0,OVC,3800.0,,,,
KRDR,03-15-2021,18:36,SPECI,Normal,160,14.0,,,9999.0,,2.0,-1.0,30.06,1019.7,,,,,,,,,,,,,,,,1600.0,1600.0,BKN,1600.0,OVC,3800.0,,,,
KRDR,03-15-2021,17:56,METAR,Normal,170,13.0,,,9999.0,,2.8,-1.7,30.05,1019.2,,,,,,,,,,,,,,,,3000.0,2000.0,SCT,2000.0,BKN,3000.0,,,,
KRDR,03-15-2021,17:26,SPECI,Normal,170,11.0,,,9999.0,,2.0,-7.0,30.07,1020.0,,,,,,,,,,,,,,,,3000.0,3000.0,BKN,3000.0,,,,,,
KRDR,03-15-2021,16:56,METAR,Normal,170,14.0,,,9999.0,,3.0,-7.5,30.08,1020.3,,,,,,,,,,,,,,,,5000.0,5000.0,BKN,5000.0,,,,,,
KRDR,03-15-2021,15:56,METAR,Normal,170,11.0,,,9999.0,,0.9,-8.1,30.10,1021.0,,,,,,,,,,,,,,,,18000.0,6000.0,SCT,6000.0,BKN,18000.0,,,,
KRDR,03-15-2021,14:56,METAR,Normal,150,9.0,,,9999.0,,-1.8,-7.5,30.12,1021.8,,,,,,,,,,,,,,,4/8 Partly Cloudy,72000.0,6000.0,FEW,6000.0,SCT,18000.0,,,,
KRDR,03-15-2021,13:56,METAR,Calm,,0.0,,,9999.0,,-5.8,-8.2,30.14,1022.6,,,,,,,,,,,,,,,2/8 Mostly Clear,72000.0,6000.0,FEW,6000.0,FEW,18000.0,,,,
KRDR,03-15-2021,12:56,METAR,Calm,,0.0,,,9999.0,,-10.6,-11.7,30.17,1023.7,,,,,,,,,,,,,,,2/8 Mostly Clear,72000.0,18000.0,FEW,18000.0,,,,,,
KRDR,03-15-2021,11:56,METAR,Calm,,0.0,,,9999.0,,-6.6,-11.9,30.18,1023.8,,,,,,,,,,,,,,,Clear,72000.0,,,,,,,,,
KRDR,03-15-2021,10:56,METAR,Normal,110,5.0,,,9999.0,,-6.7,-11.3,30.19,1024.0,,,,,,,,,,,,,,,Clear,72000.0,,,,,,,,,
KRDR,03-15-2021,09:56,METAR,Normal,140,3.0,,,9999.0,,-5.2,-11.6,30.22,1025.0,,,,,,,,,,,,,,,Clear,72000.0,,,,,,,,,
KRDR,03-15-2021,08:56,METAR,Normal,140,7.0,,,9999.0,,-3.9,-11.0,30.24,1025.6,,,,,,,,,,,,,,,Clear,72000.0,,,,,,,,,
KRDR,03-15-2021,07:56,METAR,Normal,150,6.0,,,9999.0,,-4.0,-10.4,30.26,1026.3,,,,,,,,,,,,,,,Clear,72000.0,,,,,,,,,
KRDR,03-15-2021,06:56,METAR,Normal,140,7.0,,,9999.0,,-3.8,-11.3,30.28,1027.0,,,,,,,,,,,,,,,Clear,72000.0,,,,,,,,,
KRDR,03-15-2021,05:56,METAR,Normal,140,3.0,,,9999.0,,-2.9,-12.1,30.30,1027.7,,,,,,,,,,,,,,,Clear,72000.0,,,,,,,,,
KRDR,03-15-2021,04:56,METAR,Normal,160,5.0,,,9999.0,,-3.7,-11.7,30.32,1028.5,,,,,,,,,,,,,,,Clear,72000.0,,,,,,,,,
KRDR,03-15-2021,03:56,METAR,Normal,110,6.0,,,9999.0,,-1.3,-11.4,30.33,1028.7,,,,,,,,,,,,,,,Clear,72000.0,,,,,,,,,
KRDR,03-15-2021,02:56,METAR,Normal,100,6.0,,,9999.0,,-1.1,-11.3,30.34,1029.2,,,,,,,,,,,,,,,Clear,72000.0,,,,,,,,,
KRDR,03-15-2021,01:56,METAR,Normal,90,6.0,,,9999.0,,0.2,-11.5,30.35,1029.7,,,,,,,,,,,,,,,Clear,72000.0,,,,,,,,,
KRDR,03-15-2021,00:56,METAR,Normal,80,5.0,,,9999.0,,1.3,-11.8,30.35,1029.7,,,,,,,,,,,,,,,Clear,72000.0,,,,,,,,,
KRDR,03-14-2021,23:56,METAR,Normal,80,7.0,,,9999.0,,4.6,-12.8,30.35,1029.6,,,,,,,,,,,,,,,Clear,72000.0,,,,,,,,,
KRDR,03-14-2021,22:56,METAR,Normal,100,12.0,,,9999.0,,6.4,-14.4,30.37,1030.2,,,,,,,,,,,,,,,Clear,72000.0,,,,,,,,,
KRDR,03-14-2021,21:56,METAR,Normal,100,13.0,,,9999.0,,7.4,-14.8,30.40,1031.2,,,,,,,,,,,,,,,Clear,72000.0,,,,,,,,,
KRDR,03-14-2021,20:56,METAR,Normal,100,11.0,,,9999.0,,7.6,-15.2,30.42,1031.8,,,,,,,,,,,,,,,Clear,72000.0,,,,,,,,,
KRDR,03-14-2021,19:56,METAR,Normal,110,10.0,,,9999.0,,8.0,-15.6,30.45,1032.8,,,,,,,,,,,,,,,Clear,72000.0,,,,,,,,,
KRDR,03-14-2021,18:56,METAR,Normal,80,12.0,17.0,,9999.0,,7.3,-13.0,30.48,1033.8,,,,,,,,,,,,,,,Clear,72000.0,,,,,,,,,
KRDR,03-14-2021,17:56,METAR,Normal,90,9.0,,,9999.0,,5.9,-11.7,30.53,1035.4,,,,,,,,,,,,,,,Clear,72000.0,,,,,,,,,
KRDR,03-14-2021,16:56,METAR,Normal,110,11.0,,,9999.0,,4.1,-9.3,30.53,1035.4,,,,,,,,,,,,,,,Clear,72000.0,,,,,,,,,
KRDR,03-14-2021,15:56,METAR,Normal,100,10.0,,,9999.0,,2.1,-7.8,30.53,1035.5,,,,,,,,,,,,,,,Clear,72000.0,,,,,,,,,
KRDR,03-14-2021,14:56,METAR,Normal,50,3.0,,,9999.0,,-1.6,-6.7,30.55,1036.3,,,,,,,,,,,,,,,Clear,72000.0,,,,,,,,,
KRDR,03-14-2021,13:56,METAR,Normal,360,6.0,,,9999.0,,-5.8,-7.5,30.54,1036.2,,,,,,,,,,,,,,,Clear,72000.0,,,,,,,,,
KRDR,03-14-2021,12:56,METAR,Normal,350,5.0,,,9999.0,,-7.1,-9.7,30.52,1035.4,,,,,,,,,,,,,,,Clear,72000.0,,,,,,,,,
KRDR,03-14-2021,11:56,METAR,Normal,360,9.0,,,9999.0,,-7.2,-9.5,30.48,1033.9,,,,,,,,,,,,,,,Clear,72000.0,,,,,,,,,
KRDR,03-14-2021,10:56,METAR,Normal,350,5.0,,,9999.0,,-7.0,-9.4,30.47,1033.4,,,,,,,,,,,,,,,Clear,72000.0,,,,,,,,,
KRDR,03-14-2021,09:56,METAR,Normal,340,5.0,,,9999.0,,-7.3,-9.3,30.46,1033.0,,,,,,,,,,,,,,,Clear,72000.0,,,,,,,,,
KRDR,03-14-2021,08:56,METAR,Normal,350,5.0,,,9999.0,,-6.9,-9.0,30.48,1033.6,,,,,,,,,,,,,,,Clear,72000.0,,,,,,,,,
KRDR,03-14-2021,07:56,METAR,Normal,10,4.0,,,9999.0,,-4.9,-8.5,30.47,1033.3,,,,,,,,,,,,,,,Clear,72000.0,,,,,,,,,
KRDR,03-14-2021,06:56,METAR,Normal,30,6.0,,,9999.0,,-3.0,-8.9,30.45,1032.5,,,,,,,,,,,,,,,Clear,72000.0,,,,,,,,,
KRDR,03-14-2021,05:56,METAR,Normal,50,6.0,,,9999.0,,0.7,-8.5,30.45,1032.5,,,,,,,,,,,,,,,Clear,72000.0,,,,,,,,,
KRDR,03-14-2021,04:56,METAR,Normal,50,6.0,,,9999.0,,1.4,-7.6,30.44,1032.1,,,,,,,,,,,,,,,Clear,72000.0,,,,,,,,,
KRDR,03-14-2021,03:56,METAR,Normal,40,8.0,,,9999.0,,2.0,-6.6,30.43,1031.9,,,,,,,,,,,,,,,Clear,72000.0,,,,,,,,,
KRDR,03-14-2021,02:56,METAR,Normal,30,10.0,,,9999.0,,2.5,-5.9,30.41,1031.2,,,,,,,,,,,,,,,Clear,72000.0,,,,,,,,,
KRDR,03-14-2021,01:56,METAR,Normal,40,6.0,,,9999.0,,0.4,-7.4,30.41,1031.4,,,,,,,,,,,,,,,Clear,72000.0,,,,,,,,,
KRDR,03-14-2021,00:56,METAR,Normal,40,5.0,,,9999.0,,3.5,-7.9,30.39,1030.6,,,,,,,,,,,,,,,Clear,72000.0,,,,,,,,,
KRDR,03-13-2021,23:56,METAR,Normal,30,9.0,,,9999.0,,9.8,-7.0,30.36,1029.3,,,,,,,,,,,,,,,Clear,72000.0,,,,,,,,,
KRDR,03-13-2021,22:56,METAR,Normal,30,9.0,,,9999.0,,12.2,-6.8,30.35,1029.0,,,,,,,,,,,,,,,Clear,72000.0,,,,,,,,,
KRDR,03-13-2021,21:56,METAR,Normal,30,9.0,,,9999.0,,13.5,-6.7,30.32,1027.8,,,,,,,,,,,,,,,Clear,72000.0,,,,,,,,,
KRDR,03-13-2021,20:56,METAR,Normal,20,13.0,,,9999.0,,14.1,-7.3,30.29,1026.8,,,,,,,,,,,,,,,Clear,72000.0,,,,,,,,,
KRDR,03-13-2021,19:56,METAR,Normal,10,6.0,,,9999.0,,13.9,-6.4,30.32,1027.8,,,,,,,,,,,,,,,Clear,72000.0,,,,,,,,,
KRDR,03-13-2021,18:56,METAR,Normal,20,8.0,,,9999.0,,12.7,-5.8,30.33,1028.3,,,,,,,,,,,,,,,Clear,72000.0,,,,,,,,,
KRDR,03-13-2021,17:56,METAR,Normal,40,8.0,,,9999.0,,11.9,-6.0,30.33,1028.4,,,,,,,,,,,,,,,Clear,72000.0,,,,,,,,,
KRDR,03-13-2021,16:56,METAR,Normal,350,7.0,,,9999.0,,10.2,-5.4,30.32,1028.0,,,,,,,,,,,,,,,Clear,72000.0,,,,,,,,,
KRDR,03-13-2021,15:56,METAR,Normal,360,10.0,,,9999.0,,8.5,-4.7,30.31,1027.8,,,,,,,,,,,,,,,Clear,72000.0,,,,,,,,,
KRDR,03-13-2021,14:56,METAR,Normal,320,9.0,,,9999.0,,6.4,-1.3,30.29,1027.1,,,,,,,,,,,,,,,Clear,72000.0,,,,,,,,,
KRDR,03-13-2021,13:56,METAR,Normal,280,8.0,,,9999.0,,3.1,0.0,30.26,1026.3,,,,,,,,,,,,,,,Clear,72000.0,,,,,,,,,
KRDR,03-13-2021,12:56,METAR,Normal,290,7.0,,,9999.0,,1.6,-0.3,30.25,1025.9,,,,,,,,,,,,,,,Clear,72000.0,,,,,,,,,
KRDR,03-13-2021,11:56,METAR,Normal,280,8.0,,,9999.0,,3.5,0.4,30.22,1024.8,,,,,,,,,,,,,,,Clear,72000.0,,,,,,,,,
KRDR,03-13-2021,10:56,METAR,Normal,260,11.0,,,9999.0,,2.8,0.9,30.23,1025.0,,,,,,,,,,,,,,,Clear,72000.0,,,,,,,,,
KRDR,03-13-2021,09:56,METAR,Normal,260,11.0,,,9999.0,,3.4,1.4,30.22,1024.7,,,,,,,,,,,,,,,Clear,72000.0,,,,,,,,,
KRDR,03-13-2021,08:56,METAR,Normal,250,12.0,,,9999.0,,3.5,2.0,30.23,1025.0,,,,,,,,,,,,,,,Clear,72000.0,,,,,,,,,
KRDR,03-13-2021,07:56,METAR,Normal,250,12.0,,,9999.0,,3.1,2.1,30.23,1025.1,,,,,,,,,,,,,,,Clear,72000.0,,,,,,,,,
KRDR,03-13-2021,06:56,METAR,Normal,210,6.0,,,9999.0,,0.6,0.5,30.23,1025.3,,,,,,,,,,,,,,,Clear,72000.0,,,,,,,,,
KRDR,03-13-2021,05:56,METAR,Normal,210,10.0,,,9999.0,,0.8,0.7,30.23,1025.3,,,,,,,,,,,,,,,Clear,72000.0,,,,,,,,,
KRDR,03-13-2021,04:56,METAR,Normal,210,11.0,,,9999.0,,1.2,0.5,30.24,1025.7,,,,,,,,,,,,,,,Clear,72000.0,,,,,,,,,
KRDR,03-13-2021,03:56,METAR,Normal,210,12.0,,,9999.0,,1.6,0.6,30.24,1025.8,,,,,,,,,,,,,,,Clear,72000.0,,,,,,,,,
KRDR,03-13-2021,02:56,METAR,Normal,200,14.0,,,9999.0,,1.9,0.1,30.24,1025.9,,,,,,,,,,,,,,,Clear,72000.0,,,,,,,,,
KRDR,03-13-2021,01:56,METAR,Normal,190,13.0,,,9999.0,,1.8,-0.5,30.25,1026.4,,,,,,,,,,,,,,,Clear,72000.0,,,,,,,,,
KRDR,03-13-2021,00:56,METAR,Normal,180,11.0,,,9999.0,,2.4,-1.8,30.25,1026.5,,,,,,,,,,,,,,,Clear,72000.0,,,,,,,,,
KRDR,03-12-2021,23:56,METAR,Normal,190,14.0,,,9999.0,,4.9,-3.6,30.25,1026.5,,,,,,,,,,,,,,,Clear,72000.0,,,,,,,,,
KRDR,03-12-2021,22:56,METAR,Normal,190,16.0,,,9999.0,,6.4,-5.0,30.27,1027.0,,,,,,,,,,,,,,,Clear,72000.0,,,,,,,,,
KRDR,03-12-2021,21:56,METAR,Normal,200,15.0,,,9999.0,,6.6,-6.4,30.29,1027.7,,,,,,,,,,,,,,,Clear,72000.0,,,,,,,,,
KRDR,03-12-2021,20:56,METAR,Normal,190,15.0,,,9999.0,,5.8,-7.4,30.31,1028.4,,,,,,,,,,,,,,,Clear,72000.0,,,,,,,,,
KRDR,03-12-2021,19:56,METAR,Normal,200,14.0,20.0,,9999.0,,4.9,-8.6,30.35,1029.8,,,,,,,,,,,,,,,Clear,72000.0,,,,,,,,,
KRDR,03-12-2021,18:56,METAR,Normal,200,12.0,,,9999.0,,2.8,-11.2,30.39,1031.2,,,,,,,,,,,,,,,Clear,72000.0,,,,,,,,,
KRDR,03-12-2021,17:56,METAR,Normal,200,13.0,20.0,,9999.0,,1.0,-13.1,30.41,1032.0,,,,,,,,,,,,,,,Clear,72000.0,,,,,,,,,
KRDR,03-12-2021,16:56,METAR,Normal,190,15.0,,,9999.0,,-1.5,-14.7,30.43,1032.6,,,,,,,,,,,,,,,Clear,72000.0,,,,,,,,,
KRDR,03-12-2021,15:56,METAR,Normal,190,11.0,,,9999.0,,-3.8,-15.2,30.44,1033.0,,,,,,,,,,,,,,,Clear,72000.0,,,,,,,,,
KRDR,03-12-2021,14:56,METAR,Normal,200,13.0,,,9999.0,,-6.1,-13.0,30.45,1033.5,,,,,,,,,,,,,,,Clear,72000.0,,,,,,,,,
KRDR,03-12-2021,13:56,METAR,Normal,210,5.0,,,9999.0,,-10.3,-12.7,30.44,1033.2,,,,,,,,,,,,,,,Clear,72000.0,,,,,,,,,
KRDR,03-12-2021,12:56,METAR,Normal,200,4.0,,,9999.0,,-14.3,-15.9,30.43,1033.0,,,,,,,,,,,,,,,Clear,72000.0,,,,,,,,,
KRDR,03-12-2021,11:56,METAR,Normal,200,4.0,,,9999.0,,-14.4,-16.0,30.42,1032.5,,,,,,,,,,,,,,,Clear,72000.0,,,,,,,,,
KRDR,03-12-2021,10:56,METAR,Normal,220,3.0,,,9999.0,,-13.0,-15.3,30.42,1032.5,,,,,,,,,,,,,,,Clear,72000.0,,,,,,,,,
KRDR,03-12-2021,09:56,METAR,Normal,220,5.0,,,9999.0,,-13.2,-15.5,30.41,1032.1,,,,,,,,,,,,,,,Clear,72000.0,,,,,,,,,
KRDR,03-12-2021,08:56,METAR,Normal,210,5.0,,,9999.0,,-14.0,-16.2,30.40,1031.8,,,,,,,,,,,,,,,Clear,72000.0,,,,,,,,,
KRDR,03-12-2021,07:56,METAR,Normal,320,5.0,,,9999.0,,-13.4,-15.9,30.39,1031.5,,,,,,,,,,,,,,,Clear,72000.0,,,,,,,,,
KRDR,03-12-2021,06:56,METAR,Normal,320,5.0,,,9999.0,,-11.8,-15.2,30.37,1030.7,,,,,,,,,,,,,,,Clear,72000.0,,,,,,,,,
KRDR,03-12-2021,05:56,METAR,Normal,310,5.0,,,9999.0,,-12.3,-15.7,30.36,1030.2,,,,,,,,,,,,,,,Clear,72000.0,,,,,,,,,
KRDR,03-12-2021,04:56,METAR,Normal,330,7.0,,,9999.0,,-9.8,-15.7,30.34,1029.5,,,,,,,,,,,,,,,Clear,72000.0,,,,,,,,,
KRDR,03-12-2021,03:56,METAR,Normal,330,8.0,,,9999.0,,-8.5,-15.7,30.32,1028.7,,,,,,,,,,,,,,,Clear,72000.0,,,,,,,,,
KRDR,03-12-2021,02:56,METAR,Normal,330,10.0,,,9999.0,,-7.7,-15.9,30.30,1028.2,,,,,,,,,,,,,,,Clear,72000.0,,,,,,,,,
KRDR,03-12-2021,01:56,METAR,Normal,330,12.0,,,9999.0,,-5.7,-13.5,30.27,1027.2,,,,,,,,,,,,,,,Clear,72000.0,,,,,,,,,
KRDR,03-12-2021,00:56,METAR,Normal,330,10.0,,,9999.0,,-5.1,-10.3,30.22,1025.4,,,,,,,,,,,,,,,2/8 Mostly Clear,72000.0,4800.0,FEW,4800.0,,,,,,
KRDR,03-11-2021,23:56,METAR,Normal,340,11.0,,,9999.0,,-3.0,-9.1,30.19,1024.3,,,,,,,,,,,,,TRACE,,4/8 Partly Cloudy,72000.0,4700.0,SCT,4700.0,,,,,,
KRDR,03-11-2021,22:56,METAR,Normal,340,11.0,,,9999.0,,-2.6,-8.3,30.17,1023.6,,,,,,,,,,,,,,,,3500.0,3500.0,BKN,3500.0,OVC,4300.0,,,,
KRDR,03-11-2021,21:56,METAR,Normal,330,15.0,21.0,,9999.0,,-1.5,-7.8,30.15,1022.8,,,,,,,,,,,,,,,,3600.0,2800.0,FEW,2800.0,OVC,3600.0,,,,
KRDR,03-11-2021,20:56,METAR,Normal,340,11.0,,,9999.0,,-2.0,-6.0,30.13,1022.2,,,,,,,,,,,TRACE,TRACE,,,,2000.0,2000.0,BKN,2000.0,,,,,,
KRDR,03-11-2021,20:42,SPECI,Normal,350,10.0,,,9999.0,,-2.0,-6.0,30.13,1022.2,,,,,,,,,,,,,,,,2000.0,2000.0,OVC,2000.0,,,,,,
KRDR,03-11-2021,20:22,SPECI,Normal,340,10.0,,,9999.0,,-3.0,-6.0,30.13,1022.2,,,,,,,,,,,,,,,,1500.0,1500.0,OVC,1500.0,,,,,,
KRDR,03-11-2021,20:11,SPECI,Normal,350,10.0,,,9999.0,Light Snow,-4.0,-6.0,30.13,1022.2,71,,,,,,,,,,,,,,,1400.0,1400.0,OVC,1400.0,,,,,,
KRDR,03-11-2021,19:56,METAR,Normal,10,11.0,,,9999.0,,-3.9,-6.2,30.13,1022.2,,,,,,,,,,,TRACE,,,,,1200.0,1200.0,OVC,1200.0,,,,,,
KRDR,03-11-2021,19:14,SPECI,Normal,20,15.0,,,9999.0,Light Snow,-3.0,-5.0,30.11,1021.5,71,,,,,,,,,,,,,,,1200.0,1200.0,OVC,1200.0,,,,,,
KRDR,03-11-2021,19:10,SPECI,Normal,10,15.0,,,9999.0,,-2.0,-5.0,30.11,1021.5,,,,,,,,,,,,,,,,1200.0,1200.0,OVC,1200.0,,,,,,
KRDR,03-11-2021,18:56,METAR,Normal,20,14.0,,,9999.0,,-1.5,-4.2,30.10,1021.1,,,,,,,,,,,,,,,,2100.0,1500.0,SCT,1500.0,OVC,2100.0,,,,
KRDR,03-11-2021,18:26,SPECI,Normal,360,19.0,24.0,,9999.0,,2.0,-2.0,30.07,1019.9,,,,,,,,,,,,,,,,2000.0,2000.0,BKN,2000.0,OVC,2800.0,,,,
KRDR,03-11-2021,18:16,SPECI,Normal,330,17.0,21.0,,9999.0,,2.0,-3.0,30.07,1019.9,,,,,,,,,,,,,,,,2000.0,2000.0,BKN,2000.0,OVC,2800.0,,,,
KRDR,03-11-2021,17:56,METAR,Normal,310,14.0,,,9999.0,,1.3,-1.3,30.05,1019.3,,,,,,,,,,,TRACE,,TRACE,,,1600.0,1600.0,BKN,1600.0,OVC,4500.0,,,,
KRDR,03-11-2021,17:43,SPECI,Normal,310,14.0,,,9999.0,,1.0,-1.0,30.05,1019.3,,,,,,,,,,,,,,,,1600.0,1600.0,BKN,1600.0,OVC,4500.0,,,,
KRDR,03-11-2021,17:26,SPECI,Normal,320,9.0,,,9999.0,Light Snow,1.0,-1.0,30.04,1019.0,71,,,,,,,,,,,,,,,1500.0,1500.0,BKN,1500.0,OVC,2200.0,,,,
KRDR,03-11-2021,17:16,SPECI,Normal,320,11.0,,,9999.0,Light Snow,1.0,-2.0,30.04,1019.0,71,,,,,,,,,,,,,,,2100.0,2100.0,OVC,2100.0,,,,,,
KRDR,03-11-2021,16:56,METAR,Normal,330,11.0,,,9999.0,,1.3,-2.6,30.03,1018.6,,,,,,,,,,,,,,,,2200.0,2200.0,BKN,2200.0,OVC,4500.0,,,,
KRDR,03-11-2021,16:23,SPECI,Normal,320,12.0,18.0,,9999.0,,2.0,-3.0,30.02,1018.2,,,,,,,,,,,,,,,,2100.0,2100.0,BKN,2100.0,OVC,4500.0,,,,
KRDR,03-11-2021,15:56,METAR,Normal,330,12.0,,,9999.0,,1.2,-2.9,30.01,1017.9,,,,,,,,,,,,,,,,4500.0,4500.0,BKN,4500.0,BKN,18000.0,,,,
KRDR,03-11-2021,14:56,METAR,Normal,310,13.0,,,9999.0,,-1.4,-3.8,29.99,1017.3,,,,,,,,,,,,,,,4/8 Partly Cloudy,72000.0,25000.0,SCT,25000.0,,,,,,
KRDR,03-11-2021,13:56,METAR,Normal,320,11.0,,,9999.0,,-3.3,-5.0,29.95,1016.0,,,,,,,,,,,,,,,4/8 Partly Cloudy,72000.0,12000.0,SCT,12000.0,,,,,,
KRDR,03-11-2021,12:56,METAR,Normal,310,10.0,,,9999.0,,-3.8,-5.8,29.92,1015.0,,,,,,,,,,,,,,,4/8 Partly Cloudy,72000.0,12000.0,SCT,12000.0,,,,,,
KRDR,03-11-2021,11:56,METAR,Normal,310,11.0,,,9999.0,,-2.8,-6.3,29.91,1014.6,,,,,,,,,,,,,,,Clear,72000.0,,,,,,,,,
KRDR,03-11-2021,10:56,METAR,Normal,310,8.0,,,9999.0,,-3.0,-4.3,29.88,1013.6,,,,,,,,,,,,,,,,14000.0,14000.0,OVC,14000.0,,,,,,
KRDR,03-11-2021,09:56,METAR,Normal,310,11.0,,,9999.0,,-2.6,-3.9,29.87,1013.3,,,,,,,,,,,,,,,,14000.0,14000.0,OVC,14000.0,,,,,,
KRDR,03-11-2021,08:56,METAR,Normal,320,10.0,,,9999.0,,-3.2,-4.3,29.86,1012.8,,,,,,,,,,,,,,,,14000.0,14000.0,OVC,14000.0,,,,,,
KRDR,03-11-2021,07:56,METAR,Normal,330,9.0,,,9999.0,,-2.9,-3.9,29.85,1012.5,,,,,,,,,,,,,,,,15000.0,15000.0,OVC,15000.0,,,,,,
KRDR,03-11-2021,06:56,METAR,Normal,340,10.0,,,9999.0,,-2.7,-3.5,29.84,1012.2,,,,,,,,,,,,,,,,14000.0,14000.0,OVC,14000.0,,,,,,
KRDR,03-11-2021,05:56,METAR,Normal,350,12.0,,,9999.0,,-2.5,-3.6,29.84,1012.2,,,,,,,,,,,,,,,,13000.0,13000.0,OVC,13000.0,,,,,,
KRDR,03-11-2021,04:56,METAR,Normal,350,13.0,,,9999.0,,-1.9,-3.0,29.84,1012.2,,,,,,,,,,,,,,,,11000.0,11000.0,BKN,11000.0,,,,,,
KRDR,03-11-2021,03:56,METAR,Normal,350,15.0,,,9999.0,,-1.5,-3.1,29.83,1011.9,,,,,,,,,,,,,,,,11000.0,11000.0,OVC,11000.0,,,,,,
KRDR,03-11-2021,02:56,METAR,Normal,360,15.0,,,9999.0,,-1.5,-2.5,29.83,1011.9,,,,,,,,,,,,,,,,11000.0,11000.0,OVC,11000.0,,,,,,
KRDR,03-11-2021,01:56,METAR,Normal,360,14.0,,,9999.0,,-1.6,-3.0,29.83,1012.0,,,,,,,,,,,,,,,,11000.0,11000.0,OVC,11000.0,,,,,,
KRDR,03-11-2021,00:56,METAR,Normal,360,15.0,21.0,,9999.0,,-1.6,-3.6,29.82,1011.6,,,,,,,,,,,,,,,,13000.0,13000.0,OVC,13000.0,,,,,,
KRDR,03-10-2021,23:56,METAR,Normal,360,17.0,23.0,,9999.0,,-1.1,-3.5,29.80,1010.9,,,,,,,,,,,,,,,4/8 Partly Cloudy,72000.0,13000.0,SCT,13000.0,,,,,,
KRDR,03-10-2021,22:56,METAR,Normal,10,19.0,25.0,360/27KTS,9999.0,,-0.3,-3.3,29.80,1010.9,,,,,,,,,,,,,,,4/8 Partly Cloudy,72000.0,13000.0,SCT,13000.0,,,,,,
KRDR,03-10-2021,21:56,METAR,Normal,10,15.0,24.0,,9999.0,,-0.1,-3.3,29.82,1011.5,,,,,,,,,,,,,,,,13000.0,1800.0,SCT,1800.0,OVC,13000.0,,,,
KRDR,03-10-2021,21:37,METAR,Normal,20,16.0,22.0,,9999.0,,0.0,-3.0,29.82,,,,,,,,,,,,,,,,,13000.0,1800.0,SCT,1800.0,BKN,13000.0,,,,
KRDR,03-10-2021,21:37,SPECI,Normal,20,16.0,22.0,,9999.0,,0.0,-3.0,29.82,1011.5,,,,,,,,,,,,,,,,13000.0,1800.0,SCT,1800.0,BKN,13000.0,,,,
KRDR,03-10-2021,20:56,METAR,Normal,10,18.0,22.0,,9999.0,,0.2,-2.8,29.83,1011.8,,,,,,,,,,,,,,,,1800.0,1800.0,BKN,1800.0,OVC,14000.0,,,,
KRDR,03-10-2021,19:56,METAR,Normal,30,13.0,21.0,,9999.0,,0.3,-2.9,29.85,1012.5,,,,,,,,,,,,,,,,1600.0,1600.0,BKN,1600.0,OVC,8000.0,,,,
KRDR,03-10-2021,19:33,SPECI,Normal,30,14.0,,,9999.0,,0.0,-3.0,29.86,1012.8,,,,,,,,,,,,,,,,1500.0,1500.0,OVC,1500.0,,,,,,
KRDR,03-10-2021,19:30,SPECI,Normal,30,16.0,,,9999.0,,0.0,-3.0,29.86,1012.8,,,,,,,,,,,,,,,,1500.0,1500.0,OVC,1500.0,,,,,,
KRDR,03-10-2021,18:56,METAR,Normal,10,17.0,,,9999.0,,-0.6,-3.1,29.88,1013.5,,,,,,,,,,,,,,,,1300.0,1300.0,OVC,1300.0,,,,,,
KRDR,03-10-2021,18:46,SPECI,Normal,10,15.0,,,9999.0,,-1.0,-3.0,29.88,1013.5,,,,,,,,,,,,,,,,1200.0,1200.0,OVC,1200.0,,,,,,
KRDR,03-10-2021,17:56,METAR,Normal,10,16.0,,,9999.0,,-1.6,-3.0,29.88,1013.5,,,,,,,,,,,,,,,,1000.0,1000.0,OVC,1000.0,,,,,,
KRDR,03-10-2021,17:51,SPECI,Normal,10,15.0,,,9999.0,,-1.0,-3.0,29.88,1013.5,,,,,,,,,,,,,,,,1000.0,1000.0,OVC,1000.0,,,,,,
KRDR,03-10-2021,16:56,METAR,Normal,10,11.0,,,9999.0,,-2.3,-3.1,29.90,1014.2,,,,,,,,,,,,,,,,900.0,900.0,OVC,900.0,,,,,,
KRDR,03-10-2021,15:56,METAR,Normal,10,14.0,21.0,,9999.0,,-3.1,-3.5,29.90,1014.2,,,,,,,,,,,,,,,,800.0,800.0,OVC,800.0,,,,,,
KRDR,03-10-2021,15:36,SPECI,Normal,20,15.0,21.0,,9999.0,,-3.0,-4.0,29.90,1014.2,,,,,,,,,,,,,,,,700.0,700.0,OVC,700.0,,,,,,
KRDR,03-10-2021,14:56,METAR,Normal,10,13.0,,,9999.0,,-3.9,-4.0,29.90,1014.3,,,,,,,,,,,,,,,,600.0,600.0,OVC,600.0,,,,,,
KRDR,03-10-2021,14:06,SPECI,Normal,10,13.0,,,9999.0,,-4.0,-4.0,29.90,1014.2,,,,,,,,,,,,,,,,500.0,600.0,OVC,600.0,,,,,,
KRDR,03-10-2021,13:56,METAR,Normal,10,14.0,,,9999.0,,-4.2,-4.3,29.91,1014.5,,,,,,,,,,,,,,,,500.0,500.0,OVC,500.0,,,,,,
KRDR,03-10-2021,13:06,SPECI,Normal,20,10.0,,,9999.0,,-4.0,-4.0,29.91,1014.5,,,,,,,,,,,,,,,,600.0,700.0,OVC,700.0,,,,,,
KRDR,03-10-2021,12:56,METAR,Normal,20,10.0,,,9999.0,,-4.2,-4.3,29.91,1014.5,,,,,,,,,,,,,,,,600.0,600.0,OVC,600.0,,,,,,
KRDR,03-10-2021,11:56,METAR,Normal,360,12.0,,,9999.0,,-3.9,-4.5,29.92,1014.7,,,,,,,,,,,,,,,,900.0,900.0,OVC,900.0,,,,,,
KRDR,03-10-2021,11:42,SPECI,Normal,20,11.0,,,9999.0,,-4.0,-4.0,29.93,1015.0,,,,,,,,,,,,,,,,800.0,800.0,OVC,800.0,,,,,,
KRDR,03-10-2021,11:02,SPECI,Normal,360,10.0,,,9999.0,,-4.0,-4.0,29.92,1014.7,,,,,,,,,,,,,,,,1100.0,1100.0,OVC,1100.0,,,,,,
KRDR,03-10-2021,10:56,METAR,Normal,10,11.0,,,9999.0,,-3.6,-4.6,29.92,1014.7,,,,,,,,,,,,,,,,1200.0,1200.0,OVC,1200.0,,,,,,
KRDR,03-10-2021,09:56,METAR,Normal,10,14.0,,,9999.0,,-2.8,-4.4,29.92,1014.5,,,,,,,,,,,,,,,,1400.0,1400.0,OVC,1400.0,,,,,,
KRDR,03-10-2021,08:56,METAR,Normal,10,11.0,,,9999.0,,-2.0,-3.4,29.91,1014.0,,,,,,,,,,,,,,,,1300.0,1400.0,OVC,1400.0,,,,,,
KRDR,03-10-2021,08:26,SPECI,Normal,360,10.0,,,9999.0,,-2.0,-3.0,29.91,1014.0,,,,,,,,,,,,,,,,1400.0,1400.0,OVC,1400.0,,,,,,
KRDR,03-10-2021,07:56,METAR,Normal,10,7.0,,,9999.0,,-1.5,-2.9,29.91,1014.0,,,,,,,,,,,,,,,,1500.0,1500.0,OVC,1500.0,,,,,,
KRDR,03-10-2021,06:56,METAR,Normal,340,14.0,,,9999.0,,-1.1,-2.1,29.87,1012.6,,,,,,,,,,,,,,,,1500.0,1500.0,OVC,1500.0,,,,,,
KRDR,03-10-2021,05:56,METAR,Normal,330,9.0,,,9999.0,,-0.8,-1.4,29.88,1012.9,,,,,,,,,,,,,,,,1300.0,1300.0,OVC,1300.0,,,,,,
KRDR,03-10-2021,04:56,METAR,Normal,330,10.0,,,9999.0,,-0.6,-1.0,29.87,,,,,,,,,,,,,,,,,1200.0,1200.0,OVC,1200.0,,,,,,
KRDR,03-10-2021,03:56,METAR,Normal,330,10.0,,,9999.0,,0.4,-0.3,29.85,,,,,,,,,,,,,,,,,1200.0,1200.0,OVC,1200.0,,,,,,
KRDR,03-10-2021,02:56,METAR,Normal,320,13.0,,,9999.0,,0.9,0.2,29.84,1011.7,,,,,,,,,,,,,,,,1200.0,1200.0,OVC,1200.0,,,,,,
KRDR,03-10-2021,01:56,METAR,Normal,330,15.0,21.0,,9999.0,,2.8,1.8,29.81,1010.8,,,,,,,,,,,,,,,,1300.0,1300.0,OVC,1300.0,,,,,,
KRDR,03-10-2021,01:16,SPECI,Normal,310,16.0,,,9999.0,,4.0,2.0,29.78,1009.8,,,,,,,,,,,,,,,,1500.0,1500.0,BKN,1500.0,OVC,4200.0,,,,
KRDR,03-10-2021,00:56,METAR,Normal,310,16.0,20.0,,9999.0,,4.0,2.7,29.77,1009.5,,,,,,,,,,,,,,,,3100.0,1500.0,SCT,1500.0,BKN,3100.0,OVC,4000.0,,
KRDR,03-10-2021,00:06,SPECI,Normal,310,13.0,,,9999.0,,6.0,3.0,29.73,1008.0,,,,,,,,,,,,,,,,2400.0,2400.0,BKN,2400.0,OVC,3800.0,,,,
KRDR,03-09-2021,23:56,METAR,Normal,300,14.0,,,9999.0,,6.7,3.7,29.72,1007.6,,,,,,,,,,,,,,,,3800.0,2600.0,SCT,2600.0,OVC,3800.0,,,,
KRDR,03-09-2021,22:56,METAR,Normal,300,14.0,,,9999.0,,8.8,4.6,29.68,1006.1,,,,,,,,,,,,,,,,3700.0,3700.0,OVC,3700.0,,,,,,
KRDR,03-09-2021,21:56,METAR,Normal,300,16.0,,,9999.0,,11.6,5.5,29.62,1003.9,,,,,,,,,,,,,,,,14000.0,4000.0,FEW,4000.0,BKN,14000.0,,,,
KRDR,03-09-2021,20:56,METAR,Normal,280,14.0,,,9999.0,,15.0,6.3,29.59,1002.9,,,,,,,,,,,,,,,4/8 Partly Cloudy,72000.0,2500.0,FEW,2500.0,SCT,14000.0,,,,
KRDR,03-09-2021,19:56,METAR,Normal,250,14.0,20.0,,9999.0,,15.6,7.9,29.57,1002.1,,,,,,,,,,,,,,,,13000.0,2500.0,FEW,2500.0,BKN,13000.0,,,,
KRDR,03-09-2021,18:56,METAR,Normal,200,15.0,20.0,,9999.0,,15.5,8.7,29.57,1002.2,,,,,,,,,,,,,,,,14000.0,2500.0,SCT,2500.0,BKN,14000.0,,,,
KRDR,03-09-2021,17:56,METAR,Normal,190,14.0,21.0,,9999.0,,14.0,8.4,29.59,1002.9,,,,,,,,,,,,,,,4/8 Partly Cloudy,72000.0,2500.0,FEW,2500.0,SCT,14000.0,,,,
KRDR,03-09-2021,16:56,METAR,Normal,190,14.0,,190/26KTS,9999.0,,12.5,7.8,29.61,1003.5,,,,,,,,,,,,,,,,21000.0,14000.0,SCT,14000.0,BKN,21000.0,,,,
KRDR,03-09-2021,15:56,METAR,Normal,180,17.0,25.0,,9999.0,,10.6,7.1,29.62,1004.0,,,,,,,,,,,,,,,4/8 Partly Cloudy,72000.0,14000.0,FEW,14000.0,SCT,18000.0,,,,
KRDR,03-09-2021,14:57,METAR,Normal,170,14.0,18.0,,9999.0,,8.1,6.6,29.64,1004.8,,,,,,,,,,,,,,,,20000.0,14000.0,FEW,14000.0,BKN,20000.0,,,,
KRDR,03-09-2021,13:56,METAR,Normal,120,3.0,,,9999.0,,3.4,3.3,29.67,1005.9,,,,,,,,,,,,,,,,20000.0,13000.0,SCT,13000.0,BKN,20000.0,,,,
KRDR,03-09-2021,12:56,METAR,Normal,130,3.0,,,9999.0,,2.4,1.8,29.70,1007.0,,,,,,,,,,,,,,,,13000.0,13000.0,BKN,13000.0,,,,,,
KRDR,03-09-2021,11:56,METAR,Normal,140,4.0,,,9999.0,,3.8,1.8,29.72,1007.5,,,,,,,,,,,,,,,,14000.0,14000.0,BKN,14000.0,BKN,16000.0,,,,
KRDR,03-09-2021,10:56,METAR,Normal,150,6.0,,,9999.0,,5.1,1.2,29.74,1008.0,,,,,,,,,,,,,,,,14000.0,14000.0,OVC,14000.0,,,,,,
KRDR,03-09-2021,09:56,METAR,Normal,140,9.0,,,9999.0,,5.0,-0.2,29.76,1008.7,,,,,,,,,,,,,,,,13000.0,13000.0,BKN,13000.0,,,,,,
KRDR,03-09-2021,08:56,METAR,Normal,130,8.0,,,9999.0,,5.7,-0.8,29.80,1010.0,,,,,,,,,,,,,,,,14000.0,14000.0,BKN,14000.0,,,,,,
KRDR,03-09-2021,07:56,METAR,Normal,140,8.0,,,9999.0,,5.3,-0.7,29.85,1011.7,,,,,,,,,,,,,,,,13000.0,9000.0,SCT,9100.0,BKN,13000.0,,,,
KRDR,03-09-2021,06:56,METAR,Normal,160,9.0,,,9999.0,,4.9,-1.1,29.89,1013.2,,,,,,,,,,,,,,,,15000.0,15000.0,BKN,15000.0,,,,,,
KRDR,03-09-2021,05:56,METAR,Normal,140,9.0,,,9999.0,,4.8,-1.4,29.93,1014.5,,,,,,,,,,,,,,,,12000.0,12000.0,BKN,12000.0,,,,,,
KRDR,03-09-2021,04:56,METAR,Normal,160,12.0,,,9999.0,,6.1,-0.9,29.97,1015.9,,,,,,,,,,,,,,,4/8 Partly Cloudy,72000.0,12000.0,SCT,12000.0,,,,,,
KRDR,03-09-2021,03:56,METAR,Normal,150,11.0,,,9999.0,,5.8,1.5,29.99,1016.7,,,,,,,,,,,,,,,,14000.0,11000.0,FEW,11000.0,BKN,14000.0,,,,
KRDR,03-09-2021,02:56,METAR,Normal,140,7.0,,,9999.0,,5.7,2.3,30.01,1017.5,,,,,,,,,,,,,,,,12000.0,12000.0,BKN,12000.0,,,,,,
KRDR,03-09-2021,01:56,METAR,Normal,150,8.0,,,9999.0,,6.6,1.3,30.04,1018.6,,,,,,,,,,,,,,,,10000.0,10000.0,BKN,10000.0,,,,,,
KRDR,03-09-2021,00:56,METAR,Normal,140,8.0,,,9999.0,,8.9,-0.2,30.05,1019.0,,,,,,,,,,,,,,,,10000.0,10000.0,BKN,10000.0,BKN,25000.0,,,,
KRDR,03-08-2021,23:56,METAR,Normal,150,6.0,,,9999.0,,10.4,0.1,30.06,1019.3,,,,,,,,,,,,,,,,10000.0,10000.0,BKN,10000.0,BKN,25000.0,,,,
KRDR,03-08-2021,22:56,METAR,Normal,170,9.0,,,9999.0,,12.4,-0.2,30.08,1020.0,,,,,,,,,,,,,,,,10000.0,10000.0,BKN,10000.0,,,,,,
KRDR,03-08-2021,21:56,METAR,Normal,190,11.0,,,9999.0,,13.6,-0.1,30.09,1020.3,,,,,,,,,,,,,,,,11000.0,11000.0,BKN,11000.0,,,,,,
KRDR,03-08-2021,20:56,METAR,Normal,200,12.0,,,9999.0,,14.3,-0.2,30.11,1020.9,,,,,,,,,,,,,,,,11000.0,11000.0,BKN,11000.0,,,,,,
KRDR,03-08-2021,20:45,SPECI,Normal,210,13.0,,,9999.0,,14.0,0.0,30.11,1020.9,,,,,,,,,,,,,,,,11000.0,11000.0,BKN,11000.0,,,,,,
KRDR,03-08-2021,19:56,METAR,Normal,220,11.0,,,9999.0,,14.6,-0.3,30.11,1020.8,,,,,,,,,,,,,,,4/8 Partly Cloudy,72000.0,11000.0,SCT,11000.0,,,,,,
KRDR,03-08-2021,18:56,METAR,Normal,190,12.0,,,9999.0,,12.5,-0.4,30.14,1021.9,,,,,,,,,,,,,,,4/8 Partly Cloudy,72000.0,11000.0,SCT,11000.0,SCT,15000.0,,,,
KRDR,03-08-2021,17:56,METAR,Normal,190,12.0,,,9999.0,,12.2,-1.0,30.15,1022.2,,,,,,,,,,,,,,,4/8 Partly Cloudy,72000.0,12000.0,FEW,12000.0,SCT,16000.0,,,,
KRDR,03-08-2021,16:56,METAR,Normal,190,10.0,,,9999.0,,10.6,-1.5,30.16,1022.5,,,,,,,,,,,,,,,4/8 Partly Cloudy,72000.0,16000.0,FEW,16000.0,SCT,20000.0,,,,
KRDR,03-08-2021,15:56,METAR,Normal,200,9.0,,,9999.0,,7.8,0.5,30.18,1023.3,,,,,,,,,,,,,,,2/8 Mostly Clear,72000.0,20000.0,FEW,20000.0,,,,,,
KRDR,03-08-2021,14:56,METAR,Normal,220,6.0,,,9999.0,,4.7,0.6,30.18,1023.3,,,,,,,,,,,,,,,2/8 Mostly Clear,72000.0,20000.0,FEW,20000.0,,,,,,
KRDR,03-08-2021,13:56,METAR,Normal,220,5.0,,,9999.0,,0.4,-0.8,30.17,1023.2,,,,,,,,,,,,,,,2/8 Mostly Clear,72000.0,20000.0,FEW,20000.0,,,,,,
KRDR,03-08-2021,12:56,METAR,Normal,230,8.0,,,9999.0,,-3.3,-3.4,30.15,1022.5,,,,,,,,,,,,,,,Clear,72000.0,,,,,,,,,
KRDR,03-08-2021,11:56,METAR,Normal,230,3.0,,,9999.0,,-2.8,-2.9,30.15,1022.4,,,,,,,,,,,,,,,Clear,72000.0,,,,,,,,,
KRDR,03-08-2021,10:56,METAR,Normal,260,3.0,,,9999.0,,-4.1,-4.2,30.13,1021.7,,,,,,,,,,,,,,,Clear,72000.0,,,,,,,,,
KRDR,03-08-2021,09:56,METAR,Normal,250,6.0,,,9999.0,,-3.6,-3.7,30.13,1021.7,,,,,,,,,,,,,,,Clear,72000.0,,,,,,,,,
KRDR,03-08-2021,08:56,METAR,Normal,280,6.0,,,9999.0,,-2.2,-2.8,30.13,1021.6,,,,,,,,,,,,,,,Clear,72000.0,,,,,,,,,
KRDR,03-08-2021,07:56,METAR,Normal,280,4.0,,,9999.0,,-1.7,-2.4,30.11,1020.9,,,,,,,,,,,,,,,Clear,72000.0,,,,,,,,,
KRDR,03-08-2021,06:56,METAR,Normal,250,3.0,,,9999.0,,-1.1,-1.7,30.10,1020.5,,,,,,,,,,,,,,,Clear,72000.0,,,,,,,,,
KRDR,03-08-2021,05:56,METAR,Normal,290,6.0,,,9999.0,,1.2,-1.4,30.09,1020.2,,,,,,,,,,,,,,,Clear,72000.0,,,,,,,,,
KRDR,03-08-2021,04:56,METAR,Normal,290,7.0,,,9999.0,,2.3,-1.5,30.08,1019.8,,,,,,,,,,,,,,,Clear,72000.0,,,,,,,,,
KRDR,03-08-2021,03:56,METAR,Normal,300,9.0,,,9999.0,,3.7,-1.7,30.07,1019.5,,,,,,,,,,,,,,,Clear,72000.0,,,,,,,,,
KRDR,03-08-2021,02:56,METAR,Normal,310,8.0,,,9999.0,,4.7,-1.1,30.04,1018.6,,,,,,,,,,,,,,,Clear,72000.0,,,,,,,,,
KRDR,03-08-2021,01:56,METAR,Normal,300,7.0,,,9999.0,,4.1,-0.5,30.02,1018.0,,,,,,,,,,,,,,,Clear,72000.0,,,,,,,,,
KRDR,03-08-2021,00:56,METAR,Normal,320,11.0,,,9999.0,,7.9,-0.8,29.98,1016.5,,,,,,,,,,,,,,,Clear,72000.0,,,,,,,,,
KRDR,03-07-2021,23:56,METAR,Normal,310,20.0,27.0,310/28KTS,9999.0,,10.5,0.5,29.95,1015.3,,,,,,,,,,,,,,,Clear,72000.0,,,,,,,,,
KRDR,03-07-2021,22:56,METAR,Normal,300,14.0,,310/27KTS,9999.0,,11.9,2.1,29.91,1013.9,,,,,,,,,,,,,,,Clear,72000.0,,,,,,,,,
KRDR,03-07-2021,21:56,METAR,Normal,290,19.0,25.0,290/27KTS,9999.0,,12.0,2.2,29.88,1012.9,,,,,,,,,,,,,,,Clear,72000.0,,,,,,,,,
KRDR,03-07-2021,20:56,METAR,Normal,300,16.0,26.0,300/26KTS,9999.0,,11.9,2.9,29.86,1012.2,,,,,,,,,,,,,,,2/8 Mostly Clear,72000.0,2000.0,FEW,2000.0,,,,,,
KRDR,03-07-2021,19:56,METAR,Normal,290,14.0,22.0,,9999.0,,12.8,3.2,29.82,1010.8,,,,,,,,,,,,,,,2/8 Mostly Clear,72000.0,2300.0,FEW,2300.0,,,,,,
KRDR,03-07-2021,18:56,METAR,Normal,310,18.0,24.0,,9999.0,,12.6,3.0,29.79,1009.8,,,,,,,,,,,,,,,Clear,72000.0,,,,,,,,,
KRDR,03-07-2021,17:56,METAR,Normal,280,16.0,,,9999.0,,11.6,3.6,29.77,1009.2,,,,,,,,,,,,,,,2/8 Mostly Clear,72000.0,25000.0,FEW,25000.0,,,,,,
KRDR,03-07-2021,16:56,METAR,Normal,280,15.0,19.0,,9999.0,,10.0,3.9,29.75,1008.6,,,,,,,,,,,,,,,2/8 Mostly Clear,72000.0,25000.0,FEW,25000.0,,,,,,
KRDR,03-07-2021,15:56,METAR,Normal,230,8.0,,,9999.0,,8.9,4.1,29.72,1007.6,,,,,,,,,,,,,,,2/8 Mostly Clear,72000.0,25000.0,FEW,25000.0,,,,,,
KRDR,03-07-2021,14:56,METAR,Normal,190,13.0,,,9999.0,,4.4,3.4,29.71,1007.4,,,,,,,,,,,,,,,Clear,72000.0,,,,,,,,,
KRDR,03-07-2021,13:56,METAR,Normal,170,13.0,,,9999.0,,2.1,2.0,29.68,1006.4,,,,,,,,,,,,,,,,22000.0,22000.0,BKN,22000.0,,,,,,
KRDR,03-07-2021,12:56,METAR,Normal,180,14.0,,,9999.0,,2.3,2.2,29.68,1006.4,,,,,,,,,,,,,,,,20000.0,20000.0,BKN,20000.0,,,,,,
KRDR,03-07-2021,11:56,METAR,Normal,180,18.0,24.0,190/27KTS,9999.0,,3.0,2.6,29.69,1006.6,,,,,,,,,,,,,,,,22000.0,22000.0,BKN,22000.0,,,,,,
KRDR,03-07-2021,10:56,METAR,Normal,170,21.0,25.0,170/28KTS,9999.0,,3.4,2.5,29.69,1006.5,,,,,,,,,,,,,,,,22000.0,22000.0,BKN,22000.0,,,,,,
KRDR,03-07-2021,09:56,METAR,Normal,170,21.0,30.0,180/31KTS,9999.0,,3.5,2.2,29.71,1007.1,,,,,,,,,,,,,,,,22000.0,22000.0,BKN,22000.0,,,,,,
KRDR,03-07-2021,08:56,METAR,Normal,160,20.0,23.0,170/26KTS,9999.0,,3.3,1.8,29.74,1008.3,,,,,,,,,,,,,,,,22000.0,22000.0,BKN,22000.0,,,,,,
KRDR,03-07-2021,07:56,METAR,Normal,160,15.0,,170/26KTS,9999.0,,2.7,1.5,29.81,1010.6,,,,,,,,,,,,,,,,22000.0,22000.0,BKN,22000.0,,,,,,
KRDR,03-07-2021,06:56,METAR,Normal,160,18.0,,,9999.0,,2.8,0.7,29.84,1011.7,,,,,,,,,,,,,,,4/8 Partly Cloudy,72000.0,20000.0,SCT,20000.0,,,,,,
KRDR,03-07-2021,05:56,METAR,Normal,160,18.0,24.0,,9999.0,,2.7,-0.8,29.89,1013.4,,,,,,,,,,,,,,,Clear,72000.0,,,,,,,,,
KRDR,03-07-2021,04:56,METAR,Normal,160,16.0,23.0,,9999.0,,2.5,-0.9,29.94,1015.1,,,,,,,,,,,,,,,Clear,72000.0,,,,,,,,,
KRDR,03-07-2021,03:56,METAR,Normal,150,13.0,22.0,,9999.0,,2.7,-1.8,29.97,1016.3,,,,,,,,,,,,,,,Clear,72000.0,,,,,,,,,
KRDR,03-07-2021,02:56,METAR,Normal,150,13.0,,,9999.0,,3.3,-2.2,29.99,1017.1,,,,,,,,,,,,,,,Clear,72000.0,,,,,,,,,
KRDR,03-07-2021,01:56,METAR,Normal,150,12.0,,,9999.0,,3.8,-2.0,30.00,1017.5,,,,,,,,,,,,,,,Clear,72000.0,,,,,,,,,
KRDR,03-07-2021,00:56,METAR,Normal,150,12.0,,,9999.0,,4.7,-1.1,30.02,1018.2,,,,,,,,,,,,,,,Clear,72000.0,,,,,,,,,
KRDR,03-06-2021,23:56,METAR,Normal,150,15.0,23.0,,9999.0,,6.8,0.7,30.04,1018.9,,,,,,,,,,,,,,,Clear,72000.0,,,,,,,,,
KRDR,03-06-2021,22:56,METAR,Normal,160,18.0,23.0,170/28KTS,9999.0,,8.7,0.9,30.06,1019.5,,,,,,,,,,,,,,,Clear,72000.0,,,,,,,,,
KRDR,03-06-2021,21:56,METAR,Normal,160,18.0,25.0,160/27KTS,9999.0,,9.5,1.6,30.08,1020.1,,,,,,,,,,,,,,,,25000.0,25000.0,BKN,25000.0,,,,,,
KRDR,03-06-2021,20:56,METAR,Normal,160,15.0,24.0,,9999.0,,9.9,1.8,30.11,1021.2,,,,,,,,,,,,,,,,25000.0,25000.0,BKN,25000.0,,,,,,
KRDR,03-06-2021,19:56,METAR,Normal,170,13.0,24.0,,9999.0,,9.1,0.0,30.14,1022.1,,,,,,,,,,,,,,,,25000.0,25000.0,BKN,25000.0,,,,,,
KRDR,03-06-2021,18:56,METAR,Normal,160,18.0,,,9999.0,,9.1,0.8,30.17,1023.2,,,,,,,,,,,,,,,,25000.0,25000.0,BKN,25000.0,,,,,,
KRDR,03-06-2021,17:56,METAR,Normal,160,15.0,21.0,,9999.0,,7.6,-0.6,30.20,1024.3,,,,,,,,,,,,,,,,25000.0,25000.0,BKN,25000.0,,,,,,
KRDR,03-06-2021,16:56,METAR,Normal,180,12.0,,,9999.0,,6.0,2.1,30.22,1025.0,,,,,,,,,,,,,,,,25000.0,25000.0,BKN,25000.0,,,,,,
KRDR,03-06-2021,15:56,METAR,Normal,170,9.0,,,9999.0,,3.0,0.6,30.24,1025.7,,,,,,,,,,,,,,,,25000.0,25000.0,BKN,25000.0,,,,,,
KRDR,03-06-2021,14:56,METAR,Normal,170,8.0,,,9999.0,,-0.1,-0.5,30.26,1026.3,,,,,,,,,,,,,,,,25000.0,25000.0,BKN,25000.0,,,,,,
KRDR,03-06-2021,13:56,METAR,Normal,180,6.0,,,9999.0,,-3.5,-3.6,30.26,1026.4,,,,,,,,,,,,,,,4/8 Partly Cloudy,72000.0,22000.0,SCT,22000.0,,,,,,
KRDR,03-06-2021,12:56,METAR,Normal,150,4.0,,,9999.0,,-4.8,-4.9,30.27,1026.8,,,,,,,,,,,,,,,4/8 Partly Cloudy,72000.0,22000.0,SCT,22000.0,,,,,,
KRDR,03-06-2021,11:56,METAR,Normal,110,4.0,,,9999.0,,-6.5,-6.6,30.27,1026.8,,,,,,,,,,,,,,,2/8 Mostly Clear,72000.0,12000.0,FEW,12000.0,,,,,,
KRDR,03-06-2021,10:56,METAR,Normal,120,3.0,,,9999.0,,-6.9,-7.0,30.26,1026.3,,,,,,,,,,,,,,,2/8 Mostly Clear,72000.0,12000.0,FEW,12000.0,,,,,,
KRDR,03-06-2021,09:56,METAR,Normal,170,4.0,,,9999.0,,-5.9,-6.0,30.26,1026.3,,,,,,,,,,,,,,,2/8 Mostly Clear,72000.0,12000.0,FEW,12000.0,,,,,,
KRDR,03-06-2021,08:56,METAR,Calm,,0.0,,,9999.0,,-5.6,-5.7,30.27,1026.5,,,,,,,,,,,,,,,2/8 Mostly Clear,72000.0,12000.0,FEW,12000.0,,,,,,
KRDR,03-06-2021,07:56,METAR,Normal,110,3.0,,,9999.0,,-3.4,-3.5,30.29,1027.1,,,,,,,,,,,,,,,2/8 Mostly Clear,72000.0,20000.0,FEW,20000.0,,,,,,
KRDR,03-06-2021,06:56,METAR,Normal,210,3.0,,,9999.0,,-5.1,-5.1,30.29,1027.3,,,,,,,,,,,,,,,2/8 Mostly Clear,72000.0,20000.0,FEW,20000.0,,,,,,
KRDR,03-06-2021,05:56,METAR,Calm,,0.0,,,9999.0,,-5.5,-5.5,30.30,1027.6,,,,,,,,,,,,,,,2/8 Mostly Clear,72000.0,20000.0,FEW,20000.0,,,,,,
KRDR,03-06-2021,04:56,METAR,Calm,,0.0,,,9999.0,,-4.7,-4.8,30.30,1027.8,,,,,,,,,,,,,,,4/8 Partly Cloudy,72000.0,20000.0,SCT,20000.0,,,,,,
KRDR,03-06-2021,03:56,METAR,Calm,,0.0,,,9999.0,,-1.9,-2.0,30.31,1028.1,,,,,,,,,,,,,,,,20000.0,20000.0,BKN,20000.0,,,,,,
KRDR,03-06-2021,02:56,METAR,Normal,110,5.0,,,9999.0,,2.2,-2.3,30.31,1028.1,,,,,,,,,,,,,,,,22000.0,22000.0,BKN,22000.0,,,,,,
KRDR,03-06-2021,01:56,METAR,Normal,100,5.0,,,9999.0,,2.4,-2.5,30.31,1028.3,,,,,,,,,,,,,,,,20000.0,20000.0,BKN,20000.0,,,,,,
KRDR,03-06-2021,00:56,METAR,Normal,80,5.0,,,9999.0,,4.8,-3.0,30.32,1028.5,,,,,,,,,,,,,,,,20000.0,20000.0,BKN,20000.0,,,,,,
KRDR,03-05-2021,23:56,METAR,Normal,100,5.0,,,9999.0,,7.0,-3.0,30.32,1028.5,,,,,,,,,,,,,,,Clear,72000.0,,,,,,,,,
KRDR,03-05-2021,22:56,METAR,Normal,80,4.0,,,9999.0,,9.9,-2.7,30.33,1028.7,,,,,,,,,,,,,,,Clear,72000.0,,,,,,,,,
KRDR,03-05-2021,21:56,METAR,Calm,,0.0,,,9999.0,,10.5,-1.9,30.32,1028.3,,,,,,,,,,,,,,,Clear,72000.0,,,,,,,,,
KRDR,03-05-2021,20:56,METAR,Normal,70,5.0,,,9999.0,,11.1,-1.0,30.33,1028.7,,,,,,,,,,,,,,,Clear,72000.0,,,,,,,,,
KRDR,03-05-2021,19:56,METAR,Normal,90,6.0,,,9999.0,,10.5,-0.6,30.34,1029.0,,,,,,,,,,,,,,,Clear,72000.0,,,,,,,,,
KRDR,03-05-2021,18:56,METAR,Normal,100,7.0,,,9999.0,,9.8,-1.3,30.36,1029.7,,,,,,,,,,,,,,,Clear,72000.0,,,,,,,,,
KRDR,03-05-2021,17:56,METAR,Normal,70,5.0,,,9999.0,,8.5,-1.3,30.38,1030.4,,,,,,,,,,,,,,,Clear,72000.0,,,,,,,,,
KRDR,03-05-2021,16:56,METAR,Normal,10,3.0,,,9999.0,,5.4,0.4,30.38,1030.4,,,,,,,,,,,,,,,Clear,72000.0,,,,,,,,,
KRDR,03-05-2021,15:56,METAR,Normal,340,4.0,,,9999.0,,1.9,1.5,30.38,1030.5,,,,,,,,,,,,,,,Clear,72000.0,,,,,,,,,
KRDR,03-05-2021,14:56,METAR,Normal,360,5.0,,,9999.0,,-1.5,-1.5,30.38,1030.5,,,,,,,,,,,,,,,Clear,72000.0,,,,,,,,,
KRDR,03-05-2021,13:56,METAR,Normal,340,3.0,,,8000.0,Mist,-6.0,-6.0,30.37,1030.3,10,,,,,,,,,,,,,,Clear,72000.0,,,,,,,,,
KRDR,03-05-2021,12:56,METAR,Calm,,0.0,,,6400.0,Mist,-6.6,-6.6,30.37,1030.2,10,,,,,,,,,,,,,,Clear,72000.0,,,,,,,,,
KRDR,03-05-2021,11:56,METAR,Normal,320,4.0,,,9999.0,,-6.1,-6.1,30.36,1029.8,,,,,,,,,,,,,,,Clear,72000.0,,,,,,,,,
KRDR,03-05-2021,10:56,METAR,Normal,330,5.0,,,9999.0,,-6.6,-6.6,30.36,1029.8,,,,,,,,,,,,,,,Clear,72000.0,,,,,,,,,
KRDR,03-05-2021,09:56,METAR,Normal,320,4.0,,,9999.0,,-6.4,-6.4,30.34,1029.0,,,,,,,,,,,,,,,Clear,72000.0,,,,,,,,,
KRDR,03-05-2021,08:56,METAR,Normal,320,4.0,,,9999.0,,-6.5,-6.5,30.33,1028.7,,,,,,,,,,,,,,,Clear,72000.0,,,,,,,,,
KRDR,03-05-2021,07:56,METAR,Calm,,0.0,,,9999.0,,-6.6,-6.6,30.34,1029.0,,,,,,,,,,,,,,,Clear,72000.0,,,,,,,,,
KRDR,03-05-2021,06:56,METAR,Calm,,0.0,,,9999.0,,-5.3,-5.3,30.33,1028.7,,,,,,,,,,,,,,,Clear,72000.0,,,,,,,,,
KRDR,03-05-2021,05:56,METAR,Normal,10,3.0,,,9999.0,,-5.2,-5.3,30.32,1028.4,,,,,,,,,,,,,,,2/8 Mostly Clear,72000.0,3800.0,FEW,3800.0,,,,,,
KRDR,03-05-2021,04:56,METAR,Calm,,0.0,,,9999.0,,-2.4,-2.4,30.31,1028.0,,,,,,,,,,,,,,,Clear,72000.0,,,,,,,,,
KRDR,03-05-2021,03:56,METAR,Normal,180,5.0,,,9999.0,,-1.9,-2.0,30.30,1027.8,,,,,,,,,,,,,,,Clear,72000.0,,,,,,,,,
KRDR,03-05-2021,02:56,METAR,Normal,160,6.0,,,9999.0,,0.4,-0.9,30.29,1027.5,,,,,,,,,,,,,,,Clear,72000.0,,,,,,,,,
KRDR,03-05-2021,01:56,METAR,Normal,150,5.0,,,9999.0,,1.6,0.0,30.29,1027.6,,,,,,,,,,,,,,,Clear,72000.0,,,,,,,,,
KRDR,03-05-2021,00:56,METAR,Normal,130,7.0,,,9999.0,,4.1,1.5,30.27,1026.9,,,,,,,,,,,,,,,Clear,72000.0,,,,,,,,,
KRDR,03-04-2021,23:56,METAR,Normal,150,6.0,,,9999.0,,6.6,1.5,30.26,1026.5,,,,,,,,,,,,,,,Clear,72000.0,,,,,,,,,
KRDR,03-04-2021,22:56,METAR,Normal,170,6.0,,,9999.0,,9.4,2.3,30.24,1025.7,,,,,,,,,,,,,,,Clear,72000.0,,,,,,,,,
KRDR,03-04-2021,21:56,METAR,Normal,170,6.0,,,9999.0,,10.0,2.1,30.23,1025.3,,,,,,,,,,,,,,,Clear,72000.0,,,,,,,,,
KRDR,03-04-2021,20:56,METAR,Normal,170,6.0,,,9999.0,,10.5,1.8,30.21,1024.5,,,,,,,,,,,,,,,Clear,72000.0,,,,,,,,,
KRDR,03-04-2021,19:56,METAR,Normal,160,11.0,,,9999.0,,10.0,1.4,30.22,1024.9,,,,,,,,,,,,,,,Clear,72000.0,,,,,,,,,
KRDR,03-04-2021,18:56,METAR,Normal,180,12.0,,,9999.0,,8.4,0.6,30.22,1024.9,,,,,,,,,,,,,,,Clear,72000.0,,,,,,,,,
KRDR,03-04-2021,17:56,METAR,Normal,180,10.0,,,9999.0,,7.5,-0.2,30.22,1024.8,,,,,,,,,,,,,,,Clear,72000.0,,,,,,,,,
KRDR,03-04-2021,16:56,METAR,Normal,180,10.0,,,9999.0,,5.8,-0.5,30.22,1025.0,,,,,,,,,,,,,,,2/8 Mostly Clear,72000.0,2500.0,FEW,2500.0,,,,,,
KRDR,03-04-2021,15:56,METAR,Normal,170,7.0,,,9999.0,,2.1,-0.3,30.22,1025.1,,,,,,,,,,,,,,,2/8 Mostly Clear,72000.0,2500.0,FEW,2500.0,,,,,,
KRDR,03-04-2021,15:21,SPECI,Normal,180,4.0,,,9999.0,,0.0,-1.0,30.22,1025.1,,,,,,,,,,,,,,,4/8 Partly Cloudy,72000.0,2300.0,SCT,2300.0,,,,,,
KRDR,03-04-2021,14:56,METAR,Calm,,0.0,,,9999.0,,-2.9,-3.0,30.22,1025.2,,,,,,,,,,,,,,,,2300.0,2300.0,BKN,2300.0,,,,,,
KRDR,03-04-2021,14:37,SPECI,Calm,,0.0,,,9999.0,,-4.0,-4.0,30.21,1024.9,,,,,,,,,,,,,,,,2300.0,2300.0,BKN,2300.0,,,,,,
KRDR,03-04-2021,13:56,METAR,Calm,,0.0,,,9999.0,,-6.9,-7.0,30.21,1025.0,,,,,,,,,,,,,,,2/8 Mostly Clear,72000.0,2300.0,FEW,2300.0,,,,,,
KRDR,03-04-2021,13:18,SPECI,Calm,,0.0,,,9999.0,,-9.0,-9.0,30.21,1025.0,,,,,,,,,,,,,,,4/8 Partly Cloudy,72000.0,2300.0,SCT,2300.0,,,,,,
KRDR,03-04-2021,12:56,METAR,Calm,,0.0,,,9999.0,,-8.8,-9.0,30.21,1025.0,,,,,,,,,,,,,,,,2100.0,2100.0,BKN,2100.0,,,,,,
KRDR,03-04-2021,12:36,SPECI,Calm,,0.0,,,9999.0,,-9.0,-9.0,30.21,1025.0,,,,,,,,,,,,,,,,2100.0,2100.0,BKN,2100.0,,,,,,
KRDR,03-04-2021,11:56,METAR,Calm,,0.0,,,9999.0,,-8.3,-8.4,30.20,1024.5,,,,,,,,,,,,,,,Clear,72000.0,,,,,,,,,
KRDR,03-04-2021,10:56,METAR,Calm,,0.0,,,9999.0,,-8.0,-8.1,30.18,1023.8,,,,,,,,,,,,,,,Clear,72000.0,,,,,,,,,
KRDR,03-04-2021,09:56,METAR,Calm,,0.0,,,9999.0,,-8.5,-8.6,30.17,1023.4,,,,,,,,,,,,,,,Clear,72000.0,,,,,,,,,
KRDR,03-04-2021,08:56,METAR,Normal,80,4.0,,,9999.0,,-5.5,-5.6,30.17,1023.3,,,,,,,,,,,,,,,Clear,72000.0,,,,,,,,,
KRDR,03-04-2021,07:56,METAR,Calm,,0.0,,,9999.0,,-5.4,-5.4,30.15,1022.7,,,,,,,,,,,,,,,Clear,72000.0,,,,,,,,,
KRDR,03-04-2021,06:56,METAR,Normal,170,3.0,,,9999.0,,-4.8,-4.9,30.15,1022.7,,,,,,,,,,,,,,,Clear,72000.0,,,,,,,,,
KRDR,03-04-2021,05:56,METAR,Normal,110,3.0,,,9999.0,,-3.0,-3.1,30.14,1022.4,,,,,,,,,,,,,,,Clear,72000.0,,,,,,,,,
KRDR,03-04-2021,04:58,METAR,Normal,180,4.0,,,9999.0,,-5.0,-5.1,30.13,1022.3,,,,,,,,,,,,,,,2/8 Mostly Clear,72000.0,6000.0,FEW,6000.0,,,,,,
KRDR,03-04-2021,04:56,METAR,Normal,180,4.0,,,9999.0,,-5.2,-5.3,30.13,1022.3,,,,,,,,,,,,,,,2/8 Mostly Clear,72000.0,6000.0,FEW,6000.0,,,,,,
KRDR,03-04-2021,03:56,METAR,Normal,160,6.0,,,9999.0,,-3.2,-3.3,30.12,1022.0,,,,,,,,,,,,,,,2/8 Mostly Clear,72000.0,6000.0,FEW,6000.0,FEW,10000.0,,,,
KRDR,03-04-2021,02:56,METAR,Normal,120,5.0,,,9999.0,,-1.6,-2.4,30.11,1021.6,,,,,,,,,,,,,,,4/8 Partly Cloudy,72000.0,7000.0,FEW,7000.0,SCT,10000.0,,,,
KRDR,03-04-2021,01:56,METAR,Normal,100,4.0,,,9999.0,,-0.6,-2.2,30.11,1021.6,,,,,,,,,,,,,,,4/8 Partly Cloudy,72000.0,6000.0,FEW,6000.0,SCT,10000.0,,,,
KRDR,03-04-2021,00:56,METAR,Normal,130,4.0,,,9999.0,,0.9,-2.0,30.10,1021.2,,,,,,,,,,,,,,,,20000.0,6000.0,FEW,6000.0,FEW,10000.0,BKN,20000.0,,
KRDR,03-03-2021,23:56,METAR,Normal,130,5.0,,,9999.0,,3.0,-1.9,30.08,1020.5,,,,,,,,,,,,,,,,20000.0,6000.0,FEW,6000.0,FEW,10000.0,BKN,20000.0,,
KRDR,03-03-2021,22:56,METAR,Normal,160,7.0,,,9999.0,,5.2,-2.4,30.07,1020.1,,,,,,,,,,,,,,,,25000.0,7000.0,FEW,7000.0,BKN,25000.0,,,,
KRDR,03-03-2021,21:56,METAR,Normal,140,6.0,,,9999.0,,5.2,-3.4,30.06,1019.7,,,,,,,,,,,,,,,2/8 Mostly Clear,72000.0,20000.0,FEW,20000.0,,,,,,
KRDR,03-03-2021,20:56,METAR,Normal,140,5.0,,,9999.0,,4.6,-3.9,30.06,1019.7,,,,,,,,,,,,,,,4/8 Partly Cloudy,72000.0,10000.0,FEW,10000.0,SCT,20000.0,,,,
KRDR,03-03-2021,19:56,METAR,Normal,150,6.0,,,9999.0,,3.3,-4.4,30.06,1019.7,,,,,,,,,,,,,,,2/8 Mostly Clear,72000.0,10000.0,FEW,10000.0,,,,,,
KRDR,03-03-2021,18:56,METAR,Normal,120,6.0,,,9999.0,,2.1,-5.3,30.07,1020.1,,,,,,,,,,,,,,,2/8 Mostly Clear,72000.0,8000.0,FEW,8000.0,FEW,10000.0,,,,
KRDR,03-03-2021,17:56,METAR,Normal,120,5.0,,,9999.0,,0.3,-4.9,30.07,1020.2,,,,,,,,,,,,,TRACE,,4/8 Partly Cloudy,72000.0,8500.0,SCT,8600.0,SCT,11000.0,,,,
KRDR,03-03-2021,16:56,METAR,Normal,130,3.0,,,9999.0,,-2.8,-4.4,30.08,1020.6,,,,,,,,,,,TRACE,,,,,7500.0,7500.0,BKN,7500.0,,,,,,
KRDR,03-03-2021,16:31,SPECI,Normal,110,3.0,,,9999.0,,-4.0,-4.0,30.07,1020.3,,,,,,,,,,,,,,,,7000.0,5000.0,SCT,5000.0,BKN,7000.0,,,,
KRDR,03-03-2021,16:12,SPECI,Normal,110,4.0,,,9999.0,Light Snow,-4.0,-4.0,30.07,1020.2,71,,,,,,,,,,,,,,,6000.0,3900.0,FEW,3900.0,SCT,5000.0,BKN,6000.0,OVC,7500.0
KRDR,03-03-2021,15:56,METAR,Normal,80,3.0,,,9999.0,,-4.8,-4.9,30.08,1020.7,,,,,,,,,,,,,,,,5000.0,5000.0,BKN,5000.0,OVC,7000.0,,,,
KRDR,03-03-2021,14:56,METAR,Normal,50,3.0,,,9999.0,,-5.8,-5.9,30.06,1020.0,,,,,,,,,,,,,,,,7500.0,7500.0,BKN,7500.0,,,,,,
KRDR,03-03-2021,13:56,METAR,Normal,20,5.0,,,9999.0,,-6.9,-7.0,30.04,1019.2,,,,,,,,,,,,,,,,9000.0,9000.0,BKN,9100.0,OVC,11000.0,,,,
KRDR,03-03-2021,12:56,METAR,Normal,330,3.0,,,9999.0,,-7.9,-8.0,30.04,1019.2,,,,,,,,,,,,,,,,12000.0,10000.0,FEW,10000.0,OVC,12000.0,,,,
KRDR,03-03-2021,11:56,METAR,Normal,20,4.0,,,9999.0,,-9.7,-9.9,30.01,1018.1,,,,,,,,,,,,,,,,10000.0,10000.0,BKN,10000.0,,,,,,
KRDR,03-03-2021,10:56,METAR,Normal,320,3.0,,,9999.0,,-10.0,-10.2,30.00,1017.6,,,,,,,,,,,,,,,2/8 Mostly Clear,72000.0,12000.0,FEW,12000.0,,,,,,
KRDR,03-03-2021,09:56,METAR,Normal,310,3.0,,,9999.0,,-9.3,-9.5,29.99,1017.1,,,,,,,,,,,,,,,4/8 Partly Cloudy,72000.0,8000.0,SCT,8000.0,,,,,,
KRDR,03-03-2021,08:56,METAR,Normal,360,6.0,,,9999.0,,-7.8,-7.9,29.98,1016.7,,,,,,,,,,,,,,,2/8 Mostly Clear,72000.0,8000.0,FEW,8000.0,,,,,,
KRDR,03-03-2021,07:56,METAR,Normal,360,5.0,,,9999.0,,-7.7,-7.8,29.95,1015.7,,,,,,,,,,,,,,,2/8 Mostly Clear,72000.0,8000.0,FEW,8000.0,,,,,,
KRDR,03-03-2021,06:56,METAR,Normal,10,4.0,,,9999.0,,-6.4,-6.5,29.95,,,,,,,,,,,,,,,,2/8 Mostly Clear,72000.0,7000.0,FEW,7000.0,,,,,,
KRDR,03-03-2021,05:56,METAR,Normal,350,6.0,,,9999.0,,-6.2,-6.3,29.93,,,,,,,,,,,,,,,,4/8 Partly Cloudy,72000.0,7000.0,SCT,7000.0,,,,,,
KRDR,03-03-2021,04:56,METAR,Normal,340,6.0,,,9999.0,,-5.7,-5.8,29.91,,,,,,,,,,,,,,,,4/8 Partly Cloudy,72000.0,7000.0,SCT,7000.0,,,,,,
KRDR,03-03-2021,03:56,METAR,Normal,10,9.0,,,9999.0,,-4.4,-4.5,29.90,,,,,,,,,,,,,,,,4/8 Partly Cloudy,72000.0,7000.0,SCT,7000.0,,,,,,
KRDR,03-03-2021,02:56,METAR,Normal,360,4.0,,,9999.0,,-4.2,-4.3,29.88,,,,,,,,,,,,,,,,4/8 Partly Cloudy,72000.0,7000.0,SCT,7000.0,,,,,,
KRDR,03-03-2021,01:56,METAR,Normal,20,8.0,,,9999.0,,-1.6,-2.6,29.86,1012.8,,,,,,,,,,,,,,,4/8 Partly Cloudy,72000.0,7000.0,SCT,7000.0,,,,,,
KRDR,03-03-2021,00:56,METAR,Normal,20,9.0,,,9999.0,,0.1,-1.2,29.82,1011.6,,,,,,,,,,,,,,,4/8 Partly Cloudy,72000.0,7000.0,SCT,7000.0,,,,,,
KRDR,03-02-2021,23:56,METAR,Normal,20,14.0,21.0,,9999.0,,3.7,0.9,29.79,1010.3,,,,,,,,,,,,,,,,20000.0,7000.0,SCT,7000.0,BKN,20000.0,,,,
KRDR,03-02-2021,23:38,SPECI,Normal,10,18.0,24.0,,9999.0,,6.0,1.0,29.77,1009.6,,,,,,,,,,,,,,,,20000.0,7000.0,FEW,7000.0,BKN,20000.0,,,,
KRDR,03-02-2021,22:56,METAR,Normal,330,15.0,,,9999.0,,7.5,-0.2,29.76,1009.1,,,,,,,,,,,,,,,,20000.0,7000.0,FEW,7000.0,BKN,20000.0,,,,
KRDR,03-02-2021,21:56,METAR,Normal,320,18.0,24.0,,9999.0,,10.1,0.1,29.72,1007.6,,,,,,,,,,,,,,,4/8 Partly Cloudy,72000.0,7000.0,FEW,7000.0,SCT,18000.0,,,,
KRDR,03-02-2021,20:56,METAR,Normal,320,15.0,20.0,,9999.0,,11.3,-0.8,29.69,1006.6,,,,,,,,,,,,,,,2/8 Mostly Clear,72000.0,18000.0,FEW,18000.0,,,,,,
KRDR,03-02-2021,19:56,METAR,Normal,310,14.0,19.0,,9999.0,,11.1,0.8,29.67,1006.0,,,,,,,,,,,,,,,2/8 Mostly Clear,72000.0,15000.0,FEW,15000.0,,,,,,
KRDR,03-02-2021,18:56,METAR,Normal,310,16.0,,,9999.0,,10.1,0.7,29.65,1005.3,,,,,,,,,,,,,,,2/8 Mostly Clear,72000.0,15000.0,FEW,15000.0,,,,,,
KRDR,03-02-2021,17:56,METAR,Normal,320,16.0,,,9999.0,,9.7,0.8,29.63,1004.7,,,,,,,,,,,,,,,2/8 Mostly Clear,72000.0,15000.0,FEW,15000.0,,,,,,
KRDR,03-02-2021,16:56,METAR,Normal,290,11.0,,,9999.0,,6.6,0.1,29.61,1004.2,,,,,,,,,,,,,,,2/8 Mostly Clear,72000.0,15000.0,FEW,15000.0,,,,,,
KRDR,03-02-2021,15:56,METAR,Normal,280,12.0,,,9999.0,,5.2,-1.3,29.61,1004.4,,,,,,,,,,,,,,,,16000.0,16000.0,BKN,16000.0,,,,,,
KRDR,03-02-2021,14:56,METAR,Normal,230,9.0,,,9999.0,,2.5,-1.5,29.58,1003.4,,,,,,,,,,,,,,,,16000.0,16000.0,BKN,16000.0,,,,,,
KRDR,03-02-2021,13:56,METAR,Normal,190,9.0,,,9999.0,,-1.3,-2.9,29.59,1004.0,,,,,,,,,,,,,,,2/8 Mostly Clear,72000.0,16000.0,FEW,16000.0,,,,,,
KRDR,03-02-2021,12:56,METAR,Normal,190,8.0,,,9999.0,,-3.2,-4.0,29.61,1004.8,,,,,,,,,,,,,,,4/8 Partly Cloudy,72000.0,15000.0,FEW,15000.0,SCT,17000.0,,,,
KRDR,03-02-2021,11:56,METAR,Normal,200,8.0,,,9999.0,,-2.4,-3.4,29.61,1004.7,,,,,,,,,,,,,,,2/8 Mostly Clear,72000.0,18000.0,FEW,18000.0,,,,,,
KRDR,03-02-2021,10:56,METAR,Normal,200,12.0,,,9999.0,,-0.2,-2.4,29.63,1005.3,,,,,,,,,,,,,,,,20000.0,20000.0,OVC,20000.0,,,,,,
KRDR,03-02-2021,09:56,METAR,Normal,210,10.0,,,9999.0,,-0.3,-2.7,29.66,1006.3,,,,,,,,,,,,,,,,20000.0,20000.0,BKN,20000.0,,,,,,
KRDR,03-02-2021,08:56,METAR,Normal,210,15.0,,,9999.0,,-0.8,-3.0,29.70,1007.7,,,,,,,,,,,,,,,2/8 Mostly Clear,72000.0,18000.0,FEW,18000.0,,,,,,
KRDR,03-02-2021,07:56,METAR,Normal,200,14.0,,,9999.0,,-2.2,-3.8,29.73,1008.8,,,,,,,,,,,,,,,4/8 Partly Cloudy,72000.0,20000.0,SCT,20000.0,,,,,,
KRDR,03-02-2021,06:56,METAR,Normal,200,16.0,,,9999.0,,-2.9,-4.5,29.77,1010.2,,,,,,,,,,,,,,,,16000.0,16000.0,BKN,16000.0,,,,,,
KRDR,03-02-2021,05:56,METAR,Normal,190,17.0,,,9999.0,,-3.7,-5.1,29.81,1011.8,,,,,,,,,,,,,,,,16000.0,16000.0,OVC,16000.0,,,,,,
KRDR,03-02-2021,04:56,METAR,Normal,180,16.0,,,9999.0,,-6.4,-7.8,29.86,1013.5,,,,,,,,,,,,,,,,21000.0,21000.0,OVC,21000.0,,,,,,
KRDR,03-02-2021,03:56,METAR,Normal,180,16.0,,,9999.0,,-8.5,-10.4,29.92,1015.9,,,,,,,,,,,,,,,,21000.0,21000.0,OVC,21000.0,,,,,,
KRDR,03-02-2021,02:56,METAR,Normal,180,16.0,,,9999.0,,-9.9,-12.4,29.97,1017.7,,,,,,,,,,,,,,,,20000.0,13000.0,FEW,13000.0,BKN,20000.0,,,,
KRDR,03-02-2021,01:56,METAR,Normal,180,17.0,23.0,,9999.0,,-10.8,-14.1,30.03,1020.0,,,,,,,,,,,,,,,,20000.0,13000.0,FEW,13000.0,BKN,20000.0,,,,
KRDR,03-02-2021,00:56,METAR,Normal,180,16.0,20.0,,9999.0,,-11.1,-15.9,30.09,1022.1,,,,,,,,,,,,,,,,18000.0,11000.0,FEW,11000.0,BKN,18000.0,,,,
KRDR,03-01-2021,23:56,METAR,Normal,180,16.0,,,9999.0,,-10.8,-17.3,30.12,1023.0,,,,,,,,,,,,,,,,10000.0,8000.0,SCT,8000.0,BKN,10000.0,,,,
KRDR,03-01-2021,22:56,METAR,Normal,180,17.0,,,9999.0,,-9.8,-18.8,30.18,1025.0,,,,,,,,,,,,,,,,9000.0,7500.0,SCT,7500.0,BKN,9100.0,,,,
KRDR,03-01-2021,21:56,METAR,Normal,180,15.0,,,9999.0,,-9.0,-16.6,30.22,1026.3,,,,,,,,,,,,,,,,9000.0,7500.0,FEW,7500.0,BKN,9100.0,,,,
KRDR,03-01-2021,20:56,METAR,Normal,190,15.0,,,9999.0,,-9.4,-16.4,30.26,1027.6,,,,,,,,,,,,,,,,7000.0,5000.0,FEW,5000.0,BKN,7000.0,,,,
KRDR,03-01-2021,19:56,METAR,Normal,190,12.0,,,9999.0,,-10.1,-18.3,30.32,1029.6,,,,,,,,,,,,,,,,7000.0,7000.0,BKN,7000.0,OVC,13000.0,,,,
KRDR,03-01-2021,18:56,METAR,Normal,200,10.0,16.0,,9999.0,,-11.8,-20.2,30.35,1030.6,,,,,,,,,,,,,,,4/8 Partly Cloudy,72000.0,7000.0,FEW,7000.0,SCT,13000.0,,,,
KRDR,03-01-2021,17:56,METAR,Normal,160,7.0,,,9999.0,,-13.8,-22.7,30.38,1031.7,,,,,,,,,,,,,,,2/8 Mostly Clear,72000.0,7000.0,FEW,7000.0,,,,,,
KRDR,03-01-2021,16:56,METAR,Normal,180,4.0,,,9999.0,,-14.9,-25.0,30.42,1032.9,,,,,,,,,,,,,,,2/8 Mostly Clear,72000.0,7000.0,FEW,7000.0,,,,,,
KRDR,03-01-2021,15:56,METAR,Calm,,0.0,,,9999.0,,-17.2,-25.7,30.42,1033.0,,,,,,,,,,,,,,,2/8 Mostly Clear,72000.0,7000.0,FEW,7000.0,,,,,,
KRDR,03-01-2021,14:56,METAR,Calm,,0.0,,,9999.0,,-19.5,-26.1,30.42,1033.1,,,,,,,,,,,,,,,Clear,72000.0,,,,,,,,,
KRDR,03-01-2021,13:56,METAR,Calm,,0.0,,,9999.0,,-22.2,-24.9,30.41,1032.9,,,,,,,,,,,,,,,Clear,72000.0,,,,,,,,,
KRDR,03-01-2021,12:56,METAR,Normal,320,4.0,,,9999.0,,-24.3,-26.9,30.41,1033.0,,,,,,,,,,,,,,,Clear,72000.0,,,,,,,,,
KRDR,03-01-2021,11:56,METAR,Normal,340,6.0,,,9999.0,,-22.7,-25.6,30.41,1032.9,,,,,,,,,,,,,,,Clear,72000.0,,,,,,,,,
KRDR,03-01-2021,10:56,METAR,Normal,360,7.0,,,9999.0,,-21.8,-24.4,30.37,1031.4,,,,,,,,,,,,,,,Clear,72000.0,,,,,,,,,
KRDR,03-01-2021,09:56,METAR,Normal,360,6.0,,,9999.0,,-21.4,-23.3,30.34,1030.3,,,,,,,,,,,,,,,Clear,72000.0,,,,,,,,,
KRDR,03-01-2021,08:56,METAR,Normal,10,8.0,,,9999.0,,-19.9,-22.1,30.32,1029.6,,,,,,,,,,,,,,,Clear,72000.0,,,,,,,,,
KRDR,03-01-2021,07:56,METAR,Normal,360,7.0,,,9999.0,,-18.4,-21.2,30.29,1028.5,,,,,,,,,,,,,,,Clear,72000.0,,,,,,,,,
KRDR,03-01-2021,06:56,METAR,Normal,350,9.0,,,9999.0,,-16.8,-20.9,30.26,1027.4,,,,,,,,,,,,,,,Clear,72000.0,,,,,,,,,
KRDR,03-01-2021,05:56,METAR,Normal,10,11.0,,,9999.0,,-15.0,-21.1,30.22,1025.9,,,,,,,,,,,TRACE,,TRACE,,2/8 Mostly Clear,72000.0,4800.0,FEW,4800.0,FEW,10000.0,,,,
KRDR,03-01-2021,05:40,SPECI,Normal,20,13.0,18.0,,9999.0,,-14.0,-20.0,30.21,1025.6,,,,,,,,,,,,,,,4/8 Partly Cloudy,72000.0,4800.0,FEW,4800.0,SCT,10000.0,,,,
KRDR,03-01-2021,04:56,METAR,Normal,20,13.0,19.0,,9999.0,Light Snow,-11.7,-16.3,30.18,1024.6,71,,,,,,,,,,TRACE,,,,,4500.0,3000.0,SCT,3000.0,BKN,4500.0,,,,
KRDR,03-01-2021,03:56,METAR,Normal,20,9.0,,,4800.0,Light Snow/Mist,-10.6,-13.3,30.15,1023.5,71,10,,,,,,,,,TRACE,,,,,5500.0,4900.0,SCT,4900.0,BKN,5500.0,OVC,7000.0,,
KRDR,03-01-2021,02:56,METAR,Normal,20,8.0,,,4800.0,Light Snow,-10.5,-11.6,30.11,1022.3,71,,,,,,,,,,TRACE,TRACE,,,,5500.0,300.0,FEW,300.0,SCT,2500.0,OVC,5500.0,,
KRDR,03-01-2021,01:56,METAR,Normal,360,9.0,,,4800.0,Light Snow/Mist,-10.3,-11.2,30.10,1022.1,71,10,,,,,,,,,TRACE,,,,,2000.0,2000.0,OVC,2000.0,,,,,,
KRDR,03-01-2021,00:56,METAR,Normal,340,7.0,,,4400.0,Light Snow/Mist,-10.1,-11.7,30.10,1022.2,,,,71,10,,,,,,TRACE,,,,,1500.0,1500.0,OVC,1500.0,,,,,,
KRDR,03-01-2021,00:13,SPECI,Normal,340,9.0,,,9999.0,Light Snow,-9.0,-15.0,30.08,1021.5,,,,71,,,,,,,,,,,,3900.0,3000.0,SCT,3000.0,BKN,3900.0,BKN,5500.0,OVC,6500.0
KRDR,02-28-2021,23:56,METAR,Normal,340,7.0,,,9999.0,,-9.1,-15.3,30.07,1021.2,,,,,,,,,,,,,,,4/8 Partly Cloudy,72000.0,6000.0,SCT,6000.0,,,,,,
KRDR,02-28-2021,22:56,METAR,Normal,350,10.0,,,9999.0,,-8.3,-14.9,30.05,1020.4,,,,,,,,,,,,,,,,10000.0,4900.0,FEW,4900.0,BKN,10000.0,OVC,12000.0,,
KRDR,02-28-2021,21:56,METAR,Normal,340,12.0,,,9999.0,,-7.9,-14.7,30.03,1019.7,,,,,,,,,,,,,,,,9500.0,7500.0,SCT,7500.0,OVC,9600.0,,,,
KRDR,02-28-2021,20:56,METAR,Normal,350,15.0,,,9999.0,,-8.4,-14.0,30.03,1019.6,,,,,,,,,,,,,,,,11000.0,11000.0,BKN,11000.0,BKN,13000.0,OVC,16000.0,,
KRDR,02-28-2021,19:56,METAR,Normal,320,12.0,,,9999.0,,-8.1,-13.4,30.03,1019.6,,,,,,,,,,,,,,,4/8 Partly Cloudy,72000.0,13000.0,SCT,13000.0,,,,,,
KRDR,02-28-2021,18:56,METAR,Normal,310,14.0,19.0,,9999.0,,-7.7,-13.2,30.03,1019.6,,,,,,,,,,,,,,,Clear,72000.0,,,,,,,,,
KRDR,02-28-2021,17:56,METAR,Normal,310,16.0,20.0,,9999.0,,-7.8,-13.3,30.04,1019.9,,,,,,,,,,,,,,,Clear,72000.0,,,,,,,,,
KRDR,02-28-2021,16:56,METAR,Normal,310,14.0,,,9999.0,,-8.2,-13.3,30.04,1019.9,,,,,,,,,,,,,,,Clear,72000.0,,,,,,,,,
KRDR,02-28-2021,15:56,METAR,Normal,310,13.0,,,9999.0,,-11.8,-15.5,30.05,1020.4,,,,,,,,,,,,,,,Clear,72000.0,,,,,,,,,
KRDR,02-28-2021,14:56,METAR,Normal,290,10.0,,,9999.0,,-13.9,-16.6,30.05,1020.5,,,,,,,,,,,,,,,Clear,72000.0,,,,,,,,,
KRDR,02-28-2021,13:56,METAR,Normal,270,5.0,,,9999.0,,-17.9,-19.6,30.05,1020.7,,,,,,,,,,,,,,,Clear,72000.0,,,,,,,,,
KRDR,02-28-2021,12:56,METAR,Normal,230,4.0,,,9999.0,,-20.9,-22.4,30.05,1020.7,,,,,,,,,,,,,,,2/8 Mostly Clear,72000.0,16000.0,FEW,16000.0,,,,,,
KRDR,02-28-2021,11:56,METAR,Normal,210,3.0,,,9999.0,,-20.7,-22.4,30.06,1021.1,,,,,,,,,,,,,TRACE,,Clear,72000.0,,,,,,,,,
KRDR,02-28-2021,10:56,METAR,Calm,,0.0,,,9999.0,,-20.2,-21.6,30.07,1021.4,,,,,,,,,,,,,,,Clear,72000.0,,,,,,,,,
KRDR,02-28-2021,09:56,METAR,Calm,,0.0,,,9999.0,,-19.9,-21.2,30.06,1021.0,,,,,,,,,,,,,,,2/8 Mostly Clear,72000.0,1200.0,FEW,1200.0,,,,,,
KRDR,02-28-2021,08:56,METAR,Normal,330,4.0,,,9999.0,,-18.6,-20.3,30.09,1022.0,,,,,,,,,,,TRACE,TRACE,,,2/8 Mostly Clear,72000.0,1200.0,FEW,1200.0,,,,,,
KRDR,02-28-2021,08:47,SPECI,Normal,340,4.0,,,9999.0,,-18.0,-20.0,30.09,1021.9,,,,,,,,,,,,,,,2/8 Mostly Clear,72000.0,1200.0,FEW,1200.0,,,,,,
KRDR,02-28-2021,07:56,METAR,Normal,360,4.0,,,9999.0,Light Snow,-17.4,-19.5,30.11,1022.6,71,,,,,,,,,,TRACE,,,,,800.0,800.0,OVC,800.0,,,,,,
KRDR,02-28-2021,07:39,SPECI,Normal,350,5.0,,,9999.0,Light Snow,-18.0,-20.0,30.10,1022.3,71,,,,,,,,,,,,,,,800.0,800.0,OVC,800.0,,,,,,
KRDR,02-28-2021,07:22,SPECI,Normal,350,5.0,,,9999.0,,-19.0,-20.0,30.11,1022.7,,,,,,,,,,,,,,,,900.0,900.0,BKN,900.0,,,,,,
KRDR,02-28-2021,07:12,SPECI,Normal,360,4.0,,,9999.0,,-19.0,-21.0,30.12,1023.0,,,,,,,,,,,,,,,,1100.0,1100.0,BKN,1100.0,,,,,,
KRDR,02-28-2021,06:56,METAR,Normal,10,3.0,,,9999.0,,-18.6,-20.7,30.13,1023.4,,,,,,,,,,,,,,,2/8 Mostly Clear,72000.0,1500.0,FEW,1500.0,,,,,,
KRDR,02-28-2021,06:06,SPECI,Normal,350,5.0,,,9999.0,,-17.0,-20.0,30.12,1023.0,,,,,,,,,,,,,,,4/8 Partly Cloudy,72000.0,1500.0,SCT,1500.0,,,,,,
KRDR,02-28-2021,05:56,METAR,Normal,360,6.0,,,9999.0,,-16.7,-19.5,30.12,1023.0,,,,,,,,,,,,,,,,1400.0,1500.0,BKN,1500.0,,,,,,
KRDR,02-28-2021,04:56,METAR,Normal,340,8.0,,,9999.0,,-16.1,-18.9,30.13,1023.3,,,,,,,,,,,,,,,,1400.0,1500.0,OVC,1500.0,,,,,,
KRDR,02-28-2021,04:53,SPECI,Normal,340,8.0,,,9999.0,,-16.0,-19.0,30.13,1023.3,,,,,,,,,,,,,,,,1400.0,1500.0,OVC,1500.0,,,,,,
KRDR,02-28-2021,04:13,SPECI,Normal,10,6.0,,,9999.0,,-16.0,-19.0,30.13,1023.3,,,,,,,,,,,,,,,,900.0,900.0,BKN,900.0,OVC,1400.0,,,,
KRDR,02-28-2021,04:03,SPECI,Normal,20,6.0,,,9999.0,,-16.0,-18.0,30.13,1023.3,,,,,,,,,,,,,,,,1400.0,900.0,SCT,900.0,OVC,1400.0,,,,
KRDR,02-28-2021,03:56,METAR,Normal,30,6.0,,,9999.0,,-15.8,-18.5,30.13,1023.3,,,,,,,,,,,,,,,,1200.0,1200.0,OVC,1200.0,,,,,,
KRDR,02-28-2021,02:56,METAR,Normal,10,10.0,,,9999.0,,-15.6,-18.2,30.12,1023.0,,,,,,,,,,,,,,,,1900.0,900.0,FEW,900.0,OVC,1900.0,,,,
KRDR,02-28-2021,02:54,SPECI,Normal,360,10.0,,,9999.0,,-16.0,-18.0,30.12,1023.0,,,,,,,,,,,,,,,,1900.0,900.0,FEW,900.0,OVC,1900.0,,,,
KRDR,02-28-2021,02:24,SPECI,Normal,360,8.0,,,9999.0,,-15.0,-18.0,30.12,1023.0,,,,,,,,,,,,,,,,2100.0,900.0,FEW,900.0,OVC,2100.0,,,,
KRDR,02-28-2021,01:56,METAR,Normal,10,10.0,,,9999.0,,-15.4,-18.0,30.12,1023.0,,,,,,,,,,,,,,,,2300.0,2300.0,OVC,2300.0,,,,,,
KRDR,02-28-2021,00:56,METAR,Normal,10,10.0,,,9999.0,,-15.4,-18.0,30.09,1021.9,,,,,,,,,,,,,,,,2700.0,900.0,FEW,900.0,OVC,2700.0,,,,
KRDR,02-27-2021,23:56,METAR,Normal,350,8.0,,,9999.0,,-15.2,-17.9,30.10,1022.3,,,,,,,,,,,,,,,,800.0,800.0,FEW,800.0,OVC,1500.0,,,,
KRDR,02-27-2021,22:56,METAR,Normal,340,8.0,,,9999.0,,-15.3,-18.3,30.07,1021.2,,,,,,,,,,,,,,,,1500.0,1500.0,OVC,1500.0,,,,,,
KRDR,02-27-2021,21:56,METAR,Normal,10,11.0,,,9999.0,,-15.0,-18.0,30.06,1020.8,,,,,,,,,,,,,,,,2000.0,700.0,FEW,700.0,OVC,2000.0,,,,
KRDR,02-27-2021,20:56,METAR,Normal,350,10.0,,,9999.0,,-14.2,-17.4,30.06,1020.7,,,,,,,,,,,,,,,,2000.0,1000.0,SCT,1000.0,OVC,2000.0,,,,
KRDR,02-27-2021,19:56,METAR,Normal,10,9.0,,,9999.0,,-14.1,-17.3,30.04,1020.0,,,,,,,,,,,,,,,,2000.0,800.0,SCT,800.0,OVC,2000.0,,,,
KRDR,02-27-2021,18:56,METAR,Normal,350,9.0,,,9999.0,,-14.5,-17.4,30.05,1020.2,,,,,,,,,,,,,,,,2200.0,2200.0,OVC,2200.0,,,,,,
KRDR,02-27-2021,17:56,METAR,Normal,20,12.0,,,9999.0,,-15.2,-17.9,30.03,1019.5,,,,,,,,,,,,,TRACE,,,2400.0,500.0,FEW,500.0,FEW,800.0,BKN,2400.0,OVC,3500.0
KRDR,02-27-2021,16:56,METAR,Normal,350,12.0,,,9999.0,,-16.3,-19.0,30.03,1019.4,,,,,,,,,,,TRACE,,,,,1000.0,500.0,SCT,500.0,BKN,1000.0,OVC,1600.0,,
KRDR,02-27-2021,15:56,METAR,Normal,10,11.0,,,9999.0,Light Snow,-16.2,-18.7,30.01,1018.7,71,,,,,,,,,,TRACE,,,,,1100.0,1100.0,OVC,1100.0,,,,,,
KRDR,02-27-2021,14:56,METAR,Normal,10,15.0,,,9999.0,,-17.0,-19.3,29.98,1017.6,,,,,,,,,,,TRACE,TRACE,,,,800.0,800.0,OVC,800.0,,,,,,
KRDR,02-27-2021,13:56,METAR,Normal,360,10.0,,,4800.0,Light Snow/Mist,-17.2,-19.0,29.94,1016.2,71,10,,,,,,,,,TRACE,,,,,200.0,200.0,OVC,200.0,,,,,,
KRDR,02-27-2021,13:30,SPECI,Normal,20,15.0,18.0,,,Light Snow/Mist,-17.0,-19.0,29.92,1015.5,,,,71,10,,,,,,,,,,,,,,,,,,,,
KRDR,02-27-2021,13:11,SPECI,Normal,10,14.0,,,800.0,Snow/Fog,-17.0,-19.0,29.92,1015.4,72,30,,,,,,,,,,,,,,200.0,200.0,BKN,200.0,OVC,900.0,,,,
KRDR,02-27-2021,12:56,METAR,Normal,10,14.0,,,6400.0,Light Snow/Mist,-16.8,-18.8,29.91,1015.1,71,10,,,,,,,,,TRACE,,,,,300.0,300.0,BKN,300.0,OVC,900.0,,,,
KRDR,02-27-2021,11:56,METAR,Normal,360,13.0,,,9999.0,Light Snow,-16.5,-18.1,29.89,1014.3,71,,,,,,,,,,TRACE,,TRACE,,,900.0,900.0,OVC,900.0,,,,,,
KRDR,02-27-2021,10:56,METAR,Normal,360,13.0,,,9999.0,Light Snow,-15.8,-17.4,29.86,1013.2,71,,,,,,,,,,TRACE,,,,,1000.0,1000.0,OVC,1000.0,,,,,,
KRDR,02-27-2021,09:56,METAR,Normal,10,14.0,,,9999.0,Light Snow,-15.0,-16.6,29.84,1012.5,71,,,,,,,,,,TRACE,,,,,600.0,600.0,OVC,600.0,,,,,,
KRDR,02-27-2021,09:21,SPECI,Normal,10,15.0,19.0,,9999.0,Light Snow,-15.0,-16.0,29.82,1011.7,71,,,,,,,,,,,,,,,600.0,600.0,OVC,600.0,,,,,,
KRDR,02-27-2021,08:56,METAR,Normal,10,14.0,,,9999.0,Light Snow,-13.7,-14.6,29.81,1011.3,71,,,,,,,,,,TRACE,TRACE,,,,200.0,200.0,OVC,200.0,,,,,,
KRDR,02-27-2021,07:56,METAR,Normal,20,14.0,,,9999.0,Light Snow,-12.2,-13.1,29.78,1010.2,71,,,,,,,,,,TRACE,,,,,200.0,200.0,OVC,200.0,,,,,,
KRDR,02-27-2021,07:41,SPECI,Normal,20,15.0,,,9999.0,Light Snow,-12.0,-13.0,29.78,1010.2,71,,,,,,,,,,,,,,,200.0,200.0,OVC,200.0,,,,,,
KRDR,02-27-2021,06:56,METAR,Normal,20,16.0,,,9999.0,Light Snow,-10.2,-11.3,29.75,1009.1,71,,,,,,,,,,TRACE,,,,,400.0,600.0,OVC,600.0,,,,,,
KRDR,02-27-2021,06:50,SPECI,Normal,10,16.0,,,9999.0,Light Snow,-10.0,-11.0,29.74,1008.7,71,,,,,,,,,,,,,,,400.0,400.0,BKN,400.0,OVC,1000.0,,,,
KRDR,02-27-2021,06:30,SPECI,Normal,20,15.0,,,9999.0,Light Snow,-9.0,-11.0,29.74,1008.7,71,,,,,,,,,,,,,,,900.0,500.0,SCT,500.0,OVC,1000.0,,,,
KRDR,02-27-2021,06:06,SPECI,Normal,10,16.0,,,9999.0,,-9.0,-10.0,29.73,1008.4,,,,,,,,,,,,,,,,900.0,1000.0,OVC,1000.0,,,,,,
KRDR,02-27-2021,06:05,SPECI,Normal,10,16.0,,,9999.0,Light Snow,-9.0,-10.0,29.73,,71,,,,,,,,,,,,,,,900.0,1000.0,OVC,1000.0,,,,,,
KRDR,02-27-2021,05:57,SPECI,Normal,10,17.0,21.0,,9999.0,,-9.0,-9.0,29.73,,,,,,,,,,,,,,,,,900.0,1000.0,OVC,1000.0,,,,,,
KRDR,02-27-2021,05:56,METAR,Normal,360,15.0,21.0,,9999.0,Light Snow,-8.6,-9.4,29.73,,71,,,,,,,,,,,,,,,1000.0,1000.0,OVC,1000.0,,,,,,
KRDR,02-27-2021,05:46,SPECI,Normal,10,15.0,,,9999.0,,-8.0,-9.0,29.72,,,,,,,,,,,,,,,,,900.0,1000.0,OVC,1000.0,,,,,,
KRDR,02-27-2021,04:56,METAR,Normal,10,21.0,25.0,030/26KTS,9999.0,,-5.9,-6.2,29.68,,,,,,,,,,,,,,,,,800.0,800.0,OVC,800.0,,,,,,
KRDR,02-27-2021,03:56,METAR,Normal,10,15.0,,,9999.0,,-4.2,-4.3,29.66,1006.0,,,,,,,,,,,,,,,,800.0,800.0,OVC,800.0,,,,,,
KRDR,02-27-2021,02:56,METAR,Normal,360,16.0,,,9999.0,,-2.4,-2.8,29.62,1004.7,,,,,,,,,,,,,,,,900.0,900.0,BKN,900.0,OVC,2400.0,,,,
KRDR,02-27-2021,02:26,SPECI,Normal,10,12.0,19.0,,9999.0,,-1.0,-2.0,29.60,1004.0,,,,,,,,,,,,,,,,1000.0,1000.0,BKN,1000.0,OVC,2400.0,,,,
KRDR,02-27-2021,01:56,METAR,Normal,10,13.0,,,9999.0,,-0.7,-1.0,29.59,1003.6,,,,,,,,,,,,,,,,900.0,900.0,BKN,900.0,OVC,2400.0,,,,
KRDR,02-27-2021,01:53,SPECI,Normal,10,13.0,,,9999.0,,-1.0,-1.0,29.59,1003.6,,,,,,,,,,,,,,,,900.0,900.0,BKN,900.0,OVC,2400.0,,,,
KRDR,02-27-2021,01:23,SPECI,Normal,10,12.0,,,9999.0,Light Snow,0.0,0.0,29.58,1003.2,71,,,,,,,,,,,,,,,800.0,800.0,BKN,800.0,OVC,2700.0,,,,
KRDR,02-27-2021,01:06,SPECI,Normal,10,12.0,,,9999.0,,0.0,0.0,29.57,1002.9,,,,,,,,,,,,,,,,800.0,800.0,BKN,800.0,OVC,2800.0,,,,
KRDR,02-27-2021,00:56,METAR,Normal,10,11.0,,,9999.0,,0.1,0.0,29.56,1002.5,,,,,,,,,,,,,,,,2700.0,1000.0,FEW,1000.0,BKN,2700.0,,,,
KRDR,02-27-2021,00:51,SPECI,Normal,10,12.0,,,9999.0,,0.0,0.0,29.55,1002.2,,,,,,,,,,,,,,,,2700.0,2700.0,BKN,2700.0,,,,,,
KRDR,02-27-2021,00:49,SPECI,Normal,10,10.0,,,9999.0,,0.0,0.0,29.55,1002.2,,,,,,,,,,,,,,,,3000.0,3000.0,BKN,3000.0,,,,,,
KRDR,02-26-2021,23:56,METAR,Normal,310,7.0,,,9999.0,,2.2,-2.5,29.52,1001.1,,,,,,,,,,,,,,,4/8 Partly Cloudy,72000.0,13000.0,SCT,13000.0,,,,,,
KRDR,02-26-2021,22:56,METAR,Normal,300,14.0,,,9999.0,,4.9,-3.4,29.51,1000.6,,,,,,,,,,,,,,,4/8 Partly Cloudy,72000.0,7500.0,FEW,7500.0,SCT,13000.0,,,,
KRDR,02-26-2021,21:56,METAR,Normal,280,12.0,,,9999.0,,5.8,-3.6,29.48,999.5,,,,,,,,,,,,,,,2/8 Mostly Clear,72000.0,6000.0,FEW,6000.0,FEW,9100.0,,,,
KRDR,02-26-2021,20:56,METAR,Normal,270,14.0,18.0,,9999.0,,7.4,-2.9,29.46,998.8,,,,,,,,,,,,,,,2/8 Mostly Clear,72000.0,6000.0,FEW,6000.0,FEW,9100.0,,,,
KRDR,02-26-2021,19:56,METAR,Normal,280,12.0,19.0,,9999.0,,7.1,-2.9,29.45,998.5,,,,,,,,,,,,,,,2/8 Mostly Clear,72000.0,8000.0,FEW,8000.0,,,,,,
KRDR,02-26-2021,18:56,METAR,Normal,260,13.0,,,9999.0,,7.0,-1.4,29.47,999.2,,,,,,,,,,,,,,,2/8 Mostly Clear,72000.0,9000.0,FEW,9100.0,,,,,,
KRDR,02-26-2021,17:56,METAR,Normal,250,10.0,,,9999.0,,6.0,0.0,29.47,999.3,,,,,,,,,,,,,,,2/8 Mostly Clear,72000.0,9000.0,FEW,9100.0,,,,,,
KRDR,02-26-2021,16:56,METAR,Normal,210,9.0,,,9999.0,,4.2,-0.8,29.48,999.6,,,,,,,,,,,,,,,2/8 Mostly Clear,72000.0,9500.0,FEW,9600.0,,,,,,
KRDR,02-26-2021,15:56,METAR,Normal,220,9.0,,,9999.0,,2.2,-1.1,29.49,1000.1,,,,,,,,,,,,,,,,8000.0,8000.0,BKN,8000.0,OVC,19000.0,,,,
KRDR,02-26-2021,14:56,METAR,Normal,220,10.0,,,9999.0,,0.3,-1.5,29.48,999.8,,,,,,,,,,,,,,,,8000.0,6000.0,FEW,6000.0,BKN,8000.0,,,,
KRDR,02-26-2021,13:56,METAR,Normal,210,13.0,,,9999.0,,-0.4,-1.7,29.50,1000.4,,,,,,,,,,,,,,,,11000.0,11000.0,BKN,11000.0,,,,,,
KRDR,02-26-2021,12:56,METAR,Normal,200,10.0,,,9999.0,,-0.4,-1.8,29.50,1000.5,,,,,,,,,,,,,,,,12000.0,12000.0,BKN,12000.0,,,,,,
KRDR,02-26-2021,11:56,METAR,Normal,210,10.0,,,9999.0,,0.2,-2.2,29.51,1000.8,,,,,,,,,,,,,,,,14000.0,14000.0,BKN,14000.0,,,,,,
KRDR,02-26-2021,10:56,METAR,Normal,200,11.0,,,9999.0,,0.4,-2.3,29.54,1001.8,,,,,,,,,,,,,,,,16000.0,16000.0,BKN,16000.0,,,,,,
KRDR,02-26-2021,09:56,METAR,Normal,210,11.0,,,9999.0,,1.2,-2.4,29.56,1002.4,,,,,,,,,,,,,,,,15000.0,15000.0,BKN,15000.0,,,,,,
KRDR,02-26-2021,08:56,METAR,Normal,220,13.0,,,9999.0,,1.3,-2.3,29.59,1003.5,,,,,,,,,,,,,,,,16000.0,16000.0,OVC,16000.0,,,,,,
KRDR,02-26-2021,07:56,METAR,Normal,210,16.0,,,,,1.2,-2.0,29.60,1003.8,,,,,,,,,,,,,,,,,,,,,,,,,
KRDR,02-26-2021,06:56,METAR,Normal,200,17.0,,,9999.0,,1.2,-2.0,29.61,1004.2,,,,,,,,,,,,,,,,17000.0,17000.0,OVC,17000.0,,,,,,
KRDR,02-26-2021,05:56,METAR,Normal,190,18.0,24.0,210/26KTS,9999.0,,1.2,-2.0,29.65,1005.6,,,,,,,,,,,,,,,,17000.0,17000.0,OVC,17000.0,,,,,,
KRDR,02-26-2021,04:56,METAR,Normal,190,16.0,,,9999.0,,1.2,-1.9,29.69,1007.0,,,,,,,,,,,,,,,,19000.0,19000.0,OVC,19000.0,,,,,,
KRDR,02-26-2021,03:56,METAR,Normal,170,13.0,,,9999.0,,0.8,-1.9,29.72,1008.1,,,,,,,,,,,,,,,,10000.0,10000.0,OVC,10000.0,,,,,,
KRDR,02-26-2021,02:56,METAR,Normal,180,12.0,,,9999.0,,0.5,-1.7,29.76,1009.5,,,,,,,,,,,,,,,,10000.0,10000.0,OVC,10000.0,,,,,,
KRDR,02-26-2021,01:56,METAR,Normal,180,16.0,,,9999.0,,1.2,-0.4,29.79,1010.6,,,,,,,,,,,,,,,,10000.0,10000.0,BKN,10000.0,,,,,,
KRDR,02-26-2021,00:56,METAR,Normal,170,13.0,,,9999.0,,0.4,-0.2,29.82,1011.7,,,,,,,,,,,,,,,,10000.0,10000.0,BKN,10000.0,,,,,,
KRDR,02-25-2021,23:56,METAR,Normal,170,12.0,,,9999.0,,1.2,0.2,29.86,1013.1,,,,,,,,,,,,,,,,10000.0,10000.0,BKN,10000.0,,,,,,
KRDR,02-25-2021,23:44,SPECI,Normal,170,11.0,,,9999.0,,2.0,0.0,29.86,1013.0,,,,,,,,,,,,,,,,10000.0,10000.0,BKN,10000.0,,,,,,
KRDR,02-25-2021,22:56,METAR,Normal,180,12.0,,,9999.0,,2.3,0.5,29.90,1014.4,,,,,,,,,,,,,,,4/8 Partly Cloudy,72000.0,1000.0,SCT,1000.0,,,,,,
KRDR,02-25-2021,21:56,METAR,Normal,190,15.0,,,9999.0,,2.1,0.2,29.93,,,,,,,,,,,,,,,,2/8 Mostly Clear,72000.0,11000.0,FEW,11000.0,,,,,,
KRDR,02-25-2021,20:56,METAR,Normal,190,15.0,,,9999.0,,1.4,-1.0,29.97,,,,,,,,,,,,,,,,2/8 Mostly Clear,72000.0,10000.0,FEW,10000.0,,,,,,
KRDR,02-25-2021,19:56,METAR,Normal,190,12.0,,,9999.0,,1.3,-1.6,30.01,,,,,,,,,,,,,,,,2/8 Mostly Clear,72000.0,18000.0,FEW,18000.0,,,,,,
KRDR,02-25-2021,18:56,METAR,Normal,200,8.0,,,9999.0,,-0.2,-3.2,30.06,,,,,,,,,,,,,,,,Clear,72000.0,,,,,,,,,
KRDR,02-25-2021,17:56,METAR,Normal,210,8.0,,,9999.0,,-1.1,-4.3,30.10,,,,,,,,,,,,,,,,Clear,72000.0,,,,,,,,,
KRDR,02-25-2021,16:56,METAR,Normal,270,7.0,,,9999.0,,-0.9,-4.6,30.12,,,,,,,,,,,,,,,,Clear,72000.0,,,,,,,,,
KRDR,02-25-2021,15:56,METAR,Normal,270,7.0,,,9999.0,,-2.6,-5.7,30.14,1022.8,,,,,,,,,,,,,,,Clear,72000.0,,,,,,,,,
KRDR,02-25-2021,14:56,METAR,Normal,270,9.0,,,9999.0,,-4.9,-7.0,30.15,1023.1,,,,,,,,,,,,,,,Clear,72000.0,,,,,,,,,
KRDR,02-25-2021,13:56,METAR,Normal,270,10.0,,,9999.0,,-7.3,-8.1,30.14,1022.7,,,,,,,,,,,,,,,4/8 Partly Cloudy,72000.0,9000.0,SCT,9100.0,,,,,,
KRDR,02-25-2021,12:56,METAR,Normal,260,13.0,,,9999.0,,-7.8,-8.5,30.14,1022.7,,,,,,,,,,,,,,,,14000.0,3000.0,SCT,3000.0,BKN,14000.0,,,,
KRDR,02-25-2021,11:56,METAR,Normal,260,12.0,,,9999.0,,-8.1,-8.4,30.14,1022.7,,,,,,,,,,,,,,,Clear,72000.0,,,,,,,,,
KRDR,02-25-2021,10:56,METAR,Normal,230,8.0,,,9999.0,,-10.2,-10.4,30.16,1023.5,,,,,,,,,,,,,,,Clear,72000.0,,,,,,,,,
KRDR,02-25-2021,09:56,METAR,Normal,210,7.0,,,9999.0,,-12.5,-12.7,30.18,1024.3,,,,,,,,,,,,,,,Clear,72000.0,,,,,,,,,
KRDR,02-25-2021,08:56,METAR,Normal,230,7.0,,,9999.0,,-12.2,-12.4,30.21,1025.3,,,,,,,,,,,,,,,Clear,72000.0,,,,,,,,,
KRDR,02-25-2021,07:56,METAR,Normal,240,7.0,,,9999.0,,-11.7,-11.9,30.23,1026.0,,,,,,,,,,,,,,,Clear,72000.0,,,,,,,,,
KRDR,02-25-2021,06:56,METAR,Normal,190,6.0,,,9999.0,,-11.6,-11.8,30.24,1026.4,,,,,,,,,,,,,,,Clear,72000.0,,,,,,,,,
KRDR,02-25-2021,05:56,METAR,Normal,140,4.0,,,9999.0,,-9.2,-9.4,30.24,1026.4,,,,,,,,,,,,,TRACE,,,1500.0,1500.0,BKN,1500.0,,,,,,
KRDR,02-25-2021,05:39,SPECI,Normal,150,4.0,,,9999.0,,-9.0,-9.0,30.24,1026.4,,,,,,,,,,,,,,,,1500.0,1500.0,BKN,1500.0,OVC,2300.0,,,,
KRDR,02-25-2021,05:37,SPECI,Normal,160,4.0,,,9999.0,,-9.0,-9.0,30.24,1026.4,,,,,,,,,,,,,,,,1500.0,1500.0,BKN,1500.0,OVC,2300.0,,,,
KRDR,02-25-2021,05:26,SPECI,Normal,200,3.0,,,9999.0,,-10.0,-10.0,30.25,1026.7,,,,,,,,,,,,,,,,1600.0,1600.0,BKN,1600.0,BKN,2300.0,,,,
KRDR,02-25-2021,05:22,SPECI,Normal,190,3.0,,,9999.0,,-10.0,-10.0,30.25,,,,,,,,,,,,,,,,,2200.0,1700.0,SCT,1700.0,BKN,2200.0,,,,
KRDR,02-25-2021,05:16,SPECI,Normal,180,3.0,,,9999.0,,-10.0,-10.0,30.25,1026.7,,,,,,,,,,,,,,,,2200.0,2200.0,BKN,2200.0,,,,,,
KRDR,02-25-2021,04:56,METAR,Normal,160,4.0,,,9999.0,,-8.9,-9.1,30.25,1026.7,,,,,,,,,,,,,,,2/8 Mostly Clear,72000.0,1800.0,FEW,1800.0,,,,,,
KRDR,02-25-2021,04:42,SPECI,Calm,,0.0,,,9999.0,,-8.0,-8.0,30.24,1026.3,,,,,,,,,,,,,,,4/8 Partly Cloudy,72000.0,1800.0,SCT,1800.0,,,,,,
KRDR,02-25-2021,04:22,SPECI,Normal,230,4.0,,,9999.0,,-7.0,-7.0,30.24,1026.3,,,,,,,,,,,,,,,,1900.0,1900.0,OVC,1900.0,,,,,,
KRDR,02-25-2021,03:56,METAR,Normal,330,3.0,,,9999.0,,-8.7,-8.9,30.23,1026.0,,,,,,,,,,,,,,,,2000.0,2000.0,BKN,2000.0,,,,,,
KRDR,02-25-2021,03:46,SPECI,Normal,340,4.0,,,9999.0,,-8.0,-9.0,30.23,1026.0,,,,,,,,,,,,,,,,2100.0,2100.0,BKN,2100.0,,,,,,
KRDR,02-25-2021,03:16,SPECI,Normal,10,5.0,,,9999.0,,-6.0,-6.0,30.22,1025.6,,,,,,,,,,,,,,,4/8 Partly Cloudy,72000.0,1600.0,SCT,1600.0,,,,,,
KRDR,02-25-2021,02:56,METAR,Normal,340,7.0,,,9999.0,,-5.2,-5.3,30.22,1025.6,,,,,,,,,,,,TRACE,,,,1700.0,1700.0,OVC,1700.0,,,,,,
KRDR,02-25-2021,02:36,SPECI,Normal,350,9.0,,,9999.0,,-5.0,-5.0,30.21,1025.3,,,,,,,,,,,,,,,,1900.0,1900.0,OVC,1900.0,,,,,,
KRDR,02-25-2021,01:56,METAR,Normal,340,10.0,,320/27KTS,9999.0,,-2.6,-4.2,30.18,1024.3,,,,,,,,,,,,,,,,2100.0,2100.0,BKN,2100.0,,,,,,
KRDR,02-25-2021,01:30,SPECI,Normal,310,17.0,22.0,,9999.0,,-2.0,-4.0,30.18,1024.3,,,,,,,,,,,,,,,,2000.0,2000.0,OVC,2000.0,,,,,,
KRDR,02-25-2021,00:56,METAR,Normal,320,17.0,22.0,,9999.0,,-1.0,-1.6,30.15,1023.2,,,,,,,,,,,TRACE,,,,,1700.0,1700.0,OVC,1700.0,,,,,,
KRDR,02-25-2021,00:33,SPECI,Normal,300,12.0,,,9999.0,,-1.0,-1.0,30.14,1022.9,,,,,,,,,,,,,,,,1700.0,1700.0,BKN,1700.0,OVC,2600.0,,,,
KRDR,02-24-2021,23:56,METAR,Normal,250,5.0,,,9999.0,Light Snow,-1.5,-1.6,30.12,,71,,,,,,,,,,TRACE,,TRACE,,,1700.0,1700.0,OVC,1700.0,,,,,,
KRDR,02-24-2021,22:56,METAR,Normal,190,7.0,,,9999.0,Light Snow,-2.8,-3.2,30.11,,71,,,,,,,,,,TRACE,,,,,1700.0,1700.0,BKN,1700.0,OVC,2400.0,,,,
KRDR,02-24-2021,21:56,METAR,Normal,200,7.0,,,9999.0,Light Snow,-3.2,-4.8,30.10,,71,,,,,,,,,,TRACE,,,,,1500.0,1500.0,OVC,1500.0,,,,,,
KRDR,02-24-2021,21:33,SPECI,Normal,210,9.0,,,9999.0,Light Snow,-3.0,-5.0,30.11,,71,,,,,,,,,,,,,,,1500.0,1500.0,OVC,1500.0,,,,,,
KRDR,02-24-2021,20:56,METAR,Normal,200,9.0,,,9999.0,,-3.8,-6.4,30.11,,,,,,,,,,,,,,,,,1400.0,1400.0,OVC,1400.0,,,,,,
KRDR,02-24-2021,19:56,METAR,Normal,200,7.0,,,9999.0,,-4.5,-8.1,30.10,,,,,,,,,,,,,,,,,1600.0,1600.0,OVC,1600.0,,,,,,
KRDR,02-24-2021,18:56,METAR,Normal,200,6.0,,,9999.0,,-5.8,-9.2,30.11,,,,,,,,,,,,,,,,,4500.0,1800.0,FEW,1800.0,OVC,4500.0,,,,
KRDR,02-24-2021,17:56,METAR,Normal,170,4.0,,,9999.0,,-6.4,-9.6,30.12,,,,,,,,,,,,,,,,,2900.0,2900.0,OVC,2900.0,,,,,,
KRDR,02-24-2021,16:56,METAR,Calm,,0.0,,,9999.0,,-6.5,-9.6,30.13,,,,,,,,,,,,,,,,,5500.0,5500.0,OVC,5500.0,,,,,,
KRDR,02-24-2021,15:56,METAR,Normal,350,5.0,,,9999.0,,-7.6,-10.6,30.12,,,,,,,,,,,,,,,,,6000.0,6000.0,BKN,6000.0,,,,,,
KRDR,02-24-2021,14:56,METAR,Normal,300,3.0,,,9999.0,,-9.3,-11.5,30.12,,,,,,,,,,,,,,,,,7000.0,7000.0,BKN,7000.0,,,,,,
KRDR,02-24-2021,14:33,SPECI,Normal,320,4.0,,,9999.0,Light Snow,-10.0,-12.0,30.11,,71,,,,,,,,,,,,,,,7000.0,7000.0,OVC,7000.0,,,,,,
KRDR,02-24-2021,13:56,METAR,Normal,310,6.0,,,9999.0,,-12.6,-13.4,30.10,,,,,,,,,,,,,,,,,7000.0,7000.0,BKN,7000.0,,,,,,
KRDR,02-24-2021,12:56,METAR,Normal,300,5.0,,,9999.0,,-13.9,-14.6,30.08,,,,,,,,,,,,,,,,2/8 Mostly Clear,72000.0,8000.0,FEW,8000.0,,,,,,
KRDR,02-24-2021,11:56,METAR,Normal,310,9.0,,,9999.0,,-12.0,-13.0,30.06,1020.1,,,,,,,,,,,,,,,Clear,72000.0,,,,,,,,,
KRDR,02-24-2021,10:58,METAR,Normal,300,5.0,,,9999.0,,-12.0,-12.0,30.03,1019.0,,,,,,,,,,,,,,,Clear,72000.0,,,,,,,,,
KRDR,02-24-2021,09:56,METAR,Normal,320,7.0,,,9999.0,,-11.0,-12.0,30.01,1018.3,,,,,,,,,,,,,,,Clear,72000.0,,,,,,,,,
KRDR,02-24-2021,08:58,METAR,Normal,320,8.0,,,9999.0,,-10.0,-10.0,29.99,1017.6,,,,,,,,,,,,,,,Clear,72000.0,,,,,,,,,
KRDR,02-24-2021,07:56,METAR,Normal,350,8.0,,,9999.0,,-8.0,-8.0,29.96,1016.4,,,,,,,,,,,,,,,Clear,72000.0,,,,,,,,,
KRDR,02-24-2021,06:56,METAR,Normal,340,10.0,,,9999.0,,-7.0,-7.0,29.94,1015.7,,,,,,,,,,,,,,,Clear,72000.0,,,,,,,,,
KRDR,02-24-2021,05:56,METAR,Normal,340,12.0,,,9999.0,,-6.0,-6.0,29.93,1014.8,,,,,,,,,,,,,.01 IN,,4/8 Partly Cloudy,72000.0,2000.0,SCT,2000.0,,,,,,
KRDR,02-24-2021,04:56,METAR,Normal,360,13.0,,,9999.0,Light Snow,-3.9,-4.0,29.90,1014.2,71,,,,,,,,,,TRACE,,,,,2500.0,1300.0,FEW,1300.0,OVC,2500.0,,,,
KRDR,02-24-2021,03:56,METAR,Normal,360,17.0,,,9999.0,Light Snow,-2.7,-2.8,29.87,1013.2,71,,,,,,,,,,TRACE,,,,,1300.0,1000.0,SCT,1000.0,OVC,1300.0,,,,
KRDR,02-24-2021,02:56,METAR,Normal,360,12.0,,,9999.0,Light Snow,-2.3,-2.3,29.83,1011.9,71,,,,,,,,,,TRACE,.01 IN,,,,2300.0,200.0,FEW,200.0,SCT,500.0,OVC,2300.0,,
KRDR,02-24-2021,02:37,SPECI,Normal,360,11.0,,,1000.0,Light Snow/Mist,-2.0,-2.0,29.82,1011.6,71,10,,,,,,,,,,,,,,500.0,500.0,OVC,500.0,,,,,,
KRDR,02-24-2021,01:56,METAR,Normal,10,14.0,,,1000.0,Light Snow/Mist,-1.9,-1.9,29.81,1011.2,71,10,,,,,,,,,.01 IN,,,,,200.0,200.0,OVC,200.0,,,,,,
KRDR,02-24-2021,01:44,SPECI,Normal,10,14.0,,,1000.0,Light Snow/Mist,-2.0,-2.0,29.80,1010.9,71,10,,,,,,,,,,,,,,200.0,200.0,OVC,200.0,,,,,,
KRDR,02-24-2021,00:56,METAR,Normal,10,13.0,,,800.0,Snow/Fog with Rime,-1.6,-1.6,29.77,1009.8,72,35,,,,,,,,,.01 IN,,,,,200.0,200.0,OVC,200.0,,,,,,
KRDR,02-23-2021,23:56,METAR,Normal,10,13.0,,,800.0,Snow/Fog with Rime,-0.2,-0.2,29.73,1008.4,72,35,,,,,,,,,.03 IN,,.05 IN,,,200.0,200.0,OVC,200.0,,,,,,
KRDR,02-23-2021,23:17,SPECI,Normal,40,4.0,,,800.0,Snow/Fog with Rime,0.0,0.0,29.71,1007.7,72,35,,,,,,,,,,,,,,200.0,200.0,OVC,200.0,,,,,,
KRDR,02-23-2021,22:56,METAR,Normal,60,6.0,,,1600.0,Light Snow/Mist,-0.1,-0.1,29.69,1007.0,71,10,,,,,,,,,.01 IN,,,,,200.0,200.0,OVC,200.0,,,,,,
KRDR,02-23-2021,22:35,SPECI,Normal,60,5.0,,,1600.0,Light Snow/Mist,0.0,0.0,29.69,1007.0,71,10,,,,,,,,,,,,,,200.0,200.0,OVC,200.0,,,,,,
KRDR,02-23-2021,21:56,METAR,Normal,70,4.0,,,1600.0,Light Snow/Mist,0.1,0.1,29.67,1006.3,71,10,,,,,,,,,.01 IN,,,,,1700.0,300.0,FEW,300.0,OVC,1700.0,,,,
KRDR,02-23-2021,20:56,METAR,Normal,70,3.0,,,4800.0,Light Snow/Mist,0.8,0.8,29.68,1006.6,71,10,,,,,,,,,TRACE,TRACE,,,,2300.0,1700.0,SCT,1700.0,OVC,2300.0,,,,
KRDR,02-23-2021,20:08,SPECI,Calm,,0.0,,,6400.0,Light Snow/Mist,1.0,1.0,29.67,1006.2,71,10,,,,,,,,,,,,,,2700.0,900.0,FEW,900.0,SCT,1700.0,BKN,2700.0,OVC,4400.0
KRDR,02-23-2021,20:03,SPECI,Normal,60,3.0,,,9999.0,Light Snow/Mist,2.0,1.0,29.67,1006.2,71,10,,,,,,,,,,,,,,1900.0,900.0,FEW,900.0,BKN,2700.0,OVC,4600.0,,
KRDR,02-23-2021,19:56,METAR,Normal,70,3.0,,,6400.0,Light Snow/Mist,2.0,0.0,29.67,,71,10,,,,,,,,,TRACE,,,,,4600.0,2800.0,SCT,2800.0,OVC,4600.0,,,,
KRDR,02-23-2021,19:50,SPECI,Normal,60,3.0,,,9999.0,Light Snow,2.0,0.0,29.66,1005.8,71,,,,,,,,,,,,,,,4600.0,2800.0,FEW,2800.0,BKN,4600.0,,,,
KRDR,02-23-2021,18:57,METAR,Normal,70,4.0,,,9999.0,,2.0,1.0,29.65,1005.5,,,,,,,,,,,,,,,,6500.0,4700.0,FEW,4700.0,OVC,6500.0,,,,
KRDR,02-23-2021,18:56,METAR,Normal,70,5.0,,,9999.0,,2.0,0.4,29.65,1005.5,,,,,,,,,,,,,,,4/8 Partly Cloudy,72000.0,6500.0,SCT,6500.0,,,,,,
KRDR,02-23-2021,17:56,METAR,Normal,70,6.0,,,9999.0,,2.0,0.2,29.66,1005.8,,,,,,,,,,,,,,,,6500.0,6500.0,OVC,6500.0,,,,,,
KRDR,02-23-2021,16:56,METAR,Calm,,0.0,,,9999.0,,1.7,0.4,29.67,1006.1,,,,,,,,,,,,,,,,11000.0,8500.0,FEW,8600.0,BKN,11000.0,,,,
KRDR,02-23-2021,15:56,METAR,Normal,260,3.0,,,9999.0,,1.1,0.2,29.68,1006.5,,,,,,,,,,,,,,,,11000.0,11000.0,BKN,11000.0,BKN,13000.0,,,,
KRDR,02-23-2021,14:56,METAR,Normal,70,3.0,,,9999.0,,-1.4,-1.5,29.63,1004.8,,,,,,,,,,,,,,,,12000.0,12000.0,BKN,12000.0,BKN,20000.0,,,,
KRDR,02-23-2021,13:56,METAR,Calm,,0.0,,,9999.0,,-2.2,-2.3,29.65,1005.5,,,,,,,,,,,,,,,,12000.0,12000.0,BKN,12000.0,,,,,,
KRDR,02-23-2021,13:28,SPECI,Normal,270,4.0,,,9999.0,,-2.0,-2.0,29.64,1005.2,,,,,,,,,,,,,,,,12000.0,12000.0,BKN,12000.0,,,,,,
KRDR,02-23-2021,12:56,METAR,Normal,290,7.0,,,9999.0,,-1.6,-1.7,29.64,1005.2,,,,,,,,,,,,,,,Clear,72000.0,,,,,,,,,
KRDR,02-23-2021,11:56,METAR,Normal,300,8.0,,,9999.0,,-2.9,-3.0,29.63,1004.8,,,,,,,,,,,,,,,Clear,72000.0,,,,,,,,,
KRDR,02-23-2021,10:56,METAR,Normal,300,7.0,,,9999.0,,-1.0,-1.7,29.62,1004.4,,,,,,,,,,,,,,,Clear,72000.0,,,,,,,,,
KRDR,02-23-2021,09:56,METAR,Normal,300,10.0,,,9999.0,,-0.2,-0.8,29.63,1004.6,,,,,,,,,,,,,,,Clear,72000.0,,,,,,,,,
KRDR,02-23-2021,08:56,METAR,Normal,290,10.0,,,9999.0,,0.6,-0.1,29.61,,,,,,,,,,,,,,,,Clear,72000.0,,,,,,,,,
KRDR,02-23-2021,07:56,METAR,Normal,290,10.0,,,9999.0,,1.1,-0.1,29.60,,,,,,,,,,,,,,,,Clear,72000.0,,,,,,,,,
KRDR,02-23-2021,06:56,METAR,Normal,300,11.0,,,9999.0,,1.5,0.2,29.57,1002.5,,,,,,,,,,,,,,,Clear,72000.0,,,,,,,,,
KRDR,02-23-2021,05:56,METAR,Normal,290,13.0,,,9999.0,,1.7,0.4,29.57,,,,,,,,,,,,,,,,Clear,72000.0,,,,,,,,,
KRDR,02-23-2021,04:56,METAR,Normal,310,14.0,21.0,,9999.0,,2.6,0.8,29.56,,,,,,,,,,,,,,,,Clear,72000.0,,,,,,,,,
KRDR,02-23-2021,03:56,METAR,Normal,310,15.0,,,9999.0,,3.2,0.9,29.54,,,,,,,,,,,,,,,,Clear,72000.0,,,,,,,,,
KRDR,02-23-2021,02:56,METAR,Normal,300,17.0,24.0,300/27KTS,9999.0,,3.6,1.1,29.51,,,,,,,,,,,,,,,,Clear,72000.0,,,,,,,,,
KRDR,02-23-2021,01:56,METAR,Normal,300,16.0,21.0,300/29KTS,9999.0,,3.8,1.5,29.49,,,,,,,,,,,,,,,,2/8 Mostly Clear,72000.0,4000.0,FEW,4000.0,,,,,,
KRDR,02-23-2021,00:56,METAR,Normal,290,17.0,,300/27KTS,9999.0,,4.5,1.7,29.45,,,,,,,,,,,,,,,,2/8 Mostly Clear,72000.0,4000.0,FEW,4000.0,,,,,,
KRDR,02-22-2021,23:56,METAR,Normal,300,19.0,26.0,300/29KTS,9999.0,,5.8,2.1,29.42,997.5,,,,,,,,,,,,,,,2/8 Mostly Clear,72000.0,4000.0,FEW,4000.0,,,,,,
KRDR,02-22-2021,22:56,METAR,Normal,300,19.0,28.0,300/32KTS,9999.0,,7.1,3.3,29.39,,,,,,,,,,,,,,,,2/8 Mostly Clear,72000.0,4000.0,FEW,4000.0,,,,,,
KRDR,02-22-2021,20:58,METAR,Normal,280,20.0,29.0,300/32KTS,9999.0,,7.0,4.0,29.35,995.1,,,,,,,,,,,,,,,,4000.0,4000.0,BKN,4000.0,BKN,16000.0,,,,
KRDR,02-22-2021,20:56,METAR,Normal,290,20.0,27.0,300/32KTS,9999.0,,6.7,3.3,29.34,994.7,,,,,,,,,,,,,,,,,,,,,,,,,
KRDR,02-22-2021,19:57,METAR,Normal,270,19.0,27.0,,9999.0,,7.0,1.0,29.39,,,,,,,,,,,,,,,,,4000.0,4000.0,BKN,4000.0,,,,,,
KRDR,02-22-2021,18:56,METAR,Normal,270,13.0,18.0,,9999.0,,6.0,1.0,29.36,,,,,,,,,,,,,,,,,6000.0,6000.0,OVC,6000.0,,,,,,
KRDR,02-22-2021,17:56,METAR,Normal,260,14.0,18.0,,9999.0,,6.0,-1.0,29.38,,,,,,,,,,,,,,,,,7000.0,7000.0,OVC,7000.0,,,,,,
KRDR,02-22-2021,16:56,METAR,Normal,290,17.0,23.0,,9999.0,,7.0,-1.0,29.40,,,,,,,,,,,,,,,,,8000.0,8000.0,BKN,8000.0,BKN,15000.0,,,,
KRDR,02-22-2021,15:56,METAR,Normal,270,18.0,26.0,,9999.0,,6.0,-1.0,29.40,,,,,,,,,,,,,,,,,20000.0,11000.0,SCT,11000.0,BKN,20000.0,,,,
KRDR,02-22-2021,14:56,METAR,Normal,260,13.0,20.0,,9999.0,,4.0,-2.0,29.39,,,,,,,,,,,,,,,,,10000.0,10000.0,BKN,10000.0,BKN,20000.0,,,,
KRDR,02-22-2021,13:56,METAR,Normal,260,15.0,,,9999.0,,2.0,-1.0,29.34,995.0,,,,,,,,,,,,,,,,10000.0,10000.0,OVC,10000.0,,,,,,
KRDR,02-22-2021,12:56,METAR,Normal,260,15.0,,,9999.0,,2.0,-1.0,29.34,995.0,,,,,,,,,,,,,,,,11000.0,11000.0,OVC,11000.0,,,,,,
KRDR,02-22-2021,11:56,METAR,Normal,250,14.0,,,9999.0,,2.1,-1.5,29.36,995.6,,,,,,,,,,,,,,,,15000.0,10000.0,FEW,10000.0,FEW,12000.0,BKN,15000.0,,
KRDR,02-22-2021,10:56,METAR,Normal,240,9.0,,,9999.0,,2.0,-2.0,29.39,996.5,,,,,,,,,,,,,,,,8500.0,8500.0,BKN,8600.0,,,,,,
KRDR,02-22-2021,09:57,METAR,Normal,230,9.0,,,9999.0,,1.0,-2.0,29.41,997.2,,,,,,,,,,,,,,,,10000.0,10000.0,OVC,10000.0,,,,,,
KRDR,02-22-2021,09:56,METAR,Normal,230,8.0,,,9999.0,,0.8,-2.4,29.41,997.2,,,,,,,,,,,,,,,,10000.0,10000.0,BKN,10000.0,,,,,,
KRDR,02-22-2021,08:56,METAR,Normal,240,11.0,,,9999.0,,1.0,-3.0,29.44,998.2,,,,,,,,,,,,,,,,8500.0,8500.0,OVC,8600.0,,,,,,
KRDR,02-22-2021,07:56,METAR,Normal,210,8.0,,,9999.0,,0.0,-3.0,29.47,999.3,,,,,,,,,,,,,,,,12000.0,10000.0,SCT,10000.0,BKN,12000.0,,,,
KRDR,02-22-2021,07:55,METAR,Normal,210,8.0,,,9999.0,,0.0,-3.0,29.47,999.3,,,,,,,,,,,,,,,,12000.0,10000.0,SCT,10000.0,BKN,12000.0,,,,
KRDR,02-22-2021,06:59,METAR,Normal,210,10.0,,,9999.0,,1.0,-3.0,29.50,,,,,,,,,,,,,,,,,15000.0,9000.0,FEW,9100.0,BKN,15000.0,,,,
KRDR,02-22-2021,06:56,METAR,Normal,210,10.0,,,9999.0,,1.0,-3.0,29.50,,,,,,,,,,,,,,,,,15000.0,9000.0,FEW,9100.0,BKN,15000.0,,,,
KRDR,02-22-2021,05:56,METAR,Normal,220,9.0,,,9999.0,,0.5,-2.7,29.54,1001.7,,,,,,,,,,,,,,,Clear,72000.0,,,,,,,,,
KRDR,02-22-2021,04:56,METAR,Normal,230,9.0,,,9999.0,,0.0,-3.0,29.58,1003.2,,,,,,,,,,,,,,,Clear,72000.0,,,,,,,,,
KRDR,02-22-2021,03:56,METAR,Normal,230,9.0,,,9999.0,,-1.0,-3.0,29.61,1004.4,,,,,,,,,,,,,,,Clear,72000.0,,,,,,,,,
KRDR,02-22-2021,02:56,METAR,Normal,230,9.0,,,9999.0,,-1.0,-3.0,29.62,1004.9,,,,,,,,,,,,,,,Clear,72000.0,,,,,,,,,
KRDR,02-22-2021,02:54,METAR,Normal,230,9.0,,,9999.0,,-1.0,-3.0,29.62,1004.9,,,,,,,,,,,,,,,Clear,72000.0,,,,,,,,,
KRDR,02-22-2021,01:56,METAR,Normal,230,9.0,,,9999.0,,-0.7,-2.3,29.65,1006.1,,,,,,,,,,,,,,,Clear,72000.0,,,,,,,,,
KRDR,02-22-2021,01:54,METAR,Normal,230,8.0,,,9999.0,,-1.0,-2.0,29.65,1006.1,,,,,,,,,,,,,,,2/8 Mostly Clear,72000.0,20000.0,FEW,20000.0,,,,,,
KRDR,02-22-2021,00:57,METAR,Normal,210,5.0,,,9999.0,,0.0,-2.0,29.67,1006.7,,,,,,,,,,,,,,,Clear,72000.0,,,,,,,,,
KRDR,02-22-2021,00:56,METAR,Normal,210,5.0,,,9999.0,,-0.5,-2.2,29.67,1006.7,,,,,,,,,,,,,,,Clear,72000.0,,,,,,,,,
KRDR,02-21-2021,23:56,METAR,Normal,230,6.0,,,9999.0,,1.7,-1.6,29.69,1007.4,,,,,,,,,,,,,,,2/8 Mostly Clear,72000.0,25000.0,FEW,25000.0,,,,,,
KRDR,02-21-2021,22:59,METAR,Normal,250,9.0,,,9999.0,,4.0,-1.0,29.71,1007.9,,,,,,,,,,,,,,,Clear,72000.0,,,,,,,,,
KRDR,02-21-2021,22:56,METAR,Normal,250,6.0,,,9999.0,,4.4,-1.0,29.71,1007.9,,,,,,,,,,,,,,,Clear,72000.0,,,,,,,,,
KRDR,02-21-2021,21:56,METAR,Normal,240,10.0,,,9999.0,,5.0,-1.0,29.73,,,,,,,,,,,,,,,,Clear,72000.0,,,,,,,,,
KRDR,02-21-2021,20:57,METAR,Normal,230,10.0,,,9999.0,,4.0,-2.0,29.74,,,,,,,,,,,,,,,,Clear,72000.0,,,,,,,,,
KRDR,02-21-2021,20:56,METAR,Normal,230,11.0,,,9999.0,,4.2,-2.4,29.74,1008.9,,,,,,,,,,,,,,,Clear,72000.0,,,,,,,,,
KRDR,02-21-2021,19:58,METAR,Normal,230,11.0,,,9999.0,,4.0,-2.0,29.75,,,,,,,,,,,,,,,,Clear,72000.0,,,,,,,,,
KRDR,02-21-2021,19:56,METAR,Normal,230,10.0,,,9999.0,,4.1,-2.5,29.75,1009.2,,,,,,,,,,,,,,,Clear,72000.0,,,,,,,,,
KRDR,02-21-2021,18:56,METAR,Normal,210,10.0,,,9999.0,,3.3,-2.7,29.78,1010.3,,,,,,,,,,,,,,,Clear,72000.0,,,,,,,,,
KRDR,02-21-2021,17:56,METAR,Normal,220,9.0,,,9999.0,,2.6,-3.1,29.82,1011.6,,,,,,,,,,,,,,,Clear,72000.0,,,,,,,,,
KRDR,02-19-2021,11:56,METAR,Normal,270,3.0,,,9999.0,,-19.8,-21.2,30.21,1026.0,,,,,,,,,,,,,,,2/8 Mostly Clear,72000.0,6000.0,FEW,6000.0,,,,,,
KRDR,02-19-2021,10:56,METAR,Normal,300,6.0,,,9999.0,,-18.2,-19.2,30.20,1025.5,,,,,,,,,,,,,,,2/8 Mostly Clear,72000.0,6000.0,FEW,6000.0,,,,,,
KRDR,02-19-2021,09:56,METAR,Normal,300,6.0,,,9999.0,,-15.6,-17.3,30.21,1025.8,,,,,,,,,,,,,,,4/8 Partly Cloudy,72000.0,6000.0,SCT,6000.0,,,,,,
KRDR,02-19-2021,08:56,METAR,Normal,290,5.0,,,9999.0,,-13.5,-15.5,30.21,1025.6,,,,,,,,,,,,,,,,6000.0,6000.0,OVC,6000.0,,,,,,
KRDR,02-19-2021,07:56,METAR,Normal,280,3.0,,,9999.0,,-12.9,-15.4,30.22,1025.9,,,,,,,,,,,,,,,,6000.0,6000.0,OVC,6000.0,,,,,,
KRDR,02-19-2021,06:56,METAR,Normal,270,4.0,,,9999.0,,-12.8,-14.5,30.23,1026.3,,,,,,,,,,,,,,,,6000.0,6000.0,OVC,6000.0,,,,,,
KRDR,02-19-2021,05:56,METAR,Normal,240,3.0,,,9999.0,,-12.7,-14.4,30.23,1026.4,,,,,,,,,,,,,TRACE,,,6000.0,6000.0,OVC,6000.0,,,,,,
KRDR,02-19-2021,04:56,METAR,Normal,260,3.0,,,9999.0,,-12.4,-14.4,30.25,1027.0,,,,,,,,,,,,,,,,6000.0,6000.0,OVC,6000.0,,,,,,
KRDR,02-19-2021,03:56,METAR,Normal,250,4.0,,,9999.0,,-12.8,-14.4,30.26,1027.5,,,,,,,,,,,,,,,,6000.0,6000.0,OVC,6000.0,,,,,,
KRDR,02-19-2021,02:56,METAR,Normal,240,4.0,,,9999.0,,-12.9,-14.6,30.26,1027.6,,,,,,,,,,,TRACE,,,,,6000.0,6000.0,OVC,6000.0,,,,,,
KRDR,02-19-2021,02:50,SPECI,Normal,240,3.0,,,9999.0,,-13.0,-15.0,30.26,1027.6,,,,,,,,,,,,,,,,6000.0,6000.0,OVC,6000.0,,,,,,
KRDR,02-19-2021,02:15,SPECI,Normal,250,3.0,,,9999.0,Light Snow,-13.0,-15.0,30.27,1027.9,71,,,,,,,,,,,,,,,6000.0,6000.0,OVC,6000.0,,,,,,
KRDR,02-19-2021,01:56,METAR,Calm,,0.0,,,9999.0,,-12.5,-14.5,30.27,1027.9,,,,,,,,,,,,,,,,6000.0,6000.0,BKN,6000.0,,,,,,
KRDR,02-19-2021,00:56,METAR,Normal,280,3.0,,,9999.0,,-12.3,-14.8,30.27,1027.9,,,,,,,,,,,,,,,,6000.0,6000.0,BKN,6000.0,,,,,,
KRDR,02-18-2021,23:56,METAR,Normal,300,5.0,,,9999.0,,-11.8,-15.0,30.27,1027.9,,,,,,,,,,,,,TRACE,,,6500.0,2700.0,FEW,2700.0,BKN,6500.0,,,,
KRDR,02-18-2021,22:56,METAR,Normal,310,5.0,,,9999.0,,-10.7,-14.8,30.28,1028.2,,,,,,,,,,,,,,,,6500.0,2700.0,SCT,2700.0,BKN,6500.0,,,,
KRDR,02-18-2021,21:56,METAR,Normal,270,7.0,,,9999.0,,-9.7,-15.1,30.29,1028.5,,,,,,,,,,,,,,,,6500.0,2800.0,SCT,2800.0,BKN,6500.0,,,,
KRDR,02-18-2021,20:56,METAR,Normal,240,7.0,,,9999.0,,-9.3,-14.5,30.28,1028.2,,,,,,,,,,,,TRACE,,,,7000.0,2800.0,SCT,2800.0,BKN,7000.0,,,,
KRDR,02-18-2021,20:10,SPECI,Normal,290,5.0,,,9999.0,,-9.0,-13.0,30.28,1028.2,,,,,,,,,,,,,,,,7000.0,1400.0,SCT,1400.0,BKN,7000.0,,,,
KRDR,02-18-2021,19:56,METAR,Normal,280,6.0,,,9999.0,Light Snow,-8.9,-13.0,30.28,1028.2,71,,,,,,,,,,TRACE,,,,,2000.0,1100.0,SCT,1100.0,OVC,2000.0,,,,
KRDR,02-18-2021,18:56,METAR,Normal,210,5.0,,,9999.0,Light Snow,-9.2,-13.7,30.30,1029.0,71,,,,,,,,,,TRACE,,,,,6000.0,1500.0,SCT,1500.0,OVC,6000.0,,,,
KRDR,02-18-2021,17:56,METAR,Normal,210,5.0,,,9999.0,Light Snow,-10.4,-14.0,30.30,1029.1,71,,,,,,,,,,TRACE,,TRACE,,,7000.0,2100.0,FEW,2100.0,OVC,7000.0,,,,
KRDR,02-18-2021,16:56,METAR,Normal,230,4.0,,,9999.0,Light Snow,-11.8,-15.0,30.30,1029.2,71,,,,,,,,,,TRACE,,,,,6500.0,6500.0,OVC,6500.0,,,,,,
KRDR,02-18-2021,15:56,METAR,Normal,190,5.0,,,9999.0,Light Snow,-13.4,-16.1,30.30,1029.2,71,,,,,,,,,,TRACE,,,,,6500.0,6500.0,OVC,6500.0,,,,,,
KRDR,02-18-2021,14:56,METAR,Normal,180,5.0,,,9999.0,Light Snow,-14.9,-16.8,30.31,1029.6,71,,,,,,,,,,TRACE,,,,,6500.0,6500.0,OVC,6500.0,,,,,,
KRDR,02-18-2021,13:56,METAR,Normal,170,3.0,,,9999.0,,-15.7,-17.3,30.30,1029.3,,,,,,,,,,,,,,,,6000.0,6000.0,OVC,6000.0,,,,,,
KRDR,02-18-2021,12:56,METAR,Normal,180,3.0,,,9999.0,,-16.2,-17.8,30.29,1028.8,,,,,,,,,,,,,,,,6000.0,6000.0,OVC,6000.0,,,,,,
KRDR,02-18-2021,11:56,METAR,Normal,180,4.0,,,9999.0,,-16.3,-18.0,30.30,1029.1,,,,,,,,,,,,,,,,6000.0,6000.0,OVC,6000.0,,,,,,
KRDR,02-18-2021,10:56,METAR,Normal,180,5.0,,,9999.0,,-16.8,-18.4,30.30,1029.0,,,,,,,,,,,,,,,,6000.0,6000.0,OVC,6000.0,,,,,,
KRDR,02-18-2021,09:56,METAR,Normal,180,5.0,,,9999.0,,-17.0,-18.6,30.30,1029.0,,,,,,,,,,,,,,,,6000.0,6000.0,OVC,6000.0,,,,,,
KRDR,02-18-2021,08:56,METAR,Normal,190,4.0,,,9999.0,,-18.0,-19.4,30.31,1029.4,,,,,,,,,,,,,,,,6000.0,6000.0,OVC,6000.0,,,,,,
KRDR,02-18-2021,07:56,METAR,Normal,190,4.0,,,9999.0,,-19.7,-21.4,30.31,1029.5,,,,,,,,,,,,,,,,6000.0,6000.0,OVC,6000.0,,,,,,
KRDR,02-18-2021,06:56,METAR,Normal,200,4.0,,,9999.0,,-21.5,-23.2,30.31,1029.5,,,,,,,,,,,,,,,,6500.0,4200.0,SCT,4200.0,OVC,6500.0,,,,
KRDR,02-18-2021,05:56,METAR,Normal,200,4.0,,,9999.0,,-22.0,-23.7,30.31,,,,,,,,,,,,,,,,Clear,72000.0,,,,,,,,,
KRDR,02-18-2021,04:56,METAR,Normal,220,4.0,,,9999.0,,-22.0,-23.7,30.30,,,,,,,,,,,,,,,,Clear,72000.0,,,,,,,,,
KRDR,02-18-2021,03:55,METAR,Normal,210,4.0,,,9999.0,,-21.8,-23.5,30.30,,,,,,,,,,,,,,,,2/8 Mostly Clear,72000.0,1600.0,FEW,1600.0,,,,,,
KRDR,02-18-2021,02:58,METAR,Normal,170,4.0,,,9999.0,,-20.6,-22.3,30.29,,,,,,,,,,,,,TRACE,,,4/8 Partly Cloudy,72000.0,1600.0,SCT,1600.0,,,,,,
KRDR,02-18-2021,01:56,METAR,Normal,170,4.0,,,9999.0,,-19.2,-20.9,30.30,,,,,,,,,,,,,,,,4/8 Partly Cloudy,72000.0,1600.0,SCT,1600.0,,,,,,
KRDR,02-18-2021,00:57,METAR,Calm,,0.0,,,9999.0,,-16.6,-19.0,30.29,,,,,,,,,,,,,,,,2/8 Mostly Clear,72000.0,2300.0,FEW,2300.0,,,,,,
KRDR,02-17-2021,23:55,METAR,Normal,220,5.0,,,9999.0,,-15.3,-18.6,30.27,,,,,,,,,,,,TRACE,,TRACE,,,2400.0,2400.0,BKN,2400.0,,,,,,
KRDR,02-17-2021,23:47,SPECI,Normal,220,5.0,,,9999.0,,-15.0,-18.0,30.26,,,,,,,,,,,,,,,,4/8 Partly Cloudy,72000.0,2400.0,SCT,2400.0,,,,,,
KRDR,02-17-2021,22:56,METAR,Normal,210,6.0,,,9999.0,Light Snow,-13.4,-18.1,30.25,,71,,,,,,,,,,TRACE,,,,4/8 Partly Cloudy,72000.0,1600.0,FEW,1600.0,SCT,2300.0,,,,
KRDR,02-17-2021,22:39,SPECI,Normal,210,4.0,,,9999.0,Light Snow,-13.0,-17.0,30.24,,71,,,,,,,,,,,,,,,2300.0,1500.0,SCT,1500.0,BKN,2300.0,,,,
KRDR,02-17-2021,22:16,SPECI,Normal,180,8.0,,,9999.0,,-13.0,-18.0,30.24,,,,,,,,,,,,,,,,,2200.0,1700.0,FEW,1700.0,BKN,2200.0,,,,
KRDR,02-17-2021,21:56,METAR,Normal,170,3.0,,,9999.0,,-12.7,-18.1,30.23,,,,,,,,,,,,,,,,4/8 Partly Cloudy,72000.0,1600.0,SCT,1600.0,,,,,,
KRDR,02-17-2021,20:56,METAR,Normal,180,4.0,,,9999.0,,-12.3,-18.1,30.22,,,,,,,,,,,,,,,,4/8 Partly Cloudy,72000.0,1600.0,SCT,1600.0,SCT,15000.0,,,,
KRDR,02-17-2021,19:56,METAR,Normal,190,5.0,,,9999.0,,-12.7,-18.5,30.21,,,,,,,,,,,,,,,,4/8 Partly Cloudy,72000.0,22000.0,SCT,22000.0,,,,,,
KRDR,02-17-2021,18:56,METAR,Normal,190,6.0,,,9999.0,,-13.6,-19.4,30.22,,,,,,,,,,,,,,,,4/8 Partly Cloudy,72000.0,22000.0,SCT,22000.0,,,,,,
KRDR,02-17-2021,17:56,METAR,Normal,170,4.0,,,9999.0,,-15.0,-21.0,30.23,1027.0,,,,,,,,,,,,,,,4/8 Partly Cloudy,72000.0,22000.0,SCT,22000.0,,,,,,
KRDR,02-17-2021,17:27,SPECI,Normal,190,4.0,,,9999.0,,-16.0,-21.0,30.23,1027.1,,,,,,,,,,,,,,,4/8 Partly Cloudy,72000.0,2400.0,SCT,2400.0,,,,,,
KRDR,02-17-2021,16:57,SPECI,Normal,200,3.0,,,9999.0,Light Snow,-17.0,-22.0,30.22,1026.7,71,,,,,,,,,,,,,,,22000.0,22000.0,OVC,22000.0,,,,,,
KRDR,02-17-2021,16:56,METAR,Normal,180,3.0,,,9999.0,Light Snow,-17.0,-22.0,30.22,1026.7,71,,,,,,,,,,,,,,,22000.0,22000.0,OVC,22000.0,,,,,,
KRDR,02-17-2021,16:36,SPECI,Normal,180,3.0,,,9999.0,,-18.0,-22.0,30.22,1026.7,,,,,,,,,,,,,,,,1900.0,2000.0,BKN,2000.0,,,,,,
KRDR,02-17-2021,15:56,METAR,Normal,190,5.0,,,9999.0,,-19.0,-23.0,30.21,1026.5,,,,,,,,,,,,,,,,11000.0,11000.0,BKN,11000.0,OVC,20000.0,,,,
KRDR,02-17-2021,14:56,METAR,Calm,,0.0,,,9999.0,,-22.0,-25.0,30.20,1026.2,,,,,,,,,,,,,,,,11000.0,11000.0,BKN,11000.0,BKN,20000.0,,,,
KRDR,02-17-2021,13:59,METAR,Calm,,0.0,,,9999.0,,-24.0,-27.0,30.18,1025.7,,,,,,,,,,,,,,,,11000.0,11000.0,BKN,11000.0,,,,,,
KRDR,02-17-2021,13:56,METAR,Calm,,0.0,,,9999.0,,-24.2,-26.8,30.18,1025.7,,,,,,,,,,,,,,,Clear,72000.0,,,,,,,,,
KRDR,02-17-2021,12:56,METAR,Normal,140,3.0,,,9999.0,,-24.5,-27.5,30.17,1025.2,,,,,,,,,,,,,,,,14000.0,14000.0,OVC,14000.0,,,,,,
KRDR,02-17-2021,11:56,METAR,Calm,,0.0,,,9999.0,,-24.4,-27.5,30.16,1024.8,,,,,,,,,,,,,,,2/8 Mostly Clear,72000.0,10000.0,FEW,10000.0,FEW,15000.0,,,,
KRDR,02-17-2021,10:56,METAR,Calm,,0.0,,,9999.0,,-24.6,-27.7,30.15,1024.4,,,,,,,,,,,,,,,4/8 Partly Cloudy,72000.0,14000.0,SCT,14000.0,,,,,,
KRDR,02-17-2021,09:56,METAR,Normal,150,3.0,,,9999.0,,-24.4,-27.5,30.15,1024.3,,,,,,,,,,,,,,,Clear,72000.0,,,,,,,,,
KRDR,02-17-2021,08:56,METAR,Normal,150,5.0,,,9999.0,,-24.3,-27.3,30.15,1024.3,,,,,,,,,,,,,,,Clear,72000.0,,,,,,,,,
KRDR,02-17-2021,07:56,METAR,Normal,140,5.0,,,9999.0,,-24.2,-27.5,30.15,1024.3,,,,,,,,,,,,,,,2/8 Mostly Clear,72000.0,16000.0,FEW,16000.0,,,,,,
KRDR,02-17-2021,06:56,METAR,Normal,140,4.0,,,9999.0,,-25.2,-28.1,30.15,1024.4,,,,,,,,,,,,,,,4/8 Partly Cloudy,72000.0,16000.0,SCT,16000.0,,,,,,
KRDR,02-17-2021,05:56,METAR,Normal,140,4.0,,,9999.0,,-24.0,-27.3,30.15,1024.4,,,,,,,,,,,,,,,Clear,72000.0,,,,,,,,,
KRDR,02-17-2021,04:53,METAR,Calm,,0.0,,,9999.0,,-23.0,-27.0,30.15,,,,,,,,,,,,,,,,2/8 Mostly Clear,72000.0,18000.0,FEW,18000.0,,,,,,
KRDR,02-17-2021,03:56,METAR,Normal,180,5.0,,,9999.0,,-23.2,-26.6,30.15,1024.6,,,,,,,,,,,,,,,Clear,72000.0,,,,,,,,,
KRDR,02-17-2021,03:55,METAR,Normal,180,5.0,,,9999.0,,-23.0,-27.0,30.15,,,,,,,,,,,,,,,,2/8 Mostly Clear,72000.0,18000.0,FEW,18000.0,,,,,,
KRDR,02-17-2021,02:56,METAR,Normal,170,5.0,,,9999.0,,-22.0,-26.0,30.14,,,,,,,,,,,,,,,,2/8 Mostly Clear,72000.0,14000.0,FEW,14000.0,,,,,,
KRDR,02-17-2021,01:56,METAR,Normal,170,5.0,,,9999.0,,-21.0,-26.0,30.15,,,,,,,,,,,,,,,,2/8 Mostly Clear,72000.0,14000.0,FEW,14000.0,,,,,,
KRDR,02-17-2021,00:56,METAR,Normal,150,5.0,,,9999.0,,-20.0,-26.0,30.15,,,,,,,,,,,,,,,,4/8 Partly Cloudy,72000.0,8000.0,FEW,8000.0,SCT,12000.0,,,,
KRDR,02-16-2021,23:56,METAR,Normal,150,5.0,,,9999.0,,-19.0,-24.0,30.14,1024.4,,,,,,,,,,,,,,,2/8 Mostly Clear,72000.0,12000.0,FEW,12000.0,FEW,18000.0,,,,
KRDR,02-16-2021,22:56,METAR,Normal,170,8.0,,,9999.0,,-16.7,-24.5,30.14,,,,,,,,,,,,,,,,2/8 Mostly Clear,72000.0,12000.0,FEW,12000.0,,,,,,
KRDR,02-16-2021,21:56,METAR,Normal,160,10.0,,,9999.0,,-15.8,-24.8,30.15,,,,,,,,,,,,,,,,2/8 Mostly Clear,72000.0,12000.0,FEW,12000.0,,,,,,
KRDR,02-16-2021,20:56,METAR,Normal,160,10.0,,,9999.0,,-15.5,-24.1,30.15,,,,,,,,,,,,,,,,2/8 Mostly Clear,72000.0,12000.0,FEW,12000.0,,,,,,
KRDR,02-16-2021,19:56,METAR,Normal,180,9.0,,,9999.0,,-16.1,-24.6,30.17,,,,,,,,,,,,,,,,2/8 Mostly Clear,72000.0,12000.0,FEW,12000.0,,,,,,
KRDR,02-16-2021,18:56,METAR,Normal,180,8.0,,,9999.0,,-16.6,-25.1,30.18,,,,,,,,,,,,,,,,2/8 Mostly Clear,72000.0,12000.0,FEW,12000.0,,,,,,
KRDR,02-16-2021,17:56,METAR,Normal,180,8.0,,,9999.0,,-18.0,-25.5,30.20,,,,,,,,,,,,,,,,2/8 Mostly Clear,72000.0,12000.0,FEW,12000.0,,,,,,
KRDR,02-16-2021,16:56,METAR,Normal,190,8.0,,,9999.0,,-19.9,-25.7,30.21,,,,,,,,,,,,,,,,2/8 Mostly Clear,72000.0,12000.0,FEW,12000.0,,,,,,
KRDR,02-16-2021,15:56,METAR,Normal,180,5.0,,,9999.0,,-22.7,-26.3,30.21,,,,,,,,,,,,,,,,2/8 Mostly Clear,72000.0,15000.0,FEW,15000.0,,,,,,
KRDR,02-16-2021,14:56,METAR,Normal,180,5.0,,,9999.0,,-26.0,-28.4,30.22,,,,,,,,,,,,,,,,2/8 Mostly Clear,72000.0,20000.0,FEW,20000.0,,,,,,
KRDR,02-16-2021,13:56,METAR,Calm,,0.0,,,9999.0,,-29.6,-32.3,30.21,,,,,,,,,,,,,,,,Clear,72000.0,,,,,,,,,
KRDR,02-16-2021,12:56,METAR,Normal,160,4.0,,,9999.0,,-29.0,-31.3,30.21,,,,,,,,,,,,,,,,Clear,72000.0,,,,,,,,,
KRDR,02-16-2021,11:56,METAR,Normal,150,4.0,,,9999.0,,-28.7,-31.0,30.21,1026.8,,,,,,,,,,,,,,,Clear,72000.0,,,,,,,,,
KRDR,02-16-2021,10:56,METAR,Normal,140,5.0,,,9999.0,,-28.7,-31.2,30.21,1026.7,,,,,,,,,,,,,,,Clear,72000.0,,,,,,,,,
KRDR,02-16-2021,09:56,METAR,Normal,130,4.0,,,9999.0,,-28.1,-31.0,30.22,1026.9,,,,,,,,,,,,,,,Clear,72000.0,,,,,,,,,
KRDR,02-16-2021,08:56,METAR,Normal,160,4.0,,,9999.0,,-26.3,-28.8,30.23,1027.2,,,,,,,,,,,,,,,Clear,72000.0,,,,,,,,,
KRDR,02-16-2021,07:56,METAR,Normal,180,5.0,,,9999.0,,-25.9,-28.7,30.24,1027.5,,,,,,,,,,,,,,,Clear,72000.0,,,,,,,,,
KRDR,02-16-2021,06:56,METAR,Normal,190,6.0,,,9999.0,,-24.4,-27.2,30.25,1027.8,,,,,,,,,,,,,,,Clear,72000.0,,,,,,,,,
KRDR,02-16-2021,05:56,METAR,Normal,180,8.0,,,9999.0,,-25.3,-28.0,30.27,1028.5,,,,,,,,,,,,,,,Clear,72000.0,,,,,,,,,
KRDR,02-16-2021,04:56,METAR,Normal,180,5.0,,,9999.0,,-24.8,-27.5,30.27,1028.6,,,,,,,,,,,,,,,Clear,72000.0,,,,,,,,,
KRDR,02-16-2021,03:56,METAR,Normal,170,6.0,,,9999.0,,-24.9,-27.4,30.28,1029.1,,,,,,,,,,,,,,,Clear,72000.0,,,,,,,,,
KRDR,02-16-2021,02:56,METAR,Normal,170,6.0,,,9999.0,,-23.4,-26.1,30.29,1029.5,,,,,,,,,,,,,,,Clear,72000.0,,,,,,,,,
KRDR,02-16-2021,01:56,METAR,Normal,160,6.0,,,9999.0,,-22.2,-25.2,30.29,1029.6,,,,,,,,,,,,,,,Clear,72000.0,,,,,,,,,
KRDR,02-16-2021,00:56,METAR,Normal,170,8.0,,,9999.0,,-20.5,-24.3,30.31,1030.2,,,,,,,,,,,,,,,Clear,72000.0,,,,,,,,,
KRDR,02-15-2021,23:56,METAR,Normal,160,7.0,,,9999.0,,-18.7,-23.9,30.33,1030.9,,,,,,,,,,,,,,,Clear,72000.0,,,,,,,,,
KRDR,02-15-2021,22:56,METAR,Normal,190,9.0,,,9999.0,,-16.5,-24.6,30.35,1031.4,,,,,,,,,,,,,,,Clear,72000.0,,,,,,,,,
KRDR,02-15-2021,21:56,METAR,Normal,180,8.0,,,9999.0,,-15.6,-24.2,30.37,1032.1,,,,,,,,,,,,,,,Clear,72000.0,,,,,,,,,
KRDR,02-15-2021,20:56,METAR,Normal,200,8.0,,,9999.0,,-15.7,-25.2,30.39,1032.7,,,,,,,,,,,,,,,Clear,72000.0,,,,,,,,,
KRDR,02-15-2021,19:56,METAR,Normal,190,8.0,,,9999.0,,-16.2,-25.7,30.41,1033.4,,,,,,,,,,,,,,,Clear,72000.0,,,,,,,,,
KRDR,02-15-2021,18:56,METAR,Normal,210,8.0,,,9999.0,,-16.9,-26.8,30.43,1034.2,,,,,,,,,,,,,,,Clear,72000.0,,,,,,,,,
KRDR,02-15-2021,17:56,METAR,Normal,190,9.0,,,9999.0,,-17.9,-27.3,30.46,1035.2,,,,,,,,,,,,,,,Clear,72000.0,,,,,,,,,
KRDR,02-15-2021,16:56,METAR,Normal,180,5.0,,,9999.0,,-19.4,-27.1,30.47,1035.7,,,,,,,,,,,,,,,Clear,72000.0,,,,,,,,,
KRDR,02-15-2021,15:56,METAR,Normal,210,5.0,,,9999.0,,-21.3,-28.2,30.48,1036.0,,,,,,,,,,,,,,,Clear,72000.0,,,,,,,,,
KRDR,02-15-2021,14:56,METAR,Normal,220,6.0,,,9999.0,,-24.6,-30.1,30.49,1036.6,,,,,,,,,,,,,,,Clear,72000.0,,,,,,,,,
KRDR,02-15-2021,13:56,METAR,Normal,200,4.0,,,9999.0,,-28.1,-32.0,30.50,1037.1,,,,,,,,,,,,,,,Clear,72000.0,,,,,,,,,
KRDR,02-15-2021,12:56,METAR,Normal,220,6.0,,,9999.0,,-28.5,-32.2,30.50,1037.0,,,,,,,,,,,,,,,Clear,72000.0,,,,,,,,,
KRDR,02-15-2021,11:56,METAR,Normal,230,6.0,,,9999.0,,-29.1,-32.5,30.52,1037.7,,,,,,,,,,,,,,,Clear,72000.0,,,,,,,,,
KRDR,02-15-2021,10:56,METAR,Normal,220,5.0,,,9999.0,,-28.7,-32.3,30.53,1037.9,,,,,,,,,,,,,,,Clear,72000.0,,,,,,,,,
KRDR,02-15-2021,09:56,METAR,Normal,210,7.0,,,9999.0,,-28.4,-32.0,30.54,1038.2,,,,,,,,,,,,,,,Clear,72000.0,,,,,,,,,
KRDR,02-15-2021,08:56,METAR,Normal,200,7.0,,,9999.0,,-28.6,-32.2,30.56,1038.9,,,,,,,,,,,,,,,Clear,72000.0,,,,,,,,,
KRDR,02-15-2021,07:56,METAR,Normal,210,5.0,,,9999.0,,-28.4,-32.3,30.57,1039.2,,,,,,,,,,,,,,,Clear,72000.0,,,,,,,,,
KRDR,02-15-2021,06:56,METAR,Normal,200,6.0,,,9999.0,,-28.4,-32.3,30.58,1039.5,,,,,,,,,,,,,,,Clear,72000.0,,,,,,,,,
KRDR,02-15-2021,05:56,METAR,Normal,210,6.0,,,9999.0,,-28.9,-32.9,30.58,1039.6,,,,,,,,,,,,,,,Clear,72000.0,,,,,,,,,
KRDR,02-15-2021,04:56,METAR,Normal,210,6.0,,,9999.0,,-28.1,-32.3,30.59,1040.0,,,,,,,,,,,,,,,Clear,72000.0,,,,,,,,,
KRDR,02-15-2021,03:56,METAR,Normal,210,5.0,,,9999.0,,-27.3,-31.7,30.60,1040.4,,,,,,,,,,,,,,,Clear,72000.0,,,,,,,,,
KRDR,02-15-2021,02:56,METAR,Normal,220,7.0,,,9999.0,,-27.7,-31.7,30.61,1041.0,,,,,,,,,,,,,,,Clear,72000.0,,,,,,,,,
KRDR,02-15-2021,01:56,METAR,Normal,230,6.0,,,9999.0,,-27.0,-31.4,30.61,1041.1,,,,,,,,,,,,,,,Clear,72000.0,,,,,,,,,
KRDR,02-15-2021,00:56,METAR,Normal,250,5.0,,,9999.0,,-26.5,-30.9,30.62,1041.3,,,,,,,,,,,,,,,Clear,72000.0,,,,,,,,,
KRDR,02-14-2021,23:56,METAR,Normal,260,5.0,,,9999.0,,-24.0,-30.4,30.63,1041.5,,,,,,,,,,,,,,,Clear,72000.0,,,,,,,,,
KRDR,02-14-2021,22:56,METAR,Normal,260,6.0,,,9999.0,,-22.2,-30.5,30.63,1041.4,,,,,,,,,,,,,,,Clear,72000.0,,,,,,,,,
KRDR,02-14-2021,21:56,METAR,Normal,290,7.0,,,9999.0,,-21.3,-30.2,30.65,1042.0,,,,,,,,,,,,,,,Clear,72000.0,,,,,,,,,
KRDR,02-14-2021,20:56,METAR,Normal,270,8.0,,,9999.0,,-21.5,-29.9,30.65,1042.0,,,,,,,,,,,,,,,Clear,72000.0,,,,,,,,,
KRDR,02-14-2021,19:56,METAR,Normal,290,8.0,,,9999.0,,-21.6,-30.4,30.67,1042.8,,,,,,,,,,,,,,,Clear,72000.0,,,,,,,,,
KRDR,02-14-2021,18:56,METAR,Normal,310,10.0,,,9999.0,,-22.4,-31.0,30.68,1043.1,,,,,,,,,,,,,,,Clear,72000.0,,,,,,,,,
KRDR,02-14-2021,17:56,METAR,Normal,280,7.0,,,9999.0,,-23.5,-31.5,30.71,1044.2,,,,,,,,,,,,,,,Clear,72000.0,,,,,,,,,
KRDR,02-14-2021,16:56,METAR,Normal,280,8.0,,,9999.0,,-24.8,-32.5,30.71,1044.3,,,,,,,,,,,,,,,Clear,72000.0,,,,,,,,,
KRDR,02-14-2021,15:56,METAR,Normal,280,9.0,,,9999.0,,-26.8,-32.9,30.72,1044.7,,,,,,,,,,,,,,,Clear,72000.0,,,,,,,,,
KRDR,02-14-2021,14:56,METAR,Normal,280,8.0,,,9999.0,,-29.4,-34.7,30.72,1044.7,,,,,,,,,,,,,,,Clear,72000.0,,,,,,,,,
KRDR,02-14-2021,13:56,METAR,Normal,240,5.0,,,9999.0,,-32.4,-36.5,30.71,1044.5,,,,,,,,,,,,,,,Clear,72000.0,,,,,,,,,
KRDR,02-14-2021,12:56,METAR,Normal,280,6.0,,,9999.0,,-32.2,-36.4,30.70,1044.1,,,,,,,,,,,,,,,Clear,72000.0,,,,,,,,,
KRDR,02-14-2021,11:56,METAR,Normal,290,6.0,,,9999.0,,-32.4,-36.8,30.69,1043.8,,,,,,,,,,,,,,,Clear,72000.0,,,,,,,,,
KRDR,02-14-2021,10:56,METAR,Normal,300,6.0,,,9999.0,,-32.2,-36.3,30.68,1043.4,,,,,,,,,,,,,,,Clear,72000.0,,,,,,,,,
KRDR,02-14-2021,09:56,METAR,Normal,300,7.0,,,9999.0,,-31.6,-35.5,30.68,1043.4,,,,,,,,,,,,,,,Clear,72000.0,,,,,,,,,
KRDR,02-14-2021,08:56,METAR,Normal,300,6.0,,,9999.0,,-31.1,-35.2,30.69,1043.6,,,,,,,,,,,,,,,Clear,72000.0,,,,,,,,,
KRDR,02-14-2021,07:56,METAR,Normal,300,7.0,,,9999.0,,-31.6,-35.1,30.68,1043.4,,,,,,,,,,,,,,,Clear,72000.0,,,,,,,,,
KRDR,02-14-2021,06:56,METAR,Normal,310,8.0,,,9999.0,,-30.5,-34.3,30.67,1042.9,,,,,,,,,,,,,,,Clear,72000.0,,,,,,,,,
KRDR,02-14-2021,05:56,METAR,Normal,300,7.0,,,9999.0,,-30.3,-34.4,30.66,1042.6,,,,,,,,,,,,,,,Clear,72000.0,,,,,,,,,
KRDR,02-14-2021,04:56,METAR,Normal,300,8.0,,,9999.0,,-30.1,-34.1,30.65,1042.3,,,,,,,,,,,,,,,Clear,72000.0,,,,,,,,,
KRDR,02-14-2021,03:56,METAR,Normal,290,7.0,,,9999.0,,-30.2,-34.2,30.64,1042.0,,,,,,,,,,,,,,,Clear,72000.0,,,,,,,,,
KRDR,02-14-2021,02:56,METAR,Normal,320,7.0,,,9999.0,,-29.5,-33.8,30.62,1041.4,,,,,,,,,,,,,,,Clear,72000.0,,,,,,,,,
KRDR,02-14-2021,01:56,METAR,Normal,310,8.0,,,9999.0,,-28.9,-33.7,30.61,1041.2,,,,,,,,,,,,,,,Clear,72000.0,,,,,,,,,
KRDR,02-14-2021,01:02,SPECI,Normal,320,8.0,,,9999.0,,-29.0,-34.0,30.59,1040.5,,,,,,,,,,,,,,,2/8 Mostly Clear,72000.0,1100.0,FEW,1100.0,,,,,,
KRDR,02-14-2021,00:56,METAR,Normal,320,9.0,,,9999.0,,-28.6,-33.9,30.59,1040.5,,,,,,,,,,,,,,,4/8 Partly Cloudy,72000.0,1200.0,SCT,1200.0,,,,,,
KRDR,02-14-2021,00:55,METAR,Normal,320,9.0,,,9999.0,,-28.0,-34.0,30.59,1040.4,,,,,,,,,,,,,,,4/8 Partly Cloudy,72000.0,1200.0,SCT,1200.0,,,,,,
KRDR,02-14-2021,00:50,SPECI,Normal,320,10.0,,,9999.0,,-28.0,-34.0,30.59,1040.4,,,,,,,,,,,,,,,,1200.0,1200.0,BKN,1200.0,,,,,,
KRDR,02-14-2021,00:30,SPECI,Normal,320,8.0,,,9999.0,,-28.0,-34.0,30.59,1040.4,,,,,,,,,,,,,,,,1000.0,1100.0,SCT,1100.0,OVC,1900.0,,,,
KRDR,02-14-2021,00:20,SPECI,Normal,320,10.0,,,9999.0,,-28.0,-34.0,30.58,1040.0,,,,,,,,,,,,,,,,900.0,1000.0,FEW,1000.0,OVC,2000.0,,,,
KRDR,02-13-2021,23:56,METAR,Normal,310,10.0,,,9999.0,,-27.2,-33.4,30.57,1039.7,,,,,,,,,,,,,TRACE,,,2300.0,2300.0,OVC,2300.0,,,,,,
KRDR,02-13-2021,22:57,METAR,Normal,290,11.0,,,9999.0,,-26.0,-34.0,30.56,1039.3,,,,,,,,,,,,,,,,2400.0,2400.0,BKN,2400.0,,,,,,
KRDR,02-13-2021,22:56,METAR,Normal,300,10.0,,,9999.0,,-26.1,-33.8,30.56,1039.3,,,,,,,,,,,,,,,,2400.0,2400.0,OVC,2400.0,,,,,,
KRDR,02-13-2021,21:58,METAR,Normal,320,9.0,,,9999.0,Mist,-25.0,-32.0,30.55,1038.9,,,,10,,,,,,,TRACE,,,,,2200.0,2200.0,BKN,2200.0,OVC,2900.0,,,,
KRDR,02-13-2021,21:56,METAR,Normal,320,10.0,,,9999.0,,-25.3,-32.2,30.55,1038.9,,,,,,,,,,,TRACE,,,,,2000.0,2000.0,BKN,2000.0,BKN,2600.0,,,,
KRDR,02-13-2021,21:46,SPECI,Normal,330,10.0,,,8000.0,Light Snow/Mist,-25.0,-32.0,30.55,1038.9,71,10,,,,,,,,,,,,,,2000.0,2000.0,BKN,2000.0,OVC,2800.0,,,,
KRDR,02-13-2021,21:19,SPECI,Normal,320,11.0,,,9999.0,Light Snow/Mist,-25.0,-31.0,30.55,1038.9,71,10,,,,,,,,,,,,,,2100.0,1500.0,FEW,1500.0,OVC,2100.0,,,,
KRDR,02-13-2021,21:08,SPECI,Normal,310,11.0,,,8000.0,Light Snow/Mist,-25.0,-31.0,30.55,1038.9,71,10,,,,,,,,,,,,,,2100.0,1500.0,FEW,1500.0,OVC,2100.0,,,,
KRDR,02-13-2021,20:56,METAR,Normal,340,9.0,,,9999.0,Blowing or Drifting Snow or Sand,-25.3,-30.9,30.55,1038.9,27,,,,,,,,,,TRACE,TRACE,,,,2100.0,1400.0,FEW,1400.0,OVC,2100.0,,,,
KRDR,02-13-2021,20:55,METAR,Normal,330,9.0,,,6400.0,Light Snow/Mist,-25.0,-31.0,30.55,1038.9,,,,71,10,,,,,,TRACE,TRACE,,,,2100.0,1400.0,FEW,1400.0,OVC,2100.0,,,,
KRDR,02-13-2021,20:52,SPECI,Normal,350,8.0,,,9999.0,Light Snow,-25.0,-31.0,30.55,1038.9,71,,,,,,,,,,,,,,,2100.0,1400.0,FEW,1400.0,OVC,2100.0,,,,
KRDR,02-13-2021,20:42,SPECI,Normal,340,10.0,,,6400.0,Light Snow,-26.0,-31.0,30.55,1038.9,71,,,,,,,,,,,,,,,2000.0,2000.0,OVC,2000.0,,,,,,
KRDR,02-13-2021,20:22,SPECI,Normal,340,7.0,,,9999.0,Light Snow,-25.0,-31.0,30.55,1038.9,71,,,,,,,,,,,,,,,2000.0,2000.0,OVC,2000.0,,,,,,
KRDR,02-13-2021,20:12,SPECI,Normal,350,9.0,,,9999.0,Light Snow/Mist,-25.0,-33.0,30.55,1038.9,71,10,,,,,,,,,,,,,,2000.0,2000.0,OVC,2000.0,,,,,,
KRDR,02-13-2021,20:02,SPECI,Normal,350,7.0,,,6400.0,Blowing or Drifting Snow or Sand,-25.0,-31.0,30.56,1039.3,27,,,,,,,,,,,,,,,2100.0,2100.0,OVC,2100.0,,,,,,
KRDR,02-13-2021,20:00,METAR,Variable,360,10.0,,,6400.0,Mist,-25.0,-31.0,30.56,1039.3,,,,10,,,,,,,,,TRACE,,,2100.0,2100.0,OVC,2100.0,,,,,,
KRDR,02-13-2021,19:56,METAR,Normal,10,10.0,,,6400.0,Light Snow,-25.3,-32.4,30.56,1039.3,71,,,,,,,,,,TRACE,,,,,2100.0,2100.0,OVC,2100.0,,,,,,
KRDR,02-13-2021,19:54,SPECI,Normal,350,9.0,,,6400.0,Light Snow,-25.0,-32.0,30.56,1039.3,71,,,,,,,,,,,,,,,2100.0,2100.0,OVC,2100.0,,,,,,
KRDR,02-13-2021,19:26,SPECI,Normal,10,10.0,,,6400.0,Mist,-26.0,-32.0,30.56,1039.3,10,,,,,,,,,,,,,,,2300.0,2300.0,OVC,2300.0,,,,,,
KRDR,02-13-2021,19:06,SPECI,Normal,340,9.0,,,9999.0,,-26.0,-32.0,30.56,1039.3,,,,,,,,,,,,,,,2/8 Mostly Clear,72000.0,2100.0,FEW,2100.0,,,,,,
KRDR,02-13-2021,18:56,METAR,Normal,360,8.0,,,9999.0,Mist,-26.0,-32.0,30.56,1039.3,,,,10,,,,,,,,,,,Clear,72000.0,,,,,,,,,
KRDR,02-13-2021,18:43,SPECI,Normal,360,12.0,,,9999.0,,-26.0,-32.0,30.56,1039.3,,,,,,,,,,,,,,,Clear,72000.0,,,,,,,,,
KRDR,02-13-2021,18:13,SPECI,Normal,10,8.0,,,9999.0,Mist,-26.0,-31.0,30.57,1039.6,10,,,,,,,,,,,,,,Clear,72000.0,,,,,,,,,
KRDR,02-13-2021,17:56,METAR,Normal,360,8.0,,,6400.0,Light Snow/Mist,-25.9,-30.8,30.56,1039.3,71,10,,,,,,,,,TRACE,,,,Clear,72000.0,,,,,,,,,
KRDR,02-13-2021,17:55,METAR,Normal,360,8.0,,,6400.0,Light Snow/Mist,-26.0,-31.0,30.56,1039.3,,,,71,10,,,,,,TRACE,,,,Clear,72000.0,,,,,,,,,
KRDR,02-13-2021,17:47,SPECI,Normal,340,8.0,,,8000.0,Haze Smoke or Dust,-26.0,-31.0,30.57,1039.6,05,,,,,,,,,,,,,,,1300.0,1300.0,OVC,1300.0,,,,,,
KRDR,02-13-2021,17:44,SPECI,Normal,350,10.0,,,9999.0,Light Snow,-26.0,-31.0,30.57,1039.6,,,,71,,,,,,,,,,,Clear,72000.0,,,,,,,,,
KRDR,02-13-2021,17:38,SPECI,Normal,340,10.0,,,9999.0,,-26.0,-30.0,30.57,1039.6,,,,,,,,,,,,,,,,1500.0,1500.0,OVC,1500.0,,,,,,
KRDR,02-13-2021,17:35,SPECI,Normal,360,7.0,,,9999.0,Light Snow,-26.0,-30.0,30.57,1039.6,,,,71,,,,,,,,,,,Clear,72000.0,,,,,,,,,
KRDR,02-13-2021,16:58,METAR,Normal,340,9.0,,,9999.0,,-27.0,-31.0,30.57,1039.6,,,,,,,,,,,,,,,,900.0,1500.0,OVC,1500.0,,,,,,
KRDR,02-13-2021,16:56,METAR,Normal,340,10.0,,,9999.0,,-27.5,-31.0,30.57,1039.6,,,,,,,,,,,,,,,,900.0,1500.0,OVC,1500.0,,,,,,
KRDR,02-13-2021,16:37,SPECI,Normal,330,8.0,,,9999.0,,-28.0,-31.0,30.57,1039.6,,,,,,,,,,,,,,,,1600.0,1600.0,BKN,1600.0,,,,,,
KRDR,02-13-2021,16:17,SPECI,Normal,340,8.0,,,9999.0,,-28.0,-31.0,30.57,1039.6,,,,,,,,,,,,,,,2/8 Mostly Clear,72000.0,600.0,FEW,600.0,,,,,,
KRDR,02-13-2021,16:07,METAR,Normal,350,10.0,,,9999.0,,-28.0,-31.0,30.57,1039.6,,,,,,,,,,,,,,,Clear,72000.0,,,,,,,,,
KRDR,02-13-2021,15:57,METAR,Normal,350,10.0,,,9999.0,,-28.0,-31.0,30.57,1039.6,,,,,,,,,,,,,,,Clear,72000.0,,,,,,,,,
KRDR,02-13-2021,15:56,METAR,Normal,340,7.0,,,9999.0,,-28.6,-31.5,30.57,1039.7,,,,,,,,,,,,,,,Clear,72000.0,,,,,,,,,
KRDR,02-13-2021,14:56,METAR,Normal,340,8.0,,,9999.0,,-31.0,-34.0,30.57,1039.7,,,,,,,,,,,,,,,Clear,72000.0,,,,,,,,,
KRDR,02-13-2021,13:56,METAR,Normal,320,6.0,,,9999.0,,-32.8,-36.0,30.55,1039.1,,,,,,,,,,,,,,,Clear,72000.0,,,,,,,,,
KRDR,02-13-2021,12:56,METAR,Normal,320,5.0,,,9999.0,,-32.7,-35.9,30.54,1038.7,,,,,,,,,,,,,,,Clear,72000.0,,,,,,,,,
KRDR,02-13-2021,11:56,METAR,Normal,320,6.0,,,9999.0,,-32.5,-35.7,30.54,1038.6,,,,,,,,,,,,,,,Clear,72000.0,,,,,,,,,
KRDR,02-13-2021,10:56,METAR,Normal,330,6.0,,,9999.0,,-32.0,-35.1,30.53,1038.1,,,,,,,,,,,,,,,Clear,72000.0,,,,,,,,,
KRDR,02-13-2021,09:56,METAR,Normal,310,6.0,,,9999.0,,-32.5,-35.7,30.53,1038.1,,,,,,,,,,,,,,,Clear,72000.0,,,,,,,,,
KRDR,02-13-2021,08:56,METAR,Normal,310,4.0,,,9999.0,,-32.3,-35.4,30.54,1038.4,,,,,,,,,,,,,,,Clear,72000.0,,,,,,,,,
KRDR,02-13-2021,07:56,METAR,Normal,290,4.0,,,9999.0,,-32.7,-35.8,30.55,1038.8,,,,,,,,,,,,,,,Clear,72000.0,,,,,,,,,
KRDR,02-13-2021,06:56,METAR,Normal,290,3.0,,,9999.0,,-32.6,-35.8,30.54,1038.5,,,,,,,,,,,,,,,Clear,72000.0,,,,,,,,,
KRDR,02-13-2021,05:56,METAR,Calm,,0.0,,,9999.0,,-32.1,-35.2,30.53,1038.1,,,,,,,,,,,,,,,Clear,72000.0,,,,,,,,,
KRDR,02-13-2021,04:56,METAR,Normal,240,4.0,,,9999.0,,-31.0,-33.8,30.52,1037.8,,,,,,,,,,,,,,,Clear,72000.0,,,,,,,,,
KRDR,02-13-2021,03:56,METAR,Calm,,0.0,,,9999.0,,-30.4,-33.1,30.52,1037.8,,,,,,,,,,,,,,,Clear,72000.0,,,,,,,,,
KRDR,02-13-2021,02:56,METAR,Calm,,0.0,,,9999.0,,-29.0,-32.0,30.52,1037.9,,,,,,,,,,,,,,,Clear,72000.0,,,,,,,,,
KRDR,02-13-2021,02:16,SPECI,Calm,,0.0,,,9999.0,,-29.0,-31.0,30.52,1038.0,,,,,,,,,,,,,,,4/8 Partly Cloudy,72000.0,800.0,SCT,800.0,,,,,,
KRDR,02-13-2021,02:06,SPECI,Calm,,0.0,,,9999.0,,-28.0,-31.0,30.52,1038.0,,,,,,,,,,,,,,,,800.0,800.0,BKN,800.0,,,,,,
KRDR,02-13-2021,01:56,METAR,Calm,,0.0,,,9999.0,,-28.0,-31.0,30.52,1038.0,,,,,,,,,,,,,,,4/8 Partly Cloudy,72000.0,1000.0,SCT,1000.0,,,,,,
KRDR,02-13-2021,01:48,SPECI,Calm,,0.0,,,9999.0,,-28.0,-31.0,30.52,1038.0,,,,,,,,,,,,,,,4/8 Partly Cloudy,72000.0,1100.0,SCT,1100.0,,,,,,
KRDR,02-13-2021,01:38,SPECI,Calm,,0.0,,,9999.0,,-28.0,-30.0,30.52,1038.0,,,,,,,,,,,,,,,,1100.0,1100.0,BKN,1100.0,,,,,,
KRDR,02-13-2021,00:59,SPECI,Normal,320,3.0,,,9999.0,,-27.0,-29.0,30.52,1038.0,,,,,,,,,,,,,,,2/8 Mostly Clear,72000.0,10000.0,FEW,10000.0,,,,,,
KRDR,02-13-2021,00:56,METAR,Normal,320,3.0,,,9999.0,,-27.0,-29.0,30.52,1038.0,,,,,,,,,,,,,,,2/8 Mostly Clear,72000.0,10000.0,FEW,10000.0,,,,,,
KRDR,02-12-2021,23:56,METAR,Calm,,0.0,,,9999.0,,-26.0,-30.0,30.51,1037.5,,,,,,,,,,,,,,,4/8 Partly Cloudy,72000.0,800.0,FEW,800.0,SCT,3000.0,,,,
KRDR,02-12-2021,23:38,SPECI,Normal,270,4.0,,,9999.0,,-25.0,-30.0,30.51,1037.4,,,,,,,,,,,,,,,2/8 Mostly Clear,72000.0,800.0,FEW,800.0,,,,,,
KRDR,02-12-2021,22:56,METAR,Normal,260,8.0,,,9999.0,Mist,-24.0,-30.0,30.51,1037.3,10,,,,,,,,,,TRACE,,,,,3000.0,3000.0,BKN,3000.0,OVC,10000.0,,,,
KRDR,02-12-2021,22:10,SPECI,Normal,250,6.0,,,9999.0,,-23.0,-32.0,30.50,1037.0,,,,,,,,,,,,,,,4/8 Partly Cloudy,72000.0,2200.0,FEW,2200.0,SCT,4300.0,,,,
KRDR,02-12-2021,21:57,SPECI,Normal,240,5.0,,,9999.0,Light Snow,-23.0,-32.0,30.50,1037.0,71,,,,,,,,,,,,,,,10000.0,4000.0,SCT,4000.0,OVC,10000.0,,,,
KRDR,02-12-2021,21:56,METAR,Normal,270,5.0,,,9999.0,Light Snow,-23.0,-32.0,30.50,1037.0,71,,,,,,,,,,,,,,,10000.0,4000.0,SCT,4000.0,OVC,10000.0,,,,
KRDR,02-12-2021,20:56,METAR,Normal,260,8.0,,,9999.0,,-22.8,-32.8,30.50,1036.9,,,,,,,,,,,,,,,,10000.0,3000.0,FEW,3000.0,BKN,10000.0,,,,
KRDR,02-12-2021,19:56,METAR,Normal,220,8.0,,,9999.0,,-23.2,-33.1,30.51,1037.3,,,,,,,,,,,,,,,Clear,72000.0,,,,,,,,,
KRDR,02-12-2021,18:56,METAR,Normal,270,6.0,,,9999.0,,-23.8,-33.2,30.53,,,,,,,,,,,,,,,,,10000.0,3000.0,FEW,3000.0,BKN,10000.0,,,,
KRDR,02-12-2021,17:56,METAR,Normal,300,9.0,15.0,,9999.0,,-24.6,-33.0,30.54,,,,,,,,,,,,,,,,2/8 Mostly Clear,72000.0,10000.0,FEW,10000.0,,,,,,
KRDR,02-12-2021,16:56,METAR,Normal,290,8.0,,,9999.0,,-25.4,-33.3,30.55,,,,,,,,,,,,,,,,2/8 Mostly Clear,72000.0,10000.0,FEW,10000.0,,,,,,
KRDR,02-12-2021,15:56,METAR,Normal,250,7.0,,,9999.0,,-26.0,-33.0,30.56,1039.1,,,,,,,,,,,,,,,2/8 Mostly Clear,72000.0,10000.0,FEW,10000.0,,,,,,
KRDR,02-12-2021,14:56,METAR,Normal,260,6.0,,,9999.0,,-29.0,-34.0,30.56,1039.2,,,,,,,,,,,,,,,2/8 Mostly Clear,72000.0,10000.0,FEW,10000.0,,,,,,
KRDR,02-12-2021,13:56,METAR,Normal,240,5.0,,,9999.0,,-32.1,-35.6,30.56,1039.3,,,,,,,,,,,,,,,2/8 Mostly Clear,72000.0,9000.0,FEW,9100.0,,,,,,
KRDR,02-12-2021,12:56,METAR,Normal,260,5.0,,,9999.0,,-32.4,-35.9,30.55,1038.9,,,,,,,,,,,,,,,2/8 Mostly Clear,72000.0,9000.0,FEW,9100.0,,,,,,
KRDR,02-12-2021,11:56,METAR,Normal,260,5.0,,,9999.0,,-31.7,-35.1,30.55,1038.8,,,,,,,,,,,,,,,2/8 Mostly Clear,72000.0,9000.0,FEW,9100.0,,,,,,
KRDR,02-12-2021,10:56,METAR,Normal,250,5.0,,,9999.0,,-30.9,-34.3,30.56,1039.2,,,,,,,,,,,,,,,2/8 Mostly Clear,72000.0,9000.0,FEW,9100.0,,,,,,
KRDR,02-12-2021,09:56,METAR,Normal,260,7.0,,,9999.0,,-30.5,-34.3,30.57,1039.4,,,,,,,,,,,,,,,2/8 Mostly Clear,72000.0,9000.0,FEW,9100.0,,,,,,
KRDR,02-12-2021,08:56,METAR,Normal,260,8.0,,,9999.0,,-30.0,-33.8,30.58,1039.7,,,,,,,,,,,,,,,Clear,72000.0,,,,,,,,,
KRDR,02-12-2021,07:56,METAR,Normal,260,6.0,,,9999.0,,-30.3,-33.7,30.57,1039.4,,,,,,,,,,,,,,,2/8 Mostly Clear,72000.0,7000.0,FEW,7000.0,,,,,,
KRDR,02-12-2021,06:56,METAR,Normal,250,5.0,,,9999.0,,-29.7,-33.1,30.58,1039.7,,,,,,,,,,,,,,,Clear,72000.0,,,,,,,,,
KRDR,02-12-2021,06:55,METAR,Normal,250,5.0,,,9999.0,,-30.0,-33.0,30.58,,,,,,,,,,,,,,,,2/8 Mostly Clear,72000.0,7000.0,FEW,7000.0,,,,,,
KRDR,02-12-2021,05:57,METAR,Normal,250,5.0,,,9999.0,,-29.0,-32.0,30.59,,,,,,,,,,,,,,TRACE,,2/8 Mostly Clear,72000.0,7000.0,FEW,7000.0,,,,,,
KRDR,02-12-2021,05:56,METAR,Normal,250,5.0,,,9999.0,,-29.2,-32.3,30.59,1040.0,,,,,,,,,,,,,,,Clear,72000.0,,,,,,,,,
KRDR,02-12-2021,04:56,METAR,Normal,250,4.0,,,9999.0,,-28.0,-32.0,30.60,,,,,,,,,,,,,,,,4/8 Partly Cloudy,72000.0,7000.0,SCT,7000.0,,,,,,
KRDR,02-12-2021,03:56,METAR,Normal,270,4.0,,,9999.0,,-28.0,-32.0,30.60,,,,,,,,,,,,,,,,4/8 Partly Cloudy,72000.0,7000.0,SCT,7000.0,,,,,,
KRDR,02-12-2021,02:56,METAR,Normal,280,6.0,,,9999.0,,-28.0,-32.0,30.60,,,,,,,,,,,,,TRACE,,,4/8 Partly Cloudy,72000.0,7000.0,SCT,7000.0,,,,,,
KRDR,02-12-2021,01:56,METAR,Normal,280,5.0,,,9999.0,,-26.7,-30.3,30.60,1040.5,,,,,,,,,,,TRACE,,,,,7000.0,7000.0,BKN,7000.0,,,,,,
KRDR,02-12-2021,01:17,SPECI,Normal,290,4.0,,,9999.0,,-26.0,-31.0,30.59,1040.1,,,,,,,,,,,,,,,,7000.0,7000.0,BKN,7000.0,,,,,,
KRDR,02-12-2021,00:56,METAR,Normal,300,6.0,,,9999.0,Light Snow,-25.3,-31.1,30.59,1040.0,71,,,,,,,,,,TRACE,,,,,7000.0,7000.0,BKN,7000.0,,,,,,
KRDR,02-12-2021,00:24,SPECI,Normal,320,6.0,,,9999.0,Light Snow,-25.0,-32.0,30.59,1040.0,71,,,,,,,,,,,,,,,8000.0,8000.0,OVC,8000.0,,,,,,
KRDR,02-11-2021,23:56,METAR,Normal,310,7.0,,,9999.0,,-25.0,-32.1,30.59,1040.1,,,,,,,,,,,,,,,,8000.0,8000.0,OVC,8000.0,,,,,,
KRDR,02-11-2021,22:56,METAR,Normal,300,10.0,,,9999.0,,-24.8,-32.3,30.60,1040.4,,,,,,,,,,,,,,,,8000.0,8000.0,BKN,8000.0,OVC,18000.0,,,,
KRDR,02-11-2021,21:56,METAR,Normal,300,9.0,,,9999.0,,-24.4,-32.6,30.60,1040.3,,,,,,,,,,,,,,,,18000.0,8000.0,FEW,8000.0,BKN,18000.0,,,,
KRDR,02-11-2021,20:56,METAR,Normal,300,9.0,,,9999.0,,-23.8,-32.7,30.60,1040.3,,,,,,,,,,,,,,,,18000.0,8000.0,FEW,8000.0,BKN,18000.0,,,,
KRDR,02-11-2021,19:56,METAR,Normal,300,11.0,,,9999.0,,-23.1,-32.1,30.60,1040.2,,,,,,,,,,,,,,,,18000.0,8000.0,FEW,8000.0,BKN,18000.0,,,,
KRDR,02-11-2021,18:56,METAR,Normal,310,12.0,,,9999.0,,-23.5,-32.2,30.61,1040.6,,,,,,,,,,,,,,,,18000.0,8000.0,FEW,8000.0,BKN,18000.0,,,,
KRDR,02-11-2021,17:56,METAR,Normal,300,12.0,,,9999.0,,-23.8,-31.8,30.63,1041.3,,,,,,,,,,,,,,,,18000.0,18000.0,BKN,18000.0,,,,,,
KRDR,02-11-2021,16:56,METAR,Normal,290,10.0,,,9999.0,,-24.5,-32.0,30.63,1041.3,,,,,,,,,,,,,,,4/8 Partly Cloudy,72000.0,12000.0,SCT,12000.0,,,,,,
KRDR,02-11-2021,15:56,METAR,Normal,300,10.0,,,9999.0,,-26.0,-32.3,30.63,1041.3,,,,,,,,,,,,,,,2/8 Mostly Clear,72000.0,12000.0,FEW,12000.0,,,,,,
KRDR,02-11-2021,14:56,METAR,Normal,300,7.0,,,9999.0,,-27.3,-32.3,30.62,1041.1,,,,,,,,,,,,,,,2/8 Mostly Clear,72000.0,12000.0,FEW,12000.0,,,,,,
KRDR,02-11-2021,13:56,METAR,Normal,300,6.0,,,9999.0,,-28.7,-33.0,30.60,1040.4,,,,,,,,,,,,,,,4/8 Partly Cloudy,72000.0,12000.0,SCT,12000.0,,,,,,
KRDR,02-11-2021,12:56,METAR,Normal,290,7.0,,,9999.0,,-28.0,-32.5,30.60,1040.3,,,,,,,,,,,,,,,4/8 Partly Cloudy,72000.0,12000.0,SCT,12000.0,,,,,,
KRDR,02-11-2021,10:56,METAR,Normal,290,8.0,,,9999.0,,-28.3,-32.8,30.58,1039.5,,,,,,,,,,,,,,,Clear,72000.0,,,,,,,,,
KRDR,02-11-2021,09:57,METAR,Normal,280,7.0,,,9999.0,,-28.2,-32.5,30.58,1039.4,,,,,,,,,,,,,,,Clear,72000.0,,,,,,,,,
KRDR,02-11-2021,08:56,METAR,Normal,290,7.0,,,9999.0,,-28.1,-32.1,30.58,1039.4,,,,,,,,,,,,,,,Clear,72000.0,,,,,,,,,
KRDR,02-11-2021,07:56,METAR,Normal,300,6.0,,,9999.0,,-27.4,-31.6,30.57,1039.1,,,,,,,,,,,,,,,Clear,72000.0,,,,,,,,,
KRDR,02-11-2021,06:56,METAR,Normal,310,7.0,,,9999.0,,-26.8,-31.0,30.55,1038.4,,,,,,,,,,,,,,,Clear,72000.0,,,,,,,,,
KRDR,02-11-2021,05:56,METAR,Normal,300,6.0,,,9999.0,,-27.7,-31.3,30.55,1038.5,,,,,,,,,,,,,,,Clear,72000.0,,,,,,,,,
KRDR,02-11-2021,04:56,METAR,Normal,300,5.0,,,9999.0,,-27.4,-31.2,30.54,1038.2,,,,,,,,,,,,,,,Clear,72000.0,,,,,,,,,
KRDR,02-11-2021,03:56,METAR,Normal,300,5.0,,,9999.0,,-25.8,-29.9,30.52,1037.5,,,,,,,,,,,,,,,Clear,72000.0,,,,,,,,,
KRDR,02-11-2021,02:56,METAR,Normal,290,6.0,,,9999.0,,-26.4,-29.5,30.51,1037.2,,,,,,,,,,,,,,,Clear,72000.0,,,,,,,,,
KRDR,02-11-2021,01:56,METAR,Normal,300,6.0,,,9999.0,,-25.9,-29.1,30.50,1037.0,,,,,,,,,,,,,,,2/8 Mostly Clear,72000.0,2000.0,FEW,2000.0,,,,,,
KRDR,02-11-2021,00:56,METAR,Normal,300,6.0,,,9999.0,,-24.7,-28.2,30.49,1036.6,,,,,,,,,,,,,,,2/8 Mostly Clear,72000.0,2000.0,FEW,2000.0,,,,,,
KRDR,02-10-2021,23:56,METAR,Normal,300,8.0,,,9999.0,,-23.0,-29.1,30.47,1035.8,,,,,,,,,,,,,,,2/8 Mostly Clear,72000.0,1900.0,FEW,1900.0,,,,,,
KRDR,02-10-2021,22:56,METAR,Normal,320,10.0,,,9999.0,,-21.7,-28.6,30.46,1035.3,,,,,,,,,,,,,,,4/8 Partly Cloudy,72000.0,1900.0,SCT,1900.0,,,,,,
KRDR,02-10-2021,21:56,METAR,Normal,330,10.0,,,9999.0,,-20.8,-28.4,30.44,1034.7,,,,,,,,,,,,,,,4/8 Partly Cloudy,72000.0,2600.0,SCT,2600.0,,,,,,
KRDR,02-10-2021,20:56,METAR,Normal,300,11.0,,,9999.0,,-20.5,-28.3,30.44,1034.6,,,,,,,,,,,,,,,4/8 Partly Cloudy,72000.0,2600.0,SCT,2600.0,,,,,,
KRDR,02-10-2021,19:56,METAR,Normal,310,12.0,,,9999.0,,-20.6,-28.4,30.43,1034.2,,,,,,,,,,,,,,,4/8 Partly Cloudy,72000.0,2700.0,SCT,2700.0,,,,,,
KRDR,02-10-2021,18:56,METAR,Normal,300,10.0,,,9999.0,,-20.9,-28.5,30.43,1034.2,,,,,,,,,,,,,,,2/8 Mostly Clear,72000.0,3000.0,FEW,3000.0,,,,,,
KRDR,02-10-2021,17:56,METAR,Normal,290,11.0,,,9999.0,,-21.5,-28.6,30.44,1034.6,,,,,,,,,,,,,,,2/8 Mostly Clear,72000.0,3000.0,FEW,3000.0,,,,,,
KRDR,02-10-2021,16:56,METAR,Normal,310,11.0,,,9999.0,,-22.1,-29.2,30.43,1034.2,,,,,,,,,,,,,,,Clear,72000.0,,,,,,,,,
KRDR,02-10-2021,15:56,METAR,Normal,290,11.0,,,9999.0,,-23.6,-29.5,30.42,1034.0,,,,,,,,,,,,,,,Clear,72000.0,,,,,,,,,
KRDR,02-10-2021,14:56,METAR,Normal,280,8.0,,,9999.0,,-25.1,-30.0,30.41,1033.7,,,,,,,,,,,,,,,Clear,72000.0,,,,,,,,,
KRDR,02-10-2021,13:56,METAR,Normal,280,8.0,,,9999.0,,-27.2,-30.7,30.39,1033.1,,,,,,,,,,,,,,,Clear,72000.0,,,,,,,,,
KRDR,02-10-2021,12:56,METAR,Normal,290,11.0,,,9999.0,,-26.3,-30.1,30.37,1032.4,,,,,,,,,,,,,,,Clear,72000.0,,,,,,,,,
KRDR,02-10-2021,11:56,METAR,Normal,290,10.0,,,9999.0,,-26.2,-30.3,30.36,1031.9,,,,,,,,,,,,,,,Clear,72000.0,,,,,,,,,
KRDR,02-10-2021,10:56,METAR,Normal,280,10.0,,,9999.0,,-26.3,-30.9,30.36,1031.8,,,,,,,,,,,,,,,Clear,72000.0,,,,,,,,,
KRDR,02-10-2021,09:56,METAR,Normal,280,10.0,,,9999.0,,-26.2,-30.9,30.35,1031.5,,,,,,,,,,,,,,,Clear,72000.0,,,,,,,,,
KRDR,02-10-2021,08:56,METAR,Normal,270,8.0,,,9999.0,,-25.9,-30.5,30.34,1031.1,,,,,,,,,,,,,,,Clear,72000.0,,,,,,,,,
KRDR,02-10-2021,07:56,METAR,Normal,270,9.0,,,9999.0,,-25.3,-30.2,30.34,1031.1,,,,,,,,,,,,,,,Clear,72000.0,,,,,,,,,
KRDR,02-10-2021,06:56,METAR,Normal,270,8.0,,,9999.0,,-25.2,-29.8,30.33,1030.8,,,,,,,,,,,,,,,Clear,72000.0,,,,,,,,,
KRDR,02-10-2021,05:56,METAR,Normal,270,6.0,,,9999.0,,-25.1,-29.2,30.32,1030.4,,,,,,,,,,,,,,,Clear,72000.0,,,,,,,,,
KRDR,02-10-2021,04:56,METAR,Normal,270,7.0,,,9999.0,,-24.9,-28.6,30.31,1030.1,,,,,,,,,,,,,,,Clear,72000.0,,,,,,,,,
KRDR,02-10-2021,03:56,METAR,Normal,270,6.0,,,9999.0,,-24.9,-28.4,30.30,1029.9,,,,,,,,,,,,,,,Clear,72000.0,,,,,,,,,
KRDR,02-10-2021,02:56,METAR,Normal,280,7.0,,,9999.0,,-24.8,-28.0,30.29,,,,,,,,,,,,,,,,Clear,72000.0,,,,,,,,,
KRDR,02-10-2021,01:56,METAR,Normal,290,6.0,,,9999.0,,-24.1,-27.2,30.28,1029.2,,,,,,,,,,,,,,,Clear,72000.0,,,,,,,,,
KRDR,02-10-2021,00:56,METAR,Normal,300,8.0,,,9999.0,,-23.3,-27.3,30.27,1028.7,,,,,,,,,,,,,,,Clear,72000.0,,,,,,,,,
KRDR,02-09-2021,23:56,METAR,Normal,310,9.0,,,9999.0,,-21.7,-27.1,30.26,1028.4,,,,,,,,,,,,,,,4/8 Partly Cloudy,72000.0,1900.0,SCT,1900.0,,,,,,
KRDR,02-09-2021,22:58,METAR,Normal,300,16.0,,,9999.0,,-20.8,-26.8,30.25,1028.0,,,,,,,,,,,,,,,,2700.0,2100.0,FEW,2100.0,BKN,2700.0,,,,
KRDR,02-09-2021,22:16,SPECI,Normal,290,16.0,22.0,,9999.0,,-20.0,-26.0,30.24,1027.6,,,,,,,,,,,,,,,,2900.0,2300.0,SCT,2300.0,BKN,2900.0,,,,
KRDR,02-09-2021,21:56,METAR,Normal,290,14.0,23.0,,9999.0,,-20.3,-27.1,30.24,1027.6,,,,,,,,,,,,,,,,3000.0,2300.0,SCT,2300.0,BKN,3000.0,,,,
KRDR,02-09-2021,20:56,METAR,Normal,280,17.0,24.0,,9999.0,,-19.8,-27.2,30.23,1027.3,,,,,,,,,,,,,,,,2800.0,2200.0,FEW,2200.0,BKN,2800.0,,,,
KRDR,02-09-2021,19:56,METAR,Normal,,,,,,,-20.1,-27.3,30.32,1027.3,,,,,,,,,,,,,,,,,,,,,,,,,
KRDR,02-09-2021,18:56,METAR,Normal,300,17.0,,,9999.0,,-20.3,-28.3,30.23,1027.3,,,,,,,,,,,,,,,2/8 Mostly Clear,72000.0,2500.0,FEW,2500.0,,,,,,
KRDR,02-09-2021,17:56,METAR,Normal,300,16.0,19.0,,9999.0,,-21.1,-28.6,30.22,1026.9,,,,,,,,,,,,,,,2/8 Mostly Clear,72000.0,2500.0,FEW,2500.0,,,,,,
KRDR,02-09-2021,16:56,METAR,Normal,300,18.0,22.0,,9999.0,,-21.8,-28.9,30.22,1027.0,,,,,,,,,,,,,,,4/8 Partly Cloudy,72000.0,2500.0,SCT,2500.0,,,,,,
KRDR,02-09-2021,15:57,METAR,Normal,300,18.0,24.0,,9999.0,,-22.0,-29.0,30.21,,,,,,,,,,,,,,,,Clear,72000.0,,,,,,,,,
KRDR,02-09-2021,15:56,METAR,Normal,300,20.0,24.0,,9999.0,,-22.4,-29.3,30.21,1026.6,,,,,,,,,,,,,,,Clear,72000.0,,,,,,,,,
KRDR,02-09-2021,14:57,METAR,Normal,290,16.0,22.0,,9999.0,,-23.0,-30.0,30.20,,,,,,,,,,,,,,,,Clear,72000.0,,,,,,,,,
KRDR,02-09-2021,14:56,METAR,Normal,290,13.0,22.0,,9999.0,,-23.3,-29.7,30.20,1026.3,,,,,,,,,,,,,,,Clear,72000.0,,,,,,,,,
KRDR,02-09-2021,13:56,METAR,Normal,290,12.0,20.0,,9999.0,,-24.1,-29.6,30.19,1026.1,,,,,,,,,,,,,,,Clear,72000.0,,,,,,,,,
KRDR,02-09-2021,12:56,METAR,Normal,290,15.0,19.0,,9999.0,,-23.6,-29.3,30.18,1025.7,,,,,,,,,,,,,,,,7000.0,7000.0,OVC,7000.0,,,,,,
KRDR,02-09-2021,11:56,METAR,Normal,290,16.0,24.0,,9999.0,,-23.6,-29.5,30.18,1025.7,,,,,,,,,,,,,,,Clear,72000.0,,,,,,,,,
KRDR,02-09-2021,10:56,METAR,Normal,280,13.0,,,9999.0,,-23.5,-29.4,30.18,1025.6,,,,,,,,,,,,,,,Clear,72000.0,,,,,,,,,
KRDR,02-09-2021,09:56,METAR,Normal,280,14.0,18.0,,9999.0,,-23.5,-29.5,30.18,1025.6,,,,,,,,,,,,,,,Clear,72000.0,,,,,,,,,
KRDR,02-09-2021,08:56,METAR,Normal,270,16.0,22.0,,9999.0,,-23.6,-29.6,30.19,1025.9,,,,,,,,,,,,,,,Clear,72000.0,,,,,,,,,
KRDR,02-09-2021,07:56,METAR,Normal,270,14.0,21.0,,9999.0,,-23.7,-29.7,30.19,1026.0,,,,,,,,,,,,,,,Clear,72000.0,,,,,,,,,
KRDR,02-09-2021,06:56,METAR,Normal,270,14.0,20.0,,9999.0,,-23.7,-29.7,30.19,1026.0,,,,,,,,,,,,,,,Clear,72000.0,,,,,,,,,
KRDR,02-09-2021,05:56,METAR,Normal,270,12.0,20.0,,9999.0,,-23.7,-29.5,30.20,1026.3,,,,,,,,,,,,,,,Clear,72000.0,,,,,,,,,
KRDR,02-09-2021,04:56,METAR,Normal,280,15.0,20.0,,9999.0,,-23.4,-29.4,30.20,1026.4,,,,,,,,,,,,,,,Clear,72000.0,,,,,,,,,
KRDR,02-09-2021,03:56,METAR,Normal,270,13.0,19.0,,9999.0,,-23.0,-28.9,30.20,1026.4,,,,,,,,,,,,,,,Clear,72000.0,,,,,,,,,
KRDR,02-09-2021,02:56,METAR,Normal,260,12.0,17.0,,9999.0,,-23.5,-28.7,30.20,1026.5,,,,,,,,,,,,,,,Clear,72000.0,,,,,,,,,
KRDR,02-09-2021,01:56,METAR,Normal,260,8.0,,,9999.0,,-23.9,-28.1,30.21,1027.1,,,,,,,,,,,,,,,Clear,72000.0,,,,,,,,,
KRDR,02-09-2021,00:56,METAR,Normal,260,8.0,,,9999.0,,-23.0,-27.7,30.21,1027.1,,,,,,,,,,,,,,,Clear,72000.0,,,,,,,,,
KRDR,02-08-2021,23:56,METAR,Normal,260,9.0,,,9999.0,,-22.1,-27.8,30.21,1027.0,,,,,,,,,,,,,,,2/8 Mostly Clear,72000.0,3000.0,FEW,3000.0,,,,,,
KRDR,02-08-2021,22:56,METAR,Normal,260,11.0,,,9999.0,,-21.0,-27.7,30.22,1027.2,,,,,,,,,,,,,,,Clear,72000.0,,,,,,,,,
KRDR,02-08-2021,21:56,METAR,Normal,280,13.0,,,9999.0,,-20.6,-28.2,30.23,1027.6,,,,,,,,,,,,,,,2/8 Mostly Clear,72000.0,2000.0,FEW,2000.0,,,,,,
KRDR,02-08-2021,20:56,METAR,Normal,280,14.0,,,9999.0,,-20.4,-28.0,30.24,1027.9,,,,,,,,,,,,,,,2/8 Mostly Clear,72000.0,2000.0,FEW,2000.0,,,,,,
KRDR,02-08-2021,19:56,METAR,Normal,280,12.0,,,9999.0,,-21.3,-28.2,30.25,1028.3,,,,,,,,,,,,,,,2/8 Mostly Clear,72000.0,2000.0,FEW,2000.0,FEW,25000.0,,,,
KRDR,02-08-2021,18:56,METAR,Normal,280,12.0,,,9999.0,,-22.2,-28.7,30.26,1028.6,,,,,,,,,,,,,,,2/8 Mostly Clear,72000.0,25000.0,FEW,25000.0,,,,,,
KRDR,02-08-2021,17:56,METAR,Normal,260,10.0,,,9999.0,,-22.4,-29.5,30.27,1028.9,,,,,,,,,,,,,,,2/8 Mostly Clear,72000.0,25000.0,FEW,25000.0,,,,,,
KRDR,02-08-2021,16:56,METAR,Normal,270,8.0,,,9999.0,,-24.2,-31.2,30.28,1029.4,,,,,,,,,,,,,,,2/8 Mostly Clear,72000.0,25000.0,FEW,25000.0,,,,,,
KRDR,02-08-2021,15:56,METAR,Normal,290,9.0,,,9999.0,,-26.0,-31.4,30.27,1029.1,,,,,,,,,,,,,,,Clear,72000.0,,,,,,,,,
KRDR,02-08-2021,14:56,METAR,Normal,280,8.0,,,9999.0,,-28.0,-32.0,30.26,1028.9,,,,,,,,,,,,,,,Clear,72000.0,,,,,,,,,
KRDR,02-08-2021,13:56,METAR,Normal,280,6.0,,,9999.0,,-29.6,-33.0,30.27,1029.2,,,,,,,,,,,,,,,2/8 Mostly Clear,72000.0,12000.0,FEW,12000.0,,,,,,
KRDR,02-08-2021,12:56,METAR,Normal,270,3.0,,,9999.0,,-30.1,-33.4,30.26,1028.9,,,,,,,,,,,,,,,2/8 Mostly Clear,72000.0,12000.0,FEW,12000.0,,,,,,
KRDR,02-08-2021,11:56,METAR,Normal,300,5.0,,,9999.0,,-29.4,-32.8,30.26,1028.8,,,,,,,,,,,,,,,Clear,72000.0,,,,,,,,,
KRDR,02-08-2021,10:56,METAR,Normal,250,5.0,,,9999.0,,-29.8,-32.9,30.27,1029.1,,,,,,,,,,,,,,,Clear,72000.0,,,,,,,,,
KRDR,02-08-2021,09:56,METAR,Normal,260,5.0,,,9999.0,,-29.9,-33.2,30.27,1029.1,,,,,,,,,,,,,,,Clear,72000.0,,,,,,,,,
KRDR,02-08-2021,08:56,METAR,Normal,260,5.0,,,9999.0,,-29.2,-32.5,30.28,1029.4,,,,,,,,,,,,,,,Clear,72000.0,,,,,,,,,
KRDR,02-08-2021,07:56,METAR,Normal,230,5.0,,,9999.0,,-29.5,-32.6,30.27,1029.0,,,,,,,,,,,,,,,Clear,72000.0,,,,,,,,,
KRDR,02-08-2021,06:56,METAR,Normal,250,7.0,,,9999.0,,-28.6,-31.9,30.28,1029.4,,,,,,,,,,,,,,,Clear,72000.0,,,,,,,,,
KRDR,02-08-2021,05:56,METAR,Normal,270,7.0,,,9999.0,,-28.1,-31.4,30.29,1029.8,,,,,,,,,,,,,,,Clear,72000.0,,,,,,,,,
KRDR,02-08-2021,04:56,METAR,Normal,270,5.0,,,9999.0,,-28.6,-31.5,30.29,1029.8,,,,,,,,,,,,,,,Clear,72000.0,,,,,,,,,
KRDR,02-08-2021,03:56,METAR,Normal,310,5.0,,,9999.0,,-28.0,-31.0,30.29,1029.8,,,,,,,,,,,,,,,Clear,72000.0,,,,,,,,,
KRDR,02-08-2021,02:56,METAR,Normal,300,5.0,,,9999.0,,-27.1,-30.6,30.29,1029.9,,,,,,,,,,,,,,,Clear,72000.0,,,,,,,,,
KRDR,02-08-2021,01:56,METAR,Normal,290,8.0,,,9999.0,,-25.9,-29.9,30.30,1030.3,,,,,,,,,,,,,,,Clear,72000.0,,,,,,,,,
KRDR,02-08-2021,00:56,METAR,Normal,290,6.0,,,9999.0,,-25.3,-29.4,30.30,1030.3,,,,,,,,,,,,,,,Clear,72000.0,,,,,,,,,
KRDR,02-08-2021,00:05,SPECI,Normal,300,7.0,,,9999.0,,-24.0,-29.0,30.29,1029.8,,,,,,,,,,,,,,,2/8 Mostly Clear,72000.0,1000.0,FEW,1000.0,,,,,,
KRDR,02-07-2021,23:56,METAR,Normal,300,9.0,,,9999.0,,-24.2,-29.3,30.29,1029.8,,,,,,,,,,,TRACE,,TRACE,,4/8 Partly Cloudy,72000.0,2200.0,SCT,2200.0,,,,,,
KRDR,02-07-2021,23:52,SPECI,Normal,300,9.0,,,9999.0,,-24.0,-29.0,30.29,1029.8,,,,,,,,,,,,,,,4/8 Partly Cloudy,72000.0,2200.0,SCT,2200.0,,,,,,
KRDR,02-07-2021,23:43,SPECI,Normal,310,10.0,,,9999.0,Light Snow,-24.0,-30.0,30.29,1029.8,71,,,,,,,,,,,,,,4/8 Partly Cloudy,72000.0,2300.0,SCT,2300.0,,,,,,
KRDR,02-07-2021,22:58,SPECI,Normal,300,9.0,,,9999.0,,-23.0,-29.0,30.28,1029.5,,,,,,,,,,,,,,,2/8 Mostly Clear,72000.0,1800.0,FEW,1800.0,,,,,,
KRDR,02-07-2021,22:56,METAR,Normal,300,7.0,,,9999.0,Light Snow,-23.5,-29.0,30.28,1029.5,71,,,,,,,,,,TRACE,,,,4/8 Partly Cloudy,72000.0,1800.0,SCT,1800.0,,,,,,
KRDR,02-07-2021,22:41,SPECI,Normal,300,9.0,,,9999.0,Light Snow,-23.0,-29.0,30.28,1029.5,71,,,,,,,,,,,,,,4/8 Partly Cloudy,72000.0,1800.0,SCT,1800.0,,,,,,
KRDR,02-07-2021,22:35,SPECI,Normal,300,8.0,,,9999.0,,-23.0,-29.0,30.28,1029.5,,,,,,,,,,,,,,,,1800.0,1800.0,BKN,1800.0,,,,,,
KRDR,02-07-2021,22:05,SPECI,Normal,300,9.0,,,9999.0,,-23.0,-29.0,30.28,1029.5,,,,,,,,,,,,,,,Clear,72000.0,,,,,,,,,
KRDR,02-07-2021,21:56,METAR,Normal,290,8.0,,,9999.0,Light Snow,-23.1,-29.3,30.28,1029.5,71,,,,,,,,,,TRACE,,,,2/8 Mostly Clear,72000.0,1300.0,FEW,1300.0,,,,,,
KRDR,02-07-2021,21:51,SPECI,Normal,310,8.0,,,9999.0,Light Snow,-23.0,-29.0,30.28,1029.5,71,,,,,,,,,,,,,,2/8 Mostly Clear,72000.0,1300.0,FEW,1300.0,,,,,,
KRDR,02-07-2021,20:56,METAR,Normal,290,7.0,,,9999.0,,-23.1,-29.3,30.28,1029.4,,,,,,,,,,,,,,,,25000.0,5000.0,FEW,5000.0,OVC,25000.0,,,,
KRDR,02-07-2021,19:56,METAR,Normal,300,7.0,,,9999.0,,-22.9,-30.1,30.28,1029.4,,,,,,,,,,,,,,,,19000.0,19000.0,BKN,19000.0,,,,,,
KRDR,02-07-2021,18:56,METAR,Normal,300,6.0,,,9999.0,,-23.9,-30.9,30.30,1030.1,,,,,,,,,,,,,,,,25000.0,5000.0,FEW,5000.0,BKN,25000.0,,,,
KRDR,02-07-2021,17:56,METAR,Normal,310,4.0,,,9999.0,,-25.4,-31.5,30.33,1031.2,,,,,,,,,,,,,,,Clear,72000.0,,,,,,,,,
KRDR,02-07-2021,16:56,METAR,Normal,310,4.0,,,9999.0,,-25.7,-31.8,30.33,1031.2,,,,,,,,,,,,,,,4/8 Partly Cloudy,72000.0,25000.0,SCT,25000.0,,,,,,
KRDR,02-07-2021,15:56,METAR,Normal,350,6.0,,,9999.0,,-26.9,-33.0,30.33,1031.2,,,,,,,,,,,,,,,4/8 Partly Cloudy,72000.0,25000.0,SCT,25000.0,,,,,,
KRDR,02-07-2021,14:56,METAR,Normal,310,7.0,,,9999.0,,-28.6,-33.1,30.32,1030.9,,,,,,,,,,,,,,,Clear,72000.0,,,,,,,,,
KRDR,02-07-2021,13:56,METAR,Normal,300,6.0,,,9999.0,,-30.3,-34.0,30.29,1029.9,,,,,,,,,,,,,,,Clear,72000.0,,,,,,,,,
KRDR,02-07-2021,12:56,METAR,Normal,300,5.0,,,9999.0,,-30.3,-34.0,30.28,1029.6,,,,,,,,,,,,,,,Clear,72000.0,,,,,,,,,
KRDR,02-07-2021,11:56,METAR,Normal,310,7.0,,,9999.0,,-30.4,-33.9,30.28,1029.5,,,,,,,,,,,,,,,Clear,72000.0,,,,,,,,,
KRDR,02-07-2021,10:56,METAR,Normal,300,7.0,,,9999.0,,-30.5,-34.0,30.27,1029.1,,,,,,,,,,,,,,,Clear,72000.0,,,,,,,,,
KRDR,02-07-2021,09:56,METAR,Normal,300,6.0,,,9999.0,,-30.5,-33.8,30.26,1028.8,,,,,,,,,,,,,,,Clear,72000.0,,,,,,,,,
KRDR,02-07-2021,08:56,METAR,Normal,300,6.0,,,9999.0,,-29.9,-33.3,30.27,1029.1,,,,,,,,,,,,,,,Clear,72000.0,,,,,,,,,
KRDR,02-07-2021,07:56,METAR,Normal,300,7.0,,,9999.0,,-29.2,-32.9,30.25,1028.4,,,,,,,,,,,,,,,Clear,72000.0,,,,,,,,,
KRDR,02-07-2021,06:56,METAR,Normal,320,8.0,,,9999.0,,-28.4,-32.4,30.24,1028.0,,,,,,,,,,,,,,,Clear,72000.0,,,,,,,,,
KRDR,02-07-2021,05:56,METAR,Normal,310,7.0,,,9999.0,,-28.1,-32.0,30.23,1027.7,,,,,,,,,,,,,,,Clear,72000.0,,,,,,,,,
KRDR,02-07-2021,04:56,METAR,Normal,320,7.0,,,9999.0,,-27.7,-31.6,30.21,1027.1,,,,,,,,,,,,,,,Clear,72000.0,,,,,,,,,
KRDR,02-07-2021,03:56,METAR,Normal,320,8.0,,,9999.0,,-27.7,-31.2,30.20,1026.7,,,,,,,,,,,,,,,Clear,72000.0,,,,,,,,,
KRDR,02-07-2021,02:56,METAR,Normal,300,7.0,,,9999.0,,-27.1,-30.7,30.20,1026.7,,,,,,,,,,,,,,,Clear,72000.0,,,,,,,,,
KRDR,02-07-2021,01:56,METAR,Normal,320,10.0,,,9999.0,,-26.2,-30.3,30.19,1026.4,,,,,,,,,,,,,,,Clear,72000.0,,,,,,,,,
KRDR,02-07-2021,00:56,METAR,Normal,320,8.0,,,9999.0,,-25.5,-29.9,30.19,1026.3,,,,,,,,,,,,,,,Clear,72000.0,,,,,,,,,
KRDR,02-06-2021,23:56,METAR,Normal,320,11.0,,,9999.0,,-24.8,-29.9,30.18,1026.0,,,,,,,,,,,,,,,Clear,72000.0,,,,,,,,,
KRDR,02-06-2021,22:56,METAR,Normal,310,13.0,,,9999.0,,-23.9,-30.1,30.19,1026.2,,,,,,,,,,,,,,,Clear,72000.0,,,,,,,,,
KRDR,02-06-2021,21:56,METAR,Normal,310,13.0,,,9999.0,,-23.1,-29.9,30.18,1025.8,,,,,,,,,,,,,,,Clear,72000.0,,,,,,,,,
KRDR,02-06-2021,20:56,METAR,Normal,320,12.0,,,9999.0,,-23.2,-30.0,30.18,1025.7,,,,,,,,,,,,,,,Clear,72000.0,,,,,,,,,
KRDR,02-06-2021,19:56,METAR,Normal,330,13.0,,,9999.0,,-23.5,-30.3,30.19,1026.0,,,,,,,,,,,,,,,Clear,72000.0,,,,,,,,,
KRDR,02-06-2021,18:56,METAR,Normal,320,16.0,21.0,,9999.0,,-23.9,-30.5,30.20,1026.3,,,,,,,,,,,,,,,Clear,72000.0,,,,,,,,,
KRDR,02-06-2021,17:56,METAR,Normal,310,15.0,,,9999.0,,-24.2,-30.6,30.21,1026.7,,,,,,,,,,,,,,,Clear,72000.0,,,,,,,,,
KRDR,02-06-2021,16:56,METAR,Normal,330,17.0,,,9999.0,,-25.1,-31.2,30.21,1026.7,,,,,,,,,,,,,,,Clear,72000.0,,,,,,,,,
KRDR,02-06-2021,15:56,METAR,Normal,320,12.0,,,9999.0,,-26.1,-31.8,30.21,1026.7,,,,,,,,,,,,,,,Clear,72000.0,,,,,,,,,
KRDR,02-06-2021,14:56,METAR,Normal,320,14.0,,,9999.0,,-27.1,-32.0,30.18,1025.8,,,,,,,,,,,,,,,Clear,72000.0,,,,,,,,,
KRDR,02-06-2021,13:56,METAR,Normal,320,12.0,,,9999.0,,-27.7,-31.7,30.18,1025.8,,,,,,,,,,,,,,,Clear,72000.0,,,,,,,,,
KRDR,02-06-2021,12:56,METAR,Normal,310,10.0,,,9999.0,,-27.3,-31.1,30.16,1025.0,,,,,,,,,,,,,,,Clear,72000.0,,,,,,,,,
KRDR,02-06-2021,11:56,METAR,Normal,310,8.0,,,9999.0,,-26.8,-30.4,30.14,1024.2,,,,,,,,,,,,,,,4/8 Partly Cloudy,72000.0,1100.0,SCT,1100.0,,,,,,
KRDR,02-06-2021,10:56,METAR,Normal,330,14.0,,,9999.0,,-25.7,-30.1,30.12,1023.4,,,,,,,,,,,,,,,4/8 Partly Cloudy,72000.0,1000.0,SCT,1000.0,,,,,,
KRDR,02-06-2021,10:12,SPECI,Normal,330,14.0,,,9999.0,,-25.0,-29.0,30.10,1022.6,,,,,,,,,,,,,,,,1000.0,1000.0,BKN,1000.0,OVC,1700.0,,,,
KRDR,02-06-2021,10:06,SPECI,Normal,330,15.0,19.0,,9999.0,,-25.0,-29.0,30.10,1022.6,,,,,,,,,,,,,,,,1000.0,1200.0,BKN,1200.0,BKN,1700.0,,,,
KRDR,02-06-2021,09:56,METAR,Normal,320,11.0,23.0,330/27KTS,9999.0,,-24.7,-29.3,30.10,1022.6,,,,,,,,,,,,,,,,1200.0,1600.0,BKN,1600.0,,,,,,
KRDR,02-06-2021,08:56,METAR,Normal,350,13.0,19.0,,9999.0,,-23.6,-28.4,30.07,1021.5,,,,,,,,,,,,,,,2/8 Mostly Clear,72000.0,2000.0,FEW,2000.0,,,,,,
KRDR,02-06-2021,08:38,SPECI,Normal,340,15.0,20.0,,9999.0,,-24.0,-27.0,30.06,1021.2,,,,,,,,,,,,,,,4/8 Partly Cloudy,72000.0,800.0,FEW,800.0,SCT,1200.0,SCT,2100.0,,
KRDR,02-06-2021,07:56,METAR,Normal,310,11.0,,,9999.0,,-23.4,-26.4,30.07,1021.5,,,,,,,,,,,,,,,2/8 Mostly Clear,72000.0,1500.0,FEW,1500.0,,,,,,
KRDR,02-06-2021,06:56,METAR,Normal,330,12.0,22.0,,9999.0,,-22.4,-26.1,30.05,1020.7,,,,,,,,,,,,,,,Clear,72000.0,,,,,,,,,
KRDR,02-06-2021,05:56,METAR,Normal,320,10.0,,,9999.0,,-21.8,-25.3,30.02,1019.8,,,,,,,,,,,,,TRACE,,2/8 Mostly Clear,72000.0,3100.0,FEW,3100.0,,,,,,
KRDR,02-06-2021,04:56,METAR,Normal,320,9.0,,,9999.0,,-21.4,-24.6,29.98,1018.4,,,,,,,,,,,,,,,Clear,72000.0,,,,,,,,,
KRDR,02-06-2021,03:54,METAR,Normal,330,8.0,,,9999.0,,-21.0,-24.2,29.96,1017.8,,,,,,,,,,,,,,,4/8 Partly Cloudy,72000.0,3100.0,SCT,3100.0,,,,,,
KRDR,02-06-2021,02:56,METAR,Normal,330,8.0,,,9999.0,,-20.5,-23.3,29.95,1017.4,,,,,,,,,,,,TRACE,,,2/8 Mostly Clear,72000.0,6500.0,FEW,6500.0,,,,,,
KRDR,02-06-2021,01:56,METAR,Normal,330,9.0,,,9999.0,,-19.3,-22.5,29.93,1016.7,,,,,,,,,,,,,,,2/8 Mostly Clear,72000.0,6500.0,FEW,6500.0,,,,,,
KRDR,02-06-2021,00:56,METAR,Normal,340,8.0,,,9999.0,,-18.6,-22.3,29.91,1016.0,,,,,,,,,,,,,,,4/8 Partly Cloudy,72000.0,6500.0,SCT,6500.0,,,,,,
KRDR,02-05-2021,23:56,METAR,Normal,340,14.0,,,9999.0,,-17.3,-22.2,29.88,1014.8,,,,,,,,,,,,,TRACE,,2/8 Mostly Clear,72000.0,7000.0,FEW,7000.0,,,,,,
KRDR,02-05-2021,22:58,METAR,Normal,330,17.0,24.0,,9999.0,,-16.3,-21.6,29.86,1014.2,,,,,,,,,,,,,,,2/8 Mostly Clear,72000.0,7000.0,FEW,7000.0,,,,,,
KRDR,02-05-2021,21:56,METAR,Normal,320,18.0,21.0,,9999.0,Light Snow,-15.5,-20.5,29.84,1013.4,71,,,,,,,,,,TRACE,,,,,7000.0,2300.0,FEW,2300.0,BKN,7000.0,,,,
KRDR,02-05-2021,20:56,METAR,Normal,320,15.0,23.0,,9999.0,Light Snow,-15.0,-19.8,29.81,1012.4,71,,,,,,,,,,,TRACE,,,,7000.0,1700.0,FEW,1700.0,SCT,2500.0,OVC,7000.0,,
KRDR,02-05-2021,19:56,METAR,Normal,330,17.0,21.0,,9999.0,Light Snow,-14.9,-19.2,29.80,1012.0,71,,,,,,,,,,TRACE,,,,,7000.0,2000.0,SCT,2000.0,OVC,7000.0,,,,
KRDR,02-05-2021,19:39,SPECI,Normal,320,15.0,,,9999.0,Light Snow,-15.0,-19.0,29.79,1011.7,71,,,,,,,,,,,,,,,2000.0,2000.0,BKN,2000.0,BKN,7000.0,,,,
KRDR,02-05-2021,18:56,METAR,Normal,340,14.0,20.0,,9999.0,Light Snow,-14.9,-19.5,29.79,1011.7,71,,,,,,,,,,TRACE,,,,4/8 Partly Cloudy,72000.0,2000.0,SCT,2000.0,SCT,6000.0,,,,
KRDR,02-05-2021,17:56,METAR,Normal,330,15.0,,,9999.0,,-15.3,-19.7,29.79,1011.6,,,,,,,,,,,,,TRACE,,4/8 Partly Cloudy,72000.0,1900.0,FEW,1900.0,SCT,6000.0,,,,
KRDR,02-05-2021,16:56,METAR,Normal,330,18.0,21.0,340/26KTS,9999.0,,-15.9,-20.3,29.77,1010.9,,,,,,,,,,,,,,,4/8 Partly Cloudy,72000.0,2000.0,FEW,2000.0,SCT,4000.0,,,,
KRDR,02-05-2021,15:56,METAR,Normal,330,15.0,21.0,,9999.0,,-17.1,-21.2,29.76,1010.7,,,,,,,,,,,,,,,2/8 Mostly Clear,72000.0,1200.0,FEW,1200.0,FEW,5000.0,,,,
KRDR,02-05-2021,14:56,METAR,Normal,320,15.0,,,9999.0,,-18.1,-21.3,29.76,1010.7,,,,,,,,,,,,TRACE,,,2/8 Mostly Clear,72000.0,5000.0,FEW,5000.0,,,,,,
KRDR,02-05-2021,13:56,METAR,Normal,320,12.0,,,9999.0,,-18.5,-21.3,29.75,1010.3,,,,,,,,,,,,,,,4/8 Partly Cloudy,72000.0,1000.0,SCT,1000.0,,,,,,
KRDR,02-05-2021,12:56,METAR,Normal,320,13.0,,,9999.0,,-18.2,-21.0,29.75,1010.3,,,,,,,,,,,TRACE,,,,4/8 Partly Cloudy,72000.0,1300.0,SCT,1300.0,,,,,,
KRDR,02-05-2021,12:54,SPECI,Normal,320,12.0,,,9999.0,,-18.0,-21.0,29.75,1010.3,,,,,,,,,,,,,,,4/8 Partly Cloudy,72000.0,1300.0,SCT,1300.0,,,,,,
KRDR,02-05-2021,11:56,METAR,Normal,320,11.0,,,9999.0,Light Snow,-17.4,-19.8,29.75,1010.2,71,,,,,,,,,,TRACE,,TRACE,,,1000.0,1000.0,SCT,1000.0,OVC,1800.0,,,,
KRDR,02-05-2021,11:06,SPECI,Normal,320,11.0,,,9999.0,Light Snow,-17.0,-20.0,29.74,1009.9,71,,,,,,,,,,,,,,4/8 Partly Cloudy,72000.0,1300.0,FEW,1300.0,FEW,1800.0,SCT,2400.0,SCT,10000.0
KRDR,02-05-2021,10:56,METAR,Normal,330,13.0,,,9999.0,,-17.4,-20.2,29.74,1009.9,,,,,,,,,,,,,,,4/8 Partly Cloudy,72000.0,1200.0,FEW,1200.0,FEW,2400.0,SCT,10000.0,,
KRDR,02-05-2021,10:42,SPECI,Normal,320,12.0,,,9999.0,,-17.0,-20.0,29.73,1009.5,,,,,,,,,,,,,,,,10000.0,1100.0,FEW,1100.0,SCT,2500.0,BKN,10000.0,,
KRDR,02-05-2021,09:56,METAR,Normal,320,14.0,,,9999.0,,-17.4,-20.2,29.72,1009.2,,,,,,,,,,,TRACE,,,,2/8 Mostly Clear,72000.0,8500.0,FEW,8600.0,,,,,,
KRDR,02-05-2021,08:56,METAR,Normal,310,14.0,21.0,,9999.0,Light Snow,-16.8,-19.6,29.71,1008.9,71,,,,,,,,,,TRACE,TRACE,,,,8500.0,1000.0,FEW,1000.0,FEW,2900.0,OVC,8600.0,,
KRDR,02-05-2021,08:46,SPECI,Normal,310,16.0,21.0,,9999.0,Light Snow,-17.0,-19.0,29.71,1008.9,71,,,,,,,,,,,,,,,8500.0,2900.0,FEW,2900.0,OVC,8600.0,,,,
KRDR,02-05-2021,07:56,METAR,Normal,310,14.0,,,9999.0,Light Snow,-16.9,-19.6,29.70,1008.5,71,,,,,,,,,,TRACE,,,,,800.0,800.0,BKN,800.0,OVC,1200.0,,,,
KRDR,02-05-2021,07:39,SPECI,Normal,310,13.0,,,9999.0,Light Snow,-16.0,-19.0,29.70,1008.4,71,,,,,,,,,,,,,,,1100.0,1100.0,BKN,1100.0,OVC,8000.0,,,,
KRDR,02-05-2021,07:00,SPECI,Normal,310,14.0,,,9999.0,Light Snow,-16.0,-19.0,29.70,1008.4,71,,,,,,,,,,,,,,,8500.0,8500.0,OVC,8600.0,,,,,,
KRDR,02-05-2021,06:56,METAR,Normal,300,12.0,,,9999.0,,-16.3,-18.8,29.70,1008.4,,,,,,,,,,,,,,,,8000.0,8000.0,OVC,8000.0,,,,,,
KRDR,02-05-2021,05:56,METAR,Normal,320,14.0,,,9999.0,,-15.0,-17.9,29.70,1008.4,,,,,,,,,,,TRACE,,TRACE,,,7500.0,1000.0,SCT,1000.0,OVC,7500.0,,,,
KRDR,02-05-2021,04:56,METAR,Normal,330,12.0,,,9999.0,Light Snow,-14.5,-17.2,29.70,1008.4,71,,,,,,,,,,TRACE,,,,,7000.0,7000.0,OVC,7000.0,,,,,,
KRDR,02-05-2021,04:20,SPECI,Normal,330,16.0,,,9999.0,Light Snow,-14.0,-17.0,29.70,1008.4,71,,,,,,,,,,,,,,,7000.0,1200.0,FEW,1200.0,OVC,7000.0,,,,
KRDR,02-05-2021,03:55,METAR,Normal,320,15.0,,,9999.0,,-14.4,-17.1,29.70,1008.4,,,,,,,,,,,,,,,,7000.0,1300.0,FEW,1300.0,OVC,7000.0,,,,
KRDR,02-05-2021,02:56,METAR,Normal,320,15.0,20.0,,9999.0,,-14.4,-17.4,29.70,1008.4,,,,,,,,,,,,TRACE,,,,7000.0,7000.0,OVC,7000.0,,,,,,
KRDR,02-05-2021,01:56,METAR,Normal,320,19.0,25.0,320/26KTS,9999.0,,-14.2,-17.5,29.70,1008.4,,,,,,,,,,,TRACE,,,,,6000.0,1300.0,FEW,1300.0,OVC,6000.0,,,,
KRDR,02-05-2021,01:40,SPECI,Normal,320,17.0,26.0,,9999.0,,-14.0,-17.0,29.70,1008.4,,,,,,,,,,,,,,,,6000.0,6000.0,OVC,6000.0,,,,,,
KRDR,02-05-2021,00:56,METAR,Normal,320,17.0,23.0,320/26KTS,9999.0,Light Snow,-13.9,-17.1,29.71,1008.7,71,,,,,,,,,,,,,,,6500.0,6500.0,OVC,6500.0,,,,,,
KRDR,02-05-2021,00:49,SPECI,Normal,320,20.0,24.0,,9999.0,Light Snow,-14.0,-17.0,29.71,1008.7,71,,,,,,,,,,,,,,,6500.0,6500.0,OVC,6500.0,,,,,,
KRDR,02-04-2021,23:56,METAR,Normal,310,17.0,,,9999.0,,-13.8,-17.2,29.71,1008.7,,,,,,,,,,,,,TRACE,,,6500.0,6500.0,OVC,6500.0,,,,,,
KRDR,02-04-2021,22:56,METAR,Normal,320,18.0,24.0,320/26KTS,9999.0,,-13.7,-17.5,29.70,1008.3,,,,,,,,,,,,,,,4/8 Partly Cloudy,72000.0,7000.0,SCT,7000.0,,,,,,
KRDR,02-04-2021,21:56,METAR,Normal,320,17.0,22.0,,9999.0,Blowing or Drifting Snow or Sand,-12.5,-16.4,29.69,1007.8,27,,,,,,,,,,,,,,,2600.0,1800.0,SCT,1800.0,BKN,2600.0,BKN,5000.0,,
KRDR,02-04-2021,20:56,METAR,Normal,310,20.0,,310/26KTS,9999.0,,-12.6,-16.6,29.68,1007.5,,,,,,,,,,,TRACE,TRACE,,,,1300.0,1300.0,BKN,1300.0,BKN,3200.0,,,,
KRDR,02-04-2021,20:53,SPECI,Normal,310,19.0,,,9999.0,,-13.0,-17.0,29.68,1007.5,,,,,,,,,,,,,,,,1300.0,1300.0,BKN,1300.0,BKN,3200.0,,,,
KRDR,02-04-2021,19:56,METAR,Normal,310,18.0,26.0,330/27KTS,6400.0,Light Snow/Blowing or Drifting Snow or Sand,-12.2,-15.9,29.69,1007.7,71,27,,,,,,,,,TRACE,,,,,1400.0,1400.0,BKN,1400.0,BKN,3500.0,,,,
KRDR,02-04-2021,19:54,SPECI,Normal,310,18.0,26.0,,6400.0,Light Snow/Blowing or Drifting Snow or Sand,-12.0,-16.0,29.69,1007.7,71,27,,,,,,,,,,,,,,1400.0,1400.0,BKN,1400.0,BKN,3500.0,,,,
KRDR,02-04-2021,19:07,SPECI,Normal,310,20.0,26.0,,4800.0,Light Snow/Blowing or Drifting Snow or Sand,-13.0,-16.0,29.70,1008.1,71,27,,,,,,,,,,,,,,1000.0,1000.0,OVC,1000.0,,,,,,
KRDR,02-04-2021,18:56,METAR,Normal,310,20.0,24.0,320/27KTS,4800.0,Light Snow/Blowing or Drifting Snow or Sand,-13.0,-16.1,29.71,1008.4,71,27,,,,,,,,,TRACE,,,,,3500.0,1100.0,FEW,1100.0,OVC,3500.0,,,,
KRDR,02-04-2021,18:52,SPECI,Normal,310,21.0,24.0,,4800.0,Light Snow/Blowing or Drifting Snow or Sand,-13.0,-16.0,29.71,1008.4,71,27,,,,,,,,,,,,,,3500.0,1000.0,FEW,1000.0,OVC,3500.0,,,,
KRDR,02-04-2021,18:31,SPECI,Normal,310,18.0,24.0,,4400.0,Light Snow/Blowing or Drifting Snow or Sand,-13.0,-16.0,29.72,1008.8,71,27,,,,,,,,,,,,,,2900.0,1500.0,FEW,1500.0,OVC,2900.0,,,,
KRDR,02-04-2021,18:18,SPECI,Normal,310,20.0,25.0,,6400.0,Light Snow/Blowing or Drifting Snow or Sand,-13.0,-16.0,29.73,1009.1,71,27,,,,,,,,,,,,,,2600.0,1500.0,FEW,1500.0,OVC,2600.0,,,,
KRDR,02-04-2021,17:56,METAR,Normal,310,21.0,27.0,320/27KTS,9999.0,Light Snow,-12.9,-16.9,29.73,1009.1,71,,,,,,,,,,TRACE,,,,,2500.0,1600.0,FEW,1600.0,BKN,2500.0,OVC,5000.0,,
KRDR,02-04-2021,17:36,SPECI,Normal,310,16.0,22.0,,9999.0,,-13.0,-17.0,29.74,1009.4,,,,,,,,,,,,,,,,2600.0,2600.0,BKN,2600.0,BKN,5000.0,,,,
KRDR,02-04-2021,16:56,METAR,Normal,300,18.0,24.0,320/27KTS,9999.0,,-14.0,-18.0,29.74,1009.4,,,,,,,,,,,,,,,4/8 Partly Cloudy,72000.0,2600.0,FEW,2600.0,SCT,5000.0,,,,
KRDR,02-04-2021,15:56,METAR,Normal,300,18.0,22.0,,9999.0,,-14.0,-17.5,29.74,1009.4,,,,,,,,,,,,,,,4/8 Partly Cloudy,72000.0,5000.0,SCT,5000.0,,,,,,
KRDR,02-04-2021,14:56,METAR,Normal,300,16.0,22.0,,9999.0,,-14.2,-16.9,29.74,1009.3,,,,,,,,,,,,,,,,4600.0,4600.0,BKN,4600.0,,,,,,
KRDR,02-04-2021,14:12,SPECI,Normal,300,16.0,22.0,,9999.0,,-14.0,-17.0,29.74,1009.4,,,,,,,,,,,,,,,,4600.0,4600.0,OVC,4600.0,,,,,,
KRDR,02-04-2021,13:56,METAR,Normal,300,16.0,22.0,,9999.0,,-14.0,-17.0,29.74,1009.4,,,,,,,,,,,,,,,,4600.0,4600.0,OVC,4600.0,,,,,,
KRDR,02-04-2021,12:56,METAR,Normal,310,17.0,29.0,310/29KTS,9999.0,,-13.0,-15.2,29.73,1009.0,,,,,,,,,,,,,,,,1400.0,1900.0,BKN,1900.0,OVC,2500.0,,,,
KRDR,02-04-2021,11:56,METAR,Normal,310,17.0,29.0,310/29KTS,9999.0,Blowing or Drifting Snow or Sand,-11.2,-13.1,29.71,1008.2,27,,,,,,,,,,.01 IN,,.01 IN,,,700.0,800.0,BKN,800.0,OVC,1500.0,,,,
KRDR,02-04-2021,10:56,METAR,Normal,310,17.0,22.0,310/27KTS,9999.0,Blowing or Drifting Snow or Sand,-10.7,-12.5,29.73,1008.9,27,,,,,,,,,,TRACE,,,,,1000.0,1000.0,BKN,1000.0,OVC,1500.0,,,,
KRDR,02-04-2021,09:56,METAR,Normal,310,20.0,29.0,320/29KTS,9999.0,Light Snow,-9.9,-12.0,29.72,1008.5,71,,,,,,,,,,TRACE,,,,,1000.0,1200.0,FEW,1200.0,BKN,1900.0,OVC,3800.0,,
KRDR,02-04-2021,09:37,SPECI,Normal,310,18.0,27.0,,9999.0,Light Snow,-10.0,-12.0,29.71,1008.1,,,,71,,,,,,,,,,,,4000.0,4000.0,BKN,4000.0,OVC,4800.0,,,,
KRDR,02-04-2021,08:56,METAR,Normal,310,17.0,26.0,310/26KTS,9999.0,,-9.4,-11.2,29.71,1008.1,,,,,,,,,,,,TRACE,,,,4900.0,4900.0,OVC,4900.0,,,,,,
KRDR,02-04-2021,07:56,METAR,Normal,320,18.0,25.0,320/29KTS,9999.0,,-8.1,-9.6,29.68,1007.0,,,,,,,,,,,TRACE,,,,,5000.0,5000.0,BKN,5000.0,OVC,12000.0,,,,
KRDR,02-04-2021,06:56,METAR,Normal,310,16.0,27.0,310/27KTS,9999.0,Light Snow,-6.7,-7.7,29.67,1006.7,71,,,,,,,,,,TRACE,,,,,1900.0,2100.0,OVC,2100.0,,,,,,
KRDR,02-04-2021,05:55,METAR,Normal,320,18.0,25.0,320/27KTS,6400.0,Light Snow/Blowing Snow,-6.1,-6.6,29.63,1005.3,,,,71,38,,,,,,TRACE,,TRACE,,,3200.0,1400.0,FEW,1400.0,SCT,2200.0,BKN,3200.0,OVC,9100.0
KRDR,02-04-2021,04:56,METAR,Normal,330,19.0,23.0,320/26KTS,4800.0,Light Snow/Blowing or Drifting Snow or Sand,-3.9,-4.0,29.60,1004.2,71,27,,,,,,,,,TRACE,,,,,3000.0,3000.0,BKN,3000.0,OVC,4500.0,,,,
KRDR,02-04-2021,03:56,METAR,Normal,320,15.0,,,4800.0,Light Snow/Blowing or Drifting Snow or Sand,-3.1,-3.2,29.59,1003.8,71,27,,,,,,,,,TRACE,,,,,1600.0,300.0,FEW,300.0,OVC,1600.0,,,,
KRDR,02-04-2021,03:39,SPECI,Normal,330,16.0,,,6400.0,Light Snow,-3.0,-3.0,29.58,1003.4,71,,,,,,,,,,,,,,,1400.0,1400.0,OVC,1400.0,,,,,,
KRDR,02-04-2021,03:24,SPECI,Normal,330,13.0,19.0,,9999.0,Light Snow,-3.0,-3.0,29.57,1003.1,71,,,,,,,,,,,,,,,1400.0,1400.0,OVC,1400.0,,,,,,
KRDR,02-04-2021,02:56,METAR,Normal,320,10.0,,,9999.0,Light Snow,-2.9,-3.0,29.58,1003.5,71,,,,,,,,,,TRACE,TRACE,,,,1100.0,1100.0,OVC,1100.0,,,,,,
KRDR,02-04-2021,02:37,SPECI,Normal,320,10.0,,,8000.0,Light Snow,-3.0,-3.0,29.58,1003.5,71,,,,,,,,,,,,,,,900.0,900.0,OVC,900.0,,,,,,
KRDR,02-04-2021,02:07,SPECI,Normal,310,11.0,,,6400.0,Light Snow,-3.0,-3.0,29.59,1003.9,71,,,,,,,,,,,,,,,1000.0,200.0,FEW,200.0,BKN,1000.0,OVC,1600.0,,
KRDR,02-04-2021,01:56,METAR,Normal,310,12.0,,,1600.0,Light Snow,-3.1,-3.1,29.59,1003.9,71,,,,,,,,,,TRACE,,,,,1000.0,200.0,SCT,200.0,OVC,1000.0,,,,
KRDR,02-04-2021,01:54,SPECI,Normal,320,12.0,,,1600.0,Snow,-3.0,-3.0,29.59,1003.9,72,,,,,,,,,,,,,,,1000.0,200.0,SCT,200.0,OVC,1000.0,,,,
KRDR,02-04-2021,01:29,SPECI,Normal,300,8.0,,,8000.0,Light Snow/Mist,-3.0,-3.0,29.58,1003.5,71,10,,,,,,,,,,,,,,1000.0,1100.0,OVC,1100.0,,,,,,
KRDR,02-04-2021,01:06,SPECI,Normal,190,7.0,,,9999.0,Mist,-3.0,-3.0,29.58,1003.5,10,,,,,,,,,,,,,,,900.0,1100.0,OVC,1100.0,,,,,,
KRDR,02-04-2021,00:56,METAR,Normal,180,7.0,,,8000.0,Mist,-3.3,-3.3,29.58,1003.5,10,,,,,,,,,,,,,,,700.0,900.0,OVC,900.0,,,,,,
KRDR,02-03-2021,23:56,METAR,Normal,180,9.0,,,6400.0,Mist,-3.5,-3.5,29.57,1003.2,10,,,,,,,,,,,,,,,300.0,400.0,OVC,400.0,,,,,,
KRDR,02-03-2021,23:16,SPECI,Normal,170,8.0,,,6400.0,Mist,-3.0,-3.0,29.57,1003.2,10,,,,,,,,,,,,,,,400.0,400.0,OVC,400.0,,,,,,
KRDR,02-03-2021,22:56,METAR,Normal,170,9.0,,,8000.0,Mist,-3.4,-3.4,29.57,1003.2,10,,,,,,,,,,,,,,,500.0,500.0,OVC,500.0,,,,,,
KRDR,02-03-2021,22:51,SPECI,Normal,170,10.0,,,8000.0,Mist,-3.0,-3.0,29.57,1003.2,10,,,,,,,,,,,,,,,500.0,500.0,OVC,500.0,,,,,,
KRDR,02-03-2021,21:59,METAR,Normal,170,8.0,,,8000.0,Mist,-2.5,-2.6,29.58,1003.4,10,,,,,,,,,,,,,,,600.0,600.0,OVC,600.0,,,,,,
KRDR,02-03-2021,20:56,METAR,Normal,180,9.0,,,9999.0,Blowing or Drifting Snow or Sand,-2.7,-2.8,29.59,1003.9,27,,,,,,,,,,,,,,,600.0,600.0,OVC,600.0,,,,,,
KRDR,02-03-2021,20:48,SPECI,Normal,180,8.0,,,9999.0,Blowing or Drifting Snow or Sand,-3.0,-3.0,29.59,1003.9,27,,,,,,,,,,,,,,,600.0,600.0,OVC,600.0,,,,,,
KRDR,02-03-2021,19:56,METAR,Normal,160,9.0,,,9999.0,Blowing or Drifting Snow or Sand,-2.1,-2.2,29.60,1004.1,27,,,,,,,,,,,,,,,800.0,800.0,OVC,800.0,,,,,,
KRDR,02-03-2021,18:56,METAR,Normal,190,13.0,,,6400.0,Blowing Snow,-2.4,-2.5,29.61,1004.5,,,,38,,,,,,,,,,,,900.0,900.0,OVC,900.0,,,,,,
KRDR,02-03-2021,17:56,METAR,Normal,180,16.0,,,4800.0,Blowing or Drifting Snow or Sand,-3.1,-3.2,29.64,1005.6,27,,,,,,,,,,,,TRACE,,,800.0,800.0,OVC,800.0,,,,,,
KRDR,02-03-2021,16:54,METAR,Normal,180,17.0,,,4800.0,Blowing or Drifting Snow or Sand,-3.5,-3.6,29.67,1006.6,27,,,,,,,,,,,,,,,800.0,800.0,OVC,800.0,,,,,,
KRDR,02-03-2021,15:56,METAR,Normal,180,14.0,,,4800.0,Blowing or Drifting Snow or Sand,-3.8,-3.9,29.69,1007.3,27,,,,,,,,,,,,,,,800.0,800.0,OVC,800.0,,,,,,
KRDR,02-03-2021,15:18,SPECI,Normal,190,16.0,20.0,,6400.0,Blowing or Drifting Snow or Sand,-4.0,-4.0,29.70,1007.6,27,,,,,,,,,,,,,,,800.0,800.0,OVC,800.0,,,,,,
KRDR,02-03-2021,14:56,METAR,Normal,180,19.0,,,6400.0,Blowing or Drifting Snow or Sand,-4.1,-4.2,29.71,1008.0,27,,,,,,,,,,TRACE,TRACE,,,,900.0,900.0,OVC,900.0,,,,,,
KRDR,02-03-2021,14:52,SPECI,Normal,180,15.0,,,6400.0,Blowing or Drifting Snow or Sand,-4.0,-4.0,29.71,1008.0,27,,,,,,,,,,,,,,,900.0,900.0,OVC,900.0,,,,,,
KRDR,02-03-2021,14:28,SPECI,Normal,190,18.0,22.0,,6400.0,Light Snow/Blowing or Drifting Snow or Sand,-4.0,-4.0,29.72,1008.3,71,27,,,,,,,,,,,,,,300.0,300.0,OVC,300.0,,,,,,
KRDR,02-03-2021,14:26,SPECI,Normal,190,14.0,,,4400.0,Light Snow/Blowing or Drifting Snow or Sand,-4.0,-4.0,29.72,1008.3,71,27,,,,,,,,,,,,,,300.0,300.0,OVC,300.0,,,,,,
KRDR,02-03-2021,14:22,SPECI,Normal,180,12.0,,,3600.0,Mist,-4.0,-4.0,29.71,1008.0,10,,,,,,,,,,,,,,,400.0,300.0,FEW,300.0,OVC,1000.0,,,,
KRDR,02-03-2021,14:12,SPECI,Normal,180,13.0,,,6400.0,Mist,-4.0,-4.0,29.72,1008.3,10,,,,,,,,,,,,,,,900.0,300.0,FEW,300.0,OVC,1000.0,,,,
KRDR,02-03-2021,13:56,METAR,Normal,180,13.0,,,6400.0,Light Snow/Mist,-4.2,-4.3,29.72,1008.3,,,,71,10,,,,,,TRACE,,TRACE,,,900.0,300.0,FEW,300.0,OVC,1000.0,,,,
KRDR,02-03-2021,13:31,SPECI,Normal,190,11.0,,,4400.0,Light Snow/Mist,-4.0,-4.0,29.73,1008.6,,,,71,10,,,,,,,,,,,300.0,300.0,FEW,300.0,OVC,900.0,,,,
KRDR,02-03-2021,12:56,METAR,Normal,180,14.0,,,9999.0,Light Snow,-4.3,-4.4,29.74,1009.0,71,,,,,,,,,,TRACE,,,,,600.0,700.0,OVC,700.0,,,,,,
KRDR,02-03-2021,11:56,METAR,Normal,180,15.0,,,9999.0,Light Snow,-4.5,-4.6,29.77,1010.0,71,,,,,,,,,,TRACE,,TRACE,TRACE,,700.0,700.0,OVC,700.0,,,,,,
KRDR,02-03-2021,11:46,SPECI,Normal,180,16.0,,,9999.0,,-5.0,-5.0,29.77,1010.1,,,,,,,,,,,,,,,,600.0,700.0,OVC,700.0,,,,,,
KRDR,02-03-2021,10:56,METAR,Normal,180,15.0,,,9999.0,,-4.7,-4.7,29.79,1010.8,,,,,,,,,,,,,,,,500.0,600.0,OVC,600.0,,,,,,
KRDR,02-03-2021,10:36,SPECI,Normal,170,13.0,,,9999.0,,-5.0,-5.0,29.79,1010.8,,,,,,,,,,,,,,,,500.0,600.0,OVC,600.0,,,,,,
KRDR,02-03-2021,09:56,METAR,Normal,180,13.0,,,9999.0,,-4.7,-4.8,29.83,1012.1,,,,,,,,,,,,,,,,600.0,700.0,OVC,700.0,,,,,,
KRDR,02-03-2021,09:36,SPECI,Normal,180,13.0,,,9999.0,,-5.0,-5.0,29.83,1012.1,,,,,,,,,,,,,,,,600.0,700.0,OVC,700.0,,,,,,
KRDR,02-03-2021,08:56,METAR,Normal,180,15.0,,,9999.0,,-4.6,-4.7,29.85,1012.8,,,,,,,,,,,,,,,,600.0,600.0,OVC,600.0,,,,,,
KRDR,02-03-2021,07:56,METAR,Normal,180,15.0,,,9999.0,,-4.5,-4.6,29.86,1013.1,,,,,,,,,,,,,,,,500.0,600.0,OVC,600.0,,,,,,
KRDR,02-03-2021,06:56,METAR,Normal,190,14.0,21.0,,9999.0,Mist,-4.3,-4.4,29.88,1013.8,10,,,,,,,,,,,,,,,400.0,600.0,OVC,600.0,,,,,,
KRDR,02-03-2021,05:56,METAR,Normal,180,15.0,,,8000.0,Mist,-4.2,-4.3,29.90,1014.5,10,,,,,,,,,,TRACE,,TRACE,,,500.0,600.0,OVC,600.0,,,,,,
KRDR,02-03-2021,04:56,METAR,Normal,180,16.0,,,8000.0,Light Snow/Mist,-4.3,-4.4,29.92,1015.2,71,10,,,,,,,,,TRACE,,,,,400.0,600.0,OVC,600.0,,,,,,
KRDR,02-03-2021,03:56,METAR,Normal,180,19.0,,180/27KTS,9999.0,Light Snow/Mist,-4.4,-4.5,29.92,1015.2,71,10,,,,,,,,,,,,,,500.0,600.0,OVC,600.0,,,,,,
KRDR,02-03-2021,03:16,SPECI,Normal,180,20.0,25.0,,9999.0,,-4.0,-5.0,29.94,1015.9,,,,,,,,,,,,,,,,600.0,600.0,OVC,600.0,,,,,,
KRDR,02-03-2021,02:56,METAR,Normal,180,19.0,,180/26KTS,9999.0,,-4.6,-4.7,29.95,1016.3,,,,,,,,,,,,,,,,700.0,700.0,OVC,700.0,,,,,,
KRDR,02-03-2021,01:56,METAR,Normal,180,20.0,23.0,,9999.0,,-4.6,-4.7,29.97,1017.0,,,,,,,,,,,,,,,,800.0,900.0,OVC,900.0,,,,,,
KRDR,02-03-2021,01:36,SPECI,Normal,180,17.0,23.0,,9999.0,,-5.0,-5.0,29.98,1017.3,,,,,,,,,,,,,,,,900.0,900.0,OVC,900.0,,,,,,
KRDR,02-03-2021,00:56,METAR,Normal,180,14.0,,,9999.0,,-4.6,-4.7,30.00,1018.0,,,,,,,,,,,,,,,,900.0,1000.0,OVC,1000.0,,,,,,
KRDR,02-02-2021,23:56,METAR,Normal,190,15.0,23.0,,9999.0,,-4.7,-4.8,30.01,1018.4,,,,,,,,,,,,,,,,900.0,1000.0,OVC,1000.0,,,,,,
KRDR,02-02-2021,22:56,METAR,Normal,170,16.0,,,9999.0,Blowing or Drifting Snow or Sand,-4.8,-4.9,30.02,1018.7,27,,,,,,,,,,,,,,,1000.0,1100.0,OVC,1100.0,,,,,,
KRDR,02-02-2021,21:56,METAR,Normal,180,14.0,,,9999.0,Blowing Snow,-4.6,-5.2,30.05,1019.7,,,,38,,,,,,,,,,,,1100.0,1100.0,OVC,1100.0,,,,,,
KRDR,02-02-2021,20:56,METAR,Normal,170,17.0,21.0,,8000.0,Blowing or Drifting Snow or Sand,-4.5,-5.2,30.06,1020.0,27,,,,,,,,,,,,,,,1100.0,1100.0,OVC,1100.0,,,,,,
KRDR,02-02-2021,19:56,METAR,Normal,170,15.0,,,9999.0,Blowing or Drifting Snow or Sand,-4.2,-5.5,30.07,1020.3,27,,,,,,,,,,,,,,,1100.0,1100.0,OVC,1100.0,,,,,,
KRDR,02-02-2021,19:28,SPECI,Normal,180,16.0,,,9999.0,Blowing or Drifting Snow or Sand,-5.0,-6.0,30.07,1020.3,27,,,,,,,,,,,,,,,1300.0,1300.0,BKN,1300.0,OVC,15000.0,,,,
KRDR,02-02-2021,18:56,METAR,Normal,180,19.0,22.0,,9999.0,Blowing or Drifting Snow or Sand,-4.5,-5.9,30.09,1021.0,27,,,,,,,,,,,,,,,1100.0,1100.0,BKN,1100.0,BKN,19000.0,,,,
KRDR,02-02-2021,17:56,METAR,Normal,180,16.0,,,9999.0,Blowing Snow,-5.2,-6.3,30.13,1022.4,,,,38,,,,,,,,,TRACE,,,1100.0,1100.0,BKN,1100.0,OVC,15000.0,,,,
KRDR,02-02-2021,16:56,METAR,Normal,170,17.0,,,9999.0,Blowing or Drifting Snow or Sand,-5.9,-6.6,30.14,1022.8,27,,,,,,,,,,,,,,,1000.0,1000.0,OVC,1000.0,,,,,,
KRDR,02-02-2021,15:56,METAR,Normal,170,11.0,,,9999.0,Blowing or Drifting Snow or Sand,-6.6,-6.9,30.15,1023.1,27,,,,,,,,,,,,,,,900.0,900.0,BKN,900.0,BKN,15000.0,,,,
KRDR,02-02-2021,15:46,SPECI,Normal,170,15.0,22.0,,9999.0,Blowing or Drifting Snow or Sand,-7.0,-7.0,30.15,1023.1,27,,,,,,,,,,,,,,,800.0,800.0,OVC,800.0,,,,,,
KRDR,02-02-2021,14:56,METAR,Normal,170,16.0,21.0,,9999.0,Mist,-6.9,-7.0,30.15,1023.1,10,,,,,,,,,,TRACE,TRACE,,,,700.0,700.0,OVC,700.0,,,,,,
KRDR,02-02-2021,14:07,SPECI,Normal,170,14.0,22.0,,9999.0,,-7.0,-7.0,30.15,1023.1,,,,,,,,,,,,,,,,700.0,700.0,OVC,700.0,,,,,,
KRDR,02-02-2021,14:06,SPECI,Normal,170,16.0,22.0,,9999.0,Light Snow,-7.0,-7.0,30.15,1023.1,71,,,,,,,,,,,,,,,700.0,700.0,OVC,700.0,,,,,,
KRDR,02-02-2021,13:56,METAR,Normal,170,15.0,20.0,,9999.0,Light Snow,-6.9,-7.0,30.15,1023.1,71,,,,,,,,,,TRACE,,,,,600.0,600.0,OVC,600.0,,,,,,
KRDR,02-02-2021,13:51,SPECI,Normal,160,15.0,20.0,,9999.0,Light Snow,-7.0,-7.0,30.16,1023.5,71,,,,,,,,,,,,,,,600.0,600.0,OVC,600.0,,,,,,
KRDR,02-02-2021,12:56,METAR,Normal,170,13.0,,,9999.0,,-6.8,-6.9,30.18,1024.2,,,,,,,,,,,,,,,,600.0,600.0,OVC,600.0,,,,,,
KRDR,02-02-2021,11:56,METAR,Normal,160,12.0,,,9999.0,,-6.4,-6.5,30.19,1024.5,,,,,,,,,,,,,,,,600.0,600.0,OVC,600.0,,,,,,
KRDR,02-02-2021,10:56,METAR,Normal,170,16.0,,,9999.0,,-6.2,-6.3,30.20,1024.8,,,,,,,,,,,,,,,,600.0,600.0,OVC,600.0,,,,,,
KRDR,02-02-2021,09:56,METAR,Normal,170,10.0,,,9999.0,,-6.1,-6.2,30.21,1025.2,,,,,,,,,,,,,,,,500.0,500.0,OVC,500.0,,,,,,
KRDR,02-02-2021,08:56,METAR,Normal,160,9.0,,,9999.0,,-6.1,-6.2,30.21,1025.1,,,,,,,,,,,,,,,,500.0,500.0,OVC,500.0,,,,,,
KRDR,02-02-2021,07:56,METAR,Normal,170,14.0,,,9999.0,,-6.1,-6.2,30.21,1025.1,,,,,,,,,,,,,,,,500.0,600.0,OVC,600.0,,,,,,
KRDR,02-02-2021,06:56,METAR,Normal,180,8.0,,,9999.0,,-5.9,-6.0,30.24,1026.1,,,,,,,,,,,,,,,,500.0,600.0,OVC,600.0,,,,,,
KRDR,02-02-2021,06:16,SPECI,Normal,180,13.0,,,9999.0,,-6.0,-6.0,30.23,1025.8,,,,,,,,,,,,,,,,600.0,600.0,OVC,600.0,,,,,,
KRDR,02-02-2021,05:56,METAR,Normal,180,13.0,,,9999.0,,-5.7,-5.8,30.23,1025.8,,,,,,,,,,,TRACE,,TRACE,,,500.0,500.0,OVC,500.0,,,,,,
KRDR,02-02-2021,04:56,METAR,Normal,180,12.0,,,9999.0,Light Snow,-5.6,-5.6,30.24,1026.1,71,,,,,,,,,,TRACE,,,,,400.0,400.0,OVC,400.0,,,,,,
KRDR,02-02-2021,04:28,SPECI,Normal,180,12.0,,,9999.0,Light Snow,-5.0,-5.0,30.24,1026.1,71,,,,,,,,,,,,,,,300.0,400.0,OVC,400.0,,,,,,
KRDR,02-02-2021,03:56,METAR,Normal,170,13.0,,,9999.0,Light Snow,-5.5,-5.5,30.25,1026.5,71,,,,,,,,,,,,,,,300.0,300.0,OVC,300.0,,,,,,
KRDR,02-02-2021,03:46,SPECI,Normal,170,12.0,,,9999.0,,-5.0,-5.0,30.25,1026.5,,,,,,,,,,,,,,,,300.0,300.0,OVC,300.0,,,,,,
KRDR,02-02-2021,03:26,SPECI,Normal,180,11.0,,,9999.0,,-5.0,-5.0,30.25,1026.5,,,,,,,,,,,,,,,,300.0,400.0,OVC,400.0,,,,,,
KRDR,02-02-2021,02:56,METAR,Normal,180,11.0,,,9999.0,,-5.3,-5.3,30.26,1026.8,,,,,,,,,,,,TRACE,,,,300.0,300.0,OVC,300.0,,,,,,
KRDR,02-02-2021,01:56,METAR,Normal,170,11.0,,,9999.0,,-5.2,-5.2,30.27,1027.2,,,,,,,,,,,TRACE,,,,,300.0,400.0,OVC,400.0,,,,,,
KRDR,02-02-2021,01:36,SPECI,Normal,170,13.0,,,9999.0,,-5.0,-5.0,30.27,1027.2,,,,,,,,,,,,,,,,400.0,400.0,OVC,400.0,,,,,,
KRDR,02-02-2021,00:56,METAR,Normal,160,8.0,,,9999.0,Light Snow,-5.1,-5.1,30.27,1027.2,71,,,,,,,,,,,,,,,400.0,400.0,OVC,400.0,,,,,,
KRDR,02-02-2021,00:46,SPECI,Normal,180,9.0,,,9999.0,,-5.0,-5.0,30.27,1027.2,,,,,,,,,,,,,,,,400.0,400.0,OVC,400.0,,,,,,
KRDR,02-01-2021,23:56,METAR,Normal,170,11.0,,,9999.0,,-5.2,-5.3,30.28,1027.5,,,,,,,,,,,,,,,,500.0,500.0,OVC,500.0,,,,,,
KRDR,02-01-2021,23:16,SPECI,Normal,190,10.0,,,9999.0,,-5.0,-5.0,30.29,1027.8,,,,,,,,,,,,,,,,500.0,500.0,OVC,500.0,,,,,,
KRDR,02-01-2021,22:56,METAR,Normal,160,9.0,,,9999.0,,-5.3,-5.4,30.28,1027.5,,,,,,,,,,,TRACE,,TRACE,,,500.0,600.0,OVC,600.0,,,,,,
KRDR,02-01-2021,21:56,METAR,Normal,190,7.0,,,9999.0,Light Snow/Mist,-5.4,-5.5,30.30,1028.2,71,10,,,,,,,,,,,,,,600.0,600.0,OVC,600.0,,,,,,
KRDR,02-01-2021,21:29,SPECI,Normal,180,10.0,,,9999.0,Mist,-5.0,-5.0,30.30,1028.2,10,,,,,,,,,,,,,,,600.0,600.0,OVC,600.0,,,,,,
KRDR,02-01-2021,20:56,METAR,Normal,160,9.0,,,9999.0,,-4.8,-5.2,30.30,1028.2,,,,,,,,,,,,,,,,900.0,900.0,OVC,900.0,,,,,,
KRDR,02-01-2021,19:56,METAR,Normal,180,8.0,,,9999.0,,-4.7,-5.4,30.31,1028.6,,,,,,,,,,,,,,,,900.0,900.0,OVC,900.0,,,,,,
KRDR,02-01-2021,18:56,METAR,Normal,190,10.0,,,9999.0,,-4.8,-5.2,30.30,1028.3,,,,,,,,,,,,,,,,900.0,900.0,OVC,900.0,,,,,,
KRDR,02-01-2021,17:56,METAR,Normal,170,9.0,,,9999.0,Mist,-4.7,-5.3,30.32,1028.9,10,,,,,,,,,,,,,,,900.0,900.0,OVC,900.0,,,,,,
KRDR,02-01-2021,16:56,METAR,Normal,180,8.0,,,9999.0,Mist,-5.0,-5.1,30.35,1030.0,10,,,,,,,,,,,,,,,800.0,800.0,OVC,800.0,,,,,,
KRDR,02-01-2021,16:09,SPECI,Normal,200,9.0,,,9999.0,Mist,-5.0,-5.0,30.36,1030.3,10,,,,,,,,,,,,,,,800.0,800.0,OVC,800.0,,,,,,
KRDR,02-01-2021,15:56,METAR,Normal,180,6.0,,,9999.0,Mist,-5.1,-5.2,30.36,1030.3,10,,,,,,,,,,,,,,,700.0,700.0,OVC,700.0,,,,,,
KRDR,02-01-2021,15:24,SPECI,Normal,210,4.0,,,9999.0,Mist,-5.0,-5.0,30.36,1030.3,10,,,,,,,,,,,,,,,700.0,700.0,OVC,700.0,,,,,,
KRDR,02-01-2021,15:09,SPECI,Normal,230,6.0,,,9999.0,,-5.0,-5.0,30.37,1030.6,,,,,,,,,,,,,,,,800.0,800.0,OVC,800.0,,,,,,
KRDR,02-01-2021,14:56,METAR,Normal,200,4.0,,,9999.0,,-5.4,-5.5,30.37,1030.6,,,,,,,,,,,,,,,,900.0,900.0,OVC,900.0,,,,,,
KRDR,02-01-2021,14:01,SPECI,Normal,200,4.0,,,9999.0,,-6.0,-6.0,30.36,1030.3,,,,,,,,,,,,,,,,900.0,900.0,OVC,900.0,,,,,,
KRDR,02-01-2021,13:56,METAR,Normal,200,4.0,,,9999.0,,-5.6,-5.7,30.36,1030.3,,,,,,,,,,,,,,,,900.0,1000.0,OVC,1000.0,,,,,,
KRDR,02-01-2021,12:56,METAR,Normal,250,3.0,,,9999.0,,-5.4,-5.8,30.37,1030.6,,,,,,,,,,,,,,,,1100.0,1100.0,OVC,1100.0,,,,,,
KRDR,02-01-2021,11:56,METAR,Calm,,0.0,,,9999.0,,-5.4,-5.8,30.36,1030.2,,,,,,,,,,,,,,,,1100.0,1100.0,OVC,1100.0,,,,,,
KRDR,02-01-2021,11:29,SPECI,Normal,250,3.0,,,9999.0,,-5.0,-6.0,30.37,1030.6,,,,,,,,,,,,,,,,1100.0,1100.0,OVC,1100.0,,,,,,
KRDR,02-01-2021,10:56,METAR,Normal,260,4.0,,,9999.0,,-5.3,-5.9,30.36,1030.3,,,,,,,,,,,,,,,,1300.0,1300.0,OVC,1300.0,,,,,,
KRDR,02-01-2021,10:36,SPECI,Normal,270,3.0,,,9999.0,,-5.0,-6.0,30.36,1030.3,,,,,,,,,,,,,,,,1400.0,1400.0,OVC,1400.0,,,,,,
KRDR,02-01-2021,09:56,METAR,Normal,270,3.0,,,9999.0,,-5.4,-5.8,30.36,1030.2,,,,,,,,,,,,,,,,1500.0,1500.0,OVC,1500.0,,,,,,
KRDR,02-01-2021,08:56,METAR,Normal,210,3.0,,,9999.0,,-5.9,-6.0,30.37,1030.6,,,,,,,,,,,,,,,,1600.0,1600.0,OVC,1600.0,,,,,,
KRDR,02-01-2021,07:56,METAR,Calm,,0.0,,,9999.0,,-6.1,-6.2,30.36,1030.2,,,,,,,,,,,,,,,,1600.0,1600.0,OVC,1600.0,,,,,,
KRDR,02-01-2021,06:56,METAR,Calm,,0.0,,,9999.0,,-6.2,-6.3,30.36,1030.2,,,,,,,,,,,,,,,,1700.0,1800.0,OVC,1800.0,,,,,,
KRDR,02-01-2021,06:16,SPECI,Normal,200,4.0,,,9999.0,,-6.0,-6.0,30.36,1030.2,,,,,,,,,,,,,,,,1800.0,1900.0,OVC,1900.0,,,,,,
KRDR,02-01-2021,05:57,METAR,Normal,230,3.0,,,9999.0,,-6.4,-6.5,30.36,1030.2,,,,,,,,,,,,,,,,1900.0,2000.0,OVC,2000.0,,,,,,
KRDR,02-01-2021,04:56,METAR,Calm,,0.0,,,9999.0,,-6.7,-6.8,30.35,1029.9,,,,,,,,,,,,,,,,2300.0,2500.0,OVC,2500.0,,,,,,
KRDR,02-01-2021,03:57,METAR,Calm,,0.0,,,9999.0,,-6.5,-6.6,30.36,1030.2,,,,,,,,,,,,,,,,2500.0,2600.0,OVC,2600.0,,,,,,
KRDR,02-01-2021,02:56,METAR,Calm,,0.0,,,9999.0,,-6.4,-6.7,30.36,1030.2,,,,,,,,,,,,,,,,2800.0,2800.0,OVC,2800.0,,,,,,
KRDR,02-01-2021,02:36,SPECI,Calm,,0.0,,,9999.0,,-6.0,-7.0,30.36,1030.2,,,,,,,,,,,,,,,,2800.0,2900.0,OVC,2900.0,,,,,,
KRDR,02-01-2021,01:56,METAR,Normal,360,3.0,,,9999.0,,-5.9,-6.6,30.35,1029.9,,,,,,,,,,,,,,,,3100.0,3100.0,OVC,3100.0,,,,,,
KRDR,02-01-2021,00:56,METAR,Calm,,0.0,,,9999.0,,-5.5,-6.2,30.34,1029.5,,,,,,,,,,,,,,,,3300.0,3300.0,OVC,3300.0,,,,,,
KRDR,01-31-2021,23:56,METAR,Normal,330,4.0,,,9999.0,,-5.6,-6.6,30.34,1029.5,,,,,,,,,,,,,TRACE,,,3400.0,3400.0,OVC,3400.0,,,,,,
KRDR,01-31-2021,22:56,METAR,Normal,340,4.0,,,9999.0,,-6.2,-7.3,30.33,1029.2,,,,,,,,,,,,,,,,3500.0,3500.0,BKN,3500.0,,,,,,
KRDR,01-31-2021,21:56,METAR,Normal,320,6.0,,,9999.0,,-4.7,-6.4,30.31,1028.5,,,,,,,,,,,,,,,4/8 Partly Cloudy,72000.0,1600.0,SCT,1600.0,SCT,4000.0,,,,
KRDR,01-31-2021,21:36,SPECI,Normal,330,7.0,,,9999.0,,-4.0,-6.0,30.30,1028.2,,,,,,,,,,,,,,,4/8 Partly Cloudy,72000.0,1600.0,SCT,1600.0,,,,,,
KRDR,01-31-2021,20:56,METAR,Normal,330,8.0,,,9999.0,,-3.2,-5.4,30.29,1027.8,,,,,,,,,,,,TRACE,,,,1500.0,1500.0,BKN,1500.0,OVC,4200.0,,,,
KRDR,01-31-2021,19:56,METAR,Normal,330,6.0,,,9999.0,,-3.4,-5.1,30.28,1027.4,,,,,,,,,,,,,,,,3700.0,1900.0,FEW,1900.0,OVC,3700.0,,,,
KRDR,01-31-2021,18:56,METAR,Normal,330,9.0,,,9999.0,,-3.4,-5.1,30.29,1027.8,,,,,,,,,,,TRACE,,,,,3800.0,1700.0,SCT,1700.0,OVC,3800.0,,,,
KRDR,01-31-2021,18:31,SPECI,Normal,340,8.0,,,9999.0,Mist,-4.0,-5.0,30.29,1027.8,10,,,,,,,,,,,,,,,1700.0,1700.0,OVC,1700.0,,,,,,
KRDR,01-31-2021,17:56,METAR,Normal,330,9.0,,,9999.0,Light Snow/Mist,-3.7,-4.8,30.29,1027.8,71,10,,,,,,,,,TRACE,,TRACE,,,1500.0,1700.0,SCT,1700.0,BKN,2300.0,OVC,3000.0,,
KRDR,01-31-2021,17:34,SPECI,Normal,350,9.0,,,9999.0,Light Snow/Mist,-3.0,-4.0,30.29,1027.8,71,10,,,,,,,,,,,,,,1500.0,1500.0,OVC,1500.0,,,,,,
KRDR,01-31-2021,17:16,SPECI,Normal,320,8.0,,,9999.0,Mist,-3.0,-4.0,30.29,1027.8,10,,,,,,,,,,,,,,,1400.0,1400.0,BKN,1400.0,BKN,3300.0,OVC,4300.0,,
KRDR,01-31-2021,16:56,METAR,Normal,320,9.0,,,9999.0,Mist,-3.1,-4.1,30.29,1027.8,10,,,,,,,,,,,,,,,3300.0,3300.0,BKN,3300.0,OVC,4500.0,,,,
KRDR,01-31-2021,15:56,METAR,Normal,310,7.0,,,9999.0,Mist,-3.7,-4.0,30.27,1027.2,10,,,,,,,,,,,,,,,3100.0,3100.0,OVC,3100.0,,,,,,
KRDR,01-31-2021,14:56,METAR,Normal,310,7.0,,,9999.0,,-4.3,-4.9,30.25,1026.4,,,,,,,,,,,,,,,,3100.0,3100.0,OVC,3100.0,,,,,,
KRDR,01-31-2021,13:57,METAR,Normal,310,6.0,,,9999.0,,-4.4,-4.8,30.24,1026.0,,,,,,,,,,,,,,,,2000.0,2000.0,OVC,2000.0,,,,,,
KRDR,01-31-2021,13:41,SPECI,Normal,310,6.0,,,9999.0,,-4.0,-5.0,30.24,1026.0,,,,,,,,,,,,,,,,1900.0,1900.0,OVC,1900.0,,,,,,
KRDR,01-31-2021,12:57,METAR,Normal,310,5.0,,,9999.0,,-4.2,-4.3,30.23,1025.7,,,,,,,,,,,,,,,,2200.0,2300.0,OVC,2300.0,,,,,,
KRDR,01-31-2021,11:57,SPECI,Normal,320,5.0,,,9999.0,,-4.0,-4.0,30.22,1025.4,,,,,,,,,,,,,,,,2300.0,2400.0,OVC,2400.0,,,,,,
KRDR,01-31-2021,10:57,METAR,Normal,300,5.0,,,9999.0,,-4.6,-4.7,30.20,1024.7,,,,,,,,,,,,,,,,1900.0,2000.0,SCT,2000.0,OVC,2600.0,,,,
KRDR,01-31-2021,09:57,METAR,Normal,300,6.0,,,9999.0,,-5.4,-5.5,30.18,1024.0,,,,,,,,,,,,,,,,1400.0,1400.0,BKN,1400.0,OVC,2900.0,,,,
KRDR,01-31-2021,08:57,METAR,Normal,280,5.0,,,9999.0,,-7.1,-7.2,30.17,1023.7,,,,,,,,,,,,,,,,1300.0,1300.0,OVC,1300.0,,,,,,
KRDR,01-31-2021,07:57,METAR,Normal,290,4.0,,,9999.0,,-5.1,-5.1,30.16,1023.4,,,,,,,,,,,,,,,,1400.0,1500.0,OVC,1500.0,,,,,,
KRDR,01-31-2021,06:57,METAR,Normal,330,4.0,,,9999.0,,-5.0,-5.0,30.15,1023.1,,,,,,,,,,,,,,,,700.0,700.0,BKN,700.0,OVC,1700.0,,,,
KRDR,01-31-2021,05:57,METAR,Normal,340,5.0,,,9999.0,,-4.6,-4.6,30.14,1022.7,,,,,,,,,,,,,.01 IN,,,600.0,600.0,BKN,600.0,OVC,1000.0,,,,
KRDR,01-31-2021,05:38,SPECI,Normal,320,6.0,,,9999.0,,-5.0,-5.0,30.14,1022.7,,,,,,,,,,,,,,,,1000.0,600.0,SCT,600.0,OVC,1000.0,,,,
KRDR,01-31-2021,04:57,METAR,Normal,310,4.0,,,9999.0,Mist,-5.0,-5.0,30.12,1022.0,,,,10,,,,,,,TRACE,,,,,4100.0,4100.0,OVC,4100.0,,,,,,
KRDR,01-31-2021,03:57,METAR,Normal,330,4.0,,,6400.0,Light Snow/Mist,-5.8,-5.8,30.10,1021.3,,,,71,10,,,,,,.01 IN,,,,,5000.0,700.0,FEW,700.0,OVC,5000.0,,,,
KRDR,01-31-2021,03:48,SPECI,Normal,330,4.0,,,8000.0,Mist,-6.0,-6.0,30.10,1021.3,,,,10,,,,,,,,,,,,5000.0,700.0,SCT,700.0,OVC,5000.0,,,,
KRDR,01-31-2021,02:57,METAR,Normal,340,3.0,,,3200.0,Light Snow/Mist,-4.7,-4.7,30.10,1021.3,,,,71,10,,,,,,TRACE,.01 IN,,,,400.0,2000.0,OVC,2000.0,,,,,,
KRDR,01-31-2021,02:36,SPECI,Normal,340,4.0,,,1600.0,Light Snow/Mist,-5.0,-5.0,30.09,1021.0,,,,71,10,,,,,,,,,,,2000.0,2000.0,OVC,2000.0,,,,,,
KRDR,01-31-2021,01:56,METAR,Normal,350,4.0,,,3200.0,Light Snow/Mist,-4.4,-4.4,30.08,1020.7,71,10,,,,,,,,,.01 IN,,,,,1800.0,1800.0,OVC,1800.0,,,,,,
KRDR,01-31-2021,01:15,SPECI,Normal,360,4.0,,,1600.0,Light Snow/Mist,-4.0,-4.0,30.07,1020.3,71,10,,,,,,,,,,,,,,1900.0,1900.0,OVC,1900.0,,,,,,
KRDR,01-31-2021,00:56,METAR,Normal,350,4.0,,,1600.0,Light Snow/Mist,-4.3,-4.3,30.07,1020.3,71,10,,,,,,,,,TRACE,,,,,2000.0,400.0,SCT,400.0,OVC,2000.0,,,,
KRDR,01-30-2021,23:56,METAR,Normal,350,5.0,,,1600.0,Light Snow/Mist,-4.2,-4.2,30.05,1019.6,71,10,,,,,,,,,TRACE,,TRACE,,,2300.0,2300.0,OVC,2300.0,,,,,,
KRDR,01-30-2021,23:26,SPECI,Normal,350,4.0,,,3200.0,Light Snow/Mist,-4.0,-4.0,30.04,1019.3,71,10,,,,,,,,,,,,,,700.0,700.0,BKN,700.0,OVC,1500.0,,,,
KRDR,01-30-2021,22:56,METAR,Normal,350,5.0,,,4800.0,Light Snow/Mist,-3.8,-3.9,30.03,1019.0,71,10,,,,,,,,,TRACE,,,,,700.0,700.0,SCT,700.0,OVC,1300.0,,,,
KRDR,01-30-2021,21:56,METAR,Normal,350,3.0,,,3200.0,Light Snow/Mist,-3.6,-3.7,30.01,1018.3,71,10,,,,,,,,,TRACE,,,,,700.0,700.0,OVC,700.0,,,,,,
KRDR,01-30-2021,21:23,SPECI,Normal,10,3.0,,,3200.0,Light Snow/Mist,-4.0,-4.0,30.00,1017.9,71,10,,,,,,,,,,,,,,800.0,800.0,OVC,800.0,,,,,,
KRDR,01-30-2021,20:56,METAR,Calm,,0.0,,,4800.0,Light Snow/Mist,-3.9,-4.0,30.00,1017.9,71,10,,,,,,,,,TRACE,TRACE,,,,800.0,800.0,OVC,800.0,,,,,,
KRDR,01-30-2021,19:56,METAR,Normal,120,3.0,,,3200.0,Light Snow/Mist,-4.0,-4.0,29.99,1017.6,71,10,,,,,,,,,TRACE,,,,,500.0,500.0,OVC,500.0,,,,,,
KRDR,01-30-2021,19:41,SPECI,Normal,110,3.0,,,1600.0,Light Snow/Mist,-4.0,-4.0,29.98,1017.3,71,10,,,,,,,,,,,,,,500.0,500.0,OVC,500.0,,,,,,
KRDR,01-30-2021,18:56,METAR,Normal,140,3.0,,,1600.0,Light Freezing Drizzle/Mist,-4.2,-4.2,29.98,1017.3,54,10,,,,,,,,,TRACE,,,,,600.0,600.0,OVC,600.0,,,,,,
KRDR,01-30-2021,18:44,SPECI,Normal,130,4.0,,,3200.0,Light Freezing Drizzle/Mist,-4.0,-4.0,29.98,1017.3,54,10,,,,,,,,,,,,,,600.0,600.0,OVC,600.0,,,,,,
KRDR,01-30-2021,17:56,METAR,Normal,120,4.0,,,4800.0,Mist,-4.4,-4.4,29.97,,10,,,,,,,,,,,,TRACE,,,600.0,600.0,OVC,600.0,,,,,,
KRDR,01-30-2021,17:46,SPECI,Normal,110,4.0,,,4800.0,Mist,-4.0,-4.0,29.97,1016.9,10,,,,,,,,,,,,,,,500.0,500.0,OVC,500.0,,,,,,
KRDR,01-30-2021,17:31,SPECI,Normal,130,4.0,,,3200.0,Mist,-4.0,-4.0,29.97,1016.9,10,,,,,,,,,,,,,,,500.0,500.0,OVC,500.0,,,,,,
KRDR,01-30-2021,16:56,METAR,Normal,100,4.0,,,1600.0,Mist,-4.6,-4.6,29.96,1016.6,10,,,,,,,,,,TRACE,,,,,300.0,300.0,OVC,300.0,,,,,,
KRDR,01-30-2021,16:53,SPECI,Normal,110,4.0,,,1600.0,Mist,-5.0,-5.0,29.96,1016.6,,,,10,,,,,,,,,,,,300.0,300.0,OVC,300.0,,,,,,
KRDR,01-30-2021,15:56,METAR,Normal,110,4.0,,,1600.0,Light Freezing Drizzle/Mist,-4.8,-4.8,29.95,1016.2,54,10,,,,,,,,,TRACE,,,,,300.0,300.0,OVC,300.0,,,,,,
KRDR,01-30-2021,14:56,METAR,Normal,110,5.0,,,1600.0,Light Freezing Drizzle/Mist,-5.1,-5.1,29.93,1015.5,54,10,,,,,,,,,TRACE,TRACE,,,,300.0,300.0,OVC,300.0,,,,,,
KRDR,01-30-2021,14:41,SPECI,Normal,120,7.0,,,1600.0,Mist,-5.0,-5.0,29.93,1015.5,10,,,,,,,,,,,,,,,400.0,400.0,OVC,400.0,,,,,,
KRDR,01-30-2021,14:29,SPECI,Normal,120,7.0,,,8000.0,Mist,-5.0,-5.0,29.93,1015.5,10,,,,,,,,,,,,,,,300.0,400.0,OVC,400.0,,,,,,
KRDR,01-30-2021,13:57,METAR,Normal,120,6.0,,,9999.0,,-5.2,-5.3,29.92,1015.2,,,,,,,,,,,,,,,,500.0,500.0,OVC,500.0,,,,,,
KRDR,01-30-2021,13:21,SPECI,Normal,110,5.0,,,9999.0,Mist,-5.0,-5.0,29.91,1014.9,,,,10,,,,,,,,,,,,500.0,500.0,OVC,500.0,,,,,,
KRDR,01-30-2021,12:57,METAR,Normal,120,6.0,,,9999.0,Mist,-5.2,-5.3,29.91,1014.9,,,,10,,,,,,,,,,,,500.0,600.0,OVC,600.0,,,,,,
KRDR,01-30-2021,12:51,SPECI,Normal,110,4.0,,,9999.0,Mist,-5.0,-5.0,29.91,1014.9,,,,10,,,,,,,,,,,,600.0,700.0,OVC,700.0,,,,,,
KRDR,01-30-2021,12:21,SPECI,Normal,130,6.0,,,9999.0,,-5.0,-5.0,29.91,1014.9,,,,,,,,,,,,,,,,700.0,700.0,OVC,700.0,,,,,,
KRDR,01-30-2021,11:57,METAR,Normal,120,5.0,,,9999.0,,-5.2,-5.3,29.91,1014.9,,,,,,,,,,,TRACE,,TRACE,,,800.0,800.0,OVC,800.0,,,,,,
KRDR,01-30-2021,11:40,SPECI,Normal,120,6.0,,,9999.0,,-5.0,-5.0,29.91,1014.9,,,,,,,,,,,,,,,,800.0,800.0,OVC,800.0,,,,,,
KRDR,01-30-2021,10:57,METAR,Normal,110,6.0,,,9999.0,Light Snow/Mist,-5.2,-5.3,29.91,1014.9,,,,71,10,,,,,,TRACE,,,,,600.0,700.0,OVC,700.0,,,,,,
KRDR,01-30-2021,10:28,SPECI,Normal,120,7.0,,,9999.0,Light Snow,-5.0,-5.0,29.91,1014.9,,,,71,,,,,,,,,,,,500.0,600.0,OVC,600.0,,,,,,
KRDR,01-30-2021,09:57,METAR,Normal,130,8.0,,,9999.0,,-5.3,-5.4,29.90,1014.5,,,,,,,,,,,TRACE,,,,,400.0,600.0,OVC,600.0,,,,,,
KRDR,01-30-2021,09:53,SPECI,Normal,130,8.0,,,9999.0,,-5.0,-5.0,29.90,1014.5,,,,,,,,,,,,,,,,400.0,600.0,OVC,600.0,,,,,,
KRDR,01-30-2021,09:22,SPECI,Normal,130,8.0,,,9999.0,Light Snow,-5.0,-5.0,29.91,1014.9,,,,71,,,,,,,,,,,,300.0,500.0,OVC,500.0,,,,,,
KRDR,01-30-2021,08:57,METAR,Normal,130,9.0,,,9999.0,Mist,-5.3,-5.3,29.90,1014.5,,,,10,,,,,,,TRACE,TRACE,,,,300.0,500.0,OVC,500.0,,,,,,
KRDR,01-30-2021,08:13,SPECI,Normal,140,10.0,,,6400.0,Mist,-5.0,-5.0,29.90,1014.5,,,,10,,,,,,,,,,,,300.0,400.0,OVC,400.0,,,,,,
KRDR,01-30-2021,07:57,METAR,Normal,140,9.0,,,6400.0,Light Snow/Mist,-5.2,-5.2,29.90,1014.5,,,,71,10,,,,,,TRACE,,,,,300.0,400.0,OVC,400.0,,,,,,
KRDR,01-30-2021,07:18,SPECI,Normal,130,8.0,,,8000.0,Light Snow,-5.0,-5.0,29.91,1014.9,,,,71,,,,,,,,,,,,300.0,400.0,OVC,400.0,,,,,,
KRDR,01-30-2021,06:57,METAR,Normal,130,9.0,,,6400.0,Freezing Drizzle/Mist,-5.4,-5.4,29.91,1014.9,,,,56,10,,,,,,TRACE,,,,,300.0,300.0,OVC,300.0,,,,,,
KRDR,01-30-2021,06:24,SPECI,Normal,130,12.0,,,6400.0,Heavy Freezing Drizzle,-5.0,-5.0,29.91,1014.9,,,,57,,,,,,,,,,,,300.0,300.0,OVC,300.0,,,,,,
KRDR,01-30-2021,05:56,METAR,Normal,130,10.0,,,6400.0,Light Snow/Freezing Drizzle/Mist,-5.4,-5.5,29.92,1015.3,55,71,10,,,,,,,,TRACE,,TRACE,,,300.0,300.0,OVC,300.0,,,,,,
KRDR,01-30-2021,05:52,SPECI,Normal,130,9.0,,,6400.0,Light Snow/Heavy Freezing Drizzle/Mist,-5.0,-5.0,29.92,1015.3,,,,57,71,10,,,,,,,,,,500.0,500.0,OVC,500.0,,,,,,
KRDR,01-30-2021,05:30,SPECI,Normal,130,10.0,,,6400.0,Light Snow,-5.0,-5.0,29.92,1015.3,71,,,,,,,,,,,,,,,500.0,500.0,OVC,500.0,,,,,,
KRDR,01-30-2021,04:56,METAR,Normal,130,10.0,,,8000.0,Light Snow,-5.2,-5.3,29.93,1015.6,71,,,,,,,,,,TRACE,,,,,600.0,600.0,OVC,600.0,,,,,,
KRDR,01-30-2021,03:56,METAR,Normal,130,12.0,,,9999.0,Light Snow,-5.1,-5.5,29.94,1016.0,71,,,,,,,,,,,,,,,700.0,700.0,OVC,700.0,,,,,,
KRDR,01-30-2021,03:33,SPECI,Normal,140,14.0,18.0,,9999.0,Light Snow,-5.0,-6.0,29.94,1016.0,,,,71,,,,,,,,,,,,900.0,900.0,OVC,900.0,,,,,,
KRDR,01-30-2021,03:07,SPECI,Normal,130,11.0,,,9999.0,,-5.0,-6.0,29.94,1016.0,,,,,,,,,,,,,,,,1300.0,1300.0,OVC,1300.0,,,,,,
KRDR,01-30-2021,02:56,METAR,Normal,130,11.0,,,9999.0,,-5.1,-6.2,29.95,1016.3,,,,,,,,,,,,,,,,1400.0,1400.0,OVC,1400.0,,,,,,
KRDR,01-30-2021,01:56,METAR,Normal,120,10.0,,,9999.0,,-5.0,-6.5,29.96,1016.6,,,,,,,,,,,,,,,,1700.0,1700.0,OVC,1700.0,,,,,,
KRDR,01-30-2021,01:16,SPECI,Normal,120,11.0,,,9999.0,,-5.0,-6.0,29.97,1017.0,,,,,,,,,,,,,,,,1500.0,1500.0,OVC,1500.0,,,,,,
KRDR,01-30-2021,00:56,METAR,Normal,120,11.0,,,9999.0,,-5.0,-6.3,29.98,1017.3,,,,,,,,,,,,,,,,1400.0,1400.0,OVC,1400.0,,,,,,
KRDR,01-30-2021,00:36,SPECI,Normal,130,10.0,,,9999.0,,-5.0,-6.0,29.99,1017.7,,,,,,,,,,,,,,,,1300.0,1300.0,OVC,1300.0,,,,,,
KRDR,01-29-2021,23:56,METAR,Normal,120,8.0,,,9999.0,,-5.1,-5.8,30.00,1018.0,,,,,,,,,,,,,,,,1100.0,1100.0,OVC,1100.0,,,,,,
KRDR,01-29-2021,22:56,METAR,Normal,120,10.0,,,9999.0,,-5.1,-5.5,30.01,1018.4,,,,,,,,,,,,,,,,1100.0,1100.0,OVC,1100.0,,,,,,
KRDR,01-29-2021,21:56,METAR,Normal,130,11.0,,,9999.0,,-4.9,-5.7,30.01,1018.4,,,,,,,,,,,,,,,,1000.0,1100.0,OVC,1100.0,,,,,,
KRDR,01-29-2021,20:56,METAR,Normal,140,13.0,,,9999.0,,-5.1,-5.9,30.02,1018.8,,,,,,,,,,,,,,,,1000.0,1000.0,OVC,1000.0,,,,,,
KRDR,01-29-2021,19:56,METAR,Normal,140,10.0,,,9999.0,,-5.3,-6.1,30.05,1019.7,,,,,,,,,,,,,,,,900.0,1000.0,OVC,1000.0,,,,,,
KRDR,01-29-2021,18:56,METAR,Normal,150,12.0,,,9999.0,,-5.9,-6.9,30.09,1021.2,,,,,,,,,,,,,,,,900.0,1000.0,OVC,1000.0,,,,,,
KRDR,01-29-2021,18:36,SPECI,Normal,150,12.0,,,9999.0,,-6.0,-7.0,30.10,1021.5,,,,,,,,,,,,,,,,1000.0,1000.0,OVC,1000.0,,,,,,
KRDR,01-29-2021,17:56,METAR,Normal,140,11.0,,,9999.0,,-6.4,-7.5,30.12,1022.2,,,,,,,,,,,,,,,,1100.0,1100.0,OVC,1100.0,,,,,,
KRDR,01-29-2021,16:59,SPECI,Normal,140,12.0,,,9999.0,,-7.0,-8.0,30.13,1022.5,,,,,,,,,,,,,,,,1100.0,1100.0,OVC,1100.0,,,,,,
KRDR,01-29-2021,16:56,METAR,Normal,150,11.0,,,9999.0,,-6.9,-8.3,30.13,1022.5,,,,,,,,,,,,,,,,1100.0,1200.0,OVC,1200.0,,,,,,
KRDR,01-29-2021,15:56,METAR,Normal,130,9.0,,,9999.0,,-7.3,-8.7,30.14,1022.9,,,,,,,,,,,,,,,,1100.0,1200.0,OVC,1200.0,,,,,,
KRDR,01-29-2021,14:56,METAR,Normal,140,6.0,,,9999.0,,-7.5,-8.9,30.17,1023.9,,,,,,,,,,,,,,,,1200.0,1200.0,OVC,1200.0,,,,,,
KRDR,01-29-2021,14:39,SPECI,Normal,140,9.0,,,9999.0,,-7.0,-9.0,30.16,1023.6,,,,,,,,,,,,,,,,1200.0,1200.0,OVC,1200.0,,,,,,
KRDR,01-29-2021,13:56,METAR,Normal,130,9.0,,,9999.0,,-7.5,-8.9,30.17,1023.9,,,,,,,,,,,,,,,,1300.0,1300.0,OVC,1300.0,,,,,,
KRDR,01-29-2021,12:56,METAR,Normal,130,10.0,,,9999.0,,-7.5,-8.6,30.18,1024.2,,,,,,,,,,,,,,,,1200.0,1300.0,OVC,1300.0,,,,,,
KRDR,01-29-2021,11:56,METAR,Normal,120,9.0,,,9999.0,,-7.8,-8.6,30.19,1024.7,,,,,,,,,,,,,,,,1300.0,1500.0,OVC,1500.0,,,,,,
KRDR,01-29-2021,10:56,METAR,Normal,130,8.0,,,9999.0,,-7.9,-8.9,30.20,1025.0,,,,,,,,,,,,,,,,1200.0,1300.0,OVC,1300.0,,,,,,
KRDR,01-29-2021,09:56,METAR,Normal,120,6.0,,,9999.0,,-8.0,-9.0,30.23,1026.0,,,,,,,,,,,,,,,,1000.0,1100.0,OVC,1100.0,,,,,,
KRDR,01-29-2021,08:56,METAR,Normal,110,6.0,,,9999.0,,-8.2,-9.2,30.23,1026.0,,,,,,,,,,,,,,,,1100.0,1100.0,BKN,1100.0,OVC,1700.0,,,,
KRDR,01-29-2021,07:56,METAR,Normal,90,6.0,,,9999.0,,-8.0,-9.0,30.25,1026.7,,,,,,,,,,,,,,,,1100.0,1200.0,OVC,1200.0,,,,,,
KRDR,01-29-2021,06:56,METAR,Normal,130,6.0,,,9999.0,,-7.6,-8.6,30.26,1027.0,,,,,,,,,,,,,,,,2200.0,2200.0,OVC,2200.0,,,,,,
KRDR,01-29-2021,05:56,METAR,Normal,130,6.0,,,9999.0,Light Snow,-7.7,-8.8,30.28,1027.8,71,,,,,,,,,,TRACE,,TRACE,,,2700.0,2700.0,OVC,2700.0,,,,,,
KRDR,01-29-2021,04:56,METAR,Normal,140,7.0,,,9999.0,Light Snow,-7.5,-8.9,30.28,1027.8,71,,,,,,,,,,TRACE,,,,,2700.0,2700.0,OVC,2700.0,,,,,,
KRDR,01-29-2021,04:51,SPECI,Normal,140,6.0,,,9999.0,Light Snow,-7.0,-9.0,30.28,1027.8,71,,,,,,,,,,,,,,,2600.0,2600.0,OVC,2600.0,,,,,,
KRDR,01-29-2021,03:56,METAR,Normal,90,3.0,,,,,-7.9,-8.7,30.29,1028.2,,,,,,,,,,,,,,,,,,,,,,,,,
KRDR,01-29-2021,03:18,SPECI,Normal,130,3.0,,,9999.0,,-8.0,-9.0,30.30,1028.6,,,,,,,,,,,,,,,,2100.0,2200.0,OVC,2200.0,,,,,,
KRDR,01-29-2021,02:56,METAR,Normal,140,3.0,,,9999.0,,-8.0,-8.8,30.31,1029.0,,,,,,,,,,,TRACE,,,,,2000.0,2000.0,OVC,2000.0,,,,,,
KRDR,01-29-2021,02:48,SPECI,Normal,130,3.0,,,,,-8.0,-9.0,30.31,1029.0,,,,,,,,,,,,,,,,,,,,,,,,,
KRDR,01-29-2021,01:56,METAR,Normal,140,4.0,,,9999.0,Light Snow,-7.9,-9.1,30.31,1029.0,71,,,,,,,,,,TRACE,,,,,2000.0,2000.0,OVC,2000.0,,,,,,
KRDR,01-29-2021,01:12,SPECI,Normal,130,4.0,,,9999.0,Light Snow,-8.0,-9.0,30.32,1029.4,71,,,,,,,,,,,,,,,2000.0,2000.0,OVC,2000.0,,,,,,
KRDR,01-29-2021,00:56,METAR,Normal,130,3.0,,,9999.0,Light Snow,-8.0,-9.2,30.33,1029.8,71,,,,,,,,,,TRACE,,,,,1900.0,1900.0,OVC,1900.0,,,,,,
KRDR,01-28-2021,23:56,METAR,Normal,140,6.0,,,9999.0,Light Snow,-7.9,-8.9,30.33,1029.7,71,,,,,,,,,,TRACE,,TRACE,,,2400.0,2400.0,OVC,2400.0,,,,,,
KRDR,01-28-2021,22:56,METAR,Normal,150,7.0,,,9999.0,Light Snow,-7.6,-9.1,30.32,1029.3,71,,,,,,,,,,TRACE,,,,,2500.0,1800.0,SCT,1800.0,OVC,2500.0,,,,
KRDR,01-28-2021,21:56,METAR,Normal,110,6.0,,,9999.0,Light Snow,-7.4,-10.1,30.33,1029.7,71,,,,,,,,,,TRACE,,,,,1800.0,1100.0,SCT,1100.0,BKN,1800.0,OVC,2400.0,,
KRDR,01-28-2021,20:56,METAR,Normal,130,7.0,,,8000.0,Light Snow,-7.6,-10.3,30.33,1029.9,71,,,,,,,,,,TRACE,TRACE,,,,1300.0,1300.0,BKN,1300.0,OVC,2400.0,,,,
KRDR,01-28-2021,19:56,METAR,Normal,140,9.0,,,9999.0,Light Snow,-8.1,-11.4,30.34,1030.1,71,,,,,,,,,,TRACE,,,,,1100.0,1100.0,BKN,1100.0,OVC,2300.0,,,,
KRDR,01-28-2021,18:56,METAR,Normal,140,13.0,,,9999.0,,-8.6,-12.1,30.36,1030.9,,,,,,,,,,,,,,,,1000.0,1000.0,BKN,1000.0,BKN,1500.0,,,,
KRDR,01-28-2021,17:56,METAR,Normal,140,11.0,,,9999.0,,-9.5,-13.1,30.37,1031.2,,,,,,,,,,,,,,,,1200.0,1200.0,BKN,1200.0,BKN,13000.0,,,,
KRDR,01-28-2021,16:56,METAR,Normal,140,9.0,,,9999.0,,-10.8,-14.2,30.40,1032.3,,,,,,,,,,,,,,,,1800.0,1800.0,BKN,1800.0,BKN,13000.0,,,,
KRDR,01-28-2021,16:16,SPECI,Normal,130,9.0,,,9999.0,,-11.0,-15.0,30.41,1032.7,,,,,,,,,,,,,,,,1600.0,1700.0,BKN,1700.0,,,,,,
KRDR,01-28-2021,15:56,METAR,Normal,130,10.0,,,9999.0,,-11.7,-14.9,30.41,1032.8,,,,,,,,,,,,,,,4/8 Partly Cloudy,72000.0,3000.0,FEW,3000.0,SCT,13000.0,,,,
KRDR,01-28-2021,14:56,METAR,Normal,110,7.0,,,9999.0,,-13.3,-15.9,30.41,1032.8,,,,,,,,,,,,,,,4/8 Partly Cloudy,72000.0,3000.0,SCT,3000.0,SCT,15000.0,,,,
KRDR,01-28-2021,13:59,METAR,Normal,110,6.0,,,9999.0,,-14.8,-16.7,30.42,1033.2,,,,,,,,,,,,,,,4/8 Partly Cloudy,72000.0,3700.0,SCT,3700.0,SCT,15000.0,,,,
KRDR,01-28-2021,13:56,METAR,Normal,110,5.0,,,9999.0,,-15.0,-16.7,30.43,1033.6,,,,,,,,,,,,,,,4/8 Partly Cloudy,72000.0,3700.0,SCT,3700.0,,,,,,
KRDR,01-28-2021,12:56,METAR,Normal,100,5.0,,,9999.0,,-15.1,-17.2,30.43,1033.6,,,,,,,,,,,,,,,,3500.0,3500.0,BKN,3500.0,OVC,16000.0,,,,
KRDR,01-28-2021,11:56,METAR,Normal,100,3.0,,,9999.0,,-14.7,-17.0,30.45,1034.3,,,,,,,,,,,,,TRACE,,,17000.0,17000.0,BKN,17000.0,,,,,,
KRDR,01-28-2021,10:56,METAR,Calm,,0.0,,,9999.0,,-14.5,-16.8,30.46,1034.6,,,,,,,,,,,TRACE,,,,,3400.0,3400.0,BKN,3400.0,,,,,,
KRDR,01-28-2021,09:56,METAR,Normal,110,3.0,,,9999.0,Light Snow,-15.4,-17.4,30.47,1035.0,71,,,,,,,,,,TRACE,,,,,4000.0,4000.0,BKN,4000.0,,,,,,
KRDR,01-28-2021,08:56,METAR,Normal,50,3.0,,,9999.0,,-17.6,-19.2,30.49,1035.8,,,,,,,,,,,TRACE,TRACE,,,,3100.0,3100.0,BKN,3100.0,,,,,,
KRDR,01-28-2021,07:56,METAR,Normal,40,3.0,,,9999.0,Light Snow,-16.9,-18.5,30.50,1036.1,71,,,,,,,,,,TRACE,,,,,3300.0,3300.0,BKN,3300.0,,,,,,
KRDR,01-28-2021,06:56,METAR,Calm,,0.0,,,9999.0,,-16.8,-18.8,30.50,1036.2,,,,,,,,,,,,,,,,7500.0,7500.0,BKN,7500.0,,,,,,
KRDR,01-28-2021,05:56,METAR,Normal,90,3.0,,,9999.0,Light Snow,-17.0,-19.1,30.51,1036.6,71,,,,,,,,,,TRACE,,TRACE,,,7500.0,7500.0,BKN,7500.0,,,,,,
KRDR,01-28-2021,04:56,METAR,Normal,60,5.0,,,9999.0,Light Snow,-16.9,-19.4,30.52,1037.1,71,,,,,,,,,,TRACE,,,,,7500.0,7500.0,OVC,7500.0,,,,,,
KRDR,01-28-2021,03:56,METAR,Calm,,0.0,,,9999.0,Light Snow,-17.2,-19.4,30.53,1037.4,71,,,,,,,,,,,,,,,7500.0,7500.0,OVC,7500.0,,,,,,
KRDR,01-28-2021,02:56,METAR,Calm,,0.0,,,9999.0,Light Snow,-18.0,-20.1,30.53,1037.6,71,,,,,,,,,,TRACE,TRACE,,,,7500.0,7500.0,OVC,7500.0,,,,,,
KRDR,01-28-2021,01:57,METAR,Normal,40,3.0,,,9999.0,Light Snow,-18.0,-20.4,30.52,1037.3,71,,,,,,,,,,,,,,,7500.0,7500.0,OVC,7500.0,,,,,,
KRDR,01-28-2021,01:56,METAR,Normal,360,3.0,,,9999.0,Light Snow,-18.0,-20.4,30.52,1037.3,71,,,,,,,,,,,,,,,7500.0,7500.0,OVC,7500.0,,,,,,
KRDR,01-28-2021,00:56,METAR,Normal,40,4.0,,,9999.0,Light Snow,-17.9,-20.4,30.52,1037.3,71,,,,,,,,,,,,,,,8000.0,8000.0,OVC,8000.0,,,,,,
KRDR,01-27-2021,23:56,METAR,Normal,90,4.0,,,9999.0,Light Snow,-18.1,-20.8,30.53,1037.6,71,,,,,,,,,,,,TRACE,,,8000.0,8000.0,OVC,8000.0,,,,,,
KRDR,01-27-2021,22:56,METAR,Normal,90,4.0,,,9999.0,Light Snow,-18.2,-21.0,30.52,1037.3,71,,,,,,,,,,TRACE,,,,,8000.0,8000.0,OVC,8000.0,,,,,,
KRDR,01-27-2021,21:56,METAR,Normal,90,5.0,,,9999.0,Light Snow,-18.6,-21.8,30.52,1037.3,71,,,,,,,,,,,,,,,8000.0,8000.0,OVC,8000.0,,,,,,
KRDR,01-27-2021,20:56,METAR,Normal,30,4.0,,,9999.0,Light Snow,-18.7,-21.9,30.53,1037.6,71,,,,,,,,,,TRACE,TRACE,,,,8000.0,8000.0,OVC,8000.0,,,,,,
KRDR,01-27-2021,19:56,METAR,Normal,90,3.0,,,9999.0,Light Snow,-20.0,-23.2,30.53,1037.7,71,,,,,,,,,,TRACE,,,,,2200.0,2200.0,BKN,2200.0,BKN,8000.0,,,,
KRDR,01-27-2021,18:56,METAR,Normal,50,3.0,,,9999.0,,-21.3,-24.0,30.55,1038.4,,,,,,,,,,,,,,,,3200.0,3200.0,BKN,3200.0,BKN,8000.0,,,,
KRDR,01-27-2021,17:56,METAR,Normal,10,4.0,,,9999.0,,-22.9,-24.9,30.57,1039.2,,,,,,,,,,,,,,,,4100.0,4100.0,BKN,4100.0,BKN,7500.0,,,,
KRDR,01-27-2021,16:56,METAR,Normal,10,3.0,,,9999.0,,-24.5,-26.6,30.57,1039.2,,,,,,,,,,,,,,,,7500.0,7500.0,BKN,7500.0,,,,,,
KRDR,01-27-2021,15:56,METAR,Calm,,0.0,,,9999.0,,-26.0,-28.3,30.56,1039.0,,,,,,,,,,,,,,,,7000.0,7000.0,BKN,7000.0,,,,,,
KRDR,01-27-2021,14:56,METAR,Normal,10,6.0,,,9999.0,,-27.1,-29.5,30.54,1038.4,,,,,,,,,,,,,,,,7000.0,7000.0,BKN,7000.0,,,,,,
KRDR,01-27-2021,13:56,METAR,Normal,360,4.0,,,9999.0,,-27.8,-30.3,30.53,1038.0,,,,,,,,,,,,,,,,7000.0,7000.0,BKN,7000.0,,,,,,
KRDR,01-27-2021,13:44,SPECI,Normal,340,3.0,,,9999.0,,-28.0,-31.0,30.53,1038.0,,,,,,,,,,,,,,,,7000.0,7000.0,BKN,7000.0,,,,,,
KRDR,01-27-2021,13:36,SPECI,Normal,340,3.0,,,9999.0,,-28.0,-31.0,30.53,1038.0,,,,,,,,,,,,,,,4/8 Partly Cloudy,72000.0,7000.0,SCT,7000.0,,,,,,
KRDR,01-27-2021,12:56,METAR,Normal,330,3.0,,,9999.0,,-28.1,-30.6,30.52,1037.6,,,,,,,,,,,,,,,Clear,72000.0,,,,,,,,,
KRDR,01-27-2021,11:56,METAR,Normal,360,4.0,,,9999.0,,-28.1,-30.6,30.51,1037.2,,,,,,,,,,,,,,,Clear,72000.0,,,,,,,,,
KRDR,01-27-2021,10:57,METAR,Normal,320,4.0,,,9999.0,,-28.0,-30.5,30.51,1037.1,,,,,,,,,,,,,,,,,,,,,,,,,
KRDR,01-27-2021,10:56,METAR,Normal,320,4.0,,,9999.0,,-28.0,-30.5,30.51,1037.1,,,,,,,,,,,,,,,Clear,72000.0,,,,,,,,,
KRDR,01-27-2021,09:57,METAR,Normal,330,3.0,,,9999.0,,-27.8,-30.2,30.50,1036.8,,,,,,,,,,,,,,,,,,,,,,,,,
KRDR,01-27-2021,09:56,METAR,Normal,330,3.0,,,9999.0,,-27.8,-30.2,30.50,1036.8,,,,,,,,,,,,,,,Clear,72000.0,,,,,,,,,
KRDR,01-27-2021,08:57,METAR,Normal,360,5.0,,,9999.0,,-27.8,-30.2,30.49,1036.4,,,,,,,,,,,,,,,,,,,,,,,,,
KRDR,01-27-2021,08:56,METAR,Normal,360,5.0,,,9999.0,,-27.8,-30.2,30.49,1036.4,,,,,,,,,,,,,,,Clear,72000.0,,,,,,,,,
KRDR,01-27-2021,07:57,METAR,Normal,350,4.0,,,9999.0,,-27.6,-30.0,30.48,1036.0,,,,,,,,,,,,,,,Clear,72000.0,,,,,,,,,
KRDR,01-27-2021,06:57,METAR,Normal,,,,,,,-27.4,-29.8,30.47,1036.1,,,,,,,,,,,,,,,,,,,,,,,,,
KRDR,01-27-2021,05:56,METAR,Normal,350,5.0,,,9999.0,,-27.1,-29.5,30.47,1035.7,,,,,,,,,,,,,,,2/8 Mostly Clear,72000.0,8000.0,FEW,8000.0,,,,,,
KRDR,01-27-2021,04:56,METAR,Normal,350,5.0,,,9999.0,,-26.9,-29.3,30.46,,,,,,,,,,,,,,,,2/8 Mostly Clear,72000.0,8000.0,FEW,8000.0,,,,,,
KRDR,01-27-2021,03:56,METAR,Normal,350,5.0,,,9999.0,,-26.7,-28.9,30.44,,,,,,,,,,,,,,,,2/8 Mostly Clear,72000.0,8000.0,FEW,8000.0,,,,,,
KRDR,01-27-2021,02:56,METAR,Normal,350,4.0,,,9999.0,,-26.1,-28.4,30.44,,,,,,,,,,,,,,,,2/8 Mostly Clear,72000.0,8000.0,FEW,8000.0,,,,,,
KRDR,01-27-2021,01:56,METAR,Normal,350,4.0,,,9999.0,,-25.6,-27.9,30.42,1034.0,,,,,,,,,,,,,,,Clear,72000.0,,,,,,,,,
KRDR,01-27-2021,00:56,METAR,Normal,360,6.0,,,9999.0,,-24.6,-27.1,30.41,1033.5,,,,,,,,,,,,,,,2/8 Mostly Clear,72000.0,8000.0,FEW,8000.0,,,,,,
KRDR,01-26-2021,23:56,METAR,Normal,360,8.0,,,9999.0,,-24.2,-26.8,30.40,1033.2,,,,,,,,,,,,,TRACE,,2/8 Mostly Clear,72000.0,8000.0,FEW,8000.0,,,,,,
KRDR,01-26-2021,23:45,SPECI,Normal,360,7.0,,,9999.0,,-24.0,-26.0,30.40,1033.2,,,,,,,,,,,,,,,2/8 Mostly Clear,72000.0,8000.0,FEW,8000.0,,,,,,
KRDR,01-26-2021,23:45,METAR,Normal,360,7.0,,,9999.0,,-24.0,-26.0,30.40,1033.2,,,,,,,,,,,,,,,2/8 Mostly Clear,72000.0,8000.0,FEW,8000.0,,,,,,
KRDR,01-26-2021,22:56,METAR,Normal,350,7.0,,,9999.0,,-22.4,-25.6,30.38,1032.3,,,,,,,,,,,,,,,2/8 Mostly Clear,72000.0,8000.0,FEW,8000.0,,,,,,
KRDR,01-26-2021,21:56,METAR,Normal,350,9.0,,,9999.0,,-21.1,-24.9,30.37,1032.0,,,,,,,,,,,,,,,2/8 Mostly Clear,72000.0,7500.0,FEW,7500.0,,,,,,
KRDR,01-26-2021,20:54,METAR,Normal,360,10.0,,,9999.0,,-20.2,-24.3,30.36,1031.5,,,,,,,,,,,,TRACE,,,2/8 Mostly Clear,72000.0,7500.0,FEW,7500.0,,,,,,
KRDR,01-26-2021,19:56,METAR,Normal,360,10.0,,,9999.0,,-20.7,-24.5,30.35,1031.3,,,,,,,,,,,,,,,2/8 Mostly Clear,72000.0,7500.0,FEW,7500.0,,,,,,
KRDR,01-26-2021,18:56,METAR,Normal,10,9.0,,,9999.0,,-22.0,-25.3,30.36,1031.6,,,,,,,,,,,TRACE,,,,,7500.0,7500.0,BKN,7500.0,,,,,,
KRDR,01-26-2021,17:56,METAR,Normal,360,10.0,,,9999.0,Light Snow,-21.7,-24.7,30.36,1031.6,71,,,,,,,,,,TRACE,,TRACE,,,7500.0,7500.0,BKN,7500.0,,,,,,
KRDR,01-26-2021,16:53,METAR,Normal,360,12.0,,,9999.0,Light Snow,-22.0,-25.0,30.36,,71,,,,,,,,,,TRACE,,,,,7500.0,400.0,SCT,400.0,OVC,7500.0,,,,
KRDR,01-26-2021,15:54,METAR,Normal,360,10.0,,,8000.0,Light Snow,-23.0,-25.0,30.35,,71,,,,,,,,,,TRACE,,,,,200.0,300.0,BKN,300.0,OVC,8000.0,,,,
KRDR,01-26-2021,14:58,METAR,Normal,360,13.0,,,8000.0,Blowing or Drifting Snow or Sand,-23.0,-25.0,30.33,,27,,,,,,,,,,TRACE,TRACE,,,,200.0,200.0,OVC,200.0,,,,,,
KRDR,01-26-2021,13:57,METAR,Normal,360,13.0,,,9999.0,Blowing Snow,-22.5,-24.9,30.31,1029.8,,,,38,,,,,,,TRACE,,,,,300.0,300.0,OVC,300.0,,,,,,
KRDR,01-26-2021,13:13,SPECI,Normal,360,12.0,,,9999.0,,-22.0,-24.0,30.30,1029.5,,,,,,,,,,,,,,,,200.0,300.0,BKN,300.0,OVC,4600.0,,,,
KRDR,01-26-2021,12:57,METAR,Normal,10,12.0,,,9999.0,Light Snow,-21.8,-24.3,30.30,1029.5,,,,71,,,,,,,TRACE,,,,,200.0,300.0,BKN,300.0,OVC,5000.0,,,,
KRDR,01-26-2021,12:15,SPECI,Normal,10,13.0,17.0,,9999.0,Light Snow,-21.0,-24.0,30.28,1028.7,,,,71,,,,,,,,,,,,200.0,300.0,BKN,300.0,OVC,4100.0,,,,
KRDR,01-26-2021,11:57,METAR,Normal,10,12.0,,,9999.0,,-21.3,-23.8,30.28,1028.7,,,,,,,,,,,,,.01 IN,,,200.0,300.0,BKN,300.0,OVC,4100.0,,,,
KRDR,01-26-2021,11:45,SPECI,Normal,10,15.0,,,9999.0,,-21.0,-24.0,30.28,1028.7,,,,,,,,,,,,,,,,200.0,300.0,BKN,300.0,OVC,3000.0,,,,
KRDR,01-26-2021,10:57,METAR,Normal,10,10.0,,,9999.0,Blowing Snow/Mist,-20.8,-23.1,30.27,1028.4,,,,38,10,,,,,,,,,,,200.0,300.0,OVC,300.0,,,,,,
KRDR,01-26-2021,09:57,METAR,Normal,20,11.0,,,9999.0,Blowing Snow/Mist,-20.2,-22.3,30.26,1027.9,,,,38,10,,,,,,.01 IN,,,,,100.0,200.0,OVC,200.0,,,,,,
KRDR,01-26-2021,09:38,SPECI,Normal,20,14.0,,,9999.0,Blowing Snow/Mist,-20.0,-22.0,30.26,1027.9,,,,38,10,,,,,,,,,,,100.0,200.0,OVC,200.0,,,,,,
KRDR,01-26-2021,09:00,SPECI,Normal,10,11.0,,,9999.0,Light Snow/Mist,-20.0,-22.0,30.27,1028.3,,,,71,10,,,,,,,,,,,200.0,200.0,OVC,200.0,,,,,,
KRDR,01-26-2021,08:57,METAR,Normal,10,10.0,,,9999.0,Blowing Snow/Mist,-20.2,-22.3,30.27,1028.3,,,,38,10,,,,,,TRACE,TRACE,,,,200.0,200.0,BKN,200.0,,,,,,
KRDR,01-26-2021,08:04,SPECI,Normal,10,9.0,,,9999.0,,-20.0,-22.0,30.27,1028.3,,,,,,,,,,,,,,,,200.0,200.0,BKN,200.0,,,,,,
KRDR,01-26-2021,07:57,METAR,Normal,20,13.0,,,9999.0,Light Snow,-20.1,-22.2,30.27,1028.3,,,,71,,,,,,,TRACE,,,,,100.0,200.0,BKN,200.0,,,,,,
KRDR,01-26-2021,07:27,SPECI,Normal,10,12.0,,,9999.0,Light Snow/Blowing or Drifting Snow or Sand,-20.0,-22.0,30.28,1028.6,71,27,,,,,,,,,,,,,,100.0,200.0,BKN,200.0,,,,,,
KRDR,01-26-2021,06:57,METAR,Normal,10,13.0,,,9999.0,,-19.8,-21.9,30.28,1028.6,,,,,,,,,,,,,,,,100.0,300.0,BKN,300.0,BKN,4700.0,OVC,6500.0,,
KRDR,01-26-2021,06:00,METAR,Normal,20,10.0,,,4800.0,,-19.3,-21.2,30.29,1028.9,,,,,,,,,,,TRACE,,TRACE,,,4400.0,300.0,SCT,300.0,BKN,4400.0,OVC,7000.0,,
KRDR,01-26-2021,05:57,METAR,Normal,20,10.0,,,4800.0,,-19.3,-21.2,30.29,1028.9,,,,,,,,,,,TRACE,,TRACE,,,4400.0,300.0,SCT,300.0,BKN,4400.0,OVC,7000.0,,
KRDR,01-26-2021,04:57,METAR,Normal,10,10.0,,,4800.0,Light Snow/Blowing or Drifting Snow or Sand/Mist,-19.0,-20.9,30.30,1029.3,71,27,10,,,,,,,,TRACE,,,,,200.0,200.0,OVC,200.0,,,,,,
KRDR,01-26-2021,04:38,SPECI,Normal,20,11.0,,,4800.0,Light Snow/Blowing or Drifting Snow or Sand/Mist,-19.0,-21.0,30.30,1029.3,71,27,10,,,,,,,,,,,,,200.0,200.0,OVC,200.0,,,,,,
KRDR,01-26-2021,03:56,METAR,Normal,10,10.0,,,9999.0,Light Snow,-18.8,-20.7,30.29,1028.9,71,,,,,,,,,,TRACE,,,,,300.0,300.0,OVC,300.0,,,,,,
KRDR,01-26-2021,03:18,SPECI,Normal,20,11.0,,,9999.0,Light Snow,-19.0,-21.0,30.28,1028.6,71,,,,,,,,,,,,,,,200.0,300.0,BKN,300.0,BKN,4800.0,OVC,6500.0,,
KRDR,01-26-2021,02:56,METAR,Normal,20,10.0,,,9999.0,Light Snow,-18.8,-20.7,30.28,1028.6,71,,,,,,,,,,,,,,,200.0,200.0,BKN,200.0,OVC,6500.0,,,,
KRDR,01-26-2021,01:56,METAR,Normal,10,13.0,,,9999.0,Light Snow,-18.5,-20.5,30.26,1027.9,71,,,,,,,,,,,,,,,200.0,300.0,BKN,300.0,BKN,6500.0,OVC,9100.0,,
KRDR,01-26-2021,01:19,SPECI,Normal,10,12.0,,,9999.0,Light Snow,-18.0,-20.0,30.25,1027.6,71,,,,,,,,,,,,,,,200.0,300.0,BKN,300.0,OVC,9100.0,,,,
KRDR,01-26-2021,00:56,METAR,Normal,20,11.0,,,9999.0,Light Snow,-17.7,-19.5,30.25,1027.6,71,,,,,,,,,,,,,,,6500.0,400.0,FEW,400.0,SCT,4300.0,BKN,6500.0,OVC,9100.0
KRDR,01-25-2021,23:56,METAR,Normal,30,13.0,,,9999.0,Light Snow,-16.9,-19.2,30.24,1027.2,71,,,,,,,,,,,,TRACE,,,4100.0,300.0,FEW,300.0,OVC,4100.0,,,,
KRDR,01-25-2021,22:56,METAR,Normal,30,10.0,,,9999.0,Light Snow,-16.7,-18.8,30.23,1026.9,71,,,,,,,,,,,,,,,9000.0,900.0,FEW,900.0,SCT,5500.0,OVC,9100.0,,
KRDR,01-25-2021,21:57,SPECI,Normal,20,13.0,,,9999.0,,-16.0,-18.0,30.22,1026.5,,,,,,,,,,,,,,,,9000.0,6000.0,FEW,6000.0,OVC,9100.0,,,,
KRDR,01-25-2021,21:56,METAR,Normal,30,10.0,,,9999.0,Light Snow,-16.1,-18.2,30.22,1026.5,71,,,,,,,,,,TRACE,,,,,9000.0,6000.0,FEW,6000.0,OVC,9100.0,,,,
KRDR,01-25-2021,20:56,METAR,Normal,40,11.0,,,9999.0,Light Snow,-15.5,-17.6,30.22,1026.4,71,,,,,,,,,,TRACE,TRACE,,,,9000.0,9000.0,OVC,9100.0,,,,,,
KRDR,01-25-2021,19:59,METAR,Normal,40,9.0,,,9999.0,Light Snow,-15.8,-17.9,30.22,1026.5,71,,,,,,,,,,,,,,,9000.0,9000.0,OVC,9100.0,,,,,,
KRDR,01-25-2021,19:56,METAR,Normal,40,10.0,,,9999.0,,-15.8,-18.1,30.22,1026.5,,,,,,,,,,,,,,,,9000.0,9000.0,OVC,9100.0,,,,,,
KRDR,01-25-2021,18:56,METAR,Normal,40,10.0,,,9999.0,Light Snow,-16.0,-18.1,30.25,1027.5,71,,,,,,,,,,TRACE,,,,,7000.0,2400.0,SCT,2400.0,OVC,7000.0,,,,
KRDR,01-25-2021,18:07,SPECI,Normal,50,9.0,,,8000.0,Light Snow,-16.0,-18.0,30.27,1028.2,71,,,,,,,,,,,,,,,2400.0,2400.0,OVC,2400.0,,,,,,
KRDR,01-25-2021,17:56,METAR,Normal,50,9.0,,,8000.0,Light Snow,-16.1,-18.4,30.27,1028.2,71,,,,,,,,,,TRACE,,TRACE,,,3000.0,3000.0,OVC,3000.0,,,,,,
KRDR,01-25-2021,16:56,METAR,Normal,60,10.0,,,9999.0,Light Snow,-16.5,-18.6,30.28,1028.5,71,,,,,,,,,,TRACE,,,,,4200.0,4200.0,OVC,4200.0,,,,,,
KRDR,01-25-2021,15:53,METAR,Normal,50,9.0,,,9999.0,,-17.2,-19.2,30.26,1027.8,,,,,,,,,,,TRACE,,,,,4900.0,4900.0,OVC,4900.0,,,,,,
KRDR,01-25-2021,14:55,METAR,Normal,50,7.0,,,8000.0,Light Snow,-17.4,-19.2,30.26,1027.8,71,,,,,,,,,,TRACE,TRACE,,,,4500.0,4500.0,OVC,4500.0,,,,,,
KRDR,01-25-2021,13:56,METAR,Normal,50,7.0,,,9999.0,Light Snow,-17.5,-19.3,30.26,1027.8,71,,,,,,,,,,TRACE,,,,,5500.0,5500.0,OVC,5500.0,,,,,,
KRDR,01-25-2021,12:56,METAR,Normal,50,8.0,,,9999.0,Light Snow,-17.7,-19.7,30.23,1026.8,71,,,,,,,,,,TRACE,,,,,4000.0,2200.0,FEW,2200.0,BKN,4000.0,BKN,5500.0,,
KRDR,01-25-2021,11:56,METAR,Normal,40,8.0,,,9999.0,,-18.1,-19.9,30.20,1025.8,,,,,,,,,,,.01 IN,,.01 IN,,,5500.0,5500.0,OVC,5500.0,,,,,,
KRDR,01-25-2021,10:56,METAR,Normal,40,9.0,,,9999.0,Light Snow,-18.1,-19.8,30.18,1025.1,71,,,,,,,,,,TRACE,,,,,9000.0,6500.0,FEW,6500.0,OVC,9100.0,,,,
KRDR,01-25-2021,09:56,METAR,Normal,50,7.0,,,9999.0,Light Snow,-17.6,-19.3,30.21,1026.1,71,,,,,,,,,,TRACE,,,,,4800.0,4800.0,OVC,4800.0,,,,,,
KRDR,01-25-2021,08:56,METAR,Normal,50,6.0,,,9999.0,Light Snow,-17.6,-19.3,30.23,1026.8,71,,,,,,,,,,TRACE,TRACE,,,,3700.0,3700.0,OVC,3700.0,,,,,,
KRDR,01-25-2021,07:56,METAR,Normal,50,7.0,,,6400.0,Light Snow,-17.6,-19.3,30.23,1026.8,71,,,,,,,,,,TRACE,,,,,3000.0,3000.0,OVC,3000.0,,,,,,
KRDR,01-25-2021,06:56,METAR,Normal,50,7.0,,,8000.0,Light Snow,-17.6,-19.4,30.23,1026.8,,,,71,,,,,,,TRACE,,,,,3600.0,3600.0,OVC,3600.0,,,,,,
KRDR,01-25-2021,05:56,METAR,Normal,50,8.0,,,9999.0,Light Snow,-17.3,-19.0,30.22,1026.5,71,,,,,,,,,,.01 IN,,.01 IN,,,5500.0,400.0,FEW,400.0,SCT,3500.0,BKN,5500.0,OVC,10000.0
KRDR,01-25-2021,04:56,METAR,Normal,50,6.0,,,9999.0,Light Snow,-17.1,-18.9,30.22,1026.5,71,,,,,,,,,,TRACE,,,,,4100.0,4100.0,OVC,4100.0,,,,,,
KRDR,01-25-2021,03:56,METAR,Normal,60,6.0,,,6400.0,Light Snow,-16.8,-18.8,30.21,1026.2,71,,,,,,,,,,TRACE,,,,,3500.0,3500.0,OVC,3500.0,,,,,,
KRDR,01-25-2021,02:56,METAR,Normal,70,6.0,,,9999.0,Light Snow,-16.7,-19.0,30.20,1025.9,71,,,,,,,,,,TRACE,TRACE,,,,4100.0,4100.0,OVC,4100.0,,,,,,
KRDR,01-25-2021,01:56,METAR,Normal,50,6.0,,,9999.0,Light Snow,-16.4,-19.7,30.20,1025.9,71,,,,,,,,,,TRACE,,,,,2200.0,2900.0,OVC,2900.0,,,,,,
KRDR,01-25-2021,01:47,SPECI,Normal,50,6.0,,,9999.0,Light Snow,-16.0,-20.0,30.19,1025.5,71,,,,,,,,,,,,,,,2000.0,2700.0,OVC,2700.0,,,,,,
KRDR,01-25-2021,00:56,METAR,Normal,60,6.0,,,9999.0,,-16.3,-20.1,30.19,1025.4,,,,,,,,,,,,,,,,,5500.0,SCT,5500.0,,,,,,
KRDR,01-24-2021,23:56,METAR,Normal,60,6.0,,,9999.0,,-16.0,-19.9,30.18,1025.1,,,,,,,,,,,,,,,,,3500.0,SCT,3500.0,,,,,,
KRDR,01-24-2021,22:56,METAR,Normal,60,5.0,,,9999.0,,-15.5,-20.5,30.20,1025.7,,,,,,,,,,,,,,,,5500.0,4400.0,SCT,4400.0,BKN,5500.0,,,,
KRDR,01-24-2021,21:56,METAR,Normal,80,3.0,,,9999.0,,-15.1,-20.6,30.20,1025.7,,,,,,,,,,,,,,,,5000.0,3900.0,FEW,3900.0,OVC,5000.0,,,,
KRDR,01-24-2021,20:56,METAR,Calm,,0.0,,,9999.0,,-15.6,-20.9,30.18,1025.0,,,,,,,,,,,,,,,,5000.0,4300.0,SCT,4300.0,OVC,5000.0,,,,
KRDR,01-24-2021,19:56,METAR,Normal,30,4.0,,,9999.0,,-16.0,-20.8,30.18,1025.0,,,,,,,,,,,,,,,,4900.0,4900.0,OVC,4900.0,,,,,,
KRDR,01-24-2021,18:56,METAR,Calm,,0.0,,,9999.0,,-16.6,-21.3,30.19,1025.3,,,,,,,,,,,,,,,,5500.0,5500.0,OVC,5500.0,,,,,,
KRDR,01-24-2021,17:56,METAR,Normal,10,4.0,,,9999.0,,-16.6,-21.7,30.20,1025.5,,,,,,,,,,,,,,,2/8 Mostly Clear,72000.0,6000.0,FEW,6000.0,,,,,,
KRDR,01-24-2021,16:56,METAR,Normal,10,6.0,,,9999.0,,-17.7,-22.1,30.21,1025.8,,,,,,,,,,,,,,,2/8 Mostly Clear,72000.0,6000.0,FEW,6000.0,,,,,,
KRDR,01-24-2021,15:56,METAR,Normal,340,10.0,,,9999.0,,-18.7,-22.7,30.20,1025.4,,,,,,,,,,,,,,,2/8 Mostly Clear,72000.0,6000.0,FEW,6000.0,,,,,,
KRDR,01-24-2021,14:56,METAR,Normal,330,9.0,,,9999.0,,-19.6,-23.0,30.20,1025.3,,,,,,,,,,,,,,,4/8 Partly Cloudy,72000.0,6000.0,SCT,6000.0,,,,,,
KRDR,01-24-2021,13:51,METAR,Normal,330,11.0,,,9999.0,,-19.5,-22.6,30.17,1024.3,,,,,,,,,,,,,,,2/8 Mostly Clear,72000.0,6000.0,FEW,6000.0,,,,,,
KRDR,01-24-2021,12:56,METAR,Normal,330,10.0,,,9999.0,,-18.2,-21.3,30.15,1023.5,,,,,,,,,,,,,,,,6000.0,6000.0,OVC,6000.0,,,,,,
KRDR,01-24-2021,11:56,METAR,Normal,320,10.0,,,9999.0,,-17.7,-21.0,30.13,1022.9,,,,,,,,,,,,,,,,6000.0,6000.0,BKN,6000.0,OVC,7500.0,,,,
KRDR,01-24-2021,10:56,METAR,Normal,310,9.0,,,9999.0,,-17.9,-20.7,30.12,1022.4,,,,,,,,,,,,,,,,8000.0,8000.0,OVC,8000.0,,,,,,
KRDR,01-24-2021,09:56,METAR,Normal,340,8.0,,,9999.0,,-17.9,-20.7,30.10,1021.7,,,,,,,,,,,,,,,Clear,72000.0,,,,,,,,,
KRDR,01-24-2021,08:56,METAR,Normal,310,9.0,,,9999.0,Light Snow,-16.8,-19.6,30.10,1021.7,71,,,,,,,,,,,,,,Clear,72000.0,,,,,,,,,
KRDR,01-24-2021,07:56,METAR,Normal,320,13.0,,,9999.0,,-15.2,-18.2,30.07,1020.6,,,,,,,,,,,,,,,Clear,72000.0,,,,,,,,,
KRDR,01-24-2021,06:56,METAR,Normal,320,14.0,,,9999.0,,-13.6,-16.3,30.06,1020.3,,,,,,,,,,,,,,,,,1100.0,FEW,1100.0,,,,,,
KRDR,01-24-2021,05:56,METAR,Normal,320,16.0,,,9999.0,,-10.5,-12.7,30.03,1019.2,,,,,,,,,,,,,,,,,9000.0,FEW,9100.0,,,,,,
KRDR,01-24-2021,04:56,METAR,Normal,320,11.0,,,9999.0,,-8.9,-11.1,30.01,1018.5,,,,,,,,,,,,,,,,,9500.0,FEW,9600.0,,,,,,
KRDR,01-24-2021,03:56,METAR,Normal,300,14.0,,,9999.0,,-6.4,-9.3,29.99,1017.8,,,,,,,,,,,,,,,,3500.0,2300.0,SCT,2300.0,BKN,3500.0,BKN,9600.0,OVC,13000.0
KRDR,01-24-2021,02:56,METAR,Normal,310,8.0,,,9999.0,,-4.9,-7.7,29.97,1017.1,,,,,,,,,,,,TRACE,,,,6500.0,3200.0,SCT,3200.0,OVC,6500.0,,,,
KRDR,01-24-2021,01:56,METAR,Normal,310,9.0,,,9999.0,,-4.2,-6.2,29.96,1016.6,,,,,,,,,,,,,,,,3100.0,3100.0,OVC,3100.0,,,,,,
KRDR,01-24-2021,00:56,METAR,Normal,320,9.0,,,9999.0,,-3.9,-6.1,29.94,1015.9,,,,,,,,,,,,,,,,3200.0,3200.0,OVC,3200.0,,,,,,
KRDR,01-23-2021,23:56,METAR,Normal,210,3.0,,,9999.0,,-4.4,-4.5,29.92,1015.2,,,,,,,,,,,,,,,,2400.0,2400.0,BKN,2400.0,OVC,3200.0,,,,
KRDR,01-23-2021,22:56,METAR,Normal,180,10.0,,,9999.0,,-3.1,-3.9,29.90,1014.5,,,,,,,,,,,,,,,,1700.0,1700.0,BKN,1700.0,OVC,2300.0,,,,
KRDR,01-23-2021,21:56,METAR,Normal,170,7.0,,,9999.0,,-2.3,-3.6,29.89,1014.1,,,,,,,,,,,,,,,,8000.0,1700.0,SCT,1700.0,OVC,8000.0,,,,
KRDR,01-23-2021,21:31,SPECI,Normal,170,9.0,,,9999.0,,-3.0,-4.0,29.89,1014.2,,,,,,,,,,,,,,,,1600.0,1700.0,OVC,1700.0,,,,,,
KRDR,01-23-2021,20:56,METAR,Normal,200,10.0,,,9999.0,,-2.3,-4.0,29.90,1014.4,,,,,,,,,,,,,,,,1400.0,1400.0,OVC,1400.0,,,,,,
KRDR,01-23-2021,19:56,METAR,Normal,180,8.0,,,9999.0,,-3.1,-5.0,29.91,1014.9,,,,,,,,,,,,,,,,5000.0,3500.0,FEW,3500.0,OVC,5000.0,,,,
KRDR,01-23-2021,18:56,METAR,Normal,180,11.0,,,9999.0,,-4.6,-6.4,29.92,1015.4,,,,,,,,,,,,,,,,7500.0,4500.0,FEW,4500.0,SCT,6000.0,OVC,7500.0,,
KRDR,01-23-2021,17:56,METAR,Normal,180,13.0,,,9999.0,,-5.5,-7.6,29.95,1016.4,,,,,,,,,,,,,,,,5000.0,4300.0,FEW,4300.0,BKN,5000.0,,,,
KRDR,01-23-2021,16:56,METAR,Normal,180,12.0,,,9999.0,,-6.6,-8.6,29.98,1017.4,,,,,,,,,,,,,,,,9000.0,9000.0,OVC,9100.0,,,,,,
KRDR,01-23-2021,15:56,METAR,Normal,180,11.0,,,9999.0,,-8.1,-9.3,29.98,1017.4,,,,,,,,,,,,,,,2/8 Mostly Clear,72000.0,20000.0,FEW,20000.0,,,,,,
KRDR,01-23-2021,14:56,METAR,Normal,170,10.0,,,9999.0,,-9.1,-9.6,29.98,1017.5,,,,,,,,,,,,,,,Clear,72000.0,,,,,,,,,
KRDR,01-23-2021,13:56,METAR,Normal,180,7.0,,,9999.0,,-8.2,-8.3,29.99,1017.8,,,,,,,,,,,,,,,Clear,72000.0,,,,,,,,,
KRDR,01-23-2021,12:56,METAR,Normal,180,9.0,,,9999.0,,-6.2,-7.3,30.00,1018.0,,,,,,,,,,,,,,,,4700.0,4700.0,OVC,4700.0,,,,,,
KRDR,01-23-2021,11:56,METAR,Normal,190,6.0,,,9999.0,,-6.6,-7.4,30.01,1018.4,,,,,,,,,,,,,TRACE,,,4800.0,4800.0,OVC,4800.0,,,,,,
KRDR,01-23-2021,10:56,METAR,Normal,180,5.0,,,9999.0,,-7.0,-8.2,30.02,1018.8,,,,,,,,,,,,,,,,4900.0,4900.0,OVC,4900.0,,,,,,
KRDR,01-23-2021,09:56,METAR,Normal,200,7.0,,,9999.0,,-6.6,-8.4,30.04,1019.4,,,,,,,,,,,,,,,,5000.0,3500.0,SCT,3500.0,OVC,5000.0,,,,
KRDR,01-23-2021,08:56,METAR,Normal,190,9.0,,,9999.0,,-6.6,-8.6,30.04,1019.4,,,,,,,,,,,,TRACE,,,,4000.0,4000.0,OVC,4000.0,,,,,,
KRDR,01-23-2021,07:56,METAR,Normal,190,8.0,,,9999.0,,-6.8,-8.9,30.04,1019.4,,,,,,,,,,,TRACE,,,,,3300.0,3300.0,OVC,3300.0,,,,,,
KRDR,01-23-2021,06:56,METAR,Normal,190,6.0,,,9999.0,,-8.5,-9.4,30.07,1020.5,,,,,,,,,,,TRACE,,,,,3500.0,3500.0,OVC,3500.0,,,,,,
KRDR,01-23-2021,06:01,SPECI,Normal,190,6.0,,,9999.0,Light Snow,-10.0,-11.0,30.08,1020.9,71,,,,,,,,,,,,,,,10000.0,4000.0,FEW,4000.0,OVC,10000.0,,,,
KRDR,01-23-2021,05:56,METAR,Normal,200,6.0,,,9999.0,,-9.7,-10.6,30.08,1020.9,,,,,,,,,,,TRACE,,TRACE,,,11000.0,11000.0,BKN,11000.0,,,,,,
KRDR,01-23-2021,05:42,SPECI,Normal,200,6.0,,,9999.0,Light Snow,-10.0,-11.0,30.09,1021.2,71,,,,,,,,,,,,,,,11000.0,11000.0,BKN,11000.0,,,,,,
KRDR,01-23-2021,05:34,SPECI,Normal,200,5.0,,,9999.0,,-9.0,-11.0,30.09,1021.2,,,,,,,,,,,,,,,,11000.0,3300.0,FEW,3300.0,BKN,11000.0,,,,
KRDR,01-23-2021,04:56,METAR,Normal,220,4.0,,,9999.0,,-7.2,-9.9,30.09,1021.2,,,,,,,,,,,TRACE,,,,,3000.0,3000.0,OVC,3000.0,,,,,,
KRDR,01-23-2021,04:51,SPECI,Normal,240,4.0,,,9999.0,,-7.0,-10.0,30.09,1021.2,,,,,,,,,,,,,,,,3000.0,3000.0,OVC,3000.0,,,,,,
KRDR,01-23-2021,04:21,SPECI,Normal,270,4.0,,,9999.0,,-7.0,-10.0,30.09,1021.2,,,,,,,,,,,,,,,,2000.0,2100.0,FEW,2100.0,OVC,2800.0,,,,
KRDR,01-23-2021,04:18,SPECI,Normal,270,5.0,,,9999.0,Light Snow,-7.0,-10.0,30.09,1021.2,71,,,,,,,,,,,,,,,2000.0,2800.0,OVC,2800.0,,,,,,
KRDR,01-23-2021,03:56,METAR,Normal,280,7.0,,,9999.0,Light Snow,-6.8,-8.8,30.09,1021.2,71,,,,,,,,,,TRACE,,,,,2700.0,2700.0,OVC,2700.0,,,,,,
KRDR,01-23-2021,03:11,SPECI,Normal,250,4.0,,,9999.0,Light Snow,-7.0,-8.0,30.09,1021.3,71,,,,,,,,,,,,,,,1900.0,2000.0,FEW,2000.0,OVC,2700.0,,,,
KRDR,01-23-2021,03:10,SPECI,Normal,250,5.0,,,9999.0,,-7.0,-8.0,30.09,1021.3,,,,,,,,,,,,,,,,1900.0,2000.0,FEW,2000.0,OVC,2700.0,,,,
KRDR,01-23-2021,03:06,SPECI,Normal,250,5.0,,,9999.0,Light Snow,-7.0,-8.0,30.09,1021.3,71,,,,,,,,,,,,,,,1900.0,2000.0,FEW,2000.0,OVC,2700.0,,,,
KRDR,01-23-2021,02:56,METAR,Normal,240,4.0,,,9999.0,Light Snow,-6.7,-7.9,30.09,1021.3,71,,,,,,,,,,TRACE,TRACE,,,,2700.0,2700.0,OVC,2700.0,,,,,,
KRDR,01-23-2021,02:23,SPECI,Normal,220,5.0,,,9999.0,Light Snow,-7.0,-8.0,30.08,1021.0,71,,,,,,,,,,,,,,,1300.0,2700.0,OVC,2700.0,,,,,,
KRDR,01-23-2021,02:20,SPECI,Normal,220,5.0,,,9999.0,,-7.0,-8.0,30.09,1021.3,,,,,,,,,,,,,,,,1000.0,2700.0,OVC,2700.0,,,,,,
KRDR,01-23-2021,01:59,SPECI,Normal,200,6.0,,,9999.0,Light Snow,-7.0,-8.0,30.09,1021.3,71,,,,,,,,,,,,,,,1000.0,2800.0,OVC,2800.0,,,,,,
KRDR,01-23-2021,01:55,METAR,Normal,200,5.0,,,9999.0,Light Snow,-6.8,-8.3,30.08,1021.0,71,,,,,,,,,,TRACE,,,,,2800.0,2800.0,OVC,2800.0,,,,,,
KRDR,01-23-2021,01:06,SPECI,Normal,220,5.0,,,9999.0,Light Snow,-7.0,-9.0,30.09,1021.4,71,,,,,,,,,,,,,,,2200.0,2800.0,OVC,2800.0,,,,,,
KRDR,01-23-2021,00:56,METAR,Normal,220,5.0,,,9999.0,Light Snow,-6.7,-8.8,30.10,1021.7,,,,71,,,,,,,TRACE,,,,,3000.0,3000.0,OVC,3000.0,,,,,,
KRDR,01-23-2021,00:32,SPECI,Normal,230,5.0,,,9999.0,Light Snow,-7.0,-9.0,30.09,1021.4,71,,,,,,,,,,,,,,,3100.0,3100.0,OVC,3100.0,,,,,,
KRDR,01-22-2021,23:55,METAR,Normal,240,4.0,,,9999.0,Light Snow,-6.5,-9.2,30.09,1021.4,71,,,,,,,,,,TRACE,,TRACE,,,3000.0,3000.0,OVC,3000.0,,,,,,
KRDR,01-22-2021,22:56,METAR,Normal,270,7.0,,,9999.0,Light Snow,-6.1,-9.5,30.09,1021.4,71,,,,,,,,,,TRACE,,,,,3300.0,3300.0,OVC,3300.0,,,,,,
KRDR,01-22-2021,22:36,SPECI,Normal,250,6.0,,,9999.0,Light Snow,-6.0,-9.0,30.09,1021.4,71,,,,,,,,,,,,,,,2800.0,2800.0,OVC,2800.0,,,,,,
KRDR,01-22-2021,21:56,METAR,Normal,290,7.0,,,9999.0,,-5.7,-9.6,30.08,1021.1,,,,,,,,,,,,,,,,2300.0,2300.0,OVC,2300.0,,,,,,
KRDR,01-22-2021,20:56,METAR,Normal,290,8.0,,,9999.0,,-5.6,-9.9,30.09,1021.6,,,,,,,,,,,TRACE,TRACE,,,,2500.0,2500.0,OVC,2500.0,,,,,,
KRDR,01-22-2021,20:30,SPECI,Normal,280,9.0,,,9999.0,,-5.0,-10.0,30.08,1021.1,,,,,,,,,,,,,,,,2500.0,2500.0,OVC,2500.0,,,,,,
KRDR,01-22-2021,19:56,METAR,Normal,290,10.0,,,9999.0,Light Snow,-5.6,-10.2,30.09,1021.5,71,,,,,,,,,,TRACE,,,,,1400.0,1400.0,BKN,1400.0,OVC,2800.0,,,,
KRDR,01-22-2021,18:56,METAR,Normal,280,10.0,,,9999.0,Light Snow,-6.3,-10.5,30.10,1021.9,71,,,,,,,,,,TRACE,,,,,2300.0,2300.0,BKN,2300.0,,,,,,
KRDR,01-22-2021,17:55,METAR,Normal,290,10.0,,,9999.0,Light Snow,-6.3,-10.4,30.12,1022.6,71,,,,,,,,,,TRACE,,TRACE,,,2200.0,1700.0,SCT,1700.0,BKN,2200.0,,,,
KRDR,01-22-2021,17:48,SPECI,Normal,290,11.0,,,9999.0,Light Snow,-6.0,-10.0,30.12,1022.6,71,,,,,,,,,,,,,,,2200.0,1700.0,SCT,1700.0,BKN,2200.0,,,,
KRDR,01-22-2021,17:02,SPECI,Normal,280,9.0,,,9999.0,,-7.0,-11.0,30.13,1022.9,,,,,,,,,,,,,,,,6000.0,3600.0,SCT,3600.0,BKN,6000.0,,,,
KRDR,01-22-2021,16:54,METAR,Normal,280,9.0,,,9999.0,Light Snow,-7.2,-10.6,30.13,1022.9,71,,,,,,,,,,TRACE,,,,,3400.0,1900.0,SCT,1900.0,BKN,3400.0,,,,
KRDR,01-22-2021,16:42,SPECI,Normal,270,8.0,,,8000.0,Light Snow,-8.0,-10.0,30.13,1023.0,71,,,,,,,,,,,,,,,1900.0,1900.0,BKN,1900.0,OVC,3100.0,,,,
KRDR,01-22-2021,16:25,SPECI,Normal,260,8.0,,,3000.0,Light Snow,-9.0,-11.0,30.13,1023.0,71,,,,,,,,,,,,,,,2100.0,2100.0,BKN,2100.0,OVC,2800.0,,,,
KRDR,01-22-2021,15:54,METAR,Normal,270,12.0,,,8000.0,Light Snow,-9.5,-11.7,30.13,1023.0,71,,,,,,,,,,TRACE,,,,,1400.0,1400.0,BKN,1400.0,OVC,4300.0,,,,
KRDR,01-22-2021,15:48,SPECI,Normal,260,11.0,,,8000.0,Light Snow,-10.0,-12.0,30.12,1022.8,71,,,,,,,,,,,,,,,1300.0,1300.0,BKN,1300.0,OVC,4100.0,,,,
KRDR,01-22-2021,15:28,SPECI,Normal,260,9.0,,,8000.0,Light Snow,-10.0,-12.0,30.12,1022.7,71,,,,,,,,,,,,,,,1500.0,1500.0,BKN,1500.0,OVC,4200.0,,,,
KRDR,01-22-2021,14:59,SPECI,Normal,260,8.0,,,8000.0,Light Snow,-10.0,-13.0,30.12,1022.7,71,,,,,,,,,,,,,,,2000.0,2000.0,BKN,2000.0,OVC,5000.0,,,,
KRDR,01-22-2021,14:55,METAR,Normal,260,8.0,,,8000.0,Light Snow,-10.4,-12.8,30.12,1022.7,71,,,,,,,,,,TRACE,TRACE,,,,2000.0,2000.0,BKN,2000.0,OVC,5000.0,,,,
KRDR,01-22-2021,14:34,SPECI,Normal,250,8.0,,,9999.0,Light Snow,-11.0,-13.0,30.11,1022.4,71,,,,,,,,,,,,,,,1700.0,1700.0,BKN,1700.0,OVC,2600.0,,,,
KRDR,01-22-2021,13:57,METAR,Normal,240,7.0,,,9999.0,,-11.4,-13.7,30.11,1022.4,,,,,,,,,,,,,,,,1400.0,2600.0,OVC,2600.0,,,,,,
KRDR,01-22-2021,12:57,METAR,Normal,250,6.0,,,9999.0,,-12.7,-14.6,30.12,1022.8,,,,,,,,,,,,,,,,2300.0,2500.0,BKN,2500.0,BKN,7500.0,OVC,10000.0,,
KRDR,01-22-2021,11:57,METAR,Normal,240,7.0,,,9999.0,,-13.4,-15.4,30.12,1022.7,,,,,,,,,,,,,,,,9000.0,9000.0,BKN,9100.0,OVC,12000.0,,,,
KRDR,01-22-2021,10:57,METAR,Normal,250,7.0,,,9999.0,,-14.0,-15.9,30.13,1023.0,,,,,,,,,,,,,,,,9000.0,9000.0,BKN,9100.0,OVC,12000.0,,,,
KRDR,01-22-2021,09:57,METAR,Normal,270,4.0,,,9999.0,,-14.8,-16.5,30.13,1023.0,,,,,,,,,,,,,,,,11000.0,11000.0,OVC,11000.0,,,,,,
KRDR,01-22-2021,08:57,METAR,Normal,250,5.0,,,9999.0,,-17.1,-18.8,30.15,1023.8,,,,,,,,,,,,,,,,11000.0,11000.0,BKN,11000.0,,,,,,
KRDR,01-22-2021,07:57,METAR,Calm,,0.0,,,9999.0,,-16.4,-18.1,30.15,1023.7,,,,,,,,,,,,,,,,9500.0,9500.0,BKN,9600.0,,,,,,
KRDR,01-22-2021,06:57,METAR,Normal,290,6.0,,,9999.0,,-17.3,-19.0,30.16,1024.1,,,,,,,,,,,,,,,4/8 Partly Cloudy,72000.0,10000.0,SCT,10000.0,,,,,,
KRDR,01-22-2021,05:56,METAR,Normal,240,6.0,,,9999.0,,-17.5,-19.2,30.17,1024.5,,,,,,,,,,,,,,,2/8 Mostly Clear,72000.0,10000.0,FEW,10000.0,,,,,,
KRDR,01-22-2021,04:56,METAR,Normal,300,7.0,,,9999.0,,-17.7,-19.4,30.16,1024.2,,,,,,,,,,,,,,,2/8 Mostly Clear,72000.0,10000.0,FEW,10000.0,,,,,,
KRDR,01-22-2021,03:56,METAR,Normal,300,5.0,,,9999.0,,-17.3,-19.1,30.15,1023.9,,,,,,,,,,,,,,,Clear,72000.0,,,,,,,,,
KRDR,01-22-2021,02:56,METAR,Normal,310,6.0,,,9999.0,,-16.3,-18.4,30.15,1023.9,,,,,,,,,,,,,,,Clear,72000.0,,,,,,,,,
KRDR,01-22-2021,01:56,METAR,Normal,310,7.0,,,9999.0,,-15.0,-17.9,30.15,1023.8,,,,,,,,,,,,,,,Clear,72000.0,,,,,,,,,
KRDR,01-22-2021,00:56,METAR,Normal,320,6.0,,,9999.0,,-14.7,-17.7,30.13,1023.0,,,,,,,,,,,,,,,Clear,72000.0,,,,,,,,,
KRDR,01-21-2021,23:56,METAR,Normal,320,9.0,,,9999.0,,-13.7,-17.5,30.11,1022.2,,,,,,,,,,,,,,,Clear,72000.0,,,,,,,,,
KRDR,01-21-2021,22:56,METAR,Normal,330,11.0,,,9999.0,,-12.7,-17.1,30.10,1021.7,,,,,,,,,,,,,,,2/8 Mostly Clear,72000.0,2200.0,FEW,2200.0,,,,,,
KRDR,01-21-2021,21:56,METAR,Normal,320,14.0,,,9999.0,,-11.6,-16.5,30.07,1020.4,,,,,,,,,,,,,,,2/8 Mostly Clear,72000.0,1500.0,FEW,1500.0,,,,,,
KRDR,01-21-2021,21:36,SPECI,Normal,340,14.0,,,9999.0,,-11.0,-16.0,30.06,1020.1,,,,,,,,,,,,,,,4/8 Partly Cloudy,72000.0,1700.0,SCT,1700.0,SCT,2400.0,,,,
KRDR,01-21-2021,21:16,SPECI,Normal,330,15.0,,,9999.0,,-11.0,-16.0,30.05,1019.7,,,,,,,,,,,,,,,,1900.0,1500.0,FEW,1500.0,OVC,2300.0,,,,
KRDR,01-21-2021,20:56,METAR,Normal,340,14.0,,,9999.0,,-10.7,-16.0,30.04,1019.4,,,,,,,,,,,,,,,,2500.0,1600.0,FEW,1600.0,BKN,2600.0,,,,
KRDR,01-21-2021,20:36,SPECI,Normal,340,10.0,18.0,,9999.0,,-10.0,-16.0,30.03,1019.0,,,,,,,,,,,,,,,,2500.0,2500.0,BKN,2500.0,,,,,,
KRDR,01-21-2021,19:56,METAR,Normal,350,11.0,,,9999.0,,-10.9,-16.2,30.02,1018.7,,,,,,,,,,,,,,,2/8 Mostly Clear,72000.0,2400.0,FEW,2400.0,,,,,,
KRDR,01-21-2021,18:58,METAR,Normal,340,16.0,21.0,,9999.0,,-11.0,-15.8,29.99,1017.7,,,,,,,,,,,,,,,4/8 Partly Cloudy,72000.0,2300.0,SCT,2300.0,,,,,,
KRDR,01-21-2021,17:56,METAR,Normal,340,18.0,23.0,,9999.0,,-12.0,-16.1,29.98,1017.3,,,,,,,,,,,,,TRACE,,,2000.0,1200.0,SCT,1200.0,BKN,2000.0,,,,
KRDR,01-21-2021,16:58,METAR,Variable,360,15.0,,,9999.0,,-12.7,-16.1,29.97,1017.1,,,,,,,,,,,TRACE,,TRACE,,,2100.0,700.0,FEW,700.0,SCT,1400.0,BKN,2100.0,,
KRDR,01-21-2021,16:28,SPECI,Normal,360,14.0,18.0,,8000.0,Light Snow,-13.0,-15.0,29.95,1016.4,71,,,,,,,,,,,,,,,1600.0,400.0,SCT,400.0,BKN,1600.0,,,,
KRDR,01-21-2021,16:13,SPECI,Normal,360,14.0,,,3200.0,Light Snow/Mist,-13.0,-15.0,29.94,1016.0,71,10,,,,,,,,,,,,,,500.0,500.0,BKN,500.0,,,,,,
KRDR,01-21-2021,15:59,METAR,Normal,10,14.0,,,9999.0,Mist,-13.1,-15.3,29.93,1015.7,10,,,,,,,,,,,,,,,200.0,600.0,SCT,600.0,BKN,1100.0,OVC,8000.0,,
KRDR,01-21-2021,14:56,METAR,Normal,10,14.0,21.0,,9999.0,,-13.5,-15.8,29.88,1014.0,,,,,,,,,,,,TRACE,,,4/8 Partly Cloudy,72000.0,500.0,SCT,500.0,SCT,1100.0,,,,
KRDR,01-21-2021,14:45,SPECI,Normal,10,16.0,,,9999.0,,-13.0,-15.0,29.87,1013.7,,,,,,,,,,,,,,,,1000.0,400.0,SCT,400.0,BKN,1000.0,,,,
KRDR,01-21-2021,13:58,METAR,Normal,10,14.0,,,9999.0,,-13.4,-15.1,29.84,1012.6,,,,,,,,,,,,,TRACE,,2/8 Mostly Clear,72000.0,1000.0,FEW,1000.0,,,,,,
KRDR,01-21-2021,13:13,SPECI,Normal,10,14.0,20.0,,9999.0,,-11.0,-14.0,29.80,1011.1,,,,,,,,,,,,,,,,500.0,500.0,BKN,500.0,OVC,5000.0,,,,
KRDR,01-21-2021,13:01,SPECI,Normal,10,15.0,23.0,,9999.0,,-11.0,-13.0,29.79,1010.8,,,,,,,,,,,,,,,,600.0,700.0,BKN,700.0,OVC,5500.0,,,,
KRDR,01-21-2021,12:57,METAR,Normal,10,17.0,23.0,010/26KTS,9999.0,,-10.4,-12.8,29.78,1010.4,,,,,,,,,,,TRACE,,,,,700.0,900.0,BKN,900.0,OVC,5500.0,,,,
KRDR,01-21-2021,12:38,SPECI,Normal,20,15.0,,,9999.0,,-10.0,-12.0,29.77,1010.1,,,,,,,,,,,,,,,,1000.0,1000.0,BKN,1000.0,OVC,5000.0,,,,
KRDR,01-21-2021,12:15,SPECI,Normal,20,18.0,23.0,,9999.0,Light Snow,-9.0,-11.0,29.74,1009.0,,,,71,,,,,,,,,,,,1100.0,1100.0,BKN,1100.0,BKN,3700.0,OVC,4700.0,,
KRDR,01-21-2021,12:04,SPECI,Normal,10,19.0,25.0,,9999.0,Light Snow,-8.0,-10.0,29.74,1009.0,,,,71,,,,,,,,,,,,3700.0,1000.0,FEW,1000.0,BKN,3700.0,OVC,4500.0,,
KRDR,01-21-2021,11:57,METAR,Normal,20,17.0,,020/30KTS,9999.0,Light Snow,-7.6,-9.4,29.72,1008.2,,,,71,,,,,,,TRACE,,TRACE,,,3700.0,3700.0,BKN,3700.0,OVC,4400.0,,,,
KRDR,01-21-2021,10:57,METAR,Normal,360,17.0,23.0,,9999.0,Light Snow,-4.8,-6.3,29.67,1006.4,,,,71,,,,,,,TRACE,,,,,1400.0,1500.0,BKN,1500.0,OVC,2400.0,,,,
KRDR,01-21-2021,10:34,SPECI,Normal,10,17.0,28.0,,9999.0,Light Snow,-4.0,-6.0,29.65,1005.7,71,,,,,,,,,,,,,,,1600.0,1600.0,BKN,1600.0,OVC,2200.0,,,,
KRDR,01-21-2021,10:24,SPECI,Normal,10,23.0,28.0,,9999.0,Light Drizzle,-1.0,-3.0,29.63,1004.8,51,,,,,,,,,,,,,,,2200.0,1500.0,SCT,1500.0,OVC,2200.0,,,,
KRDR,01-21-2021,10:17,SPECI,Normal,340,17.0,,,9999.0,,0.0,-3.0,29.61,1004.2,,,,,,,,,,,,,,,,2200.0,2200.0,OVC,2200.0,,,,,,
KRDR,01-21-2021,09:56,METAR,Normal,300,16.0,,,9999.0,,-0.5,-3.0,29.60,1003.8,,,,,,,,,,,,,,,,2200.0,2400.0,BKN,2400.0,OVC,3000.0,,,,
KRDR,01-21-2021,09:46,SPECI,Normal,300,13.0,21.0,,9999.0,,-1.0,-3.0,29.59,1003.5,,,,,,,,,,,,,,,,2200.0,2600.0,BKN,2600.0,BKN,3500.0,OVC,4200.0,,
KRDR,01-21-2021,09:06,SPECI,Normal,300,17.0,24.0,,9999.0,,0.0,-3.0,29.57,1002.7,,,,,,,,,,,,,,,,4100.0,2600.0,SCT,2600.0,BKN,4100.0,OVC,5500.0,,
KRDR,01-21-2021,08:56,METAR,Normal,300,18.0,23.0,300/27KTS,9999.0,,-0.3,-3.0,29.56,1002.4,,,,,,,,,,,,,,,,2600.0,2600.0,BKN,2600.0,OVC,3700.0,,,,
KRDR,01-21-2021,08:46,SPECI,Normal,300,19.0,25.0,,9999.0,,0.0,-3.0,29.56,1002.5,,,,,,,,,,,,,,,,2600.0,2600.0,BKN,2600.0,BKN,3200.0,,,,
KRDR,01-21-2021,08:26,SPECI,Normal,290,17.0,24.0,,9999.0,,-1.0,-3.0,29.54,1001.8,,,,,,,,,,,,,,,,3100.0,3100.0,BKN,3100.0,,,,,,
KRDR,01-21-2021,07:56,METAR,Normal,300,17.0,24.0,,9999.0,,-1.6,-4.3,29.54,1001.8,,,,,,,,,,,,,,,,2900.0,2900.0,BKN,2900.0,,,,,,
KRDR,01-21-2021,06:56,METAR,Normal,300,17.0,28.0,290/29KTS,9999.0,,-1.2,-4.7,29.51,1000.8,,,,,,,,,,,,,,,,16000.0,16000.0,BKN,16000.0,,,,,,
KRDR,01-21-2021,05:56,METAR,Normal,290,17.0,23.0,280/28KTS,9999.0,,-1.0,-4.9,29.51,1000.8,,,,,,,,,,,,,,,2/8 Mostly Clear,72000.0,22000.0,FEW,22000.0,,,,,,
KRDR,01-21-2021,04:56,METAR,Normal,290,14.0,23.0,280/26KTS,9999.0,,-0.8,-4.7,29.52,1001.0,,,,,,,,,,,,,,,,11000.0,11000.0,BKN,11000.0,,,,,,
KRDR,01-21-2021,03:56,METAR,Normal,290,18.0,24.0,290/26KTS,9999.0,,-0.6,-4.3,29.52,1001.1,,,,,,,,,,,,,,,Clear,72000.0,,,,,,,,,
KRDR,01-21-2021,02:56,METAR,Normal,300,15.0,21.0,,9999.0,,-0.6,-4.0,29.52,1001.2,,,,,,,,,,,,,,,2/8 Mostly Clear,72000.0,3500.0,FEW,3500.0,,,,,,
KRDR,01-21-2021,01:56,METAR,Normal,300,15.0,22.0,330/27KTS,9999.0,,0.1,-3.3,29.53,1001.6,,,,,,,,,,,,,,,,3500.0,3500.0,BKN,3500.0,,,,,,
KRDR,01-21-2021,00:56,METAR,Normal,300,18.0,27.0,300/31KTS,9999.0,,0.4,-3.2,29.51,1000.9,,,,,,,,,,,,,,,2/8 Mostly Clear,72000.0,3400.0,FEW,3400.0,,,,,,
KRDR,01-20-2021,23:56,METAR,Normal,300,20.0,26.0,300/35KTS,9999.0,,1.0,-2.6,29.49,1000.2,,,,,,,,,,,,,,,4/8 Partly Cloudy,72000.0,3000.0,SCT,3000.0,,,,,,
KRDR,01-20-2021,22:56,METAR,Normal,300,26.0,40.0,320/41KTS,9999.0,,1.5,-1.9,29.45,998.9,,,,,,,,,,,,,,,4/8 Partly Cloudy,72000.0,3000.0,FEW,3000.0,SCT,8000.0,,,,
KRDR,01-20-2021,22:52,SPECI,Normal,300,26.0,40.0,,9999.0,Squalls,2.0,-2.0,29.45,998.9,18,,,,,,,,,,,,,,2/8 Mostly Clear,72000.0,10000.0,FEW,10000.0,,,,,,
KRDR,01-20-2021,21:56,METAR,Normal,300,31.0,40.0,300/42KTS,9999.0,,2.6,-1.4,29.42,997.8,,,,,,,,,,,,,,,,9500.0,3000.0,FEW,3000.0,SCT,7500.0,BKN,9600.0,,
KRDR,01-20-2021,20:56,METAR,Normal,290,24.0,37.0,300/45KTS,9999.0,,3.0,-1.6,29.38,996.5,,,,,,,,,,,,,,,,9000.0,3600.0,SCT,3600.0,BKN,9100.0,OVC,10000.0,,
KRDR,01-20-2021,19:56,METAR,Normal,300,27.0,36.0,290/45KTS,9999.0,,2.6,-1.9,29.36,995.9,,,,,,,,,,,,,,,,3700.0,3700.0,BKN,3700.0,OVC,7000.0,,,,
KRDR,01-20-2021,18:56,METAR,Normal,290,28.0,36.0,270/38KTS,9999.0,,3.5,-2.3,29.35,995.6,,,,,,,,,,,,,,,2/8 Mostly Clear,72000.0,12000.0,FEW,12000.0,,,,,,
KRDR,01-20-2021,17:56,METAR,Normal,280,22.0,35.0,300/38KTS,9999.0,,3.8,-1.6,29.37,996.4,,,,,,,,,,,,,,,2/8 Mostly Clear,72000.0,12000.0,FEW,12000.0,,,,,,
KRDR,01-20-2021,16:56,METAR,Normal,290,22.0,31.0,300/39KTS,9999.0,,4.0,-0.8,29.37,996.4,,,,,,,,,,,,,,,2/8 Mostly Clear,72000.0,12000.0,FEW,12000.0,,,,,,
KRDR,01-20-2021,15:56,METAR,Normal,290,19.0,28.0,310/31KTS,9999.0,,3.8,1.0,29.34,995.4,,,,,,,,,,,,,,,2/8 Mostly Clear,72000.0,12000.0,FEW,12000.0,,,,,,
KRDR,01-20-2021,14:56,METAR,Normal,260,11.0,,,9999.0,,-0.3,-3.3,29.33,995.3,,,,,,,,,,,,,,,,13000.0,10000.0,SCT,10000.0,BKN,13000.0,,,,
KRDR,01-20-2021,13:56,METAR,Normal,210,13.0,,,9999.0,,-1.4,-4.4,29.36,996.4,,,,,,,,,,,,,,,4/8 Partly Cloudy,72000.0,10000.0,SCT,10000.0,,,,,,
KRDR,01-20-2021,12:56,METAR,Normal,220,16.0,21.0,,9999.0,,-1.9,-4.6,29.38,997.2,,,,,,,,,,,,,,,,10000.0,10000.0,BKN,10000.0,,,,,,
KRDR,01-20-2021,11:56,METAR,Normal,200,14.0,,,9999.0,,-4.1,-5.5,29.43,999.0,,,,,,,,,,,,,,,,14000.0,14000.0,BKN,14000.0,,,,,,
KRDR,01-20-2021,10:56,METAR,Normal,200,18.0,,,9999.0,,-4.8,-5.9,29.48,1000.7,,,,,,,,,,,,,,,,20000.0,20000.0,BKN,20000.0,,,,,,
KRDR,01-20-2021,09:56,METAR,Normal,200,19.0,,190/26KTS,9999.0,,-5.5,-6.6,29.57,1003.6,,,,,,,,,,,,,,,,14000.0,14000.0,BKN,14000.0,BKN,16000.0,,,,
KRDR,01-20-2021,08:56,METAR,Normal,190,18.0,,,9999.0,,-6.5,-7.7,29.64,1006.0,,,,,,,,,,,,,,,,10000.0,10000.0,OVC,10000.0,,,,,,
KRDR,01-20-2021,07:56,METAR,Normal,190,18.0,26.0,190/26KTS,9999.0,,-7.5,-8.9,29.70,1008.2,,,,,,,,,,,,,,,,9500.0,9500.0,OVC,9600.0,,,,,,
KRDR,01-20-2021,06:56,METAR,Normal,190,16.0,,,9999.0,,-9.5,-11.0,29.77,1010.6,,,,,,,,,,,,,,,,10000.0,10000.0,BKN,10000.0,,,,,,
KRDR,01-20-2021,05:56,METAR,Normal,190,13.0,,,9999.0,,-11.4,-13.0,29.87,1014.2,,,,,,,,,,,,,,,,20000.0,20000.0,OVC,20000.0,,,,,,
KRDR,01-20-2021,04:56,METAR,Normal,200,14.0,,,9999.0,,-12.7,-14.4,29.94,1016.6,,,,,,,,,,,,,,,,20000.0,20000.0,OVC,20000.0,,,,,,
KRDR,01-20-2021,03:56,METAR,Normal,180,12.0,,,9999.0,,-15.0,-16.7,29.99,1018.4,,,,,,,,,,,,,,,,20000.0,20000.0,BKN,20000.0,,,,,,
KRDR,01-20-2021,02:56,METAR,Normal,180,12.0,,,9999.0,,-15.9,-17.9,30.06,1020.9,,,,,,,,,,,,,,,,15000.0,15000.0,BKN,15000.0,,,,,,
KRDR,01-20-2021,01:56,METAR,Normal,190,9.0,,,9999.0,,-16.9,-18.9,30.11,1022.7,,,,,,,,,,,,,,,,15000.0,15000.0,BKN,15000.0,,,,,,
KRDR,01-20-2021,00:56,METAR,Normal,190,10.0,,,9999.0,,-17.6,-20.0,30.15,1024.1,,,,,,,,,,,,,,,2/8 Mostly Clear,72000.0,20000.0,FEW,20000.0,,,,,,
KRDR,01-19-2021,23:56,METAR,Normal,180,7.0,,,9999.0,,-17.9,-20.1,30.20,1025.8,,,,,,,,,,,,,,,,20000.0,20000.0,BKN,20000.0,,,,,,
KRDR,01-19-2021,22:56,METAR,Normal,190,7.0,,,9999.0,,-17.1,-19.6,30.26,1027.8,,,,,,,,,,,,,,,4/8 Partly Cloudy,72000.0,15000.0,FEW,15000.0,SCT,25000.0,,,,
KRDR,01-19-2021,21:56,METAR,Normal,290,5.0,,,9999.0,,-14.3,-19.0,30.28,1028.3,,,,,,,,,,,,,,,2/8 Mostly Clear,72000.0,15000.0,FEW,15000.0,,,,,,
KRDR,01-19-2021,20:56,METAR,Normal,300,8.0,,,9999.0,,-14.6,-19.1,30.29,1028.7,,,,,,,,,,,,,,,2/8 Mostly Clear,72000.0,15000.0,FEW,15000.0,,,,,,
KRDR,01-19-2021,19:56,METAR,Normal,310,6.0,,,9999.0,,-14.9,-19.4,30.30,1029.0,,,,,,,,,,,,,,,2/8 Mostly Clear,72000.0,15000.0,FEW,15000.0,,,,,,
KRDR,01-19-2021,18:56,METAR,Normal,340,8.0,,,9999.0,,-14.8,-18.4,30.34,1030.5,,,,,,,,,,,,,,,4/8 Partly Cloudy,72000.0,2000.0,SCT,2000.0,,,,,,
KRDR,01-19-2021,17:56,METAR,Normal,350,10.0,,,9999.0,,-15.1,-18.7,30.33,1030.1,,,,,,,,,,,,,TRACE,,2/8 Mostly Clear,72000.0,2000.0,FEW,2000.0,,,,,,
KRDR,01-19-2021,17:41,SPECI,Normal,340,11.0,,,9999.0,,-15.0,-19.0,30.33,1030.1,,,,,,,,,,,,,,,2/8 Mostly Clear,72000.0,2000.0,FEW,2000.0,,,,,,
KRDR,01-19-2021,16:56,METAR,Normal,350,12.0,,,9999.0,,-15.9,-18.9,30.33,1030.1,,,,,,,,,,,,,,,,2000.0,2000.0,BKN,2000.0,,,,,,
KRDR,01-19-2021,15:56,METAR,Normal,360,12.0,,,9999.0,,-16.0,-19.0,30.31,1029.5,,,,,,,,,,,TRACE,,,,2/8 Mostly Clear,72000.0,8000.0,FEW,8000.0,,,,,,
KRDR,01-19-2021,14:56,METAR,Normal,350,11.0,,,8000.0,Light Snow,-16.4,-18.7,30.29,1028.8,71,,,,,,,,,,TRACE,TRACE,,,,8000.0,8000.0,OVC,8000.0,,,,,,
KRDR,01-19-2021,14:37,SPECI,Normal,350,13.0,,,9999.0,Light Snow,-16.0,-19.0,30.28,1028.5,71,,,,,,,,,,,,,,,300.0,400.0,BKN,400.0,OVC,8000.0,,,,
KRDR,01-19-2021,14:35,SPECI,Normal,360,12.0,19.0,,8000.0,Light Snow,-16.0,-19.0,30.28,1028.4,71,,,,,,,,,,,,,,,8000.0,8000.0,OVC,8000.0,,,,,,
KRDR,01-19-2021,13:56,METAR,Normal,360,14.0,,,9999.0,,-16.3,-18.1,30.25,1027.5,,,,,,,,,,,TRACE,,,,,200.0,500.0,FEW,500.0,OVC,4700.0,,,,
KRDR,01-19-2021,12:56,METAR,Normal,10,12.0,,,9999.0,Light Snow,-16.2,-17.8,30.21,1026.2,71,,,,,,,,,,TRACE,,,,,1400.0,1400.0,BKN,1400.0,BKN,5000.0,OVC,6500.0,,
KRDR,01-19-2021,11:56,METAR,Normal,10,8.0,,,9999.0,Light Snow,-16.3,-17.9,30.17,1024.8,71,,,,,,,,,,.02 IN,,.02 IN,,,4800.0,300.0,FEW,300.0,BKN,4800.0,OVC,11000.0,,
KRDR,01-19-2021,10:56,METAR,Normal,10,7.0,,,9999.0,Light Snow/Mist,-16.2,-17.8,30.16,1024.3,71,10,,,,,,,,,TRACE,,,,,100.0,2000.0,OVC,2000.0,,,,,,
KRDR,01-19-2021,09:56,METAR,Normal,30,8.0,,,8000.0,Light Snow/Mist,-16.0,-17.4,30.14,1023.6,,,,71,10,,,,,,TRACE,,,,,100.0,200.0,OVC,200.0,,,,,,
KRDR,01-19-2021,08:56,METAR,Normal,70,5.0,,,6400.0,Light Snow/Mist,-15.7,-17.1,30.11,1022.6,71,10,,,,,,,,,TRACE,TRACE,,,2/8 Mostly Clear,72000.0,400.0,FEW,400.0,,,,,,
KRDR,01-19-2021,07:56,METAR,Normal,110,6.0,,,9999.0,Light Snow,-16.0,-17.4,30.09,1021.8,71,,,,,,,,,,TRACE,,,,,6000.0,6000.0,OVC,6000.0,,,,,,
KRDR,01-19-2021,07:31,SPECI,Normal,120,5.0,,,9999.0,Light Snow,-16.0,-18.0,30.08,1021.5,71,,,,,,,,,,,,,,,5500.0,5500.0,OVC,5500.0,,,,,,
KRDR,01-19-2021,06:56,METAR,Normal,120,5.0,,,9999.0,,-16.1,-17.7,30.08,1021.5,,,,,,,,,,,TRACE,,,,,5000.0,5000.0,OVC,5000.0,,,,,,
KRDR,01-19-2021,05:56,METAR,Normal,170,5.0,,,9999.0,Light Snow,-16.3,-18.1,30.08,1021.5,71,,,,,,,,,,TRACE,,TRACE,,,3400.0,2200.0,FEW,2200.0,BKN,3400.0,BKN,4300.0,OVC,5000.0
KRDR,01-19-2021,04:56,METAR,Normal,160,5.0,,,9999.0,,-16.7,-18.5,30.10,1022.2,,,,,,,,,,,TRACE,,,,,6000.0,6000.0,OVC,6000.0,,,,,,
KRDR,01-19-2021,04:05,SPECI,Normal,160,4.0,,,9999.0,,-17.0,-19.0,30.11,1022.5,,,,,,,,,,,,,,,,7000.0,7000.0,BKN,7000.0,,,,,,
KRDR,01-19-2021,03:56,METAR,Normal,150,4.0,,,9999.0,Light Snow,-16.8,-18.6,30.10,1022.2,71,,,,,,,,,,TRACE,,,,,7000.0,7000.0,OVC,7000.0,,,,,,
KRDR,01-19-2021,03:36,SPECI,Normal,170,3.0,,,9999.0,Light Snow,-17.0,-19.0,30.11,1022.5,71,,,,,,,,,,,,,,,7000.0,7000.0,OVC,7000.0,,,,,,
KRDR,01-19-2021,02:57,SPECI,Calm,,0.0,,,9999.0,,-17.0,-19.0,30.11,1022.5,,,,,,,,,,,,,,,,6500.0,6500.0,OVC,6500.0,,,,,,
KRDR,01-19-2021,02:56,METAR,Calm,,0.0,,,9999.0,Light Snow,-16.9,-18.9,30.11,1022.5,71,,,,,,,,,,TRACE,TRACE,,,,6500.0,6500.0,OVC,6500.0,,,,,,
KRDR,01-19-2021,02:37,SPECI,Calm,,0.0,,,9999.0,Light Snow,-17.0,-19.0,30.11,1022.5,71,,,,,,,,,,,,,,,6500.0,6500.0,OVC,6500.0,,,,,,
KRDR,01-19-2021,02:30,SPECI,Calm,,0.0,,,9999.0,,-17.0,-19.0,30.11,1022.5,,,,,,,,,,,,,,,,6500.0,6500.0,OVC,6500.0,,,,,,
KRDR,01-19-2021,02:01,SPECI,Calm,,0.0,,,9999.0,Light Snow,-17.0,-19.0,30.11,1022.5,71,,,,,,,,,,,,,,,6500.0,6500.0,OVC,6500.0,,,,,,
KRDR,01-19-2021,01:56,METAR,Normal,100,4.0,,,9999.0,,-17.3,-19.0,30.12,1022.9,,,,,,,,,,,,,,,,6500.0,6500.0,OVC,6500.0,,,,,,
KRDR,01-19-2021,00:56,METAR,Calm,,0.0,,,9999.0,,-19.6,-20.9,30.12,1023.0,,,,,,,,,,,,,,,,7500.0,7500.0,OVC,7500.0,,,,,,
KRDR,01-18-2021,23:56,METAR,Normal,20,3.0,,,9999.0,,-19.1,-20.5,30.11,1022.5,,,,,,,,,,,,,,,2/8 Mostly Clear,72000.0,15000.0,FEW,15000.0,,,,,,
KRDR,01-18-2021,22:56,METAR,Normal,10,8.0,,,9999.0,,-17.0,-18.7,30.11,1022.4,,,,,,,,,,,,,,,4/8 Partly Cloudy,72000.0,600.0,SCT,600.0,SCT,6000.0,,,,
KRDR,01-18-2021,21:56,METAR,Normal,10,7.0,,,9999.0,,-15.7,-17.7,30.08,1021.3,,,,,,,,,,,,,,,4/8 Partly Cloudy,72000.0,600.0,SCT,600.0,,,,,,
KRDR,01-18-2021,20:56,METAR,Normal,350,11.0,,,9999.0,,-15.2,-17.6,30.07,1021.0,,,,,,,,,,,,,,,,8000.0,700.0,SCT,700.0,BKN,8000.0,,,,
KRDR,01-18-2021,19:56,METAR,Normal,360,10.0,,,9999.0,,-14.2,-16.6,30.04,1019.9,,,,,,,,,,,,,,,,400.0,500.0,BKN,500.0,OVC,8600.0,,,,
KRDR,01-18-2021,18:56,METAR,Normal,10,14.0,,,9999.0,,-13.8,-16.0,30.03,1019.6,,,,,,,,,,,TRACE,,,,,500.0,500.0,BKN,500.0,OVC,9100.0,,,,
KRDR,01-18-2021,17:56,METAR,Normal,360,13.0,,,9999.0,Light Snow,-13.6,-15.8,30.04,1019.9,71,,,,,,,,,,TRACE,,.02 IN,,,600.0,600.0,BKN,600.0,OVC,3000.0,,,,
KRDR,01-18-2021,16:57,METAR,Normal,350,12.0,,,9999.0,Light Snow/Mist,-13.1,-15.1,30.02,1019.2,71,10,,,,,,,,,TRACE,,,,,300.0,300.0,BKN,300.0,OVC,4100.0,,,,
KRDR,01-18-2021,16:56,METAR,Normal,350,11.0,,,8000.0,Light Snow/Mist,-12.9,-14.8,30.02,1019.2,71,10,,,,,,,,,TRACE,,,,4/8 Partly Cloudy,72000.0,300.0,SCT,300.0,,,,,,
KRDR,01-18-2021,15:56,METAR,Normal,360,10.0,,,9999.0,Light Snow,-13.1,-14.8,30.00,1018.5,71,,,,,,,,,,TRACE,,,,,400.0,400.0,BKN,400.0,OVC,4800.0,,,,
KRDR,01-18-2021,14:56,METAR,Normal,20,8.0,,,9999.0,Light Snow/Mist,-13.0,-14.2,29.98,1017.8,71,10,,,,,,,,,TRACE,.02 IN,,,,200.0,200.0,BKN,200.0,,,,,,
KRDR,01-18-2021,13:57,METAR,Normal,10,7.0,,,9999.0,Light Snow/Mist,-12.3,-13.2,29.96,1017.1,,,,71,10,,,,,,.01 IN,,,,,200.0,200.0,OVC,200.0,,,,,,
KRDR,01-18-2021,13:36,SPECI,Normal,20,7.0,,,8000.0,Light Snow/Mist,-12.0,-13.0,29.96,1017.1,,,,71,10,,,,,,,,,,,300.0,300.0,OVC,300.0,,,,,,
KRDR,01-18-2021,13:04,SPECI,Normal,10,7.0,,,6400.0,Light Snow/Mist,-12.0,-13.0,29.95,1016.7,,,,71,10,,,,,,,,,,,200.0,300.0,BKN,300.0,OVC,1700.0,,,,
KRDR,01-18-2021,12:57,METAR,Normal,10,9.0,,,9999.0,Light Snow/Mist,-11.5,-12.6,29.95,1016.6,,,,71,10,,,,,,.01 IN,,,,,200.0,300.0,BKN,300.0,OVC,3000.0,,,,
KRDR,01-18-2021,12:30,SPECI,Normal,10,7.0,,,6400.0,Light Snow/Mist,-11.0,-13.0,29.95,1016.6,,,,71,10,,,,,,,,,,,300.0,400.0,BKN,400.0,BKN,3000.0,OVC,3600.0,,
KRDR,01-18-2021,12:01,SPECI,Normal,350,7.0,,,9999.0,Light Snow,-11.0,-13.0,29.94,1016.3,,,,71,,,,,,,,,,,,3800.0,400.0,FEW,400.0,OVC,3800.0,,,,
KRDR,01-18-2021,11:57,METAR,Normal,360,7.0,,,9999.0,Light Snow,-11.2,-12.5,29.94,1016.2,,,,71,,,,,,,TRACE,,TRACE,,,3900.0,3900.0,OVC,3900.0,,,,,,
KRDR,01-18-2021,10:57,METAR,Normal,10,9.0,,,9999.0,Light Snow,-10.9,-12.2,29.92,1015.5,,,,71,,,,,,,TRACE,,,,,3800.0,400.0,FEW,400.0,FEW,1000.0,OVC,3800.0,,
KRDR,01-18-2021,10:48,SPECI,Normal,10,8.0,,,9999.0,Light Snow,-11.0,-12.0,29.92,1015.5,,,,71,,,,,,,,,,,,3800.0,400.0,FEW,400.0,FEW,1000.0,OVC,3800.0,,
KRDR,01-18-2021,10:22,SPECI,Normal,10,9.0,,,9999.0,,-11.0,-12.0,29.92,1015.5,,,,,,,,,,,,,,,,3700.0,500.0,FEW,500.0,FEW,1600.0,OVC,3700.0,,
KRDR,01-18-2021,10:07,SPECI,Normal,20,8.0,,,9999.0,,-11.0,-12.0,29.91,1015.2,,,,,,,,,,,,,,,,3800.0,1700.0,FEW,1700.0,OVC,3800.0,,,,
KRDR,01-18-2021,09:57,METAR,Normal,10,6.0,,,9999.0,Light Snow,-10.7,-11.9,29.91,1015.2,,,,71,,,,,,,TRACE,,,,,3800.0,1700.0,FEW,1700.0,OVC,3800.0,,,,
KRDR,01-18-2021,09:06,SPECI,Normal,10,5.0,,,9999.0,Light Snow,-11.0,-12.0,29.91,1015.2,,,,71,,,,,,,,,,,,4100.0,2600.0,FEW,2600.0,OVC,4100.0,,,,
KRDR,01-18-2021,08:57,METAR,Normal,10,5.0,,,9999.0,,-10.7,-12.0,29.91,1015.1,,,,,,,,,,,TRACE,TRACE,,,,3700.0,1600.0,FEW,1600.0,FEW,2700.0,OVC,3700.0,,
KRDR,01-18-2021,08:01,SPECI,Normal,20,5.0,,,9999.0,Light Snow,-11.0,-12.0,29.90,1014.8,,,,71,,,,,,,,,,,,8500.0,900.0,FEW,900.0,SCT,4200.0,OVC,8600.0,,
KRDR,01-18-2021,07:57,METAR,Normal,30,4.0,,,9999.0,,-10.8,-11.9,29.90,1014.8,,,,,,,,,,,,,,,,8000.0,4600.0,FEW,4600.0,BKN,8000.0,,,,
KRDR,01-18-2021,06:57,METAR,Normal,20,3.0,,,9999.0,,-11.3,-12.1,29.88,1014.1,,,,,,,,,,,,,,,,8500.0,8500.0,OVC,8600.0,,,,,,
KRDR,01-18-2021,05:57,METAR,Normal,360,3.0,,,9999.0,,-10.9,-12.2,29.88,1014.1,,,,,,,,,,,,,TRACE,,,8000.0,2300.0,FEW,2300.0,OVC,8000.0,,,,
KRDR,01-18-2021,04:57,METAR,Calm,,0.0,,,9999.0,,-10.9,-12.4,29.87,1013.7,,,,,,,,,,,,,,,,1200.0,1200.0,BKN,1200.0,OVC,8000.0,,,,
KRDR,01-18-2021,03:57,METAR,Normal,20,5.0,,,9999.0,,-10.6,-12.4,29.87,1013.7,,,,,,,,,,,,,,,,1100.0,1100.0,OVC,1100.0,,,,,,
KRDR,01-18-2021,02:57,METAR,Normal,30,7.0,,,9999.0,,-10.2,-11.7,29.87,1013.7,,,,,,,,,,,,,,,,1400.0,800.0,FEW,800.0,OVC,1400.0,,,,
KRDR,01-18-2021,02:44,SPECI,Normal,40,5.0,,,9999.0,,-10.0,-12.0,29.88,1014.0,,,,,,,,,,,,,,,,500.0,1400.0,OVC,1400.0,,,,,,
KRDR,01-18-2021,02:31,SPECI,Normal,40,4.0,,,9999.0,,-10.0,-11.0,29.88,1014.0,,,,,,,,,,,,,,,,1400.0,800.0,FEW,800.0,OVC,1500.0,,,,
KRDR,01-18-2021,01:56,METAR,Normal,30,6.0,,,9999.0,,-9.7,-11.2,29.88,1014.0,,,,,,,,,,,,,,,,1600.0,1600.0,OVC,1600.0,,,,,,
KRDR,01-18-2021,00:56,METAR,Normal,30,7.0,,,9999.0,,-9.1,-10.5,29.88,1013.9,,,,,,,,,,,TRACE,,,,,1600.0,1600.0,OVC,1600.0,,,,,,
KRDR,01-17-2021,23:56,METAR,Normal,20,8.0,,,9999.0,Light Snow,-8.1,-9.3,29.88,,71,,,,,,,,,,TRACE,,TRACE,,,2000.0,2000.0,OVC,2000.0,,,,,,
KRDR,01-17-2021,22:56,METAR,Normal,20,9.0,,,9999.0,Light Snow,-7.3,-8.8,29.87,1013.6,71,,,,,,,,,,TRACE,,,,,1900.0,1900.0,OVC,1900.0,,,,,,
KRDR,01-17-2021,22:36,SPECI,Normal,10,7.0,,,9999.0,Light Snow,-7.0,-8.0,29.87,1013.6,71,,,,,,,,,,,,,,,2000.0,2000.0,OVC,2000.0,,,,,,
KRDR,01-17-2021,21:56,METAR,Normal,30,9.0,,,9999.0,Light Snow,-6.6,-7.8,29.87,1013.7,71,,,,,,,,,,TRACE,,,,,1300.0,1300.0,BKN,1300.0,OVC,2000.0,,,,
KRDR,01-17-2021,20:56,METAR,Normal,20,9.0,,,9999.0,Light Snow,-6.1,-7.1,29.86,1013.2,71,,,,,,,,,,TRACE,TRACE,,,,1100.0,1100.0,OVC,1100.0,,,,,,
KRDR,01-17-2021,19:56,METAR,Normal,360,10.0,,,9999.0,Light Snow,-5.3,-6.3,29.86,1013.2,71,,,,,,,,,,TRACE,,,,,1100.0,1100.0,OVC,1100.0,,,,,,
KRDR,01-17-2021,19:42,SPECI,Normal,10,9.0,,,9999.0,Light Snow,-5.0,-6.0,29.86,1013.2,71,,,,,,,,,,,,,,,1100.0,1100.0,OVC,1100.0,,,,,,
KRDR,01-17-2021,18:56,METAR,Normal,10,12.0,,,9999.0,Light Snow,-4.9,-5.6,29.87,1013.5,71,,,,,,,,,,TRACE,,,,,1400.0,1000.0,SCT,1000.0,SCT,1400.0,OVC,2200.0,,
KRDR,01-17-2021,18:45,SPECI,Normal,10,12.0,,,9999.0,Light Snow,-5.0,-6.0,29.87,1013.5,71,,,,,,,,,,,,,,,1400.0,1000.0,SCT,1000.0,BKN,1400.0,OVC,2200.0,,
KRDR,01-17-2021,18:15,SPECI,Normal,360,12.0,,,9999.0,,-5.0,-6.0,29.87,1013.5,,,,,,,,,,,,,,,,1100.0,1100.0,OVC,1100.0,,,,,,
KRDR,01-17-2021,17:56,METAR,Normal,360,14.0,,,9999.0,,-4.7,-6.0,29.87,1013.5,,,,,,,,,,,,,TRACE,,,1300.0,1300.0,BKN,1300.0,OVC,3400.0,,,,
KRDR,01-17-2021,17:46,SPECI,Normal,360,11.0,,,9999.0,,-5.0,-6.0,29.87,1013.6,,,,,,,,,,,,,,,,1300.0,1300.0,BKN,1300.0,OVC,3400.0,,,,
KRDR,01-17-2021,16:56,METAR,Normal,360,12.0,,,9999.0,,-4.5,-5.8,29.87,1013.5,,,,,,,,,,,TRACE,,,,,4400.0,1400.0,FEW,1400.0,OVC,4400.0,,,,
KRDR,01-17-2021,16:34,SPECI,Normal,360,13.0,18.0,,9999.0,,-4.0,-6.0,29.87,1013.6,,,,,,,,,,,,,,,,4500.0,1400.0,SCT,1400.0,OVC,4500.0,,,,
KRDR,01-17-2021,15:56,METAR,Normal,10,11.0,,,9999.0,Light Snow,-4.6,-4.7,29.87,1013.6,71,,,,,,,,,,TRACE,,,,,1000.0,1000.0,OVC,1000.0,,,,,,
KRDR,01-17-2021,15:46,SPECI,Normal,10,12.0,,,9999.0,Light Snow,-5.0,-5.0,29.88,1014.0,71,,,,,,,,,,,,,,,1000.0,1000.0,OVC,1000.0,,,,,,
KRDR,01-17-2021,15:35,SPECI,Normal,10,9.0,,,9999.0,Light Snow,-5.0,-5.0,29.88,1014.0,71,,,,,,,,,,,,,,,1100.0,1100.0,BKN,1100.0,OVC,4300.0,,,,
KRDR,01-17-2021,14:56,METAR,Normal,10,13.0,,,9999.0,Light Snow,-4.6,-4.7,29.87,1013.6,71,,,,,,,,,,TRACE,TRACE,,,,3100.0,1000.0,SCT,1000.0,OVC,3100.0,,,,
KRDR,01-17-2021,14:19,SPECI,Normal,360,14.0,,,9999.0,Light Snow,-4.0,-4.0,29.86,1013.3,71,,,,,,,,,,,,,,,800.0,800.0,BKN,800.0,OVC,2500.0,,,,
KRDR,01-17-2021,13:57,METAR,Normal,10,11.0,21.0,,9999.0,,-3.9,-4.0,29.85,1013.0,,,,,,,,,,,,,,,,700.0,700.0,OVC,700.0,,,,,,
KRDR,01-17-2021,13:33,SPECI,Normal,360,16.0,21.0,,9999.0,,-3.0,-3.0,29.84,1012.6,,,,,,,,,,,,,,,,700.0,700.0,OVC,700.0,,,,,,
KRDR,01-17-2021,12:57,METAR,Normal,350,9.0,,,9999.0,,-3.2,-3.3,29.83,1012.2,,,,,,,,,,,TRACE,,,,,800.0,800.0,OVC,800.0,,,,,,
KRDR,01-17-2021,12:42,SPECI,Normal,350,8.0,,,9999.0,,-3.0,-3.0,29.83,1012.2,,,,,,,,,,,,,,,,800.0,800.0,OVC,800.0,,,,,,
KRDR,01-17-2021,12:19,SPECI,Normal,340,8.0,,,9999.0,Light Snow,-3.0,-3.0,29.82,1011.9,,,,71,,,,,,,,,,,,1000.0,1200.0,BKN,1200.0,BKN,2600.0,OVC,3900.0,,
KRDR,01-17-2021,11:57,METAR,Normal,330,9.0,,,9999.0,Light Snow,-3.4,-3.5,29.81,1011.4,,,,71,,,,,,,TRACE,,TRACE,,,1300.0,1300.0,BKN,1300.0,OVC,2100.0,,,,
KRDR,01-17-2021,11:36,SPECI,Normal,330,7.0,,,9999.0,Light Snow,-3.0,-4.0,29.81,1011.4,,,,71,,,,,,,,,,,,1100.0,1300.0,OVC,1300.0,,,,,,
KRDR,01-17-2021,10:56,METAR,Normal,320,10.0,,,9999.0,,-4.4,-4.5,29.80,1011.0,,,,,,,,,,,,,,,,5500.0,4100.0,FEW,4100.0,OVC,5500.0,,,,
KRDR,01-17-2021,09:56,METAR,Normal,310,7.0,,,9999.0,,-8.3,-8.4,29.79,1010.8,,,,,,,,,,,,,,,2/8 Mostly Clear,72000.0,17000.0,FEW,17000.0,,,,,,
KRDR,01-17-2021,08:56,METAR,Normal,310,7.0,,,9999.0,,-7.0,-7.1,29.79,1010.8,,,,,,,,,,,,,,,2/8 Mostly Clear,72000.0,5500.0,FEW,5500.0,,,,,,
KRDR,01-17-2021,07:56,METAR,Normal,310,8.0,,,9999.0,,-6.6,-7.0,29.79,1010.8,,,,,,,,,,,,,,,Clear,72000.0,,,,,,,,,
KRDR,01-17-2021,06:56,METAR,Normal,310,8.0,,,9999.0,,-6.0,-6.5,29.78,1010.4,,,,,,,,,,,,,,,Clear,72000.0,,,,,,,,,
KRDR,01-17-2021,05:56,METAR,Normal,310,7.0,,,9999.0,,-5.8,-6.3,29.78,1010.4,,,,,,,,,,,,,,,Clear,72000.0,,,,,,,,,
KRDR,01-17-2021,04:56,METAR,Normal,310,7.0,,,9999.0,,-5.8,-6.1,29.77,1010.2,,,,,,,,,,,,,,,Clear,72000.0,,,,,,,,,
KRDR,01-17-2021,03:56,METAR,Normal,310,7.0,,,9999.0,,-7.8,-7.9,29.76,1010.0,,,,,,,,,,,,,,,Clear,72000.0,,,,,,,,,
KRDR,01-17-2021,02:56,METAR,Normal,310,7.0,,,9999.0,,-8.0,-8.1,29.76,1010.1,,,,,,,,,,,,,,,Clear,72000.0,,,,,,,,,
KRDR,01-17-2021,01:56,METAR,Normal,270,5.0,,,9999.0,,-9.5,-9.7,29.77,1010.5,,,,,,,,,,,,,,,Clear,72000.0,,,,,,,,,
KRDR,01-17-2021,00:56,METAR,Normal,240,6.0,,,9999.0,,-9.1,-9.3,29.78,1010.8,,,,,,,,,,,,,,,2/8 Mostly Clear,72000.0,14000.0,FEW,14000.0,,,,,,
KRDR,01-16-2021,23:56,METAR,Normal,210,4.0,,,9999.0,,-6.4,-6.5,29.80,1011.3,,,,,,,,,,,,,,,4/8 Partly Cloudy,72000.0,7500.0,FEW,7500.0,SCT,14000.0,,,,
KRDR,01-16-2021,22:56,METAR,Normal,270,4.0,,,9999.0,,-3.4,-5.0,29.81,1011.6,,,,,,,,,,,,,,,,14000.0,7500.0,SCT,7500.0,BKN,14000.0,,,,
KRDR,01-16-2021,21:56,METAR,Normal,250,4.0,,,9999.0,,-2.6,-4.6,29.81,1011.6,,,,,,,,,,,,,,,,14000.0,7500.0,SCT,7500.0,SCT,11000.0,BKN,14000.0,,
KRDR,01-16-2021,20:56,METAR,Normal,260,6.0,,,9999.0,,-2.2,-4.5,29.82,1011.9,,,,,,,,,,,,,,,,14000.0,1200.0,FEW,1200.0,SCT,11000.0,BKN,14000.0,,
KRDR,01-16-2021,19:56,METAR,Normal,260,6.0,,,9999.0,,-3.0,-4.9,29.83,1012.3,,,,,,,,,,,,,,,,14000.0,1200.0,FEW,1200.0,SCT,9600.0,SCT,11000.0,BKN,14000.0
KRDR,01-16-2021,18:56,METAR,Normal,270,4.0,,,9999.0,,-3.3,-4.9,29.86,1013.3,,,,,,,,,,,,,,,,15000.0,1200.0,FEW,1200.0,SCT,11000.0,BKN,15000.0,,
KRDR,01-16-2021,17:56,METAR,Normal,290,5.0,,,9999.0,,-4.5,-5.6,29.90,1014.7,,,,,,,,,,,,,,,,14000.0,1000.0,FEW,1000.0,BKN,14000.0,OVC,17000.0,,
KRDR,01-16-2021,16:59,METAR,Normal,280,5.0,,,9999.0,,-6.6,-7.4,29.91,1015.1,,,,,,,,,,,,,,,,13000.0,13000.0,OVC,13000.0,,,,,,
KRDR,01-16-2021,15:56,METAR,Normal,290,3.0,,,9999.0,,-8.8,-9.2,29.91,1015.2,,,,,,,,,,,,,,,,11000.0,11000.0,BKN,11000.0,BKN,16000.0,,,,
KRDR,01-16-2021,14:56,METAR,Calm,,0.0,,,9999.0,,-9.9,-10.3,29.93,1015.9,,,,,,,,,,,,,,,,11000.0,11000.0,BKN,11000.0,,,,,,
KRDR,01-16-2021,13:56,METAR,Normal,340,4.0,,,9999.0,,-10.3,-10.7,29.95,1016.5,,,,,,,,,,,,,,,,14000.0,900.0,FEW,900.0,OVC,14000.0,,,,
KRDR,01-16-2021,13:50,SPECI,Normal,340,4.0,,,9999.0,,-10.0,-11.0,29.95,1016.5,,,,,,,,,,,,,,,,14000.0,900.0,FEW,900.0,OVC,14000.0,,,,
KRDR,01-16-2021,13:48,SPECI,Normal,340,4.0,,,9999.0,,-10.0,-11.0,29.95,1016.5,,,,,,,,,,,,,,,,14000.0,14000.0,OVC,14000.0,,,,,,
KRDR,01-16-2021,12:56,METAR,Normal,10,6.0,,,9999.0,,-10.3,-10.7,29.94,1016.1,,,,,,,,,,,,,,,,800.0,800.0,BKN,800.0,,,,,,
KRDR,01-16-2021,12:08,SPECI,Normal,360,4.0,,,9999.0,,-10.0,-11.0,29.94,1016.1,,,,,,,,,,,,,,,,700.0,900.0,BKN,900.0,,,,,,
KRDR,01-16-2021,11:57,METAR,Normal,10,5.0,,,9999.0,,-10.7,-11.0,29.93,1015.9,,,,,,,,,,,,,,,,10000.0,1000.0,SCT,1000.0,BKN,10000.0,,,,
KRDR,01-16-2021,11:19,SPECI,Normal,10,6.0,,,9999.0,,-11.0,-11.0,29.93,1015.9,,,,,,,,,,,,,,,,1100.0,1100.0,OVC,1100.0,,,,,,
KRDR,01-16-2021,10:57,METAR,Variable,,6.0,,,9999.0,,-11.7,-11.9,29.94,1016.2,,,,,,,,,,,,,,,,1300.0,1300.0,OVC,1300.0,,,,,,
KRDR,01-16-2021,09:56,METAR,Normal,360,4.0,,,9999.0,,-11.3,-11.7,29.93,1015.8,,,,,,,,,,,,,,,,1700.0,1700.0,BKN,1700.0,BKN,17000.0,,,,
KRDR,01-16-2021,08:57,METAR,Normal,360,5.0,,,9999.0,,-10.4,-10.9,29.95,1016.5,,,,,,,,,,,,,,,,1200.0,1300.0,OVC,1300.0,,,,,,
KRDR,01-16-2021,07:56,METAR,Normal,360,7.0,,,9999.0,,-11.3,-11.8,29.96,1016.8,,,,,,,,,,,,,,,,1100.0,1600.0,BKN,1600.0,,,,,,
KRDR,01-16-2021,06:56,METAR,Normal,350,6.0,,,9999.0,,-10.8,-11.3,29.96,1016.8,,,,,,,,,,,,,,,4/8 Partly Cloudy,72000.0,1500.0,SCT,1500.0,,,,,,
KRDR,01-16-2021,06:48,SPECI,Normal,360,6.0,,,9999.0,,-11.0,-11.0,29.96,1016.8,,,,,,,,,,,,,,,4/8 Partly Cloudy,72000.0,1500.0,SCT,1500.0,,,,,,
KRDR,01-16-2021,05:56,METAR,Normal,360,8.0,,,9999.0,,-9.9,-10.8,29.98,1017.4,,,,,,,,,,,,,TRACE,,,1500.0,1500.0,OVC,1500.0,,,,,,
KRDR,01-16-2021,04:54,METAR,Normal,360,12.0,,,9999.0,,-9.1,-10.3,29.98,1017.4,,,,,,,,,,,,,,,,1400.0,800.0,FEW,800.0,OVC,1600.0,,,,
KRDR,01-16-2021,03:55,METAR,Normal,360,14.0,,,9999.0,,-9.1,-9.6,29.99,1017.7,,,,,,,,,,,TRACE,,,,,1500.0,1500.0,BKN,1500.0,OVC,2000.0,,,,
KRDR,01-16-2021,03:11,SPECI,Normal,360,14.0,,,9999.0,,-8.0,-9.0,30.00,1018.0,,,,,,,,,,,,,,,,1200.0,1300.0,BKN,1300.0,OVC,1800.0,,,,
KRDR,01-16-2021,02:56,METAR,Normal,10,12.0,,,9999.0,Light Snow,-8.1,-8.8,30.00,1017.9,71,,,,,,,,,,TRACE,TRACE,,,,300.0,500.0,SCT,500.0,OVC,1200.0,,,,
KRDR,01-16-2021,02:37,SPECI,Normal,20,11.0,,,9999.0,Light Snow,-8.0,-9.0,30.00,1017.9,71,,,,,,,,,,,,,,,200.0,500.0,BKN,500.0,OVC,1200.0,,,,
KRDR,01-16-2021,02:24,SPECI,Normal,10,11.0,,,9999.0,Light Snow,-8.0,-9.0,30.01,1018.3,71,,,,,,,,,,,,,,,200.0,400.0,BKN,400.0,OVC,1000.0,,,,
KRDR,01-16-2021,02:17,SPECI,Normal,360,15.0,,,9999.0,Light Snow,-8.0,-8.0,30.02,1018.6,71,,,,,,,,,,,,,,,200.0,400.0,SCT,400.0,OVC,1000.0,,,,
KRDR,01-16-2021,02:07,SPECI,Normal,10,10.0,,,9999.0,Light Snow/Mist,-7.0,-8.0,30.02,1018.6,71,10,,,,,,,,,,,,,,1000.0,300.0,SCT,300.0,OVC,1100.0,,,,
KRDR,01-16-2021,01:53,METAR,Normal,10,11.0,21.0,,9999.0,,-7.3,-7.8,30.02,1018.6,,,,,,,,,,,,,,,,800.0,1000.0,OVC,1000.0,,,,,,
KRDR,01-16-2021,00:53,METAR,Normal,10,12.0,,,9999.0,,-7.0,-7.7,30.03,1018.9,,,,,,,,,,,,,,,,1100.0,1200.0,OVC,1200.0,,,,,,
KRDR,01-15-2021,23:52,METAR,Normal,350,13.0,,,9999.0,,-6.5,-7.5,30.03,1018.9,,,,,,,,,,,,,,,,1200.0,1200.0,OVC,1200.0,,,,,,
KRDR,01-15-2021,22:54,METAR,Normal,350,17.0,,,9999.0,,-6.5,-7.3,30.02,1018.5,,,,,,,,,,,,,,,,1300.0,1400.0,OVC,1400.0,,,,,,
KRDR,01-15-2021,22:40,SPECI,Normal,360,13.0,,,9999.0,,-6.0,-8.0,30.02,1018.5,,,,,,,,,,,,,,,,1300.0,1400.0,OVC,1400.0,,,,,,
KRDR,01-15-2021,22:23,SPECI,Normal,10,17.0,,,9999.0,,-6.0,-7.0,30.01,1018.2,,,,,,,,,,,,,,,,1300.0,1300.0,OVC,1300.0,,,,,,
KRDR,01-15-2021,22:03,SPECI,Normal,350,16.0,20.0,,9999.0,,-6.0,-7.0,30.01,1018.2,,,,,,,,,,,,,,,,1200.0,1200.0,OVC,1200.0,,,,,,
KRDR,01-15-2021,21:56,METAR,Normal,350,15.0,20.0,,9999.0,,-5.5,-6.5,30.01,1018.1,,,,,,,,,,,,,,,,1200.0,1200.0,OVC,1200.0,,,,,,
KRDR,01-15-2021,20:56,METAR,Normal,360,20.0,27.0,350/27KTS,9999.0,,-5.3,-6.3,30.00,1017.8,,,,,,,,,,,,,,,,1300.0,1300.0,OVC,1300.0,,,,,,
KRDR,01-15-2021,20:47,SPECI,Normal,350,16.0,25.0,,9999.0,,-5.0,-7.0,30.00,1017.8,,,,,,,,,,,,,,,,1200.0,1300.0,OVC,1300.0,,,,,,
KRDR,01-15-2021,19:56,METAR,Normal,350,20.0,27.0,360/28KTS,9999.0,,-5.2,-6.3,29.97,1016.8,,,,,,,,,,,TRACE,,,,,1200.0,1500.0,OVC,1500.0,,,,,,
KRDR,01-15-2021,19:28,SPECI,Normal,360,17.0,,,9999.0,,-5.0,-6.0,29.97,1016.8,,,,,,,,,,,,,,,,1300.0,1300.0,OVC,1300.0,,,,,,
KRDR,01-15-2021,18:56,METAR,Normal,350,24.0,32.0,,9999.0,,-5.1,-6.4,29.99,1017.4,,,,,,,,,,,,,,,,1600.0,1600.0,OVC,1600.0,,,,,,
KRDR,01-15-2021,18:06,SPECI,Normal,360,20.0,31.0,,9999.0,,-5.0,-6.0,29.99,1017.4,,,,,,,,,,,,,,,,1400.0,1500.0,OVC,1500.0,,,,,,
KRDR,01-15-2021,17:57,METAR,Normal,360,24.0,30.0,360/33KTS,9999.0,,-4.8,-5.8,29.99,1017.4,,,,,,,,,,,TRACE,,TRACE,,,1300.0,1300.0,OVC,1300.0,,,,,,
KRDR,01-15-2021,17:16,SPECI,Normal,350,19.0,29.0,,9999.0,,-4.0,-5.0,29.99,1017.4,,,,,,,,,,,,,,,,1300.0,1300.0,OVC,1300.0,,,,,,
KRDR,01-15-2021,16:56,METAR,Normal,350,23.0,30.0,350/31KTS,9999.0,,-4.1,-4.5,29.99,1017.4,,,,,,,,,,,TRACE,,,,,1200.0,1200.0,OVC,1200.0,,,,,,
KRDR,01-15-2021,15:56,METAR,Normal,360,24.0,32.0,010/33KTS,9999.0,Light Snow,-3.4,-3.5,29.96,1016.3,71,,,,,,,,,,TRACE,,,,,1200.0,1200.0,OVC,1200.0,,,,,,
KRDR,01-15-2021,15:51,SPECI,Normal,360,23.0,29.0,,9999.0,Light Snow,-3.0,-4.0,29.96,1016.3,71,,,,,,,,,,,,,,,1200.0,1200.0,OVC,1200.0,,,,,,
KRDR,01-15-2021,15:36,SPECI,Normal,360,22.0,28.0,,9999.0,,-3.0,-3.0,29.95,1016.0,,,,,,,,,,,,,,,,1100.0,1200.0,OVC,1200.0,,,,,,
KRDR,01-15-2021,14:56,METAR,Normal,360,20.0,28.0,350/32KTS,9999.0,,-2.8,-2.9,29.93,1015.3,,,,,,,,,,,TRACE,TRACE,,,,1100.0,1100.0,OVC,1100.0,,,,,,
KRDR,01-15-2021,14:15,SPECI,Normal,350,22.0,32.0,,9999.0,,-2.0,-2.0,29.91,1014.6,,,,,,,,,,,,,,,,1000.0,1000.0,BKN,1000.0,OVC,1400.0,,,,
KRDR,01-15-2021,13:56,METAR,Normal,360,23.0,28.0,010/31KTS,9999.0,Light Snow,-2.1,-2.2,29.90,1014.3,71,,,,,,,,,,TRACE,,,,,900.0,900.0,OVC,900.0,,,,,,
KRDR,01-15-2021,12:56,METAR,Normal,360,21.0,29.0,,9999.0,Light Snow,-1.7,-1.8,29.87,1013.2,71,,,,,,,,,,TRACE,,,,,1200.0,1300.0,OVC,1300.0,,,,,,
KRDR,01-15-2021,11:56,METAR,Normal,360,14.0,23.0,,9999.0,Light Snow,-1.9,-2.0,29.85,1012.5,71,,,,,,,,,,TRACE,,TRACE,,,1400.0,1400.0,OVC,1400.0,,,,,,
KRDR,01-15-2021,10:56,METAR,Normal,350,14.0,,,8000.0,Light Snow/Mist,-2.2,-2.3,29.83,1011.8,71,10,,,,,,,,,TRACE,,,,,1300.0,1400.0,OVC,1400.0,,,,,,
KRDR,01-15-2021,09:56,METAR,Normal,360,14.0,24.0,,9999.0,Light Snow,-1.7,-1.8,29.81,1011.1,71,,,,,,,,,,TRACE,,,,,600.0,900.0,BKN,900.0,OVC,1700.0,,,,
KRDR,01-15-2021,08:56,METAR,Normal,350,17.0,23.0,360/31KTS,9999.0,Light Snow,-1.3,-1.4,29.79,1010.4,71,,,,,,,,,,TRACE,TRACE,,,,1200.0,1300.0,OVC,1300.0,,,,,,
KRDR,01-15-2021,07:56,METAR,Normal,350,17.0,25.0,350/27KTS,9999.0,Light Snow,-1.0,-2.1,29.77,1009.7,71,,,,,,,,,,TRACE,,,,,1800.0,1800.0,OVC,1800.0,,,,,,
KRDR,01-15-2021,07:53,SPECI,Normal,360,19.0,25.0,,9999.0,Light Snow,-1.0,-2.0,29.77,1009.7,71,,,,,,,,,,,,,,,1800.0,1800.0,OVC,1800.0,,,,,,
KRDR,01-15-2021,07:44,SPECI,Normal,350,17.0,24.0,,9999.0,Light Snow,-1.0,-2.0,29.77,1009.7,71,,,,,,,,,,,,,,,1800.0,1800.0,OVC,1800.0,,,,,,
KRDR,01-15-2021,06:56,METAR,Normal,350,16.0,27.0,350/29KTS,9999.0,,-1.0,-2.0,29.75,1009.0,,,,,,,,,,,,,,,,1700.0,1800.0,OVC,1800.0,,,,,,
KRDR,01-15-2021,05:58,METAR,Normal,340,22.0,27.0,350/29KTS,9999.0,Light Snow,-1.0,-2.0,29.73,1008.3,71,,,,,,,,,,TRACE,,.01 IN,,,1800.0,1800.0,OVC,1800.0,,,,,,
KRDR,01-15-2021,04:57,METAR,Normal,350,21.0,27.0,340/29KTS,9999.0,Light Snow,-1.1,-1.8,29.71,1007.6,71,,,,,,,,,,TRACE,,,,,1700.0,1700.0,OVC,1700.0,,,,,,
KRDR,01-15-2021,03:55,METAR,Normal,350,16.0,26.0,350/26KTS,9999.0,Light Snow,-1.0,-1.6,29.69,1007.0,71,,,,,,,,,,TRACE,,,,,1800.0,1900.0,OVC,1900.0,,,,,,
KRDR,01-15-2021,02:56,METAR,Normal,340,14.0,,,9999.0,Light Snow,-1.2,-1.3,29.67,1006.3,71,,,,,,,,,,TRACE,TRACE,,,,1900.0,2600.0,BKN,2600.0,BKN,4200.0,OVC,7000.0,,
KRDR,01-15-2021,01:58,METAR,Normal,340,13.0,,,6400.0,Light Snow/Mist,-1.1,-1.2,29.65,1005.6,71,10,,,,,,,,,TRACE,,,,,300.0,2500.0,OVC,2500.0,,,,,,
KRDR,01-15-2021,01:34,SPECI,Normal,350,17.0,23.0,,4800.0,Light Snow/Mist,-1.0,-1.0,29.64,1005.3,71,10,,,,,,,,,,,,,,2700.0,2700.0,OVC,2700.0,,,,,,
KRDR,01-15-2021,00:55,METAR,Normal,330,15.0,25.0,330/32KTS,9999.0,Light Snow,-0.3,-1.3,29.63,1004.8,,,,71,,,,,,,TRACE,,,,,2300.0,2400.0,OVC,2400.0,,,,,,
KRDR,01-14-2021,23:56,METAR,Normal,330,18.0,27.0,340/31KTS,9999.0,Light Snow,0.1,-1.3,29.60,1003.8,71,,,,,,,,,,TRACE,,TRACE,,,2100.0,2100.0,OVC,2100.0,,,,,,
KRDR,01-14-2021,23:26,SPECI,Normal,330,17.0,28.0,,9999.0,,0.0,-1.0,29.60,1003.8,,,,,,,,,,,,,,,,2000.0,2000.0,OVC,2000.0,,,,,,
KRDR,01-14-2021,23:16,SPECI,Normal,340,21.0,28.0,,9999.0,,0.0,-1.0,29.60,1003.8,,,,,,,,,,,,,,,,1900.0,1900.0,BKN,1900.0,OVC,2500.0,,,,
KRDR,01-14-2021,22:56,METAR,Normal,330,19.0,29.0,340/31KTS,9999.0,,0.3,-1.2,29.58,1003.1,,,,,,,,,,,,,,,,2000.0,2100.0,OVC,2100.0,,,,,,
KRDR,01-14-2021,21:56,METAR,Normal,330,18.0,24.0,340/30KTS,9999.0,,0.3,-0.6,29.54,1001.8,,,,,,,,,,,,,,,,1800.0,1800.0,OVC,1800.0,,,,,,
KRDR,01-14-2021,21:26,SPECI,Normal,330,17.0,25.0,,9999.0,,0.0,-1.0,29.52,1001.0,,,,,,,,,,,,,,,,1800.0,1800.0,OVC,1800.0,,,,,,
KRDR,01-14-2021,20:56,METAR,Normal,330,20.0,31.0,330/31KTS,9999.0,,0.3,-0.4,29.51,1000.7,,,,,,,,,,,,TRACE,,,,1800.0,2000.0,OVC,2000.0,,,,,,
KRDR,01-14-2021,19:56,METAR,Normal,330,15.0,22.0,,9999.0,,0.6,0.5,29.48,999.6,,,,,,,,,,,TRACE,,,,,1600.0,1600.0,OVC,1600.0,,,,,,
KRDR,01-14-2021,19:03,SPECI,Normal,340,17.0,25.0,,9999.0,,0.0,0.0,29.47,999.4,,,,,,,,,,,,,,,,1500.0,1000.0,SCT,1000.0,OVC,1500.0,,,,
KRDR,01-14-2021,18:56,METAR,Normal,340,18.0,25.0,340/30KTS,9999.0,Light Drizzle,0.1,0.1,29.46,999.0,51,,,,,,,,,,TRACE,,,,,800.0,800.0,BKN,800.0,OVC,1500.0,,,,
KRDR,01-14-2021,18:10,SPECI,Normal,330,16.0,,,4800.0,Light Drizzle,0.0,0.0,29.44,998.4,51,,,,,,,,,,,,,,,700.0,700.0,BKN,700.0,OVC,1000.0,,,,
KRDR,01-14-2021,17:56,METAR,Normal,320,16.0,23.0,,6400.0,Light Drizzle,0.5,0.5,29.43,998.0,51,,,,,,,,,,TRACE,,TRACE,,,1000.0,1000.0,OVC,1000.0,,,,,,
KRDR,01-14-2021,17:36,SPECI,Normal,320,17.0,21.0,,9999.0,Light Drizzle,1.0,1.0,29.43,998.0,51,,,,,,,,,,,,,,,1200.0,1200.0,OVC,1200.0,,,,,,
KRDR,01-14-2021,17:16,SPECI,Normal,320,15.0,21.0,,9999.0,,1.0,1.0,29.43,998.0,,,,,,,,,,,,,,,,1100.0,1100.0,BKN,1100.0,OVC,2900.0,,,,
KRDR,01-14-2021,16:56,METAR,Normal,320,18.0,,,9999.0,,0.4,0.4,29.42,997.7,,,,,,,,,,,TRACE,,,,,2100.0,1000.0,SCT,1000.0,BKN,2100.0,OVC,2800.0,,
KRDR,01-14-2021,16:34,SPECI,Normal,310,16.0,21.0,,9999.0,Light Drizzle,1.0,1.0,29.41,997.3,51,,,,,,,,,,,,,,,2200.0,700.0,SCT,700.0,OVC,2200.0,,,,
KRDR,01-14-2021,16:30,SPECI,Normal,310,16.0,21.0,,9999.0,,1.0,1.0,29.41,997.3,,,,,,,,,,,,,,,,2400.0,1000.0,FEW,1000.0,OVC,2400.0,,,,
KRDR,01-14-2021,15:56,METAR,Normal,310,14.0,,,9999.0,,1.0,0.9,29.39,996.7,,,,,,,,,,,,,,,,1300.0,1500.0,FEW,1500.0,OVC,2300.0,,,,
KRDR,01-14-2021,14:56,METAR,Normal,290,10.0,,,9999.0,,1.5,1.4,29.37,995.9,,,,,,,,,,,,,,,,2600.0,2800.0,OVC,2800.0,,,,,,
KRDR,01-14-2021,14:36,SPECI,Normal,290,9.0,,,9999.0,,1.0,1.0,29.36,995.6,,,,,,,,,,,,,,,,2800.0,2900.0,OVC,2900.0,,,,,,
KRDR,01-14-2021,13:56,METAR,Normal,290,7.0,,,9999.0,,0.9,0.5,29.36,995.6,,,,,,,,,,,,,,,,3100.0,3100.0,OVC,3100.0,,,,,,
KRDR,01-14-2021,13:26,SPECI,Normal,290,7.0,,,9999.0,,1.0,0.0,29.35,995.3,,,,,,,,,,,,,,,,3400.0,2900.0,SCT,2900.0,BKN,3400.0,,,,
KRDR,01-14-2021,12:56,METAR,Normal,270,5.0,,,9999.0,,1.1,1.0,29.35,995.3,,,,,,,,,,,,,,,,2800.0,2900.0,BKN,2900.0,,,,,,
KRDR,01-14-2021,12:46,SPECI,Normal,240,6.0,,,9999.0,,0.0,0.0,29.35,995.4,,,,,,,,,,,,,,,,2800.0,2900.0,BKN,2900.0,,,,,,
KRDR,01-14-2021,11:56,METAR,Normal,240,6.0,,,9999.0,,1.3,1.2,29.33,994.6,,,,,,,,,,,,,TRACE,.09 IN,Clear,72000.0,,,,,,,,,
KRDR,01-14-2021,10:56,METAR,Normal,250,5.0,,,9999.0,,1.7,1.0,29.34,995.0,,,,,,,,,,,,,,,Clear,72000.0,,,,,,,,,
KRDR,01-14-2021,09:56,METAR,Normal,240,7.0,,,9999.0,,2.2,0.9,29.36,995.6,,,,,,,,,,,,,,,2/8 Mostly Clear,72000.0,19000.0,FEW,19000.0,,,,,,
KRDR,01-14-2021,08:56,METAR,Normal,260,7.0,,,9999.0,,3.2,1.7,29.37,995.8,,,,,,,,,,,,TRACE,,,,9500.0,9500.0,BKN,9600.0,,,,,,
KRDR,01-14-2021,07:56,METAR,Normal,290,8.0,,,9999.0,,4.0,2.5,29.37,995.8,,,,,,,,,,,,,,,,9000.0,9000.0,OVC,9100.0,,,,,,
KRDR,01-14-2021,06:56,METAR,Normal,250,6.0,,,9999.0,,2.8,2.8,29.37,995.8,,,,,,,,,,,TRACE,,,,4/8 Partly Cloudy,72000.0,4200.0,SCT,4200.0,,,,,,
KRDR,01-14-2021,05:56,METAR,Normal,220,5.0,,,9999.0,Light Rain,2.4,2.4,29.36,995.5,61,,,,,,,,,,.03 IN,,.11 IN,,,4800.0,4800.0,BKN,4800.0,OVC,6000.0,,,,
KRDR,01-14-2021,05:51,SPECI,Normal,210,5.0,,,9999.0,Light Rain,2.0,2.0,29.36,995.5,61,,,,,,,,,,,,,,,4800.0,4800.0,BKN,4800.0,OVC,6500.0,,,,
KRDR,01-14-2021,05:16,SPECI,Normal,250,11.0,,,9999.0,,2.0,2.0,29.35,995.2,,,,,,,,,,,,,,,,4000.0,4000.0,BKN,4000.0,BKN,6000.0,,,,
KRDR,01-14-2021,04:56,METAR,Normal,160,4.0,,,9999.0,Light Rain,1.5,1.5,29.36,995.6,61,,,,,,,,,,.07 IN,,,,,4900.0,4100.0,SCT,4100.0,OVC,4900.0,,,,
KRDR,01-14-2021,04:06,SPECI,Normal,190,4.0,,,9999.0,Light Rain,1.0,1.0,29.37,996.0,61,,,,,,,,,,,,,,,5000.0,5000.0,OVC,5000.0,,,,,,
KRDR,01-14-2021,03:56,METAR,Normal,190,4.0,,,9999.0,Light Rain,1.4,1.4,29.37,996.0,61,,,,,,,,,,.01 IN,,,,,2400.0,1300.0,FEW,1300.0,BKN,2400.0,OVC,4900.0,,
KRDR,01-14-2021,03:43,SPECI,Calm,,0.0,,,9999.0,Light Rain,1.0,1.0,29.37,996.0,61,,,,,,,,,,,,,,,5000.0,2300.0,SCT,2300.0,BKN,5000.0,,,,
KRDR,01-14-2021,03:19,SPECI,Normal,210,6.0,,,9999.0,Light Rain,1.0,1.0,29.38,996.5,61,,,,,,,,,,,,,,,9000.0,9000.0,BKN,9100.0,OVC,15000.0,,,,
KRDR,01-14-2021,02:56,METAR,Normal,200,5.0,,,9999.0,,1.0,1.0,29.38,996.5,,,,,,,,,,,,,,,,10000.0,10000.0,BKN,10000.0,OVC,21000.0,,,,
KRDR,01-14-2021,01:56,METAR,Normal,170,5.0,,,9999.0,,0.6,0.6,29.39,996.9,,,,,,,,,,,,,,,,25000.0,25000.0,OVC,25000.0,,,,,,
KRDR,01-14-2021,00:56,METAR,Normal,170,7.0,,,9999.0,,0.6,0.6,29.41,997.5,,,,,,,,,,,,,,,,19000.0,19000.0,BKN,19000.0,OVC,25000.0,,,,
KRDR,01-13-2021,23:56,METAR,Normal,170,7.0,,,9999.0,,0.7,0.7,29.42,997.8,,,,,,,,,,,,,,,,18000.0,18000.0,BKN,18000.0,OVC,23000.0,,,,
KRDR,01-13-2021,22:56,METAR,Normal,170,7.0,,,9999.0,,1.0,0.9,29.44,998.4,,,,,,,,,,,,,,,,15000.0,15000.0,BKN,15000.0,OVC,22000.0,,,,
KRDR,01-13-2021,21:56,METAR,Normal,160,7.0,,,9999.0,,1.8,1.4,29.44,998.4,,,,,,,,,,,,,,,,15000.0,15000.0,BKN,15000.0,OVC,22000.0,,,,
KRDR,01-13-2021,20:56,METAR,Normal,180,6.0,,,9999.0,,2.0,0.8,29.46,999.2,,,,,,,,,,,,,,,,18000.0,8000.0,FEW,8000.0,OVC,18000.0,,,,
KRDR,01-13-2021,19:56,METAR,Normal,180,8.0,,,9999.0,,3.2,0.8,29.48,999.9,,,,,,,,,,,,,,,,18000.0,18000.0,BKN,18000.0,,,,,,
KRDR,01-13-2021,18:56,METAR,Normal,200,12.0,,,9999.0,,3.7,0.7,29.50,1000.5,,,,,,,,,,,,,,,2/8 Mostly Clear,72000.0,15000.0,FEW,15000.0,,,,,,
KRDR,01-13-2021,17:56,METAR,Normal,190,10.0,,,9999.0,,3.2,0.4,29.55,1002.2,,,,,,,,,,,,,,,2/8 Mostly Clear,72000.0,15000.0,FEW,15000.0,,,,,,
KRDR,01-13-2021,16:56,METAR,Normal,190,9.0,,,9999.0,,0.9,-0.4,29.59,1003.6,,,,,,,,,,,,,,,2/8 Mostly Clear,72000.0,15000.0,FEW,15000.0,,,,,,
KRDR,01-13-2021,15:56,METAR,Normal,190,8.0,,,9999.0,,-1.6,-1.7,29.61,1004.4,,,,,,,,,,,,,,,,9000.0,9000.0,BKN,9100.0,,,,,,
KRDR,01-13-2021,14:56,METAR,Normal,160,5.0,,,9999.0,,-2.9,-3.0,29.62,1004.7,,,,,,,,,,,,,,,,10000.0,10000.0,BKN,10000.0,,,,,,
KRDR,01-13-2021,13:56,METAR,Normal,150,5.0,,,9999.0,,-4.4,-4.5,29.63,1005.1,,,,,,,,,,,,,,,,13000.0,10000.0,SCT,10000.0,BKN,13000.0,,,,
KRDR,01-13-2021,12:56,METAR,Normal,140,5.0,,,9999.0,,-2.8,-2.9,29.65,1005.7,,,,,,,,,,,,,,,,8000.0,8000.0,BKN,8000.0,OVC,10000.0,,,,
KRDR,01-13-2021,11:56,METAR,Normal,180,5.0,,,9999.0,,-2.1,-2.2,29.66,1006.0,,,,,,,,,,,,,,,,9500.0,9500.0,BKN,9600.0,,,,,,
KRDR,01-13-2021,10:56,METAR,Normal,190,6.0,,,9999.0,,-2.0,-2.1,29.67,1006.3,,,,,,,,,,,,,,,,8000.0,8000.0,OVC,8000.0,,,,,,
KRDR,01-13-2021,09:56,METAR,Calm,,0.0,,,9999.0,,-3.1,-3.2,29.70,1007.3,,,,,,,,,,,,,,,,10000.0,10000.0,OVC,10000.0,,,,,,
KRDR,01-13-2021,08:56,METAR,Normal,220,4.0,,,9999.0,,-4.6,-4.7,29.71,1007.6,,,,,,,,,,,,,,,,16000.0,16000.0,OVC,16000.0,,,,,,
KRDR,01-13-2021,07:56,METAR,Normal,210,5.0,,,9999.0,,-4.4,-4.5,29.71,1007.6,,,,,,,,,,,,,,,,16000.0,16000.0,BKN,16000.0,,,,,,
KRDR,01-13-2021,06:56,METAR,Normal,260,5.0,,,9999.0,,-3.2,-3.3,29.71,1007.6,,,,,,,,,,,,,,,,16000.0,16000.0,BKN,16000.0,,,,,,
KRDR,01-13-2021,05:57,METAR,Normal,270,8.0,,,9999.0,,-3.7,-3.8,29.73,,,,,,,,,,,,,,,,,15000.0,15000.0,BKN,15000.0,,,,,,
KRDR,01-13-2021,04:56,METAR,Normal,270,5.0,,,9999.0,,-3.0,-3.1,29.75,,,,,,,,,,,,,,,,,15000.0,15000.0,BKN,15000.0,,,,,,
KRDR,01-13-2021,03:56,METAR,Normal,290,8.0,,,9999.0,,-1.4,-1.5,29.76,,,,,,,,,,,,,,,,2/8 Mostly Clear,72000.0,15000.0,FEW,15000.0,,,,,,
KRDR,01-13-2021,02:56,METAR,Normal,290,7.0,,,9999.0,,1.3,-0.2,29.75,,,,,,,,,,,,,,,,,15000.0,15000.0,OVC,15000.0,,,,,,
KRDR,01-13-2021,01:56,METAR,Normal,290,9.0,,,9999.0,,0.5,-0.2,29.76,1009.7,,,,,,,,,,,,,,,,15000.0,15000.0,OVC,15000.0,,,,,,
KRDR,01-13-2021,00:56,METAR,Normal,290,8.0,,,9999.0,,0.1,-0.6,29.75,1009.4,,,,,,,,,,,,,,,,15000.0,15000.0,BKN,15000.0,BKN,24000.0,,,,
KRDR,01-12-2021,23:56,METAR,Normal,280,6.0,,,9999.0,,0.6,-0.1,29.75,1009.4,,,,,,,,,,,,,,,,24000.0,18000.0,FEW,18000.0,BKN,24000.0,,,,
KRDR,01-12-2021,22:56,METAR,Normal,280,7.0,,,9999.0,,1.0,-0.2,29.76,1009.7,,,,,,,,,,,,,,,,24000.0,18000.0,FEW,18000.0,BKN,24000.0,,,,
KRDR,01-12-2021,21:56,METAR,Normal,270,5.0,,,9999.0,,3.6,0.3,29.75,1009.2,,,,,,,,,,,,,,,,18000.0,18000.0,BKN,18000.0,BKN,20000.0,,,,
KRDR,01-12-2021,20:56,METAR,Normal,260,7.0,,,9999.0,,5.6,0.2,29.75,1009.1,,,,,,,,,,,,,,,4/8 Partly Cloudy,72000.0,20000.0,SCT,20000.0,,,,,,
KRDR,01-12-2021,19:56,METAR,Normal,270,6.0,,,9999.0,,3.6,-0.1,29.76,1009.4,,,,,,,,,,,,,,,,20000.0,20000.0,BKN,20000.0,,,,,,
KRDR,01-12-2021,18:56,METAR,Normal,280,4.0,,,9999.0,,3.3,-0.5,29.78,1010.2,,,,,,,,,,,,,,,,23000.0,23000.0,BKN,23000.0,,,,,,
KRDR,01-12-2021,17:56,METAR,Normal,210,9.0,,,9999.0,,2.0,-2.0,29.79,,,,,,,,,,,,,,,,,20000.0,20000.0,BKN,20000.0,,,,,,
KRDR,01-12-2021,16:56,METAR,Normal,220,6.0,,,9999.0,,-1.3,-2.6,29.80,1011.0,,,,,,,,,,,,,,,Clear,72000.0,,,,,,,,,
KRDR,01-12-2021,16:53,METAR,Normal,220,7.0,,,9999.0,,-1.0,-2.0,29.80,,,,,,,,,,,,,,,,,20000.0,20000.0,BKN,20000.0,,,,,,
KRDR,01-12-2021,15:56,METAR,Normal,210,6.0,,,9999.0,,-5.3,-5.4,29.81,1011.6,,,,,,,,,,,,,,,Clear,72000.0,,,,,,,,,
KRDR,01-12-2021,15:55,METAR,Normal,210,6.0,,,9999.0,,-5.0,-5.0,29.81,,,,,,,,,,,,,,,,,20000.0,15000.0,FEW,15000.0,BKN,20000.0,,,,
KRDR,01-12-2021,14:58,METAR,Normal,190,7.0,,,9999.0,,-9.0,-9.0,29.81,,,,,,,,,,,,,,,,,20000.0,15000.0,SCT,15000.0,BKN,20000.0,,,,
KRDR,01-12-2021,14:56,METAR,Normal,190,6.0,,,9999.0,,-8.9,-9.1,29.81,1011.6,,,,,,,,,,,,,,,Clear,72000.0,,,,,,,,,
KRDR,01-12-2021,13:56,METAR,Normal,190,6.0,,,9999.0,,-10.2,-10.4,29.83,1012.3,,,,,,,,,,,,,,,Clear,72000.0,,,,,,,,,
KRDR,01-12-2021,12:57,METAR,Normal,190,7.0,,,9999.0,,-9.6,-9.8,29.84,1012.6,,,,,,,,,,,,,,,,21000.0,21000.0,BKN,21000.0,,,,,,
KRDR,01-12-2021,11:57,METAR,Normal,190,7.0,,,9999.0,,-10.7,-10.9,29.85,1013.0,,,,,,,,,,,,,,,,21000.0,21000.0,BKN,21000.0,,,,,,
KRDR,01-12-2021,10:57,METAR,Normal,190,6.0,,,9999.0,,-10.0,-10.2,29.85,1013.0,,,,,,,,,,,,,,,,21000.0,21000.0,BKN,21000.0,,,,,,
KRDR,01-12-2021,09:57,METAR,Normal,160,5.0,,,9999.0,,-9.1,-9.3,29.87,1013.5,,,,,,,,,,,,,,,,20000.0,20000.0,BKN,20000.0,,,,,,
KRDR,01-12-2021,08:57,METAR,Normal,170,5.0,,,9999.0,,-8.3,-8.4,29.88,1013.8,,,,,,,,,,,,,,,,20000.0,20000.0,BKN,20000.0,,,,,,
KRDR,01-12-2021,07:57,METAR,Normal,190,4.0,,,9999.0,,-6.3,-6.4,29.89,1014.1,,,,,,,,,,,,,,,,17000.0,17000.0,BKN,17000.0,,,,,,
KRDR,01-12-2021,06:57,METAR,Normal,200,5.0,,,9999.0,,-6.6,-6.7,29.90,1014.4,,,,,,,,,,,,,,,,16000.0,16000.0,OVC,16000.0,,,,,,
KRDR,01-12-2021,05:56,METAR,Normal,200,6.0,,,9999.0,,-6.9,-6.9,29.93,1015.5,,,,,,,,,,,,,,,,19000.0,19000.0,BKN,19000.0,,,,,,
KRDR,01-12-2021,04:56,METAR,Normal,210,5.0,,,9999.0,,-6.9,-6.9,29.92,1015.1,,,,,,,,,,,,,,,,20000.0,20000.0,BKN,20000.0,,,,,,
KRDR,01-12-2021,03:56,METAR,Normal,200,6.0,,,9999.0,,-8.0,-8.1,29.93,1015.6,,,,,,,,,,,,,,,2/8 Mostly Clear,72000.0,19000.0,FEW,19000.0,,,,,,
KRDR,01-12-2021,03:06,SPECI,Normal,190,5.0,,,9999.0,,-6.0,-6.0,29.94,1016.0,,,,,,,,,,,,,,,2/8 Mostly Clear,72000.0,500.0,FEW,500.0,,,,,,
KRDR,01-12-2021,02:56,METAR,Normal,210,3.0,,,9999.0,,-5.3,-5.3,29.94,1015.9,,,,,,,,,,,,,,,,500.0,500.0,BKN,500.0,,,,,,
KRDR,01-12-2021,02:46,SPECI,Calm,,0.0,,,9999.0,,-5.0,-5.0,29.94,1015.9,,,,,,,,,,,,,,,,400.0,500.0,OVC,500.0,,,,,,
KRDR,01-12-2021,02:06,SPECI,Normal,270,4.0,,,9999.0,,-4.0,-4.0,29.95,1016.2,,,,,,,,,,,,,,,,400.0,400.0,OVC,400.0,,,,,,
KRDR,01-12-2021,01:56,METAR,Normal,270,6.0,,,9999.0,,-4.5,-4.5,29.95,1016.2,,,,,,,,,,,,,,,,300.0,300.0,OVC,300.0,,,,,,
KRDR,01-12-2021,01:36,SPECI,Normal,280,5.0,,,9999.0,,-4.0,-4.0,29.95,1016.2,,,,,,,,,,,,,,,,300.0,300.0,OVC,300.0,,,,,,
KRDR,01-12-2021,00:56,METAR,Normal,270,3.0,,,9999.0,,-4.4,-4.4,29.95,1016.2,,,,,,,,,,,,,,,,400.0,400.0,OVC,400.0,,,,,,
KRDR,01-12-2021,00:36,SPECI,Normal,280,4.0,,,9999.0,,-5.0,-5.0,29.96,1016.6,,,,,,,,,,,,,,,,400.0,400.0,OVC,400.0,,,,,,
KRDR,01-11-2021,23:56,METAR,Normal,300,8.0,,,9999.0,,-4.1,-4.1,29.96,1016.6,,,,,,,,,,,,,,,,400.0,500.0,OVC,500.0,,,,,,
KRDR,01-11-2021,22:56,METAR,Normal,310,8.0,,,9999.0,,-3.5,-3.6,29.96,1016.5,,,,,,,,,,,,,,,,500.0,500.0,OVC,500.0,,,,,,
KRDR,01-11-2021,22:53,SPECI,Normal,310,7.0,,,9999.0,,-3.0,-4.0,29.96,1016.5,,,,,,,,,,,,,,,,500.0,500.0,OVC,500.0,,,,,,
KRDR,01-11-2021,22:33,SPECI,Normal,310,9.0,,,9999.0,,-3.0,-3.0,29.96,1016.5,,,,,,,,,,,,,,,,600.0,600.0,BKN,600.0,OVC,1200.0,,,,
KRDR,01-11-2021,22:23,SPECI,Normal,300,8.0,,,9999.0,,-2.0,-2.0,29.95,1016.1,,,,,,,,,,,,,,,,1000.0,1000.0,OVC,1000.0,,,,,,
KRDR,01-11-2021,21:56,METAR,Normal,310,10.0,,,9999.0,,-1.4,-2.0,29.94,1015.7,,,,,,,,,,,,,,,,1200.0,1200.0,BKN,1200.0,,,,,,
KRDR,01-11-2021,21:16,SPECI,Normal,290,5.0,,,9999.0,,-1.0,-2.0,29.92,1015.0,,,,,,,,,,,,,,,,1200.0,1200.0,BKN,1200.0,,,,,,
KRDR,01-11-2021,20:56,METAR,Normal,310,5.0,,,9999.0,,-1.3,-1.6,29.92,1014.9,,,,,,,,,,,,,,,,900.0,900.0,BKN,900.0,OVC,1200.0,,,,
KRDR,01-11-2021,19:56,METAR,Normal,350,5.0,,,9999.0,,-1.2,-1.5,29.91,1014.6,,,,,,,,,,,,,,,,900.0,900.0,OVC,900.0,,,,,,
KRDR,01-11-2021,17:56,METAR,Normal,340,9.0,,,9999.0,,-2.0,-2.1,29.94,1015.7,,,,,,,,,,,,,,,,900.0,900.0,BKN,900.0,OVC,1200.0,,,,
KRDR,01-11-2021,17:24,SPECI,Normal,330,7.0,,,9999.0,,-2.0,-2.0,29.94,1015.7,,,,,,,,,,,,,,,,800.0,800.0,OVC,800.0,,,,,,
KRDR,01-11-2021,16:56,METAR,Normal,330,7.0,,,9999.0,,-1.9,-2.0,29.93,1015.3,,,,,,,,,,,,,,,,15000.0,13000.0,SCT,13000.0,BKN,15000.0,BKN,19000.0,,
KRDR,01-11-2021,15:56,METAR,Normal,310,5.0,,,9999.0,,-3.9,-4.0,29.92,1015.0,,,,,,,,,,,,,,,4/8 Partly Cloudy,72000.0,10000.0,SCT,10000.0,SCT,12000.0,,,,
KRDR,01-11-2021,14:56,METAR,Normal,300,5.0,,,9999.0,,-5.6,-5.6,29.91,1014.7,,,,,,,,,,,,,,,,11000.0,11000.0,BKN,11000.0,BKN,15000.0,,,,
KRDR,01-11-2021,13:56,METAR,Normal,320,4.0,,,9999.0,,-6.2,-6.2,29.90,1014.4,,,,,,,,,,,,,,,,12000.0,12000.0,OVC,12000.0,,,,,,
KRDR,01-11-2021,12:56,METAR,Normal,290,6.0,,,9999.0,,-6.1,-6.2,29.91,1014.7,,,,,,,,,,,,,,,2/8 Mostly Clear,72000.0,21000.0,FEW,21000.0,,,,,,
KRDR,01-11-2021,11:56,METAR,Normal,300,5.0,,,9999.0,,-5.2,-5.2,29.89,1014.0,,,,,,,,,,,,,,,2/8 Mostly Clear,72000.0,20000.0,FEW,20000.0,,,,,,
KRDR,01-11-2021,10:56,METAR,Normal,310,6.0,,,9999.0,,-5.0,-5.1,29.90,1014.3,,,,,,,,,,,,,,,,19000.0,19000.0,BKN,19000.0,,,,,,
KRDR,01-11-2021,09:56,METAR,Calm,,0.0,,,9999.0,,-3.2,-3.3,29.90,1014.2,,,,,,,,,,,,,,,,18000.0,18000.0,BKN,18000.0,,,,,,
KRDR,01-11-2021,08:56,METAR,Normal,300,5.0,,,9999.0,,-2.0,-2.1,29.91,1014.5,,,,,,,,,,,,,,,4/8 Partly Cloudy,72000.0,19000.0,SCT,19000.0,,,,,,
KRDR,01-11-2021,07:56,METAR,Calm,,0.0,,,9999.0,,-3.1,-3.2,29.93,1015.3,,,,,,,,,,,,,,,2/8 Mostly Clear,72000.0,18000.0,FEW,18000.0,,,,,,
KRDR,01-11-2021,06:56,METAR,Normal,160,3.0,,,9999.0,,-3.2,-3.3,29.94,1015.7,,,,,,,,,,,,,,,,18000.0,18000.0,OVC,18000.0,,,,,,
KRDR,01-11-2021,05:56,METAR,Normal,210,3.0,,,9999.0,,-2.2,-2.3,29.97,1016.7,,,,,,,,,,,,,,,Clear,72000.0,,,,,,,,,
KRDR,01-11-2021,04:56,METAR,Normal,60,6.0,,,9999.0,,-1.7,-1.8,29.98,1017.2,,,,,,,,,,,,,,,,21000.0,19000.0,FEW,19000.0,BKN,21000.0,,,,
KRDR,01-11-2021,03:56,METAR,Normal,240,7.0,,,9999.0,,-0.5,-0.8,30.00,1017.9,,,,,,,,,,,,,,,Clear,72000.0,,,,,,,,,
KRDR,01-11-2021,02:56,METAR,Normal,250,11.0,,,9999.0,,-0.2,-0.6,29.99,1017.7,,,,,,,,,,,,,,,4/8 Partly Cloudy,72000.0,18000.0,SCT,18000.0,SCT,22000.0,,,,
KRDR,01-11-2021,01:56,METAR,Normal,240,16.0,,,9999.0,,-0.2,-0.5,30.00,1018.1,,,,,,,,,,,,,,,4/8 Partly Cloudy,72000.0,16000.0,SCT,16000.0,,,,,,
KRDR,01-11-2021,00:56,METAR,Normal,240,10.0,,,9999.0,,-0.4,-0.5,30.04,1019.5,,,,,,,,,,,,,,,,16000.0,16000.0,BKN,16000.0,,,,,,
KRDR,01-10-2021,23:56,METAR,Normal,230,13.0,,,9999.0,,-0.3,-0.4,30.06,1020.1,,,,,,,,,,,,,,,,15000.0,15000.0,BKN,15000.0,BKN,17000.0,,,,
KRDR,01-10-2021,23:26,SPECI,Normal,230,12.0,,,9999.0,,0.0,0.0,30.08,1020.8,,,,,,,,,,,,,,,,17000.0,1800.0,FEW,1800.0,BKN,17000.0,,,,
KRDR,01-10-2021,22:56,METAR,Normal,240,10.0,,,9999.0,,0.0,-0.3,30.10,1021.5,,,,,,,,,,,,,,,,1700.0,1700.0,OVC,1700.0,,,,,,
KRDR,01-10-2021,22:16,SPECI,Normal,240,10.0,,,9999.0,,0.0,0.0,30.11,1021.8,,,,,,,,,,,,,,,,1600.0,1600.0,OVC,1600.0,,,,,,
KRDR,01-10-2021,22:06,SPECI,Normal,250,11.0,,,9999.0,,0.0,0.0,30.11,1021.8,,,,,,,,,,,,,,,,1400.0,1400.0,OVC,1400.0,,,,,,
KRDR,01-10-2021,21:56,METAR,Normal,240,14.0,,,9999.0,,0.2,-0.1,30.11,1021.8,,,,,,,,,,,,,,,,1300.0,1300.0,OVC,1300.0,,,,,,
KRDR,01-10-2021,21:36,SPECI,Normal,250,13.0,19.0,,9999.0,,0.0,0.0,30.11,1021.8,,,,,,,,,,,,,,,,1300.0,1300.0,OVC,1300.0,,,,,,
KRDR,01-10-2021,21:16,SPECI,Normal,240,15.0,,,9999.0,,0.0,0.0,30.11,1021.8,,,,,,,,,,,,,,,,1200.0,1200.0,OVC,1200.0,,,,,,
KRDR,01-10-2021,20:56,METAR,Normal,240,15.0,21.0,,9999.0,,0.3,0.0,30.12,1022.2,,,,,,,,,,,,,,,,1300.0,1300.0,OVC,1300.0,,,,,,
KRDR,01-10-2021,20:36,SPECI,Normal,250,12.0,,,9999.0,,0.0,0.0,30.13,1022.5,,,,,,,,,,,,,,,,1300.0,1300.0,OVC,1300.0,,,,,,
KRDR,01-10-2021,20:06,SPECI,Normal,250,13.0,,,9999.0,,0.0,-1.0,30.14,1022.9,,,,,,,,,,,,,,,,1500.0,1500.0,OVC,1500.0,,,,,,
KRDR,01-10-2021,19:56,METAR,Normal,240,17.0,22.0,,9999.0,,-0.1,-1.0,30.15,1023.2,,,,,,,,,,,,,,,,1400.0,1400.0,OVC,1400.0,,,,,,
KRDR,01-10-2021,19:36,SPECI,Normal,250,11.0,,,9999.0,,0.0,-1.0,30.16,1023.6,,,,,,,,,,,,,,,,1400.0,1400.0,OVC,1400.0,,,,,,
KRDR,01-10-2021,19:16,SPECI,Normal,260,15.0,,,9999.0,,-1.0,-1.0,30.18,1024.2,,,,,,,,,,,,,,,,1300.0,1300.0,OVC,1300.0,,,,,,
KRDR,01-10-2021,18:56,METAR,Normal,250,10.0,,,9999.0,,-1.0,-1.1,30.19,1024.6,,,,,,,,,,,,,,,,1200.0,1200.0,OVC,1200.0,,,,,,
KRDR,01-10-2021,18:16,SPECI,Normal,260,14.0,23.0,,9999.0,,-2.0,-2.0,30.20,1024.9,,,,,,,,,,,,,,,,1200.0,1200.0,BKN,1200.0,,,,,,
KRDR,01-10-2021,17:56,METAR,Normal,250,10.0,,,9999.0,,-2.1,-2.1,30.22,1025.6,,,,,,,,,,,,,,,Clear,72000.0,,,,,,,,,
KRDR,01-10-2021,16:56,METAR,Normal,180,8.0,,,9999.0,,-6.2,-6.2,30.24,1026.3,,,,,,,,,,,,,,,Clear,72000.0,,,,,,,,,
KRDR,01-10-2021,15:56,METAR,Normal,190,6.0,,,9999.0,,-7.8,-7.9,30.26,1027.1,,,,,,,,,,,,,,,Clear,72000.0,,,,,,,,,
KRDR,01-10-2021,14:56,METAR,Normal,180,6.0,,,9999.0,Mist,-12.6,-12.8,30.27,1027.5,10,,,,,,,,,,,,,,Clear,72000.0,,,,,,,,,
KRDR,01-10-2021,13:56,METAR,Normal,170,3.0,,,9999.0,,-14.6,-14.9,30.28,1028.0,,,,,,,,,,,,,,,Clear,72000.0,,,,,,,,,
KRDR,01-10-2021,12:56,METAR,Calm,,0.0,,,9999.0,,-14.3,-14.5,30.29,1028.2,,,,,,,,,,,,,,,Clear,72000.0,,,,,,,,,
KRDR,01-10-2021,11:56,METAR,Calm,,0.0,,,9999.0,,-14.3,-14.5,30.29,1028.2,,,,,,,,,,,,,,,Clear,72000.0,,,,,,,,,
KRDR,01-10-2021,10:56,METAR,Normal,190,5.0,,,9999.0,,-14.1,-14.3,30.30,1028.4,,,,,,,,,,,,,,,Clear,72000.0,,,,,,,,,
KRDR,01-10-2021,10:05,METAR,Normal,190,4.0,,,9999.0,,-13.7,-13.9,30.32,1029.0,,,,,,,,,,,,,,,Clear,72000.0,,,,,,,,,
KRDR,01-10-2021,08:56,METAR,Normal,240,3.0,,,9999.0,Shallow Fog or Ice Fog,-14.3,-14.5,30.33,1029.3,,,,11,,,,,,,,,,,,,,,,,,,,,
KRDR,01-10-2021,08:32,SPECI,Normal,260,3.0,,,6400.0,Shallow Fog or Ice Fog,-14.0,-14.0,30.33,1029.3,,,,11,,,,,,,,,,,,,,,,,,,,,
KRDR,01-10-2021,07:56,METAR,Normal,270,3.0,,,400.0,Fog with Rime,-14.1,-14.4,30.33,1029.3,35,,,,,,,,,,,,,,,0.0,0.0,BKN,0.0,,,,,,
KRDR,01-10-2021,07:23,SPECI,Normal,210,3.0,,,800.0,Fog with Rime,-14.0,-14.0,30.33,1029.4,,,,48,,,,,,,,,,,,200.0,0.0,SCT,0.0,BKN,200.0,,,,
KRDR,01-10-2021,06:56,METAR,Normal,210,4.0,,,1000.0,Fog with Rime,-14.0,-14.2,30.33,1029.4,35,,,,,,,,,,,,,,,100.0,100.0,BKN,100.0,BKN,500.0,,,,
KRDR,01-10-2021,05:56,METAR,Calm,,0.0,,,9999.0,,-11.5,-11.7,30.34,1029.6,,,,,,,,,,,,,,,Clear,72000.0,,,,,,,,,
KRDR,01-10-2021,05:31,SPECI,Calm,,0.0,,,9999.0,,-10.0,-10.0,30.34,1029.5,,,,,,,,,,,,,,,Clear,72000.0,,,,,,,,,
KRDR,01-10-2021,05:21,SPECI,Calm,,0.0,,,4400.0,Mist,-9.0,-9.0,30.34,1029.5,10,,,,,,,,,,,,,,Clear,72000.0,,,,,,,,,
KRDR,01-10-2021,05:16,SPECI,Calm,,0.0,,,1000.0,Mist,-9.0,-9.0,30.34,1029.5,10,,,,,,,,,,,,,,Clear,72000.0,,,,,,,,,
KRDR,01-10-2021,05:06,SPECI,Calm,,0.0,,,1600.0,Mist,-8.0,-8.0,30.34,1029.5,10,,,,,,,,,,,,,,Clear,72000.0,,,,,,,,,
KRDR,01-10-2021,04:56,METAR,Calm,,0.0,,,9999.0,Mist,-8.9,-9.1,30.34,1029.5,10,,,,,,,,,,,,,,Clear,72000.0,,,,,,,,,
KRDR,01-10-2021,03:56,METAR,Normal,250,4.0,,,9999.0,,-9.4,-9.6,30.34,1029.5,,,,,,,,,,,,,,,Clear,72000.0,,,,,,,,,
KRDR,01-10-2021,02:56,METAR,Normal,280,4.0,,,9999.0,,-7.6,-7.6,30.36,1030.2,,,,,,,,,,,,,,,Clear,72000.0,,,,,,,,,
KRDR,01-10-2021,01:56,METAR,Normal,260,5.0,,,9999.0,,-7.1,-7.1,30.37,1030.5,,,,,,,,,,,,,,,Clear,72000.0,,,,,,,,,
KRDR,01-10-2021,00:56,METAR,Normal,240,4.0,,,9999.0,,-5.8,-5.8,30.37,1030.5,,,,,,,,,,,,,,,Clear,72000.0,,,,,,,,,
KRDR,01-09-2021,23:56,METAR,Normal,270,5.0,,,9999.0,,-3.7,-3.8,30.38,1030.7,,,,,,,,,,,,,,,Clear,72000.0,,,,,,,,,
KRDR,01-09-2021,22:56,METAR,Normal,300,10.0,,,9999.0,,-1.6,-1.7,30.38,1030.7,,,,,,,,,,,,,,,2/8 Mostly Clear,72000.0,2000.0,FEW,2000.0,,,,,,
KRDR,01-09-2021,21:56,METAR,Normal,300,7.0,,,9999.0,,0.3,-0.9,30.38,1030.6,,,,,,,,,,,,,,,4/8 Partly Cloudy,72000.0,1900.0,SCT,1900.0,,,,,,
KRDR,01-09-2021,20:56,METAR,Normal,290,8.0,,,9999.0,,1.2,-0.6,30.37,1030.2,,,,,,,,,,,,,,,,1700.0,1700.0,BKN,1700.0,,,,,,
KRDR,01-09-2021,19:58,METAR,Normal,300,6.0,,,9999.0,,1.1,-0.2,30.37,1030.2,,,,,,,,,,,,,,,,1700.0,1700.0,OVC,1700.0,,,,,,
KRDR,01-09-2021,18:56,METAR,Normal,290,3.0,,,8000.0,Mist,0.8,0.7,30.38,1030.6,10,,,,,,,,,,,,,,,2000.0,2000.0,OVC,2000.0,,,,,,
KRDR,01-09-2021,18:44,SPECI,Normal,290,3.0,,,6400.0,Mist,0.0,0.0,30.39,1030.9,10,,,,,,,,,,,,,,,2000.0,2000.0,OVC,2000.0,,,,,,
KRDR,01-09-2021,17:56,METAR,Normal,280,3.0,,,4800.0,Mist,-0.1,-0.1,30.40,1031.3,10,,,,,,,,,,,,TRACE,,,1900.0,500.0,FEW,500.0,OVC,1900.0,,,,
KRDR,01-09-2021,16:56,METAR,Calm,,0.0,,,3200.0,Mist,-0.9,-0.9,30.41,1031.6,10,,,,,,,,,,,,,,,1800.0,400.0,SCT,400.0,OVC,1800.0,,,,
KRDR,01-09-2021,15:55,METAR,Calm,,0.0,,,2400.0,Mist,-1.4,-1.4,30.41,1031.6,10,,,,,,,,,,,,,,,200.0,200.0,BKN,200.0,OVC,1000.0,,,,
KRDR,01-09-2021,14:58,METAR,Calm,,0.0,,,1600.0,Mist,-1.8,-1.8,30.41,1031.7,,,,10,,,,,,,TRACE,,,,,700.0,300.0,FEW,300.0,BKN,700.0,OVC,1900.0,,
KRDR,01-09-2021,13:56,METAR,Calm,,0.0,,,1600.0,Light Snow/Mist,-2.0,-2.0,30.40,1031.3,71,10,,,,,,,,,TRACE,,,,,200.0,200.0,OVC,200.0,,,,,,
KRDR,01-09-2021,12:56,METAR,Calm,,0.0,,,3200.0,Light Snow/Mist,-2.2,-2.2,30.40,1031.3,71,10,,,,,,,,,TRACE,,,,,200.0,200.0,OVC,200.0,,,,,,
KRDR,01-09-2021,11:56,METAR,Calm,,0.0,,,4400.0,Light Snow/Mist,-2.2,-2.2,30.39,1031.0,71,10,,,,,,,,,.01 IN,,.01 IN,,,200.0,200.0,OVC,200.0,,,,,,
KRDR,01-09-2021,10:56,METAR,Calm,,0.0,,,4400.0,Light Snow/Mist,-2.2,-2.2,30.39,1031.0,71,10,,,,,,,,,TRACE,,,,,400.0,400.0,BKN,400.0,OVC,800.0,,,,
KRDR,01-09-2021,10:44,SPECI,Calm,,0.0,,,4000.0,Light Snow/Mist,-2.0,-2.0,30.39,1031.0,71,10,,,,,,,,,,,,,,600.0,600.0,BKN,600.0,OVC,1700.0,,,,
KRDR,01-09-2021,09:56,METAR,Calm,,0.0,,,4400.0,Light Snow/Mist,-2.2,-2.2,30.38,1030.7,71,10,,,,,,,,,TRACE,,,,,700.0,700.0,BKN,700.0,OVC,2100.0,,,,
KRDR,01-09-2021,09:27,SPECI,Calm,,0.0,,,4000.0,Light Snow/Mist,-2.0,-2.0,30.38,1030.7,,,,71,10,,,,,,,,,,,700.0,200.0,FEW,200.0,OVC,700.0,,,,
KRDR,01-09-2021,08:56,METAR,Calm,,0.0,,,4400.0,Mist,-2.2,-2.2,30.38,1030.7,,,,10,,,,,,,,,,,,1000.0,1000.0,OVC,1000.0,,,,,,
KRDR,01-09-2021,08:26,SPECI,Calm,,0.0,,,4800.0,Mist,-2.0,-2.0,30.38,1030.7,10,,,,,,,,,,,,,,,800.0,200.0,FEW,200.0,BKN,800.0,OVC,2100.0,,
KRDR,01-09-2021,07:56,METAR,Calm,,0.0,,,4800.0,Mist,-2.2,-2.2,30.37,1030.3,10,,,,,,,,,,TRACE,,,,,2100.0,200.0,FEW,200.0,OVC,2100.0,,,,
KRDR,01-09-2021,07:51,SPECI,Calm,,0.0,,,4800.0,Mist,-2.0,-2.0,30.37,1030.3,10,,,,,,,,,,,,,,,2100.0,200.0,FEW,200.0,OVC,2100.0,,,,
KRDR,01-09-2021,07:42,SPECI,Calm,,0.0,,,4800.0,Light Snow/Mist,-2.0,-2.0,30.37,1030.3,71,10,,,,,,,,,,,,,,2000.0,200.0,FEW,200.0,OVC,2000.0,,,,
KRDR,01-09-2021,06:56,METAR,Calm,,0.0,,,4800.0,Light Snow/Mist,-2.3,-2.3,30.37,1030.3,71,10,,,,,,,,,TRACE,,,,,2000.0,400.0,SCT,400.0,BKN,2000.0,OVC,2600.0,,
KRDR,01-09-2021,05:55,METAR,Calm,,0.0,,,2400.0,Mist,-2.1,-2.1,30.38,1030.7,10,,,,,,,,,,TRACE,,TRACE,,,300.0,300.0,OVC,300.0,,,,,,
KRDR,01-09-2021,05:24,SPECI,Calm,,0.0,,,3200.0,Mist,-2.0,-2.0,30.38,1030.7,10,,,,,,,,,,,,,,,200.0,200.0,OVC,200.0,,,,,,
KRDR,01-09-2021,04:54,METAR,Calm,,0.0,,,3200.0,Light Snow/Mist,-2.0,-2.0,30.38,1030.7,71,10,,,,,,,,,TRACE,,,,,200.0,200.0,OVC,200.0,,,,,,
KRDR,01-09-2021,03:56,METAR,Calm,,0.0,,,3200.0,Mist,-2.0,-2.0,30.38,1030.7,10,,,,,,,,,,,,,,,200.0,200.0,OVC,200.0,,,,,,
KRDR,01-09-2021,03:14,SPECI,Normal,140,3.0,,,1200.0,Fog with Rime,-2.0,-2.0,30.38,1030.7,35,,,,,,,,,,,,,,,100.0,100.0,OVC,100.0,,,,,,
KRDR,01-09-2021,02:54,METAR,Calm,,0.0,,,800.0,Fog with Rime,-1.9,-1.9,30.38,1030.7,35,,,,,,,,,,TRACE,TRACE,,,,100.0,100.0,OVC,100.0,,,,,,
KRDR,01-09-2021,02:38,SPECI,Normal,120,3.0,,,800.0,Light Snow/Fog with Rime,-2.0,-2.0,30.38,1030.7,71,35,,,,,,,,,,,,,,100.0,100.0,OVC,100.0,,,,,,
KRDR,01-09-2021,02:28,SPECI,Normal,120,3.0,,,1600.0,Mist,-2.0,-2.0,30.38,1030.7,10,,,,,,,,,,,,,,,100.0,100.0,OVC,100.0,,,,,,
KRDR,01-09-2021,01:58,METAR,Calm,,0.0,,,3200.0,Light Snow/Mist,-1.6,-1.6,30.39,1031.1,71,10,,,,,,,,,TRACE,,,,,200.0,200.0,OVC,200.0,,,,,,
KRDR,01-09-2021,00:44,METAR,Calm,,0.0,,,3200.0,Light Snow/Mist,-1.5,-1.5,30.38,1030.7,71,10,,,,,,,,,TRACE,,,,,300.0,300.0,OVC,300.0,,,,,,
KRDR,01-09-2021,00:28,SPECI,Calm,,0.0,,,3200.0,Light Snow/Mist,-1.0,-1.0,30.37,1030.3,71,10,,,,,,,,,,,,,,300.0,300.0,OVC,300.0,,,,,,
KRDR,01-08-2021,23:53,METAR,Calm,,0.0,,,3200.0,Mist,-1.4,-1.4,30.37,1030.3,,,,10,,,,,,,,,,,,400.0,400.0,OVC,400.0,,,,,,
KRDR,01-08-2021,22:51,METAR,Calm,,0.0,,,2400.0,Mist,-1.3,-1.3,30.37,1030.3,,,,10,,,,,,,,,,,,600.0,600.0,OVC,600.0,,,,,,
KRDR,01-08-2021,21:56,METAR,Calm,,0.0,,,3200.0,Light Snow/Mist,-1.2,-1.2,30.37,1030.3,71,10,,,,,,,,,TRACE,,,,,500.0,500.0,OVC,500.0,,,,,,
KRDR,01-08-2021,21:52,SPECI,Calm,,0.0,,,3200.0,Light Snow/Mist,-1.0,-1.0,30.37,1030.3,71,10,,,,,,,,,,,,,,500.0,500.0,OVC,500.0,,,,,,
KRDR,01-08-2021,21:19,SPECI,Calm,,0.0,,,3200.0,Light Snow/Mist,-1.0,-1.0,30.37,1030.3,71,10,,,,,,,,,,,,,,500.0,500.0,OVC,500.0,,,,,,
KRDR,01-08-2021,20:56,METAR,Normal,160,3.0,,,3200.0,Light Snow/Mist,-1.3,-1.3,30.36,1030.0,71,10,,,,,,,,,TRACE,,,,,700.0,700.0,OVC,700.0,,,,,,
KRDR,01-08-2021,20:28,SPECI,Normal,170,3.0,,,3200.0,Light Snow/Mist,-1.0,-1.0,30.37,1030.3,71,10,,,,,,,,,,,,,,500.0,500.0,OVC,500.0,,,,,,
KRDR,01-08-2021,19:56,METAR,Normal,170,3.0,,,3200.0,Light Snow/Mist,-1.3,-1.3,30.37,1030.3,71,10,,,,,,,,,TRACE,,,,,400.0,400.0,OVC,400.0,,,,,,
KRDR,01-08-2021,18:56,METAR,Normal,180,3.0,,,4000.0,Mist,-1.9,-1.9,30.39,1031.1,10,,,,,,,,,,,,,,,400.0,400.0,OVC,400.0,,,,,,
KRDR,01-08-2021,17:56,METAR,Normal,170,3.0,,,4000.0,Mist,-2.4,-2.4,30.40,1031.4,10,,,,,,,,,,,,,,,400.0,400.0,OVC,400.0,,,,,,
KRDR,01-08-2021,16:56,METAR,Normal,180,4.0,,,3200.0,Mist,-2.8,-2.8,30.41,1031.8,10,,,,,,,,,,,,,,,400.0,400.0,OVC,400.0,,,,,,
KRDR,01-08-2021,16:26,SPECI,Normal,180,5.0,,,3200.0,Mist,-3.0,-3.0,30.41,1031.9,10,,,,,,,,,,,,,,,700.0,700.0,OVC,700.0,,,,,,
KRDR,01-08-2021,15:56,METAR,Normal,180,5.0,,,3200.0,Mist,-3.2,-3.2,30.41,1031.9,10,,,,,,,,,,,,,,,400.0,400.0,BKN,400.0,OVC,900.0,,,,
KRDR,01-08-2021,15:19,SPECI,Normal,200,5.0,,,3200.0,Mist,-3.0,-3.0,30.40,1031.5,,,,10,,,,,,,,,,,,900.0,900.0,OVC,900.0,,,,,,
KRDR,01-08-2021,14:56,METAR,Normal,170,4.0,,,3200.0,Mist,-3.5,-3.5,30.40,1031.5,10,,,,,,,,,,,,,,,1000.0,1000.0,OVC,1000.0,,,,,,
KRDR,01-08-2021,14:41,SPECI,Normal,170,4.0,,,3200.0,Mist,-3.0,-3.0,30.40,1031.5,10,,,,,,,,,,,,,,,1000.0,1000.0,OVC,1000.0,,,,,,
KRDR,01-08-2021,13:57,METAR,Normal,180,5.0,,,5600.0,Mist,-3.7,-3.7,30.39,1031.2,,,,10,,,,,,,,,,,,600.0,600.0,OVC,600.0,,,,,,
KRDR,01-08-2021,13:16,SPECI,Normal,190,4.0,,,8000.0,Mist,-4.0,-4.0,30.39,1031.2,10,,,,,,,,,,,,,,,900.0,900.0,OVC,900.0,,,,,,
KRDR,01-08-2021,12:56,METAR,Normal,180,4.0,,,6400.0,Mist,-3.7,-3.7,30.38,1030.8,10,,,,,,,,,,,,,,,500.0,500.0,OVC,500.0,,,,,,
KRDR,01-08-2021,12:40,SPECI,Normal,180,4.0,,,6400.0,Mist,-4.0,-4.0,30.38,1030.8,,,,10,,,,,,,,,,,,500.0,500.0,OVC,500.0,,,,,,
KRDR,01-08-2021,11:57,METAR,Normal,170,5.0,,,5600.0,Mist,-3.7,-3.7,30.37,1030.5,,,,10,,,,,,,,,,,,400.0,400.0,OVC,400.0,,,,,,
KRDR,01-08-2021,11:36,SPECI,Normal,180,5.0,,,4800.0,Mist,-4.0,-4.0,30.38,1030.8,10,,,,,,,,,,,,,,,300.0,300.0,BKN,300.0,OVC,1700.0,,,,
KRDR,01-08-2021,10:56,METAR,Normal,170,5.0,,,4800.0,Mist,-3.6,-3.6,30.38,1030.8,10,,,,,,,,,,,,,,,300.0,300.0,OVC,300.0,,,,,,
KRDR,01-08-2021,09:57,METAR,Normal,180,5.0,,,4800.0,Mist,-3.6,-3.6,30.39,1031.2,,,,10,,,,,,,,,,,,300.0,300.0,OVC,300.0,,,,,,
KRDR,01-08-2021,09:50,SPECI,Normal,180,5.0,,,4800.0,Mist,-4.0,-4.0,30.39,1031.2,10,,,,,,,,,,,,,,,300.0,300.0,OVC,300.0,,,,,,
KRDR,01-08-2021,08:55,METAR,Normal,160,5.0,,,4400.0,Mist,-3.5,-3.5,30.39,1031.1,,,,10,,,,,,,,,,,,200.0,200.0,OVC,200.0,,,,,,
KRDR,01-08-2021,07:57,METAR,Normal,170,4.0,,,4400.0,Mist,-3.5,-3.5,30.39,1031.0,,,,10,,,,,,,,,,,,200.0,200.0,OVC,200.0,,,,,,
KRDR,01-08-2021,07:06,SPECI,Normal,170,5.0,,,4000.0,Mist,-3.0,-3.0,30.38,1030.7,10,,,,,,,,,,,,,,,300.0,300.0,OVC,300.0,,,,,,
KRDR,01-08-2021,06:56,METAR,Normal,170,5.0,,,3200.0,Mist,-3.4,-3.4,30.38,1030.7,10,,,,,,,,,,,,,,,200.0,200.0,OVC,200.0,,,,,,
KRDR,01-08-2021,06:29,SPECI,Normal,160,4.0,,,2400.0,Mist,-3.0,-3.0,30.38,1030.7,,,,10,,,,,,,,,,,,200.0,200.0,OVC,200.0,,,,,,
KRDR,01-08-2021,06:12,SPECI,Normal,140,4.0,,,1200.0,Mist,-4.0,-4.0,30.37,1030.4,,,,10,,,,,,,,,,,,200.0,200.0,OVC,200.0,,,,,,
KRDR,01-08-2021,05:58,METAR,Normal,160,3.0,,,800.0,Fog with Rime,-3.7,-3.7,30.37,1030.4,35,,,,,,,,,,,,,,Sky Obscured (Unable to Estimate),200.0,200.0,,200.0,,,,,,
KRDR,01-08-2021,05:44,METAR,Normal,170,3.0,,,800.0,Fog with Rime,-3.7,-3.7,30.38,1030.7,35,,,,,,,,,,,,,,Sky Obscured (Unable to Estimate),200.0,200.0,,200.0,,,,,,
KRDR,01-08-2021,04:46,METAR,Normal,170,4.0,,,800.0,Fog with Rime,-4.0,-4.0,30.37,1030.5,35,,,,,,,,,,,,,,Sky Obscured (Unable to Estimate),100.0,100.0,,100.0,,,,,,
KRDR,01-08-2021,03:47,METAR,Normal,170,7.0,,,800.0,Fog with Rime,-4.3,-4.3,30.37,1030.6,35,,,,,,,,,,,,,,Sky Obscured (Unable to Estimate),100.0,100.0,,100.0,,,,,,
KRDR,01-08-2021,02:50,METAR,Normal,180,7.0,,,400.0,Fog with Rime,-4.4,-4.4,30.37,1030.6,35,,,,,,,,,,,,,,Sky Obscured (Unable to Estimate),100.0,100.0,,100.0,,,,,,
KRDR,01-08-2021,01:46,METAR,Normal,180,7.0,,,400.0,Fog with Rime,-4.5,-4.5,30.36,1030.3,35,,,,,,,,,,,,,,Sky Obscured (Unable to Estimate),100.0,100.0,,100.0,,,,,,
KRDR,01-08-2021,00:54,METAR,Normal,190,7.0,,,400.0,Fog with Rime,-4.6,-4.6,30.36,,35,,,,,,,,,,,,,,Sky Obscured (Unable to Estimate),200.0,200.0,,200.0,,,,,,
KRDR,01-07-2021,23:54,METAR,Normal,200,7.0,,,400.0,Fog with Rime,-4.3,-4.3,30.35,1030.0,35,,,,,,,,,,,,,,Sky Obscured (Unable to Estimate),200.0,200.0,,200.0,,,,,,
KRDR,01-07-2021,22:58,METAR,Normal,180,5.0,,,400.0,Fog with Rime,-4.1,-4.1,30.35,1030.0,35,,,,,,,,,,,,,,Sky Obscured (Unable to Estimate),200.0,200.0,,200.0,,,,,,
KRDR,01-07-2021,21:56,METAR,Normal,170,8.0,,,800.0,Fog with Rime,-4.0,-4.0,30.33,1029.2,35,,,,,,,,,,,,,,Sky Obscured (Unable to Estimate),200.0,200.0,,200.0,,,,,,
KRDR,01-07-2021,20:56,METAR,Normal,160,6.0,,,800.0,Fog with Rime,-2.4,-2.4,30.32,,35,,,,,,,,,,,,,,Sky Obscured (Unable to Estimate),200.0,200.0,,200.0,,,,,,
KRDR,01-07-2021,20:06,SPECI,Normal,160,7.0,,,800.0,Fog with Rime,-2.0,-2.0,30.32,1028.8,35,,,,,,,,,,,,,,Sky Obscured (Unable to Estimate),200.0,200.0,,200.0,,,,,,
KRDR,01-07-2021,19:56,METAR,Normal,180,7.0,,,1200.0,Mist,-2.0,-2.0,30.32,1028.8,10,,,,,,,,,,,,,,,200.0,200.0,OVC,200.0,,,,,,
KRDR,01-07-2021,19:48,SPECI,Normal,180,5.0,,,1200.0,Mist,-2.0,-2.0,30.32,1028.8,,,,10,,,,,,,,,,,,200.0,200.0,OVC,200.0,,,,,,
KRDR,01-07-2021,19:16,SPECI,Normal,180,9.0,,,1600.0,Mist,-2.0,-2.0,30.32,1028.8,10,,,,,,,,,,,,,,,200.0,200.0,OVC,200.0,,,,,,
KRDR,01-07-2021,18:56,METAR,Normal,170,9.0,,,8000.0,Mist,-2.3,-2.4,30.32,1028.8,10,,,,,,,,,,,,,,,500.0,500.0,OVC,500.0,,,,,,
KRDR,01-07-2021,17:56,METAR,Normal,170,7.0,,,9999.0,Mist,-2.5,-2.6,30.32,1028.7,10,,,,,,,,,,,,,,,600.0,600.0,OVC,600.0,,,,,,
KRDR,01-07-2021,17:26,SPECI,Normal,170,6.0,,,8000.0,Mist,-3.0,-3.0,30.32,1028.8,10,,,,,,,,,,,,,,,600.0,600.0,OVC,600.0,,,,,,
KRDR,01-07-2021,16:56,METAR,Normal,180,6.0,,,8000.0,Mist,-3.6,-3.7,30.33,1029.1,10,,,,,,,,,,,,,,,800.0,800.0,OVC,800.0,,,,,,
KRDR,01-07-2021,16:36,SPECI,Normal,160,6.0,,,6400.0,Mist,-4.0,-4.0,30.33,1029.2,10,,,,,,,,,,,,,,,900.0,900.0,OVC,900.0,,,,,,
KRDR,01-07-2021,16:06,SPECI,Normal,170,9.0,,,6400.0,Mist,-5.0,-5.0,30.32,1028.9,10,,,,,,,,,,,,,,,700.0,700.0,OVC,700.0,,,,,,
KRDR,01-07-2021,15:56,METAR,Normal,160,7.0,,,2400.0,Mist,-5.2,-5.2,30.32,1028.9,10,,,,,,,,,,,,,,,700.0,700.0,OVC,700.0,,,,,,
KRDR,01-07-2021,15:16,SPECI,Normal,180,8.0,,,1600.0,Mist,-6.0,-6.0,30.32,1028.9,10,,,,,,,,,,,,,,,200.0,200.0,OVC,200.0,,,,,,
KRDR,01-07-2021,14:56,METAR,Normal,190,10.0,,,2400.0,Mist,-6.4,-6.5,30.32,1028.9,10,,,,,,,,,,,,,,,300.0,300.0,OVC,300.0,,,,,,
KRDR,01-07-2021,14:33,SPECI,Normal,190,8.0,,,9999.0,,-7.0,-7.0,30.32,1028.9,,,,,,,,,,,,,,,,400.0,400.0,OVC,400.0,,,,,,
KRDR,01-07-2021,14:06,SPECI,Normal,190,6.0,,,9999.0,,-8.0,-8.0,30.32,1028.9,,,,,,,,,,,,,,,,500.0,500.0,OVC,500.0,,,,,,
KRDR,01-07-2021,13:49,SPECI,Normal,200,7.0,,,9999.0,,-8.0,-8.0,30.31,1028.5,,,,,,,,,,,,,,,,700.0,700.0,BKN,700.0,,,,,,
KRDR,01-07-2021,13:34,SPECI,Normal,180,9.0,,,9999.0,,-8.0,-8.0,30.31,1028.5,,,,,,,,,,,,,,,2/8 Mostly Clear,72000.0,700.0,FEW,700.0,,,,,,
KRDR,01-07-2021,12:56,METAR,Normal,200,6.0,,,9999.0,Mist,-8.3,-8.4,30.31,1028.5,10,,,,,,,,,,,,,,Clear,72000.0,,,,,,,,,
KRDR,01-07-2021,11:56,METAR,Normal,160,6.0,,,9999.0,,-8.0,-8.1,30.30,1028.2,,,,,,,,,,,,,,,Clear,72000.0,,,,,,,,,
KRDR,01-07-2021,10:56,METAR,Calm,,0.0,,,9999.0,,-7.3,-7.4,30.29,1027.8,,,,,,,,,,,,,,,Clear,72000.0,,,,,,,,,
KRDR,01-07-2021,09:56,METAR,Normal,160,6.0,,,9999.0,,-6.1,-6.2,30.29,1027.6,,,,,,,,,,,,,,,Clear,72000.0,,,,,,,,,
KRDR,01-07-2021,08:56,METAR,Normal,180,7.0,,,9999.0,,-5.7,-5.8,30.28,,,,,,,,,,,,,,,,Clear,72000.0,,,,,,,,,
KRDR,01-07-2021,07:56,METAR,Normal,180,7.0,,,9999.0,,-6.1,-6.2,30.28,1027.3,,,,,,,,,,,,,,,Clear,72000.0,,,,,,,,,
KRDR,01-07-2021,06:56,METAR,Normal,190,7.0,,,9999.0,,-5.3,-5.4,30.29,1027.6,,,,,,,,,,,,,,,Clear,72000.0,,,,,,,,,
KRDR,01-07-2021,05:56,METAR,Normal,190,6.0,,,9999.0,,-5.0,-5.1,30.27,1027.0,,,,,,,,,,,,,,,Clear,72000.0,,,,,,,,,
KRDR,01-07-2021,04:56,METAR,Normal,180,7.0,,,9999.0,,-4.9,-5.0,30.26,1026.7,,,,,,,,,,,,,,,Clear,72000.0,,,,,,,,,
KRDR,01-07-2021,03:56,METAR,Normal,180,7.0,,,9999.0,,-4.4,-4.5,30.26,1026.7,,,,,,,,,,,,,,,Clear,72000.0,,,,,,,,,
KRDR,01-07-2021,02:56,METAR,Normal,150,8.0,,,9999.0,,-3.5,-3.6,30.27,1027.1,,,,,,,,,,,,,,,Clear,72000.0,,,,,,,,,
KRDR,01-07-2021,01:56,METAR,Normal,170,7.0,,,9999.0,,-3.2,-3.3,30.28,1027.4,,,,,,,,,,,,,,,,7000.0,7000.0,BKN,7000.0,,,,,,
KRDR,01-07-2021,00:56,METAR,Calm,,0.0,,,9999.0,,-2.4,-2.5,30.29,1027.7,,,,,,,,,,,,,,,,7000.0,7000.0,OVC,7000.0,,,,,,
KRDR,01-06-2021,23:56,METAR,Normal,180,3.0,,,9999.0,,-1.8,-2.2,30.27,1027.1,,,,,,,,,,,,,,,,7000.0,7000.0,BKN,7000.0,,,,,,
KRDR,01-06-2021,22:56,METAR,Normal,150,6.0,,,9999.0,,-0.2,-1.5,30.26,1026.7,,,,,,,,,,,,,,,2/8 Mostly Clear,72000.0,6000.0,FEW,6000.0,,,,,,
KRDR,01-06-2021,21:56,METAR,Normal,150,8.0,,,9999.0,,1.6,-1.5,30.26,1026.7,,,,,,,,,,,,,,,4/8 Partly Cloudy,72000.0,6000.0,SCT,6000.0,,,,,,
KRDR,01-06-2021,20:56,METAR,Normal,110,6.0,,,9999.0,,,,,,,,,,,,,,,,,,,,4/8 Partly Cloudy,72000.0,6000.0,SCT,6000.0,SCT,15000.0,,,,
KRDR,01-06-2021,19:56,METAR,Calm,,0.0,,,9999.0,,1.6,-2.0,30.24,1025.9,,,,,,,,,,,,,,,,6000.0,6000.0,BKN,6000.0,BKN,15000.0,,,,
KRDR,01-06-2021,18:56,METAR,Calm,,0.0,,,9999.0,,0.8,-2.1,30.23,1025.6,,,,,,,,,,,,,,,4/8 Partly Cloudy,72000.0,9000.0,SCT,9100.0,,,,,,
KRDR,01-06-2021,17:56,METAR,Calm,,0.0,,,9999.0,,-0.6,-2.7,30.24,1026.0,,,,,,,,,,,,,TRACE,,4/8 Partly Cloudy,72000.0,8500.0,SCT,8600.0,,,,,,
KRDR,01-06-2021,16:56,METAR,Normal,20,4.0,,,9999.0,,-2.2,-2.6,30.25,1026.4,,,,,,,,,,,,,,,,10000.0,10000.0,BKN,10000.0,,,,,,
KRDR,01-06-2021,15:56,METAR,Normal,310,3.0,,,9999.0,,-3.1,-3.2,30.23,1025.8,,,,,,,,,,,,,,,,9500.0,9500.0,BKN,9600.0,,,,,,
KRDR,01-06-2021,14:56,METAR,Calm,,0.0,,,9999.0,,-4.8,-4.9,30.20,1024.8,,,,,,,,,,,,TRACE,,,,9000.0,9000.0,BKN,9100.0,BKN,16000.0,,,,
KRDR,01-06-2021,13:57,METAR,Calm,,0.0,,,9999.0,,-4.9,-5.0,30.19,1024.5,,,,,,,,,,,,,,,,8500.0,8500.0,OVC,8600.0,,,,,,
KRDR,01-06-2021,13:27,SPECI,Normal,140,3.0,,,9999.0,,-5.0,-5.0,30.18,1024.2,,,,,,,,,,,,,,,,8000.0,6000.0,SCT,6000.0,BKN,8000.0,BKN,10000.0,BKN,15000.0
KRDR,01-06-2021,12:56,METAR,Calm,,0.0,,,9999.0,Light Freezing Drizzle,-4.9,-5.0,30.18,1024.2,54,,,,,,,,,,TRACE,,,,,10000.0,4100.0,SCT,4100.0,OVC,10000.0,,,,
KRDR,01-06-2021,12:44,SPECI,Calm,,0.0,,,9999.0,Freezing Drizzle,-5.0,-5.0,30.18,1024.2,,,,56,,,,,,,,,,,,4100.0,1700.0,FEW,1700.0,BKN,4100.0,BKN,7000.0,BKN,10000.0
KRDR,01-06-2021,11:56,METAR,Calm,,0.0,,,9999.0,,-5.7,-5.8,30.17,1023.8,,,,,,,,,,,,,,,,8000.0,8000.0,BKN,8000.0,,,,,,
KRDR,01-06-2021,10:56,METAR,Calm,,0.0,,,9999.0,,-7.0,-7.1,30.16,1023.5,,,,,,,,,,,,,,,,8000.0,8000.0,BKN,8000.0,,,,,,
KRDR,01-06-2021,09:56,METAR,Normal,320,4.0,,,9999.0,,-7.4,-7.5,30.16,1023.5,,,,,,,,,,,,,,,4/8 Partly Cloudy,72000.0,10000.0,SCT,10000.0,,,,,,
KRDR,01-06-2021,08:56,METAR,Calm,,0.0,,,9999.0,,-6.5,-6.6,30.15,1023.1,,,,,,,,,,,,,,,,12000.0,12000.0,OVC,12000.0,,,,,,
KRDR,01-06-2021,07:56,METAR,Calm,,0.0,,,9999.0,,-6.6,-6.7,30.14,1022.7,,,,,,,,,,,,,,,,10000.0,10000.0,BKN,10000.0,,,,,,
KRDR,01-06-2021,06:56,METAR,Calm,,0.0,,,9999.0,,-6.2,-6.3,30.13,1022.4,,,,,,,,,,,,,,,4/8 Partly Cloudy,72000.0,12000.0,SCT,12000.0,,,,,,
KRDR,01-06-2021,05:56,METAR,Normal,,,,,,,-7.4,-7.5,30.11,1021.8,,,,,,,,,,,,,,,,,,,,,,,,,
KRDR,01-06-2021,04:56,METAR,Calm,,0.0,,,9999.0,,-6.7,-6.8,30.10,1021.6,,,,,,,,,,,,,,,Clear,72000.0,,,,,,,,,
KRDR,01-06-2021,03:56,METAR,Calm,,0.0,,,9999.0,,-6.9,-7.0,30.09,1021.2,,,,,,,,,,,,,,,,15000.0,15000.0,OVC,15000.0,,,,,,
KRDR,01-06-2021,02:56,METAR,Calm,,0.0,,,9999.0,,-6.7,-6.8,30.09,1021.4,,,,,,,,,,,,,,,,16000.0,16000.0,OVC,16000.0,,,,,,
KRDR,01-06-2021,01:56,METAR,Normal,60,3.0,,,9999.0,,-7.0,-7.1,30.10,1021.7,,,,,,,,,,,,,,,,19000.0,19000.0,OVC,19000.0,,,,,,
KRDR,01-06-2021,00:56,METAR,Calm,,0.0,,,9999.0,,-7.6,-7.7,30.10,1021.8,,,,,,,,,,,,,,,,19000.0,19000.0,OVC,19000.0,,,,,,
KRDR,01-05-2021,23:56,METAR,Calm,,0.0,,,9999.0,,-5.8,-5.9,30.09,1021.3,,,,,,,,,,,,,TRACE,,,19000.0,19000.0,OVC,19000.0,,,,,,
KRDR,01-05-2021,22:56,METAR,Calm,,0.0,,,9999.0,,-5.5,-5.6,30.08,1021.0,,,,,,,,,,,,,,,,18000.0,18000.0,OVC,18000.0,,,,,,
KRDR,01-05-2021,21:56,METAR,Normal,120,3.0,,,9999.0,,-4.8,-4.9,30.05,1019.9,,,,,,,,,,,,,,,,16000.0,16000.0,BKN,16000.0,BKN,22000.0,,,,
KRDR,01-05-2021,20:56,METAR,Normal,90,5.0,,,9999.0,,-3.6,-3.9,30.02,1018.9,,,,,,,,,,,,,,,,22000.0,16000.0,SCT,16000.0,BKN,22000.0,,,,
KRDR,01-05-2021,19:56,METAR,Normal,170,5.0,,,9999.0,,-3.6,-3.9,30.00,1018.1,,,,,,,,,,,,,,,,16000.0,16000.0,BKN,16000.0,OVC,20000.0,,,,
KRDR,01-05-2021,18:56,METAR,Normal,150,5.0,,,9999.0,,-4.8,-4.9,29.99,1017.8,,,,,,,,,,,,,,,,20000.0,16000.0,SCT,16000.0,BKN,20000.0,,,,
KRDR,01-05-2021,17:58,METAR,Normal,180,3.0,,,9999.0,,-6.5,-6.6,30.00,1018.1,,,,,,,,,,,,,,,,20000.0,16000.0,SCT,16000.0,BKN,20000.0,,,,
KRDR,01-05-2021,17:23,SPECI,Normal,190,4.0,,,9999.0,,-7.0,-8.0,30.02,1018.8,,,,,,,,,,,,,,,,20000.0,17000.0,SCT,17000.0,BKN,20000.0,,,,
KRDR,01-05-2021,16:57,METAR,Normal,180,3.0,,,9999.0,,-8.1,-8.2,30.03,1019.0,,,,,,,,,,,,,,,,300.0,300.0,BKN,300.0,OVC,20000.0,,,,
KRDR,01-05-2021,15:54,METAR,Normal,130,4.0,,,6400.0,Mist,-9.8,-10.0,30.02,1018.8,,,,10,,,,,,,,,,,,21000.0,100.0,SCT,100.0,BKN,21000.0,,,,
KRDR,01-05-2021,15:24,SPECI,Calm,,0.0,,,9999.0,,-11.0,-11.0,30.02,1018.7,,,,,,,,,,,,,,,Clear,72000.0,,,,,,,,,
KRDR,01-05-2021,14:58,METAR,Normal,200,3.0,,,1200.0,Mist,-12.0,-12.4,30.01,1018.4,,,,10,,,,,,,,,,,Clear,72000.0,,,,,,,,,
KRDR,01-05-2021,14:50,SPECI,Normal,200,3.0,,,1600.0,Mist,-12.0,-13.0,30.01,1018.4,,,,10,,,,,,,,,,,Clear,72000.0,,,,,,,,,
KRDR,01-05-2021,14:21,SPECI,Calm,,0.0,,,9999.0,Mist,-13.0,-14.0,30.00,1018.1,10,,,,,,,,,,,,,,Clear,72000.0,,,,,,,,,
KRDR,01-05-2021,14:11,SPECI,Normal,80,4.0,,,9999.0,Mist,-13.0,-13.0,30.00,1018.1,10,,,,,,,,,,,,,,Clear,72000.0,,,,,,,,,
KRDR,01-05-2021,13:56,METAR,Calm,,0.0,,,9999.0,,-12.6,-13.4,30.00,1018.0,,,,,,,,,,,,,,,Clear,72000.0,,,,,,,,,
KRDR,01-05-2021,12:56,METAR,Calm,,0.0,,,9999.0,,-13.1,-13.6,30.00,1018.1,,,,,,,,,,,,,,,Clear,72000.0,,,,,,,,,
KRDR,01-05-2021,11:56,METAR,Calm,,0.0,,,9999.0,,-12.8,-13.2,29.98,1017.3,,,,,,,,,,,,,,,Clear,72000.0,,,,,,,,,
KRDR,01-05-2021,10:56,METAR,Calm,,0.0,,,9999.0,,-12.6,-13.0,29.96,1016.6,,,,,,,,,,,,,,,Clear,72000.0,,,,,,,,,
KRDR,01-05-2021,09:56,METAR,Calm,,0.0,,,9999.0,,-11.7,-12.0,29.97,1016.9,,,,,,,,,,,,,,,Clear,72000.0,,,,,,,,,
KRDR,01-05-2021,08:56,METAR,Normal,240,3.0,,,9999.0,,-12.0,-12.2,29.97,1016.8,,,,,,,,,,,,,,,Clear,72000.0,,,,,,,,,
KRDR,01-05-2021,07:56,METAR,Normal,290,3.0,,,9999.0,,-10.9,-11.1,29.96,1016.5,,,,,,,,,,,,,,,Clear,72000.0,,,,,,,,,
KRDR,01-05-2021,06:56,METAR,Normal,300,4.0,,,9999.0,,-9.6,-9.8,29.94,1015.7,,,,,,,,,,,,,,,Clear,72000.0,,,,,,,,,
KRDR,01-05-2021,05:56,METAR,Normal,320,6.0,,,9999.0,,-7.4,-7.5,29.93,1015.3,,,,,,,,,,,,,,,Clear,72000.0,,,,,,,,,
KRDR,01-05-2021,04:56,METAR,Normal,310,4.0,,,9999.0,,-4.6,-5.4,29.91,1014.5,,,,,,,,,,,,,,,Clear,72000.0,,,,,,,,,
KRDR,01-05-2021,03:56,METAR,Normal,300,8.0,,,9999.0,,-3.1,-4.8,29.89,1013.9,,,,,,,,,,,,,,,Clear,72000.0,,,,,,,,,
KRDR,01-05-2021,02:56,METAR,Normal,310,8.0,,,9999.0,,-1.5,-4.0,29.89,1013.8,,,,,,,,,,,,,,,Clear,72000.0,,,,,,,,,
KRDR,01-05-2021,01:56,METAR,Normal,300,11.0,,,9999.0,,0.1,-3.3,29.87,1013.0,,,,,,,,,,,,,,,Clear,72000.0,,,,,,,,,
KRDR,01-05-2021,00:56,METAR,Normal,300,12.0,,,9999.0,,-0.2,-3.2,29.86,1012.7,,,,,,,,,,,,,,,Clear,72000.0,,,,,,,,,
KRDR,01-04-2021,23:56,METAR,Normal,290,8.0,,,9999.0,,0.2,-3.0,29.86,1012.7,,,,,,,,,,,,,,,Clear,72000.0,,,,,,,,,
KRDR,01-04-2021,22:56,METAR,Normal,280,10.0,,,9999.0,,1.1,-2.7,29.85,1012.3,,,,,,,,,,,,,,,Clear,72000.0,,,,,,,,,
KRDR,01-04-2021,21:56,METAR,Normal,290,11.0,,,9999.0,,2.3,-2.2,29.83,1011.5,,,,,,,,,,,,,,,2/8 Mostly Clear,72000.0,12000.0,FEW,12000.0,,,,,,
KRDR,01-04-2021,20:56,METAR,Normal,280,12.0,,,9999.0,,3.3,-1.8,29.80,1010.5,,,,,,,,,,,,,,,2/8 Mostly Clear,72000.0,10000.0,FEW,10000.0,,,,,,
KRDR,01-04-2021,19:56,METAR,Normal,280,13.0,,,9999.0,,3.4,-1.7,29.78,1009.8,,,,,,,,,,,,,,,2/8 Mostly Clear,72000.0,10000.0,FEW,10000.0,,,,,,
KRDR,01-04-2021,18:56,METAR,Normal,280,13.0,,,9999.0,,3.2,-1.6,29.77,1009.5,,,,,,,,,,,,,,,2/8 Mostly Clear,72000.0,10000.0,FEW,10000.0,,,,,,
KRDR,01-04-2021,17:56,METAR,Normal,280,14.0,,,9999.0,,2.9,-1.3,29.77,1009.6,,,,,,,,,,,,,,,2/8 Mostly Clear,72000.0,11000.0,FEW,11000.0,,,,,,
KRDR,01-04-2021,16:56,METAR,Normal,290,14.0,,,9999.0,,2.5,-0.9,29.78,1009.8,,,,,,,,,,,,,,,2/8 Mostly Clear,72000.0,11000.0,FEW,11000.0,,,,,,
KRDR,01-04-2021,15:56,METAR,Normal,290,9.0,,,9999.0,,1.9,-0.7,29.79,1010.3,,,,,,,,,,,,,,,2/8 Mostly Clear,72000.0,12000.0,FEW,12000.0,,,,,,
KRDR,01-04-2021,14:56,METAR,Normal,300,10.0,,,9999.0,,1.0,-0.9,29.77,1009.7,,,,,,,,,,,,,,,2/8 Mostly Clear,72000.0,12000.0,FEW,12000.0,,,,,,
KRDR,01-04-2021,14:35,SPECI,Normal,300,10.0,,,9999.0,,1.0,-1.0,29.76,1009.4,,,,,,,,,,,,,,,2/8 Mostly Clear,72000.0,9500.0,FEW,9600.0,,,,,,
KRDR,01-04-2021,13:56,METAR,Normal,290,8.0,,,9999.0,,1.1,-0.5,29.74,1008.6,,,,,,,,,,,,,,,,9500.0,9500.0,BKN,9600.0,,,,,,
KRDR,01-04-2021,12:56,METAR,Normal,300,13.0,,,9999.0,,3.0,0.4,29.72,1007.9,,,,,,,,,,,,,,,,9500.0,9500.0,BKN,9600.0,SCT,12000.0,,,,
KRDR,01-04-2021,11:56,METAR,Normal,340,11.0,,,9999.0,,2.8,0.7,29.69,1006.8,,,,,,,,,,,,,,,,9000.0,9000.0,BKN,9100.0,,,,,,
KRDR,01-04-2021,10:56,METAR,Normal,320,11.0,,,9999.0,,2.7,1.1,29.65,1005.5,,,,,,,,,,,,,,,,9000.0,9000.0,BKN,9100.0,,,,,,
KRDR,01-04-2021,09:56,METAR,Normal,330,13.0,,,9999.0,,3.2,1.1,29.62,1004.4,,,,,,,,,,,,,,,,10000.0,10000.0,BKN,10000.0,,,,,,
KRDR,01-04-2021,08:56,METAR,Normal,300,11.0,,,9999.0,,3.9,1.3,29.58,1002.9,,,,,,,,,,,,,,,,17000.0,12000.0,FEW,12000.0,BKN,17000.0,,,,
KRDR,01-04-2021,07:56,METAR,Normal,290,11.0,,,9999.0,,5.1,0.8,29.56,1002.2,,,,,,,,,,,,,,,Clear,72000.0,,,,,,,,,
KRDR,01-04-2021,06:56,METAR,Normal,210,6.0,,,9999.0,,2.7,0.9,29.52,1001.0,,,,,,,,,,,,,,,2/8 Mostly Clear,72000.0,8000.0,FEW,8000.0,,,,,,
KRDR,01-04-2021,05:56,METAR,Normal,170,6.0,,,9999.0,,-0.2,-0.8,29.52,1001.1,,,,,,,,,,,,,,,,11000.0,7000.0,SCT,7000.0,BKN,11000.0,,,,
KRDR,01-04-2021,04:56,METAR,Normal,150,6.0,,,9999.0,,2.4,-0.4,29.53,1001.4,,,,,,,,,,,,,,,,11000.0,9000.0,SCT,9100.0,BKN,11000.0,,,,
KRDR,01-04-2021,03:56,METAR,Normal,190,10.0,,,9999.0,,-1.0,-1.8,29.52,1001.3,,,,,,,,,,,,,,,,15000.0,15000.0,OVC,15000.0,,,,,,
KRDR,01-04-2021,02:56,METAR,Normal,190,8.0,,,9999.0,,-0.8,-1.8,29.54,1002.1,,,,,,,,,,,,,,,,20000.0,20000.0,OVC,20000.0,,,,,,
KRDR,01-04-2021,01:56,METAR,Normal,190,8.0,,,9999.0,,0.0,-1.4,29.55,1002.3,,,,,,,,,,,,,,,,20000.0,20000.0,OVC,20000.0,,,,,,
KRDR,01-04-2021,00:56,METAR,Normal,210,11.0,,,9999.0,,0.6,-1.2,29.55,1002.3,,,,,,,,,,,,,,,,20000.0,20000.0,OVC,20000.0,,,,,,
KRDR,01-03-2021,23:56,METAR,Normal,200,10.0,,,9999.0,,0.6,-0.9,29.55,1002.4,,,,,,,,,,,,,,,,20000.0,20000.0,BKN,20000.0,,,,,,
KRDR,01-03-2021,22:56,METAR,Normal,200,9.0,,,9999.0,,1.0,-0.8,29.55,1002.4,,,,,,,,,,,,,,,,20000.0,17000.0,SCT,17000.0,BKN,20000.0,,,,
KRDR,01-03-2021,21:56,METAR,Normal,200,8.0,,,9999.0,,1.9,-0.4,29.56,1002.7,,,,,,,,,,,,,,,,20000.0,17000.0,SCT,17000.0,BKN,20000.0,,,,
KRDR,01-03-2021,20:56,METAR,Normal,200,10.0,,,9999.0,,3.7,0.0,29.56,1002.5,,,,,,,,,,,,,,,4/8 Partly Cloudy,72000.0,20000.0,SCT,20000.0,,,,,,
KRDR,01-03-2021,19:56,METAR,Normal,190,8.0,,,9999.0,,3.8,-0.2,29.56,1002.5,,,,,,,,,,,,,,,4/8 Partly Cloudy,72000.0,20000.0,SCT,20000.0,,,,,,
KRDR,01-03-2021,18:56,METAR,Normal,200,11.0,,,9999.0,,2.8,-0.7,29.58,1003.3,,,,,,,,,,,,,,,4/8 Partly Cloudy,72000.0,20000.0,SCT,20000.0,,,,,,
KRDR,01-03-2021,17:56,METAR,Normal,210,9.0,,,9999.0,,1.2,-2.0,29.61,1004.3,,,,,,,,,,,,,,,4/8 Partly Cloudy,72000.0,19000.0,SCT,19000.0,,,,,,
KRDR,01-03-2021,16:56,METAR,Normal,220,11.0,,,9999.0,,0.0,-2.4,29.64,1005.3,,,,,,,,,,,,,,,4/8 Partly Cloudy,72000.0,19000.0,SCT,19000.0,,,,,,
KRDR,01-03-2021,15:56,METAR,Normal,210,8.0,,,9999.0,,-3.2,-3.9,29.64,1005.5,,,,,,,,,,,,,,,4/8 Partly Cloudy,72000.0,19000.0,SCT,19000.0,,,,,,
KRDR,01-03-2021,14:56,METAR,Normal,210,8.0,,,9999.0,,-4.6,-4.7,29.64,1005.6,,,,,,,,,,,,,,,Clear,72000.0,,,,,,,,,
KRDR,01-03-2021,13:56,METAR,Normal,210,9.0,,,9999.0,,-4.4,-4.5,29.64,1005.6,,,,,,,,,,,,,,,Clear,72000.0,,,,,,,,,
KRDR,01-03-2021,12:56,METAR,Normal,200,5.0,,,9999.0,,-4.2,-4.3,29.65,1005.9,,,,,,,,,,,,,,,Clear,72000.0,,,,,,,,,
KRDR,01-03-2021,11:56,METAR,Normal,170,5.0,,,9999.0,,-6.6,-6.7,29.65,1006.1,,,,,,,,,,,,,,,Clear,72000.0,,,,,,,,,
KRDR,01-03-2021,10:56,METAR,Normal,190,9.0,,,9999.0,,-7.8,-7.9,29.64,1005.8,,,,,,,,,,,,,,,Clear,72000.0,,,,,,,,,
KRDR,01-03-2021,09:56,METAR,Normal,180,7.0,,,9999.0,,-6.1,-6.2,29.65,1005.9,,,,,,,,,,,,,,,Clear,72000.0,,,,,,,,,
KRDR,01-03-2021,08:56,METAR,Normal,210,9.0,,,9999.0,,-4.3,-4.4,29.65,1005.8,,,,,,,,,,,,,,,Clear,72000.0,,,,,,,,,
KRDR,01-03-2021,07:56,METAR,Normal,190,8.0,,,9999.0,,-4.7,-4.8,29.64,1005.5,,,,,,,,,,,,,,,Clear,72000.0,,,,,,,,,
KRDR,01-03-2021,06:56,METAR,Normal,180,8.0,,,9999.0,,-4.6,-4.7,29.64,1005.6,,,,,,,,,,,,,,,2/8 Mostly Clear,72000.0,8000.0,FEW,8000.0,,,,,,
KRDR,01-03-2021,05:56,METAR,Normal,190,7.0,,,9999.0,,-2.5,-3.5,29.64,1005.5,,,,,,,,,,,,,,,Clear,72000.0,,,,,,,,,
KRDR,01-03-2021,04:56,METAR,Normal,190,7.0,,,9999.0,,-2.1,-3.2,29.63,1005.2,,,,,,,,,,,,,,,Clear,72000.0,,,,,,,,,
KRDR,01-03-2021,03:56,METAR,Normal,200,8.0,,,9999.0,,-2.3,-3.7,29.64,1005.6,,,,,,,,,,,,,,,Clear,72000.0,,,,,,,,,
KRDR,01-03-2021,02:56,METAR,Normal,190,6.0,,,9999.0,,-3.0,-4.3,29.66,1006.4,,,,,,,,,,,,,,,Clear,72000.0,,,,,,,,,
KRDR,01-03-2021,01:56,METAR,Normal,210,7.0,,,9999.0,,-3.6,-4.6,29.65,1006.1,,,,,,,,,,,,,,,2/8 Mostly Clear,72000.0,20000.0,FEW,20000.0,,,,,,
KRDR,01-03-2021,00:56,METAR,Normal,190,7.0,,,9999.0,,-4.0,-4.3,29.65,1006.1,,,,,,,,,,,,,,,4/8 Partly Cloudy,72000.0,20000.0,SCT,20000.0,,,,,,
KRDR,01-02-2021,23:56,METAR,Normal,190,10.0,,,9999.0,,-5.2,-5.5,29.66,1006.5,,,,,,,,,,,,,,,4/8 Partly Cloudy,72000.0,15000.0,FEW,15000.0,SCT,20000.0,,,,
KRDR,01-02-2021,22:56,METAR,Normal,170,9.0,,,9999.0,,-5.6,-5.9,29.67,1006.8,,,,,,,,,,,,,,,4/8 Partly Cloudy,72000.0,15000.0,FEW,15000.0,SCT,20000.0,,,,
KRDR,01-02-2021,21:56,METAR,Normal,170,7.0,,,9999.0,,-3.0,-3.8,29.69,1007.4,,,,,,,,,,,,,,,4/8 Partly Cloudy,72000.0,15000.0,FEW,15000.0,SCT,20000.0,,,,
KRDR,01-02-2021,20:56,METAR,Normal,190,11.0,,,9999.0,,-0.9,-3.0,29.71,1008.0,,,,,,,,,,,,,,,,20000.0,20000.0,BKN,20000.0,,,,,,
KRDR,01-02-2021,19:56,METAR,Normal,190,10.0,,,9999.0,,-1.9,-4.1,29.72,1008.3,,,,,,,,,,,,,,,4/8 Partly Cloudy,72000.0,20000.0,SCT,20000.0,,,,,,
KRDR,01-02-2021,18:56,METAR,Normal,190,11.0,,,9999.0,,-3.4,-5.4,29.73,1008.6,,,,,,,,,,,,,,,4/8 Partly Cloudy,72000.0,20000.0,SCT,20000.0,,,,,,
KRDR,01-02-2021,17:56,METAR,Normal,180,12.0,,,9999.0,,-4.7,-6.4,29.76,1009.7,,,,,,,,,,,,,,,,20000.0,20000.0,BKN,20000.0,,,,,,
KRDR,01-02-2021,16:56,METAR,Normal,170,10.0,,,9999.0,,-5.9,-7.1,29.79,1010.8,,,,,,,,,,,,,,,,20000.0,20000.0,BKN,20000.0,,,,,,
KRDR,01-02-2021,15:56,METAR,Normal,180,12.0,,,9999.0,,-6.6,-6.9,29.81,1011.4,,,,,,,,,,,,,,,,20000.0,20000.0,BKN,20000.0,,,,,,
KRDR,01-02-2021,14:56,METAR,Normal,180,12.0,,,9999.0,,-8.3,-8.4,29.82,1011.8,,,,,,,,,,,,,,,,20000.0,20000.0,BKN,20000.0,,,,,,
KRDR,01-02-2021,13:56,METAR,Normal,180,12.0,,,9999.0,,-8.7,-8.9,29.83,1012.2,,,,,,,,,,,,,,,Clear,72000.0,,,,,,,,,
KRDR,01-02-2021,12:56,METAR,Normal,180,7.0,,,9999.0,,-8.5,-8.6,29.84,1012.5,,,,,,,,,,,,,,,Clear,72000.0,,,,,,,,,
KRDR,01-02-2021,11:56,METAR,Normal,180,11.0,,,9999.0,,-8.7,-8.9,29.84,1012.6,,,,,,,,,,,,,,,Clear,72000.0,,,,,,,,,
KRDR,01-02-2021,10:56,METAR,Normal,190,9.0,,,9999.0,,-8.6,-8.8,29.86,1013.2,,,,,,,,,,,,,,,Clear,72000.0,,,,,,,,,
KRDR,01-02-2021,09:56,METAR,Normal,180,7.0,,,9999.0,,-8.6,-8.8,29.88,1013.8,,,,,,,,,,,,,,,Clear,72000.0,,,,,,,,,
KRDR,01-02-2021,08:56,METAR,Normal,190,9.0,,,9999.0,,-8.0,-8.1,29.88,1013.8,,,,,,,,,,,,,,,Clear,72000.0,,,,,,,,,
KRDR,01-02-2021,08:06,SPECI,Normal,180,8.0,,,9999.0,,-7.0,-7.0,29.89,1014.2,,,,,,,,,,,,,,,4/8 Partly Cloudy,72000.0,200.0,SCT,200.0,,,,,,
KRDR,01-02-2021,07:56,METAR,Normal,180,9.0,,,6400.0,Mist,-6.7,-6.8,29.89,1014.2,10,,,,,,,,,,,,,,,100.0,200.0,BKN,200.0,,,,,,
KRDR,01-02-2021,07:46,SPECI,Normal,180,9.0,,,4800.0,Mist,-6.0,-6.0,29.89,1014.1,10,,,,,,,,,,,,,,,100.0,200.0,OVC,200.0,,,,,,
KRDR,01-02-2021,07:36,SPECI,Normal,180,8.0,,,3200.0,Mist,-6.0,-6.0,29.89,1014.1,10,,,,,,,,,,,,,,,100.0,200.0,OVC,200.0,,,,,,
KRDR,01-02-2021,06:56,METAR,Normal,190,10.0,,,4800.0,Mist,-4.5,-4.5,29.89,1014.1,10,,,,,,,,,,,,,,,100.0,200.0,OVC,200.0,,,,,,
KRDR,01-02-2021,05:56,METAR,Normal,190,11.0,,,9999.0,,-3.6,-3.6,29.92,1015.1,,,,,,,,,,,,,,,,200.0,300.0,OVC,300.0,,,,,,
KRDR,01-02-2021,04:56,METAR,Normal,210,10.0,,,9999.0,Mist,-3.5,-3.5,29.94,1015.8,10,,,,,,,,,,,,,,,200.0,300.0,OVC,300.0,,,,,,
KRDR,01-02-2021,04:26,SPECI,Normal,200,8.0,,,9999.0,,-3.0,-3.0,29.94,1015.8,,,,,,,,,,,,,,,,200.0,300.0,OVC,300.0,,,,,,
KRDR,01-02-2021,04:16,SPECI,Normal,210,9.0,,,6400.0,Mist,-3.0,-3.0,29.95,1016.2,10,,,,,,,,,,,,,,,100.0,400.0,OVC,400.0,,,,,,
KRDR,01-02-2021,04:06,SPECI,Normal,190,8.0,,,3000.0,Mist,-3.0,-3.0,29.95,1016.2,10,,,,,,,,,,,,,,,100.0,400.0,OVC,400.0,,,,,,
KRDR,01-02-2021,03:56,METAR,Normal,200,7.0,,,4400.0,Mist,-3.2,-3.2,29.95,1016.2,10,,,,,,,,,,,,,,,100.0,400.0,OVC,400.0,,,,,,
KRDR,01-02-2021,03:36,SPECI,Normal,210,8.0,,,9999.0,Mist,-3.0,-3.0,29.96,1016.6,10,,,,,,,,,,,,,,,200.0,300.0,OVC,300.0,,,,,,
KRDR,01-02-2021,03:26,SPECI,Normal,210,10.0,,,6400.0,Mist,-3.0,-3.0,29.96,1016.6,10,,,,,,,,,,,,,,,100.0,400.0,OVC,400.0,,,,,,
KRDR,01-02-2021,03:16,SPECI,Normal,200,10.0,,,4400.0,Mist,-3.0,-3.0,29.96,1016.6,10,,,,,,,,,,,,,,,100.0,400.0,OVC,400.0,,,,,,
KRDR,01-02-2021,02:56,METAR,Normal,210,8.0,,,9999.0,,-3.0,-3.0,29.96,1016.6,,,,,,,,,,,,,,,,200.0,400.0,OVC,400.0,,,,,,
KRDR,01-02-2021,02:26,SPECI,Normal,220,7.0,,,9999.0,,-3.0,-3.0,29.98,1017.3,,,,,,,,,,,,,,,,200.0,400.0,OVC,400.0,,,,,,
KRDR,01-02-2021,02:06,SPECI,Normal,200,8.0,,,9999.0,,-3.0,-3.0,29.99,1017.6,,,,,,,,,,,,,,,,500.0,500.0,OVC,500.0,,,,,,
KRDR,01-02-2021,01:56,METAR,Normal,210,5.0,,,9999.0,Mist,-2.7,-2.7,29.98,1017.3,10,,,,,,,,,,,,,,,500.0,600.0,OVC,600.0,,,,,,
KRDR,01-02-2021,00:56,METAR,Normal,200,6.0,,,9999.0,,-2.9,-3.0,29.98,1017.3,,,,,,,,,,,,,,,,600.0,600.0,OVC,600.0,,,,,,
KRDR,01-01-2021,23:56,METAR,Normal,230,5.0,,,9999.0,,-3.3,-3.4,29.98,1017.3,,,,,,,,,,,,,,,,600.0,600.0,OVC,600.0,,,,,,
KRDR,01-01-2021,23:36,SPECI,Normal,240,5.0,,,9999.0,,-3.0,-3.0,29.99,1017.6,,,,,,,,,,,,,,,,600.0,600.0,OVC,600.0,,,,,,
KRDR,01-01-2021,23:16,SPECI,Normal,250,6.0,,,9999.0,,-3.0,-3.0,29.99,1017.5,,,,,,,,,,,,,,,,700.0,700.0,OVC,700.0,,,,,,
KRDR,01-01-2021,22:56,METAR,Normal,260,7.0,,,9999.0,,-2.5,-2.6,29.99,1017.4,,,,,,,,,,,,,,,,800.0,900.0,OVC,900.0,,,,,,
KRDR,01-01-2021,21:56,METAR,Normal,270,6.0,,,9999.0,,-1.7,-1.8,29.98,1017.1,,,,,,,,,,,,,,,,700.0,800.0,OVC,800.0,,,,,,
KRDR,01-01-2021,21:26,SPECI,Normal,180,5.0,,,9999.0,,-2.0,-2.0,29.98,1017.1,,,,,,,,,,,,,,,,600.0,700.0,OVC,700.0,,,,,,
KRDR,01-01-2021,20:56,METAR,Normal,180,5.0,,,9999.0,,-2.0,-2.1,29.99,1017.4,,,,,,,,,,,,,,,,600.0,600.0,OVC,600.0,,,,,,
KRDR,01-01-2021,20:46,SPECI,Normal,170,4.0,,,9999.0,,-2.0,-2.0,29.99,1017.4,,,,,,,,,,,,,,,,600.0,600.0,OVC,600.0,,,,,,
KRDR,01-01-2021,20:26,SPECI,Normal,210,3.0,,,9999.0,,-2.0,-2.0,29.99,1017.5,,,,,,,,,,,,,,,,700.0,700.0,OVC,700.0,,,,,,
KRDR,01-01-2021,19:56,METAR,Normal,180,4.0,,,9999.0,Mist,-2.6,-2.7,30.01,1018.2,10,,,,,,,,,,,,,,,700.0,900.0,OVC,900.0,,,,,,
KRDR,01-01-2021,18:56,METAR,Normal,240,4.0,,,9999.0,Mist,-3.1,-3.5,30.04,1019.3,10,,,,,,,,,,,,,,,900.0,500.0,FEW,500.0,BKN,900.0,OVC,1400.0,,
KRDR,01-01-2021,17:56,METAR,Normal,260,3.0,,,9999.0,Mist,-4.2,-4.3,30.06,1020.0,10,,,,,,,,,,,,,,,400.0,500.0,BKN,500.0,OVC,1400.0,,,,
KRDR,01-01-2021,16:56,METAR,Normal,290,4.0,,,9999.0,,-5.3,-5.6,30.10,1021.3,,,,,,,,,,,,,,,,400.0,500.0,OVC,500.0,,,,,,
KRDR,01-01-2021,16:16,SPECI,Calm,,0.0,,,9999.0,,-6.0,-6.0,30.11,1021.7,,,,,,,,,,,,,,,,500.0,600.0,OVC,600.0,,,,,,
KRDR,01-01-2021,15:56,METAR,Calm,,0.0,,,9999.0,,-6.2,-6.3,30.11,1021.7,,,,,,,,,,,,,,,,500.0,700.0,OVC,700.0,,,,,,
KRDR,01-01-2021,14:56,METAR,Calm,,0.0,,,9999.0,,-7.3,-7.4,30.11,1021.8,,,,,,,,,,,,,,,,700.0,800.0,OVC,800.0,,,,,,
KRDR,01-01-2021,14:46,SPECI,Normal,330,4.0,,,9999.0,,-7.0,-7.0,30.10,1021.4,,,,,,,,,,,,,,,,600.0,800.0,OVC,800.0,,,,,,
KRDR,01-01-2021,14:06,SPECI,Calm,,0.0,,,9999.0,,-8.0,-8.0,30.09,1021.2,,,,,,,,,,,,,,,,700.0,700.0,OVC,700.0,,,,,,
KRDR,01-01-2021,13:56,METAR,Calm,,0.0,,,9999.0,,-8.1,-8.2,30.10,1021.5,,,,,,,,,,,,,,,,900.0,900.0,OVC,900.0,,,,,,
KRDR,01-01-2021,13:47,SPECI,Calm,,0.0,,,9999.0,,-8.0,-8.0,30.10,1021.5,,,,,,,,,,,,,,,,900.0,1000.0,OVC,1000.0,,,,,,
KRDR,01-01-2021,13:37,SPECI,Calm,,0.0,,,9999.0,,-8.0,-8.0,30.10,1021.5,,,,,,,,,,,,,,,,900.0,900.0,OVC,900.0,,,,,,
KRDR,01-01-2021,13:27,SPECI,Normal,20,3.0,,,9999.0,,-8.0,-8.0,30.09,1021.2,,,,,,,,,,,,,,,,900.0,1000.0,OVC,1000.0,,,,,,
KRDR,01-01-2021,13:07,SPECI,Normal,10,4.0,,,9999.0,,-9.0,-9.0,30.08,1020.9,,,,,,,,,,,,,,,,800.0,900.0,BKN,900.0,,,,,,
KRDR,01-01-2021,12:57,SPECI,Normal,360,3.0,,,9999.0,,-9.0,-9.0,30.07,1020.6,,,,,,,,,,,,,,,2/8 Mostly Clear,72000.0,900.0,FEW,900.0,,,,,,
KRDR,01-01-2021,12:56,METAR,Normal,350,3.0,,,9999.0,,-8.8,-9.0,30.07,1020.6,,,,,,,,,,,,,,,Clear,72000.0,,,,,,,,,
KRDR,01-01-2021,11:56,METAR,Normal,320,7.0,,,9999.0,,-6.7,-6.8,30.04,1019.5,,,,,,,,,,,,,,,Clear,72000.0,,,,,,,,,
KRDR,01-01-2021,10:56,METAR,Normal,310,3.0,,,9999.0,,-3.9,-4.2,30.04,1019.3,,,,,,,,,,,,,,,,3600.0,3600.0,BKN,3600.0,,,,,,
KRDR,01-01-2021,09:56,METAR,Normal,320,6.0,,,9999.0,,-3.7,-4.4,30.04,1019.4,,,,,,,,,,,,,,,,3400.0,3400.0,OVC,3400.0,,,,,,
KRDR,01-01-2021,09:16,SPECI,Normal,280,4.0,,,9999.0,,-4.0,-5.0,30.04,1019.4,,,,,,,,,,,,,,,,3400.0,2300.0,FEW,2300.0,OVC,3400.0,,,,
KRDR,01-01-2021,08:56,METAR,Normal,280,3.0,,,9999.0,,-4.7,-5.8,30.03,1019.0,,,,,,,,,,,,,,,,1700.0,1600.0,SCT,1600.0,BKN,2300.0,OVC,3400.0,,
KRDR,01-01-2021,07:56,METAR,Normal,240,6.0,,,9999.0,,-5.6,-6.8,30.02,1018.8,,,,,,,,,,,,,,,,1600.0,1800.0,OVC,1800.0,,,,,,
KRDR,01-01-2021,07:16,SPECI,Normal,210,8.0,,,9999.0,,-6.0,-8.0,30.02,1018.8,,,,,,,,,,,,,,,,1900.0,1900.0,OVC,1900.0,,,,,,
KRDR,01-01-2021,06:56,METAR,Normal,210,9.0,,,9999.0,,-6.0,-7.7,30.01,1018.4,,,,,,,,,,,,,,,,2100.0,2300.0,OVC,2300.0,,,,,,
KRDR,01-01-2021,06:16,SPECI,Normal,190,11.0,,,9999.0,,-6.0,-7.0,30.00,1018.1,,,,,,,,,,,,,,,,2700.0,2900.0,BKN,2900.0,OVC,4000.0,,,,
KRDR,01-01-2021,05:56,METAR,Normal,180,11.0,,,9999.0,,-5.3,-6.8,29.99,1017.8,,,,,,,,,,,,,,,,3900.0,3900.0,BKN,3900.0,OVC,5500.0,,,,
KRDR,01-01-2021,04:56,METAR,Normal,190,9.0,,,9999.0,,-5.4,-6.8,29.97,1017.1,,,,,,,,,,,,,,,,9000.0,5500.0,SCT,5500.0,OVC,9100.0,,,,
KRDR,01-01-2021,03:56,METAR,Normal,180,8.0,,,9999.0,,-4.9,-6.4,29.97,1017.1,,,,,,,,,,,,,,,,6500.0,6500.0,BKN,6500.0,OVC,7500.0,,,,
KRDR,01-01-2021,02:56,METAR,Normal,180,10.0,,,9999.0,,-5.4,-6.9,29.97,1017.2,,,,,,,,,,,,,,,,7000.0,7000.0,OVC,7000.0,,,,,,
KRDR,01-01-2021,01:56,METAR,Normal,170,10.0,,,9999.0,,-5.9,-7.4,29.97,1017.2,,,,,,,,,,,,,,,,8000.0,8000.0,OVC,8000.0,,,,,,
KRDR,01-01-2021,00:56,METAR,Normal,180,14.0,,,9999.0,,-6.3,-8.0,29.97,1017.2,,,,,,,,,,,,,,,,8000.0,4700.0,FEW,4700.0,BKN,8000.0,,,,
KRDR,12-31-2020,23:56,METAR,Normal,170,12.0,,,9999.0,,-6.2,-7.9,29.95,1016.5,,,,,,,,,,,,,,,,7500.0,7500.0,BKN,7500.0,,,,,,
KRDR,12-31-2020,22:56,METAR,Normal,180,10.0,,,9999.0,,-6.6,-8.4,29.93,1015.9,,,,,,,,,,,,,,,,9000.0,9000.0,BKN,9100.0,OVC,11000.0,,,,
KRDR,12-31-2020,21:56,METAR,Normal,170,11.0,,,9999.0,,-7.4,-9.4,29.94,1016.2,,,,,,,,,,,,,,,,10000.0,10000.0,OVC,10000.0,,,,,,
KRDR,12-31-2020,20:56,METAR,Normal,180,12.0,,,9999.0,,-7.4,-9.7,29.93,1015.9,,,,,,,,,,,,,,,,11000.0,11000.0,BKN,11000.0,BKN,16000.0,,,,
KRDR,12-31-2020,19:56,METAR,Normal,180,10.0,,,9999.0,,-7.1,-9.8,29.93,1015.8,,,,,,,,,,,,,,,2/8 Mostly Clear,72000.0,17000.0,FEW,17000.0,FEW,20000.0,,,,
KRDR,12-31-2020,18:56,METAR,Normal,180,8.0,,,9999.0,,-7.8,-10.7,29.92,1015.5,,,,,,,,,,,,,,,Clear,72000.0,,,,,,,,,
KRDR,12-31-2020,17:56,METAR,Normal,180,10.0,,,9999.0,,-9.3,-11.7,29.93,1015.8,,,,,,,,,,,,,,,,22000.0,22000.0,BKN,22000.0,,,,,,
KRDR,12-31-2020,16:56,METAR,Normal,180,10.0,,,9999.0,,-9.9,-12.1,29.94,1016.2,,,,,,,,,,,,,,,Clear,72000.0,,,,,,,,,
KRDR,12-31-2020,15:56,METAR,Normal,180,8.0,,,9999.0,,-10.8,-12.4,29.93,1015.9,,,,,,,,,,,,,,,Clear,72000.0,,,,,,,,,
KRDR,12-31-2020,14:56,METAR,Normal,180,8.0,,,9999.0,,-12.4,-13.3,29.92,1015.6,,,,,,,,,,,,,,,Clear,72000.0,,,,,,,,,
KRDR,12-31-2020,13:56,METAR,Normal,180,8.0,,,9999.0,,-12.4,-13.3,29.91,1015.3,,,,,,,,,,,,,,,Clear,72000.0,,,,,,,,,
KRDR,12-31-2020,12:56,METAR,Normal,190,8.0,,,9999.0,,-11.7,-12.2,29.90,1014.9,,,,,,,,,,,,,,,Clear,72000.0,,,,,,,,,
KRDR,12-31-2020,11:56,METAR,Normal,190,10.0,,,9999.0,,-11.7,-12.1,29.90,1014.9,,,,,,,,,,,,,,,Clear,72000.0,,,,,,,,,
KRDR,12-31-2020,10:56,METAR,Normal,180,8.0,,,9999.0,,-11.6,-12.0,29.90,1015.0,,,,,,,,,,,,,,,Clear,72000.0,,,,,,,,,
KRDR,12-31-2020,09:56,METAR,Normal,180,9.0,,,9999.0,,-11.0,-11.4,29.91,1015.2,,,,,,,,,,,,,,,Clear,72000.0,,,,,,,,,
KRDR,12-31-2020,08:56,METAR,Normal,190,10.0,,,9999.0,,-10.4,-10.8,29.92,1015.4,,,,,,,,,,,,,,,2/8 Mostly Clear,72000.0,400.0,FEW,400.0,,,,,,
KRDR,12-31-2020,08:44,SPECI,Normal,190,10.0,,,9999.0,,-10.0,-11.0,29.92,1015.4,,,,,,,,,,,,,,,2/8 Mostly Clear,72000.0,400.0,FEW,400.0,,,,,,
KRDR,12-31-2020,07:56,METAR,Normal,190,10.0,,,9999.0,,-9.8,-10.2,29.91,1015.1,,,,,,,,,,,,,,,Clear,72000.0,,,,,,,,,
KRDR,12-31-2020,06:57,METAR,Normal,190,9.0,,,9999.0,,-9.8,-10.5,29.92,1015.4,,,,,,,,,,,,,,,4/8 Partly Cloudy,72000.0,1200.0,SCT,1200.0,,,,,,
KRDR,12-31-2020,05:57,METAR,Normal,210,9.0,,,9999.0,,-7.5,-8.6,29.93,1015.7,,,,,,,,,,,,,,,,1200.0,1300.0,BKN,1300.0,,,,,,
KRDR,12-31-2020,05:16,SPECI,Normal,220,8.0,,,9999.0,,-7.0,-8.0,29.94,1016.1,,,,,,,,,,,,,,,,1300.0,1300.0,BKN,1300.0,,,,,,
KRDR,12-31-2020,04:57,METAR,Normal,200,7.0,,,9999.0,,-7.3,-8.3,29.94,1016.1,,,,,,,,,,,,,,,,1300.0,1400.0,OVC,1400.0,,,,,,
KRDR,12-31-2020,03:56,METAR,Normal,180,9.0,,,9999.0,,-7.6,-8.6,29.95,1016.5,,,,,,,,,,,,,,,,1500.0,1600.0,BKN,1600.0,,,,,,
KRDR,12-31-2020,02:56,METAR,Normal,190,8.0,,,9999.0,,-8.0,-8.7,29.95,1016.5,,,,,,,,,,,,,,,,1600.0,1700.0,BKN,1700.0,,,,,,
KRDR,12-31-2020,01:56,METAR,Normal,180,6.0,,,9999.0,,-8.3,-9.1,29.96,1016.8,,,,,,,,,,,,,,,,1500.0,1500.0,BKN,1500.0,,,,,,
KRDR,12-31-2020,00:56,METAR,Normal,220,3.0,,,9999.0,,-7.3,-8.5,29.97,1017.1,,,,,,,,,,,,,,,,1300.0,1300.0,OVC,1300.0,,,,,,
KRDR,12-30-2020,23:56,METAR,Normal,250,4.0,,,9999.0,,-7.2,-7.9,29.98,1017.4,,,,,,,,,,,,,,,,1200.0,1200.0,OVC,1200.0,,,,,,
KRDR,12-30-2020,23:27,SPECI,Normal,260,6.0,,,9999.0,,-10.0,-10.0,29.99,1017.9,,,,,,,,,,,,,,,,1100.0,1100.0,OVC,1100.0,,,,,,
KRDR,12-30-2020,23:13,SPECI,Normal,250,6.0,,,9999.0,,-11.0,-12.0,29.99,1018.0,,,,,,,,,,,,,,,,1200.0,1200.0,BKN,1200.0,,,,,,
KRDR,12-30-2020,22:56,METAR,Normal,260,5.0,,,9999.0,,-10.2,-10.6,29.99,1017.9,,,,,,,,,,,,,,,4/8 Partly Cloudy,72000.0,1200.0,SCT,1200.0,,,,,,
KRDR,12-30-2020,21:56,METAR,Normal,280,8.0,,,9999.0,,-6.6,-8.7,29.98,1017.5,,,,,,,,,,,,,,,2/8 Mostly Clear,72000.0,1000.0,FEW,1000.0,,,,,,
KRDR,12-30-2020,20:56,METAR,Normal,310,8.0,,,9999.0,,-5.7,-8.5,29.98,1017.4,,,,,,,,,,,,,,,2/8 Mostly Clear,72000.0,1000.0,FEW,1000.0,,,,,,
KRDR,12-30-2020,19:56,METAR,Normal,300,7.0,,,9999.0,,-6.2,-8.9,29.97,1017.0,,,,,,,,,,,,,,,2/8 Mostly Clear,72000.0,1000.0,FEW,1000.0,,,,,,
KRDR,12-30-2020,18:56,METAR,Normal,320,11.0,,,9999.0,,-6.5,-9.6,29.97,1017.0,,,,,,,,,,,,,,,Clear,72000.0,,,,,,,,,
KRDR,12-30-2020,17:56,METAR,Normal,320,8.0,,,9999.0,,-7.3,-10.2,29.98,1017.3,,,,,,,,,,,,,,,Clear,72000.0,,,,,,,,,
KRDR,12-30-2020,16:56,METAR,Normal,330,10.0,,,9999.0,,-9.1,-11.6,29.98,1017.4,,,,,,,,,,,,,,,Clear,72000.0,,,,,,,,,
KRDR,12-30-2020,16:06,SPECI,Normal,320,10.0,,,9999.0,,-10.0,-12.0,29.98,1017.5,,,,,,,,,,,,,,,2/8 Mostly Clear,72000.0,1300.0,FEW,1300.0,,,,,,
KRDR,12-30-2020,15:56,METAR,Normal,320,11.0,,,9999.0,,-10.2,-11.8,29.97,1017.1,,,,,,,,,,,,,,,,1300.0,1300.0,BKN,1300.0,,,,,,
KRDR,12-30-2020,14:56,METAR,Normal,320,10.0,,,9999.0,,-9.2,-10.7,29.94,1016.0,,,,,,,,,,,,,,,,600.0,700.0,FEW,700.0,OVC,1300.0,,,,
KRDR,12-30-2020,13:58,METAR,Normal,350,15.0,,,9999.0,Blowing Snow,-8.3,-9.7,29.91,1015.0,,,,38,,,,,,,,,,,,600.0,800.0,SCT,800.0,OVC,1600.0,,,,
KRDR,12-30-2020,13:29,SPECI,Normal,350,12.0,18.0,,9999.0,Blowing Snow,-8.0,-10.0,29.91,1015.0,,,,38,,,,,,,,,,,,600.0,1000.0,FEW,1000.0,OVC,1700.0,,,,
KRDR,12-30-2020,12:57,METAR,Normal,350,12.0,,340/28KTS,9999.0,Blowing Snow,-8.4,-9.6,29.91,1015.0,,,,38,,,,,,,,,,,,600.0,1000.0,FEW,1000.0,OVC,1700.0,,,,
KRDR,12-30-2020,12:32,SPECI,Normal,340,21.0,25.0,,8000.0,Blowing Snow,-8.0,-9.0,29.88,1014.0,,,,38,,,,,,,,,,,,700.0,800.0,SCT,800.0,OVC,1400.0,,,,
KRDR,12-30-2020,11:57,METAR,Normal,350,14.0,22.0,,8000.0,Blowing Snow,-7.8,-8.3,29.86,1013.3,,,,38,,,,,,,TRACE,,TRACE,,,500.0,1100.0,OVC,1100.0,,,,,,
KRDR,12-30-2020,11:32,SPECI,Normal,340,15.0,,,8000.0,Blowing Snow,-8.0,-9.0,29.86,1013.2,,,,38,,,,,,,,,,,,500.0,1000.0,OVC,1000.0,,,,,,
KRDR,12-30-2020,10:57,METAR,Normal,340,18.0,25.0,,6400.0,Light Snow/Blowing Snow,-8.5,-9.4,29.84,1012.6,,,,71,38,,,,,,TRACE,,,,,500.0,700.0,BKN,700.0,OVC,1300.0,,,,
KRDR,12-30-2020,10:16,SPECI,Normal,350,19.0,22.0,,8000.0,Light Snow/Blowing Snow,-8.0,-9.0,29.82,1011.9,,,,71,38,,,,,,,,,,,1400.0,800.0,SCT,800.0,BKN,1400.0,,,,
KRDR,12-30-2020,09:57,METAR,Normal,340,19.0,24.0,340/29KTS,6400.0,Light Snow/Blowing Snow,-8.0,-8.5,29.81,1011.5,,,,71,38,,,,,,TRACE,,,,,3200.0,3200.0,OVC,3200.0,,,,,,
KRDR,12-30-2020,08:57,METAR,Normal,340,14.0,,,6400.0,Light Snow/Mist,-7.2,-7.5,29.79,1010.8,,,,71,10,,,,,,TRACE,.01 IN,,,,1300.0,1300.0,BKN,1300.0,,,,,,
KRDR,12-30-2020,07:57,METAR,Normal,340,14.0,,,6400.0,Light Snow/Mist,-6.3,-6.6,29.76,1009.7,,,,71,10,,,,,,TRACE,,,,,1100.0,1100.0,BKN,1100.0,,,,,,
KRDR,12-30-2020,06:57,METAR,Normal,330,13.0,,,4800.0,Light Snow/Mist,-6.0,-6.1,29.76,1009.7,,,,71,10,,,,,,.01 IN,,,,,300.0,2300.0,OVC,2300.0,,,,,,
KRDR,12-30-2020,05:57,METAR,Normal,320,14.0,,,4800.0,Light Snow/Blowing Snow,-5.8,-5.9,29.76,1009.8,,,,71,38,,,,,,.03 IN,,.05 IN,,,300.0,1000.0,BKN,1000.0,OVC,1700.0,,,,
KRDR,12-30-2020,04:57,METAR,Normal,320,10.0,,,4800.0,Light Snow/Mist,-5.4,-5.5,29.76,1009.9,,,,71,10,,,,,,.01 IN,,,,,200.0,1000.0,SCT,1000.0,BKN,2100.0,,,,
KRDR,12-30-2020,04:42,SPECI,Normal,280,7.0,,,3200.0,Light Snow/Mist,-6.0,-6.0,29.76,1009.9,,,,71,10,,,,,,,,,,,200.0,2000.0,BKN,2000.0,,,,,,
KRDR,12-30-2020,04:19,SPECI,Normal,220,6.0,,,3200.0,Light Snow/Mist,-6.0,-6.0,29.76,1010.0,,,,71,10,,,,,,,,,,2/8 Mostly Clear,72000.0,1500.0,FEW,1500.0,,,,,,
KRDR,12-30-2020,03:57,METAR,Normal,200,9.0,,,6400.0,Light Snow/Mist,-6.1,-6.2,29.77,1010.3,,,,71,10,,,,,,.01 IN,,,,,300.0,1700.0,FEW,1700.0,OVC,2800.0,,,,
KRDR,12-30-2020,03:30,SPECI,Normal,200,8.0,,,6400.0,Light Snow/Mist,-6.0,-6.0,29.78,1010.7,,,,71,10,,,,,,,,,,,1600.0,1600.0,OVC,1600.0,,,,,,
KRDR,12-30-2020,02:57,METAR,Normal,200,9.0,,,3200.0,Light Snow/Mist,-6.0,-6.1,29.80,1011.4,,,,71,10,,,,,,.02 IN,.02 IN,,,,1500.0,900.0,SCT,900.0,OVC,1500.0,,,,
KRDR,12-30-2020,02:37,SPECI,Normal,190,11.0,,,3200.0,Light Snow/Mist,-6.0,-6.0,29.80,1011.4,,,,71,10,,,,,,,,,,,200.0,1300.0,OVC,1300.0,,,,,,
KRDR,12-30-2020,02:24,SPECI,Normal,190,12.0,,,2400.0,Light Snow/Mist,-6.0,-6.0,29.80,1011.4,,,,71,10,,,,,,,,,,,1100.0,1100.0,OVC,1100.0,,,,,,
KRDR,12-30-2020,02:15,SPECI,Normal,190,10.0,,,800.0,Light Snow/Mist,-6.0,-6.0,29.81,1011.8,,,,71,10,,,,,,,,,,,900.0,900.0,BKN,900.0,OVC,1200.0,,,,
KRDR,12-30-2020,01:56,METAR,Normal,190,10.0,,,800.0,Snow/Mist,-5.8,-5.9,29.82,1012.2,72,10,,,,,,,,,.03 IN,,,,,1200.0,1200.0,OVC,1200.0,,,,,,
KRDR,12-30-2020,01:23,SPECI,Normal,190,12.0,,,1200.0,Light Snow/Mist,-6.0,-6.0,29.83,1012.5,71,10,,,,,,,,,,,,,,1200.0,1200.0,OVC,1200.0,,,,,,
KRDR,12-30-2020,00:56,METAR,Normal,180,12.0,,,1200.0,Light Snow/Mist,-5.6,-5.7,29.84,1012.9,71,10,,,,,,,,,TRACE,,,,,1500.0,1500.0,OVC,1500.0,,,,,,
KRDR,12-29-2020,23:56,METAR,Normal,180,12.0,,,1600.0,Light Snow/Mist,-5.3,-5.4,29.86,1013.5,71,10,,,,,,,,,TRACE,,.04 IN,,,2100.0,2100.0,BKN,2100.0,BKN,3100.0,OVC,4300.0,,
KRDR,12-29-2020,22:56,METAR,Normal,180,10.0,,,1200.0,Light Snow/Mist,-4.9,-5.0,29.87,1013.8,71,10,,,,,,,,,.01 IN,,,,,1700.0,1700.0,OVC,1700.0,,,,,,
KRDR,12-29-2020,21:58,METAR,Normal,170,11.0,,,2400.0,Light Snow/Mist,-4.9,-5.0,29.89,1014.5,71,10,,,,,,,,,TRACE,,,,,300.0,1300.0,FEW,1300.0,OVC,2200.0,,,,
KRDR,12-29-2020,21:38,SPECI,Normal,170,13.0,,,1600.0,Light Snow/Mist,-5.0,-5.0,29.89,1014.6,,,,71,10,,,,,,,,,,,2200.0,2200.0,OVC,2200.0,,,,,,
KRDR,12-29-2020,20:59,METAR,Normal,170,14.0,,,2800.0,Light Snow/Mist,-4.4,-4.5,29.90,1014.8,,,,71,10,,,,,,TRACE,.03 IN,,,,2300.0,2300.0,OVC,2300.0,,,,,,
KRDR,12-29-2020,19:59,METAR,Normal,180,14.0,,,2400.0,Light Snow/Mist,-4.2,-4.3,29.93,1015.9,71,10,,,,,,,,,.01 IN,,,,,1000.0,1000.0,BKN,1000.0,OVC,2200.0,,,,
KRDR,12-29-2020,19:38,SPECI,Normal,180,15.0,,,2400.0,Light Snow/Mist,-4.0,-4.0,29.95,1016.5,71,10,,,,,,,,,,,,,,1600.0,1600.0,OVC,1600.0,,,,,,
KRDR,12-29-2020,18:59,METAR,Normal,200,17.0,,,1600.0,Light Snow/Mist,-4.4,-4.5,29.97,1017.2,71,10,,,,,,,,,.02 IN,,,,,1200.0,1200.0,OVC,1200.0,,,,,,
KRDR,12-29-2020,18:25,SPECI,Normal,190,15.0,,,1200.0,Light Snow/Mist,-5.0,-6.0,29.99,1018.0,,,,71,10,,,,,,,,,,,1000.0,1000.0,OVC,1000.0,,,,,,
KRDR,12-29-2020,17:59,METAR,Normal,180,12.0,,,800.0,Snow/Mist,-6.1,-6.9,30.01,1018.7,,,,73,10,,,,,,TRACE,,TRACE,,,1500.0,1500.0,OVC,1500.0,,,,,,
KRDR,12-29-2020,17:46,SPECI,Normal,200,14.0,,,8000.0,Light Snow,-6.0,-7.0,30.02,1019.1,71,,,,,,,,,,,,,,,1600.0,1800.0,BKN,1800.0,OVC,7500.0,,,,
KRDR,12-29-2020,16:56,METAR,Normal,180,16.0,,,9999.0,,-8.2,-9.4,30.04,1019.9,,,,,,,,,,,,,,,,9000.0,9000.0,BKN,9100.0,OVC,11000.0,,,,
KRDR,12-29-2020,15:56,METAR,Normal,180,14.0,,,9999.0,,-10.2,-11.3,30.06,1020.6,,,,,,,,,,,,,,,,15000.0,11000.0,FEW,11000.0,OVC,15000.0,,,,
KRDR,12-29-2020,14:56,METAR,Normal,190,15.0,,,9999.0,,-11.7,-12.8,30.07,1021.1,,,,,,,,,,,,,,,,15000.0,15000.0,OVC,15000.0,,,,,,
KRDR,12-29-2020,13:57,METAR,Normal,180,13.0,,,9999.0,,-13.1,-14.0,30.09,1021.8,,,,,,,,,,,,,,,,15000.0,15000.0,BKN,15000.0,,,,,,
KRDR,12-29-2020,12:56,METAR,Normal,170,9.0,,,9999.0,,-13.5,-14.4,30.11,1022.5,,,,,,,,,,,,,,,4/8 Partly Cloudy,72000.0,5000.0,SCT,5000.0,,,,,,
KRDR,12-29-2020,11:56,METAR,Normal,180,12.0,,,9999.0,,-14.1,-15.2,30.15,1023.9,,,,,,,,,,,,,,,4/8 Partly Cloudy,72000.0,5000.0,SCT,5000.0,,,,,,
KRDR,12-29-2020,11:45,SPECI,Normal,180,12.0,,,9999.0,,-14.0,-15.0,30.16,1024.2,,,,,,,,,,,,,,,,300.0,300.0,BKN,300.0,,,,,,
KRDR,12-29-2020,11:35,SPECI,Normal,180,12.0,,,9999.0,,-14.0,-15.0,30.17,1024.6,,,,,,,,,,,,,,,2/8 Mostly Clear,72000.0,300.0,FEW,300.0,,,,,,
KRDR,12-29-2020,10:56,METAR,Normal,180,11.0,,,9999.0,,-13.9,-15.1,30.17,1024.6,,,,,,,,,,,,,,,Clear,72000.0,,,,,,,,,
KRDR,12-29-2020,09:56,METAR,Normal,160,6.0,,,9999.0,,-14.0,-15.2,30.18,1024.7,,,,,,,,,,,,,,,Clear,72000.0,,,,,,,,,
KRDR,12-29-2020,08:56,METAR,Normal,130,6.0,,,9999.0,,-14.1,-15.4,30.20,1025.3,,,,,,,,,,,,,,,Clear,72000.0,,,,,,,,,
KRDR,12-29-2020,07:56,METAR,Normal,180,11.0,,,9999.0,,-14.4,-15.9,30.22,1026.1,,,,,,,,,,,,,,,Clear,72000.0,,,,,,,,,
KRDR,12-29-2020,06:56,METAR,Normal,190,9.0,,,9999.0,,-14.4,-15.9,30.22,1026.2,,,,,,,,,,,,,,,Clear,72000.0,,,,,,,,,
KRDR,12-29-2020,05:56,METAR,Normal,190,12.0,,,9999.0,,-15.2,-16.6,30.24,1027.0,,,,,,,,,,,,,,,Clear,72000.0,,,,,,,,,
KRDR,12-29-2020,04:56,METAR,Normal,190,9.0,,,9999.0,,-16.4,-17.7,30.26,1027.7,,,,,,,,,,,,,,,Clear,72000.0,,,,,,,,,
KRDR,12-29-2020,03:56,METAR,Normal,180,8.0,,,9999.0,,-16.9,-18.2,30.28,1028.4,,,,,,,,,,,,,,,Clear,72000.0,,,,,,,,,
KRDR,12-29-2020,02:56,METAR,Normal,190,8.0,,,9999.0,,-16.8,-18.4,30.29,1028.8,,,,,,,,,,,,,,,Clear,72000.0,,,,,,,,,
KRDR,12-29-2020,01:56,METAR,Normal,190,9.0,,,9999.0,,-16.4,-17.8,30.30,1029.1,,,,,,,,,,,,,,,Clear,72000.0,,,,,,,,,
KRDR,12-29-2020,00:56,METAR,Normal,190,8.0,,,9999.0,,-16.9,-18.3,30.30,1029.1,,,,,,,,,,,,,,,Clear,72000.0,,,,,,,,,
KRDR,12-28-2020,23:56,METAR,Normal,190,9.0,,,9999.0,,-16.4,-18.0,30.32,1029.8,,,,,,,,,,,,,TRACE,,Clear,72000.0,,,,,,,,,
KRDR,12-28-2020,22:56,METAR,Normal,180,8.0,,,9999.0,,-16.1,-17.7,30.33,1030.1,,,,,,,,,,,,,,,Clear,72000.0,,,,,,,,,
KRDR,12-28-2020,21:56,METAR,Normal,190,6.0,,,9999.0,,-11.9,-15.0,30.34,1030.2,,,,,,,,,,,TRACE,,,,Clear,72000.0,,,,,,,,,
KRDR,12-28-2020,20:56,METAR,Normal,230,5.0,,,9999.0,,-10.8,-14.6,30.34,1030.2,,,,,,,,,,,,,,,4/8 Partly Cloudy,72000.0,1800.0,SCT,1800.0,,,,,,
KRDR,12-28-2020,19:56,METAR,Normal,290,6.0,,,9999.0,,-12.2,-15.1,30.34,1030.2,,,,,,,,,,,,,,,,1900.0,1900.0,BKN,1900.0,,,,,,
KRDR,12-28-2020,19:46,SPECI,Normal,220,7.0,,,9999.0,,-12.0,-15.0,30.34,1030.1,,,,,,,,,,,,,,,,1900.0,1900.0,OVC,1900.0,,,,,,
KRDR,12-28-2020,19:16,SPECI,Normal,210,7.0,,,9999.0,,-13.0,-16.0,30.34,1030.2,,,,,,,,,,,,,,,,1900.0,2000.0,OVC,2000.0,,,,,,
KRDR,12-28-2020,18:56,METAR,Normal,220,6.0,,,9999.0,,-13.1,-16.3,30.35,1030.5,,,,,,,,,,,,,,,,1900.0,1900.0,OVC,1900.0,,,,,,
KRDR,12-28-2020,17:59,METAR,Normal,220,6.0,,,9999.0,,-14.2,-17.4,30.36,1030.9,,,,,,,,,,,TRACE,,TRACE,,,2100.0,2100.0,OVC,2100.0,,,,,,
KRDR,12-28-2020,16:56,METAR,Calm,,0.0,,,9999.0,Light Snow,-14.8,-18.0,30.37,1031.2,71,,,,,,,,,,TRACE,,,,,2100.0,2100.0,OVC,2100.0,,,,,,
KRDR,12-28-2020,16:04,SPECI,Calm,,0.0,,,9999.0,,-15.0,-18.0,30.35,1030.5,,,,,,,,,,,,,,,,700.0,2100.0,OVC,2100.0,,,,,,
KRDR,12-28-2020,15:56,METAR,Calm,,0.0,,,9999.0,Light Snow,-15.7,-18.6,30.35,1030.5,71,,,,,,,,,,TRACE,,,,,700.0,2100.0,OVC,2100.0,,,,,,
KRDR,12-28-2020,15:44,SPECI,Normal,10,3.0,,,9999.0,Light Snow,-16.0,-19.0,30.35,1030.5,71,,,,,,,,,,,,,,,800.0,2100.0,OVC,2100.0,,,,,,
KRDR,12-28-2020,14:56,METAR,Normal,10,6.0,,,9999.0,,-16.0,-18.8,30.33,1029.8,,,,,,,,,,,,TRACE,,,,2100.0,2200.0,OVC,2200.0,,,,,,
KRDR,12-28-2020,14:33,SPECI,Normal,20,6.0,,,9999.0,,-16.0,-18.0,30.32,1029.3,,,,,,,,,,,,,,,,2100.0,2300.0,OVC,2300.0,,,,,,
KRDR,12-28-2020,13:56,METAR,Normal,10,8.0,,,9999.0,,-15.5,-17.8,30.31,1029.0,,,,,,,,,,,,,,,,700.0,900.0,FEW,900.0,SCT,1600.0,OVC,3000.0,,
KRDR,12-28-2020,12:56,METAR,Normal,10,7.0,,,9999.0,,-15.7,-18.0,30.30,1028.7,,,,,,,,,,,,,,,,3400.0,800.0,FEW,800.0,OVC,3400.0,,,,
KRDR,12-28-2020,12:48,SPECI,Normal,10,6.0,,,9999.0,,-16.0,-18.0,30.29,1028.3,,,,,,,,,,,,,,,,3500.0,800.0,FEW,800.0,OVC,3500.0,,,,
KRDR,12-28-2020,11:56,METAR,Normal,360,7.0,,,9999.0,,-16.4,-18.1,30.28,1028.0,,,,,,,,,,,,,,,,1700.0,1800.0,OVC,1800.0,,,,,,
KRDR,12-28-2020,11:41,SPECI,Normal,360,6.0,,,9999.0,,-18.0,-19.0,30.27,1027.7,,,,,,,,,,,,,,,,400.0,1100.0,FEW,1100.0,BKN,2500.0,BKN,5000.0,,
KRDR,12-28-2020,10:56,METAR,Normal,20,6.0,,,9999.0,Light Snow,-16.9,-18.9,30.25,1027.0,71,,,,,,,,,,TRACE,,,,,3000.0,1300.0,FEW,1300.0,BKN,3000.0,OVC,5000.0,,
KRDR,12-28-2020,09:56,METAR,Normal,20,8.0,,,9999.0,,-15.1,-17.5,30.24,1026.5,,,,,,,,,,,TRACE,,,,,3300.0,3300.0,OVC,3300.0,,,,,,
KRDR,12-28-2020,09:02,SPECI,Normal,20,9.0,,,9999.0,,-15.0,-17.0,30.22,1025.8,,,,,,,,,,,,,,,,800.0,700.0,FEW,700.0,BKN,2300.0,BKN,3100.0,OVC,5500.0
KRDR,12-28-2020,08:59,SPECI,Normal,30,10.0,,,9999.0,,-15.0,-17.0,30.22,1025.8,,,,,,,,,,,,,,,,800.0,700.0,FEW,700.0,BKN,2300.0,BKN,3100.0,OVC,5500.0
KRDR,12-28-2020,08:57,SPECI,Normal,20,10.0,,,9999.0,,-15.0,-17.0,30.22,1025.8,,,,,,,,,,,,,,,,3100.0,2300.0,SCT,2300.0,BKN,3100.0,OVC,5500.0,,
KRDR,12-28-2020,08:56,METAR,Normal,20,11.0,,,9999.0,Blowing or Drifting Snow or Sand,-14.6,-16.6,30.22,1025.8,27,,,,,,,,,,TRACE,TRACE,,,,300.0,600.0,FEW,600.0,BKN,2400.0,OVC,3100.0,,
KRDR,12-28-2020,08:50,SPECI,Normal,20,12.0,,,9999.0,Blowing or Drifting Snow or Sand/Mist,-14.0,-17.0,30.22,1025.8,27,10,,,,,,,,,,,,,,300.0,600.0,FEW,600.0,BKN,2400.0,OVC,3000.0,,
KRDR,12-28-2020,08:40,SPECI,Normal,30,12.0,,,9999.0,Blowing or Drifting Snow or Sand/Mist,-14.0,-16.0,30.20,1025.1,27,10,,,,,,,,,,,,,,3000.0,600.0,FEW,600.0,OVC,3000.0,,,,
KRDR,12-28-2020,08:39,SPECI,Normal,30,11.0,,,9999.0,,-14.0,-16.0,30.20,1025.1,,,,,,,,,,,,,,,,3000.0,600.0,FEW,600.0,OVC,3000.0,,,,
KRDR,12-28-2020,08:34,SPECI,Normal,20,11.0,,,9999.0,Precipitation,-14.0,-16.0,30.20,1025.1,41,,,,,,,,,,,,,,,500.0,600.0,SCT,600.0,OVC,2800.0,,,,
KRDR,12-28-2020,07:56,METAR,Normal,20,12.0,,,9999.0,,-13.3,-14.9,30.19,1024.7,,,,,,,,,,,TRACE,,,,,200.0,600.0,FEW,600.0,OVC,2900.0,,,,
KRDR,12-28-2020,06:56,METAR,Normal,20,8.0,,,9999.0,Light Snow,-11.9,-13.1,30.17,1024.1,71,,,,,,,,,,TRACE,,,,,200.0,500.0,BKN,500.0,OVC,3700.0,,,,
KRDR,12-28-2020,05:56,METAR,Normal,30,10.0,,,8000.0,Light Snow/Mist,-11.4,-12.5,30.15,1023.4,71,10,,,,,,,,,TRACE,,TRACE,,,200.0,500.0,FEW,500.0,SCT,1200.0,OVC,2200.0,,
KRDR,12-28-2020,04:56,METAR,Normal,10,8.0,,,9999.0,Light Snow,-10.3,-11.8,30.14,1023.0,,,,71,,,,,,,TRACE,,TRACE,,,300.0,600.0,FEW,600.0,OVC,2000.0,,,,
KRDR,12-28-2020,04:06,SPECI,Normal,360,10.0,,,9999.0,Light Snow,-9.0,-10.0,30.13,1022.7,71,,,,,,,,,,,,,,,200.0,500.0,SCT,500.0,OVC,2100.0,,,,
KRDR,12-28-2020,03:56,METAR,Normal,10,10.0,,,9999.0,Light Snow,-9.0,-10.2,30.12,1022.3,71,,,,,,,,,,TRACE,,,,,300.0,500.0,SCT,500.0,OVC,1900.0,,,,
KRDR,12-28-2020,03:36,SPECI,Normal,360,7.0,,,9999.0,Light Snow,-9.0,-10.0,30.12,1022.3,71,,,,,,,,,,,,,,,1600.0,500.0,FEW,500.0,OVC,1700.0,,,,
KRDR,12-28-2020,03:16,SPECI,Normal,360,7.0,,,9999.0,Light Snow,-8.0,-9.0,30.11,1021.9,71,,,,,,,,,,,,,,,1500.0,1500.0,OVC,1500.0,,,,,,
KRDR,12-28-2020,03:06,SPECI,Normal,10,8.0,,,9999.0,Light Snow,-8.0,-9.0,30.11,1021.9,71,,,,,,,,,,,,,,,1300.0,700.0,FEW,700.0,OVC,1400.0,,,,
KRDR,12-28-2020,03:05,SPECI,Normal,10,8.0,,,9999.0,Light Snow,-8.0,-9.0,30.11,1021.9,71,,,,,,,,,,,,,,,1300.0,1400.0,OVC,1400.0,,,,,,
KRDR,12-28-2020,02:57,SPECI,Normal,10,11.0,,,9999.0,,-8.0,-9.0,30.10,1021.6,,,,,,,,,,,,,,,,1300.0,1300.0,OVC,1300.0,,,,,,
KRDR,12-28-2020,02:56,METAR,Normal,360,11.0,,,9999.0,Light Snow,-7.9,-9.1,30.10,1021.6,71,,,,,,,,,,TRACE,TRACE,,,,1300.0,1300.0,OVC,1300.0,,,,,,
KRDR,12-28-2020,02:53,SPECI,Normal,10,9.0,,,9999.0,Light Snow,-8.0,-9.0,30.10,1021.6,71,,,,,,,,,,,,,,,1300.0,1300.0,OVC,1300.0,,,,,,
KRDR,12-28-2020,01:56,METAR,Normal,300,6.0,,,9999.0,,-6.8,-8.5,30.08,1020.9,,,,,,,,,,,,,,,,2600.0,2600.0,OVC,2600.0,,,,,,
KRDR,12-28-2020,01:12,SPECI,Normal,310,6.0,,,9999.0,,-7.0,-8.0,30.07,1020.6,,,,,,,,,,,,,,,,2300.0,2300.0,BKN,2300.0,OVC,8000.0,,,,
KRDR,12-28-2020,00:56,METAR,Normal,310,5.0,,,9999.0,,-6.8,-8.6,30.06,1020.2,,,,,,,,,,,,,,,,8000.0,2300.0,FEW,2300.0,OVC,8000.0,,,,
KRDR,12-27-2020,23:56,METAR,Normal,320,6.0,,,9999.0,,-7.1,-9.1,30.06,1020.2,,,,,,,,,,,,,,,,8000.0,8000.0,OVC,8000.0,,,,,,
KRDR,12-27-2020,22:56,METAR,Normal,280,7.0,,,9999.0,,-6.1,-8.7,30.04,1019.5,,,,,,,,,,,,,,,,7500.0,7500.0,OVC,7500.0,,,,,,
KRDR,12-27-2020,21:56,METAR,Normal,300,9.0,,,9999.0,,-5.0,-8.8,30.04,1019.5,,,,,,,,,,,,,,,,7500.0,7500.0,BKN,7500.0,,,,,,
KRDR,12-27-2020,20:56,METAR,Normal,300,7.0,,,9999.0,,-4.2,-8.2,30.02,1018.7,,,,,,,,,,,,,,,2/8 Mostly Clear,72000.0,11000.0,FEW,11000.0,FEW,18000.0,,,,
KRDR,12-27-2020,19:56,METAR,Normal,290,6.0,,,9999.0,,-4.9,-8.7,30.02,1018.7,,,,,,,,,,,,,,,4/8 Partly Cloudy,72000.0,11000.0,FEW,11000.0,SCT,18000.0,,,,
KRDR,12-27-2020,18:56,METAR,Normal,310,5.0,,,9999.0,,-6.2,-8.6,30.03,1019.1,,,,,,,,,,,,,,,4/8 Partly Cloudy,72000.0,11000.0,SCT,11000.0,,,,,,
KRDR,12-27-2020,17:56,METAR,Normal,330,6.0,,,9999.0,,-7.3,-8.7,30.04,1019.5,,,,,,,,,,,,,.05 IN,,,10000.0,10000.0,BKN,10000.0,,,,,,
KRDR,12-27-2020,16:56,METAR,Normal,330,5.0,,,9999.0,,-8.6,-9.1,30.04,1019.5,,,,,,,,,,,TRACE,,,,4/8 Partly Cloudy,72000.0,3100.0,FEW,3100.0,SCT,7000.0,,,,
KRDR,12-27-2020,16:10,SPECI,Normal,360,9.0,,,9999.0,,-8.0,-9.0,30.02,1018.8,,,,,,,,,,,,,,,,14000.0,1800.0,FEW,1800.0,BKN,14000.0,,,,
KRDR,12-27-2020,15:56,METAR,Normal,360,6.0,,,9999.0,Light Snow,-8.2,-8.7,30.01,1018.4,71,,,,,,,,,,.01 IN,,,,,6000.0,1800.0,SCT,1800.0,OVC,6000.0,,,,
KRDR,12-27-2020,15:51,SPECI,Normal,360,7.0,,,9999.0,Light Snow,-8.0,-9.0,30.01,1018.4,71,,,,,,,,,,,,,,,6000.0,1800.0,SCT,1800.0,OVC,6000.0,,,,
KRDR,12-27-2020,14:56,METAR,Normal,10,6.0,,,8000.0,Light Snow/Mist,-8.6,-8.9,29.99,1017.8,71,10,,,,,,,,,TRACE,.04 IN,,,,200.0,2900.0,OVC,2900.0,,,,,,
KRDR,12-27-2020,14:28,SPECI,Normal,20,7.0,,,8000.0,Light Snow/Mist,-9.0,-9.0,29.98,1017.5,71,10,,,,,,,,,,,,,,3300.0,3300.0,OVC,3300.0,,,,,,
KRDR,12-27-2020,13:56,METAR,Normal,20,6.0,,,9999.0,Light Snow/Mist,-8.6,-8.9,29.98,1017.5,71,10,,,,,,,,,.02 IN,,,,,2000.0,2000.0,OVC,2000.0,,,,,,
KRDR,12-27-2020,12:56,METAR,Normal,30,8.0,,,8000.0,Light Snow/Mist,-8.6,-9.0,29.95,1016.4,71,10,,,,,,,,,.02 IN,,,,,200.0,2800.0,OVC,2800.0,,,,,,
KRDR,12-27-2020,11:56,METAR,Normal,30,9.0,,,9999.0,Light Snow,-8.6,-9.3,29.93,1015.7,71,,,,,,,,,,TRACE,,TRACE,,,3300.0,3300.0,OVC,3300.0,,,,,,
KRDR,12-27-2020,10:57,SPECI,Normal,40,9.0,,,9999.0,Light Snow,-8.0,-10.0,29.92,1015.3,71,,,,,,,,,,,,,,,6000.0,3400.0,FEW,3400.0,OVC,6000.0,,,,
KRDR,12-27-2020,10:56,METAR,Normal,30,10.0,,,9999.0,,-8.4,-9.8,29.92,1015.3,,,,,,,,,,,,,,,,6000.0,3400.0,FEW,3400.0,OVC,6000.0,,,,
KRDR,12-27-2020,10:06,SPECI,Normal,20,8.0,,,9999.0,,-8.0,-10.0,29.92,1015.3,,,,,,,,,,,,,,,,6000.0,1900.0,SCT,1900.0,OVC,6000.0,,,,
KRDR,12-27-2020,09:56,METAR,Normal,20,9.0,,,9999.0,,-8.1,-9.6,29.92,1015.3,,,,,,,,,,,,,,,,1900.0,1900.0,BKN,1900.0,OVC,6000.0,,,,
KRDR,12-27-2020,09:26,SPECI,Normal,30,8.0,,,9999.0,,-8.0,-9.0,29.91,1014.9,,,,,,,,,,,,,,,,1900.0,1900.0,OVC,1900.0,,,,,,
KRDR,12-27-2020,09:06,SPECI,Normal,40,7.0,,,9999.0,,-8.0,-9.0,29.90,1014.6,,,,,,,,,,,,,,,,2000.0,2000.0,BKN,2000.0,OVC,6500.0,,,,
KRDR,12-27-2020,08:56,METAR,Normal,50,8.0,,,9999.0,,-8.0,-9.4,29.90,1014.6,,,,,,,,,,,,TRACE,,,,6500.0,2100.0,SCT,2100.0,OVC,6500.0,,,,
KRDR,12-27-2020,07:56,METAR,Normal,50,8.0,,,9999.0,,-7.9,-9.4,29.89,1014.3,,,,,,,,,,,,,,,,6500.0,1700.0,FEW,1700.0,OVC,6500.0,,,,
KRDR,12-27-2020,06:56,METAR,Normal,50,7.0,,,9999.0,,-7.7,-9.1,29.88,1013.9,,,,,,,,,,,,,,,,6500.0,6500.0,OVC,6500.0,,,,,,
KRDR,12-27-2020,05:56,METAR,Normal,50,6.0,,,9999.0,,-7.3,-8.7,29.88,1013.9,,,,,,,,,,,,,,,,6500.0,6500.0,OVC,6500.0,,,,,,
KRDR,12-27-2020,05:26,SPECI,Normal,40,5.0,,,9999.0,,-7.0,-8.0,29.89,1014.3,,,,,,,,,,,,,,,,6500.0,6500.0,BKN,6500.0,OVC,11000.0,,,,
KRDR,12-27-2020,04:56,METAR,Normal,50,4.0,,,9999.0,,-7.3,-8.3,29.90,1014.6,,,,,,,,,,,TRACE,,,,,11000.0,7000.0,FEW,7000.0,OVC,11000.0,,,,
KRDR,12-27-2020,04:39,SPECI,Normal,40,5.0,,,9999.0,,-7.0,-8.0,29.91,1014.9,,,,,,,,,,,,,,,,12000.0,1600.0,FEW,1600.0,FEW,7000.0,OVC,12000.0,,
KRDR,12-27-2020,04:37,SPECI,Normal,40,5.0,,,9999.0,Light Snow,-7.0,-8.0,29.91,1014.9,71,,,,,,,,,,,,,,,12000.0,1600.0,FEW,1600.0,OVC,12000.0,,,,
KRDR,12-27-2020,04:27,SPECI,Normal,30,5.0,,,9999.0,,-7.0,-8.0,29.90,1014.6,,,,,,,,,,,,,,,,11000.0,1600.0,SCT,1600.0,OVC,11000.0,,,,
KRDR,12-27-2020,04:26,SPECI,Normal,30,6.0,,,9999.0,,-7.0,-8.0,29.90,1014.6,,,,,,,,,,,,,,,,11000.0,1600.0,SCT,1600.0,OVC,11000.0,,,,
KRDR,12-27-2020,03:56,METAR,Normal,50,6.0,,,9999.0,,-6.5,-7.6,29.89,1014.3,,,,,,,,,,,TRACE,,,,,1500.0,1500.0,OVC,1500.0,,,,,,
KRDR,12-27-2020,03:46,SPECI,Normal,60,7.0,,,9999.0,,-6.0,-7.0,29.89,1014.3,,,,,,,,,,,,,,,,1500.0,1500.0,OVC,1500.0,,,,,,
KRDR,12-27-2020,03:33,SPECI,Normal,50,7.0,,,9999.0,Light Snow,-6.0,-7.0,29.89,1014.3,71,,,,,,,,,,,,,,,1600.0,1600.0,OVC,1600.0,,,,,,
KRDR,12-27-2020,02:56,METAR,Normal,60,7.0,,,9999.0,,-6.2,-7.4,29.89,1014.3,,,,,,,,,,,,,,,,1600.0,1600.0,OVC,1600.0,,,,,,
KRDR,12-27-2020,01:56,METAR,Normal,50,7.0,,,9999.0,,-6.1,-7.5,29.89,1014.3,,,,,,,,,,,,,,,,1600.0,1600.0,OVC,1600.0,,,,,,
KRDR,12-27-2020,00:56,METAR,Normal,70,6.0,,,9999.0,,-5.6,-7.1,29.89,1014.3,,,,,,,,,,,,,,,,1500.0,1500.0,OVC,1500.0,,,,,,
KRDR,12-26-2020,23:56,METAR,Normal,60,5.0,,,9999.0,,-5.2,-6.6,29.89,1014.3,,,,,,,,,,,,,,,,1400.0,1500.0,OVC,1500.0,,,,,,
KRDR,12-26-2020,23:16,SPECI,Normal,80,4.0,,,9999.0,,-5.0,-6.0,29.91,1015.0,,,,,,,,,,,,,,,,1400.0,1500.0,OVC,1500.0,,,,,,
KRDR,12-26-2020,22:56,METAR,Normal,70,3.0,,,9999.0,,-5.0,-6.4,29.91,1015.1,,,,,,,,,,,,,,,,1300.0,1400.0,OVC,1400.0,,,,,,
KRDR,12-26-2020,22:16,SPECI,Normal,50,5.0,,,9999.0,,-5.0,-6.0,29.91,1015.1,,,,,,,,,,,,,,,,1400.0,1400.0,OVC,1400.0,,,,,,
KRDR,12-26-2020,21:56,METAR,Normal,80,4.0,,,9999.0,,-4.5,-6.2,29.91,1015.1,,,,,,,,,,,,,,,,1400.0,1500.0,OVC,1500.0,,,,,,
KRDR,12-26-2020,21:26,SPECI,Normal,60,3.0,,,9999.0,,-4.0,-6.0,29.91,1015.1,,,,,,,,,,,,,,,,1500.0,1500.0,OVC,1500.0,,,,,,
KRDR,12-26-2020,20:56,METAR,Normal,50,5.0,,,9999.0,,-4.3,-6.3,29.90,1014.7,,,,,,,,,,,,,,,,1400.0,1400.0,OVC,1400.0,,,,,,
KRDR,12-26-2020,19:56,METAR,Normal,90,6.0,,,9999.0,,-4.2,-5.6,29.90,1014.7,,,,,,,,,,,,,,,,1100.0,1300.0,SCT,1300.0,OVC,16000.0,,,,
KRDR,12-26-2020,19:16,SPECI,Normal,60,5.0,,,9999.0,,-5.0,-5.0,29.90,1014.7,,,,,,,,,,,,,,,,14000.0,1000.0,FEW,1000.0,BKN,14000.0,OVC,16000.0,,
KRDR,12-26-2020,19:06,SPECI,Normal,70,7.0,,,9999.0,,-4.0,-5.0,29.91,1015.0,,,,,,,,,,,,,,,,900.0,1000.0,FEW,1000.0,OVC,16000.0,,,,
KRDR,12-26-2020,18:56,METAR,Normal,60,5.0,,,9999.0,,-4.5,-4.9,29.91,1015.0,,,,,,,,,,,,,,,,16000.0,900.0,FEW,900.0,OVC,16000.0,,,,
KRDR,12-26-2020,18:41,SPECI,Normal,70,6.0,,,9999.0,,-5.0,-5.0,29.92,1015.4,,,,,,,,,,,,,,,,16000.0,1000.0,FEW,1000.0,OVC,16000.0,,,,
KRDR,12-26-2020,17:56,METAR,Normal,30,4.0,,,9999.0,,-5.0,-5.3,29.96,1016.7,,,,,,,,,,,,,,,,16000.0,16000.0,OVC,16000.0,,,,,,
KRDR,12-26-2020,17:34,SPECI,Normal,20,4.0,,,9999.0,,-5.0,-5.0,29.96,1016.7,,,,,,,,,,,,,,,,13000.0,13000.0,BKN,13000.0,OVC,16000.0,,,,
KRDR,12-26-2020,16:56,METAR,Normal,20,4.0,,,9999.0,,-5.5,-5.9,29.97,1017.0,,,,,,,,,,,,,,,2/8 Mostly Clear,72000.0,17000.0,FEW,17000.0,,,,,,
KRDR,12-26-2020,16:06,SPECI,Normal,360,3.0,,,9999.0,,-6.0,-6.0,29.97,1017.1,,,,,,,,,,,,,,,,12000.0,2300.0,SCT,2300.0,BKN,12000.0,,,,
KRDR,12-26-2020,15:56,METAR,Normal,360,3.0,,,9999.0,,-6.1,-6.4,29.96,1016.7,,,,,,,,,,,,,,,,2300.0,2300.0,BKN,2300.0,,,,,,
KRDR,12-26-2020,14:56,METAR,Calm,,0.0,,,9999.0,,-7.7,-7.8,29.96,1016.7,,,,,,,,,,,,,,,2/8 Mostly Clear,72000.0,2400.0,FEW,2400.0,,,,,,
KRDR,12-26-2020,14:15,SPECI,Normal,310,3.0,,,9999.0,,-8.0,-8.0,29.96,1016.7,,,,,,,,,,,,,,,4/8 Partly Cloudy,72000.0,2400.0,SCT,2400.0,,,,,,
KRDR,12-26-2020,13:56,METAR,Calm,,0.0,,,9999.0,,-8.3,-8.4,29.95,1016.4,,,,,,,,,,,,,,,4/8 Partly Cloudy,72000.0,2300.0,SCT,2300.0,,,,,,
KRDR,12-26-2020,12:57,METAR,Normal,340,4.0,,,9999.0,,-7.6,-8.0,29.96,1016.7,,,,,,,,,,,,,,,,2100.0,2200.0,OVC,2200.0,,,,,,
KRDR,12-26-2020,11:57,METAR,Normal,320,3.0,,,9999.0,,-8.3,-8.6,29.96,1016.6,,,,,,,,,,,,,,,,2200.0,2200.0,BKN,2200.0,,,,,,
KRDR,12-26-2020,10:57,METAR,Normal,300,4.0,,,9999.0,,-10.8,-11.2,29.97,1017.1,,,,,,,,,,,,,,,,2400.0,2500.0,OVC,2500.0,,,,,,
KRDR,12-26-2020,10:34,SPECI,Normal,310,6.0,,,9999.0,,-11.0,-12.0,29.97,1017.1,,,,,,,,,,,,,,,,2400.0,2500.0,BKN,2500.0,,,,,,
KRDR,12-26-2020,09:56,METAR,Normal,310,6.0,,,9999.0,,-11.2,-11.7,29.95,1016.2,,,,,,,,,,,,,,,4/8 Partly Cloudy,72000.0,2600.0,SCT,2600.0,,,,,,
KRDR,12-26-2020,09:52,SPECI,Normal,310,7.0,,,9999.0,,-11.0,-11.0,29.95,1016.2,,,,,,,,,,,,,,,4/8 Partly Cloudy,72000.0,2400.0,SCT,2400.0,,,,,,
KRDR,12-26-2020,09:40,SPECI,Normal,310,6.0,,,9999.0,,-11.0,-12.0,29.95,1016.2,,,,,,,,,,,,,,,4/8 Partly Cloudy,72000.0,2400.0,SCT,2400.0,,,,,,
KRDR,12-26-2020,09:30,SPECI,Normal,300,6.0,,,9999.0,,-12.0,-12.0,29.95,1016.2,,,,,,,,,,,,,,,,2400.0,2400.0,BKN,2400.0,,,,,,
KRDR,12-26-2020,09:20,SPECI,Normal,300,6.0,,,9999.0,,-12.0,-12.0,29.94,1015.9,,,,,,,,,,,,,,,4/8 Partly Cloudy,72000.0,2400.0,SCT,2400.0,,,,,,
KRDR,12-26-2020,09:19,SPECI,Normal,300,5.0,,,9999.0,Light Snow,-12.0,-12.0,29.94,1015.9,71,,,,,,,,,,,,,,4/8 Partly Cloudy,72000.0,2400.0,SCT,2400.0,,,,,,
KRDR,12-26-2020,08:56,METAR,Normal,300,6.0,,,9999.0,,-10.6,-11.4,29.94,1015.9,,,,,,,,,,,,,,,Clear,72000.0,,,,,,,,,
KRDR,12-26-2020,07:56,METAR,Normal,300,6.0,,,9999.0,,-10.1,-10.8,29.93,1015.5,,,,,,,,,,,,,,,Clear,72000.0,,,,,,,,,
KRDR,12-26-2020,06:56,METAR,Normal,310,7.0,,,9999.0,,-10.0,-10.8,29.93,1015.5,,,,,,,,,,,,,,,Clear,72000.0,,,,,,,,,
KRDR,12-26-2020,05:56,METAR,Normal,300,7.0,,,9999.0,,-9.2,-10.0,29.92,1015.1,,,,,,,,,,,,,,,Clear,72000.0,,,,,,,,,
KRDR,12-26-2020,04:56,METAR,Normal,310,7.0,,,9999.0,,-6.7,-7.9,29.91,1014.8,,,,,,,,,,,,,,,Clear,72000.0,,,,,,,,,
KRDR,12-26-2020,03:56,METAR,Normal,300,8.0,,,9999.0,,-7.5,-7.9,29.91,1015.0,,,,,,,,,,,,,,,Clear,72000.0,,,,,,,,,
KRDR,12-26-2020,02:56,METAR,Normal,300,7.0,,,9999.0,,-6.7,-7.1,29.90,1014.8,,,,,,,,,,,,,,,Clear,72000.0,,,,,,,,,
KRDR,12-26-2020,01:56,METAR,Normal,300,8.0,,,9999.0,,-5.6,-6.0,29.90,1014.8,,,,,,,,,,,,,,,2/8 Mostly Clear,72000.0,11000.0,FEW,11000.0,,,,,,
KRDR,12-26-2020,00:56,METAR,Normal,300,7.0,,,9999.0,,-4.7,-4.8,29.90,1014.8,,,,,,,,,,,,,,,2/8 Mostly Clear,72000.0,11000.0,FEW,11000.0,,,,,,
KRDR,12-25-2020,23:56,METAR,Normal,320,7.0,,,9999.0,,-3.7,-4.7,29.89,1014.5,,,,,,,,,,,,,,,2/8 Mostly Clear,72000.0,11000.0,FEW,11000.0,,,,,,
KRDR,12-25-2020,22:56,METAR,Normal,300,5.0,,,9999.0,,-3.1,-4.1,29.89,1014.4,,,,,,,,,,,,,,,4/8 Partly Cloudy,72000.0,11000.0,SCT,11000.0,,,,,,
KRDR,12-25-2020,21:56,METAR,Normal,310,8.0,,,9999.0,,0.8,-3.1,29.87,1013.7,,,,,,,,,,,,,,,4/8 Partly Cloudy,72000.0,11000.0,SCT,11000.0,,,,,,
KRDR,12-25-2020,20:56,METAR,Normal,310,7.0,,,9999.0,,1.8,-3.1,29.85,1013.0,,,,,,,,,,,,,,,2/8 Mostly Clear,72000.0,11000.0,FEW,11000.0,,,,,,
KRDR,12-25-2020,19:56,METAR,Normal,310,7.0,,,9999.0,,1.9,-3.2,29.84,1012.6,,,,,,,,,,,,,,,2/8 Mostly Clear,72000.0,11000.0,FEW,11000.0,,,,,,
KRDR,12-25-2020,18:56,METAR,Normal,340,12.0,,,9999.0,,1.2,-3.7,29.83,1012.4,,,,,,,,,,,,,,,2/8 Mostly Clear,72000.0,11000.0,FEW,11000.0,,,,,,
KRDR,12-25-2020,17:56,METAR,Normal,320,9.0,,,9999.0,,0.3,-4.5,29.83,1012.4,,,,,,,,,,,,,,,2/8 Mostly Clear,72000.0,11000.0,FEW,11000.0,,,,,,
KRDR,12-25-2020,16:56,METAR,Normal,320,8.0,,,9999.0,,-2.0,-6.0,29.81,1011.8,,,,,,,,,,,,,,,Clear,72000.0,,,,,,,,,
KRDR,12-25-2020,15:56,METAR,Normal,230,4.0,,,9999.0,,-7.5,-10.4,29.79,1011.3,,,,,,,,,,,,,,,Clear,72000.0,,,,,,,,,
KRDR,12-25-2020,14:56,METAR,Normal,210,7.0,,,9999.0,,-11.3,-12.8,29.77,1010.8,,,,,,,,,,,,,,,Clear,72000.0,,,,,,,,,
KRDR,12-25-2020,13:56,METAR,Normal,210,9.0,,,9999.0,,-12.2,-13.4,29.79,1011.6,,,,,,,,,,,,,,,Clear,72000.0,,,,,,,,,
KRDR,12-25-2020,12:56,METAR,Normal,190,9.0,,,9999.0,,-12.0,-13.3,29.77,1011.0,,,,,,,,,,,,,,,Clear,72000.0,,,,,,,,,
KRDR,12-25-2020,11:56,METAR,Normal,190,7.0,,,9999.0,,-13.2,-14.7,29.80,1012.0,,,,,,,,,,,,,,,Clear,72000.0,,,,,,,,,
KRDR,12-25-2020,10:56,METAR,Normal,190,9.0,,,9999.0,,-13.4,-15.3,29.82,1012.7,,,,,,,,,,,,,,,Clear,72000.0,,,,,,,,,
KRDR,12-25-2020,09:56,METAR,Normal,180,10.0,,,9999.0,,-14.5,-16.5,29.84,1013.4,,,,,,,,,,,,,,,Clear,72000.0,,,,,,,,,
KRDR,12-25-2020,08:56,METAR,Normal,190,12.0,,,9999.0,,-15.5,-17.9,29.88,1014.8,,,,,,,,,,,,,,,Clear,72000.0,,,,,,,,,
KRDR,12-25-2020,07:56,METAR,Normal,180,13.0,,,9999.0,,-15.8,-18.4,29.90,1015.5,,,,,,,,,,,,,,,Clear,72000.0,,,,,,,,,
KRDR,12-25-2020,06:56,METAR,Normal,180,13.0,,,9999.0,,-16.2,-18.9,29.92,1016.2,,,,,,,,,,,,,,,Clear,72000.0,,,,,,,,,
KRDR,12-25-2020,05:56,METAR,Normal,170,11.0,,,9999.0,,-16.3,-19.0,29.98,1018.4,,,,,,,,,,,,,,,Clear,72000.0,,,,,,,,,
KRDR,12-25-2020,04:56,METAR,Normal,180,9.0,,,9999.0,,-16.0,-19.1,30.01,1019.5,,,,,,,,,,,,,,,,10000.0,6000.0,SCT,6000.0,OVC,10000.0,,,,
KRDR,12-25-2020,03:56,METAR,Normal,190,13.0,,,9999.0,,-16.6,-19.7,30.02,1019.9,,,,,,,,,,,,,,,,5500.0,5500.0,OVC,5500.0,,,,,,
KRDR,12-25-2020,02:56,METAR,Normal,180,10.0,,,9999.0,,-17.4,-20.4,30.07,1021.6,,,,,,,,,,,,,,,,5000.0,5000.0,OVC,5000.0,,,,,,
KRDR,12-25-2020,01:56,METAR,Normal,170,10.0,,,9999.0,,-18.6,-21.3,30.08,1022.0,,,,,,,,,,,,,,,,6500.0,6500.0,BKN,6500.0,,,,,,
KRDR,12-25-2020,00:56,METAR,Normal,180,7.0,,,9999.0,,-19.2,-21.8,30.11,1023.1,,,,,,,,,,,,,,,4/8 Partly Cloudy,72000.0,7500.0,SCT,7500.0,,,,,,
KRDR,12-24-2020,23:56,METAR,Normal,190,5.0,,,9999.0,,-19.3,-21.9,30.15,,,,,,,,,,,,,,,,4/8 Partly Cloudy,72000.0,9000.0,SCT,9100.0,,,,,,
KRDR,12-24-2020,22:56,METAR,Normal,200,3.0,,,9999.0,,-19.1,-21.9,30.16,1024.8,,,,,,,,,,,,,,,4/8 Partly Cloudy,72000.0,11000.0,SCT,11000.0,,,,,,
KRDR,12-24-2020,21:56,METAR,Normal,290,3.0,,,9999.0,,-17.3,-21.8,30.17,1025.0,,,,,,,,,,,,,,,2/8 Mostly Clear,72000.0,1700.0,FEW,1700.0,FEW,11000.0,,,,
KRDR,12-24-2020,20:56,METAR,Normal,310,3.0,,,9999.0,,-17.2,-21.9,30.18,1025.4,,,,,,,,,,,,,,,2/8 Mostly Clear,72000.0,1700.0,FEW,1700.0,FEW,11000.0,,,,
KRDR,12-24-2020,19:56,METAR,Calm,,0.0,,,9999.0,,-17.8,-22.2,30.16,1024.7,,,,,,,,,,,,,,,2/8 Mostly Clear,72000.0,1700.0,FEW,1700.0,,,,,,
KRDR,12-24-2020,18:56,METAR,Normal,340,4.0,,,9999.0,,-18.7,-22.4,30.17,1025.1,,,,,,,,,,,,,,,4/8 Partly Cloudy,72000.0,1700.0,SCT,1700.0,,,,,,
KRDR,12-24-2020,18:26,SPECI,Normal,320,6.0,,,9999.0,Mist,-19.0,-23.0,30.18,1025.4,10,,,,,,,,,,,,,,,1700.0,1700.0,BKN,1700.0,,,,,,
KRDR,12-24-2020,17:56,METAR,Normal,330,6.0,,,9999.0,Mist,-19.9,-23.0,30.20,1026.1,10,,,,,,,,,,,,,,4/8 Partly Cloudy,72000.0,1700.0,SCT,1700.0,,,,,,
KRDR,12-24-2020,17:36,SPECI,Normal,330,7.0,,,8000.0,Mist,-20.0,-23.0,30.20,1026.1,10,,,,,,,,,,,,,,,1500.0,1500.0,OVC,1500.0,,,,,,
KRDR,12-24-2020,16:56,METAR,Normal,360,10.0,,,8000.0,Mist,-21.3,-23.8,30.20,1026.1,10,,,,,,,,,,,,,,,1200.0,1200.0,BKN,1200.0,,,,,,
KRDR,12-24-2020,16:44,SPECI,Normal,10,10.0,,,6400.0,Mist,-21.0,-24.0,30.20,1026.1,,,,10,,,,,,,,,,,,1000.0,1000.0,OVC,1000.0,,,,,,
KRDR,12-24-2020,16:17,SPECI,Normal,360,12.0,,,9999.0,,-22.0,-25.0,30.20,1026.1,,,,,,,,,,,,,,,,900.0,1100.0,BKN,1100.0,,,,,,
KRDR,12-24-2020,16:16,SPECI,Normal,360,11.0,,,9999.0,,-22.0,-25.0,30.19,1025.8,,,,,,,,,,,,,,,,900.0,1300.0,BKN,1300.0,,,,,,
KRDR,12-24-2020,15:56,METAR,Normal,360,13.0,,,9999.0,,-22.5,-25.5,30.19,1025.8,,,,,,,,,,,,,,,2/8 Mostly Clear,72000.0,800.0,FEW,800.0,,,,,,
KRDR,12-24-2020,14:56,METAR,Normal,350,11.0,,,9999.0,,-23.6,-26.2,30.16,1024.9,,,,,,,,,,,,,,,2/8 Mostly Clear,72000.0,800.0,FEW,800.0,,,,,,
KRDR,12-24-2020,14:04,SPECI,Normal,360,8.0,,,9999.0,,-24.0,-27.0,30.14,1024.2,,,,,,,,,,,,,,,2/8 Mostly Clear,72000.0,700.0,FEW,700.0,,,,,,
KRDR,12-24-2020,13:56,METAR,Normal,350,8.0,,,9999.0,,-23.9,-26.7,30.14,1024.2,,,,,,,,,,,,,,,Clear,72000.0,,,,,,,,,
KRDR,12-24-2020,12:56,METAR,Normal,330,10.0,,,9999.0,,-23.6,-26.7,30.14,1024.2,,,,,,,,,,,,,,,Clear,72000.0,,,,,,,,,
KRDR,12-24-2020,11:56,METAR,Normal,330,11.0,,,9999.0,,-23.3,-26.4,30.13,1023.8,,,,,,,,,,,,,,,Clear,72000.0,,,,,,,,,
KRDR,12-24-2020,10:56,METAR,Normal,320,8.0,,,9999.0,,-23.3,-26.7,30.11,1023.1,,,,,,,,,,,,,,,Clear,72000.0,,,,,,,,,
KRDR,12-24-2020,09:56,METAR,Normal,330,8.0,,,9999.0,,-23.1,-26.5,30.09,1022.3,,,,,,,,,,,,,,,Clear,72000.0,,,,,,,,,
KRDR,12-24-2020,08:56,METAR,Normal,330,9.0,,,9999.0,,-22.7,-26.3,30.09,1022.2,,,,,,,,,,,,,,,Clear,72000.0,,,,,,,,,
KRDR,12-24-2020,07:56,METAR,Normal,340,12.0,,,9999.0,,-22.2,-25.8,30.08,1021.9,,,,,,,,,,,,,,,Clear,72000.0,,,,,,,,,
KRDR,12-24-2020,06:56,METAR,Normal,340,11.0,,,9999.0,,-22.2,-26.0,30.09,1022.2,,,,,,,,,,,,,,,Clear,72000.0,,,,,,,,,
KRDR,12-24-2020,05:56,METAR,Normal,330,10.0,,,9999.0,,-21.7,-25.8,30.09,1022.3,,,,,,,,,,,,,,,Clear,72000.0,,,,,,,,,
KRDR,12-24-2020,04:56,METAR,Normal,340,11.0,,,9999.0,,-21.3,-25.5,30.09,1022.2,,,,,,,,,,,,,,,Clear,72000.0,,,,,,,,,
KRDR,12-24-2020,03:56,METAR,Normal,350,12.0,,,9999.0,,-20.7,-25.3,30.08,1021.9,,,,,,,,,,,,,,,Clear,72000.0,,,,,,,,,
KRDR,12-24-2020,02:56,METAR,Normal,340,15.0,,,9999.0,,-20.5,-25.6,30.07,1021.4,,,,,,,,,,,,,,,Clear,72000.0,,,,,,,,,
KRDR,12-24-2020,01:56,METAR,Normal,340,17.0,23.0,350/27KTS,9999.0,,-20.0,-25.7,30.08,1021.8,,,,,,,,,,,,,,,2/8 Mostly Clear,72000.0,3000.0,FEW,3000.0,,,,,,
KRDR,12-24-2020,00:56,METAR,Normal,350,18.0,27.0,340/29KTS,9999.0,,-19.4,-25.3,30.07,1021.3,,,,,,,,,,,,,,,2/8 Mostly Clear,72000.0,3000.0,FEW,3000.0,,,,,,
KRDR,12-23-2020,23:56,METAR,Normal,350,21.0,27.0,350/30KTS,9999.0,,-18.9,-25.0,30.06,1021.0,,,,,,,,,,,,,,,2/8 Mostly Clear,72000.0,3000.0,FEW,3000.0,FEW,21000.0,,,,
KRDR,12-23-2020,22:56,METAR,Normal,340,22.0,27.0,350/35KTS,9999.0,,-18.2,-24.5,30.04,1020.2,,,,,,,,,,,,,,,2/8 Mostly Clear,72000.0,3000.0,FEW,3000.0,FEW,21000.0,,,,
KRDR,12-23-2020,21:56,METAR,Normal,340,24.0,31.0,360/34KTS,9999.0,,-16.9,-23.9,30.00,1018.7,,,,,,,,,,,,,,,4/8 Partly Cloudy,72000.0,3000.0,SCT,3000.0,SCT,21000.0,,,,
KRDR,12-23-2020,20:56,METAR,Normal,340,25.0,33.0,350/35KTS,9999.0,,-15.7,-22.5,29.97,1017.5,,,,,,,,,,,,,,,2/8 Mostly Clear,72000.0,1500.0,FEW,1500.0,FEW,21000.0,,,,
KRDR,12-23-2020,19:57,METAR,Normal,350,22.0,30.0,350/36KTS,9999.0,,-15.2,-20.0,29.96,1017.1,,,,,,,,,,,,,,,4/8 Partly Cloudy,72000.0,1500.0,FEW,1500.0,SCT,15000.0,SCT,21000.0,,
KRDR,12-23-2020,19:40,SPECI,Variable,350,25.0,29.0,,9999.0,,-15.0,-20.0,29.96,1017.0,,,,,,,,,,,,,,,,18000.0,1500.0,FEW,1500.0,BKN,18000.0,,,,
KRDR,12-23-2020,18:59,METAR,Normal,350,22.0,30.0,360/32KTS,9999.0,,-16.0,-19.8,29.96,1017.0,,,,,,,,,,,,,,,,1000.0,1300.0,BKN,1300.0,,,,,,
KRDR,12-23-2020,17:58,METAR,Normal,350,20.0,32.0,360/36KTS,6400.0,Blowing Snow/Mist,-17.2,-19.7,29.97,1017.3,,,,38,10,,,,,,,,TRACE,,,600.0,600.0,BKN,600.0,OVC,1500.0,,,,
KRDR,12-23-2020,16:56,METAR,Normal,350,29.0,36.0,360/38KTS,9999.0,,-16.8,-19.8,29.96,1017.0,,,,,,,,,,,,,,,,700.0,800.0,OVC,800.0,,,,,,
KRDR,12-23-2020,15:57,METAR,Normal,360,26.0,35.0,350/38KTS,9999.0,,-16.7,-19.5,29.94,1016.4,,,,,,,,,,,,,,,,600.0,800.0,OVC,800.0,,,,,,
KRDR,12-23-2020,14:55,METAR,Normal,360,26.0,35.0,360/40KTS,8000.0,Blowing Snow,-16.5,-19.0,29.90,1015.0,,,,38,,,,,,,,TRACE,,,,500.0,700.0,OVC,700.0,,,,,,
KRDR,12-23-2020,14:08,METAR,Normal,360,28.0,36.0,360/40KTS,3200.0,Blowing or Drifting Snow or Sand,-15.6,-17.6,29.87,1013.9,27,,,,,,,,,,,,,,,400.0,600.0,BKN,600.0,OVC,1400.0,,,,
KRDR,12-23-2020,12:56,METAR,Normal,360,26.0,40.0,360/43KTS,3200.0,Blowing or Drifting Snow or Sand,-15.1,-17.2,29.84,1013.0,27,,,,,,,,,,,,,,,500.0,700.0,BKN,700.0,OVC,1300.0,,,,
KRDR,12-23-2020,11:56,METAR,Normal,360,27.0,43.0,340/43KTS,3200.0,Light Snow/Blowing or Drifting Snow or Sand,-14.5,-16.5,29.79,1011.0,71,27,,,,,,,,,TRACE,,TRACE,,,400.0,700.0,BKN,700.0,OVC,1300.0,,,,
KRDR,12-23-2020,10:56,METAR,Normal,360,27.0,41.0,010/41KTS,4800.0,Light Snow,-13.4,-15.0,29.75,1009.6,71,,,,,,,,,,TRACE,,,,,200.0,1000.0,OVC,1000.0,,,,,,
KRDR,12-23-2020,10:11,SPECI,Normal,350,29.0,39.0,,4000.0,Light Snow,-12.0,-13.0,29.69,1007.4,,,,71,,,,,,,,,,,,400.0,600.0,BKN,600.0,OVC,1200.0,,,,
KRDR,12-23-2020,09:56,METAR,Normal,360,31.0,45.0,010/45KTS,9999.0,Light Snow,-11.4,-12.9,29.69,1007.4,71,,,,,,,,,,TRACE,,,,,500.0,700.0,BKN,700.0,OVC,1300.0,,,,
KRDR,12-23-2020,08:56,METAR,Normal,350,26.0,42.0,010/45KTS,9999.0,Light Snow,-8.9,-10.1,29.64,1005.6,71,,,,,,,,,,TRACE,TRACE,,,,400.0,700.0,BKN,700.0,OVC,1300.0,,,,
KRDR,12-23-2020,07:56,METAR,Normal,360,27.0,37.0,010/38KTS,9999.0,Light Snow,-6.2,-6.7,29.57,1003.0,71,,,,,,,,,,TRACE,,,,,500.0,700.0,BKN,700.0,OVC,1400.0,,,,
KRDR,12-23-2020,07:27,SPECI,Variable,10,26.0,33.0,,9999.0,Light Snow,-5.0,-5.0,29.55,1002.3,,,,71,,,,,,,,,,,,500.0,700.0,OVC,700.0,,,,,,
KRDR,12-23-2020,06:57,SPECI,Normal,350,23.0,32.0,,9999.0,,-4.0,-4.0,29.53,1001.7,,,,,,,,,,,,,,,,700.0,700.0,OVC,700.0,,,,,,
KRDR,12-23-2020,06:56,METAR,Normal,360,22.0,32.0,350/32KTS,9999.0,,-4.0,-4.1,29.53,1001.7,,,,,,,,,,,,,,,,700.0,700.0,OVC,700.0,,,,,,
KRDR,12-23-2020,05:56,METAR,Normal,10,20.0,27.0,010/30KTS,9999.0,,-2.7,-2.8,29.47,999.5,,,,,,,,,,,,,,,,900.0,900.0,OVC,900.0,,,,,,
KRDR,12-23-2020,05:34,SPECI,Normal,10,23.0,27.0,,9999.0,,-2.0,-2.0,29.47,999.5,,,,,,,,,,,,,,,,900.0,900.0,BKN,900.0,OVC,2900.0,,,,
KRDR,12-23-2020,05:14,SPECI,Normal,10,19.0,24.0,,9999.0,,-3.0,-3.0,29.46,999.3,,,,,,,,,,,,,,,,3000.0,1000.0,FEW,1000.0,OVC,3000.0,,,,
KRDR,12-23-2020,04:56,METAR,Normal,360,15.0,20.0,,9999.0,,-3.4,-3.5,29.45,998.9,,,,,,,,,,,,,,,,3100.0,3100.0,OVC,3100.0,,,,,,
KRDR,12-23-2020,03:56,METAR,Normal,350,12.0,,,9999.0,,-4.6,-4.7,29.42,,,,,,,,,,,,,,,,,13000.0,13000.0,BKN,13000.0,,,,,,
KRDR,12-23-2020,02:56,METAR,Normal,360,9.0,,,9999.0,,-5.7,-5.8,29.40,,,,,,,,,,,,,,,,,13000.0,13000.0,BKN,13000.0,,,,,,
KRDR,12-23-2020,01:56,METAR,Normal,50,7.0,,,9999.0,,-4.3,-4.4,29.38,996.7,,,,,,,,,,,,,,,Clear,72000.0,,,,,,,,,
KRDR,12-23-2020,00:56,METAR,Normal,40,4.0,,,9999.0,,-6.2,-6.3,29.39,997.1,,,,,,,,,,,,,,,Clear,72000.0,,,,,,,,,
KRDR,12-22-2020,23:56,METAR,Normal,40,5.0,,,9999.0,,-1.8,-2.9,29.38,996.6,,,,,,,,,,,,,,,Clear,72000.0,,,,,,,,,
KRDR,12-22-2020,22:56,METAR,Normal,110,7.0,,,9999.0,,-1.1,-2.5,29.40,997.2,,,,,,,,,,,,,,,Clear,72000.0,,,,,,,,,
KRDR,12-22-2020,21:56,METAR,Normal,120,11.0,,,9999.0,,0.9,-1.7,29.40,997.1,,,,,,,,,,,,,,,4/8 Partly Cloudy,72000.0,24000.0,SCT,24000.0,,,,,,
KRDR,12-22-2020,20:56,METAR,Normal,130,11.0,,,9999.0,,1.2,-1.7,29.40,997.2,,,,,,,,,,,,,,,,21000.0,11000.0,FEW,11000.0,BKN,21000.0,BKN,25000.0,,
KRDR,12-22-2020,19:56,METAR,Normal,140,10.0,,,9999.0,,1.3,-1.9,29.45,998.9,,,,,,,,,,,,,,,,21000.0,11000.0,FEW,11000.0,BKN,21000.0,,,,
KRDR,12-22-2020,18:56,METAR,Normal,150,10.0,,,9999.0,,0.6,-2.1,29.51,1001.0,,,,,,,,,,,,,,,,20000.0,12000.0,FEW,12000.0,BKN,20000.0,,,,
KRDR,12-22-2020,17:56,METAR,Normal,130,11.0,,,9999.0,,0.2,-2.2,29.54,1002.1,,,,,,,,,,,,,TRACE,,2/8 Mostly Clear,72000.0,17000.0,FEW,17000.0,FEW,20000.0,,,,
KRDR,12-22-2020,16:56,METAR,Normal,130,11.0,,,9999.0,,-0.4,-2.0,29.63,1005.3,,,,,,,,,,,,,,,,20000.0,7000.0,FEW,7000.0,FEW,12000.0,BKN,20000.0,,
KRDR,12-22-2020,15:56,METAR,Normal,150,10.0,,,9999.0,,-1.5,-2.2,29.68,1007.0,,,,,,,,,,,TRACE,,,,,7000.0,7000.0,BKN,7000.0,OVC,15000.0,,,,
KRDR,12-22-2020,15:02,SPECI,Normal,150,8.0,,,9999.0,,-3.0,-3.0,29.71,1008.2,,,,,,,,,,,,,,,,7500.0,7500.0,OVC,7500.0,,,,,,
KRDR,12-22-2020,14:56,METAR,Normal,150,10.0,,,9999.0,,-2.7,-3.0,29.72,1008.5,,,,,,,,,,,TRACE,TRACE,,,,7500.0,7500.0,OVC,7500.0,,,,,,
KRDR,12-22-2020,14:53,SPECI,Normal,150,11.0,,,9999.0,Precipitation,-3.0,-3.0,29.72,1008.5,41,,,,,,,,,,,,,,,7500.0,7500.0,OVC,7500.0,,,,,,
KRDR,12-22-2020,13:56,METAR,Normal,160,12.0,,,9999.0,,-3.2,-3.3,29.76,1010.0,,,,,,,,,,,,,,,,7000.0,5500.0,SCT,5500.0,BKN,7000.0,BKN,8000.0,,
KRDR,12-22-2020,12:56,METAR,Normal,160,8.0,,,9999.0,,-3.2,-3.3,29.79,1010.9,,,,,,,,,,,,,,,,7500.0,7500.0,OVC,7500.0,,,,,,
KRDR,12-22-2020,11:56,METAR,Normal,150,7.0,,,9999.0,,-3.8,-3.9,29.81,1011.6,,,,,,,,,,,,,,,,6500.0,6500.0,OVC,6500.0,,,,,,
KRDR,12-22-2020,10:56,METAR,Normal,170,8.0,,,9999.0,,-3.8,-3.9,29.84,1012.5,,,,,,,,,,,,,,,,7500.0,7500.0,OVC,7500.0,,,,,,
KRDR,12-22-2020,09:56,METAR,Normal,160,7.0,,,9999.0,,-3.9,-4.0,29.85,1012.7,,,,,,,,,,,,,,,,10000.0,8000.0,FEW,8000.0,BKN,10000.0,,,,
KRDR,12-22-2020,08:56,METAR,Normal,180,6.0,,,9999.0,,-4.6,-4.7,29.87,1013.4,,,,,,,,,,,,,,,,10000.0,10000.0,OVC,10000.0,,,,,,
KRDR,12-22-2020,07:56,METAR,Normal,170,7.0,,,9999.0,,-4.7,-4.8,29.86,1013.1,,,,,,,,,,,,,,,,11000.0,11000.0,OVC,11000.0,,,,,,
KRDR,12-22-2020,06:56,METAR,Normal,200,8.0,,,9999.0,,-6.0,-6.1,29.90,1014.5,,,,,,,,,,,,,,,,13000.0,13000.0,OVC,13000.0,,,,,,
KRDR,12-22-2020,05:56,METAR,Normal,190,5.0,,,9999.0,,-6.1,-6.2,29.90,1014.5,,,,,,,,,,,,,,,,14000.0,14000.0,OVC,14000.0,,,,,,
KRDR,12-22-2020,05:22,SPECI,Normal,180,6.0,,,9999.0,,-7.0,-7.0,29.91,1014.9,,,,,,,,,,,,,,,4/8 Partly Cloudy,72000.0,14000.0,SCT,14000.0,,,,,,
KRDR,12-22-2020,04:56,METAR,Normal,180,8.0,,,9999.0,,-10.5,-10.7,29.92,1015.4,,,,,,,,,,,,,,,Clear,72000.0,,,,,,,,,
KRDR,12-22-2020,03:56,METAR,Normal,170,6.0,,,9999.0,,-9.5,-9.7,29.94,1016.1,,,,,,,,,,,,,,,Clear,72000.0,,,,,,,,,
KRDR,12-22-2020,02:56,METAR,Normal,190,8.0,,,9999.0,,-10.4,-10.6,29.95,1016.6,,,,,,,,,,,,,,,Clear,72000.0,,,,,,,,,
KRDR,12-22-2020,01:56,METAR,Normal,180,6.0,,,9999.0,,-12.2,-12.6,29.96,1017.0,,,,,,,,,,,,,,,Clear,72000.0,,,,,,,,,
KRDR,12-22-2020,00:56,METAR,Normal,170,3.0,,,9999.0,,-11.0,-11.2,29.95,1016.5,,,,,,,,,,,,,,,Clear,72000.0,,,,,,,,,
KRDR,12-21-2020,23:56,METAR,Calm,,0.0,,,9999.0,,-9.5,-9.7,29.96,1016.7,,,,,,,,,,,,,,,2/8 Mostly Clear,72000.0,15000.0,FEW,15000.0,,,,,,
KRDR,12-21-2020,22:56,METAR,Calm,,0.0,,,9999.0,,-5.8,-5.9,29.95,1016.1,,,,,,,,,,,,,,,2/8 Mostly Clear,72000.0,1500.0,FEW,1500.0,,,,,,
KRDR,12-21-2020,22:16,SPECI,Normal,330,6.0,,,9999.0,,-3.0,-5.0,29.95,1016.0,,,,,,,,,,,,,,,4/8 Partly Cloudy,72000.0,1500.0,SCT,1500.0,,,,,,
KRDR,12-21-2020,21:56,METAR,Normal,310,8.0,,,9999.0,,-2.7,-4.4,29.95,1016.0,,,,,,,,,,,,,,,,1500.0,1500.0,BKN,1500.0,,,,,,
KRDR,12-21-2020,20:56,METAR,Normal,320,12.0,,,9999.0,,-2.9,-5.2,29.92,1014.9,,,,,,,,,,,,,,,,1600.0,1700.0,OVC,1700.0,,,,,,
KRDR,12-21-2020,20:46,SPECI,Normal,310,13.0,,,9999.0,,-3.0,-5.0,29.92,1014.9,,,,,,,,,,,,,,,,1700.0,1700.0,BKN,1700.0,,,,,,
KRDR,12-21-2020,19:56,METAR,Normal,310,9.0,,,9999.0,,-3.0,-6.8,29.91,1014.5,,,,,,,,,,,,,,,2/8 Mostly Clear,72000.0,1300.0,FEW,1300.0,,,,,,
KRDR,12-21-2020,18:56,METAR,Normal,320,10.0,,,9999.0,,-4.0,-7.6,29.89,1013.9,,,,,,,,,,,,,,,2/8 Mostly Clear,72000.0,1300.0,FEW,1300.0,,,,,,
KRDR,12-21-2020,18:34,SPECI,Normal,350,10.0,,,9999.0,,-4.0,-8.0,29.88,1013.5,,,,,,,,,,,,,,,4/8 Partly Cloudy,72000.0,1300.0,SCT,1300.0,,,,,,
KRDR,12-21-2020,18:16,SPECI,Normal,330,12.0,,,9999.0,,-5.0,-7.0,29.87,1013.2,,,,,,,,,,,,,,,,1100.0,1200.0,OVC,1200.0,,,,,,
KRDR,12-21-2020,17:56,METAR,Normal,330,11.0,,,9999.0,,-4.9,-6.9,29.88,1013.5,,,,,,,,,,,,,,,,1000.0,1000.0,OVC,1000.0,,,,,,
KRDR,12-21-2020,17:36,SPECI,Normal,330,12.0,,,9999.0,,-5.0,-7.0,29.87,1013.3,,,,,,,,,,,,,,,,1000.0,1100.0,OVC,1100.0,,,,,,
KRDR,12-21-2020,17:16,SPECI,Normal,330,14.0,,,9999.0,,-6.0,-7.0,29.87,1013.3,,,,,,,,,,,,,,,,1000.0,1000.0,OVC,1000.0,,,,,,
KRDR,12-21-2020,16:56,METAR,Normal,340,13.0,20.0,,9999.0,,-6.3,-7.5,29.86,1013.0,,,,,,,,,,,,,,,,1000.0,1100.0,OVC,1100.0,,,,,,
KRDR,12-21-2020,15:56,METAR,Normal,340,12.0,,,9999.0,,-7.5,-8.9,29.80,1011.0,,,,,,,,,,,,,,,,900.0,1000.0,BKN,1000.0,,,,,,
KRDR,12-21-2020,15:36,SPECI,Normal,340,11.0,,,9999.0,,-8.0,-9.0,29.79,1010.8,,,,,,,,,,,,,,,,1100.0,1200.0,BKN,1200.0,,,,,,
KRDR,12-21-2020,15:06,SPECI,Normal,330,11.0,18.0,,9999.0,,-9.0,-10.0,29.77,1010.1,,,,,,,,,,,,,,,,1400.0,1400.0,BKN,1400.0,,,,,,
KRDR,12-21-2020,14:56,METAR,Normal,350,13.0,,,9999.0,,-9.1,-10.7,29.75,1009.4,,,,,,,,,,,,TRACE,,,,1600.0,1600.0,BKN,1600.0,,,,,,
KRDR,12-21-2020,13:57,METAR,Normal,340,14.0,,340/29KTS,9999.0,,-9.0,-10.6,29.70,1007.7,,,,,,,,,,,,,,,4/8 Partly Cloudy,72000.0,1800.0,SCT,1800.0,,,,,,
KRDR,12-21-2020,13:54,SPECI,Normal,340,15.0,,,9999.0,,-9.0,-11.0,29.70,1007.7,,,,,,,,,,,,,,,,1800.0,1800.0,BKN,1800.0,,,,,,
KRDR,12-21-2020,12:06,SPECI,Normal,330,18.0,24.0,,9999.0,,-6.0,-8.0,29.60,1004.2,,,,,,,,,,,,,,,,1700.0,1700.0,BKN,1700.0,OVC,4000.0,,,,
KRDR,12-21-2020,11:56,METAR,Normal,330,17.0,23.0,340/30KTS,9999.0,,-5.5,-7.3,29.59,1003.8,,,,,,,,,,,,,,.02 IN,,3800.0,1600.0,SCT,1600.0,OVC,3800.0,,,,
KRDR,12-21-2020,11:06,SPECI,Normal,340,25.0,29.0,,9999.0,,-3.0,-5.0,29.53,1001.7,,,,,,,,,,,,,,,,3900.0,1600.0,FEW,1600.0,SCT,2600.0,OVC,3900.0,,
KRDR,12-21-2020,10:56,METAR,Normal,330,21.0,27.0,340/29KTS,9999.0,,-2.9,-4.6,29.52,1001.3,,,,,,,,,,,,,,,,2500.0,1600.0,FEW,1600.0,BKN,2700.0,OVC,3700.0,,
KRDR,12-21-2020,09:56,METAR,Normal,330,21.0,26.0,330/33KTS,9999.0,,-0.4,-1.5,29.48,999.8,,,,,,,,,,,,,,,,1800.0,1900.0,SCT,1900.0,OVC,2400.0,,,,
KRDR,12-21-2020,08:56,METAR,Normal,320,19.0,26.0,320/26KTS,9999.0,,1.7,0.8,29.45,998.7,,,,,,,,,,,,,,,,1600.0,1600.0,OVC,1600.0,,,,,,
KRDR,12-21-2020,08:46,SPECI,Normal,320,15.0,22.0,,9999.0,,2.0,1.0,29.43,998.0,,,,,,,,,,,,,,,,1400.0,1400.0,OVC,1400.0,,,,,,
KRDR,12-21-2020,08:16,SPECI,Normal,310,15.0,,,9999.0,,2.0,1.0,29.42,997.8,,,,,,,,,,,,,,,,1700.0,1700.0,BKN,1700.0,BKN,3200.0,OVC,5500.0,,
KRDR,12-21-2020,08:06,SPECI,Normal,310,16.0,25.0,,9999.0,,2.0,1.0,29.41,997.4,,,,,,,,,,,,,,,,3200.0,1800.0,FEW,1800.0,BKN,3200.0,BKN,5000.0,OVC,7000.0
KRDR,12-21-2020,07:56,METAR,Normal,300,16.0,23.0,310/26KTS,9999.0,,2.1,1.2,29.41,997.4,,,,,,,,,,,,,,,,2900.0,1800.0,FEW,1800.0,BKN,2900.0,BKN,3500.0,OVC,4900.0
KRDR,12-21-2020,07:46,SPECI,Normal,300,18.0,24.0,,9999.0,,2.0,1.0,29.40,997.1,,,,,,,,,,,,,,,,2900.0,1800.0,FEW,1800.0,BKN,2900.0,OVC,4900.0,,
KRDR,12-21-2020,07:36,SPECI,Normal,300,15.0,24.0,,9999.0,,2.0,1.0,29.40,997.1,,,,,,,,,,,,,,,,3000.0,3000.0,BKN,3000.0,BKN,3500.0,OVC,4400.0,,
KRDR,12-21-2020,07:26,SPECI,Normal,300,18.0,22.0,,9999.0,,2.0,1.0,29.39,996.7,,,,,,,,,,,,,,,,2900.0,2900.0,BKN,2900.0,OVC,3500.0,,,,
KRDR,12-21-2020,07:06,SPECI,Normal,300,15.0,24.0,,9999.0,,2.0,1.0,29.39,996.7,,,,,,,,,,,,,,,,3600.0,2500.0,SCT,2500.0,OVC,3600.0,,,,
KRDR,12-21-2020,06:56,METAR,Normal,300,16.0,24.0,,9999.0,,2.3,1.3,29.39,996.7,,,,,,,,,,,,,,,,2400.0,2500.0,BKN,2500.0,OVC,3600.0,,,,
KRDR,12-21-2020,06:16,SPECI,Normal,300,13.0,,,9999.0,,2.0,2.0,29.38,996.4,,,,,,,,,,,,,,,,2300.0,2300.0,BKN,2300.0,OVC,3300.0,,,,
KRDR,12-21-2020,05:56,METAR,Normal,280,13.0,,,9999.0,,2.1,2.0,29.38,996.4,,,,,,,,,,,,,.02 IN,,,3000.0,3000.0,OVC,3000.0,,,,,,
KRDR,12-21-2020,04:56,METAR,Normal,300,8.0,,,9999.0,,0.5,0.5,29.37,996.1,,,,,,,,,,,,,,,,2600.0,2600.0,BKN,2600.0,,,,,,
KRDR,12-21-2020,04:46,SPECI,Normal,300,8.0,,,9999.0,,0.0,0.0,29.37,996.2,,,,,,,,,,,,,,,,2600.0,2600.0,BKN,2600.0,,,,,,
KRDR,12-21-2020,04:36,SPECI,Normal,300,8.0,,,9999.0,,0.0,0.0,29.37,996.2,,,,,,,,,,,,,,,4/8 Partly Cloudy,72000.0,2600.0,SCT,2600.0,,,,,,
KRDR,12-21-2020,03:56,METAR,Normal,270,7.0,,,9999.0,,-1.8,-1.8,29.36,996.0,,,,,,,,,,,,,,,Clear,72000.0,,,,,,,,,
KRDR,12-21-2020,02:59,METAR,Normal,210,5.0,,,9999.0,,-1.2,-1.2,29.36,996.0,,,,,,,,,,,,,,,,3400.0,2700.0,SCT,2700.0,BKN,3400.0,,,,
KRDR,12-21-2020,02:41,SPECI,Normal,200,7.0,,,9999.0,,0.0,0.0,29.37,996.4,,,,,,,,,,,,,,,,2300.0,1100.0,FEW,1100.0,BKN,2400.0,,,,
KRDR,12-21-2020,02:24,SPECI,Normal,200,6.0,,,9999.0,,0.0,0.0,29.37,996.4,,,,,,,,,,,,,,,,600.0,600.0,SCT,600.0,BKN,1200.0,BKN,1800.0,,
KRDR,12-21-2020,02:14,SPECI,Normal,180,11.0,,,9999.0,,0.0,0.0,29.37,996.3,,,,,,,,,,,,,,,,600.0,600.0,SCT,600.0,OVC,1300.0,,,,
KRDR,12-21-2020,01:56,METAR,Normal,190,5.0,,,8000.0,Light Snow/Mist,-0.4,-0.4,29.38,996.7,71,10,,,,,,,,,.01 IN,,,,,1200.0,500.0,FEW,500.0,BKN,1400.0,OVC,2000.0,,
KRDR,12-21-2020,01:05,SPECI,Normal,180,10.0,,,4800.0,Light Snow/Mist,-1.0,-1.0,29.40,997.4,71,10,,,,,,,,,,,,,,600.0,600.0,BKN,600.0,OVC,1300.0,,,,
KRDR,12-21-2020,00:56,METAR,Normal,170,9.0,,,8000.0,Light Snow/Mist,-1.0,-1.0,29.40,997.4,71,10,,,,,,,,,.02 IN,,,,,600.0,600.0,SCT,600.0,OVC,1300.0,,,,
KRDR,12-21-2020,00:07,SPECI,Normal,160,11.0,,,3600.0,Light Snow/Mist,-1.0,-1.0,29.43,998.4,71,10,,,,,,,,,,,,,,1400.0,1400.0,OVC,1400.0,,,,,,
KRDR,12-20-2020,23:56,METAR,Normal,160,11.0,,,3200.0,Light Snow/Mist,-1.2,-1.2,29.43,998.4,71,10,,,,,,,,,.02 IN,,.02 IN,,,1600.0,1600.0,OVC,1600.0,,,,,,
KRDR,12-20-2020,23:16,SPECI,Normal,150,9.0,,,4000.0,Light Snow/Mist,-1.0,-1.0,29.45,999.0,71,10,,,,,,,,,,,,,,1500.0,1500.0,BKN,1500.0,OVC,2300.0,,,,
KRDR,12-20-2020,22:56,METAR,Normal,160,10.0,,,4000.0,Light Snow/Mist,-1.4,-1.5,29.45,999.0,71,10,,,,,,,,,TRACE,,,,,2300.0,1500.0,FEW,1500.0,OVC,2300.0,,,,
KRDR,12-20-2020,22:07,SPECI,Normal,160,14.0,,,2400.0,Light Snow/Mist,-1.0,-2.0,29.47,999.6,71,10,,,,,,,,,,,,,,2800.0,2800.0,BKN,2800.0,,,,,,
KRDR,12-20-2020,22:02,SPECI,Normal,160,11.0,,,2800.0,Light Snow/Mist,0.0,-3.0,29.48,1000.0,71,10,,,,,,,,,,,,,,3000.0,3000.0,OVC,3000.0,,,,,,
KRDR,12-20-2020,21:56,METAR,Normal,160,12.0,,,6400.0,Light Snow/Mist,0.0,-3.0,29.48,999.9,71,10,,,,,,,,,TRACE,,,,,2800.0,2000.0,FEW,2000.0,BKN,2800.0,OVC,3800.0,,
KRDR,12-20-2020,21:54,SPECI,Normal,160,12.0,,,6400.0,Light Snow/Mist,0.0,-3.0,29.48,999.9,71,10,,,,,,,,,TRACE,,,,,2800.0,2000.0,FEW,2000.0,BKN,2800.0,OVC,3800.0,,
KRDR,12-20-2020,21:47,SPECI,Normal,160,13.0,,,9999.0,Light Snow,0.0,-3.0,29.49,1000.2,71,,,,,,,,,,,,,,,5000.0,2200.0,FEW,2200.0,OVC,5000.0,,,,
KRDR,12-20-2020,21:37,SPECI,Normal,160,12.0,,,9999.0,,0.0,-3.0,29.49,1000.2,,,,,,,,,,,,,,,,5000.0,5000.0,BKN,5000.0,,,,,,
KRDR,12-20-2020,21:25,SPECI,Normal,160,11.0,,,9999.0,Light Snow,-1.0,-3.0,29.50,1000.6,71,,,,,,,,,,,,,,,5000.0,5000.0,OVC,5000.0,,,,,,
KRDR,12-20-2020,20:56,METAR,Normal,160,11.0,,,9999.0,,-0.9,-3.4,29.52,1001.2,,,,,,,,,,,,,,,,5500.0,3900.0,SCT,3900.0,OVC,5500.0,,,,
KRDR,12-20-2020,19:56,METAR,Normal,170,7.0,,,9999.0,,-1.4,-3.6,29.57,1002.9,,,,,,,,,,,,,,,,4100.0,4100.0,BKN,4100.0,OVC,4900.0,,,,
KRDR,12-20-2020,18:56,METAR,Normal,170,7.0,,,9999.0,,-1.8,-3.5,29.60,1003.8,,,,,,,,,,,,,,,,8000.0,8000.0,OVC,8000.0,,,,,,
KRDR,12-20-2020,17:56,METAR,Normal,210,8.0,,,9999.0,,-2.5,-3.6,29.67,1006.2,,,,,,,,,,,,,,,,13000.0,13000.0,OVC,13000.0,,,,,,
KRDR,12-20-2020,16:56,METAR,Normal,200,6.0,,,9999.0,,-3.1,-3.4,29.71,1007.6,,,,,,,,,,,,,,,,15000.0,15000.0,OVC,15000.0,,,,,,
KRDR,12-20-2020,15:56,METAR,Calm,,0.0,,,9999.0,,-5.6,-5.7,29.72,1008.1,,,,,,,,,,,,,,,,19000.0,19000.0,OVC,19000.0,,,,,,
KRDR,12-20-2020,14:56,METAR,Calm,,0.0,,,9999.0,,-7.8,-7.9,29.74,1009.1,,,,,,,,,,,,,,,,20000.0,20000.0,BKN,20000.0,,,,,,
KRDR,12-20-2020,13:56,METAR,Normal,280,4.0,,,9999.0,,-7.5,-7.9,29.74,1009.0,,,,,,,,,,,,,,,Clear,72000.0,,,,,,,,,
KRDR,12-20-2020,12:56,METAR,Normal,270,5.0,,,9999.0,,-7.5,-8.2,29.76,1009.7,,,,,,,,,,,,,,,Clear,72000.0,,,,,,,,,
KRDR,12-20-2020,11:56,METAR,Normal,320,7.0,,,9999.0,,-6.9,-8.0,29.74,1009.0,,,,,,,,,,,,,,,Clear,72000.0,,,,,,,,,
KRDR,12-20-2020,10:56,METAR,Normal,310,7.0,,,9999.0,,-4.6,-5.9,29.75,1009.2,,,,,,,,,,,,,,,Clear,72000.0,,,,,,,,,
KRDR,12-20-2020,09:56,METAR,Normal,320,8.0,,,9999.0,,-2.9,-4.3,29.73,1008.5,,,,,,,,,,,,,,,Clear,72000.0,,,,,,,,,
KRDR,12-20-2020,08:56,METAR,Normal,320,13.0,,,9999.0,,-1.1,-3.3,29.73,1008.4,,,,,,,,,,,,,,,Clear,72000.0,,,,,,,,,
KRDR,12-20-2020,07:56,METAR,Normal,320,18.0,24.0,320/32KTS,9999.0,,0.9,-2.3,29.70,1007.4,,,,,,,,,,,,,,,Clear,72000.0,,,,,,,,,
KRDR,12-20-2020,07:36,SPECI,Normal,320,19.0,30.0,,9999.0,,2.0,-2.0,29.68,1006.7,,,,,,,,,,,,,,,4/8 Partly Cloudy,72000.0,2600.0,SCT,2600.0,,,,,,
KRDR,12-20-2020,07:06,SPECI,Normal,300,17.0,20.0,,9999.0,,3.0,0.0,29.66,1006.0,,,,,,,,,,,,,,,,2700.0,2700.0,BKN,2700.0,,,,,,
KRDR,12-20-2020,06:56,METAR,Normal,300,16.0,21.0,300/26KTS,9999.0,,3.0,-0.3,29.66,1006.0,,,,,,,,,,,,,,,4/8 Partly Cloudy,72000.0,3000.0,SCT,3000.0,,,,,,
KRDR,12-20-2020,05:56,METAR,Normal,290,14.0,22.0,,9999.0,,4.2,0.2,29.64,1005.3,,,,,,,,,,,,,,,,5000.0,5000.0,OVC,5000.0,,,,,,
KRDR,12-20-2020,04:56,METAR,Normal,290,16.0,,,9999.0,,3.8,0.3,29.61,1004.4,,,,,,,,,,,,,,,Clear,72000.0,,,,,,,,,
KRDR,12-20-2020,03:56,METAR,Normal,270,11.0,,,9999.0,,3.0,-0.1,29.61,1004.5,,,,,,,,,,,,,,,Clear,72000.0,,,,,,,,,
KRDR,12-20-2020,02:56,METAR,Normal,240,10.0,,,9999.0,,-1.3,-5.7,29.61,1004.8,,,,,,,,,,,,,,,Clear,72000.0,,,,,,,,,
KRDR,12-20-2020,01:56,METAR,Normal,210,13.0,,,9999.0,,-1.0,-6.6,29.60,1004.5,,,,,,,,,,,,,,,4/8 Partly Cloudy,72000.0,14000.0,SCT,14000.0,,,,,,
KRDR,12-20-2020,00:56,METAR,Normal,210,15.0,23.0,190/27KTS,9999.0,,-0.6,-7.6,29.62,1005.3,,,,,,,,,,,,,,,,12000.0,12000.0,BKN,12000.0,BKN,15000.0,,,,
KRDR,12-19-2020,23:56,METAR,Normal,200,18.0,25.0,190/26KTS,9999.0,,-0.9,-8.8,29.64,1006.0,,,,,,,,,,,,,,,,23000.0,23000.0,BKN,23000.0,,,,,,
KRDR,12-19-2020,22:56,METAR,Normal,190,18.0,23.0,,9999.0,,-1.6,-9.2,29.64,1006.0,,,,,,,,,,,,,,,,23000.0,23000.0,BKN,23000.0,,,,,,
KRDR,12-19-2020,21:56,METAR,Normal,180,20.0,,180/26KTS,9999.0,,-1.6,-9.2,29.65,1006.4,,,,,,,,,,,,,,,,22000.0,18000.0,SCT,18000.0,BKN,22000.0,,,,
KRDR,12-19-2020,20:56,METAR,Normal,180,19.0,26.0,180/26KTS,9999.0,,-1.7,-9.3,29.68,1007.4,,,,,,,,,,,,,,,,22000.0,18000.0,SCT,18000.0,BKN,22000.0,,,,
KRDR,12-19-2020,19:56,METAR,Normal,180,20.0,26.0,190/29KTS,9999.0,,-3.0,-10.3,29.71,1008.5,,,,,,,,,,,,,,,4/8 Partly Cloudy,72000.0,18000.0,FEW,18000.0,SCT,22000.0,,,,
KRDR,12-19-2020,18:56,METAR,Normal,180,22.0,25.0,170/26KTS,9999.0,,-4.2,-10.8,29.75,1009.9,,,,,,,,,,,,,,,4/8 Partly Cloudy,72000.0,22000.0,SCT,22000.0,,,,,,
KRDR,12-19-2020,17:56,METAR,Normal,180,15.0,23.0,,9999.0,,-5.6,-11.9,29.81,1012.0,,,,,,,,,,,,,,,4/8 Partly Cloudy,72000.0,22000.0,SCT,22000.0,,,,,,
KRDR,12-19-2020,16:56,METAR,Normal,180,15.0,,,9999.0,,-8.4,-13.5,29.86,1013.7,,,,,,,,,,,,,,,4/8 Partly Cloudy,72000.0,22000.0,SCT,22000.0,,,,,,
KRDR,12-19-2020,15:56,METAR,Normal,180,13.0,,,9999.0,,-11.1,-14.4,29.90,1015.2,,,,,,,,,,,,,,,2/8 Mostly Clear,72000.0,22000.0,FEW,22000.0,,,,,,
KRDR,12-19-2020,14:56,METAR,Normal,180,13.0,,,9999.0,,-13.3,-15.8,29.93,1016.3,,,,,,,,,,,,,,,2/8 Mostly Clear,72000.0,22000.0,FEW,22000.0,,,,,,
KRDR,12-19-2020,13:56,METAR,Normal,180,11.0,,,9999.0,,-14.9,-16.9,29.95,1017.0,,,,,,,,,,,,,,,Clear,72000.0,,,,,,,,,
KRDR,12-19-2020,11:56,METAR,Normal,190,8.0,,,9999.0,,-16.9,-18.6,30.00,1018.7,,,,,,,,,,,,,,,Clear,72000.0,,,,,,,,,
KRDR,12-19-2020,10:56,METAR,Normal,190,6.0,,,9999.0,,-18.3,-20.0,30.05,1020.4,,,,,,,,,,,,,,,Clear,72000.0,,,,,,,,,
KRDR,12-19-2020,09:56,METAR,Normal,220,5.0,,,9999.0,,-17.9,-19.6,30.07,1021.0,,,,,,,,,,,,,,,Clear,72000.0,,,,,,,,,
KRDR,12-19-2020,08:56,METAR,Normal,190,5.0,,,9999.0,,-17.6,-19.6,30.10,1022.0,,,,,,,,,,,,,,,Clear,72000.0,,,,,,,,,
KRDR,12-19-2020,07:56,METAR,Normal,250,4.0,,,9999.0,,-19.0,-21.1,30.11,1022.4,,,,,,,,,,,,,,,Clear,72000.0,,,,,,,,,
KRDR,12-19-2020,06:56,METAR,Calm,,0.0,,,9999.0,,-17.7,-19.7,30.12,1022.5,,,,,,,,,,,,,,,Clear,72000.0,,,,,,,,,
KRDR,12-19-2020,05:56,METAR,Normal,300,5.0,,,9999.0,,-17.6,-19.6,30.15,1023.4,,,,,,,,,,,,,,,Clear,72000.0,,,,,,,,,
KRDR,12-19-2020,04:56,METAR,Normal,290,4.0,,,9999.0,,-16.6,-18.6,30.14,1023.0,,,,,,,,,,,,,,,Clear,72000.0,,,,,,,,,
KRDR,12-19-2020,03:56,METAR,Normal,300,7.0,,,9999.0,,-16.0,-17.8,30.15,1023.4,,,,,,,,,,,,,,,Clear,72000.0,,,,,,,,,
KRDR,12-19-2020,02:56,METAR,Normal,310,7.0,,,9999.0,,-14.0,-16.4,30.14,1023.0,,,,,,,,,,,,,,,Clear,72000.0,,,,,,,,,
KRDR,12-19-2020,01:56,METAR,Normal,310,6.0,,,9999.0,,-13.2,-15.8,30.13,1022.6,,,,,,,,,,,,,,,Clear,72000.0,,,,,,,,,
KRDR,12-19-2020,00:56,METAR,Normal,320,7.0,,,9999.0,,-12.8,-15.4,30.11,1021.9,,,,,,,,,,,,,,,Clear,72000.0,,,,,,,,,
KRDR,12-18-2020,23:56,METAR,Normal,320,8.0,,,9999.0,,-11.7,-14.2,30.10,1021.5,,,,,,,,,,,,,,,2/8 Mostly Clear,72000.0,2000.0,FEW,2000.0,,,,,,
KRDR,12-18-2020,23:06,SPECI,Normal,330,11.0,,,9999.0,,-10.0,-14.0,30.07,1020.4,,,,,,,,,,,,,,,4/8 Partly Cloudy,72000.0,2000.0,SCT,2000.0,,,,,,
KRDR,12-18-2020,22:56,METAR,Normal,320,10.0,,,9999.0,,-10.0,-13.6,30.07,1020.4,,,,,,,,,,,,,,,,2300.0,1900.0,SCT,1900.0,BKN,2300.0,,,,
KRDR,12-18-2020,21:56,METAR,Normal,330,12.0,,,9999.0,,-8.6,-12.9,30.03,1019.0,,,,,,,,,,,,,,,,1400.0,1600.0,OVC,1600.0,,,,,,
KRDR,12-18-2020,21:36,SPECI,Normal,330,13.0,,,9999.0,,-8.0,-13.0,30.02,1018.6,,,,,,,,,,,,,,,,1400.0,1500.0,OVC,1500.0,,,,,,
KRDR,12-18-2020,21:06,SPECI,Normal,330,16.0,,,9999.0,,-8.0,-13.0,30.00,1017.9,,,,,,,,,,,,,,,,1300.0,1400.0,OVC,1400.0,,,,,,
KRDR,12-18-2020,20:56,METAR,Normal,330,19.0,,320/26KTS,9999.0,,-8.0,-12.4,30.00,1017.9,,,,,,,,,,,,,,,,1400.0,1500.0,OVC,1500.0,,,,,,
KRDR,12-18-2020,20:26,SPECI,Normal,340,20.0,25.0,,9999.0,,-7.0,-12.0,29.97,1016.9,,,,,,,,,,,,,,,,1700.0,1700.0,BKN,1700.0,BKN,2200.0,,,,
KRDR,12-18-2020,20:16,SPECI,Normal,330,20.0,26.0,,9999.0,,-7.0,-12.0,29.97,1016.9,,,,,,,,,,,,,,,,2100.0,2200.0,BKN,2200.0,,,,,,
KRDR,12-18-2020,19:56,METAR,Normal,320,17.0,24.0,330/29KTS,9999.0,,-6.8,-12.3,29.95,1016.2,,,,,,,,,,,,,,,2/8 Mostly Clear,72000.0,2300.0,FEW,2300.0,,,,,,
KRDR,12-18-2020,18:56,METAR,Normal,310,22.0,31.0,320/31KTS,9999.0,,-3.9,-8.4,29.90,1014.4,,,,,,,,,,,,,,,2/8 Mostly Clear,72000.0,2200.0,FEW,2200.0,,,,,,
KRDR,12-18-2020,18:06,SPECI,Normal,320,19.0,26.0,,9999.0,Mist,-2.0,-5.0,29.87,1013.3,10,,,,,,,,,,,,,,,1800.0,2000.0,OVC,2000.0,,,,,,
KRDR,12-18-2020,17:56,METAR,Normal,320,22.0,27.0,320/28KTS,8000.0,Mist,-2.2,-4.9,29.87,1013.3,10,,,,,,,,,,,,,,,1800.0,1800.0,OVC,1800.0,,,,,,
KRDR,12-18-2020,16:56,METAR,Normal,310,17.0,,,9999.0,,-0.4,-1.5,29.84,1012.2,,,,,,,,,,,,,,,,1400.0,1500.0,OVC,1500.0,,,,,,
KRDR,12-18-2020,15:56,METAR,Normal,250,8.0,,,8000.0,Mist,-1.9,-2.2,29.80,1011.0,10,,,,,,,,,,,,,,,1800.0,1800.0,BKN,1800.0,OVC,10000.0,,,,
KRDR,12-18-2020,15:32,SPECI,Normal,220,8.0,,,8000.0,Mist,-2.0,-2.0,29.78,1010.3,10,,,,,,,,,,,,,,,2200.0,2200.0,BKN,2200.0,OVC,10000.0,,,,
KRDR,12-18-2020,14:56,METAR,Normal,210,7.0,,,9999.0,Mist,-2.7,-2.8,29.77,1010.0,10,,,,,,,,,,,,,,,10000.0,1000.0,FEW,1000.0,BKN,10000.0,BKN,25000.0,,
KRDR,12-18-2020,14:12,METAR,Normal,210,10.0,,,8000.0,Mist,-3.0,-3.0,29.75,1009.4,10,,,,,,,,,,,,,,,9500.0,9500.0,OVC,9600.0,,,,,,
KRDR,12-18-2020,14:12,SPECI,Normal,210,10.0,,,8000.0,Mist,-3.0,-3.0,29.75,1009.4,10,,,,,,,,,,,,,,,9500.0,9500.0,OVC,9600.0,,,,,,
KRDR,12-18-2020,12:56,METAR,Normal,190,13.0,,,9999.0,,-2.6,-2.7,29.74,1008.9,,,,,,,,,,,,,,,,1000.0,1000.0,BKN,1000.0,,,,,,
KRDR,12-18-2020,11:56,METAR,Normal,180,15.0,21.0,,9999.0,,-2.6,-2.7,29.73,1008.6,,,,,,,,,,,,,,,,900.0,1000.0,OVC,1000.0,,,,,,
KRDR,12-18-2020,11:16,SPECI,Normal,180,13.0,,,9999.0,,-2.0,-3.0,29.75,1009.2,,,,,,,,,,,,,,,,1000.0,1000.0,OVC,1000.0,,,,,,
KRDR,12-18-2020,10:56,METAR,Normal,180,13.0,,,9999.0,,-2.5,-2.6,29.75,1009.2,,,,,,,,,,,,,,,,1000.0,1100.0,OVC,1100.0,,,,,,
KRDR,12-18-2020,10:06,SPECI,Normal,180,11.0,18.0,,9999.0,,-2.0,-2.0,29.76,1009.5,,,,,,,,,,,,,,,,1000.0,1100.0,OVC,1100.0,,,,,,
KRDR,12-18-2020,09:56,METAR,Normal,170,13.0,20.0,,9999.0,,-2.4,-2.5,29.77,1009.8,,,,,,,,,,,,,,,,1000.0,1000.0,OVC,1000.0,,,,,,
KRDR,12-18-2020,09:26,SPECI,Normal,180,11.0,,,9999.0,,-2.0,-3.0,29.78,1010.2,,,,,,,,,,,,,,,,1000.0,1000.0,OVC,1000.0,,,,,,
KRDR,12-18-2020,07:26,SPECI,Normal,170,13.0,,,9999.0,,-3.0,-3.0,29.79,1010.5,,,,,,,,,,,,,,,,19000.0,1100.0,FEW,1100.0,BKN,19000.0,,,,
KRDR,12-18-2020,05:56,METAR,Normal,170,16.0,,,9999.0,,-3.3,-3.4,29.81,1011.2,,,,,,,,,,,,,,,,19000.0,19000.0,BKN,19000.0,,,,,,
KRDR,12-18-2020,04:56,METAR,Normal,170,14.0,,,9999.0,,-4.0,-4.1,29.83,1012.0,,,,,,,,,,,,,,,,19000.0,19000.0,BKN,19000.0,,,,,,
KRDR,12-18-2020,03:56,METAR,Normal,170,14.0,,,9999.0,,-4.7,-4.8,29.85,1012.7,,,,,,,,,,,,,,,,19000.0,19000.0,BKN,19000.0,,,,,,
KRDR,12-18-2020,02:56,METAR,Normal,170,8.0,,,9999.0,,-5.9,-6.0,29.87,1013.4,,,,,,,,,,,,,,,,17000.0,17000.0,BKN,17000.0,,,,,,
KRDR,12-18-2020,01:56,METAR,Normal,170,7.0,,,9999.0,,-5.8,-5.9,29.88,1013.8,,,,,,,,,,,,,,,,15000.0,1000.0,SCT,1000.0,BKN,15000.0,,,,
KRDR,12-18-2020,00:56,METAR,Normal,170,9.0,,,9999.0,,-3.9,-4.0,29.89,1014.1,,,,,,,,,,,,,,,4/8 Partly Cloudy,72000.0,700.0,SCT,700.0,,,,,,
KRDR,12-18-2020,00:46,SPECI,Normal,150,10.0,,,9999.0,,-3.0,-4.0,29.88,1013.7,,,,,,,,,,,,,,,,700.0,700.0,BKN,700.0,,,,,,
KRDR,12-17-2020,23:56,METAR,Normal,170,15.0,,,9999.0,,-2.9,-3.0,29.90,1014.4,,,,,,,,,,,,,,,,600.0,600.0,OVC,600.0,,,,,,
KRDR,12-17-2020,22:56,METAR,Normal,170,12.0,,,9999.0,,-2.6,-2.7,29.91,1014.6,,,,,,,,,,,,,,,,500.0,600.0,OVC,600.0,,,,,,
KRDR,12-17-2020,21:56,METAR,Normal,170,9.0,,,9999.0,,-2.8,-2.9,29.91,1014.7,,,,,,,,,,,,,,,,500.0,500.0,OVC,500.0,,,,,,
KRDR,12-17-2020,21:16,SPECI,Normal,170,8.0,,,9999.0,,-2.0,-2.0,29.91,1014.6,,,,,,,,,,,,,,,,600.0,700.0,OVC,700.0,,,,,,
KRDR,12-17-2020,20:56,METAR,Normal,200,12.0,,,9999.0,,-1.6,-1.7,29.92,1015.0,,,,,,,,,,,,,,,,600.0,600.0,OVC,600.0,,,,,,
KRDR,12-17-2020,20:36,SPECI,Normal,190,12.0,,,9999.0,Mist,-2.0,-2.0,29.91,1014.6,10,,,,,,,,,,,,,,,400.0,500.0,OVC,500.0,,,,,,
KRDR,12-17-2020,19:56,METAR,Normal,190,8.0,,,9999.0,Mist,-2.2,-2.2,29.90,1014.4,10,,,,,,,,,,,,,,,300.0,400.0,OVC,400.0,,,,,,
KRDR,12-17-2020,19:06,SPECI,Normal,170,9.0,,,9999.0,Mist,-2.0,-2.0,29.91,1014.7,10,,,,,,,,,,,,,,,500.0,500.0,OVC,500.0,,,,,,
KRDR,12-17-2020,18:56,METAR,Normal,180,10.0,,,9999.0,Mist,-1.8,-1.9,29.92,1015.0,10,,,,,,,,,,,,,,,500.0,600.0,OVC,600.0,,,,,,
KRDR,12-17-2020,18:26,SPECI,Normal,190,8.0,,,9999.0,Mist,-1.0,-2.0,29.92,1015.0,10,,,,,,,,,,,,,,,600.0,600.0,OVC,600.0,,,,,,
KRDR,12-17-2020,17:56,METAR,Normal,170,8.0,,,9999.0,,-1.6,-1.7,29.93,1015.5,,,,,,,,,,,,,,,,600.0,700.0,OVC,700.0,,,,,,
KRDR,12-17-2020,16:56,METAR,Normal,200,8.0,,,9999.0,Mist,-1.7,-1.8,29.94,1015.7,10,,,,,,,,,,,,,,,700.0,700.0,OVC,700.0,,,,,,
KRDR,12-17-2020,16:26,SPECI,Normal,170,6.0,,,9999.0,,-2.0,-2.0,29.94,1015.7,,,,,,,,,,,,,,,,700.0,700.0,OVC,700.0,,,,,,
KRDR,12-17-2020,15:56,METAR,Normal,180,4.0,,,9999.0,,-2.2,-2.3,29.94,1015.7,,,,,,,,,,,,,,,,800.0,800.0,OVC,800.0,,,,,,
KRDR,12-17-2020,14:56,METAR,Calm,,0.0,,,9999.0,,-2.8,-2.9,29.93,1015.4,,,,,,,,,,,,,,,,900.0,900.0,OVC,900.0,,,,,,
KRDR,12-17-2020,14:26,SPECI,Calm,,0.0,,,9999.0,,-3.0,-3.0,29.92,1015.0,,,,,,,,,,,,,,,,900.0,900.0,OVC,900.0,,,,,,
KRDR,12-17-2020,13:56,METAR,Calm,,0.0,,,9999.0,,-3.3,-3.4,29.92,1015.0,,,,,,,,,,,,,,,,900.0,1000.0,OVC,1000.0,,,,,,
KRDR,12-17-2020,13:36,SPECI,Calm,,0.0,,,9999.0,,-3.0,-3.0,29.92,1015.0,,,,,,,,,,,,,,,,1000.0,1000.0,OVC,1000.0,,,,,,
KRDR,12-17-2020,12:56,METAR,Normal,330,3.0,,,9999.0,,-3.1,-3.2,29.93,1015.3,,,,,,,,,,,,,,,,1100.0,1100.0,OVC,1100.0,,,,,,
KRDR,12-17-2020,12:27,SPECI,Normal,300,5.0,,,9999.0,,-3.0,-3.0,29.92,1015.0,,,,,,,,,,,,,,,,1100.0,1100.0,OVC,1100.0,,,,,,
KRDR,12-17-2020,11:56,METAR,Normal,310,7.0,,,9999.0,,-2.5,-2.6,29.92,1015.0,,,,,,,,,,,,,,,,1200.0,1200.0,OVC,1200.0,,,,,,
KRDR,12-17-2020,11:46,SPECI,Normal,320,7.0,,,9999.0,,-2.0,-2.0,29.91,1014.6,,,,,,,,,,,,,,,,1100.0,1200.0,OVC,1200.0,,,,,,
KRDR,12-17-2020,10:56,METAR,Normal,320,5.0,,,9999.0,,-1.7,-1.8,29.92,1015.0,,,,,,,,,,,,,,,,1000.0,1100.0,OVC,1100.0,,,,,,
KRDR,12-17-2020,10:36,SPECI,Normal,330,6.0,,,9999.0,,-2.0,-2.0,29.91,1014.6,,,,,,,,,,,,,,,,900.0,1000.0,OVC,1000.0,,,,,,
KRDR,12-17-2020,09:56,METAR,Normal,280,3.0,,,9999.0,,-2.4,-2.4,29.91,1014.6,,,,,,,,,,,,,,,,900.0,900.0,OVC,900.0,,,,,,
KRDR,12-17-2020,08:56,METAR,Calm,,0.0,,,9999.0,,-2.8,-2.8,29.89,1013.9,,,,,,,,,,,,,,,,1000.0,1000.0,OVC,1000.0,,,,,,
KRDR,12-17-2020,08:31,SPECI,Normal,200,3.0,,,9999.0,,-3.0,-3.0,29.88,1013.6,,,,,,,,,,,,,,,,800.0,1000.0,OVC,1000.0,,,,,,
KRDR,12-17-2020,07:56,METAR,Normal,220,3.0,,,9999.0,,-3.1,-3.2,29.88,1013.6,,,,,,,,,,,,,,,,700.0,800.0,OVC,800.0,,,,,,
KRDR,12-17-2020,07:16,SPECI,Calm,,0.0,,,9999.0,,-4.0,-4.0,29.88,1013.6,,,,,,,,,,,,,,,,800.0,800.0,OVC,800.0,,,,,,
KRDR,12-17-2020,06:56,METAR,Calm,,0.0,,,9999.0,,-4.0,-4.0,29.87,1013.3,,,,,,,,,,,,,,,,600.0,700.0,OVC,700.0,,,,,,
KRDR,12-17-2020,06:30,SPECI,Calm,,0.0,,,9999.0,,-5.0,-5.0,29.88,1013.7,,,,,,,,,,,,,,,,700.0,700.0,BKN,700.0,OVC,1600.0,,,,
KRDR,12-17-2020,06:19,SPECI,Calm,,0.0,,,9999.0,,-5.0,-5.0,29.87,1013.3,,,,,,,,,,,,,,,,1000.0,1000.0,BKN,1000.0,OVC,1600.0,,,,
KRDR,12-17-2020,05:56,METAR,Calm,,0.0,,,9999.0,,-6.1,-6.2,29.87,1013.4,,,,,,,,,,,,,TRACE,,,1700.0,1700.0,OVC,1700.0,,,,,,
KRDR,12-17-2020,04:56,METAR,Calm,,0.0,,,9999.0,,-4.3,-4.4,29.86,1013.0,,,,,,,,,,,,,,,,2000.0,2000.0,OVC,2000.0,,,,,,
KRDR,12-17-2020,03:56,METAR,Calm,,0.0,,,9999.0,,-3.4,-3.5,29.85,1012.7,,,,,,,,,,,,,,,,2200.0,2200.0,OVC,2200.0,,,,,,
KRDR,12-17-2020,02:56,METAR,Normal,160,4.0,,,9999.0,,-2.4,-2.5,29.85,1012.7,,,,,,,,,,,,TRACE,,,,2500.0,2500.0,OVC,2500.0,,,,,,
KRDR,12-17-2020,02:06,SPECI,Calm,,0.0,,,9999.0,,-3.0,-3.0,29.85,1012.7,,,,,,,,,,,,,,,,2700.0,2800.0,OVC,2800.0,,,,,,
KRDR,12-17-2020,01:56,METAR,Calm,,0.0,,,9999.0,,-2.8,-2.9,29.85,1012.7,,,,,,,,,,,,,,,,3000.0,3000.0,BKN,3000.0,OVC,7500.0,,,,
KRDR,12-17-2020,00:56,METAR,Normal,180,6.0,,,9999.0,,-1.6,-2.0,29.83,1012.0,,,,,,,,,,,TRACE,,,,,3300.0,3300.0,OVC,3300.0,,,,,,
KRDR,12-17-2020,00:32,SPECI,Normal,190,6.0,,,9999.0,,-1.0,-2.0,29.83,1012.0,,,,,,,,,,,,,,,,3400.0,2600.0,SCT,2600.0,OVC,3400.0,,,,
KRDR,12-17-2020,00:21,SPECI,Normal,180,6.0,,,9999.0,,-1.0,-2.0,29.83,1012.0,,,,,,,,,,,,,,,,2500.0,2600.0,BKN,2600.0,OVC,3400.0,,,,
KRDR,12-17-2020,00:05,SPECI,Normal,190,5.0,,,9999.0,Light Snow,-1.0,-2.0,29.83,1012.0,71,,,,,,,,,,,,,,,1000.0,2700.0,OVC,2700.0,,,,,,
KRDR,12-16-2020,23:56,METAR,Normal,190,6.0,,,9999.0,,-1.5,-2.3,29.83,1012.0,,,,,,,,,,,,,TRACE,,,1200.0,2800.0,BKN,2800.0,BKN,3500.0,OVC,8000.0,,
KRDR,12-16-2020,23:06,SPECI,Normal,180,7.0,,,9999.0,,-1.0,-2.0,29.82,1011.6,,,,,,,,,,,,,,,,1300.0,2100.0,BKN,2100.0,,,,,,
KRDR,12-16-2020,22:56,METAR,Normal,160,6.0,,,9999.0,,-1.4,-2.1,29.82,1011.6,,,,,,,,,,,TRACE,,,,,3000.0,2300.0,SCT,2300.0,BKN,3000.0,BKN,3800.0,,
KRDR,12-16-2020,21:59,METAR,Normal,170,9.0,,,8000.0,Light Snow,-1.8,-1.9,29.80,1011.0,71,,,,,,,,,,TRACE,,,,,3500.0,3500.0,OVC,3500.0,,,,,,
KRDR,12-16-2020,21:45,SPECI,Normal,180,9.0,,,4800.0,Light Snow/Mist,-2.0,-2.0,29.80,1011.0,71,10,,,,,,,,,,,,,,1700.0,1700.0,BKN,1700.0,BKN,3300.0,OVC,4400.0,,
KRDR,12-16-2020,20:57,METAR,Normal,180,11.0,,,2400.0,Light Snow/Mist,-1.7,-1.8,29.79,1010.7,71,10,,,,,,,,,TRACE,TRACE,,,,1800.0,1800.0,OVC,1800.0,,,,,,
KRDR,12-16-2020,20:21,SPECI,Normal,180,13.0,,,1600.0,Light Snow/Mist,-1.0,-2.0,29.78,1010.3,71,10,,,,,,,,,,,,,,2000.0,1300.0,FEW,1300.0,OVC,2000.0,,,,
KRDR,12-16-2020,19:56,METAR,Normal,190,14.0,,,2400.0,Light Snow/Mist,-1.1,-3.0,29.78,1010.3,,,,71,10,,,,,,TRACE,,,,,2400.0,2400.0,BKN,2400.0,OVC,5000.0,,,,
KRDR,12-16-2020,19:43,SPECI,Normal,190,14.0,20.0,,6400.0,Light Snow/Mist,-1.0,-3.0,29.78,1010.3,71,10,,,,,,,,,,,,,,5000.0,1700.0,FEW,1700.0,OVC,5000.0,,,,
KRDR,12-16-2020,19:11,SPECI,Normal,190,14.0,,,9999.0,Light Snow,-1.0,-4.0,29.78,1010.3,71,,,,,,,,,,,,,,,5000.0,2500.0,SCT,2500.0,OVC,5000.0,,,,
KRDR,12-16-2020,18:56,METAR,Normal,190,14.0,,,9999.0,,-1.1,-4.1,29.78,1010.3,,,,,,,,,,,,,,,,5000.0,5000.0,BKN,5000.0,OVC,6000.0,,,,
KRDR,12-16-2020,17:56,METAR,Normal,190,17.0,,,9999.0,,-1.4,-4.2,29.79,1010.7,,,,,,,,,,,,,,,,7000.0,5500.0,SCT,5500.0,OVC,7000.0,,,,
KRDR,12-16-2020,16:56,METAR,Normal,190,16.0,25.0,,9999.0,,-2.2,-4.4,29.81,1011.4,,,,,,,,,,,,,,,,7000.0,7000.0,BKN,7000.0,OVC,8600.0,,,,
KRDR,12-16-2020,15:56,METAR,Normal,180,16.0,23.0,,9999.0,,-3.0,-4.7,29.81,1011.5,,,,,,,,,,,,,,,,8000.0,6500.0,SCT,6500.0,OVC,8000.0,,,,
KRDR,12-16-2020,14:56,METAR,Normal,190,16.0,23.0,,9999.0,,-3.8,-5.1,29.80,1011.3,,,,,,,,,,,,,,,,6500.0,6500.0,OVC,6500.0,,,,,,
KRDR,12-16-2020,13:56,METAR,Normal,180,16.0,21.0,,9999.0,,-4.2,-5.6,29.80,1011.3,,,,,,,,,,,,,,,,7000.0,7000.0,OVC,7000.0,,,,,,
KRDR,12-16-2020,12:56,METAR,Normal,190,16.0,22.0,,9999.0,,-4.3,-6.1,29.81,1011.6,,,,,,,,,,,,,,,,7500.0,7500.0,BKN,7500.0,,,,,,
KRDR,12-16-2020,11:56,METAR,Normal,180,14.0,,,9999.0,,-4.9,-6.7,29.82,1011.9,,,,,,,,,,,,,,,,8500.0,8500.0,OVC,8600.0,,,,,,
KRDR,12-16-2020,10:56,METAR,Normal,180,14.0,,,9999.0,,-5.3,-7.4,29.84,1012.5,,,,,,,,,,,,,,,,8500.0,8500.0,OVC,8600.0,,,,,,
KRDR,12-16-2020,09:56,METAR,Normal,190,12.0,,,9999.0,,-5.5,-7.8,29.86,1013.2,,,,,,,,,,,,,,,,9000.0,9000.0,OVC,9100.0,,,,,,
KRDR,12-16-2020,08:56,METAR,Normal,180,13.0,,,9999.0,,-6.0,-8.0,29.86,1013.2,,,,,,,,,,,,,,,,9500.0,9500.0,OVC,9600.0,,,,,,
KRDR,12-16-2020,07:56,METAR,Normal,180,13.0,,,9999.0,,-6.7,-8.4,29.88,1013.9,,,,,,,,,,,,,,,,9000.0,9000.0,OVC,9100.0,,,,,,
KRDR,12-16-2020,06:56,METAR,Normal,180,11.0,,,9999.0,,-7.0,-8.7,29.91,1014.9,,,,,,,,,,,,,,,,9000.0,9000.0,OVC,9100.0,,,,,,
KRDR,12-16-2020,05:56,METAR,Normal,190,8.0,,,9999.0,,-7.4,-8.9,29.94,1016.0,,,,,,,,,,,,,,,,9500.0,9500.0,OVC,9600.0,,,,,,
KRDR,12-16-2020,05:02,SPECI,Normal,180,9.0,,,9999.0,,-7.0,-9.0,29.95,1016.4,,,,,,,,,,,,,,,,9500.0,9500.0,OVC,9600.0,,,,,,
KRDR,12-16-2020,04:56,METAR,Normal,180,8.0,,,9999.0,,-7.0,-9.0,29.95,1016.5,,,,,,,,,,,,,,,,9500.0,9500.0,OVC,9600.0,,,,,,
KRDR,12-16-2020,03:56,METAR,Normal,180,7.0,,,9999.0,,-8.4,-9.6,29.98,1017.6,,,,,,,,,,,,,,,,1900.0,2000.0,BKN,2000.0,OVC,11000.0,,,,
KRDR,12-16-2020,02:57,METAR,Normal,180,6.0,,,9999.0,,-10.7,-11.8,29.99,1018.1,,,,,,,,,,,,TRACE,,,,2000.0,2100.0,BKN,2100.0,BKN,12000.0,,,,
KRDR,12-16-2020,01:56,METAR,Normal,200,7.0,,,9999.0,,-10.8,-12.0,30.01,1018.8,,,,,,,,,,,,,,,2/8 Mostly Clear,72000.0,18000.0,FEW,18000.0,,,,,,
KRDR,12-16-2020,00:56,METAR,Normal,190,5.0,,,9999.0,,-10.5,-12.0,30.03,1019.4,,,,,,,,,,,,,,,2/8 Mostly Clear,72000.0,19000.0,FEW,19000.0,,,,,,
KRDR,12-16-2020,00:06,SPECI,Calm,,0.0,,,9999.0,,-8.0,-10.0,30.05,1020.0,,,,,,,,,,,,,,,4/8 Partly Cloudy,72000.0,2600.0,SCT,2600.0,SCT,18000.0,,,,
KRDR,12-15-2020,23:56,METAR,Calm,,0.0,,,9999.0,,-7.0,-10.0,30.06,1020.4,,,,,,,,,,,,,,,,2500.0,2500.0,BKN,2500.0,BKN,18000.0,,,,
KRDR,12-15-2020,22:56,METAR,Calm,,0.0,,,9999.0,,-5.9,-10.0,30.07,1020.6,,,,,,,,,,,,,,,,2700.0,2700.0,BKN,2700.0,OVC,18000.0,,,,
KRDR,12-15-2020,21:56,METAR,Normal,230,5.0,,,9999.0,,-5.2,-10.0,30.07,1020.6,,,,,,,,,,,,,,,,2500.0,2600.0,BKN,2600.0,OVC,18000.0,,,,
KRDR,12-15-2020,21:26,SPECI,Normal,250,6.0,,,9999.0,,-5.0,-10.0,30.07,1020.6,,,,,,,,,,,,,,,,2400.0,2200.0,SCT,2200.0,BKN,2900.0,,,,
KRDR,12-15-2020,20:56,METAR,Normal,250,6.0,,,9999.0,,-4.6,-9.8,30.07,1020.6,,,,,,,,,,,,,,,,3100.0,2000.0,SCT,2000.0,BKN,3100.0,BKN,22000.0,,
KRDR,12-15-2020,19:56,METAR,Normal,260,6.0,,,9999.0,,-4.5,-9.5,30.08,1021.0,,,,,,,,,,,,,,,,4000.0,2000.0,SCT,2000.0,BKN,4000.0,,,,
KRDR,12-15-2020,19:17,SPECI,Normal,220,9.0,,,9999.0,,-4.0,-9.0,30.09,1021.3,,,,,,,,,,,,,,,,2000.0,1400.0,FEW,1400.0,BKN,2000.0,BKN,3900.0,,
KRDR,12-15-2020,19:06,SPECI,Normal,230,8.0,,,9999.0,,-5.0,-9.0,30.10,1021.7,,,,,,,,,,,,,,,,3900.0,2000.0,SCT,2000.0,OVC,3900.0,,,,
KRDR,12-15-2020,18:56,METAR,Normal,240,9.0,,,9999.0,,-4.8,-9.4,30.10,1021.7,,,,,,,,,,,,,,,,2000.0,2000.0,BKN,2000.0,BKN,3900.0,BKN,22000.0,,
KRDR,12-15-2020,17:56,METAR,Normal,210,9.0,,,9999.0,,-7.1,-10.5,30.13,1022.9,,,,,,,,,,,,,,,,4000.0,4000.0,OVC,4000.0,,,,,,
KRDR,12-15-2020,16:56,METAR,Normal,200,9.0,,,9999.0,,-8.2,-11.1,30.15,1023.5,,,,,,,,,,,,,,,,4500.0,4500.0,OVC,4500.0,,,,,,
KRDR,12-15-2020,15:56,METAR,Normal,190,9.0,,,9999.0,,-9.5,-12.0,30.17,1024.3,,,,,,,,,,,,,,,,4700.0,4700.0,OVC,4700.0,,,,,,
KRDR,12-15-2020,14:56,METAR,Normal,180,9.0,,,9999.0,Light Snow,-10.7,-12.8,30.17,1024.4,71,,,,,,,,,,,,,,,7000.0,1400.0,SCT,1400.0,BKN,7000.0,,,,
KRDR,12-15-2020,14:32,SPECI,Normal,180,6.0,,,9999.0,Light Snow,-11.0,-13.0,30.17,1024.5,,,,71,,,,,,,,,,,,1300.0,1300.0,BKN,1300.0,OVC,7000.0,,,,
KRDR,12-15-2020,13:56,METAR,Normal,170,6.0,,,9999.0,,-11.5,-13.5,30.18,1024.8,,,,,,,,,,,,,,,,6500.0,2700.0,FEW,2700.0,OVC,6500.0,,,,
KRDR,12-15-2020,13:26,SPECI,Normal,180,8.0,,,9999.0,,-12.0,-14.0,30.19,1025.2,,,,,,,,,,,,,,,,6500.0,700.0,SCT,700.0,SCT,2800.0,OVC,6500.0,,
KRDR,12-15-2020,12:56,METAR,Normal,170,7.0,,,9999.0,,-11.8,-14.0,30.20,1025.6,,,,,,,,,,,,,,,,700.0,1000.0,FEW,1000.0,BKN,2600.0,OVC,4000.0,,
KRDR,12-15-2020,11:56,METAR,Normal,180,9.0,,,9999.0,,-12.2,-14.7,30.21,1025.9,,,,,,,,,,,,,,,,3700.0,3700.0,OVC,3700.0,,,,,,
KRDR,12-15-2020,11:17,SPECI,Normal,170,7.0,,,9999.0,,-13.0,-15.0,30.21,1025.9,,,,,,,,,,,,,,,,3800.0,1000.0,FEW,1000.0,OVC,3800.0,,,,
KRDR,12-15-2020,10:56,METAR,Normal,170,9.0,,,9999.0,,-12.9,-15.8,30.22,1026.3,,,,,,,,,,,,,,,,4100.0,4100.0,OVC,4100.0,,,,,,
KRDR,12-15-2020,09:56,METAR,Normal,160,6.0,,,9999.0,,-13.2,-16.4,30.24,1026.9,,,,,,,,,,,,,,,,4200.0,4200.0,OVC,4200.0,,,,,,
KRDR,12-15-2020,08:56,METAR,Normal,160,10.0,,,9999.0,,-13.6,-17.0,30.25,1027.2,,,,,,,,,,,,,,,,4500.0,4500.0,OVC,4500.0,,,,,,
KRDR,12-15-2020,07:56,METAR,Normal,160,8.0,,,9999.0,,-13.8,-17.3,30.26,1027.6,,,,,,,,,,,,,,,,4600.0,4600.0,OVC,4600.0,,,,,,
KRDR,12-15-2020,06:56,METAR,Normal,160,8.0,,,9999.0,,-14.1,-18.3,30.27,1028.0,,,,,,,,,,,,,,,,5000.0,5000.0,OVC,5000.0,,,,,,
KRDR,12-15-2020,05:56,METAR,Normal,170,9.0,,,9999.0,,-14.5,-18.5,30.28,1028.3,,,,,,,,,,,,,,,,4400.0,4400.0,OVC,4400.0,,,,,,
KRDR,12-15-2020,04:56,METAR,Normal,160,7.0,,,9999.0,,-15.0,-18.3,30.30,1029.1,,,,,,,,,,,,,,,,6000.0,6000.0,OVC,6000.0,,,,,,
KRDR,12-15-2020,03:56,METAR,Normal,170,10.0,,,9999.0,,-15.4,-18.7,30.32,1029.9,,,,,,,,,,,,,,,,7000.0,7000.0,OVC,7000.0,,,,,,
KRDR,12-15-2020,02:56,METAR,Normal,180,9.0,,,9999.0,,-15.9,-19.4,30.33,1030.3,,,,,,,,,,,,,,,,6500.0,6500.0,OVC,6500.0,,,,,,
KRDR,12-15-2020,01:56,METAR,Normal,160,8.0,,,9999.0,,-16.5,-19.8,30.35,1031.1,,,,,,,,,,,,,,,,6500.0,6500.0,OVC,6500.0,,,,,,
KRDR,12-15-2020,00:56,METAR,Normal,130,7.0,,,9999.0,,-17.3,-20.4,30.36,1031.3,,,,,,,,,,,,,,,,6500.0,6500.0,OVC,6500.0,,,,,,
KRDR,12-14-2020,23:56,METAR,Normal,120,5.0,,,9999.0,,-18.1,-20.9,30.37,1031.7,,,,,,,,,,,,,,,4/8 Partly Cloudy,72000.0,6000.0,FEW,6000.0,FEW,18000.0,SCT,23000.0,,
KRDR,12-14-2020,22:56,METAR,Normal,110,5.0,,,9999.0,,-17.3,-20.7,30.38,1031.9,,,,,,,,,,,,,,,4/8 Partly Cloudy,72000.0,6000.0,FEW,6000.0,FEW,18000.0,SCT,23000.0,,
KRDR,12-14-2020,21:56,METAR,Calm,,0.0,,,9999.0,,-15.0,-20.2,30.37,1031.5,,,,,,,,,,,,,,,2/8 Mostly Clear,72000.0,6000.0,FEW,6000.0,FEW,18000.0,FEW,23000.0,,
KRDR,12-14-2020,20:56,METAR,Calm,,0.0,,,9999.0,,-14.8,-20.5,30.37,1031.5,,,,,,,,,,,,,,,,23000.0,6000.0,FEW,6000.0,FEW,17000.0,BKN,23000.0,,
KRDR,12-14-2020,19:56,METAR,Calm,,0.0,,,9999.0,,-14.9,-20.4,30.38,1031.8,,,,,,,,,,,,,,,4/8 Partly Cloudy,72000.0,1000.0,FEW,1000.0,FEW,16000.0,SCT,23000.0,,
KRDR,12-14-2020,18:59,METAR,Calm,,0.0,,,9999.0,,-15.6,-21.1,30.40,1032.4,,,,,,,,,,,,,,,4/8 Partly Cloudy,72000.0,600.0,FEW,600.0,FEW,18000.0,SCT,23000.0,,
KRDR,12-14-2020,17:59,METAR,Normal,300,3.0,,,9999.0,,-16.0,-20.9,30.43,1033.5,,,,,,,,,,,,,,,4/8 Partly Cloudy,72000.0,600.0,FEW,600.0,FEW,2000.0,SCT,23000.0,,
KRDR,12-14-2020,16:56,METAR,Calm,,0.0,,,9999.0,,-17.0,-21.1,30.44,1033.8,,,,,,,,,,,,,,,2/8 Mostly Clear,72000.0,600.0,FEW,600.0,FEW,2000.0,FEW,22000.0,,
KRDR,12-14-2020,15:56,METAR,Calm,,0.0,,,9999.0,,-18.7,-21.6,30.43,1033.5,,,,,,,,,,,,,,,2/8 Mostly Clear,72000.0,2000.0,FEW,2000.0,FEW,22000.0,,,,
KRDR,12-14-2020,14:56,METAR,Calm,,0.0,,,9999.0,,-20.6,-22.9,30.42,1033.2,,,,,,,,,,,,TRACE,,,4/8 Partly Cloudy,72000.0,25000.0,SCT,25000.0,,,,,,
KRDR,12-14-2020,13:56,METAR,Normal,30,5.0,,,9999.0,,-21.2,-23.3,30.39,1032.2,,,,,,,,,,,TRACE,,,,Clear,72000.0,,,,,,,,,
KRDR,12-14-2020,13:16,SPECI,Normal,10,5.0,,,9999.0,,-20.0,-22.0,30.40,1032.5,,,,,,,,,,,,,,,4/8 Partly Cloudy,72000.0,2200.0,SCT,2200.0,,,,,,
KRDR,12-14-2020,12:56,METAR,Normal,10,6.0,,,9999.0,,-19.0,-21.2,30.39,1032.1,,,,,,,,,,,,,,,,600.0,2100.0,OVC,2100.0,,,,,,
KRDR,12-14-2020,12:26,SPECI,Normal,10,7.0,,,9999.0,,-18.0,-20.0,30.38,1031.7,,,,,,,,,,,,,,,,200.0,800.0,FEW,800.0,OVC,2000.0,,,,
KRDR,12-14-2020,12:06,SPECI,Normal,20,6.0,,,9999.0,,-17.0,-19.0,30.38,1031.6,,,,,,,,,,,,,,,,200.0,700.0,OVC,700.0,,,,,,
KRDR,12-14-2020,11:56,METAR,Normal,10,5.0,,,9999.0,,-17.5,-19.5,30.37,1031.2,,,,,,,,,,,TRACE,,TRACE,,,300.0,500.0,OVC,500.0,,,,,,
KRDR,12-14-2020,11:55,SPECI,Normal,360,5.0,,,9999.0,,-17.0,-19.0,30.37,1031.2,,,,,,,,,,,,,,,,300.0,500.0,OVC,500.0,,,,,,
KRDR,12-14-2020,11:36,SPECI,Normal,360,4.0,,,9999.0,,-18.0,-20.0,30.37,1031.3,,,,,,,,,,,,,,,,500.0,600.0,BKN,600.0,OVC,1800.0,,,,
KRDR,12-14-2020,11:26,SPECI,Normal,360,5.0,,,9999.0,,-18.0,-20.0,30.37,1031.3,,,,,,,,,,,,,,,,500.0,600.0,SCT,600.0,OVC,1800.0,,,,
KRDR,12-14-2020,11:16,SPECI,Normal,330,6.0,,,9999.0,,-18.0,-20.0,30.36,1031.0,,,,,,,,,,,,,,,,600.0,600.0,SCT,600.0,BKN,1000.0,OVC,1800.0,,
KRDR,12-14-2020,10:56,METAR,Normal,330,8.0,,,9999.0,,-17.9,-20.3,30.35,1030.6,,,,,,,,,,,TRACE,,,,,1800.0,800.0,SCT,800.0,OVC,1800.0,,,,
KRDR,12-14-2020,10:50,SPECI,Normal,320,7.0,,,9999.0,,-18.0,-20.0,30.35,1030.6,,,,,,,,,,,,,,,,1700.0,1000.0,FEW,1000.0,OVC,1700.0,,,,
KRDR,12-14-2020,10:39,SPECI,Normal,320,7.0,,,9999.0,,-18.0,-20.0,30.35,1030.6,,,,,,,,,,,,,,,,1900.0,1900.0,OVC,1900.0,,,,,,
KRDR,12-14-2020,10:35,SPECI,Normal,310,7.0,,,9999.0,Light Snow,-18.0,-20.0,30.35,1030.6,71,,,,,,,,,,,,,,,1900.0,1900.0,OVC,1900.0,,,,,,
KRDR,12-14-2020,10:25,SPECI,Normal,310,6.0,,,9999.0,Light Snow,-18.0,-20.0,30.34,1030.3,71,,,,,,,,,,,,,,,2000.0,2000.0,OVC,2000.0,,,,,,
KRDR,12-14-2020,10:02,SPECI,Normal,330,8.0,,,9999.0,,-17.0,-20.0,30.34,1030.2,,,,,,,,,,,,,,,,600.0,600.0,SCT,600.0,OVC,2200.0,,,,
KRDR,12-14-2020,09:58,SPECI,Normal,330,6.0,,,9999.0,Light Snow,-17.0,-20.0,30.34,1030.2,71,,,,,,,,,,,,,,,600.0,600.0,SCT,600.0,OVC,2200.0,,,,
KRDR,12-14-2020,09:56,METAR,Normal,330,7.0,,,9999.0,,-17.4,-19.8,30.34,1030.2,,,,,,,,,,,,,,,,600.0,600.0,SCT,600.0,OVC,2200.0,,,,
KRDR,12-14-2020,09:54,SPECI,Normal,330,9.0,,,9999.0,,-17.0,-20.0,30.34,1030.2,,,,,,,,,,,,,,,,600.0,600.0,SCT,600.0,OVC,2200.0,,,,
KRDR,12-14-2020,09:34,SPECI,Normal,320,6.0,,,9999.0,,-17.0,-20.0,30.34,1030.2,,,,,,,,,,,,,,,,600.0,900.0,FEW,900.0,OVC,2300.0,,,,
KRDR,12-14-2020,09:24,SPECI,Normal,310,6.0,,,9999.0,,-18.0,-20.0,30.34,1030.2,,,,,,,,,,,,,,,,600.0,900.0,FEW,900.0,BKN,1800.0,OVC,2300.0,,
KRDR,12-14-2020,09:04,SPECI,Normal,320,7.0,,,9999.0,,-17.0,-19.0,30.33,1029.9,,,,,,,,,,,,,,,,500.0,1000.0,FEW,1000.0,OVC,2000.0,,,,
KRDR,12-14-2020,08:56,METAR,Normal,320,7.0,,,9999.0,,-16.4,-18.7,30.33,1029.8,,,,,,,,,,,TRACE,TRACE,,,,500.0,2000.0,OVC,2000.0,,,,,,
KRDR,12-14-2020,08:36,SPECI,Normal,310,6.0,,,9999.0,,-15.0,-18.0,30.32,1029.3,,,,,,,,,,,,,,,,400.0,1500.0,FEW,1500.0,OVC,2100.0,,,,
KRDR,12-14-2020,08:32,SPECI,Normal,310,8.0,,,9999.0,Light Snow,-15.0,-17.0,30.32,1029.4,71,,,,,,,,,,,,,,,1200.0,1500.0,FEW,1500.0,OVC,2300.0,,,,
KRDR,12-14-2020,08:02,SPECI,Normal,320,3.0,,,9999.0,Light Snow,-15.0,-18.0,30.30,1028.7,71,,,,,,,,,,,,,,,1100.0,1600.0,BKN,1600.0,OVC,2200.0,,,,
KRDR,12-14-2020,07:56,METAR,Normal,360,4.0,,,9999.0,,-15.0,-18.5,30.30,1028.7,,,,,,,,,,,TRACE,,,,,1100.0,1600.0,SCT,1600.0,OVC,2200.0,,,,
KRDR,12-14-2020,07:43,SPECI,Normal,20,5.0,,,9999.0,,-15.0,-19.0,30.29,1028.3,,,,,,,,,,,,,,,,1400.0,2000.0,OVC,2000.0,,,,,,
KRDR,12-14-2020,07:28,SPECI,Normal,20,5.0,,,9999.0,Light Snow,-14.0,-18.0,30.28,1027.9,71,,,,,,,,,,,,,,,1400.0,2200.0,OVC,2200.0,,,,,,
KRDR,12-14-2020,06:56,METAR,Normal,10,6.0,,,9999.0,,-14.0,-19.0,30.28,1027.9,,,,,,,,,,,,,,,,2200.0,2500.0,OVC,2500.0,,,,,,
KRDR,12-14-2020,05:56,METAR,Normal,360,9.0,,,9999.0,,-13.6,-20.3,30.28,1027.8,,,,,,,,,,,,,TRACE,,,1400.0,1300.0,FEW,1300.0,OVC,2300.0,,,,
KRDR,12-14-2020,04:56,METAR,Normal,360,9.0,,,9999.0,,-12.4,-16.9,30.27,1027.4,,,,,,,,,,,TRACE,,,,,1800.0,1900.0,FEW,1900.0,OVC,2800.0,,,,
KRDR,12-14-2020,04:44,SPECI,Normal,360,10.0,,,9999.0,,-12.0,-16.0,30.26,1027.0,,,,,,,,,,,,,,,,200.0,700.0,SCT,700.0,OVC,2800.0,,,,
KRDR,12-14-2020,04:26,SPECI,Normal,360,10.0,,,9999.0,Light Snow/Mist,-12.0,-13.0,30.25,1026.7,71,10,,,,,,,,,,,,,,200.0,600.0,BKN,600.0,OVC,1300.0,,,,
KRDR,12-14-2020,04:06,SPECI,Normal,20,7.0,,,8000.0,Light Snow,-11.0,-14.0,30.24,1026.4,71,,,,,,,,,,,,,,,700.0,700.0,BKN,700.0,BKN,1400.0,OVC,1800.0,,
KRDR,12-14-2020,03:56,METAR,Normal,340,9.0,,,9999.0,Light Snow,-11.3,-14.6,30.24,1026.4,71,,,,,,,,,,TRACE,,,,,800.0,900.0,OVC,900.0,,,,,,
KRDR,12-14-2020,03:47,SPECI,Normal,320,10.0,,,9999.0,Light Snow,-11.0,-15.0,30.23,1026.0,71,,,,,,,,,,,,,,,800.0,1000.0,BKN,1000.0,OVC,1500.0,,,,
KRDR,12-14-2020,03:40,SPECI,Normal,320,9.0,,,9999.0,,-11.0,-15.0,30.23,1026.0,,,,,,,,,,,,,,,,1000.0,1000.0,BKN,1000.0,OVC,1500.0,,,,
KRDR,12-14-2020,03:36,SPECI,Normal,320,10.0,,,9999.0,,-11.0,-15.0,30.23,1026.0,,,,,,,,,,,,,,,,1300.0,1300.0,OVC,1300.0,,,,,,
KRDR,12-14-2020,03:16,SPECI,Normal,320,8.0,,,9999.0,,-12.0,-15.0,30.22,1025.8,,,,,,,,,,,,,,,,1500.0,1500.0,BKN,1500.0,OVC,3000.0,,,,
KRDR,12-14-2020,03:06,SPECI,Normal,310,12.0,,,9999.0,,-12.0,-15.0,30.21,1025.4,,,,,,,,,,,,,,,,3000.0,1600.0,SCT,1600.0,OVC,3000.0,,,,
KRDR,12-14-2020,02:56,METAR,Normal,310,12.0,,,9999.0,,-11.8,-14.9,30.20,1025.1,,,,,,,,,,,,TRACE,,,,1800.0,1600.0,SCT,1600.0,BKN,2200.0,OVC,3000.0,,
KRDR,12-14-2020,02:34,SPECI,Normal,300,12.0,,,9999.0,,-12.0,-15.0,30.21,1025.4,,,,,,,,,,,,,,,,1000.0,1400.0,SCT,1400.0,BKN,2200.0,OVC,3000.0,,
KRDR,12-14-2020,01:56,METAR,Normal,310,13.0,,,9999.0,,-11.4,-14.7,30.20,1025.0,,,,,,,,,,,,,,,,1300.0,1500.0,BKN,1500.0,OVC,2100.0,,,,
KRDR,12-14-2020,01:08,SPECI,Normal,310,13.0,,,9999.0,,-11.0,-15.0,30.18,1024.3,,,,,,,,,,,,,,,,900.0,900.0,FEW,900.0,SCT,1500.0,SCT,2100.0,OVC,2800.0
KRDR,12-14-2020,00:56,METAR,Normal,310,12.0,,,9999.0,,-11.1,-14.4,30.19,1024.7,,,,,,,,,,,TRACE,,,,,900.0,900.0,BKN,900.0,BKN,1500.0,OVC,2800.0,,
KRDR,12-13-2020,23:56,METAR,Normal,320,14.0,,,9999.0,Light Snow,-9.7,-12.8,30.17,1024.0,71,,,,,,,,,,TRACE,,TRACE,,,1200.0,1300.0,BKN,1300.0,BKN,2100.0,OVC,2700.0,,
KRDR,12-13-2020,22:56,METAR,Normal,320,16.0,22.0,330/26KTS,9999.0,Light Snow,-9.5,-13.0,30.15,1023.2,71,,,,,,,,,,TRACE,,,,,1400.0,1500.0,BKN,1500.0,OVC,3100.0,,,,
KRDR,12-13-2020,21:56,METAR,Normal,320,16.0,22.0,,9999.0,,-8.9,-12.4,30.12,1022.2,,,,,,,,,,,TRACE,,,,,1500.0,1500.0,BKN,1500.0,OVC,3000.0,,,,
KRDR,12-13-2020,20:56,METAR,Normal,320,17.0,23.0,320/27KTS,9999.0,Light Snow,-8.3,-11.5,30.09,1021.2,71,,,,,,,,,,TRACE,TRACE,,,,1000.0,1100.0,OVC,1100.0,,,,,,
KRDR,12-13-2020,19:56,METAR,Normal,320,14.0,23.0,310/27KTS,9999.0,Light Snow,-6.8,-9.4,30.05,1019.7,71,,,,,,,,,,TRACE,,,,,900.0,1200.0,BKN,1200.0,OVC,1800.0,,,,
KRDR,12-13-2020,18:56,METAR,Normal,310,19.0,26.0,290/27KTS,9999.0,Light Snow,-6.0,-8.9,30.02,1018.7,71,,,,,,,,,,TRACE,,,,,2100.0,2100.0,OVC,2100.0,,,,,,
KRDR,12-13-2020,17:56,METAR,Normal,300,16.0,25.0,,9999.0,,-4.6,-7.2,30.01,1018.3,,,,,,,,,,,TRACE,,TRACE,,,2200.0,2200.0,OVC,2200.0,,,,,,
KRDR,12-13-2020,16:56,METAR,Normal,290,14.0,22.0,300/26KTS,9999.0,,-4.3,-6.3,30.01,1018.3,,,,,,,,,,,TRACE,,,,,2000.0,1600.0,SCT,1600.0,OVC,2100.0,,,,
KRDR,12-13-2020,16:35,SPECI,Normal,300,16.0,24.0,,9999.0,,-4.0,-5.0,30.01,1018.3,,,,,,,,,,,,,,,,1600.0,1800.0,BKN,1800.0,OVC,3200.0,,,,
KRDR,12-13-2020,16:26,SPECI,Normal,290,9.0,16.0,,9999.0,,-3.0,-5.0,30.01,1018.2,,,,,,,,,,,,,,,,1900.0,1900.0,BKN,1900.0,BKN,3100.0,OVC,4600.0,,
KRDR,12-13-2020,15:56,METAR,Normal,260,10.0,,,9999.0,,-4.2,-4.9,30.01,1018.3,,,,,,,,,,,TRACE,,,,,4100.0,1600.0,SCT,1600.0,SCT,2700.0,BKN,4100.0,BKN,5000.0
KRDR,12-13-2020,15:52,SPECI,Normal,260,11.0,,,9999.0,,-4.0,-5.0,30.01,1018.3,,,,,,,,,,,,,,,,4100.0,1600.0,SCT,1600.0,SCT,2700.0,BKN,4100.0,BKN,5000.0
KRDR,12-13-2020,15:42,SPECI,Normal,260,10.0,,,9999.0,Mist,-5.0,-5.0,30.01,1018.3,10,,,,,,,,,,,,,,,1600.0,1600.0,BKN,1600.0,,,,,,
KRDR,12-13-2020,15:36,SPECI,Normal,250,9.0,,,4800.0,Light Snow/Mist,-5.0,-5.0,30.02,1018.6,71,10,,,,,,,,,,,,,,1600.0,1600.0,BKN,1600.0,,,,,,
KRDR,12-13-2020,15:26,SPECI,Normal,250,10.0,,,6400.0,Light Snow/Mist,-5.0,-5.0,30.02,1018.6,71,10,,,,,,,,,,,,,,1800.0,1800.0,BKN,1800.0,,,,,,
KRDR,12-13-2020,14:56,METAR,Normal,230,9.0,,,8000.0,Light Snow/Mist,-5.6,-5.7,30.02,1018.7,71,10,,,,,,,,,TRACE,TRACE,,,,2300.0,2500.0,OVC,2500.0,,,,,,
KRDR,12-13-2020,14:46,SPECI,Normal,230,8.0,,,4800.0,Light Snow/Mist,-6.0,-6.0,30.02,1018.7,71,10,,,,,,,,,,,,,,300.0,2300.0,OVC,2300.0,,,,,,
KRDR,12-13-2020,14:36,SPECI,Normal,230,8.0,,,3600.0,Light Snow/Mist,-6.0,-6.0,30.02,1018.7,71,10,,,,,,,,,,,,,,300.0,2100.0,OVC,2100.0,,,,,,
KRDR,12-13-2020,14:26,SPECI,Normal,230,8.0,,,3000.0,Light Snow/Mist,-6.0,-6.0,30.02,1018.7,71,10,,,,,,,,,,,,,,2000.0,2500.0,OVC,2500.0,,,,,,
KRDR,12-13-2020,14:06,SPECI,Normal,230,9.0,,,6400.0,Light Snow/Mist,-6.0,-6.0,30.03,1019.0,71,10,,,,,,,,,,,,,,300.0,2500.0,BKN,2500.0,OVC,3300.0,,,,
KRDR,12-13-2020,13:56,METAR,Normal,220,8.0,,,4000.0,Light Snow/Mist,-5.8,-5.9,30.03,1019.0,71,10,,,,,,,,,TRACE,,,,,3000.0,3000.0,OVC,3000.0,,,,,,
KRDR,12-13-2020,13:53,SPECI,Normal,220,9.0,,,4000.0,Light Snow/Mist,-6.0,-6.0,30.03,1019.0,71,10,,,,,,,,,,,,,,3400.0,3400.0,OVC,3400.0,,,,,,
KRDR,12-13-2020,13:03,SPECI,Normal,240,10.0,,,6400.0,Light Snow/Mist,-5.0,-6.0,30.04,1019.3,71,10,,,,,,,,,,,,,4/8 Partly Cloudy,72000.0,1100.0,SCT,1100.0,,,,,,
KRDR,12-13-2020,12:56,METAR,Normal,240,7.0,,,6400.0,Light Snow/Mist,-5.3,-5.6,30.04,1019.3,71,10,,,,,,,,,TRACE,,,,,1200.0,1200.0,BKN,1200.0,,,,,,
KRDR,12-13-2020,12:39,SPECI,Normal,230,7.0,,,9999.0,Light Snow/Mist,-5.0,-5.0,30.04,1019.3,71,10,,,,,,,,,,,,,,1000.0,1200.0,OVC,1200.0,,,,,,
KRDR,12-13-2020,12:19,SPECI,Normal,250,8.0,,,9999.0,Light Snow,-5.0,-6.0,30.05,1019.6,71,,,,,,,,,,,,,,,1000.0,1000.0,BKN,1000.0,OVC,1700.0,,,,
KRDR,12-13-2020,12:13,SPECI,Normal,250,8.0,,,9999.0,,-5.0,-6.0,30.06,1020.0,,,,,,,,,,,,,,,,1000.0,1000.0,BKN,1000.0,OVC,1700.0,,,,
KRDR,12-13-2020,12:06,SPECI,Normal,240,7.0,,,9999.0,,-5.0,-6.0,30.06,1020.0,,,,,,,,,,,,,,,,1100.0,1200.0,BKN,1200.0,BKN,1700.0,OVC,2600.0,,
KRDR,12-13-2020,11:56,METAR,Normal,250,9.0,,,9999.0,,-5.2,-5.9,30.06,1020.0,,,,,,,,,,,TRACE,,TRACE,,,1400.0,1500.0,BKN,1500.0,BKN,2000.0,OVC,2600.0,,
KRDR,12-13-2020,11:49,SPECI,Normal,250,8.0,,,9999.0,,-5.0,-6.0,30.06,1020.0,,,,,,,,,,,,,,,,1000.0,1100.0,SCT,1100.0,BKN,1800.0,OVC,2600.0,,
KRDR,12-13-2020,11:29,SPECI,Normal,250,6.0,,,9999.0,,-5.0,-5.0,30.06,1020.0,,,,,,,,,,,,,,,,1000.0,1000.0,OVC,1000.0,,,,,,
KRDR,12-13-2020,10:56,METAR,Normal,230,6.0,,,8000.0,Light Snow/Mist,-5.2,-5.5,30.07,1020.3,71,10,,,,,,,,,TRACE,,,,,200.0,900.0,BKN,900.0,OVC,1600.0,,,,
KRDR,12-13-2020,10:28,SPECI,Normal,250,5.0,,,9999.0,Light Snow,-5.0,-6.0,30.08,1020.7,71,,,,,,,,,,,,,,,1000.0,1000.0,OVC,1000.0,,,,,,
KRDR,12-13-2020,10:27,SPECI,Normal,240,5.0,,,9999.0,,-5.0,-6.0,30.08,1020.7,,,,,,,,,,,,,,,,1000.0,1000.0,OVC,1000.0,,,,,,
KRDR,12-13-2020,10:07,SPECI,Normal,270,8.0,,,9999.0,Light Snow,-5.0,-6.0,30.08,1020.7,71,,,,,,,,,,,,,,,1000.0,1000.0,OVC,1000.0,,,,,,
KRDR,12-13-2020,09:56,METAR,Normal,260,7.0,,,9999.0,,-5.1,-5.7,30.08,1020.7,,,,,,,,,,,,,,,,1000.0,1000.0,OVC,1000.0,,,,,,
KRDR,12-13-2020,09:55,SPECI,Normal,250,7.0,,,9999.0,,-5.0,-6.0,30.08,1020.7,,,,,,,,,,,,,,,,1000.0,1000.0,OVC,1000.0,,,,,,
KRDR,12-13-2020,09:35,SPECI,Normal,210,6.0,,,9999.0,,-5.0,-6.0,30.08,1020.7,,,,,,,,,,,,,,,,1000.0,1100.0,OVC,1100.0,,,,,,
KRDR,12-13-2020,09:26,SPECI,Normal,200,6.0,,,9999.0,,-5.0,-6.0,30.08,1020.7,,,,,,,,,,,,,,,,1100.0,1200.0,OVC,1200.0,,,,,,
KRDR,12-13-2020,09:06,SPECI,Normal,200,5.0,,,9999.0,,-5.0,-6.0,30.09,1021.0,,,,,,,,,,,,,,,,1300.0,1300.0,OVC,1300.0,,,,,,
KRDR,12-13-2020,08:56,METAR,Normal,190,4.0,,,9999.0,,-5.3,-6.1,30.09,1021.0,,,,,,,,,,,,TRACE,,,,1300.0,1400.0,OVC,1400.0,,,,,,
KRDR,12-13-2020,08:36,SPECI,Normal,190,4.0,,,9999.0,,-5.0,-6.0,30.10,1021.3,,,,,,,,,,,,,,,,1300.0,1400.0,OVC,1400.0,,,,,,
KRDR,12-13-2020,08:26,SPECI,Normal,190,4.0,,,9999.0,,-5.0,-6.0,30.09,1021.0,,,,,,,,,,,,,,,,1200.0,1300.0,OVC,1300.0,,,,,,
KRDR,12-13-2020,07:56,METAR,Normal,220,5.0,,,9999.0,,-5.3,-6.1,30.11,1021.7,,,,,,,,,,,,,,,,1100.0,1200.0,OVC,1200.0,,,,,,
KRDR,12-13-2020,06:56,METAR,Normal,240,6.0,,,9999.0,,-5.5,-6.3,30.13,1022.4,,,,,,,,,,,TRACE,,,,,1100.0,1200.0,OVC,1200.0,,,,,,
KRDR,12-13-2020,06:48,SPECI,Normal,220,3.0,,,9999.0,,-5.0,-6.0,30.13,1022.4,,,,,,,,,,,,,,,,1100.0,1200.0,OVC,1200.0,,,,,,
KRDR,12-13-2020,06:08,SPECI,Normal,240,5.0,,,9999.0,,-5.0,-6.0,30.14,1022.7,,,,,,,,,,,,,,,,1000.0,1100.0,OVC,1100.0,,,,,,
KRDR,12-13-2020,05:58,SPECI,Normal,280,5.0,,,9999.0,,-5.0,-6.0,30.15,1023.1,,,,,,,,,,,,,,,,1000.0,1000.0,OVC,1000.0,,,,,,
KRDR,12-13-2020,05:56,METAR,Normal,290,6.0,,,9999.0,Light Snow,-5.3,-5.9,30.15,1023.1,71,,,,,,,,,,TRACE,,TRACE,,,1000.0,1000.0,OVC,1000.0,,,,,,
KRDR,12-13-2020,05:46,SPECI,Normal,220,3.0,,,9999.0,Light Snow,-5.0,-6.0,30.15,1023.1,71,,,,,,,,,,,,,,,1000.0,1000.0,OVC,1000.0,,,,,,
KRDR,12-13-2020,04:56,METAR,Normal,230,3.0,,,9999.0,,-5.5,-5.9,30.16,1023.4,,,,,,,,,,,,,,,,900.0,1000.0,OVC,1000.0,,,,,,
KRDR,12-13-2020,03:56,METAR,Calm,,0.0,,,9999.0,,-5.6,-6.1,30.17,1023.8,,,,,,,,,,,,,,,,1000.0,1000.0,OVC,1000.0,,,,,,
KRDR,12-13-2020,02:56,METAR,Calm,,0.0,,,9999.0,,-5.6,-6.1,30.17,1023.8,,,,,,,,,,,,,,,,1000.0,1000.0,OVC,1000.0,,,,,,
KRDR,12-13-2020,02:46,SPECI,Normal,70,3.0,,,9999.0,,-6.0,-6.0,30.17,1023.8,,,,,,,,,,,,,,,,1000.0,1000.0,OVC,1000.0,,,,,,
KRDR,12-13-2020,02:36,SPECI,Normal,90,3.0,,,9999.0,,-6.0,-6.0,30.18,1024.2,,,,,,,,,,,,,,,,1000.0,1100.0,OVC,1100.0,,,,,,
KRDR,12-13-2020,01:56,METAR,Calm,,0.0,,,9999.0,,-5.7,-6.0,30.18,1024.2,,,,,,,,,,,,,,,,900.0,1000.0,OVC,1000.0,,,,,,
KRDR,12-13-2020,00:56,METAR,Calm,,0.0,,,9999.0,,-5.7,-6.0,30.18,1024.2,,,,,,,,,,,,,,,,900.0,1000.0,OVC,1000.0,,,,,,
KRDR,12-12-2020,23:56,METAR,Normal,40,6.0,,,9999.0,,-5.6,-5.9,30.18,1024.2,,,,,,,,,,,,,TRACE,,,1000.0,1000.0,OVC,1000.0,,,,,,
KRDR,12-12-2020,22:56,METAR,Normal,50,5.0,,,9999.0,,-5.6,-5.9,30.18,1024.2,,,,,,,,,,,,,,,,1000.0,1000.0,OVC,1000.0,,,,,,
KRDR,12-12-2020,21:56,METAR,Normal,30,4.0,,,9999.0,,-5.6,-5.7,30.17,1023.8,,,,,,,,,,,,,,,,900.0,900.0,OVC,900.0,,,,,,
KRDR,12-12-2020,20:56,METAR,Normal,50,4.0,,,9999.0,,-5.5,-5.6,30.17,1023.7,,,,,,,,,,,,,,,,800.0,900.0,OVC,900.0,,,,,,
KRDR,12-12-2020,19:56,METAR,Normal,30,6.0,,,9999.0,Light Snow,-5.4,-5.5,30.17,1023.7,71,,,,,,,,,,TRACE,,,,,700.0,800.0,OVC,800.0,,,,,,
KRDR,12-12-2020,18:56,METAR,Normal,10,6.0,,,9999.0,Light Snow,-5.3,-5.4,30.18,1024.1,71,,,,,,,,,,TRACE,,,,,800.0,800.0,OVC,800.0,,,,,,
KRDR,12-12-2020,17:56,METAR,Normal,60,7.0,,,9999.0,,-5.5,-5.6,30.20,1024.8,,,,,,,,,,,TRACE,,TRACE,,,500.0,600.0,OVC,600.0,,,,,,
KRDR,12-12-2020,16:56,METAR,Normal,70,8.0,,,9999.0,Light Snow,-5.7,-5.8,30.21,1025.2,71,,,,,,,,,,TRACE,,,,,500.0,600.0,OVC,600.0,,,,,,
KRDR,12-12-2020,15:56,METAR,Normal,50,6.0,,,9999.0,,-5.8,-5.9,30.22,1025.5,,,,,,,,,,,,,,,,800.0,800.0,OVC,800.0,,,,,,
KRDR,12-12-2020,14:56,METAR,Normal,70,5.0,,,9999.0,,-5.9,-6.0,30.22,1025.5,,,,,,,,,,,,,,,,600.0,800.0,OVC,800.0,,,,,,
KRDR,12-12-2020,13:56,METAR,Normal,30,6.0,,,9999.0,,-5.6,-5.6,30.22,1025.5,,,,,,,,,,,,,,,,600.0,900.0,OVC,900.0,,,,,,
KRDR,12-12-2020,12:56,METAR,Normal,40,4.0,,,9999.0,,-5.7,-5.7,30.22,1025.5,,,,,,,,,,,,,,,,800.0,800.0,OVC,800.0,,,,,,
KRDR,12-12-2020,11:56,METAR,Normal,20,3.0,,,9999.0,,-5.7,-5.7,30.22,1025.5,,,,,,,,,,,,,,,,500.0,700.0,OVC,700.0,,,,,,
KRDR,12-12-2020,11:44,SPECI,Normal,40,4.0,,,9999.0,,-6.0,-6.0,30.22,1025.5,,,,,,,,,,,,,,,,300.0,400.0,BKN,400.0,OVC,900.0,,,,
KRDR,12-12-2020,10:56,METAR,Normal,30,3.0,,,9999.0,,-5.9,-5.9,30.22,1025.5,,,,,,,,,,,,,,,,500.0,500.0,OVC,500.0,,,,,,
KRDR,12-12-2020,09:56,METAR,Normal,50,5.0,,,9999.0,,-5.8,-5.8,30.22,1025.5,,,,,,,,,,,,,,,,400.0,500.0,OVC,500.0,,,,,,
KRDR,12-12-2020,08:56,METAR,Normal,60,6.0,,,8000.0,Mist,-5.6,-5.6,30.22,1025.4,10,,,,,,,,,,,,,,,300.0,400.0,OVC,400.0,,,,,,
KRDR,12-12-2020,08:34,SPECI,Normal,40,5.0,,,9999.0,Mist,-6.0,-6.0,30.22,1025.4,10,,,,,,,,,,,,,,,300.0,400.0,OVC,400.0,,,,,,
KRDR,12-12-2020,08:29,SPECI,Normal,60,6.0,,,9999.0,Light Freezing Drizzle/Mist,-6.0,-6.0,30.22,1025.4,54,10,,,,,,,,,,,,,,300.0,400.0,OVC,400.0,,,,,,
KRDR,12-12-2020,07:56,METAR,Normal,70,3.0,,,9999.0,,-5.8,-5.8,30.22,1025.4,,,,,,,,,,,,,,,,300.0,400.0,OVC,400.0,,,,,,
KRDR,12-12-2020,07:06,SPECI,Normal,70,4.0,,,9999.0,,-6.0,-6.0,30.23,1025.8,,,,,,,,,,,,,,,,300.0,400.0,OVC,400.0,,,,,,
KRDR,12-12-2020,06:56,METAR,Normal,60,3.0,,,9999.0,,-5.8,-5.8,30.23,1025.8,,,,,,,,,,,,,,,,300.0,300.0,OVC,300.0,,,,,,
KRDR,12-12-2020,05:56,METAR,Calm,,0.0,,,9999.0,,-6.0,-6.0,30.24,1026.1,,,,,,,,,,,,,,,,300.0,300.0,OVC,300.0,,,,,,
KRDR,12-12-2020,04:56,METAR,Calm,,0.0,,,9999.0,,-5.8,-5.8,30.24,1026.1,,,,,,,,,,,,,,,,200.0,300.0,OVC,300.0,,,,,,
KRDR,12-12-2020,03:56,METAR,Normal,310,4.0,,,9999.0,Mist,-5.8,-5.8,30.24,1026.1,10,,,,,,,,,,,,,,,200.0,300.0,OVC,300.0,,,,,,
KRDR,12-12-2020,02:56,METAR,Calm,,0.0,,,9999.0,,-5.7,-5.7,30.23,1025.8,,,,,,,,,,,,,,,,200.0,300.0,OVC,300.0,,,,,,
KRDR,12-12-2020,01:56,METAR,Calm,,0.0,,,9999.0,,-5.5,-5.5,30.23,1025.7,,,,,,,,,,,,,,,,200.0,300.0,OVC,300.0,,,,,,
KRDR,12-12-2020,00:56,METAR,Calm,,0.0,,,9999.0,,-5.4,-5.4,30.23,1025.7,,,,,,,,,,,,,,,,200.0,300.0,OVC,300.0,,,,,,
KRDR,12-11-2020,23:56,METAR,Normal,60,5.0,,,9999.0,,-5.3,-5.3,30.22,1025.4,,,,,,,,,,,,,,,,300.0,300.0,OVC,300.0,,,,,,
KRDR,12-11-2020,22:56,METAR,Calm,,0.0,,,9999.0,,-5.2,-5.2,30.21,1025.0,,,,,,,,,,,,,,,,300.0,400.0,OVC,400.0,,,,,,
KRDR,12-11-2020,22:16,SPECI,Normal,60,3.0,,,9999.0,,-5.0,-5.0,30.20,1024.7,,,,,,,,,,,,,,,,200.0,400.0,OVC,400.0,,,,,,
KRDR,12-11-2020,22:06,SPECI,Normal,60,4.0,,,9999.0,,-5.0,-5.0,30.20,1024.7,,,,,,,,,,,,,,,,300.0,300.0,OVC,300.0,,,,,,
KRDR,12-11-2020,21:56,METAR,Normal,90,3.0,,,9999.0,,-5.1,-5.2,30.20,1024.7,,,,,,,,,,,,,,,,300.0,400.0,OVC,400.0,,,,,,
KRDR,12-11-2020,21:26,SPECI,Normal,100,3.0,,,9999.0,,-5.0,-5.0,30.20,1024.7,,,,,,,,,,,,,,,,300.0,400.0,OVC,400.0,,,,,,
KRDR,12-11-2020,21:16,SPECI,Normal,70,4.0,,,9999.0,,-5.0,-5.0,30.20,1024.7,,,,,,,,,,,,,,,,300.0,300.0,OVC,300.0,,,,,,
KRDR,12-11-2020,20:56,METAR,Calm,,0.0,,,9999.0,,-4.7,-4.8,30.19,1024.3,,,,,,,,,,,,,,,,400.0,400.0,OVC,400.0,,,,,,
KRDR,12-11-2020,20:46,SPECI,Calm,,0.0,,,9999.0,,-5.0,-5.0,30.19,1024.3,,,,,,,,,,,,,,,,400.0,400.0,OVC,400.0,,,,,,
KRDR,12-11-2020,19:56,METAR,Calm,,0.0,,,9999.0,,-4.7,-4.7,30.19,1024.3,,,,,,,,,,,,,,,,200.0,300.0,OVC,300.0,,,,,,
KRDR,12-11-2020,18:56,METAR,Normal,90,3.0,,,9999.0,,-4.7,-4.7,30.20,1024.7,,,,,,,,,,,,,,,,200.0,300.0,OVC,300.0,,,,,,
KRDR,12-11-2020,17:56,METAR,Normal,20,4.0,,,9999.0,,-4.4,-4.4,30.21,1024.9,,,,,,,,,,,,,,,,200.0,300.0,OVC,300.0,,,,,,
KRDR,12-11-2020,17:26,SPECI,Normal,70,5.0,,,9999.0,,-4.0,-4.0,30.22,1025.3,,,,,,,,,,,,,,,,300.0,300.0,OVC,300.0,,,,,,
KRDR,12-11-2020,16:56,METAR,Normal,30,3.0,,,9999.0,,-4.2,-4.3,30.23,1025.6,,,,,,,,,,,,,,,,300.0,400.0,OVC,400.0,,,,,,
KRDR,12-11-2020,15:56,METAR,Normal,50,4.0,,,9999.0,,-3.9,-4.0,30.23,1025.5,,,,,,,,,,,,,,,,300.0,400.0,OVC,400.0,,,,,,
KRDR,12-11-2020,15:06,SPECI,Normal,20,4.0,,,9999.0,,-4.0,-4.0,30.22,1025.2,,,,,,,,,,,,,,,,400.0,400.0,OVC,400.0,,,,,,
KRDR,12-11-2020,14:56,METAR,Normal,30,7.0,,,9999.0,,-3.6,-3.7,30.22,1025.2,,,,,,,,,,,,,,,,400.0,500.0,OVC,500.0,,,,,,
KRDR,12-11-2020,13:56,METAR,Normal,20,5.0,,,9999.0,,-3.5,-3.6,30.22,1025.1,,,,,,,,,,,,,,,,500.0,500.0,OVC,500.0,,,,,,
KRDR,12-11-2020,12:56,METAR,Calm,,0.0,,,9999.0,,-3.6,-3.7,30.21,1024.9,,,,,,,,,,,,,,,,500.0,500.0,OVC,500.0,,,,,,
KRDR,12-11-2020,12:26,SPECI,Normal,20,5.0,,,9999.0,,-3.0,-4.0,30.20,1024.4,,,,,,,,,,,,,,,,500.0,500.0,OVC,500.0,,,,,,
KRDR,12-11-2020,11:56,METAR,Normal,40,3.0,,,9999.0,,-3.4,-3.5,30.19,1024.1,,,,,,,,,,,,,,,,600.0,600.0,OVC,600.0,,,,,,
KRDR,12-11-2020,11:16,SPECI,Normal,40,3.0,,,9999.0,,-3.0,-3.0,30.20,1024.4,,,,,,,,,,,,,,,,600.0,600.0,OVC,600.0,,,,,,
KRDR,12-11-2020,10:56,METAR,Normal,40,6.0,,,9999.0,,-3.2,-3.3,30.19,1024.1,,,,,,,,,,,,,,,,700.0,700.0,OVC,700.0,,,,,,
KRDR,12-11-2020,10:36,SPECI,Normal,40,4.0,,,9999.0,,-3.0,-3.0,30.19,1024.1,,,,,,,,,,,,,,,,700.0,700.0,OVC,700.0,,,,,,
KRDR,12-11-2020,09:56,METAR,Normal,10,6.0,,,9999.0,,-2.8,-3.1,30.20,1024.4,,,,,,,,,,,,,,,,800.0,800.0,OVC,800.0,,,,,,
KRDR,12-11-2020,08:56,METAR,Normal,10,6.0,,,9999.0,,-2.8,-3.2,30.20,1024.4,,,,,,,,,,,,,,,,800.0,900.0,OVC,900.0,,,,,,
KRDR,12-11-2020,07:56,METAR,Normal,20,7.0,,,9999.0,,-2.6,-3.2,30.19,1024.0,,,,,,,,,,,,,,,,900.0,900.0,OVC,900.0,,,,,,
KRDR,12-11-2020,07:26,SPECI,Normal,10,8.0,,,9999.0,,-2.0,-3.0,30.18,1023.7,,,,,,,,,,,,,,,,900.0,900.0,OVC,900.0,,,,,,
KRDR,12-11-2020,06:56,METAR,Normal,10,8.0,,,9999.0,,-2.1,-2.8,30.18,1023.6,,,,,,,,,,,,,,,,1000.0,1000.0,OVC,1000.0,,,,,,
KRDR,12-11-2020,06:26,SPECI,Normal,20,7.0,,,9999.0,,-2.0,-3.0,30.18,1023.6,,,,,,,,,,,,,,,,1000.0,1000.0,OVC,1000.0,,,,,,
KRDR,12-11-2020,05:56,METAR,Normal,360,11.0,,,9999.0,,-1.7,-2.7,30.18,1023.6,,,,,,,,,,,,,,,,1100.0,1100.0,OVC,1100.0,,,,,,
KRDR,12-11-2020,04:56,METAR,Normal,10,7.0,,,9999.0,,-1.1,-2.2,30.17,1023.3,,,,,,,,,,,,,,,,1100.0,1100.0,OVC,1100.0,,,,,,
KRDR,12-11-2020,04:27,SPECI,Normal,360,7.0,,,9999.0,,-1.0,-2.0,30.16,1022.9,,,,,,,,,,,,,,,,1100.0,1100.0,OVC,1100.0,,,,,,
KRDR,12-11-2020,04:26,SPECI,Normal,360,8.0,,,9999.0,,-1.0,-2.0,30.16,1022.9,,,,,,,,,,,,,,,,1200.0,1200.0,OVC,1200.0,,,,,,
KRDR,12-11-2020,04:06,SPECI,Normal,10,9.0,,,9999.0,,-1.0,-2.0,30.15,1022.6,,,,,,,,,,,,,,,,1300.0,1300.0,OVC,1300.0,,,,,,
KRDR,12-11-2020,03:56,METAR,Normal,10,10.0,,,9999.0,,-0.7,-2.1,30.15,1022.6,,,,,,,,,,,,,,,,1300.0,1400.0,OVC,1400.0,,,,,,
KRDR,12-11-2020,03:46,SPECI,Normal,10,9.0,,,9999.0,,-1.0,-2.0,30.15,1022.6,,,,,,,,,,,,,,,,1300.0,1400.0,OVC,1400.0,,,,,,
KRDR,12-11-2020,03:36,SPECI,Normal,360,8.0,,,9999.0,,-1.0,-2.0,30.15,,,,,,,,,,,,,,,,,1200.0,1300.0,OVC,1300.0,,,,,,
KRDR,12-11-2020,02:56,METAR,Normal,10,8.0,,,9999.0,,-0.4,-1.5,30.15,1022.6,,,,,,,,,,,,,,,,1200.0,1200.0,OVC,1200.0,,,,,,
KRDR,12-11-2020,02:36,SPECI,Normal,20,8.0,,,9999.0,,0.0,-1.0,30.15,1022.6,,,,,,,,,,,,,,,,1200.0,1200.0,OVC,1200.0,,,,,,
KRDR,12-11-2020,01:56,METAR,Normal,10,7.0,,,9999.0,,0.3,-1.2,30.14,1022.2,,,,,,,,,,,,,,,,1300.0,1300.0,OVC,1300.0,,,,,,
KRDR,12-11-2020,01:26,SPECI,Normal,350,7.0,,,9999.0,,0.0,-1.0,30.12,1021.6,,,,,,,,,,,,,,,,1400.0,1400.0,OVC,1400.0,,,,,,
KRDR,12-11-2020,00:56,METAR,Normal,340,6.0,,,9999.0,,0.4,-1.2,30.11,1021.2,,,,,,,,,,,,,,,,1500.0,1500.0,OVC,1500.0,,,,,,
KRDR,12-10-2020,23:56,METAR,Normal,340,8.0,,,9999.0,,0.6,-1.2,30.12,1021.5,,,,,,,,,,,,,,,,1800.0,1900.0,OVC,1900.0,,,,,,
KRDR,12-10-2020,23:26,SPECI,Normal,330,10.0,,,9999.0,,1.0,-1.0,30.12,1021.5,,,,,,,,,,,,,,,,1900.0,1900.0,OVC,1900.0,,,,,,
KRDR,12-10-2020,22:56,METAR,Normal,320,7.0,,,9999.0,,0.9,-1.0,30.11,1021.2,,,,,,,,,,,,,,,,2000.0,2000.0,OVC,2000.0,,,,,,
KRDR,12-10-2020,21:56,METAR,Normal,310,9.0,,,9999.0,,1.6,-0.7,30.09,1020.5,,,,,,,,,,,,,,,,1800.0,2000.0,OVC,2000.0,,,,,,
KRDR,12-10-2020,20:56,METAR,Normal,320,11.0,,,9999.0,,2.3,-0.3,30.07,1019.9,,,,,,,,,,,,,,,,1800.0,1800.0,OVC,1800.0,,,,,,
KRDR,12-10-2020,19:56,METAR,Normal,320,9.0,,,9999.0,,2.7,-0.1,30.04,1018.8,,,,,,,,,,,,,,,,1700.0,1700.0,OVC,1700.0,,,,,,
KRDR,12-10-2020,18:56,METAR,Normal,340,11.0,,,9999.0,,3.1,0.2,30.03,1018.6,,,,,,,,,,,,,,,,1700.0,1700.0,OVC,1700.0,,,,,,
KRDR,12-10-2020,18:06,SPECI,Normal,330,12.0,,,9999.0,,3.0,1.0,30.03,1018.5,,,,,,,,,,,,,,,,1400.0,1500.0,BKN,1500.0,OVC,2300.0,,,,
KRDR,12-10-2020,17:56,METAR,Normal,330,11.0,,,9999.0,,3.0,1.0,30.03,1018.5,,,,,,,,,,,,,TRACE,,,1400.0,1400.0,SCT,1400.0,OVC,2300.0,,,,
KRDR,12-10-2020,16:56,METAR,Normal,330,11.0,,,9999.0,,2.2,0.9,30.02,1018.1,,,,,,,,,,,,,,,,2200.0,2300.0,BKN,2300.0,,,,,,
KRDR,12-10-2020,16:02,SPECI,Normal,320,11.0,,,9999.0,,2.0,2.0,30.00,1017.3,,,,,,,,,,,,,,,,1100.0,1100.0,SCT,1100.0,OVC,2000.0,,,,
KRDR,12-10-2020,15:56,METAR,Normal,320,12.0,,,9999.0,,2.2,1.8,30.00,1017.3,,,,,,,,,,,,,,,,1000.0,1100.0,BKN,1100.0,OVC,2000.0,,,,
KRDR,12-10-2020,15:54,SPECI,Normal,320,11.0,,,9999.0,,2.0,2.0,30.00,1017.3,,,,,,,,,,,,,,,,1000.0,1100.0,BKN,1100.0,OVC,2000.0,,,,
KRDR,12-10-2020,14:56,METAR,Normal,320,9.0,,,9999.0,,2.4,2.3,29.97,1016.3,,,,,,,,,,,,TRACE,,,,1000.0,1000.0,OVC,1000.0,,,,,,
KRDR,12-10-2020,14:36,SPECI,Normal,330,8.0,,,9999.0,,2.0,2.0,29.96,1016.0,,,,,,,,,,,,,,,,900.0,900.0,BKN,900.0,OVC,1600.0,,,,
KRDR,12-10-2020,14:26,SPECI,Normal,330,8.0,,,9999.0,,2.0,2.0,29.95,1015.6,,,,,,,,,,,,,,,,800.0,1000.0,BKN,1000.0,OVC,1700.0,,,,
KRDR,12-10-2020,13:56,METAR,Normal,330,8.0,,,9999.0,,2.4,2.4,29.94,1015.3,,,,,,,,,,,,,,,,800.0,800.0,OVC,800.0,,,,,,
KRDR,12-10-2020,13:46,SPECI,Normal,330,8.0,,,9999.0,,2.0,2.0,29.94,1015.3,,,,,,,,,,,,,,,,700.0,800.0,OVC,800.0,,,,,,
KRDR,12-10-2020,13:36,SPECI,Normal,340,9.0,,,9999.0,,2.0,2.0,29.94,1015.3,,,,,,,,,,,,,,,,600.0,700.0,OVC,700.0,,,,,,
KRDR,12-10-2020,12:56,METAR,Normal,10,6.0,,,9999.0,,2.2,2.2,29.92,1014.6,,,,,,,,,,,TRACE,,,,,600.0,600.0,OVC,600.0,,,,,,
KRDR,12-10-2020,12:21,SPECI,Normal,360,10.0,,,9999.0,,2.0,2.0,29.91,1014.3,,,,,,,,,,,,,,,,600.0,600.0,BKN,600.0,BKN,1500.0,OVC,2100.0,,
KRDR,12-10-2020,12:11,SPECI,Normal,360,10.0,,,9999.0,,2.0,2.0,29.90,1013.8,,,,,,,,,,,,,,,,600.0,600.0,FEW,600.0,BKN,1400.0,OVC,2100.0,,
KRDR,12-10-2020,12:01,SPECI,Normal,360,10.0,,,9999.0,Light Rain,2.0,2.0,29.90,1013.8,61,,,,,,,,,,,,,,,500.0,600.0,SCT,600.0,OVC,1400.0,,,,
KRDR,12-10-2020,11:56,METAR,Normal,360,10.0,,,9999.0,,2.4,2.4,29.89,1013.5,,,,,,,,,,,TRACE,,TRACE,,,500.0,500.0,BKN,500.0,OVC,1400.0,,,,
KRDR,12-10-2020,11:55,SPECI,Normal,360,10.0,,,9999.0,,2.0,2.0,29.89,1013.5,,,,,,,,,,,,,,,,500.0,500.0,BKN,500.0,OVC,1400.0,,,,
KRDR,12-10-2020,11:45,SPECI,Normal,10,10.0,20.0,,9999.0,Light Rain,2.0,2.0,29.89,1013.5,61,,,,,,,,,,,,,,,400.0,500.0,BKN,500.0,OVC,1200.0,,,,
KRDR,12-10-2020,11:28,SPECI,Normal,350,16.0,19.0,,9999.0,,2.0,2.0,29.89,1013.5,,,,,,,,,,,,,,,,400.0,500.0,BKN,500.0,OVC,4400.0,,,,
KRDR,12-10-2020,11:18,SPECI,Normal,360,16.0,20.0,,9999.0,,2.0,2.0,29.88,1013.2,,,,,,,,,,,,,,,,600.0,600.0,BKN,600.0,BKN,4400.0,OVC,6000.0,,
KRDR,12-10-2020,11:08,SPECI,Normal,350,13.0,,,9999.0,,2.0,2.0,29.88,1013.2,,,,,,,,,,,,,,,,6000.0,700.0,FEW,700.0,FEW,4400.0,OVC,6000.0,,
KRDR,12-10-2020,10:56,METAR,Normal,350,12.0,,,9999.0,,1.8,0.9,29.87,1012.9,,,,,,,,,,,,,,,,6000.0,6000.0,OVC,6000.0,,,,,,
KRDR,12-10-2020,09:56,METAR,Normal,360,9.0,,,9999.0,,0.5,-1.0,29.85,1012.1,,,,,,,,,,,,,,,,6500.0,6500.0,BKN,6500.0,OVC,21000.0,,,,
KRDR,12-10-2020,08:56,METAR,Normal,10,7.0,,,9999.0,,-1.8,-2.4,29.82,1011.1,,,,,,,,,,,,,,,,16000.0,16000.0,OVC,16000.0,,,,,,
KRDR,12-10-2020,07:56,METAR,Normal,30,6.0,,,9999.0,,-0.1,-1.5,29.81,1010.7,,,,,,,,,,,,,,,,15000.0,15000.0,BKN,15000.0,OVC,17000.0,,,,
KRDR,12-10-2020,06:56,METAR,Normal,330,7.0,,,9999.0,,-2.4,-3.7,29.81,1010.8,,,,,,,,,,,,,,,,15000.0,15000.0,OVC,15000.0,,,,,,
KRDR,12-10-2020,05:56,METAR,Normal,130,3.0,,,9999.0,,-1.3,-2.6,29.81,1010.8,,,,,,,,,,,,,,,2/8 Mostly Clear,72000.0,8500.0,FEW,8600.0,,,,,,
KRDR,12-10-2020,04:56,METAR,Calm,,0.0,,,9999.0,,1.4,-1.3,29.82,1011.2,,,,,,,,,,,,,,,4/8 Partly Cloudy,72000.0,10000.0,FEW,10000.0,FEW,12000.0,SCT,17000.0,,
KRDR,12-10-2020,03:56,METAR,Normal,90,4.0,,,9999.0,,4.3,-0.5,29.81,1010.8,,,,,,,,,,,,,,,,9500.0,9500.0,OVC,9600.0,,,,,,
KRDR,12-10-2020,02:56,METAR,Normal,180,3.0,,,9999.0,,4.6,-0.2,29.83,1011.5,,,,,,,,,,,,,,,,8500.0,8500.0,OVC,8600.0,,,,,,
KRDR,12-10-2020,01:56,METAR,Normal,180,6.0,,,9999.0,,3.7,-0.1,29.84,1011.9,,,,,,,,,,,TRACE,,,,,8500.0,8500.0,OVC,8600.0,,,,,,
KRDR,12-10-2020,01:22,SPECI,Normal,180,5.0,,,9999.0,,4.0,0.0,29.85,1012.3,,,,,,,,,,,,,,,,8500.0,8500.0,OVC,8600.0,,,,,,
KRDR,12-10-2020,01:11,SPECI,Normal,180,4.0,,,9999.0,Light Rain,4.0,0.0,29.85,1012.3,61,,,,,,,,,,,,,,,7500.0,7500.0,BKN,7500.0,OVC,9100.0,,,,
KRDR,12-10-2020,00:56,METAR,Normal,190,4.0,,,9999.0,,4.0,0.0,29.85,1012.3,,,,,,,,,,,,,,,,9000.0,9000.0,OVC,9100.0,,,,,,
KRDR,12-09-2020,23:56,METAR,Normal,220,5.0,,,9999.0,,5.6,0.2,29.88,1013.2,,,,,,,,,,,,,,,,6000.0,6000.0,BKN,6000.0,,,,,,
KRDR,12-09-2020,22:56,METAR,Normal,180,8.0,,,9999.0,,5.0,-0.4,29.87,1012.9,,,,,,,,,,,,,,,,16000.0,6500.0,SCT,6500.0,BKN,16000.0,,,,
KRDR,12-09-2020,21:56,METAR,Normal,140,3.0,,,9999.0,,7.0,-0.5,29.88,1013.2,,,,,,,,,,,,,,,,17000.0,13000.0,SCT,13000.0,BKN,17000.0,,,,
KRDR,12-09-2020,20:56,METAR,Normal,260,3.0,,,9999.0,,10.1,0.1,29.89,1013.4,,,,,,,,,,,,,,,,16000.0,10000.0,SCT,10000.0,BKN,16000.0,,,,
KRDR,12-09-2020,19:56,METAR,Calm,,0.0,,,9999.0,,9.5,-0.7,29.90,1013.8,,,,,,,,,,,,,,,,19000.0,10000.0,SCT,10000.0,BKN,19000.0,,,,
KRDR,12-09-2020,18:56,METAR,Normal,260,3.0,,,9999.0,,7.3,-0.4,29.91,1014.3,,,,,,,,,,,,,,,,18000.0,18000.0,BKN,18000.0,,,,,,
KRDR,12-09-2020,17:56,METAR,Normal,320,3.0,,,9999.0,,6.6,-0.6,29.91,1014.2,,,,,,,,,,,,,,,4/8 Partly Cloudy,72000.0,18000.0,FEW,18000.0,SCT,22000.0,,,,
KRDR,12-09-2020,16:56,METAR,Normal,310,5.0,,,9999.0,,5.3,-0.5,29.94,1015.4,,,,,,,,,,,,,,,4/8 Partly Cloudy,72000.0,23000.0,SCT,23000.0,,,,,,
KRDR,12-09-2020,15:56,METAR,Normal,280,5.0,,,9999.0,,2.9,-0.7,29.94,1015.5,,,,,,,,,,,,,,,Clear,72000.0,,,,,,,,,
KRDR,12-09-2020,14:56,METAR,Normal,300,8.0,,,9999.0,,0.4,-1.7,29.93,1015.2,,,,,,,,,,,,,,,Clear,72000.0,,,,,,,,,
KRDR,12-09-2020,13:56,METAR,Normal,310,8.0,,,9999.0,,-0.3,-1.9,29.91,1014.5,,,,,,,,,,,,,,,Clear,72000.0,,,,,,,,,
KRDR,12-09-2020,12:56,METAR,Normal,300,8.0,,,9999.0,,0.2,-1.7,29.89,1013.8,,,,,,,,,,,,,,,Clear,72000.0,,,,,,,,,
KRDR,12-09-2020,11:56,METAR,Normal,300,10.0,,,9999.0,,0.3,-1.9,29.88,1013.4,,,,,,,,,,,,,,,Clear,72000.0,,,,,,,,,
KRDR,12-09-2020,10:56,METAR,Normal,310,10.0,,,9999.0,,0.7,-1.9,29.87,1013.0,,,,,,,,,,,,,,,Clear,72000.0,,,,,,,,,
KRDR,12-09-2020,09:56,METAR,Normal,320,10.0,,,9999.0,,0.5,-1.7,29.87,1012.9,,,,,,,,,,,,,,,Clear,72000.0,,,,,,,,,
KRDR,12-09-2020,08:56,METAR,Normal,290,10.0,,,9999.0,,-0.3,-2.0,29.86,1012.4,,,,,,,,,,,,,,,Clear,72000.0,,,,,,,,,
KRDR,12-09-2020,07:56,METAR,Normal,290,8.0,,,9999.0,,-1.3,-2.1,29.84,1011.7,,,,,,,,,,,,,,,Clear,72000.0,,,,,,,,,
KRDR,12-09-2020,06:56,METAR,Normal,290,7.0,,,9999.0,,-0.8,-1.6,29.81,1010.8,,,,,,,,,,,,,,,Clear,72000.0,,,,,,,,,
KRDR,12-09-2020,05:56,METAR,Normal,310,8.0,,,9999.0,,1.4,-0.7,29.79,1010.1,,,,,,,,,,,,,,,Clear,72000.0,,,,,,,,,
KRDR,12-09-2020,04:56,METAR,Normal,310,8.0,,,9999.0,,-2.2,-2.8,29.77,1009.6,,,,,,,,,,,,,,,Clear,72000.0,,,,,,,,,
KRDR,12-09-2020,03:56,METAR,Normal,280,4.0,,,9999.0,,-2.6,-4.0,29.75,1008.9,,,,,,,,,,,,,,,Clear,72000.0,,,,,,,,,
KRDR,12-09-2020,02:56,METAR,Normal,260,3.0,,,9999.0,,-1.8,-4.0,29.75,1009.1,,,,,,,,,,,,,,,Clear,72000.0,,,,,,,,,
KRDR,12-09-2020,01:56,METAR,Normal,250,4.0,,,9999.0,,-1.1,-3.8,29.75,1009.0,,,,,,,,,,,,,,,,20000.0,20000.0,BKN,20000.0,,,,,,
KRDR,12-09-2020,00:56,METAR,Normal,240,5.0,,,9999.0,,-0.5,-3.5,29.75,1009.1,,,,,,,,,,,,,,,,25000.0,18000.0,SCT,18000.0,OVC,25000.0,,,,
KRDR,12-08-2020,23:56,METAR,Normal,230,3.0,,,9999.0,,0.9,-2.5,29.76,1009.4,,,,,,,,,,,,,,,,15000.0,15000.0,BKN,15000.0,,,,,,
KRDR,12-08-2020,22:56,METAR,Normal,220,4.0,,,9999.0,,1.5,-2.3,29.76,1009.4,,,,,,,,,,,,,,,Clear,72000.0,,,,,,,,,
KRDR,12-08-2020,21:56,METAR,Calm,,0.0,,,9999.0,,5.3,-0.7,29.76,1009.2,,,,,,,,,,,,,,,Clear,72000.0,,,,,,,,,
KRDR,12-08-2020,20:56,METAR,Normal,300,4.0,,,9999.0,,9.3,-0.6,29.77,1009.4,,,,,,,,,,,,,,,,18000.0,18000.0,BKN,18000.0,,,,,,
KRDR,12-08-2020,19:56,METAR,Normal,300,5.0,,,9999.0,,10.0,-0.2,29.77,1009.5,,,,,,,,,,,,,,,,10000.0,10000.0,BKN,10000.0,FEW,18000.0,,,,
KRDR,12-08-2020,18:56,METAR,Normal,280,8.0,,,9999.0,,8.9,-0.2,29.78,1009.8,,,,,,,,,,,,,,,,19000.0,19000.0,BKN,19000.0,,,,,,
KRDR,12-08-2020,17:56,METAR,Normal,280,9.0,,,9999.0,,7.6,-0.4,29.79,1010.2,,,,,,,,,,,,,,,,19000.0,19000.0,BKN,19000.0,,,,,,
KRDR,12-08-2020,17:21,SPECI,Normal,280,10.0,,,9999.0,,8.0,0.0,29.80,1010.4,,,,,,,,,,,,,,,,11000.0,11000.0,BKN,11000.0,,,,,,
KRDR,12-08-2020,16:56,METAR,Normal,290,12.0,,,9999.0,,6.1,-0.6,29.81,1010.8,,,,,,,,,,,,,,,2/8 Mostly Clear,72000.0,20000.0,FEW,20000.0,,,,,,
KRDR,12-08-2020,15:56,METAR,Normal,300,10.0,,,9999.0,,4.5,-0.5,29.81,1010.9,,,,,,,,,,,,,,,2/8 Mostly Clear,72000.0,17000.0,FEW,17000.0,,,,,,
KRDR,12-08-2020,14:56,METAR,Normal,290,9.0,,,9999.0,,0.8,-1.3,29.81,1011.1,,,,,,,,,,,,,,,4/8 Partly Cloudy,72000.0,21000.0,SCT,21000.0,,,,,,
KRDR,12-08-2020,13:56,METAR,Normal,290,9.0,,,9999.0,,0.3,-1.6,29.82,1011.5,,,,,,,,,,,,,,,Clear,72000.0,,,,,,,,,
KRDR,12-08-2020,11:56,METAR,Normal,270,5.0,,,9999.0,,-3.8,-4.2,29.84,1012.3,,,,,,,,,,,,,,,Clear,72000.0,,,,,,,,,
KRDR,12-08-2020,10:56,METAR,Normal,200,5.0,,,9999.0,,-2.4,-4.0,29.83,1011.7,,,,,,,,,,,,,,,Clear,72000.0,,,,,,,,,
KRDR,12-08-2020,09:56,METAR,Normal,230,6.0,,,9999.0,,-0.9,-3.3,29.84,1011.9,,,,,,,,,,,,,,,2/8 Mostly Clear,72000.0,19000.0,FEW,19000.0,,,,,,
KRDR,12-08-2020,08:56,METAR,Normal,200,6.0,,,9999.0,,-1.2,-3.4,29.85,1012.2,,,,,,,,,,,,,,,2/8 Mostly Clear,72000.0,22000.0,FEW,22000.0,,,,,,
KRDR,12-08-2020,07:56,METAR,Normal,230,6.0,,,9999.0,,-3.3,-5.2,29.87,1013.0,,,,,,,,,,,,,,,Clear,72000.0,,,,,,,,,
KRDR,12-08-2020,06:56,METAR,Normal,200,8.0,,,9999.0,,-2.4,-4.6,29.87,1013.0,,,,,,,,,,,,,,,Clear,72000.0,,,,,,,,,
KRDR,12-08-2020,05:56,METAR,Normal,210,5.0,,,9999.0,,-1.2,-4.0,29.90,1014.0,,,,,,,,,,,,,,,4/8 Partly Cloudy,72000.0,18000.0,SCT,18000.0,,,,,,
KRDR,12-08-2020,04:56,METAR,Normal,190,7.0,,,9999.0,,-0.3,-3.5,29.91,1014.4,,,,,,,,,,,,,,,,18000.0,18000.0,OVC,18000.0,,,,,,
KRDR,12-08-2020,03:56,METAR,Normal,190,6.0,,,9999.0,,-0.8,-4.0,29.94,1015.5,,,,,,,,,,,,,,,4/8 Partly Cloudy,72000.0,19000.0,SCT,19000.0,,,,,,
KRDR,12-08-2020,02:56,METAR,Normal,240,9.0,,,9999.0,,-1.2,-4.2,29.95,1016.0,,,,,,,,,,,,,,,Clear,72000.0,,,,,,,,,
KRDR,12-08-2020,01:56,METAR,Normal,180,9.0,,,9999.0,,-2.4,-4.9,29.94,1015.7,,,,,,,,,,,,,,,Clear,72000.0,,,,,,,,,
KRDR,12-08-2020,00:56,METAR,Normal,210,6.0,,,9999.0,,-1.2,-4.7,29.98,1017.0,,,,,,,,,,,,,,,Clear,72000.0,,,,,,,,,
KRDR,12-07-2020,23:56,METAR,Normal,200,5.0,,,9999.0,,-2.0,-5.7,30.00,1017.8,,,,,,,,,,,,,,,Clear,72000.0,,,,,,,,,
KRDR,12-07-2020,22:56,METAR,Normal,240,3.0,,,9999.0,,1.5,-4.0,29.99,1017.4,,,,,,,,,,,,,,,Clear,72000.0,,,,,,,,,
KRDR,12-07-2020,21:56,METAR,Calm,,0.0,,,9999.0,,5.6,-3.7,29.97,1016.6,,,,,,,,,,,,,,,Clear,72000.0,,,,,,,,,
KRDR,12-07-2020,20:56,METAR,Normal,320,5.0,,,9999.0,,6.6,-4.5,29.97,1016.5,,,,,,,,,,,,,,,Clear,72000.0,,,,,,,,,
KRDR,12-07-2020,19:56,METAR,Normal,320,6.0,,,9999.0,,6.6,-5.1,29.96,1016.2,,,,,,,,,,,,,,,Clear,72000.0,,,,,,,,,
KRDR,12-07-2020,18:56,METAR,Normal,330,6.0,,,9999.0,,5.7,-5.0,29.98,1016.9,,,,,,,,,,,,,,,Clear,72000.0,,,,,,,,,
KRDR,12-07-2020,17:56,METAR,Normal,340,10.0,,,9999.0,,4.8,-4.8,29.98,1016.9,,,,,,,,,,,,,,,Clear,72000.0,,,,,,,,,
KRDR,12-07-2020,16:56,METAR,Normal,320,10.0,,,9999.0,,2.9,-3.7,29.99,1017.4,,,,,,,,,,,,,,,Clear,72000.0,,,,,,,,,
KRDR,12-07-2020,15:56,METAR,Normal,310,11.0,,,9999.0,,0.5,-3.6,29.99,1017.4,,,,,,,,,,,,,,,Clear,72000.0,,,,,,,,,
KRDR,12-07-2020,14:56,METAR,Normal,310,9.0,,,9999.0,,-2.3,-4.3,29.95,1016.1,,,,,,,,,,,,,,,2/8 Mostly Clear,72000.0,17000.0,FEW,17000.0,,,,,,
KRDR,12-07-2020,13:56,METAR,Normal,300,8.0,,,9999.0,,-3.6,-4.7,29.94,1015.8,,,,,,,,,,,,,,,Clear,72000.0,,,,,,,,,
KRDR,12-07-2020,12:56,METAR,Normal,290,9.0,,,9999.0,,-3.2,-4.2,29.94,1015.7,,,,,,,,,,,,,,,Clear,72000.0,,,,,,,,,
KRDR,12-07-2020,11:56,METAR,Normal,260,8.0,,,9999.0,,-3.3,-3.6,29.93,1015.3,,,,,,,,,,,,,,,Clear,72000.0,,,,,,,,,
KRDR,12-07-2020,10:56,METAR,Normal,170,6.0,,,9999.0,,-6.5,-6.6,29.95,1016.0,,,,,,,,,,,,,,,Clear,72000.0,,,,,,,,,
KRDR,12-07-2020,09:56,METAR,Normal,210,7.0,,,9999.0,,-7.5,-7.6,29.98,1016.9,,,,,,,,,,,,,,,Clear,72000.0,,,,,,,,,
KRDR,12-07-2020,08:56,METAR,Normal,190,7.0,,,9999.0,,-7.8,-7.9,29.98,1016.9,,,,,,,,,,,,,,,Clear,72000.0,,,,,,,,,
KRDR,12-07-2020,07:56,METAR,Normal,160,4.0,,,9999.0,,-7.9,-8.0,30.00,1017.5,,,,,,,,,,,,,,,Clear,72000.0,,,,,,,,,
KRDR,12-07-2020,06:56,METAR,Normal,260,3.0,,,9999.0,,-8.5,-8.6,30.01,1017.9,,,,,,,,,,,,,,,Clear,72000.0,,,,,,,,,
KRDR,12-07-2020,05:56,METAR,Normal,250,5.0,,,9999.0,,-7.8,-7.9,30.02,1018.2,,,,,,,,,,,,,,,Clear,72000.0,,,,,,,,,
KRDR,12-07-2020,04:56,METAR,Normal,280,4.0,,,9999.0,,-7.7,-7.8,30.03,1018.6,,,,,,,,,,,,,,,Clear,72000.0,,,,,,,,,
KRDR,12-07-2020,03:56,METAR,Calm,,0.0,,,9999.0,,-6.9,-7.0,30.04,1019.1,,,,,,,,,,,,,,,Clear,72000.0,,,,,,,,,
KRDR,12-07-2020,02:56,METAR,Normal,300,4.0,,,9999.0,,-6.4,-6.5,30.04,1019.2,,,,,,,,,,,,,,,Clear,72000.0,,,,,,,,,
KRDR,12-07-2020,01:56,METAR,Calm,,0.0,,,9999.0,,-5.0,-5.1,30.04,1019.2,,,,,,,,,,,,,,,Clear,72000.0,,,,,,,,,
KRDR,12-07-2020,00:56,METAR,Normal,20,5.0,,,9999.0,,-2.1,-3.1,30.05,1019.6,,,,,,,,,,,,,,,Clear,72000.0,,,,,,,,,
KRDR,12-06-2020,23:56,METAR,Normal,30,5.0,,,9999.0,,-2.0,-3.9,30.04,1019.1,,,,,,,,,,,,,,,Clear,72000.0,,,,,,,,,
KRDR,12-06-2020,22:56,METAR,Normal,30,6.0,,,9999.0,,2.0,-2.3,30.03,1018.6,,,,,,,,,,,,,,,Clear,72000.0,,,,,,,,,
KRDR,12-06-2020,21:56,METAR,Normal,10,5.0,,,9999.0,,6.9,-2.0,30.02,1018.2,,,,,,,,,,,,,,,Clear,72000.0,,,,,,,,,
KRDR,12-06-2020,20:56,METAR,Normal,350,6.0,,,9999.0,,8.4,-2.0,30.02,1018.2,,,,,,,,,,,,,,,Clear,72000.0,,,,,,,,,
KRDR,12-06-2020,19:56,METAR,Normal,350,5.0,,,9999.0,,8.3,-2.1,30.02,1018.2,,,,,,,,,,,,,,,Clear,72000.0,,,,,,,,,
KRDR,12-06-2020,18:56,METAR,Normal,350,8.0,,,9999.0,,7.9,-1.6,30.02,1018.2,,,,,,,,,,,,,,,Clear,72000.0,,,,,,,,,
KRDR,12-06-2020,17:56,METAR,Normal,310,10.0,,,9999.0,,7.8,-1.2,30.03,1018.5,,,,,,,,,,,,,,,Clear,72000.0,,,,,,,,,
KRDR,12-06-2020,16:56,METAR,Normal,290,9.0,,,9999.0,,5.9,-0.2,30.04,1018.8,,,,,,,,,,,,,,,Clear,72000.0,,,,,,,,,
KRDR,12-06-2020,15:56,METAR,Calm,,0.0,,,9999.0,,1.5,-0.7,30.05,1019.2,,,,,,,,,,,,,,,Clear,72000.0,,,,,,,,,
KRDR,12-06-2020,14:56,METAR,Normal,200,5.0,,,9999.0,,-2.1,-2.7,30.05,1019.2,,,,,,,,,,,,,,,Clear,72000.0,,,,,,,,,
KRDR,12-06-2020,13:56,METAR,Normal,210,7.0,,,9999.0,,-4.0,-4.1,30.06,1019.7,,,,,,,,,,,,,,,Clear,72000.0,,,,,,,,,
KRDR,12-06-2020,12:56,METAR,Normal,200,5.0,,,9999.0,,-6.4,-6.5,30.07,1020.2,,,,,,,,,,,,,,,Clear,72000.0,,,,,,,,,
KRDR,12-06-2020,11:56,METAR,Normal,230,4.0,,,9999.0,,-3.5,-3.6,30.07,1020.1,,,,,,,,,,,,,,,Clear,72000.0,,,,,,,,,
KRDR,12-06-2020,10:56,METAR,Normal,270,3.0,,,9999.0,,-3.4,-3.5,30.08,1020.3,,,,,,,,,,,,,,,Clear,72000.0,,,,,,,,,
KRDR,12-06-2020,09:56,METAR,Normal,250,4.0,,,9999.0,,-4.7,-4.8,30.09,1020.6,,,,,,,,,,,,,,,Clear,72000.0,,,,,,,,,
KRDR,12-06-2020,08:56,METAR,Calm,,0.0,,,9999.0,,-6.7,-6.8,30.10,1021.0,,,,,,,,,,,,,,,Clear,72000.0,,,,,,,,,
KRDR,12-06-2020,07:56,METAR,Normal,200,6.0,,,9999.0,,-6.4,-6.5,30.11,1021.3,,,,,,,,,,,,,,,Clear,72000.0,,,,,,,,,
KRDR,12-06-2020,06:56,METAR,Normal,200,5.0,,,9999.0,,-6.3,-6.4,30.12,1021.7,,,,,,,,,,,,,,,Clear,72000.0,,,,,,,,,
KRDR,12-06-2020,05:56,METAR,Normal,210,4.0,,,9999.0,,-5.5,-5.6,30.12,1021.7,,,,,,,,,,,,,,,Clear,72000.0,,,,,,,,,
KRDR,12-06-2020,04:56,METAR,Calm,,0.0,,,9999.0,,-2.3,-2.9,30.13,1021.9,,,,,,,,,,,,,,,Clear,72000.0,,,,,,,,,
KRDR,12-06-2020,03:56,METAR,Normal,300,4.0,,,9999.0,,0.2,-1.4,30.14,1022.2,,,,,,,,,,,,,,,2/8 Mostly Clear,72000.0,15000.0,FEW,15000.0,,,,,,
KRDR,12-06-2020,02:56,METAR,Normal,270,3.0,,,9999.0,,1.1,-1.5,30.14,1022.4,,,,,,,,,,,,,,,,16000.0,16000.0,OVC,16000.0,,,,,,
KRDR,12-06-2020,01:56,METAR,Normal,300,5.0,,,9999.0,,1.4,-1.2,30.15,1022.7,,,,,,,,,,,,,,,,17000.0,17000.0,OVC,17000.0,,,,,,
KRDR,12-06-2020,00:56,METAR,Normal,270,4.0,,,9999.0,,-0.9,-3.3,30.15,1022.8,,,,,,,,,,,,,,,,19000.0,19000.0,OVC,19000.0,,,,,,
KRDR,12-05-2020,23:56,METAR,Calm,,0.0,,,9999.0,,-0.5,-3.4,30.15,1022.7,,,,,,,,,,,,,,,,21000.0,21000.0,BKN,21000.0,,,,,,
KRDR,12-05-2020,22:56,METAR,Calm,,0.0,,,9999.0,,1.7,-1.9,30.15,1022.7,,,,,,,,,,,,,,,Clear,72000.0,,,,,,,,,
KRDR,12-05-2020,21:56,METAR,Normal,360,3.0,,,9999.0,,4.5,-1.1,30.15,1022.5,,,,,,,,,,,,,,,Clear,72000.0,,,,,,,,,
KRDR,12-05-2020,20:56,METAR,Normal,350,7.0,,,9999.0,,4.8,-1.2,30.15,1022.6,,,,,,,,,,,,,,,,8000.0,2300.0,SCT,2300.0,BKN,8000.0,,,,
KRDR,12-05-2020,19:56,METAR,Normal,360,11.0,,,9999.0,,5.5,-1.4,30.13,1021.9,,,,,,,,,,,,,,,,8000.0,8000.0,OVC,8000.0,,,,,,
KRDR,12-05-2020,18:56,METAR,Normal,360,11.0,,,9999.0,,4.1,-1.7,30.13,1022.0,,,,,,,,,,,,,,,Clear,72000.0,,,,,,,,,
KRDR,12-05-2020,17:56,METAR,Normal,360,15.0,,,9999.0,,3.1,-1.6,30.12,1021.6,,,,,,,,,,,,,,,,7000.0,7000.0,OVC,7000.0,,,,,,
KRDR,12-05-2020,16:56,METAR,Normal,340,12.0,,,9999.0,,3.0,-1.4,30.12,1021.7,,,,,,,,,,,,,,,4/8 Partly Cloudy,72000.0,6000.0,SCT,6000.0,,,,,,
KRDR,12-05-2020,15:56,METAR,Normal,310,8.0,,,9999.0,,1.0,-1.7,30.10,1021.1,,,,,,,,,,,,,,,Clear,72000.0,,,,,,,,,
KRDR,12-05-2020,14:56,METAR,Normal,310,9.0,,,9999.0,,-3.0,-4.0,30.10,1021.2,,,,,,,,,,,,,,,Clear,72000.0,,,,,,,,,
KRDR,12-05-2020,13:56,METAR,Normal,270,7.0,,,9999.0,,-3.5,-4.5,30.09,1020.8,,,,,,,,,,,,,,,Clear,72000.0,,,,,,,,,
KRDR,12-05-2020,12:56,METAR,Normal,300,9.0,,,9999.0,,-3.0,-4.3,30.10,1021.2,,,,,,,,,,,,,,,Clear,72000.0,,,,,,,,,
KRDR,12-05-2020,11:56,METAR,Normal,290,7.0,,,9999.0,,-2.4,-3.8,30.09,1020.8,,,,,,,,,,,,,,,Clear,72000.0,,,,,,,,,
KRDR,12-05-2020,10:56,METAR,Normal,300,10.0,,,9999.0,,-2.3,-3.7,30.10,1021.0,,,,,,,,,,,,,,,Clear,72000.0,,,,,,,,,
KRDR,12-05-2020,09:56,METAR,Normal,310,10.0,,,9999.0,,-1.6,-3.3,30.10,1020.9,,,,,,,,,,,,,,,Clear,72000.0,,,,,,,,,
KRDR,12-05-2020,08:56,METAR,Normal,310,10.0,,,9999.0,,-2.8,-3.5,30.09,1020.5,,,,,,,,,,,,,,,Clear,72000.0,,,,,,,,,
KRDR,12-05-2020,07:56,METAR,Normal,280,8.0,,,9999.0,,-3.5,-4.2,30.08,1020.2,,,,,,,,,,,,,,,Clear,72000.0,,,,,,,,,
KRDR,12-05-2020,06:56,METAR,Normal,300,8.0,,,9999.0,,-3.8,-4.4,30.09,1020.6,,,,,,,,,,,,,,,Clear,72000.0,,,,,,,,,
KRDR,12-05-2020,05:56,METAR,Normal,280,6.0,,,9999.0,,-4.0,-4.4,30.09,1020.7,,,,,,,,,,,,,,,Clear,72000.0,,,,,,,,,
KRDR,12-05-2020,04:56,METAR,Normal,290,7.0,,,9999.0,,-4.8,-4.9,30.10,1021.1,,,,,,,,,,,,,,,Clear,72000.0,,,,,,,,,
KRDR,12-05-2020,03:56,METAR,Normal,240,4.0,,,9999.0,,-5.9,-6.3,30.07,1020.2,,,,,,,,,,,,,,,Clear,72000.0,,,,,,,,,
KRDR,12-05-2020,02:56,METAR,Calm,,0.0,,,9999.0,,-3.6,-4.6,30.08,1020.7,,,,,,,,,,,,,,,2/8 Mostly Clear,72000.0,21000.0,FEW,21000.0,,,,,,
KRDR,12-05-2020,01:56,METAR,Normal,280,4.0,,,9999.0,,-3.4,-4.8,30.07,1020.4,,,,,,,,,,,,,,,,20000.0,20000.0,OVC,20000.0,,,,,,
KRDR,12-05-2020,00:56,METAR,Calm,,0.0,,,9999.0,,-2.4,-4.1,30.06,1020.0,,,,,,,,,,,,,,,,20000.0,20000.0,OVC,20000.0,,,,,,
KRDR,12-04-2020,23:56,METAR,Normal,350,3.0,,,9999.0,,-3.6,-4.9,30.06,1020.0,,,,,,,,,,,,,,,,20000.0,20000.0,OVC,20000.0,,,,,,
KRDR,12-04-2020,22:56,METAR,Calm,,0.0,,,9999.0,,-0.7,-3.2,30.04,1019.1,,,,,,,,,,,,,,,Clear,72000.0,,,,,,,,,
KRDR,12-04-2020,21:56,METAR,Calm,,0.0,,,9999.0,,3.9,-2.1,30.02,1018.2,,,,,,,,,,,,,,,Clear,72000.0,,,,,,,,,
KRDR,12-04-2020,20:56,METAR,Calm,,0.0,,,9999.0,,5.2,-1.9,30.00,1017.5,,,,,,,,,,,,,,,Clear,72000.0,,,,,,,,,
KRDR,12-04-2020,19:56,METAR,Calm,,0.0,,,9999.0,,4.9,-1.8,29.98,1016.8,,,,,,,,,,,,,,,Clear,72000.0,,,,,,,,,
KRDR,12-04-2020,18:56,METAR,Calm,,0.0,,,9999.0,,3.4,-1.7,29.98,1016.9,,,,,,,,,,,,,,,Clear,72000.0,,,,,,,,,
KRDR,12-04-2020,17:56,METAR,Calm,,0.0,,,9999.0,,2.2,-1.8,29.97,1016.5,,,,,,,,,,,,,,,Clear,72000.0,,,,,,,,,
KRDR,12-04-2020,16:56,METAR,Calm,,0.0,,,9999.0,,0.1,-2.3,29.98,1017.0,,,,,,,,,,,,,,,Clear,72000.0,,,,,,,,,
KRDR,12-04-2020,15:56,METAR,Calm,,0.0,,,9999.0,,-2.2,-3.0,29.97,1016.7,,,,,,,,,,,,,,,Clear,72000.0,,,,,,,,,
KRDR,12-04-2020,14:56,METAR,Normal,310,5.0,,,9999.0,,-5.8,-5.9,29.96,1016.5,,,,,,,,,,,,,,,Clear,72000.0,,,,,,,,,
KRDR,12-04-2020,13:56,METAR,Calm,,0.0,,,9999.0,,-8.8,-9.0,29.93,1015.5,,,,,,,,,,,,,,,Clear,72000.0,,,,,,,,,
KRDR,12-04-2020,12:56,METAR,Calm,,0.0,,,9999.0,,-8.4,-8.5,29.93,1015.5,,,,,,,,,,,,,,,Clear,72000.0,,,,,,,,,
KRDR,12-04-2020,11:56,METAR,Normal,270,3.0,,,9999.0,,-7.0,-7.1,29.93,1015.5,,,,,,,,,,,,,,,Clear,72000.0,,,,,,,,,
KRDR,12-04-2020,10:56,METAR,Normal,300,8.0,,,9999.0,,-4.6,-4.9,29.93,1015.2,,,,,,,,,,,,,,,Clear,72000.0,,,,,,,,,
KRDR,12-04-2020,09:56,METAR,Normal,290,8.0,,,9999.0,,-4.2,-4.3,29.92,1014.7,,,,,,,,,,,,,,,Clear,72000.0,,,,,,,,,
KRDR,12-04-2020,08:56,METAR,Normal,300,7.0,,,9999.0,,-4.6,-4.7,29.93,1015.1,,,,,,,,,,,,,,,Clear,72000.0,,,,,,,,,
KRDR,12-04-2020,07:56,METAR,Normal,300,7.0,,,9999.0,,-3.4,-4.1,29.92,1014.7,,,,,,,,,,,,,,,Clear,72000.0,,,,,,,,,
KRDR,12-04-2020,06:56,METAR,Normal,300,7.0,,,9999.0,,-2.7,-3.8,29.91,1014.3,,,,,,,,,,,,,,,Clear,72000.0,,,,,,,,,
KRDR,12-04-2020,05:56,METAR,Normal,300,7.0,,,9999.0,,-2.8,-3.9,29.90,1014.1,,,,,,,,,,,,,,,Clear,72000.0,,,,,,,,,
KRDR,12-04-2020,04:56,METAR,Normal,300,6.0,,,9999.0,,-3.1,-4.4,29.90,1014.1,,,,,,,,,,,,,,,Clear,72000.0,,,,,,,,,
KRDR,12-04-2020,03:56,METAR,Normal,300,6.0,,,9999.0,,-3.0,-4.3,29.91,1014.5,,,,,,,,,,,,,,,Clear,72000.0,,,,,,,,,
KRDR,12-04-2020,02:56,METAR,Normal,310,7.0,,,9999.0,,-2.9,-4.5,29.92,1015.0,,,,,,,,,,,,,,,Clear,72000.0,,,,,,,,,
KRDR,12-04-2020,01:56,METAR,Normal,290,6.0,,,9999.0,,-1.2,-3.9,29.91,1014.6,,,,,,,,,,,,,,,Clear,72000.0,,,,,,,,,
KRDR,12-04-2020,00:56,METAR,Normal,300,7.0,,,9999.0,,-0.7,-3.7,29.92,1015.0,,,,,,,,,,,,,,,Clear,72000.0,,,,,,,,,
KRDR,12-03-2020,23:56,METAR,Normal,320,5.0,,,9999.0,,-0.8,-4.0,29.92,1015.0,,,,,,,,,,,,,,,Clear,72000.0,,,,,,,,,
KRDR,12-03-2020,22:56,METAR,Normal,340,5.0,,,9999.0,,3.2,-2.7,29.92,1014.8,,,,,,,,,,,,,,,Clear,72000.0,,,,,,,,,
KRDR,12-03-2020,21:56,METAR,Normal,360,7.0,,,9999.0,,6.7,-2.2,29.92,1014.7,,,,,,,,,,,,,,,Clear,72000.0,,,,,,,,,
KRDR,12-03-2020,20:56,METAR,Normal,340,10.0,,,9999.0,,7.6,-2.4,29.92,1014.6,,,,,,,,,,,,,,,Clear,72000.0,,,,,,,,,
KRDR,12-03-2020,19:56,METAR,Normal,320,12.0,,,9999.0,,7.2,-3.1,29.93,1014.9,,,,,,,,,,,,,,,,25000.0,15000.0,FEW,15000.0,BKN,25000.0,,,,
KRDR,12-03-2020,18:56,METAR,Normal,310,15.0,,,9999.0,,6.6,-3.4,29.95,1015.6,,,,,,,,,,,,,,,,25000.0,15000.0,FEW,15000.0,BKN,25000.0,,,,
KRDR,12-03-2020,17:56,METAR,Normal,310,12.0,,,9999.0,,5.7,-3.7,29.96,1016.0,,,,,,,,,,,,,,,,25000.0,16000.0,FEW,16000.0,BKN,25000.0,,,,
KRDR,12-03-2020,16:56,METAR,Normal,300,9.0,,,9999.0,,4.4,-4.3,29.98,1016.7,,,,,,,,,,,,,,,2/8 Mostly Clear,72000.0,15000.0,FEW,15000.0,FEW,25000.0,,,,
KRDR,12-03-2020,15:56,METAR,Normal,290,11.0,,,9999.0,,1.8,-4.7,29.99,1017.1,,,,,,,,,,,,,,,4/8 Partly Cloudy,72000.0,15000.0,FEW,15000.0,SCT,25000.0,,,,
KRDR,12-03-2020,14:56,METAR,Normal,310,6.0,,,9999.0,,-1.2,-5.4,30.00,1017.6,,,,,,,,,,,,,,,Clear,72000.0,,,,,,,,,
KRDR,12-03-2020,13:56,METAR,Normal,290,9.0,,,9999.0,,-2.5,-6.0,30.01,1018.0,,,,,,,,,,,,,,,Clear,72000.0,,,,,,,,,
KRDR,12-03-2020,12:56,METAR,Normal,290,9.0,,,9999.0,,-2.4,-6.2,30.02,1018.4,,,,,,,,,,,,,,,Clear,72000.0,,,,,,,,,
KRDR,12-03-2020,11:56,METAR,Normal,290,9.0,,,9999.0,,-2.8,-6.3,30.05,1019.4,,,,,,,,,,,,,,,Clear,72000.0,,,,,,,,,
KRDR,12-03-2020,10:56,METAR,Normal,290,8.0,,,9999.0,,-2.5,-6.5,30.06,1019.7,,,,,,,,,,,,,,,Clear,72000.0,,,,,,,,,
KRDR,12-03-2020,09:56,METAR,Normal,300,9.0,,,9999.0,,-2.8,-6.6,30.08,1020.3,,,,,,,,,,,,,,,Clear,72000.0,,,,,,,,,
KRDR,12-03-2020,08:56,METAR,Normal,300,10.0,,,9999.0,,-2.4,-6.8,30.11,1021.2,,,,,,,,,,,,,,,Clear,72000.0,,,,,,,,,
KRDR,12-03-2020,07:56,METAR,Normal,300,10.0,,,9999.0,,-1.1,-6.7,30.11,1021.2,,,,,,,,,,,,,,,Clear,72000.0,,,,,,,,,
KRDR,12-03-2020,06:56,METAR,Normal,280,10.0,,,9999.0,,-0.6,-7.0,30.12,1021.5,,,,,,,,,,,,,,,Clear,72000.0,,,,,,,,,
KRDR,12-03-2020,05:56,METAR,Normal,290,8.0,,,9999.0,,-0.9,-7.3,30.15,1022.6,,,,,,,,,,,,,,,Clear,72000.0,,,,,,,,,
KRDR,12-03-2020,04:56,METAR,Normal,290,10.0,,,9999.0,,-0.5,-6.9,30.18,1023.6,,,,,,,,,,,,,,,Clear,72000.0,,,,,,,,,
KRDR,12-03-2020,03:56,METAR,Normal,290,9.0,,,9999.0,,-0.2,-6.6,30.21,1024.6,,,,,,,,,,,,,,,2/8 Mostly Clear,72000.0,16000.0,FEW,16000.0,,,,,,
KRDR,12-03-2020,02:56,METAR,Normal,290,8.0,,,9999.0,,-1.4,-6.2,30.22,1025.0,,,,,,,,,,,,,,,2/8 Mostly Clear,72000.0,16000.0,FEW,16000.0,,,,,,
KRDR,12-03-2020,01:56,METAR,Normal,280,11.0,,,9999.0,,-0.5,-5.3,30.23,1025.4,,,,,,,,,,,,,,,2/8 Mostly Clear,72000.0,20000.0,FEW,20000.0,,,,,,
KRDR,12-03-2020,00:56,METAR,Normal,280,8.0,,,9999.0,,-1.4,-5.1,30.25,1026.2,,,,,,,,,,,,,,,2/8 Mostly Clear,72000.0,20000.0,FEW,20000.0,,,,,,
KRDR,12-02-2020,23:56,METAR,Normal,280,8.0,,,9999.0,,0.0,-4.4,30.28,1027.2,,,,,,,,,,,,,,,2/8 Mostly Clear,72000.0,20000.0,FEW,20000.0,,,,,,
KRDR,12-02-2020,22:56,METAR,Normal,290,8.0,,,9999.0,,0.6,-4.1,30.29,1027.4,,,,,,,,,,,,,,,2/8 Mostly Clear,72000.0,20000.0,FEW,20000.0,,,,,,
KRDR,12-02-2020,21:56,METAR,Normal,300,11.0,18.0,,9999.0,,3.7,-3.8,30.30,1027.7,,,,,,,,,,,,,,,2/8 Mostly Clear,72000.0,20000.0,FEW,20000.0,,,,,,
KRDR,12-02-2020,20:56,METAR,Normal,290,11.0,,,9999.0,,5.1,-3.0,30.31,1028.0,,,,,,,,,,,,,,,2/8 Mostly Clear,72000.0,3000.0,FEW,3000.0,FEW,21000.0,,,,
KRDR,12-02-2020,19:56,METAR,Normal,290,14.0,,,9999.0,,5.0,-2.8,30.32,1028.4,,,,,,,,,,,,,,,2/8 Mostly Clear,72000.0,3000.0,FEW,3000.0,,,,,,
KRDR,12-02-2020,18:56,METAR,Normal,310,13.0,,,9999.0,,4.1,-2.5,30.36,1029.8,,,,,,,,,,,,,,,,3100.0,3100.0,BKN,3100.0,,,,,,
KRDR,12-02-2020,18:46,SPECI,Normal,300,11.0,,,9999.0,,4.0,-2.0,30.37,1030.2,,,,,,,,,,,,,,,,3000.0,3000.0,BKN,3000.0,,,,,,
KRDR,12-02-2020,17:56,METAR,Normal,310,11.0,,,9999.0,,2.8,-2.1,30.39,1030.9,,,,,,,,,,,,,,,,2600.0,2600.0,OVC,2600.0,,,,,,
KRDR,12-02-2020,16:56,METAR,Normal,330,13.0,,,9999.0,,2.4,-1.8,30.40,1031.3,,,,,,,,,,,,,,,,2300.0,2400.0,OVC,2400.0,,,,,,
KRDR,12-02-2020,15:56,METAR,Normal,320,10.0,,,9999.0,,2.3,-1.0,30.39,1030.8,,,,,,,,,,,,,,,,2400.0,2500.0,OVC,2500.0,,,,,,
KRDR,12-02-2020,14:56,METAR,Normal,290,7.0,,,9999.0,,0.9,-0.7,30.39,1030.8,,,,,,,,,,,,,,,,2200.0,2300.0,OVC,2300.0,,,,,,
KRDR,12-02-2020,13:56,METAR,Calm,,0.0,,,9999.0,,-1.0,-1.8,30.39,1030.9,,,,,,,,,,,,,,,,2200.0,2200.0,OVC,2200.0,,,,,,
KRDR,12-02-2020,11:56,METAR,Calm,,0.0,,,9999.0,,-1.5,-2.5,30.36,1029.9,,,,,,,,,,,,,,,,1900.0,2100.0,OVC,2100.0,,,,,,
KRDR,12-02-2020,11:26,SPECI,Normal,340,6.0,,,9999.0,,-2.0,-3.0,30.36,1030.0,,,,,,,,,,,,,,,,1400.0,1600.0,OVC,1600.0,,,,,,
KRDR,12-02-2020,11:06,SPECI,Normal,350,6.0,,,9999.0,,-1.0,-2.0,30.36,1029.9,,,,,,,,,,,,,,,,1300.0,1300.0,BKN,1300.0,OVC,1900.0,,,,
KRDR,12-02-2020,10:56,METAR,Normal,360,7.0,,,9999.0,,-1.4,-2.4,30.36,1029.9,,,,,,,,,,,,,,,,1200.0,1200.0,BKN,1200.0,OVC,1900.0,,,,
KRDR,12-02-2020,10:26,SPECI,Normal,360,9.0,,,9999.0,,-1.0,-2.0,30.35,1029.5,,,,,,,,,,,,,,,,1200.0,1200.0,OVC,1200.0,,,,,,
KRDR,12-02-2020,09:56,METAR,Normal,10,8.0,,,9999.0,,-1.2,-2.6,30.34,1029.1,,,,,,,,,,,,,,,,1300.0,1300.0,OVC,1300.0,,,,,,
KRDR,12-02-2020,09:46,SPECI,Normal,10,10.0,,,9999.0,,-1.0,-3.0,30.34,1029.1,,,,,,,,,,,,,,,,1300.0,1300.0,OVC,1300.0,,,,,,
KRDR,12-02-2020,09:26,SPECI,Normal,10,11.0,,,9999.0,,-1.0,-3.0,30.33,1028.7,,,,,,,,,,,,,,,,1400.0,1400.0,OVC,1400.0,,,,,,
KRDR,12-02-2020,08:56,METAR,Normal,360,12.0,19.0,,9999.0,,-0.9,-2.6,30.33,1028.7,,,,,,,,,,,,,,,,1800.0,1800.0,OVC,1800.0,,,,,,
KRDR,12-02-2020,07:56,METAR,Normal,360,8.0,,,9999.0,,-2.1,-3.2,30.30,1027.7,,,,,,,,,,,,,,,,1700.0,1800.0,OVC,1800.0,,,,,,
KRDR,12-02-2020,07:16,SPECI,Normal,340,9.0,,,9999.0,,-4.0,-4.0,30.29,1027.5,,,,,,,,,,,,,,,,1900.0,1900.0,BKN,1900.0,,,,,,
KRDR,12-02-2020,06:56,METAR,Normal,340,10.0,,,9999.0,,-3.7,-4.8,30.28,1027.2,,,,,,,,,,,,,,,Clear,72000.0,,,,,,,,,
KRDR,12-02-2020,05:56,METAR,Normal,330,9.0,,,9999.0,,-4.0,-5.4,30.25,1026.2,,,,,,,,,,,,,,,Clear,72000.0,,,,,,,,,
KRDR,12-02-2020,04:56,METAR,Normal,350,10.0,,,9999.0,,-3.1,-5.1,30.22,1025.2,,,,,,,,,,,,,,,2/8 Mostly Clear,72000.0,18000.0,FEW,18000.0,,,,,,
KRDR,12-02-2020,03:56,METAR,Normal,350,11.0,,,9999.0,,-2.0,-4.7,30.18,1023.9,,,,,,,,,,,,,,,2/8 Mostly Clear,72000.0,18000.0,FEW,18000.0,,,,,,
KRDR,12-02-2020,02:56,METAR,Normal,330,9.0,,,9999.0,,-1.8,-4.0,30.15,1023.1,,,,,,,,,,,,,,,2/8 Mostly Clear,72000.0,18000.0,FEW,18000.0,,,,,,
KRDR,12-02-2020,01:56,METAR,Normal,320,11.0,,,9999.0,,-0.4,-3.6,30.11,1021.6,,,,,,,,,,,,,,,2/8 Mostly Clear,72000.0,18000.0,FEW,18000.0,,,,,,
KRDR,12-02-2020,00:56,METAR,Normal,310,10.0,,,9999.0,,0.2,-2.8,30.08,1020.6,,,,,,,,,,,,,,,4/8 Partly Cloudy,72000.0,18000.0,SCT,18000.0,SCT,25000.0,,,,
KRDR,12-01-2020,23:56,METAR,Normal,290,5.0,,,9999.0,,-1.2,-4.2,30.05,1019.6,,,,,,,,,,,,,,,4/8 Partly Cloudy,72000.0,18000.0,SCT,18000.0,SCT,25000.0,,,,
KRDR,12-01-2020,22:56,METAR,Normal,210,5.0,,,9999.0,,-0.3,-5.1,30.01,1018.1,,,,,,,,,,,,,,,4/8 Partly Cloudy,72000.0,18000.0,SCT,18000.0,SCT,25000.0,,,,
KRDR,12-01-2020,21:56,METAR,Normal,190,7.0,,,9999.0,,2.8,-4.4,29.98,1017.0,,,,,,,,,,,,,,,,30000.0,18000.0,FEW,18000.0,BKN,30000.0,,,,
KRDR,12-01-2020,20:56,METAR,Normal,190,6.0,,,9999.0,,4.5,-5.0,29.95,1015.9,,,,,,,,,,,,,,,,27000.0,15000.0,FEW,15000.0,BKN,27000.0,,,,
KRDR,12-01-2020,19:56,METAR,Normal,180,9.0,,,9999.0,,3.4,-5.3,29.93,1015.2,,,,,,,,,,,,,,,,25000.0,19000.0,FEW,19000.0,BKN,25000.0,,,,
KRDR,12-01-2020,18:56,METAR,Normal,170,9.0,,,9999.0,,1.6,-5.3,29.93,1015.3,,,,,,,,,,,,,,,,26000.0,19000.0,FEW,19000.0,BKN,26000.0,,,,
KRDR,12-01-2020,17:56,METAR,Normal,170,6.0,,,9999.0,,1.8,-5.6,29.92,1015.0,,,,,,,,,,,,,,,,25000.0,18000.0,SCT,18000.0,BKN,25000.0,,,,
KRDR,12-01-2020,16:56,METAR,Normal,200,8.0,,,9999.0,,-0.1,-5.9,29.92,1015.0,,,,,,,,,,,,,,,,24000.0,18000.0,SCT,18000.0,BKN,24000.0,,,,
KRDR,12-01-2020,15:56,METAR,Normal,200,7.0,,,9999.0,,-3.2,-6.5,29.91,1014.8,,,,,,,,,,,,,,,,26000.0,18000.0,SCT,18000.0,BKN,26000.0,,,,
KRDR,12-01-2020,14:56,METAR,Normal,180,8.0,,,9999.0,,-7.6,-8.7,29.88,1013.9,,,,,,,,,,,,,,,Clear,72000.0,,,,,,,,,
KRDR,12-01-2020,13:56,METAR,Normal,180,7.0,,,9999.0,,-8.2,-9.0,29.88,1013.8,,,,,,,,,,,,,,,Clear,72000.0,,,,,,,,,
KRDR,12-01-2020,12:56,METAR,Normal,180,9.0,,,9999.0,,-8.3,-9.1,29.87,1013.5,,,,,,,,,,,,,,,Clear,72000.0,,,,,,,,,
KRDR,12-01-2020,11:56,METAR,Normal,180,10.0,,,9999.0,,-7.4,-8.5,29.87,1013.4,,,,,,,,,,,,,,,Clear,72000.0,,,,,,,,,
KRDR,12-01-2020,10:56,METAR,Normal,180,12.0,,,9999.0,,-6.8,-8.2,29.86,1013.1,,,,,,,,,,,,,,,Clear,72000.0,,,,,,,,,
KRDR,12-01-2020,09:56,METAR,Normal,190,9.0,,,9999.0,,-6.1,-7.9,29.86,1012.9,,,,,,,,,,,,,,,Clear,72000.0,,,,,,,,,
KRDR,12-01-2020,08:56,METAR,Normal,180,12.0,,,9999.0,,-6.0,-7.8,29.87,1013.2,,,,,,,,,,,,,,,Clear,72000.0,,,,,,,,,
KRDR,12-01-2020,07:56,METAR,Normal,170,10.0,,,9999.0,,-5.9,-7.6,29.87,1013.2,,,,,,,,,,,,,,,Clear,72000.0,,,,,,,,,
KRDR,12-01-2020,06:56,METAR,Normal,180,9.0,,,9999.0,,-5.5,-7.3,29.88,1013.6,,,,,,,,,,,,,,,Clear,72000.0,,,,,,,,,
KRDR,12-01-2020,05:56,METAR,Normal,170,9.0,,,9999.0,,-6.2,-7.7,29.88,1013.7,,,,,,,,,,,,,,,Clear,72000.0,,,,,,,,,
KRDR,12-01-2020,04:56,METAR,Normal,170,9.0,,,9999.0,,-5.3,-7.3,29.88,1013.8,,,,,,,,,,,,,,,Clear,72000.0,,,,,,,,,
KRDR,12-01-2020,03:56,METAR,Normal,180,11.0,,,9999.0,,-4.1,-6.9,29.88,1013.9,,,,,,,,,,,,,,,Clear,72000.0,,,,,,,,,
KRDR,12-01-2020,02:56,METAR,Normal,180,12.0,,,9999.0,,-3.4,-6.9,29.89,1014.3,,,,,,,,,,,,,,,Clear,72000.0,,,,,,,,,
KRDR,12-01-2020,01:56,METAR,Normal,170,11.0,,,9999.0,,-2.5,-6.9,29.90,1014.7,,,,,,,,,,,,,,,Clear,72000.0,,,,,,,,,
KRDR,12-01-2020,00:56,METAR,Normal,180,12.0,,,9999.0,,-1.9,-7.2,29.92,1015.4,,,,,,,,,,,,,,,2/8 Mostly Clear,72000.0,16000.0,FEW,16000.0,,,,,,
KRDR,11-30-2020,23:56,METAR,Normal,170,13.0,,,9999.0,,-1.4,-7.3,29.92,1015.4,,,,,,,,,,,,,,,2/8 Mostly Clear,72000.0,16000.0,FEW,16000.0,,,,,,
KRDR,11-30-2020,22:56,METAR,Normal,160,12.0,,,9999.0,,-0.8,-8.3,29.93,1015.7,,,,,,,,,,,,,,,2/8 Mostly Clear,72000.0,22000.0,FEW,22000.0,,,,,,
KRDR,11-30-2020,21:56,METAR,Normal,170,12.0,,,9999.0,,2.4,-8.9,29.95,1016.2,,,,,,,,,,,,,,,2/8 Mostly Clear,72000.0,22000.0,FEW,22000.0,,,,,,
KRDR,11-30-2020,20:56,METAR,Normal,190,13.0,,,9999.0,,3.5,-9.5,29.96,1016.5,,,,,,,,,,,,,,,2/8 Mostly Clear,72000.0,18000.0,FEW,18000.0,FEW,22000.0,,,,
KRDR,11-30-2020,19:56,METAR,Normal,190,14.0,,,9999.0,,3.3,-8.7,29.98,1017.3,,,,,,,,,,,,,,,2/8 Mostly Clear,72000.0,20000.0,FEW,20000.0,,,,,,
KRDR,11-30-2020,18:56,METAR,Normal,180,15.0,,,9999.0,,1.1,-8.2,30.01,1018.4,,,,,,,,,,,,,,,2/8 Mostly Clear,72000.0,20000.0,FEW,20000.0,,,,,,
KRDR,11-30-2020,17:56,METAR,Normal,180,14.0,,,9999.0,,-1.1,-8.3,30.05,1019.8,,,,,,,,,,,,,,,2/8 Mostly Clear,72000.0,20000.0,FEW,20000.0,,,,,,
KRDR,11-30-2020,16:56,METAR,Normal,170,10.0,,,9999.0,,-4.1,-7.9,30.09,1021.3,,,,,,,,,,,,,,,2/8 Mostly Clear,72000.0,20000.0,FEW,20000.0,,,,,,
KRDR,11-30-2020,15:56,METAR,Normal,170,10.0,,,9999.0,,-7.3,-9.3,30.10,1021.7,,,,,,,,,,,,,,,2/8 Mostly Clear,72000.0,25000.0,FEW,25000.0,,,,,,
KRDR,11-30-2020,14:56,METAR,Normal,160,8.0,,,9999.0,,-10.1,-11.5,30.12,1022.5,,,,,,,,,,,,,,,2/8 Mostly Clear,72000.0,25000.0,FEW,25000.0,,,,,,
KRDR,11-30-2020,13:56,METAR,Normal,180,8.0,,,9999.0,,-12.4,-13.6,30.14,1023.2,,,,,,,,,,,,,,,Clear,72000.0,,,,,,,,,
KRDR,11-30-2020,12:56,METAR,Normal,190,8.0,,,9999.0,,-12.6,-13.7,30.16,1024.0,,,,,,,,,,,,,,,Clear,72000.0,,,,,,,,,
KRDR,11-30-2020,11:56,METAR,Normal,180,7.0,,,9999.0,,-13.6,-14.5,30.19,1024.9,,,,,,,,,,,,,,,Clear,72000.0,,,,,,,,,
KRDR,11-30-2020,10:56,METAR,Normal,180,7.0,,,9999.0,,-13.5,-14.7,30.20,1025.1,,,,,,,,,,,,,,,Clear,72000.0,,,,,,,,,
KRDR,11-30-2020,09:56,METAR,Normal,190,7.0,,,9999.0,,-12.9,-14.1,30.23,1026.0,,,,,,,,,,,,,,,Clear,72000.0,,,,,,,,,
KRDR,11-30-2020,08:56,METAR,Normal,180,7.0,,,9999.0,,-12.6,-13.8,30.26,1027.0,,,,,,,,,,,,,,,Clear,72000.0,,,,,,,,,
KRDR,11-30-2020,07:56,METAR,Normal,190,8.0,,,9999.0,,-13.9,-14.7,30.28,1027.7,,,,,,,,,,,,,,,Clear,72000.0,,,,,,,,,
KRDR,11-30-2020,06:56,METAR,Normal,210,7.0,,,9999.0,,-13.6,-14.8,30.29,1028.1,,,,,,,,,,,,,,,Clear,72000.0,,,,,,,,,
KRDR,11-30-2020,05:56,METAR,Normal,200,5.0,,,9999.0,,-13.2,-14.8,30.31,1028.8,,,,,,,,,,,,,,,Clear,72000.0,,,,,,,,,
KRDR,11-30-2020,04:56,METAR,Normal,210,4.0,,,9999.0,,-13.6,-15.1,30.32,1029.2,,,,,,,,,,,,,,,Clear,72000.0,,,,,,,,,
KRDR,11-30-2020,03:56,METAR,Normal,210,4.0,,,9999.0,,-13.3,-14.9,30.34,1029.9,,,,,,,,,,,,,,,Clear,72000.0,,,,,,,,,
KRDR,11-30-2020,02:56,METAR,Normal,210,4.0,,,9999.0,,-11.9,-13.9,30.34,1029.8,,,,,,,,,,,,,,,Clear,72000.0,,,,,,,,,
KRDR,11-30-2020,01:56,METAR,Calm,,0.0,,,9999.0,,-10.5,-13.3,30.36,1030.4,,,,,,,,,,,,,,,Clear,72000.0,,,,,,,,,
KRDR,11-30-2020,00:56,METAR,Normal,290,4.0,,,9999.0,,-10.5,-13.2,30.35,1030.0,,,,,,,,,,,,,,,Clear,72000.0,,,,,,,,,
KRDR,11-29-2020,23:56,METAR,Normal,300,4.0,,,9999.0,,-8.8,-13.0,30.35,1029.9,,,,,,,,,,,,,,,Clear,72000.0,,,,,,,,,
KRDR,11-29-2020,22:56,METAR,Normal,330,6.0,,,9999.0,,-5.2,-12.6,30.35,1029.7,,,,,,,,,,,,,,,Clear,72000.0,,,,,,,,,
KRDR,11-29-2020,21:56,METAR,Normal,330,9.0,,,9999.0,,-2.3,-12.6,30.34,1029.3,,,,,,,,,,,,,,,Clear,72000.0,,,,,,,,,
KRDR,11-29-2020,20:56,METAR,Normal,340,11.0,,,9999.0,,-1.5,-12.2,30.34,1029.1,,,,,,,,,,,,,,,Clear,72000.0,,,,,,,,,
KRDR,11-29-2020,19:56,METAR,Normal,330,12.0,18.0,,9999.0,,-2.0,-11.3,30.34,1029.1,,,,,,,,,,,,,,,Clear,72000.0,,,,,,,,,
KRDR,11-29-2020,18:56,METAR,Normal,330,16.0,,,9999.0,,-2.9,-10.5,30.33,1028.9,,,,,,,,,,,,,,,2/8 Mostly Clear,72000.0,2700.0,FEW,2700.0,,,,,,
KRDR,11-29-2020,17:56,METAR,Normal,330,13.0,18.0,,9999.0,,-3.5,-9.9,30.33,1028.9,,,,,,,,,,,,,,,,2500.0,2500.0,OVC,2500.0,,,,,,
KRDR,11-29-2020,16:56,METAR,Normal,330,14.0,,,9999.0,,-4.0,-9.6,30.33,1028.9,,,,,,,,,,,,,,,,2500.0,2600.0,OVC,2600.0,,,,,,
KRDR,11-29-2020,15:56,METAR,Normal,320,13.0,19.0,,9999.0,,-4.7,-9.5,30.30,1027.8,,,,,,,,,,,,,,,,2700.0,2800.0,BKN,2800.0,,,,,,
KRDR,11-29-2020,14:56,METAR,Normal,330,16.0,,,9999.0,,-4.6,-8.9,30.28,1027.1,,,,,,,,,,,,,,,,3400.0,3400.0,OVC,3400.0,,,,,,
KRDR,11-29-2020,13:56,METAR,Normal,330,11.0,,330/26KTS,9999.0,,-3.4,-8.9,30.25,1025.9,,,,,,,,,,,,,,,,3400.0,3400.0,OVC,3400.0,,,,,,
KRDR,11-29-2020,12:56,METAR,Normal,340,14.0,23.0,,9999.0,,-2.1,-8.6,30.22,1024.9,,,,,,,,,,,,,,,,3400.0,3400.0,OVC,3400.0,,,,,,
KRDR,11-29-2020,12:36,SPECI,Normal,330,15.0,,,9999.0,,-2.0,-8.0,30.20,1024.2,,,,,,,,,,,,,,,,3300.0,3300.0,OVC,3300.0,,,,,,
KRDR,11-29-2020,12:16,SPECI,Normal,330,17.0,23.0,,9999.0,,-2.0,-8.0,30.19,1023.9,,,,,,,,,,,,,,,,2900.0,2900.0,BKN,2900.0,OVC,3800.0,,,,
KRDR,11-29-2020,11:56,METAR,Normal,320,16.0,21.0,,9999.0,,-1.9,-8.2,30.18,1023.6,,,,,,,,,,,,,TRACE,,,3100.0,3100.0,OVC,3100.0,,,,,,
KRDR,11-29-2020,11:06,SPECI,Normal,330,14.0,,,9999.0,,-2.0,-8.0,30.15,1022.6,,,,,,,,,,,,,,,,3000.0,3000.0,OVC,3000.0,,,,,,
KRDR,11-29-2020,10:56,METAR,Normal,330,16.0,25.0,350/28KTS,9999.0,,-1.5,-8.1,30.14,1022.2,,,,,,,,,,,,,,,,2700.0,2800.0,OVC,2800.0,,,,,,
KRDR,11-29-2020,09:56,METAR,Normal,330,19.0,23.0,340/35KTS,9999.0,,-1.2,-6.0,30.11,1021.1,,,,,,,,,,,TRACE,,,,,2300.0,2300.0,OVC,2300.0,,,,,,
KRDR,11-29-2020,09:40,SPECI,Normal,330,14.0,24.0,,9999.0,,-1.0,-5.0,30.10,1020.7,,,,,,,,,,,,,,,,2200.0,2300.0,BKN,2300.0,OVC,2800.0,,,,
KRDR,11-29-2020,09:31,SPECI,Normal,330,16.0,27.0,,9999.0,Precipitation,-1.0,-5.0,30.10,1020.7,41,,,,,,,,,,,,,,,2200.0,2400.0,OVC,2400.0,,,,,,
KRDR,11-29-2020,09:12,SPECI,Normal,330,18.0,29.0,,9999.0,,0.0,-5.0,30.09,1020.3,,,,,,,,,,,,,,,,2000.0,2100.0,BKN,2100.0,OVC,2600.0,,,,
KRDR,11-29-2020,09:06,SPECI,Normal,320,21.0,35.0,,9999.0,Light Rain,0.0,-5.0,30.09,1020.3,61,,,,,,,,,,,,,,,2000.0,2000.0,OVC,2000.0,,,,,,
KRDR,11-29-2020,08:56,METAR,Normal,320,21.0,31.0,330/32KTS,9999.0,Light Rain,0.3,-3.3,30.08,1019.9,61,,,,,,,,,,TRACE,TRACE,,,,1900.0,1900.0,OVC,1900.0,,,,,,
KRDR,11-29-2020,08:54,SPECI,Normal,320,22.0,31.0,,9999.0,Light Rain,0.0,-3.0,30.08,1019.9,61,,,,,,,,,,,,,,,1900.0,1900.0,OVC,1900.0,,,,,,
KRDR,11-29-2020,08:14,SPECI,Normal,330,13.0,,,9999.0,Precipitation,1.0,-3.0,30.04,1018.6,41,,,,,,,,,,,,,,,2400.0,2500.0,OVC,2500.0,,,,,,
KRDR,11-29-2020,07:56,METAR,Normal,330,15.0,24.0,330/28KTS,9999.0,,1.0,-2.6,30.03,1018.2,,,,,,,,,,,,,,,,2400.0,2400.0,BKN,2400.0,OVC,3700.0,,,,
KRDR,11-29-2020,07:46,SPECI,Normal,330,19.0,25.0,,9999.0,,1.0,-3.0,30.02,1017.9,,,,,,,,,,,,,,,,2600.0,2700.0,BKN,2700.0,OVC,3500.0,,,,
KRDR,11-29-2020,07:36,SPECI,Normal,330,18.0,25.0,,9999.0,,1.0,-3.0,30.02,1017.9,,,,,,,,,,,,,,,,3000.0,3000.0,BKN,3000.0,OVC,3800.0,,,,
KRDR,11-29-2020,06:56,METAR,Normal,340,18.0,28.0,330/31KTS,9999.0,,0.8,-2.6,30.00,1017.3,,,,,,,,,,,,,,,,2400.0,2500.0,BKN,2500.0,OVC,4400.0,,,,
KRDR,11-29-2020,06:06,SPECI,Normal,320,19.0,31.0,,9999.0,,1.0,-2.0,29.95,1015.6,,,,,,,,,,,,,,,,1900.0,2000.0,OVC,2000.0,,,,,,
KRDR,11-29-2020,05:56,METAR,Normal,320,24.0,31.0,320/34KTS,9999.0,,1.1,-2.1,29.93,1014.9,,,,,,,,,,,,,,,,1900.0,1900.0,OVC,1900.0,,,,,,
KRDR,11-29-2020,05:36,SPECI,Normal,330,23.0,31.0,,9999.0,,1.0,-2.0,29.92,1014.6,,,,,,,,,,,,,,,,1800.0,1800.0,BKN,1800.0,BKN,3400.0,,,,
KRDR,11-29-2020,04:56,METAR,Normal,310,22.0,32.0,320/36KTS,9999.0,,1.3,-2.8,29.88,1013.2,,,,,,,,,,,,,,,4/8 Partly Cloudy,72000.0,2400.0,SCT,2400.0,SCT,18000.0,,,,
KRDR,11-29-2020,03:56,METAR,Normal,300,20.0,24.0,310/31KTS,9999.0,,4.4,-1.0,29.80,1010.5,,,,,,,,,,,,,,,Clear,72000.0,,,,,,,,,
KRDR,11-29-2020,02:56,METAR,Normal,300,17.0,26.0,300/26KTS,9999.0,,5.7,-2.9,29.76,1009.2,,,,,,,,,,,,,,,2/8 Mostly Clear,72000.0,19000.0,FEW,19000.0,,,,,,
KRDR,11-29-2020,01:56,METAR,Normal,280,10.0,,,9999.0,,6.4,-4.7,29.73,1008.2,,,,,,,,,,,,,,,Clear,72000.0,,,,,,,,,
KRDR,11-29-2020,00:56,METAR,Normal,270,13.0,20.0,,9999.0,,6.6,-5.7,29.72,1007.8,,,,,,,,,,,,,,,Clear,72000.0,,,,,,,,,
KRDR,11-28-2020,23:56,METAR,Normal,240,8.0,,,9999.0,,3.6,-4.6,29.70,1007.2,,,,,,,,,,,,,,,Clear,72000.0,,,,,,,,,
KRDR,11-28-2020,22:56,METAR,Normal,210,6.0,,,9999.0,,4.2,-4.0,29.71,1007.6,,,,,,,,,,,,,,,Clear,72000.0,,,,,,,,,
KRDR,11-28-2020,21:56,METAR,Normal,220,6.0,,,9999.0,,7.8,-4.0,29.70,1007.1,,,,,,,,,,,,,,,Clear,72000.0,,,,,,,,,
KRDR,11-28-2020,20:56,METAR,Normal,210,9.0,,,9999.0,,9.3,-4.3,29.70,1007.1,,,,,,,,,,,,,,,Clear,72000.0,,,,,,,,,
KRDR,11-28-2020,19:56,METAR,Normal,230,5.0,,,9999.0,,8.9,-3.0,29.72,1007.9,,,,,,,,,,,,,,,2/8 Mostly Clear,72000.0,21000.0,FEW,21000.0,,,,,,
KRDR,11-28-2020,18:56,METAR,Normal,230,8.0,,,9999.0,,7.3,-1.9,29.74,1008.5,,,,,,,,,,,,,,,2/8 Mostly Clear,72000.0,18000.0,FEW,18000.0,,,,,,
KRDR,11-28-2020,17:56,METAR,Normal,220,8.0,,,9999.0,,5.8,-0.9,29.78,1009.9,,,,,,,,,,,,,,,Clear,72000.0,,,,,,,,,
KRDR,11-28-2020,16:56,METAR,Normal,220,3.0,,,9999.0,,4.0,-1.6,29.79,1010.3,,,,,,,,,,,,,,,Clear,72000.0,,,,,,,,,
KRDR,11-28-2020,15:56,METAR,Normal,210,4.0,,,9999.0,,1.4,-1.5,29.81,1011.1,,,,,,,,,,,,,,,Clear,72000.0,,,,,,,,,
KRDR,11-28-2020,14:56,METAR,Normal,200,3.0,,,9999.0,,-2.3,-3.0,29.80,1010.8,,,,,,,,,,,,,,,Clear,72000.0,,,,,,,,,
KRDR,11-28-2020,13:56,METAR,Normal,300,4.0,,,9999.0,,-2.1,-3.1,29.79,1010.4,,,,,,,,,,,,,,,Clear,72000.0,,,,,,,,,
KRDR,11-28-2020,12:56,METAR,Normal,280,6.0,,,9999.0,,-1.3,-2.4,29.80,1010.7,,,,,,,,,,,,,,,Clear,72000.0,,,,,,,,,
KRDR,11-28-2020,11:56,METAR,Normal,280,8.0,,,9999.0,,-0.6,-2.2,29.80,1010.6,,,,,,,,,,,,,,,Clear,72000.0,,,,,,,,,
KRDR,11-28-2020,10:56,METAR,Normal,270,6.0,,,9999.0,,-1.2,-2.8,29.81,1010.9,,,,,,,,,,,,,,,Clear,72000.0,,,,,,,,,
KRDR,11-28-2020,09:56,METAR,Normal,240,10.0,,,9999.0,,-1.1,-2.7,29.81,1010.9,,,,,,,,,,,,,,,Clear,72000.0,,,,,,,,,
KRDR,11-28-2020,08:56,METAR,Normal,260,8.0,,,9999.0,,-3.8,-4.5,29.81,1011.0,,,,,,,,,,,,,,,Clear,72000.0,,,,,,,,,
KRDR,11-28-2020,07:56,METAR,Normal,270,5.0,,,9999.0,,-5.4,-5.8,29.81,1011.1,,,,,,,,,,,,,,,Clear,72000.0,,,,,,,,,
KRDR,11-28-2020,06:56,METAR,Normal,190,5.0,,,9999.0,,-3.9,-4.9,29.82,1011.5,,,,,,,,,,,,,,,Clear,72000.0,,,,,,,,,
KRDR,11-28-2020,05:56,METAR,Normal,200,6.0,,,9999.0,,-2.6,-4.2,29.82,1011.4,,,,,,,,,,,,,,,Clear,72000.0,,,,,,,,,
KRDR,11-28-2020,04:56,METAR,Normal,150,6.0,,,9999.0,,-2.0,-3.6,29.82,1011.5,,,,,,,,,,,,,,,Clear,72000.0,,,,,,,,,
KRDR,11-28-2020,03:56,METAR,Normal,180,8.0,,,9999.0,,-2.0,-3.9,29.83,1012.0,,,,,,,,,,,,,,,Clear,72000.0,,,,,,,,,
KRDR,11-28-2020,02:56,METAR,Normal,200,10.0,,,9999.0,,0.2,-3.0,29.84,1012.3,,,,,,,,,,,,,,,Clear,72000.0,,,,,,,,,
KRDR,11-28-2020,01:56,METAR,Normal,200,10.0,,,9999.0,,1.0,-2.9,29.85,1012.7,,,,,,,,,,,,,,,Clear,72000.0,,,,,,,,,
KRDR,11-28-2020,00:56,METAR,Normal,200,7.0,,,9999.0,,1.5,-3.0,29.87,1013.4,,,,,,,,,,,,,,,Clear,72000.0,,,,,,,,,
KRDR,11-27-2020,23:56,METAR,Normal,210,8.0,,,9999.0,,2.7,-3.0,29.86,1013.0,,,,,,,,,,,,,,,Clear,72000.0,,,,,,,,,
KRDR,11-27-2020,22:56,METAR,Normal,210,8.0,,,9999.0,,4.1,-2.5,29.88,1013.6,,,,,,,,,,,,,,,Clear,72000.0,,,,,,,,,
KRDR,11-27-2020,21:56,METAR,Normal,210,9.0,,,9999.0,,5.5,-2.6,29.88,1013.5,,,,,,,,,,,,,,,Clear,72000.0,,,,,,,,,
KRDR,11-27-2020,20:56,METAR,Normal,210,12.0,,,9999.0,,5.3,-2.8,29.89,1013.9,,,,,,,,,,,,,,,Clear,72000.0,,,,,,,,,
KRDR,11-27-2020,19:56,METAR,Normal,200,13.0,,,9999.0,,3.3,-3.7,29.91,1014.5,,,,,,,,,,,,,,,,7500.0,6000.0,FEW,6000.0,BKN,7500.0,,,,
KRDR,11-27-2020,18:56,METAR,Normal,200,14.0,,,9999.0,,1.8,-5.1,29.94,1015.6,,,,,,,,,,,,,,,,7000.0,7000.0,OVC,7000.0,,,,,,
KRDR,11-27-2020,17:56,METAR,Normal,220,13.0,,,9999.0,,2.0,-5.2,29.98,1016.9,,,,,,,,,,,,,,,,9000.0,9000.0,BKN,9100.0,,,,,,
KRDR,11-27-2020,16:56,METAR,Normal,210,7.0,,,9999.0,,-0.5,-4.9,30.01,1018.0,,,,,,,,,,,,,,,,7000.0,7000.0,BKN,7000.0,OVC,12000.0,,,,
KRDR,11-27-2020,15:56,METAR,Normal,210,8.0,,,9999.0,,-3.6,-6.7,30.02,1018.5,,,,,,,,,,,,,,,Clear,72000.0,,,,,,,,,
KRDR,11-27-2020,14:56,METAR,Normal,210,5.0,,,9999.0,,-6.9,-8.4,30.02,1018.5,,,,,,,,,,,,,,,2/8 Mostly Clear,72000.0,17000.0,FEW,17000.0,,,,,,
KRDR,11-27-2020,13:56,METAR,Normal,190,8.0,,,9999.0,,-10.1,-10.5,30.02,1018.6,,,,,,,,,,,TRACE,,,,Clear,72000.0,,,,,,,,,
KRDR,11-27-2020,12:56,METAR,Normal,240,5.0,,,9999.0,,-11.0,-11.4,30.04,1019.2,,,,,,,,,,,,,,,Clear,72000.0,,,,,,,,,
KRDR,11-27-2020,11:56,METAR,Normal,270,8.0,,,9999.0,,-8.2,-10.1,30.04,1019.1,,,,,,,,,,,,,,,Clear,72000.0,,,,,,,,,
KRDR,11-27-2020,10:56,METAR,Normal,270,9.0,,,9999.0,,-8.4,-9.8,30.03,1018.8,,,,,,,,,,,,,,,Clear,72000.0,,,,,,,,,
KRDR,11-27-2020,09:56,METAR,Normal,290,7.0,,,9999.0,,-8.3,-9.7,30.03,1018.7,,,,,,,,,,,,,,,Clear,72000.0,,,,,,,,,
KRDR,11-27-2020,08:56,METAR,Normal,300,8.0,,,9999.0,,-6.5,-8.8,30.02,1018.3,,,,,,,,,,,,,,,Clear,72000.0,,,,,,,,,
KRDR,11-27-2020,08:26,SPECI,Normal,300,9.0,,,9999.0,,-6.0,-8.0,30.00,1017.6,,,,,,,,,,,,,,,4/8 Partly Cloudy,72000.0,2900.0,SCT,2900.0,,,,,,
KRDR,11-27-2020,07:56,METAR,Normal,310,6.0,,,9999.0,,-5.5,-8.1,29.99,1017.2,,,,,,,,,,,,,,,,2500.0,2600.0,OVC,2600.0,,,,,,
KRDR,11-27-2020,06:56,METAR,Normal,310,14.0,20.0,,9999.0,,-4.1,-7.5,29.98,1016.9,,,,,,,,,,,,,,,,2100.0,2200.0,BKN,2200.0,BKN,2800.0,,,,
KRDR,11-27-2020,06:26,SPECI,Normal,310,11.0,20.0,,9999.0,,-3.0,-7.0,29.96,1016.1,,,,,,,,,,,,,,,,2300.0,2400.0,BKN,2400.0,OVC,6000.0,,,,
KRDR,11-27-2020,05:56,METAR,Normal,300,14.0,21.0,,9999.0,,-3.6,-6.7,29.95,1015.8,,,,,,,,,,,,,,,,6500.0,6500.0,OVC,6500.0,,,,,,
KRDR,11-27-2020,04:56,METAR,Normal,300,12.0,,,9999.0,,-3.2,-6.2,29.92,1014.8,,,,,,,,,,,,,,,4/8 Partly Cloudy,72000.0,2500.0,SCT,2500.0,SCT,6000.0,,,,
KRDR,11-27-2020,03:56,METAR,Normal,300,12.0,19.0,,9999.0,,-2.4,-5.7,29.90,1014.1,,,,,,,,,,,,,,,Clear,72000.0,,,,,,,,,
KRDR,11-27-2020,02:56,METAR,Normal,290,13.0,,300/28KTS,9999.0,,-0.9,-5.3,29.87,1013.1,,,,,,,,,,,,,,,Clear,72000.0,,,,,,,,,
KRDR,11-27-2020,01:56,METAR,Normal,300,19.0,25.0,300/27KTS,9999.0,,0.8,-2.8,29.86,1012.7,,,,,,,,,,,,,,,,7000.0,2100.0,SCT,2100.0,BKN,7000.0,OVC,9600.0,,
KRDR,11-27-2020,00:56,METAR,Normal,280,12.0,18.0,,9999.0,,3.0,0.6,29.83,1011.6,,,,,,,,,,,,,,,,5000.0,4000.0,SCT,4000.0,OVC,5000.0,,,,
KRDR,11-26-2020,23:56,METAR,Normal,240,6.0,,,9999.0,,1.5,-2.6,29.81,1011.0,,,,,,,,,,,,,,,,10000.0,4600.0,FEW,4600.0,BKN,10000.0,BKN,12000.0,,
KRDR,11-26-2020,22:56,METAR,Normal,210,7.0,,,9999.0,,2.9,-2.2,29.80,1010.6,,,,,,,,,,,,,,,2/8 Mostly Clear,72000.0,10000.0,FEW,10000.0,,,,,,
KRDR,11-26-2020,21:56,METAR,Normal,220,12.0,,,9999.0,,4.6,-2.3,29.81,1010.8,,,,,,,,,,,,,,,,10000.0,10000.0,BKN,10000.0,,,,,,
KRDR,11-26-2020,20:56,METAR,Normal,240,13.0,,,9999.0,,4.9,-2.9,29.81,1010.8,,,,,,,,,,,,,,,Clear,72000.0,,,,,,,,,
KRDR,11-26-2020,19:56,METAR,Normal,240,12.0,,,9999.0,,4.8,-2.8,29.82,1011.3,,,,,,,,,,,,,,,2/8 Mostly Clear,72000.0,16000.0,FEW,16000.0,,,,,,
KRDR,11-26-2020,18:56,METAR,Normal,260,9.0,,,9999.0,,4.5,-2.6,29.84,1012.0,,,,,,,,,,,,,,,Clear,72000.0,,,,,,,,,
KRDR,11-26-2020,17:56,METAR,Normal,260,11.0,,,9999.0,,4.1,-2.7,29.85,1012.4,,,,,,,,,,,,,,,Clear,72000.0,,,,,,,,,
KRDR,11-26-2020,16:56,METAR,Normal,290,11.0,,,9999.0,,3.7,-2.3,29.87,1013.0,,,,,,,,,,,,,,,4/8 Partly Cloudy,72000.0,3400.0,SCT,3400.0,,,,,,
KRDR,11-26-2020,15:56,METAR,Normal,310,4.0,,,9999.0,,2.5,-2.0,29.85,1012.4,,,,,,,,,,,,,,,,3500.0,3500.0,OVC,3500.0,,,,,,
KRDR,11-26-2020,14:56,METAR,Normal,290,5.0,,,9999.0,,0.9,-2.0,29.85,1012.5,,,,,,,,,,,,,,,,3200.0,3200.0,OVC,3200.0,,,,,,
KRDR,11-26-2020,14:26,SPECI,Normal,280,4.0,,,9999.0,,0.0,-2.0,29.85,1012.5,,,,,,,,,,,,,,,,3000.0,3000.0,OVC,3000.0,,,,,,
KRDR,11-26-2020,14:06,SPECI,Normal,290,7.0,,,9999.0,,0.0,-2.0,29.84,1012.2,,,,,,,,,,,,,,,,2800.0,2800.0,OVC,2800.0,,,,,,
KRDR,11-26-2020,13:56,METAR,Normal,300,6.0,,,9999.0,,0.2,-1.7,29.84,1012.2,,,,,,,,,,,,,,,,3000.0,3000.0,OVC,3000.0,,,,,,
KRDR,11-26-2020,13:46,SPECI,Normal,300,7.0,,,9999.0,,0.0,-2.0,29.84,1012.2,,,,,,,,,,,,,,,,3000.0,3000.0,OVC,3000.0,,,,,,
KRDR,11-26-2020,13:06,SPECI,Normal,320,10.0,,,9999.0,,1.0,-2.0,29.83,1011.7,,,,,,,,,,,,,,,,2700.0,2900.0,OVC,2900.0,,,,,,
KRDR,11-26-2020,12:56,METAR,Normal,320,13.0,20.0,,9999.0,,0.6,-2.3,29.82,1011.4,,,,,,,,,,,,,,,,3000.0,3000.0,OVC,3000.0,,,,,,
KRDR,11-26-2020,12:46,SPECI,Normal,320,14.0,,,9999.0,,1.0,-2.0,29.82,1011.4,,,,,,,,,,,,,,,,3000.0,2300.0,FEW,2300.0,OVC,3000.0,,,,
KRDR,11-26-2020,11:56,METAR,Normal,320,14.0,,,9999.0,,0.1,-1.8,29.80,1010.8,,,,,,,,,,,,,TRACE,,,2000.0,2000.0,OVC,2000.0,,,,,,
KRDR,11-26-2020,11:16,SPECI,Normal,310,12.0,,,9999.0,,-1.0,-2.0,29.79,1010.5,,,,,,,,,,,,,,,,2300.0,2300.0,BKN,2300.0,,,,,,
KRDR,11-26-2020,10:56,METAR,Normal,310,11.0,,,9999.0,,-0.1,-1.7,29.77,1009.8,,,,,,,,,,,,,,,2/8 Mostly Clear,72000.0,1900.0,FEW,1900.0,FEW,10000.0,,,,
KRDR,11-26-2020,10:36,SPECI,Normal,310,11.0,,,9999.0,,0.0,-1.0,29.76,1009.4,,,,,,,,,,,,,,,4/8 Partly Cloudy,72000.0,1900.0,SCT,1900.0,,,,,,
KRDR,11-26-2020,10:26,SPECI,Normal,310,13.0,,,9999.0,,0.0,-2.0,29.76,1009.4,,,,,,,,,,,,,,,,1900.0,1900.0,BKN,1900.0,,,,,,
KRDR,11-26-2020,09:56,METAR,Normal,320,16.0,,,9999.0,,0.4,-1.4,29.75,1009.0,,,,,,,,,,,TRACE,,,,Clear,72000.0,,,,,,,,,
KRDR,11-26-2020,09:02,SPECI,Normal,320,14.0,,,9999.0,,1.0,0.0,29.73,1008.3,,,,,,,,,,,,,,,,5000.0,1800.0,SCT,1800.0,BKN,5000.0,,,,
KRDR,11-26-2020,08:56,METAR,Normal,320,13.0,,,9999.0,Light Rain,1.1,0.4,29.73,1008.3,61,,,,,,,,,,TRACE,TRACE,,,,1700.0,1700.0,BKN,1700.0,BKN,3500.0,,,,
KRDR,11-26-2020,08:53,SPECI,Normal,310,13.0,,,9999.0,Light Rain,1.0,0.0,29.73,1008.3,61,,,,,,,,,,,,,,,1700.0,1700.0,BKN,1700.0,BKN,3500.0,,,,
KRDR,11-26-2020,08:51,SPECI,Normal,310,13.0,19.0,,9999.0,,1.0,0.0,29.73,1008.3,,,,,,,,,,,,,,,,1700.0,1700.0,BKN,1700.0,,,,,,
KRDR,11-26-2020,08:48,SPECI,Normal,300,13.0,19.0,,9999.0,Light Rain,1.0,0.0,29.73,1008.3,61,,,,,,,,,,,,,,,1700.0,1700.0,OVC,1700.0,,,,,,
KRDR,11-26-2020,08:18,SPECI,Normal,220,5.0,,,9999.0,Precipitation,-1.0,-1.0,29.72,1008.0,41,,,,,,,,,,,,,,,2900.0,2300.0,FEW,2300.0,BKN,2900.0,BKN,4300.0,,
KRDR,11-26-2020,07:58,SPECI,Normal,200,8.0,,,9999.0,Light Drizzle,-2.0,-2.0,29.70,1007.4,51,,,,,,,,,,,,,,,4200.0,4200.0,OVC,4200.0,,,,,,
KRDR,11-26-2020,07:56,METAR,Normal,200,7.0,,,9999.0,,-1.9,-2.3,29.70,1007.4,,,,,,,,,,,,,,,,4300.0,4300.0,BKN,4300.0,OVC,9100.0,,,,
KRDR,11-26-2020,05:56,METAR,Normal,200,12.0,,,9999.0,,-2.0,-2.1,29.69,1007.1,,,,,,,,,,,,,,,,17000.0,17000.0,OVC,17000.0,,,,,,
KRDR,11-26-2020,04:56,METAR,Normal,200,11.0,,,9999.0,,-1.9,-2.0,29.69,1007.2,,,,,,,,,,,,,,,,17000.0,17000.0,BKN,17000.0,BKN,21000.0,,,,
KRDR,11-26-2020,03:56,METAR,Normal,180,13.0,,,9999.0,,-2.1,-2.2,29.68,1006.9,,,,,,,,,,,,,,,,21000.0,21000.0,BKN,21000.0,,,,,,
KRDR,11-26-2020,02:56,METAR,Normal,180,14.0,,,9999.0,,-2.2,-2.3,29.69,1007.3,,,,,,,,,,,,,,,Clear,72000.0,,,,,,,,,
KRDR,11-26-2020,01:56,METAR,Normal,180,14.0,,,9999.0,,-1.7,-1.8,29.70,1007.6,,,,,,,,,,,,,,,,23000.0,23000.0,BKN,23000.0,,,,,,
KRDR,11-26-2020,00:56,METAR,Normal,180,13.0,,,9999.0,,-1.8,-1.9,29.70,1007.6,,,,,,,,,,,,,,,,23000.0,23000.0,BKN,23000.0,,,,,,
KRDR,11-25-2020,23:56,METAR,Normal,180,14.0,,,9999.0,,-1.8,-2.1,29.70,1007.6,,,,,,,,,,,,,,,4/8 Partly Cloudy,72000.0,19000.0,SCT,19000.0,SCT,25000.0,,,,
KRDR,11-25-2020,22:56,METAR,Normal,170,14.0,,,9999.0,,-1.2,-2.0,29.71,1008.0,,,,,,,,,,,,,,,4/8 Partly Cloudy,72000.0,19000.0,SCT,19000.0,SCT,25000.0,,,,
KRDR,11-25-2020,21:56,METAR,Normal,180,14.0,,,9999.0,,-0.1,-2.0,29.72,1008.2,,,,,,,,,,,,,,,4/8 Partly Cloudy,72000.0,19000.0,SCT,19000.0,SCT,25000.0,,,,
KRDR,11-25-2020,20:56,METAR,Normal,170,12.0,,,9999.0,,0.5,-1.7,29.72,1008.3,,,,,,,,,,,,,,,4/8 Partly Cloudy,72000.0,19000.0,FEW,19000.0,SCT,25000.0,,,,
KRDR,11-25-2020,19:56,METAR,Normal,170,13.0,,,9999.0,,0.6,-1.8,29.75,1009.3,,,,,,,,,,,,,,,2/8 Mostly Clear,72000.0,18000.0,FEW,18000.0,FEW,23000.0,,,,
KRDR,11-25-2020,18:56,METAR,Normal,180,13.0,,,9999.0,Haze Smoke or Dust,-0.8,-2.1,29.77,1010.1,05,,,,,,,,,,,,,,2/8 Mostly Clear,72000.0,800.0,FEW,800.0,FEW,22000.0,,,,
KRDR,11-25-2020,18:16,SPECI,Normal,180,14.0,,,9999.0,,-2.0,-2.0,29.79,1010.7,,,,,,,,,,,,,,,4/8 Partly Cloudy,72000.0,800.0,FEW,800.0,SCT,22000.0,,,,
KRDR,11-25-2020,17:56,METAR,Normal,190,15.0,,,9999.0,Mist,-2.2,-2.6,29.80,1011.0,10,,,,,,,,,,,,TRACE,,,700.0,700.0,BKN,700.0,,,,,,
KRDR,11-25-2020,17:16,SPECI,Normal,190,16.0,,,9999.0,Mist,-4.0,-4.0,29.82,1011.7,10,,,,,,,,,,,,,,,500.0,600.0,BKN,600.0,,,,,,
KRDR,11-25-2020,16:56,METAR,Normal,200,14.0,,,8000.0,Mist,-4.0,-4.0,29.83,1012.1,10,,,,,,,,,,,,,,,500.0,500.0,BKN,500.0,,,,,,
KRDR,11-25-2020,15:56,METAR,Normal,190,13.0,,,6400.0,Mist,-4.9,-4.9,29.84,1012.4,10,,,,,,,,,,,,,,,300.0,400.0,OVC,400.0,,,,,,
KRDR,11-25-2020,14:56,METAR,Normal,190,13.0,,,6400.0,Mist,-5.4,-5.4,29.86,1013.1,10,,,,,,,,,,,TRACE,,,,300.0,400.0,OVC,400.0,,,,,,
KRDR,11-25-2020,14:10,SPECI,Normal,190,9.0,,,6400.0,Mist,-6.0,-6.0,29.87,1013.5,10,,,,,,,,,,,,,,,300.0,400.0,OVC,400.0,,,,,,
KRDR,11-25-2020,13:56,METAR,Normal,190,9.0,,,9999.0,,-5.9,-5.9,29.86,1013.2,,,,,,,,,,,TRACE,,,,,300.0,400.0,OVC,400.0,,,,,,
KRDR,11-25-2020,13:44,SPECI,Normal,210,8.0,,,8000.0,,-6.0,-6.0,29.87,1013.5,,,,,,,,,,,,,,,,300.0,300.0,OVC,300.0,,,,,,
KRDR,11-25-2020,13:41,SPECI,Normal,200,8.0,,,8000.0,Light Snow,-6.0,-6.0,29.86,1013.2,71,,,,,,,,,,,,,,,300.0,300.0,OVC,300.0,,,,,,
KRDR,11-25-2020,13:34,SPECI,Normal,190,11.0,,,9999.0,Light Snow,-6.0,-6.0,29.86,1013.2,71,,,,,,,,,,,,,,,300.0,300.0,OVC,300.0,,,,,,
KRDR,11-25-2020,13:29,SPECI,Normal,210,9.0,,,9999.0,,-6.0,-6.0,29.86,1013.2,,,,,,,,,,,,,,,,300.0,300.0,OVC,300.0,,,,,,
KRDR,11-25-2020,13:06,SPECI,Normal,210,11.0,,,9999.0,Light Snow,-6.0,-6.0,29.87,1013.5,71,,,,,,,,,,,,,,,200.0,300.0,OVC,300.0,,,,,,
KRDR,11-25-2020,12:58,SPECI,Normal,210,9.0,,,9999.0,,-6.0,-6.0,29.87,1013.5,,,,,,,,,,,,,,,,200.0,300.0,OVC,300.0,,,,,,
KRDR,11-25-2020,12:56,METAR,Normal,200,10.0,,,9999.0,Light Snow/Mist,-6.0,-6.0,29.87,1013.5,71,10,,,,,,,,,TRACE,,,,,200.0,300.0,OVC,300.0,,,,,,
KRDR,11-25-2020,12:46,SPECI,Normal,190,10.0,,,9999.0,Light Snow/Mist,-6.0,-6.0,29.86,1013.1,71,10,,,,,,,,,,,,,,200.0,300.0,OVC,300.0,,,,,,
KRDR,11-25-2020,11:56,METAR,Normal,220,10.0,,,9999.0,,-6.5,-6.5,29.89,1014.1,,,,,,,,,,,,,TRACE,,,200.0,300.0,OVC,300.0,,,,,,
KRDR,11-25-2020,11:26,SPECI,Normal,210,8.0,,,9999.0,,-7.0,-7.0,29.90,1014.4,,,,,,,,,,,,,,,,300.0,400.0,OVC,400.0,,,,,,
KRDR,11-25-2020,11:06,SPECI,Normal,230,9.0,,,9999.0,,-7.0,-7.0,29.90,1014.4,,,,,,,,,,,,,,,,500.0,500.0,OVC,500.0,,,,,,
KRDR,11-25-2020,10:56,METAR,Normal,220,9.0,,,9999.0,,-7.0,-7.1,29.90,1014.4,,,,,,,,,,,TRACE,,,,,500.0,600.0,OVC,600.0,,,,,,
KRDR,11-25-2020,10:54,SPECI,Normal,220,9.0,,,9999.0,,-7.0,-7.0,29.90,1014.4,,,,,,,,,,,,,,,,500.0,600.0,OVC,600.0,,,,,,
KRDR,11-25-2020,10:39,SPECI,Normal,230,8.0,,,9999.0,Light Snow,-7.0,-7.0,29.91,1014.8,71,,,,,,,,,,,,,,,600.0,600.0,OVC,600.0,,,,,,
KRDR,11-25-2020,10:36,SPECI,Normal,230,7.0,,,9999.0,,-7.0,-7.0,29.91,1014.8,,,,,,,,,,,,,,,,600.0,600.0,OVC,600.0,,,,,,
KRDR,11-25-2020,10:06,SPECI,Normal,220,6.0,,,9999.0,,-7.0,-7.0,29.91,1014.8,,,,,,,,,,,,,,,,700.0,700.0,OVC,700.0,,,,,,
KRDR,11-25-2020,09:56,METAR,Normal,210,7.0,,,9999.0,,-6.9,-7.0,29.91,1014.7,,,,,,,,,,,TRACE,,,,,700.0,800.0,OVC,800.0,,,,,,
KRDR,11-25-2020,09:41,SPECI,Normal,200,5.0,,,9999.0,,-7.0,-7.0,29.90,1014.4,,,,,,,,,,,,,,,,700.0,900.0,OVC,900.0,,,,,,
KRDR,11-25-2020,09:24,SPECI,Normal,190,4.0,,,9999.0,Light Snow,-8.0,-8.0,29.91,1014.8,71,,,,,,,,,,,,,,,900.0,900.0,OVC,900.0,,,,,,
KRDR,11-25-2020,08:56,METAR,Normal,200,3.0,,,9999.0,,-9.3,-9.5,29.92,1015.1,,,,,,,,,,,TRACE,TRACE,,,,800.0,800.0,BKN,800.0,,,,,,
KRDR,11-25-2020,08:55,SPECI,Calm,,0.0,,,9999.0,,-9.0,-9.0,29.92,1015.1,,,,,,,,,,,,,,,,800.0,800.0,BKN,800.0,,,,,,
KRDR,11-25-2020,08:35,SPECI,Normal,260,3.0,,,9999.0,,-9.0,-9.0,29.92,1015.1,,,,,,,,,,,,,,,4/8 Partly Cloudy,72000.0,600.0,SCT,600.0,,,,,,
KRDR,11-25-2020,08:28,SPECI,Normal,260,5.0,,,9999.0,Light Snow,-9.0,-9.0,29.92,1015.1,71,,,,,,,,,,,,,,2/8 Mostly Clear,72000.0,600.0,FEW,600.0,,,,,,
KRDR,11-25-2020,07:56,METAR,Normal,290,4.0,,,9999.0,,-9.8,-10.0,29.93,1015.5,,,,,,,,,,,,,,,Clear,72000.0,,,,,,,,,
KRDR,11-25-2020,06:56,METAR,Calm,,0.0,,,9999.0,,-8.1,-8.2,29.94,1015.7,,,,,,,,,,,,,,,Clear,72000.0,,,,,,,,,
KRDR,11-25-2020,06:36,SPECI,Normal,290,4.0,,,9999.0,,-7.0,-7.0,29.94,1015.7,,,,,,,,,,,,,,,4/8 Partly Cloudy,72000.0,900.0,SCT,900.0,,,,,,
KRDR,11-25-2020,05:56,METAR,Normal,280,7.0,,,9999.0,,-5.3,-5.4,29.94,1015.6,,,,,,,,,,,,,,,,800.0,900.0,OVC,900.0,,,,,,
KRDR,11-25-2020,05:16,SPECI,Normal,300,7.0,,,9999.0,,-5.0,-5.0,29.94,1015.6,,,,,,,,,,,,,,,,900.0,900.0,OVC,900.0,,,,,,
KRDR,11-25-2020,04:56,METAR,Normal,280,7.0,,,9999.0,,-4.5,-4.8,29.93,1015.2,,,,,,,,,,,,,,,,1000.0,1000.0,OVC,1000.0,,,,,,
KRDR,11-25-2020,04:36,SPECI,Normal,280,7.0,,,9999.0,,-4.0,-4.0,29.93,1015.2,,,,,,,,,,,,,,,,1000.0,1000.0,OVC,1000.0,,,,,,
KRDR,11-25-2020,03:56,METAR,Normal,320,9.0,,,9999.0,,-4.0,-4.3,29.94,,,,,,,,,,,,,,,,,1000.0,1100.0,OVC,1100.0,,,,,,
KRDR,11-25-2020,02:56,METAR,Normal,300,12.0,,,9999.0,,-4.0,-4.4,29.93,1015.2,,,,,,,,,,,,,,,,1100.0,1200.0,OVC,1200.0,,,,,,
KRDR,11-25-2020,02:16,SPECI,Normal,310,9.0,,,9999.0,,-4.0,-4.0,29.93,1015.2,,,,,,,,,,,,,,,,1200.0,1200.0,OVC,1200.0,,,,,,
KRDR,11-25-2020,01:56,METAR,Normal,310,14.0,,,9999.0,,-3.7,-4.1,29.94,1015.7,,,,,,,,,,,,,,,,1300.0,1400.0,OVC,1400.0,,,,,,
KRDR,11-25-2020,01:46,SPECI,Normal,320,12.0,,,9999.0,,-4.0,-4.0,29.93,1015.3,,,,,,,,,,,,,,,,1300.0,1300.0,OVC,1300.0,,,,,,
KRDR,11-25-2020,00:56,METAR,Normal,300,12.0,,,9999.0,,-3.2,-3.6,29.92,1014.9,,,,,,,,,,,,,,,,1200.0,1200.0,OVC,1200.0,,,,,,
KRDR,11-25-2020,00:46,SPECI,Normal,300,12.0,,,9999.0,,-3.0,-3.0,29.92,1014.9,,,,,,,,,,,,,,,,1200.0,1200.0,OVC,1200.0,,,,,,
KRDR,11-25-2020,00:16,SPECI,Normal,300,13.0,,,9999.0,,-2.0,-3.0,29.91,1014.5,,,,,,,,,,,,,,,,1400.0,1400.0,OVC,1400.0,,,,,,
KRDR,11-24-2020,23:56,METAR,Normal,310,13.0,,,9999.0,,-1.8,-1.9,29.90,1014.2,,,,,,,,,,,,,,,,1300.0,1300.0,OVC,1300.0,,,,,,
KRDR,11-24-2020,22:56,METAR,Normal,310,11.0,,,9999.0,,-0.7,-0.8,29.88,1013.4,,,,,,,,,,,,,,,,1100.0,1100.0,OVC,1100.0,,,,,,
KRDR,11-24-2020,21:58,METAR,Normal,320,12.0,,,9999.0,,0.0,-0.1,29.86,1012.8,,,,,,,,,,,,,,,,1200.0,1300.0,OVC,1300.0,,,,,,
KRDR,11-24-2020,20:58,METAR,Normal,310,13.0,,,9999.0,,0.6,0.5,29.85,1012.4,,,,,,,,,,,,,,,,1300.0,1300.0,OVC,1300.0,,,,,,
KRDR,11-24-2020,19:57,METAR,Normal,320,12.0,,,9999.0,,2.0,2.0,29.81,1011.0,,,,,,,,,,,,,,,,1000.0,1100.0,OVC,1100.0,,,,,,
KRDR,11-24-2020,18:56,METAR,Normal,300,10.0,,,6400.0,Mist,1.7,1.7,29.80,1010.6,10,,,,,,,,,,,,,,,500.0,600.0,BKN,600.0,OVC,1200.0,,,,
KRDR,11-24-2020,17:57,METAR,Normal,310,10.0,,,9999.0,,3.3,3.3,29.78,1010.0,,,,,,,,,,,,,,,,900.0,900.0,BKN,900.0,OVC,2000.0,,,,
KRDR,11-24-2020,17:01,METAR,Normal,270,5.0,,,9999.0,Mist,2.5,2.5,29.79,1010.3,10,,,,,,,,,,,,,,,1400.0,600.0,SCT,600.0,BKN,1600.0,OVC,4000.0,,
KRDR,11-24-2020,16:36,SPECI,Normal,230,6.0,,,6400.0,Mist,2.0,2.0,29.80,1010.6,10,,,,,,,,,,,,,,,600.0,600.0,BKN,600.0,OVC,1500.0,,,,
KRDR,11-24-2020,15:58,METAR,Normal,220,7.0,,,2200.0,Mist,1.5,1.5,29.80,1010.6,10,,,,,,,,,,,,,,,200.0,500.0,OVC,500.0,,,,,,
KRDR,11-24-2020,14:59,METAR,Normal,200,7.0,,,2400.0,Mist,1.1,1.1,29.79,1010.4,10,,,,,,,,,,,,,,,200.0,300.0,OVC,300.0,,,,,,
KRDR,11-24-2020,14:14,SPECI,Normal,190,9.0,,,2400.0,Mist,1.0,1.0,29.79,1010.5,,,,10,,,,,,,,,,,,300.0,400.0,OVC,400.0,,,,,,
KRDR,11-24-2020,14:06,SPECI,Normal,190,10.0,,,9999.0,Mist,1.0,1.0,29.78,1010.1,10,,,,,,,,,,,,,,,400.0,400.0,OVC,400.0,,,,,,
KRDR,11-24-2020,13:56,METAR,Normal,190,10.0,,,9999.0,,0.9,0.9,29.78,1010.1,,,,,,,,,,,,,,,,400.0,500.0,OVC,500.0,,,,,,
KRDR,11-24-2020,12:56,METAR,Normal,180,10.0,,,9999.0,,0.9,0.9,29.78,1010.1,,,,,,,,,,,,,,,,300.0,500.0,OVC,500.0,,,,,,
KRDR,11-24-2020,11:56,METAR,Normal,180,12.0,,,9999.0,,0.8,0.8,29.78,1010.0,,,,,,,,,,,,,,,,300.0,400.0,OVC,400.0,,,,,,
KRDR,11-24-2020,10:56,METAR,Normal,170,13.0,,,8000.0,Mist,0.5,0.5,29.79,1010.4,10,,,,,,,,,,,,,,,300.0,500.0,OVC,500.0,,,,,,
KRDR,11-24-2020,10:36,SPECI,Normal,170,13.0,,,9999.0,Mist,1.0,1.0,29.79,1010.4,10,,,,,,,,,,,,,,,300.0,500.0,OVC,500.0,,,,,,
KRDR,11-24-2020,10:26,SPECI,Normal,170,14.0,,,9999.0,Mist,0.0,0.0,29.80,1010.7,10,,,,,,,,,,,,,,,300.0,400.0,OVC,400.0,,,,,,
KRDR,11-24-2020,09:56,METAR,Normal,160,12.0,,,6400.0,Mist,0.4,0.4,29.80,1010.7,10,,,,,,,,,,.01 IN,,,,,300.0,500.0,OVC,500.0,,,,,,
KRDR,11-24-2020,08:56,METAR,Normal,170,5.0,,,6400.0,Mist,0.2,0.2,29.84,1012.0,10,,,,,,,,,,TRACE,TRACE,,,,300.0,400.0,OVC,400.0,,,,,,
KRDR,11-24-2020,07:56,METAR,Normal,150,6.0,,,6400.0,Heavy Freezing Drizzle,0.0,0.0,29.84,1012.1,56,,,,,,,,,,TRACE,,,,,300.0,500.0,OVC,500.0,,,,,,
KRDR,11-24-2020,06:56,METAR,Normal,150,11.0,,,6400.0,Heavy Freezing Drizzle,-0.5,-0.5,29.87,1013.1,56,,,,,,,,,,TRACE,,,,,300.0,500.0,OVC,500.0,,,,,,
KRDR,11-24-2020,05:56,METAR,Normal,140,13.0,,,9999.0,Freezing Drizzle,-1.1,-1.2,29.88,1013.6,55,,,,,,,,,,TRACE,,TRACE,,,500.0,900.0,BKN,900.0,OVC,1600.0,,,,
KRDR,11-24-2020,05:35,SPECI,Normal,150,15.0,20.0,,9999.0,Light Freezing Drizzle,-1.0,-2.0,29.90,1014.3,54,,,,,,,,,,,,,,,600.0,1700.0,OVC,1700.0,,,,,,
KRDR,11-24-2020,05:29,SPECI,Normal,150,16.0,,,9999.0,,-1.0,-2.0,29.90,1014.3,,,,,,,,,,,,,,,,600.0,1900.0,OVC,1900.0,,,,,,
KRDR,11-24-2020,04:56,METAR,Normal,140,14.0,22.0,,9999.0,Light Snow,-0.9,-3.0,29.91,1014.7,71,,,,,,,,,,TRACE,,,,,1100.0,2000.0,BKN,2000.0,OVC,2600.0,,,,
KRDR,11-24-2020,04:12,SPECI,Normal,140,12.0,,,9999.0,Light Snow,-1.0,-4.0,29.94,1015.7,,,,71,,,,,,,,,,,,2100.0,2100.0,OVC,2100.0,,,,,,
KRDR,11-24-2020,03:56,METAR,Normal,150,11.0,,,9999.0,,-0.9,-4.4,29.95,1016.1,,,,,,,,,,,,,,,,2100.0,2200.0,OVC,2200.0,,,,,,
KRDR,11-24-2020,03:26,SPECI,Normal,150,12.0,,,9999.0,,-1.0,-4.0,29.95,1016.2,,,,,,,,,,,,,,,,2300.0,2400.0,OVC,2400.0,,,,,,
KRDR,11-24-2020,02:56,METAR,Normal,150,12.0,,,9999.0,,-1.3,-4.6,29.96,1016.6,,,,,,,,,,,,,,,,3100.0,3100.0,OVC,3100.0,,,,,,
KRDR,11-24-2020,01:56,METAR,Normal,140,12.0,,,9999.0,,-2.5,-5.5,29.98,1017.3,,,,,,,,,,,,,,,,10000.0,10000.0,BKN,10000.0,,,,,,
KRDR,11-24-2020,00:56,METAR,Normal,140,11.0,,,9999.0,,-2.1,-5.6,29.98,1017.4,,,,,,,,,,,,,,,4/8 Partly Cloudy,72000.0,10000.0,FEW,10000.0,SCT,25000.0,,,,
KRDR,11-23-2020,23:56,METAR,Normal,140,10.0,,,9999.0,,-1.4,-5.4,29.99,1017.7,,,,,,,,,,,,,,,4/8 Partly Cloudy,72000.0,25000.0,SCT,25000.0,,,,,,
KRDR,11-23-2020,22:56,METAR,Normal,140,10.0,,,9999.0,,-0.5,-5.5,30.00,1017.9,,,,,,,,,,,,,,,4/8 Partly Cloudy,72000.0,25000.0,SCT,25000.0,,,,,,
KRDR,11-23-2020,21:56,METAR,Normal,130,11.0,,,9999.0,,0.9,-5.6,30.01,1018.4,,,,,,,,,,,,,,,2/8 Mostly Clear,72000.0,25000.0,FEW,25000.0,,,,,,
KRDR,11-23-2020,20:56,METAR,Normal,140,12.0,,,9999.0,,1.4,-6.0,30.03,1019.0,,,,,,,,,,,,,,,2/8 Mostly Clear,72000.0,25000.0,FEW,25000.0,,,,,,
KRDR,11-23-2020,19:56,METAR,Normal,140,13.0,,,9999.0,,0.6,-5.6,30.06,1020.1,,,,,,,,,,,,,,,2/8 Mostly Clear,72000.0,25000.0,FEW,25000.0,,,,,,
KRDR,11-23-2020,18:56,METAR,Normal,150,14.0,,,9999.0,,-0.9,-5.7,30.09,1021.2,,,,,,,,,,,,,,,2/8 Mostly Clear,72000.0,25000.0,FEW,25000.0,,,,,,
KRDR,11-23-2020,17:56,METAR,Normal,140,13.0,,,9999.0,,-2.5,-5.5,30.14,1022.9,,,,,,,,,,,,,,,2/8 Mostly Clear,72000.0,25000.0,FEW,25000.0,,,,,,
KRDR,11-23-2020,16:56,METAR,Normal,150,8.0,,,9999.0,,-4.3,-5.9,30.17,1023.9,,,,,,,,,,,,,,,2/8 Mostly Clear,72000.0,2500.0,FEW,2500.0,FEW,25000.0,,,,
KRDR,11-23-2020,15:56,METAR,Normal,140,8.0,,,9999.0,,-6.6,-7.6,30.19,1024.7,,,,,,,,,,,,,,,2/8 Mostly Clear,72000.0,25000.0,FEW,25000.0,,,,,,
KRDR,11-23-2020,14:56,METAR,Normal,140,8.0,,,9999.0,,-9.4,-9.9,30.22,1025.8,,,,,,,,,,,,,,,2/8 Mostly Clear,72000.0,25000.0,FEW,25000.0,,,,,,
KRDR,11-23-2020,13:56,METAR,Normal,120,6.0,,,9999.0,,-10.9,-11.6,30.22,1025.8,,,,,,,,,,,,,,,Clear,72000.0,,,,,,,,,
KRDR,11-23-2020,12:56,METAR,Normal,120,6.0,,,9999.0,,-11.1,-11.8,30.22,1025.8,,,,,,,,,,,,,,,Clear,72000.0,,,,,,,,,
KRDR,11-23-2020,11:56,METAR,Normal,110,5.0,,,9999.0,,-10.5,-11.3,30.23,1026.0,,,,,,,,,,,,,,,Clear,72000.0,,,,,,,,,
KRDR,11-23-2020,10:56,METAR,Normal,120,5.0,,,9999.0,,-9.9,-10.7,30.24,1026.3,,,,,,,,,,,,,,,Clear,72000.0,,,,,,,,,
KRDR,11-23-2020,09:56,METAR,Normal,110,6.0,,,9999.0,,-13.7,-14.2,30.25,1026.7,,,,,,,,,,,,,,,Clear,72000.0,,,,,,,,,
KRDR,11-23-2020,08:56,METAR,Normal,110,6.0,,,9999.0,,-13.6,-14.1,30.27,1027.4,,,,,,,,,,,,,,,Clear,72000.0,,,,,,,,,
KRDR,11-23-2020,07:56,METAR,Normal,100,4.0,,,9999.0,,-13.8,-14.9,30.28,1027.7,,,,,,,,,,,,,,,Clear,72000.0,,,,,,,,,
KRDR,11-23-2020,06:56,METAR,Calm,,0.0,,,9999.0,,-13.1,-13.4,30.29,1028.0,,,,,,,,,,,,,,,Clear,72000.0,,,,,,,,,
KRDR,11-23-2020,05:56,METAR,Calm,,0.0,,,9999.0,,-12.6,-13.1,30.29,1028.0,,,,,,,,,,,,,TRACE,,2/8 Mostly Clear,72000.0,2500.0,FEW,2500.0,,,,,,
KRDR,11-23-2020,05:37,SPECI,Calm,,0.0,,,9999.0,,-11.0,-12.0,30.30,1028.3,,,,,,,,,,,,,,,2/8 Mostly Clear,72000.0,2500.0,FEW,2500.0,,,,,,
KRDR,11-23-2020,05:11,SPECI,Calm,,0.0,,,9999.0,,-10.0,-11.0,30.28,1027.5,,,,,,,,,,,,,,,,2400.0,2400.0,BKN,2400.0,,,,,,
KRDR,11-23-2020,04:56,METAR,Calm,,0.0,,,9999.0,,-10.9,-11.1,30.29,1027.9,,,,,,,,,,,,,,,,2400.0,2500.0,BKN,2500.0,,,,,,
KRDR,11-23-2020,04:16,SPECI,Calm,,0.0,,,9999.0,,-11.0,-11.0,30.29,1027.9,,,,,,,,,,,,,,,4/8 Partly Cloudy,72000.0,2500.0,SCT,2500.0,,,,,,
KRDR,11-23-2020,03:56,METAR,Calm,,0.0,,,9999.0,,-10.0,-10.4,30.29,1027.9,,,,,,,,,,,,,,,,2500.0,2500.0,BKN,2500.0,,,,,,
KRDR,11-23-2020,02:56,METAR,Normal,280,5.0,,,9999.0,,-9.8,-10.3,30.29,1027.9,,,,,,,,,,,,TRACE,,,,2500.0,2600.0,OVC,2600.0,,,,,,
KRDR,11-23-2020,01:56,METAR,Normal,300,5.0,,,9999.0,,-9.9,-10.7,30.30,1028.3,,,,,,,,,,,,,,,,2600.0,2600.0,BKN,2600.0,,,,,,
KRDR,11-23-2020,01:46,SPECI,Normal,290,5.0,,,9999.0,,-9.0,-10.0,30.29,1027.9,,,,,,,,,,,,,,,,2600.0,2600.0,BKN,2600.0,,,,,,
KRDR,11-23-2020,00:56,METAR,Normal,310,5.0,,,9999.0,,-8.8,-9.9,30.29,1027.9,,,,,,,,,,,TRACE,,,,,1700.0,1700.0,BKN,1700.0,,,,,,
KRDR,11-23-2020,00:45,SPECI,Normal,300,5.0,,,9999.0,,-8.0,-9.0,30.28,1027.5,,,,,,,,,,,,,,,Clear,72000.0,,,,,,,,,
KRDR,11-23-2020,00:36,SPECI,Normal,310,5.0,,,9999.0,Light Snow,-8.0,-9.0,30.29,1027.8,71,,,,,,,,,,,,,,2/8 Mostly Clear,72000.0,2600.0,FEW,2600.0,,,,,,
KRDR,11-22-2020,23:56,METAR,Normal,320,7.0,,,9999.0,,-5.0,-8.1,30.28,1027.4,,,,,,,,,,,,,,,4/8 Partly Cloudy,72000.0,2400.0,SCT,2400.0,,,,,,
KRDR,11-22-2020,23:36,SPECI,Normal,310,8.0,,,9999.0,,-4.0,-8.0,30.28,1027.3,,,,,,,,,,,,,,,,2200.0,2200.0,OVC,2200.0,,,,,,
KRDR,11-22-2020,22:56,METAR,Normal,320,9.0,,,9999.0,,-3.3,-5.9,30.27,1026.9,,,,,,,,,,,,,,,,1800.0,1800.0,OVC,1800.0,,,,,,
KRDR,11-22-2020,21:56,METAR,Normal,320,10.0,,,9999.0,,-2.9,-5.5,30.25,1026.3,,,,,,,,,,,,,,,,1700.0,1700.0,OVC,1700.0,,,,,,
KRDR,11-22-2020,20:56,METAR,Normal,10,9.0,,,9999.0,,-2.1,-4.8,30.24,1025.9,,,,,,,,,,,,,,,,1700.0,1700.0,OVC,1700.0,,,,,,
KRDR,11-22-2020,19:56,METAR,Normal,360,9.0,,,9999.0,,-2.2,-4.9,30.23,1025.5,,,,,,,,,,,,,,,,1600.0,1600.0,OVC,1600.0,,,,,,
KRDR,11-22-2020,18:56,METAR,Normal,330,12.0,,,9999.0,,-1.8,-4.5,30.22,1025.2,,,,,,,,,,,,,,,,1400.0,1500.0,OVC,1500.0,,,,,,
KRDR,11-22-2020,17:56,METAR,Normal,330,14.0,,,9999.0,,-1.5,-5.0,30.22,1025.1,,,,,,,,,,,,,,,,1900.0,1900.0,OVC,1900.0,,,,,,
KRDR,11-22-2020,17:36,SPECI,Normal,330,15.0,21.0,,9999.0,,-1.0,-5.0,30.21,1024.8,,,,,,,,,,,,,,,,1900.0,1900.0,BKN,1900.0,,,,,,
KRDR,11-22-2020,16:56,METAR,Normal,320,15.0,,,9999.0,,-0.8,-4.9,30.20,1024.4,,,,,,,,,,,,,,,Clear,72000.0,,,,,,,,,
KRDR,11-22-2020,15:56,METAR,Normal,310,18.0,23.0,,9999.0,,-1.2,-3.7,30.18,1023.7,,,,,,,,,,,,,,,Clear,72000.0,,,,,,,,,
KRDR,11-22-2020,14:56,METAR,Normal,310,14.0,,,9999.0,,-1.8,-3.7,30.18,1023.7,,,,,,,,,,,,,,,4/8 Partly Cloudy,72000.0,11000.0,SCT,11000.0,,,,,,
KRDR,11-22-2020,13:56,METAR,Normal,300,8.0,,,9999.0,,-4.0,-4.1,30.15,1022.7,,,,,,,,,,,,,,,,10000.0,10000.0,BKN,10000.0,,,,,,
KRDR,11-22-2020,12:56,METAR,Normal,300,8.0,,,9999.0,,-3.0,-3.1,30.14,1022.4,,,,,,,,,,,,,,,Clear,72000.0,,,,,,,,,
KRDR,11-22-2020,11:56,METAR,Normal,300,6.0,,,9999.0,,-2.6,-2.7,30.14,1022.5,,,,,,,,,,,,,,,Clear,72000.0,,,,,,,,,
KRDR,11-22-2020,10:56,METAR,Normal,300,8.0,,,9999.0,,-0.8,-0.9,30.14,1022.3,,,,,,,,,,,,,,,,3800.0,3800.0,BKN,3800.0,OVC,7000.0,,,,
KRDR,11-22-2020,09:56,METAR,Normal,290,8.0,,,9999.0,,-2.8,-3.1,30.13,1022.0,,,,,,,,,,,,,,,,7000.0,7000.0,BKN,7000.0,,,,,,
KRDR,11-22-2020,08:56,METAR,Normal,290,7.0,,,9999.0,,-2.6,-3.3,30.13,1022.0,,,,,,,,,,,,,,,,7000.0,7000.0,BKN,7000.0,,,,,,
KRDR,11-22-2020,07:56,METAR,Normal,300,9.0,,,9999.0,,-2.1,-3.5,30.13,1021.9,,,,,,,,,,,,,,,2/8 Mostly Clear,72000.0,10000.0,FEW,10000.0,,,,,,
KRDR,11-22-2020,06:56,METAR,Normal,270,6.0,,,9999.0,,-1.3,-1.7,30.14,1022.3,,,,,,,,,,,,,,,,10000.0,10000.0,OVC,10000.0,,,,,,
KRDR,11-22-2020,05:56,METAR,Normal,290,4.0,,,9999.0,,-1.2,-1.3,30.14,1022.4,,,,,,,,,,,,,,,,9000.0,9000.0,BKN,9100.0,,,,,,
KRDR,11-22-2020,04:56,METAR,Normal,230,5.0,,,9999.0,,0.1,0.0,30.14,1022.4,,,,,,,,,,,,,,,,10000.0,10000.0,OVC,10000.0,,,,,,
KRDR,11-22-2020,03:56,METAR,Normal,200,4.0,,,9999.0,,0.5,-0.1,30.15,1022.8,,,,,,,,,,,,,,,,10000.0,10000.0,OVC,10000.0,,,,,,
KRDR,11-22-2020,02:56,METAR,Normal,190,6.0,,,9999.0,,1.0,0.0,30.16,1023.2,,,,,,,,,,,,,,,Clear,72000.0,,,,,,,,,
KRDR,11-22-2020,01:56,METAR,Normal,200,5.0,,,9999.0,,1.7,0.1,30.17,1023.6,,,,,,,,,,,,,,,Clear,72000.0,,,,,,,,,
KRDR,11-22-2020,00:56,METAR,Normal,180,8.0,,,9999.0,,1.0,-0.5,30.17,1023.7,,,,,,,,,,,,,,,4/8 Partly Cloudy,72000.0,10000.0,SCT,10000.0,,,,,,
KRDR,11-21-2020,23:56,METAR,Normal,170,3.0,,,9999.0,,-0.9,-1.3,30.18,1024.0,,,,,,,,,,,,,,,,9500.0,9500.0,OVC,9600.0,,,,,,
KRDR,11-21-2020,22:56,METAR,Normal,100,3.0,,,9999.0,,1.1,-0.4,30.20,1024.6,,,,,,,,,,,,,,,,11000.0,11000.0,OVC,11000.0,,,,,,
KRDR,11-21-2020,21:56,METAR,Normal,140,4.0,,,9999.0,,2.8,0.2,30.21,1024.9,,,,,,,,,,,,,,,Clear,72000.0,,,,,,,,,
KRDR,11-21-2020,20:56,METAR,Normal,170,4.0,,,9999.0,,3.9,0.4,30.22,1025.2,,,,,,,,,,,,,,,2/8 Mostly Clear,72000.0,18000.0,FEW,18000.0,,,,,,
KRDR,11-21-2020,19:56,METAR,Normal,200,9.0,,,9999.0,,3.3,-0.9,30.23,1025.5,,,,,,,,,,,,,,,Clear,72000.0,,,,,,,,,
KRDR,11-21-2020,18:56,METAR,Normal,200,11.0,,,9999.0,,1.5,-2.5,30.26,1026.5,,,,,,,,,,,,,,,Clear,72000.0,,,,,,,,,
KRDR,11-21-2020,17:56,METAR,Normal,180,11.0,,,9999.0,,-0.9,-3.9,30.29,1027.7,,,,,,,,,,,,,,,Clear,72000.0,,,,,,,,,
KRDR,11-21-2020,16:56,METAR,Normal,180,10.0,,,9999.0,,-2.9,-5.1,30.31,1028.4,,,,,,,,,,,,,,,Clear,72000.0,,,,,,,,,
KRDR,11-21-2020,15:56,METAR,Normal,180,10.0,,,9999.0,,-4.2,-5.9,30.33,1029.2,,,,,,,,,,,,,,,Clear,72000.0,,,,,,,,,
KRDR,11-21-2020,14:56,METAR,Normal,190,9.0,,,9999.0,,-6.6,-7.6,30.35,1030.0,,,,,,,,,,,,,,,Clear,72000.0,,,,,,,,,
KRDR,11-21-2020,13:56,METAR,Normal,190,9.0,,,9999.0,,-8.2,-8.7,30.36,1030.4,,,,,,,,,,,,,,,Clear,72000.0,,,,,,,,,
KRDR,11-21-2020,12:56,METAR,Normal,190,7.0,,,9999.0,,-8.3,-8.8,30.38,1031.1,,,,,,,,,,,,,,,Clear,72000.0,,,,,,,,,
KRDR,11-21-2020,11:56,METAR,Normal,190,9.0,,,9999.0,,-7.7,-8.7,30.39,1031.4,,,,,,,,,,,,,,,Clear,72000.0,,,,,,,,,
KRDR,11-21-2020,10:56,METAR,Normal,200,9.0,,,9999.0,,-7.2,-8.2,30.41,1032.0,,,,,,,,,,,,,,,Clear,72000.0,,,,,,,,,
KRDR,11-21-2020,09:56,METAR,Normal,180,8.0,,,9999.0,,-8.3,-8.7,30.43,1032.7,,,,,,,,,,,,,,,Clear,72000.0,,,,,,,,,
KRDR,11-21-2020,08:56,METAR,Normal,180,7.0,,,9999.0,,-9.0,-9.4,30.44,1033.1,,,,,,,,,,,,,,,Clear,72000.0,,,,,,,,,
KRDR,11-21-2020,07:56,METAR,Normal,190,8.0,,,9999.0,,-6.5,-8.3,30.46,1033.7,,,,,,,,,,,,,,,4/8 Partly Cloudy,72000.0,3600.0,SCT,3600.0,,,,,,
KRDR,11-21-2020,06:56,METAR,Normal,180,6.0,,,9999.0,,-5.0,-7.5,30.47,1034.0,,,,,,,,,,,,,,,,3500.0,3500.0,OVC,3500.0,,,,,,
KRDR,11-21-2020,05:56,METAR,Normal,170,5.0,,,9999.0,,-5.3,-7.9,30.48,1034.3,,,,,,,,,,,,,TRACE,,,4300.0,4300.0,OVC,4300.0,,,,,,
KRDR,11-21-2020,04:56,METAR,Normal,150,4.0,,,9999.0,,-5.8,-8.7,30.49,1034.7,,,,,,,,,,,,,,,,4200.0,4200.0,OVC,4200.0,,,,,,
KRDR,11-21-2020,03:56,METAR,Normal,160,3.0,,,9999.0,,-6.6,-9.0,30.50,1035.1,,,,,,,,,,,,,,,,5000.0,5000.0,BKN,5000.0,OVC,8000.0,,,,
KRDR,11-21-2020,02:56,METAR,Calm,,0.0,,,9999.0,,-6.1,-8.8,30.51,1035.4,,,,,,,,,,,,TRACE,,,,7500.0,7500.0,OVC,7500.0,,,,,,
KRDR,11-21-2020,01:56,METAR,Calm,,0.0,,,9999.0,,-6.2,-9.4,30.51,1035.4,,,,,,,,,,,,,,,,6500.0,6500.0,OVC,6500.0,,,,,,
KRDR,11-21-2020,01:11,SPECI,Normal,320,4.0,,,9999.0,,-6.0,-9.0,30.51,1035.4,,,,,,,,,,,,,,,,7000.0,2600.0,SCT,2600.0,OVC,7000.0,,,,
KRDR,11-21-2020,00:55,METAR,Normal,320,4.0,,,9999.0,,-6.1,-9.5,30.51,1035.4,,,,,,,,,,,,,,,,2600.0,2600.0,BKN,2600.0,OVC,7000.0,,,,
KRDR,11-20-2020,23:56,METAR,Normal,290,4.0,,,9999.0,,-5.6,-9.5,30.51,1035.3,,,,,,,,,,,TRACE,,TRACE,,,2300.0,2400.0,OVC,2400.0,,,,,,
KRDR,11-20-2020,22:56,METAR,Normal,300,4.0,,,9999.0,,-5.5,-9.8,30.50,1034.8,,,,,,,,,,,,,,,,2400.0,2500.0,OVC,2500.0,,,,,,
KRDR,11-20-2020,22:25,SPECI,Normal,270,5.0,,,9999.0,,-5.0,-10.0,30.49,1034.5,,,,,,,,,,,,,,,,2300.0,2400.0,OVC,2400.0,,,,,,
KRDR,11-20-2020,21:56,METAR,Normal,300,4.0,,,9999.0,Light Snow,-5.0,-9.3,30.48,1034.2,71,,,,,,,,,,TRACE,,,,,2300.0,2400.0,OVC,2400.0,,,,,,
KRDR,11-20-2020,20:58,METAR,Normal,290,5.0,,,9999.0,Light Snow,-5.0,-9.3,30.48,1034.2,71,,,,,,,,,,TRACE,TRACE,,,,2300.0,2300.0,OVC,2300.0,,,,,,
KRDR,11-20-2020,19:57,METAR,Normal,340,5.0,,,9999.0,Light Snow,-5.2,-9.6,30.48,1034.2,71,,,,,,,,,,TRACE,,,,,2200.0,2300.0,OVC,2300.0,,,,,,
KRDR,11-20-2020,18:56,METAR,Normal,340,8.0,,,9999.0,Light Snow,-5.3,-9.7,30.47,1033.7,71,,,,,,,,,,TRACE,,,,,2200.0,2300.0,OVC,2300.0,,,,,,
KRDR,11-20-2020,17:56,METAR,Normal,340,12.0,,,9999.0,Light Snow,-5.7,-10.1,30.47,1033.8,71,,,,,,,,,,TRACE,,TRACE,,,2200.0,2300.0,OVC,2300.0,,,,,,
KRDR,11-20-2020,17:19,SPECI,Normal,330,14.0,,,9999.0,Light Snow,-5.0,-10.0,30.46,1033.5,71,,,,,,,,,,,,,,,2400.0,2400.0,BKN,2400.0,,,,,,
KRDR,11-20-2020,16:56,METAR,Normal,350,15.0,20.0,,9999.0,,-5.1,-9.7,30.45,1033.1,,,,,,,,,,,,,,,,2100.0,2100.0,BKN,2100.0,BKN,3200.0,,,,
KRDR,11-20-2020,15:56,METAR,Normal,360,14.0,,,9999.0,Light Snow,-5.5,-8.4,30.41,1031.8,71,,,,,,,,,,TRACE,,,,,1500.0,1600.0,BKN,1600.0,BKN,3000.0,,,,
KRDR,11-20-2020,14:56,METAR,Normal,340,9.0,,,9999.0,Light Snow,-5.1,-7.2,30.38,1030.7,71,,,,,,,,,,TRACE,TRACE,,,,1700.0,1900.0,BKN,1900.0,BKN,3000.0,,,,
KRDR,11-20-2020,14:42,SPECI,Normal,350,9.0,,,9999.0,Light Snow,-5.0,-7.0,30.37,1030.4,71,,,,,,,,,,,,,,,1700.0,1700.0,OVC,1700.0,,,,,,
KRDR,11-20-2020,13:56,METAR,Normal,330,11.0,,,9999.0,,-5.6,-7.7,30.34,1029.5,,,,,,,,,,,,,,,,1700.0,1700.0,OVC,1700.0,,,,,,
KRDR,11-20-2020,13:21,SPECI,Normal,310,11.0,,,9999.0,,-5.0,-8.0,30.31,1028.4,,,,,,,,,,,,,,,,2000.0,2100.0,BKN,2100.0,,,,,,
KRDR,11-20-2020,12:56,METAR,Normal,320,13.0,,,9999.0,,-4.9,-7.7,30.30,1028.1,,,,,,,,,,,,,,,,3900.0,1700.0,FEW,1700.0,BKN,3900.0,,,,
KRDR,11-20-2020,11:56,METAR,Normal,330,12.0,,,9999.0,,-1.9,-2.0,30.24,1025.9,,,,,,,,,,,,,,,,1000.0,1000.0,BKN,1000.0,OVC,1800.0,,,,
KRDR,11-20-2020,11:50,SPECI,Normal,320,9.0,,,9999.0,,-2.0,-2.0,30.24,1025.9,,,,,,,,,,,,,,,,1000.0,1000.0,BKN,1000.0,OVC,1500.0,,,,
KRDR,11-20-2020,11:45,SPECI,Normal,330,9.0,,,9999.0,,-2.0,-2.0,30.23,1025.5,,,,,,,,,,,,,,,,900.0,1000.0,BKN,1000.0,OVC,1400.0,,,,
KRDR,11-20-2020,11:35,SPECI,Normal,330,7.0,,,9999.0,,-2.0,-2.0,30.22,1025.2,,,,,,,,,,,,,,,,900.0,900.0,BKN,900.0,BKN,1500.0,OVC,2000.0,,
KRDR,11-20-2020,11:25,SPECI,Normal,320,9.0,,,9999.0,,-2.0,-2.0,30.22,1025.2,,,,,,,,,,,,,,,,1100.0,1100.0,BKN,1100.0,BKN,2500.0,OVC,3100.0,,
KRDR,11-20-2020,11:16,SPECI,Normal,310,8.0,,,9999.0,,-2.0,-2.0,30.21,1024.9,,,,,,,,,,,,,,,,2600.0,1400.0,SCT,1400.0,BKN,2600.0,OVC,3100.0,,
KRDR,11-20-2020,10:56,METAR,Normal,310,9.0,,,9999.0,,-1.8,-1.9,30.20,1024.5,,,,,,,,,,,TRACE,,,,,3000.0,1500.0,FEW,1500.0,OVC,3000.0,,,,
KRDR,11-20-2020,10:42,SPECI,Normal,310,9.0,,,9999.0,,-2.0,-2.0,30.19,1024.2,,,,,,,,,,,,,,,,1800.0,1900.0,SCT,1900.0,OVC,2900.0,,,,
KRDR,11-20-2020,10:32,SPECI,Normal,310,11.0,,,9999.0,Light Drizzle,-1.0,-3.0,30.19,1024.1,51,,,,,,,,,,,,,,,2000.0,2500.0,OVC,2500.0,,,,,,
KRDR,11-20-2020,09:56,METAR,Normal,310,5.0,,,9999.0,,-1.2,-2.9,30.17,1023.4,,,,,,,,,,,,,,,,2400.0,2700.0,BKN,2700.0,OVC,3200.0,,,,
KRDR,11-20-2020,08:56,METAR,Normal,310,9.0,,,9999.0,,-0.8,-3.2,30.14,1022.4,,,,,,,,,,,,,,,,3800.0,2300.0,SCT,2300.0,SCT,2900.0,OVC,3800.0,,
KRDR,11-20-2020,07:56,METAR,Normal,300,11.0,,,9999.0,,-0.3,-2.5,30.10,1021.0,,,,,,,,,,,,,,,,3200.0,3200.0,OVC,3200.0,,,,,,
KRDR,11-20-2020,06:56,METAR,Normal,300,13.0,20.0,,9999.0,,0.2,-2.2,30.08,1020.3,,,,,,,,,,,,,,,,2000.0,2000.0,OVC,2000.0,,,,,,
KRDR,11-20-2020,05:56,METAR,Normal,310,11.0,16.0,,9999.0,,0.2,-0.5,30.06,1019.6,,,,,,,,,,,,,TRACE,,,1600.0,1600.0,OVC,1600.0,,,,,,
KRDR,11-20-2020,04:56,METAR,Normal,300,8.0,,,9999.0,,-0.2,-0.5,30.05,1019.2,,,,,,,,,,,,,,,,1300.0,1600.0,OVC,1600.0,,,,,,
KRDR,11-20-2020,04:26,SPECI,Normal,290,7.0,,,9999.0,,-1.0,-1.0,30.04,1018.9,,,,,,,,,,,,,,,,1400.0,1400.0,OVC,1400.0,,,,,,
KRDR,11-20-2020,04:16,SPECI,Normal,290,6.0,,,9999.0,,-1.0,-1.0,30.04,1018.9,,,,,,,,,,,,,,,,1400.0,1700.0,BKN,1700.0,OVC,2200.0,,,,
KRDR,11-20-2020,03:56,METAR,Normal,210,3.0,,,9999.0,,-1.6,-1.7,30.03,1018.6,,,,,,,,,,,,,,,,1700.0,2000.0,OVC,2000.0,,,,,,
KRDR,11-20-2020,03:06,SPECI,Calm,,0.0,,,9999.0,,-2.0,-2.0,30.02,1018.3,,,,,,,,,,,,,,,,900.0,900.0,FEW,900.0,OVC,1800.0,,,,
KRDR,11-20-2020,02:56,METAR,Normal,210,3.0,,,9999.0,,-1.9,-2.0,30.02,1018.3,,,,,,,,,,,,TRACE,,,,900.0,1000.0,BKN,1000.0,OVC,1800.0,,,,
KRDR,11-20-2020,02:24,SPECI,Calm,,0.0,,,9999.0,Mist,-2.0,-2.0,30.02,1018.2,10,,,,,,,,,,,,,,,1100.0,1100.0,OVC,1100.0,,,,,,
KRDR,11-20-2020,02:06,SPECI,Calm,,0.0,,,9999.0,Mist,-2.0,-2.0,30.01,1017.9,10,,,,,,,,,,,,,,,1200.0,1200.0,OVC,1200.0,,,,,,
KRDR,11-20-2020,01:56,METAR,Calm,,0.0,,,9999.0,Mist,-2.1,-2.2,30.01,1017.9,10,,,,,,,,,,TRACE,,,,,1300.0,1300.0,OVC,1300.0,,,,,,
KRDR,11-20-2020,00:57,METAR,Calm,,0.0,,,9999.0,Light Snow,-2.1,-2.2,29.98,1016.9,71,,,,,,,,,,TRACE,,,,,700.0,800.0,OVC,800.0,,,,,,
KRDR,11-20-2020,00:47,SPECI,Normal,50,3.0,,,9999.0,Light Snow,-2.0,-2.0,29.96,1016.2,71,,,,,,,,,,,,,,,800.0,800.0,OVC,800.0,,,,,,
KRDR,11-20-2020,00:23,SPECI,Normal,50,3.0,,,9999.0,Light Ice Pellets,-2.0,-2.0,29.96,1016.2,74,,,,,,,,,,,,,,,800.0,800.0,OVC,800.0,,,,,,
KRDR,11-20-2020,00:17,SPECI,Normal,30,3.0,,,9999.0,Light Ice Pellets,-2.0,-2.0,29.97,1016.6,74,,,,,,,,,,,,,,,1000.0,1000.0,OVC,1000.0,,,,,,
KRDR,11-20-2020,00:09,SPECI,Calm,,0.0,,,9999.0,Light Ice Pellets,-2.0,-2.0,29.97,1016.6,74,,,,,,,,,,,,,,,800.0,900.0,OVC,900.0,,,,,,
KRDR,11-19-2020,23:56,METAR,Calm,,0.0,,,9999.0,,-1.8,-2.2,29.96,1016.2,,,,,,,,,,,,,,,,800.0,900.0,OVC,900.0,,,,,,
KRDR,11-19-2020,22:56,METAR,Normal,20,3.0,,,9999.0,,-1.6,-2.2,29.95,1015.8,,,,,,,,,,,,,,,,900.0,900.0,OVC,900.0,,,,,,
KRDR,11-19-2020,22:16,SPECI,Normal,40,5.0,,,9999.0,,-1.0,-2.0,29.93,1015.0,,,,,,,,,,,,,,,,800.0,800.0,OVC,800.0,,,,,,
KRDR,11-19-2020,21:56,METAR,Normal,50,5.0,,,9999.0,,-1.4,-1.7,29.92,1014.7,,,,,,,,,,,,,,,,700.0,700.0,OVC,700.0,,,,,,
KRDR,11-19-2020,21:26,SPECI,Normal,10,5.0,,,9999.0,Mist,-1.0,-2.0,29.92,1014.7,10,,,,,,,,,,,,,,,700.0,700.0,OVC,700.0,,,,,,
KRDR,11-19-2020,20:56,METAR,Normal,10,5.0,,,9999.0,Mist,-0.9,-1.7,29.91,1014.3,10,,,,,,,,,,,,,,,900.0,900.0,OVC,900.0,,,,,,
KRDR,11-19-2020,19:56,METAR,Normal,20,6.0,,,9999.0,,-0.9,-1.9,29.90,1014.0,,,,,,,,,,,,,,,,1000.0,1000.0,OVC,1000.0,,,,,,
KRDR,11-19-2020,19:16,SPECI,Normal,20,6.0,,,9999.0,,-1.0,-2.0,29.89,1013.7,,,,,,,,,,,,,,,,1000.0,1000.0,OVC,1000.0,,,,,,
KRDR,11-19-2020,18:56,METAR,Normal,20,7.0,,,9999.0,,-0.8,-1.6,29.88,1013.3,,,,,,,,,,,,,,,,900.0,900.0,OVC,900.0,,,,,,
KRDR,11-19-2020,17:56,METAR,Normal,30,8.0,,,9999.0,,-0.5,-1.1,29.87,1012.9,,,,,,,,,,,,,,,,800.0,800.0,OVC,800.0,,,,,,
KRDR,11-19-2020,16:56,METAR,Normal,20,10.0,,,9999.0,,-0.2,-0.5,29.86,1012.5,,,,,,,,,,,,,,,,800.0,800.0,OVC,800.0,,,,,,
KRDR,11-19-2020,16:36,SPECI,Normal,20,12.0,,,9999.0,Mist,0.0,0.0,29.85,1012.2,10,,,,,,,,,,,,,,,800.0,800.0,OVC,800.0,,,,,,
KRDR,11-19-2020,16:16,SPECI,Normal,20,12.0,,,9999.0,Mist,0.0,0.0,29.85,1012.2,10,,,,,,,,,,,,,,,700.0,700.0,OVC,700.0,,,,,,
KRDR,11-19-2020,15:56,METAR,Normal,20,13.0,,,8000.0,Mist,0.2,0.1,29.84,1011.9,10,,,,,,,,,,,,,,,600.0,600.0,OVC,600.0,,,,,,
KRDR,11-19-2020,15:26,SPECI,Normal,30,12.0,,,9999.0,Mist,0.0,0.0,29.82,1011.3,10,,,,,,,,,,,,,,,600.0,600.0,OVC,600.0,,,,,,
KRDR,11-19-2020,15:13,SPECI,Normal,30,11.0,,,9999.0,Mist,1.0,0.0,29.83,1011.5,10,,,,,,,,,,,,,,,700.0,700.0,OVC,700.0,,,,,,
KRDR,11-19-2020,15:06,SPECI,Normal,30,11.0,,,9999.0,,1.0,1.0,29.83,1011.6,,,,,,,,,,,,,,,,700.0,700.0,OVC,700.0,,,,,,
KRDR,11-19-2020,15:05,SPECI,Normal,30,10.0,,,9999.0,Mist,1.0,1.0,29.83,1011.6,,,,10,,,,,,,,,,,,700.0,700.0,OVC,700.0,,,,,,
KRDR,11-19-2020,14:56,METAR,Normal,30,9.0,,,9999.0,,0.6,0.5,29.82,1011.3,,,,,,,,,,,,,,,,800.0,800.0,OVC,800.0,,,,,,
KRDR,11-19-2020,13:56,METAR,Normal,350,7.0,,,9999.0,,1.3,1.2,29.80,1010.6,,,,,,,,,,,,,,,,1100.0,1100.0,OVC,1100.0,,,,,,
KRDR,11-19-2020,13:26,SPECI,Normal,340,8.0,,,9999.0,,1.0,1.0,29.79,1010.2,,,,,,,,,,,,,,,,1300.0,1300.0,OVC,1300.0,,,,,,
KRDR,11-19-2020,12:56,METAR,Normal,340,7.0,,,9999.0,,1.0,0.9,29.78,1009.9,,,,,,,,,,,,,,,,1400.0,1400.0,OVC,1400.0,,,,,,
KRDR,11-19-2020,12:26,SPECI,Normal,350,8.0,,,9999.0,,1.0,1.0,29.76,1009.2,,,,,,,,,,,,,,,,1400.0,1500.0,BKN,1500.0,,,,,,
KRDR,11-19-2020,11:56,METAR,Normal,350,10.0,,,9999.0,,1.4,1.1,29.75,1008.9,,,,,,,,,,,,,TRACE,,2/8 Mostly Clear,72000.0,18000.0,FEW,18000.0,,,,,,
KRDR,11-19-2020,10:56,METAR,Normal,330,7.0,,,9999.0,,3.3,1.7,29.71,1007.4,,,,,,,,,,,,,,,2/8 Mostly Clear,72000.0,18000.0,FEW,18000.0,,,,,,
KRDR,11-19-2020,09:56,METAR,Normal,320,6.0,,,9999.0,,5.4,2.6,29.71,1007.3,,,,,,,,,,,TRACE,,,,4/8 Partly Cloudy,72000.0,8500.0,SCT,8600.0,,,,,,
KRDR,11-19-2020,09:33,SPECI,Normal,320,6.0,,,9999.0,,6.0,3.0,29.71,1007.3,,,,,,,,,,,,,,,,8500.0,6000.0,FEW,6000.0,BKN,8600.0,,,,
KRDR,11-19-2020,09:25,SPECI,Normal,320,5.0,,,9999.0,Light Rain,6.0,3.0,29.70,1006.9,61,,,,,,,,,,,,,,4/8 Partly Cloudy,72000.0,4900.0,FEW,4900.0,FEW,6000.0,SCT,8000.0,,
KRDR,11-19-2020,08:56,METAR,Normal,300,5.0,,,9999.0,,6.2,3.0,29.69,1006.5,,,,,,,,,,,,TRACE,,,4/8 Partly Cloudy,72000.0,8000.0,SCT,8000.0,,,,,,
KRDR,11-19-2020,07:56,METAR,Normal,310,4.0,,,9999.0,,4.9,3.2,29.65,1005.2,,,,,,,,,,,,,,,,11000.0,8000.0,FEW,8000.0,OVC,11000.0,,,,
KRDR,11-19-2020,06:56,METAR,Normal,260,3.0,,,9999.0,,4.5,4.2,29.62,1004.3,,,,,,,,,,,TRACE,,,,4/8 Partly Cloudy,72000.0,5500.0,FEW,5500.0,FEW,6500.0,SCT,11000.0,,
KRDR,11-19-2020,06:31,SPECI,Calm,,0.0,,,9999.0,,6.0,4.0,29.61,1004.0,,,,,,,,,,,,,,,,6500.0,6500.0,BKN,6500.0,,,,,,
KRDR,11-19-2020,06:25,SPECI,Calm,,0.0,,,9999.0,Light Rain,6.0,4.0,29.62,1004.3,61,,,,,,,,,,,,,,,7000.0,7000.0,BKN,7000.0,,,,,,
KRDR,11-19-2020,05:56,METAR,Normal,280,3.0,,,9999.0,,5.2,4.0,29.62,1004.3,,,,,,,,,,,TRACE,,TRACE,,,8500.0,4900.0,FEW,4900.0,BKN,8600.0,OVC,14000.0,,
KRDR,11-19-2020,05:52,SPECI,Normal,340,4.0,,,9999.0,,5.0,4.0,29.63,1004.6,,,,,,,,,,,,,,,,8500.0,4900.0,FEW,4900.0,BKN,8600.0,OVC,14000.0,,
KRDR,11-19-2020,04:56,METAR,Normal,260,7.0,,,9999.0,Light Rain,6.3,2.9,29.64,1005.0,61,,,,,,,,,,TRACE,,,,,8500.0,4800.0,FEW,4800.0,SCT,6000.0,BKN,8600.0,OVC,14000.0
KRDR,11-19-2020,04:35,SPECI,Normal,280,6.0,,,9999.0,Light Rain,6.0,3.0,29.64,1005.0,61,,,,,,,,,,,,,,,8500.0,6000.0,FEW,6000.0,BKN,8600.0,OVC,14000.0,,
KRDR,11-19-2020,03:56,METAR,Normal,300,7.0,,,9999.0,,5.6,2.8,29.62,1004.4,,,,,,,,,,,,,,,,9500.0,9500.0,BKN,9600.0,OVC,14000.0,,,,
KRDR,11-19-2020,02:56,METAR,Normal,240,6.0,,,9999.0,,3.7,2.7,29.61,1004.1,,,,,,,,,,,,,,,,11000.0,11000.0,BKN,11000.0,OVC,14000.0,,,,
KRDR,11-19-2020,01:56,METAR,Normal,210,5.0,,,9999.0,,3.4,2.8,29.61,1004.2,,,,,,,,,,,,,,,,11000.0,11000.0,BKN,11000.0,OVC,14000.0,,,,
KRDR,11-19-2020,00:56,METAR,Normal,180,7.0,,,9999.0,,3.0,2.9,29.60,1003.9,,,,,,,,,,,,,,,,14000.0,14000.0,BKN,14000.0,OVC,20000.0,,,,
KRDR,11-18-2020,23:56,METAR,Normal,220,5.0,,,9999.0,,2.6,2.2,29.61,1004.2,,,,,,,,,,,,,,,,15000.0,15000.0,BKN,15000.0,OVC,20000.0,,,,
KRDR,11-18-2020,22:56,METAR,Normal,180,6.0,,,9999.0,,3.5,2.3,29.60,1003.9,,,,,,,,,,,,,,,,16000.0,16000.0,BKN,16000.0,OVC,25000.0,,,,
KRDR,11-18-2020,21:56,METAR,Normal,190,4.0,,,9999.0,,4.6,2.8,29.60,1003.8,,,,,,,,,,,,,,,,16000.0,16000.0,BKN,16000.0,BKN,20000.0,OVC,25000.0,,
KRDR,11-18-2020,20:56,METAR,Normal,220,5.0,,,9999.0,,5.2,2.4,29.60,1003.8,,,,,,,,,,,,,,,,20000.0,20000.0,BKN,20000.0,OVC,25000.0,,,,
KRDR,11-18-2020,19:56,METAR,Normal,180,8.0,,,9999.0,,4.0,1.7,29.58,1003.3,,,,,,,,,,,,,,,,20000.0,20000.0,BKN,20000.0,OVC,25000.0,,,,
KRDR,11-18-2020,18:56,METAR,Normal,200,7.0,,,9999.0,,2.9,0.9,29.60,1004.0,,,,,,,,,,,,,,,,22000.0,19000.0,FEW,19000.0,OVC,22000.0,,,,
KRDR,11-18-2020,17:56,METAR,Normal,190,14.0,,,9999.0,,2.2,0.3,29.61,1004.4,,,,,,,,,,,,,,,,20000.0,17000.0,FEW,17000.0,BKN,20000.0,OVC,24000.0,,
KRDR,11-18-2020,16:56,METAR,Normal,190,11.0,,,9999.0,,1.8,0.0,29.64,1005.4,,,,,,,,,,,,,,,,17000.0,17000.0,BKN,17000.0,OVC,20000.0,,,,
KRDR,11-18-2020,15:56,METAR,Normal,170,13.0,,,9999.0,,0.9,-0.6,29.64,1005.4,,,,,,,,,,,,,,,,21000.0,21000.0,BKN,21000.0,OVC,24000.0,,,,
KRDR,11-18-2020,14:56,METAR,Normal,170,12.0,,,9999.0,,-0.6,-1.3,29.68,,,,,,,,,,,,,,,,,22000.0,22000.0,BKN,22000.0,BKN,26000.0,,,,
KRDR,11-18-2020,13:56,METAR,Normal,170,5.0,,,9999.0,,-2.9,-3.0,29.71,,,,,,,,,,,,,,,,2/8 Mostly Clear,72000.0,22000.0,FEW,22000.0,,,,,,
KRDR,11-18-2020,12:56,METAR,Normal,150,9.0,,,9999.0,,-2.7,-3.1,29.73,,,,,,,,,,,,,,,,4/8 Partly Cloudy,72000.0,23000.0,SCT,23000.0,,,,,,
KRDR,11-18-2020,11:56,METAR,Normal,160,9.0,,,9999.0,,-2.7,-3.4,29.76,1009.7,,,,,,,,,,,,,,IN,Clear,72000.0,,,,,,,,,
KRDR,11-18-2020,10:56,METAR,Normal,150,10.0,,,9999.0,,-3.4,-4.1,29.80,1011.0,,,,,,,,,,,,,,,Clear,72000.0,,,,,,,,,
KRDR,11-18-2020,09:56,METAR,Normal,150,9.0,,,9999.0,,-3.4,-4.4,29.86,1013.0,,,,,,,,,,,,,,,4/8 Partly Cloudy,72000.0,23000.0,SCT,23000.0,,,,,,
KRDR,11-18-2020,08:56,METAR,Normal,160,12.0,,,9999.0,,-3.8,-4.9,29.90,1014.4,,,,,,,,,,,,,,,Clear,72000.0,,,,,,,,,
KRDR,11-18-2020,07:56,METAR,Normal,140,9.0,,,9999.0,,-5.2,-6.3,29.96,1016.5,,,,,,,,,,,,,,,Clear,72000.0,,,,,,,,,
KRDR,11-18-2020,06:56,METAR,Normal,140,7.0,,,9999.0,,-5.3,-6.6,30.03,1019.0,,,,,,,,,,,,,,,4/8 Partly Cloudy,72000.0,8000.0,SCT,8000.0,,,,,,
KRDR,11-18-2020,05:55,METAR,Normal,160,8.0,,,9999.0,,-6.4,-7.4,30.08,1020.7,,,,,,,,,,,,,,,,8000.0,8000.0,BKN,8000.0,,,,,,
KRDR,11-18-2020,04:56,METAR,Normal,140,6.0,,,9999.0,,-5.8,-6.5,30.09,1021.1,,,,,,,,,,,,,,,,8000.0,8000.0,BKN,8000.0,,,,,,
KRDR,11-18-2020,03:55,METAR,Normal,140,6.0,,,9999.0,,-5.8,-5.9,30.13,1022.5,,,,,,,,,,,,,,,4/8 Partly Cloudy,72000.0,8000.0,SCT,8000.0,,,,,,
KRDR,11-18-2020,02:55,METAR,Normal,150,4.0,,,9999.0,,-4.0,-7.0,30.21,,,,,,,,,,,,,,,,,8000.0,8000.0,BKN,8000.0,,,,,,
KRDR,11-18-2020,01:55,METAR,Normal,150,4.0,,,9999.0,,-4.0,-6.0,30.22,,,,,,,,,,,,,,,,4/8 Partly Cloudy,72000.0,8000.0,SCT,8000.0,,,,,,
KRDR,11-18-2020,00:56,METAR,Normal,100,5.0,,,9999.0,,-5.0,-5.1,30.23,1026.2,,,,,,,,,,,,,,,4/8 Partly Cloudy,72000.0,8000.0,SCT,8000.0,,,,,,
KRDR,11-17-2020,23:56,METAR,Normal,110,5.0,,,9999.0,,-4.9,-5.0,30.25,1026.8,,,,,,,,,,,,,,,4/8 Partly Cloudy,72000.0,8000.0,SCT,8000.0,,,,,,
KRDR,11-17-2020,22:56,METAR,Normal,120,4.0,,,9999.0,,-3.6,-4.6,30.28,1027.8,,,,,,,,,,,,,,,,8000.0,8000.0,BKN,8000.0,BKN,10000.0,,,,
KRDR,11-17-2020,21:56,METAR,Normal,130,5.0,,,9999.0,,-3.6,-5.0,30.31,1028.8,,,,,,,,,,,,,,,,8000.0,8000.0,OVC,8000.0,,,,,,
KRDR,11-17-2020,20:56,METAR,Normal,150,7.0,,,9999.0,,-3.4,-5.1,30.32,1028.9,,,,,,,,,,,,,,,,9000.0,9000.0,OVC,9100.0,,,,,,
KRDR,11-17-2020,20:36,SPECI,Normal,130,8.0,,,9999.0,,-3.0,-5.0,30.33,1029.3,,,,,,,,,,,,,,,,9500.0,1300.0,SCT,1300.0,OVC,9600.0,,,,
KRDR,11-17-2020,20:16,SPECI,Normal,120,6.0,,,9999.0,,-3.0,-5.0,30.34,1029.7,,,,,,,,,,,,,,,,1200.0,1200.0,BKN,1200.0,OVC,10000.0,,,,
KRDR,11-17-2020,19:56,METAR,Normal,140,5.0,,,9999.0,,-3.4,-5.4,30.36,1030.5,,,,,,,,,,,,,,,,1200.0,1300.0,BKN,1300.0,OVC,12000.0,,,,
KRDR,11-17-2020,19:26,SPECI,Normal,120,5.0,,,9999.0,Mist,-4.0,-6.0,30.36,1030.5,10,,,,,,,,,,,,,,,1200.0,1200.0,BKN,1200.0,OVC,11000.0,,,,
KRDR,11-17-2020,18:56,METAR,Normal,110,6.0,,,9999.0,,-4.2,-6.1,30.38,1031.1,,,,,,,,,,,,,,,,11000.0,11000.0,OVC,11000.0,,,,,,
KRDR,11-17-2020,17:56,METAR,Normal,120,5.0,,,9999.0,,-4.8,-6.1,30.40,1031.8,,,,,,,,,,,,,,,4/8 Partly Cloudy,72000.0,1800.0,FEW,1800.0,SCT,11000.0,,,,
KRDR,11-17-2020,16:56,METAR,Normal,90,3.0,,,9999.0,Mist,-6.5,-6.6,30.43,1033.0,10,,,,,,,,,,,,,,2/8 Mostly Clear,72000.0,1800.0,FEW,1800.0,FEW,9100.0,FEW,15000.0,,
KRDR,11-17-2020,15:56,METAR,Normal,40,4.0,,,9999.0,,-7.4,-7.5,30.43,1032.9,,,,,,,,,,,,,,,2/8 Mostly Clear,72000.0,1500.0,FEW,1500.0,FEW,15000.0,,,,
KRDR,11-17-2020,14:56,METAR,Calm,,0.0,,,9999.0,,-11.1,-11.5,30.43,1033.1,,,,,,,,,,,,,,,Clear,72000.0,,,,,,,,,
KRDR,11-17-2020,13:56,METAR,Normal,310,4.0,,,9999.0,,-13.6,-14.3,30.41,1032.6,,,,,,,,,,,,,,,Clear,72000.0,,,,,,,,,
KRDR,11-17-2020,12:56,METAR,Normal,300,6.0,,,9999.0,,-14.9,-15.8,30.41,1032.7,,,,,,,,,,,,,,,Clear,72000.0,,,,,,,,,
KRDR,11-17-2020,11:56,METAR,Normal,310,4.0,,,9999.0,,-13.1,-13.6,30.41,1032.5,,,,,,,,,,,,,,,Clear,72000.0,,,,,,,,,
KRDR,11-17-2020,10:56,METAR,Normal,310,6.0,,,9999.0,,-14.1,-14.9,30.40,1032.0,,,,,,,,,,,,,,,Clear,72000.0,,,,,,,,,
KRDR,11-17-2020,09:56,METAR,Normal,320,3.0,,,9999.0,,-10.8,-11.2,30.39,1031.4,,,,,,,,,,,,,,,Clear,72000.0,,,,,,,,,
KRDR,11-17-2020,08:56,METAR,Normal,290,6.0,,,9999.0,,-9.9,-10.1,30.40,1031.7,,,,,,,,,,,,,,,Clear,72000.0,,,,,,,,,
KRDR,11-17-2020,07:56,METAR,Normal,260,8.0,,,9999.0,,-13.0,-13.4,30.39,1031.6,,,,,,,,,,,,,,,Clear,72000.0,,,,,,,,,
KRDR,11-17-2020,06:56,METAR,Normal,230,5.0,,,9999.0,,-12.6,-13.1,30.38,1031.2,,,,,,,,,,,,,,,4/8 Partly Cloudy,72000.0,12000.0,SCT,12000.0,,,,,,
KRDR,11-17-2020,05:56,METAR,Normal,210,3.0,,,9999.0,,-11.8,-12.5,30.35,1030.2,,,,,,,,,,,,,,,4/8 Partly Cloudy,72000.0,12000.0,SCT,12000.0,,,,,,
KRDR,11-17-2020,04:56,METAR,Normal,220,4.0,,,9999.0,,-13.2,-13.9,30.34,1029.9,,,,,,,,,,,,,,,4/8 Partly Cloudy,72000.0,12000.0,SCT,12000.0,,,,,,
KRDR,11-17-2020,03:56,METAR,Normal,220,4.0,,,9999.0,,-11.6,-12.4,30.33,1029.5,,,,,,,,,,,,,,,4/8 Partly Cloudy,72000.0,12000.0,SCT,12000.0,,,,,,
KRDR,11-17-2020,02:56,METAR,Normal,240,5.0,,,9999.0,,-12.0,-12.7,30.32,1029.2,,,,,,,,,,,,,,,2/8 Mostly Clear,72000.0,12000.0,FEW,12000.0,,,,,,
KRDR,11-17-2020,01:56,METAR,Normal,290,5.0,,,9999.0,,-11.2,-12.0,30.32,1029.2,,,,,,,,,,,,,,,2/8 Mostly Clear,72000.0,12000.0,FEW,12000.0,,,,,,
KRDR,11-17-2020,00:56,METAR,Normal,240,7.0,,,9999.0,,-13.1,-14.0,30.32,1029.3,,,,,,,,,,,,,,,2/8 Mostly Clear,72000.0,12000.0,FEW,12000.0,,,,,,
KRDR,11-16-2020,23:56,METAR,Calm,,0.0,,,9999.0,,-11.4,-12.1,30.30,1028.5,,,,,,,,,,,,,,,2/8 Mostly Clear,72000.0,12000.0,FEW,12000.0,,,,,,
KRDR,11-16-2020,22:56,METAR,Normal,20,4.0,,,9999.0,,-6.8,-9.2,30.28,1027.7,,,,,,,,,,,,,,,2/8 Mostly Clear,72000.0,12000.0,FEW,12000.0,,,,,,
KRDR,11-16-2020,21:56,METAR,Normal,360,6.0,,,9999.0,,-3.7,-8.6,30.26,1026.8,,,,,,,,,,,,,,,Clear,72000.0,,,,,,,,,
KRDR,11-16-2020,20:56,METAR,Normal,360,7.0,,,9999.0,,-3.3,-8.9,30.23,1025.8,,,,,,,,,,,,,,,Clear,72000.0,,,,,,,,,
KRDR,11-16-2020,19:56,METAR,Normal,330,10.0,,,9999.0,,-4.1,-9.0,30.21,1025.3,,,,,,,,,,,,,,,2/8 Mostly Clear,72000.0,12000.0,FEW,12000.0,,,,,,
KRDR,11-16-2020,18:56,METAR,Normal,330,12.0,,,9999.0,,-5.5,-9.2,30.20,1025.0,,,,,,,,,,,,,,,4/8 Partly Cloudy,72000.0,3000.0,FEW,3000.0,SCT,12000.0,,,,
KRDR,11-16-2020,17:56,METAR,Normal,350,12.0,,,9999.0,,-5.9,-9.8,30.17,1024.0,,,,,,,,,,,,,TRACE,,,12000.0,3000.0,FEW,3000.0,BKN,12000.0,,,,
KRDR,11-16-2020,16:56,METAR,Normal,360,15.0,19.0,,9999.0,,-5.6,-9.3,30.14,1023.0,,,,,,,,,,,,,,,,12000.0,3000.0,FEW,3000.0,BKN,12000.0,,,,
KRDR,11-16-2020,15:56,METAR,Normal,10,14.0,,,9999.0,,-6.1,-9.3,30.08,1020.9,,,,,,,,,,,,,,,,11000.0,7000.0,FEW,7000.0,BKN,11000.0,,,,
KRDR,11-16-2020,14:56,METAR,Normal,20,12.0,,,9999.0,,-6.8,-8.8,30.04,1019.6,,,,,,,,,,,,.01 IN,,,,6500.0,6500.0,BKN,6500.0,BKN,10000.0,,,,
KRDR,11-16-2020,13:56,METAR,Normal,30,10.0,,,9999.0,,-7.0,-8.0,29.99,1017.9,,,,,,,,,,,TRACE,,,,,7000.0,7000.0,BKN,7000.0,OVC,9100.0,,,,
KRDR,11-16-2020,12:56,METAR,Normal,30,8.0,,,9999.0,Light Snow,-6.5,-7.7,29.96,1016.8,71,,,,,,,,,,TRACE,,,,,8000.0,1800.0,FEW,1800.0,BKN,8000.0,,,,
KRDR,11-16-2020,11:56,METAR,Normal,50,7.0,,,6400.0,Light Snow,-6.7,-6.8,29.92,1015.4,71,,,,,,,,,,.01 IN,,.01 IN,,,1600.0,1600.0,OVC,1600.0,,,,,,
KRDR,11-16-2020,10:56,METAR,Normal,50,7.0,,,6400.0,Light Snow/Mist,-6.6,-6.7,29.88,1013.9,71,10,,,,,,,,,TRACE,,,,,1700.0,1700.0,OVC,1700.0,,,,,,
KRDR,11-16-2020,09:56,METAR,Calm,,0.0,,,9999.0,Light Snow,-6.8,-7.2,29.88,1013.8,71,,,,,,,,,,TRACE,,,,,3000.0,3000.0,BKN,3000.0,OVC,6000.0,,,,
KRDR,11-16-2020,09:46,SPECI,Calm,,0.0,,,9999.0,,-7.0,-7.0,29.89,1014.1,,,,,,,,,,,,,,,,3800.0,3800.0,BKN,3800.0,BKN,4700.0,OVC,6000.0,,
KRDR,11-16-2020,08:56,METAR,Normal,70,5.0,,,9999.0,Light Snow,-7.9,-8.2,29.87,1013.5,71,,,,,,,,,,TRACE,TRACE,,,,6500.0,6500.0,BKN,6500.0,,,,,,
KRDR,11-16-2020,07:56,METAR,Calm,,0.0,,,9999.0,,-12.1,-12.6,29.88,1014.1,,,,,,,,,,,,,,,,10000.0,10000.0,BKN,10000.0,,,,,,
KRDR,11-16-2020,06:56,METAR,Calm,,0.0,,,9999.0,,-11.3,-12.1,29.87,1013.7,,,,,,,,,,,,,,,Clear,72000.0,,,,,,,,,
KRDR,11-16-2020,05:56,METAR,Calm,,0.0,,,9999.0,,-10.1,-10.9,29.88,1014.0,,,,,,,,,,,,,TRACE,,2/8 Mostly Clear,72000.0,14000.0,FEW,14000.0,,,,,,
KRDR,11-16-2020,04:56,METAR,Calm,,0.0,,,9999.0,,-9.7,-10.4,29.90,1014.8,,,,,,,,,,,,,,,,17000.0,17000.0,BKN,17000.0,,,,,,
KRDR,11-16-2020,03:56,METAR,Calm,,0.0,,,9999.0,,-9.9,-10.8,29.90,1014.7,,,,,,,,,,,TRACE,,,,,16000.0,16000.0,OVC,16000.0,,,,,,
KRDR,11-16-2020,03:07,SPECI,Normal,220,5.0,,,9999.0,,-11.0,-12.0,29.89,1014.4,,,,,,,,,,,,,,,,16000.0,16000.0,BKN,16000.0,,,,,,
KRDR,11-16-2020,02:58,SPECI,Normal,210,5.0,,,9999.0,Light Snow,-12.0,-12.0,29.89,1014.4,71,,,,,,,,,,,,,,,16000.0,16000.0,BKN,16000.0,,,,,,
KRDR,11-16-2020,02:56,METAR,Normal,210,5.0,,,9999.0,,-11.6,-12.4,29.89,1014.4,,,,,,,,,,,,,,,4/8 Partly Cloudy,72000.0,16000.0,SCT,16000.0,,,,,,
KRDR,11-16-2020,01:56,METAR,Normal,220,3.0,,,9999.0,,-11.1,-12.2,29.89,1014.4,,,,,,,,,,,,,,,Clear,72000.0,,,,,,,,,
KRDR,11-16-2020,00:56,METAR,Calm,,0.0,,,9999.0,,-10.9,-11.6,29.88,1014.1,,,,,,,,,,,,,,,Clear,72000.0,,,,,,,,,
KRDR,11-15-2020,23:56,METAR,Calm,,0.0,,,9999.0,,-8.4,-9.5,29.87,1013.6,,,,,,,,,,,,,TRACE,,Clear,72000.0,,,,,,,,,
KRDR,11-15-2020,22:56,METAR,Normal,350,4.0,,,9999.0,,-4.3,-7.4,29.87,1013.4,,,,,,,,,,,,,,,Clear,72000.0,,,,,,,,,
KRDR,11-15-2020,21:56,METAR,Normal,330,10.0,,,9999.0,,-1.9,-6.7,29.85,1012.6,,,,,,,,,,,,,,,Clear,72000.0,,,,,,,,,
KRDR,11-15-2020,20:56,METAR,Normal,320,14.0,,,9999.0,,-2.1,-7.2,29.82,1011.6,,,,,,,,,,,,TRACE,,,4/8 Partly Cloudy,72000.0,2500.0,SCT,2500.0,,,,,,
KRDR,11-15-2020,19:56,METAR,Normal,340,14.0,20.0,,9999.0,,-3.1,-7.8,29.81,1011.2,,,,,,,,,,,,,,,,2300.0,2300.0,BKN,2300.0,,,,,,
KRDR,11-15-2020,18:56,METAR,Normal,320,16.0,21.0,330/27KTS,9999.0,,-4.4,-8.7,29.80,1010.9,,,,,,,,,,,TRACE,,,,,2300.0,1600.0,FEW,1600.0,OVC,2300.0,,,,
KRDR,11-15-2020,17:55,METAR,Normal,320,13.0,24.0,320/29KTS,9999.0,,-5.0,-9.1,29.78,1010.3,,,,,,,,,,,TRACE,,TRACE,,,2100.0,2100.0,OVC,2100.0,,,,,,
KRDR,11-15-2020,16:56,METAR,Normal,310,20.0,25.0,340/30KTS,9999.0,Light Snow,-5.3,-8.5,29.77,1009.9,71,,,,,,,,,,TRACE,,,,,2000.0,1400.0,FEW,1400.0,OVC,2000.0,,,,
KRDR,11-15-2020,16:33,SPECI,Normal,320,21.0,30.0,,9999.0,Light Snow,-5.0,-9.0,29.76,1009.6,71,,,,,,,,,,,,,,,1900.0,1600.0,SCT,1600.0,OVC,2500.0,,,,
KRDR,11-15-2020,16:23,SPECI,Normal,320,21.0,29.0,,9999.0,Precipitation,-5.0,-9.0,29.76,1009.6,41,,,,,,,,,,,,,,,1900.0,1900.0,BKN,1900.0,OVC,2500.0,,,,
KRDR,11-15-2020,16:16,SPECI,Normal,320,19.0,29.0,,9999.0,,-5.0,-9.0,29.75,1009.2,,,,,,,,,,,,,,,,1700.0,1600.0,SCT,1600.0,OVC,2300.0,,,,
KRDR,11-15-2020,15:56,METAR,Normal,320,20.0,27.0,330/30KTS,9999.0,,-4.9,-8.5,29.74,1008.9,,,,,,,,,,,,,,,,1900.0,1900.0,OVC,1900.0,,,,,,
KRDR,11-15-2020,15:46,SPECI,Normal,320,21.0,27.0,,9999.0,,-5.0,-8.0,29.74,1008.8,,,,,,,,,,,,,,,,1700.0,1900.0,OVC,1900.0,,,,,,
KRDR,11-15-2020,15:36,SPECI,Normal,330,18.0,27.0,,9999.0,,-5.0,-7.0,29.73,1008.5,,,,,,,,,,,,,,,,1700.0,2000.0,OVC,2000.0,,,,,,
KRDR,11-15-2020,14:56,METAR,Normal,330,23.0,29.0,340/30KTS,9999.0,,-4.6,-7.1,29.72,1008.1,,,,,,,,,,,,,,,,1900.0,1900.0,OVC,1900.0,,,,,,
KRDR,11-15-2020,13:56,METAR,Normal,320,16.0,23.0,330/26KTS,9999.0,Light Snow,-4.7,-7.0,29.67,1006.3,71,,,,,,,,,,TRACE,,,,,1900.0,1900.0,OVC,1900.0,,,,,,
KRDR,11-15-2020,12:56,METAR,Normal,320,14.0,22.0,320/27KTS,8000.0,Light Snow,-5.0,-6.4,29.63,1004.9,71,,,,,,,,,,TRACE,,,,,2100.0,2100.0,OVC,2100.0,,,,,,
KRDR,11-15-2020,11:56,METAR,Normal,320,18.0,26.0,320/29KTS,6400.0,Light Snow/Mist,-4.5,-5.5,29.60,1003.9,71,10,,,,,,,,,.03 IN,,.03 IN,,,3100.0,3100.0,BKN,3100.0,OVC,4700.0,,,,
KRDR,11-15-2020,10:56,METAR,Normal,320,19.0,30.0,310/30KTS,8000.0,Light Snow,-3.4,-5.4,29.57,1002.9,71,,,,,,,,,,TRACE,,,,,1700.0,1700.0,BKN,1700.0,,,,,,
KRDR,11-15-2020,09:56,METAR,Normal,320,22.0,28.0,320/30KTS,9999.0,Light Snow,-2.7,-5.8,29.54,1001.7,71,,,,,,,,,,TRACE,,,,,1800.0,1900.0,OVC,1900.0,,,,,,
KRDR,11-15-2020,09:06,SPECI,Normal,310,17.0,27.0,,9999.0,Light Snow,-2.0,-6.0,29.53,1001.2,71,,,,,,,,,,,,,,,2200.0,2200.0,OVC,2200.0,,,,,,
KRDR,11-15-2020,08:56,METAR,Normal,310,18.0,28.0,340/28KTS,9999.0,,-2.2,-5.9,29.53,1001.2,,,,,,,,,,,,,,,,2200.0,2300.0,OVC,2300.0,,,,,,
KRDR,11-15-2020,07:56,METAR,Normal,310,15.0,25.0,310/28KTS,9999.0,,-1.9,-5.9,29.51,1000.5,,,,,,,,,,,,,,,,2300.0,2300.0,BKN,2300.0,OVC,5000.0,,,,
KRDR,11-15-2020,06:56,METAR,Normal,310,17.0,22.0,,9999.0,,-1.0,-5.1,29.49,999.9,,,,,,,,,,,,,,,,2400.0,2500.0,OVC,2500.0,,,,,,
KRDR,11-15-2020,06:26,SPECI,Normal,300,16.0,22.0,,9999.0,,-1.0,-5.0,29.48,999.6,,,,,,,,,,,,,,,,2600.0,2600.0,BKN,2600.0,,,,,,
KRDR,11-15-2020,05:56,METAR,Normal,300,16.0,,320/27KTS,9999.0,,-1.6,-4.9,29.47,999.3,,,,,,,,,,,,,,,Clear,72000.0,,,,,,,,,
KRDR,11-15-2020,05:16,SPECI,Normal,300,20.0,26.0,,9999.0,,-1.0,-4.0,29.47,999.3,,,,,,,,,,,,,,,4/8 Partly Cloudy,72000.0,2400.0,SCT,2400.0,,,,,,
KRDR,11-15-2020,05:06,SPECI,Normal,300,14.0,19.0,,9999.0,,-1.0,-4.0,29.47,999.3,,,,,,,,,,,,,,,,2400.0,2400.0,BKN,2400.0,,,,,,
KRDR,11-15-2020,04:56,METAR,Normal,310,12.0,19.0,,9999.0,,-0.7,-3.9,29.47,999.3,,,,,,,,,,,,,,,2/8 Mostly Clear,72000.0,2400.0,FEW,2400.0,,,,,,
KRDR,11-15-2020,03:56,METAR,Normal,300,15.0,20.0,310/26KTS,9999.0,,-0.1,-3.7,29.47,999.4,,,,,,,,,,,,,,,Clear,72000.0,,,,,,,,,
KRDR,11-15-2020,02:56,METAR,Normal,300,17.0,24.0,320/32KTS,9999.0,,0.9,-2.7,29.47,999.4,,,,,,,,,,,,,,,Clear,72000.0,,,,,,,,,
KRDR,11-15-2020,01:56,METAR,Normal,300,20.0,31.0,300/31KTS,9999.0,,4.2,-1.8,29.45,998.6,,,,,,,,,,,,,,,Clear,72000.0,,,,,,,,,
KRDR,11-15-2020,00:56,METAR,Normal,290,9.0,,,9999.0,,4.6,-1.0,29.43,997.9,,,,,,,,,,,,,,,Clear,72000.0,,,,,,,,,
KRDR,11-14-2020,23:56,METAR,Normal,290,7.0,,,9999.0,,4.4,-0.8,29.42,997.6,,,,,,,,,,,,,,,2/8 Mostly Clear,72000.0,16000.0,FEW,16000.0,,,,,,
KRDR,11-14-2020,22:56,METAR,Normal,290,9.0,,,9999.0,,3.5,-0.9,29.39,996.6,,,,,,,,,,,,,,,4/8 Partly Cloudy,72000.0,16000.0,SCT,16000.0,,,,,,
KRDR,11-14-2020,21:56,METAR,Calm,,0.0,,,9999.0,,7.8,-0.4,29.36,995.5,,,,,,,,,,,,,,,,20000.0,5000.0,FEW,5000.0,BKN,20000.0,,,,
KRDR,11-14-2020,20:56,METAR,Normal,340,3.0,,,9999.0,,9.3,-0.6,29.35,995.2,,,,,,,,,,,,,,,Clear,72000.0,,,,,,,,,
KRDR,11-14-2020,19:56,METAR,Normal,260,4.0,,,9999.0,,10.0,-1.4,29.34,994.7,,,,,,,,,,,,,,,4/8 Partly Cloudy,72000.0,15000.0,SCT,15000.0,,,,,,
KRDR,11-14-2020,18:56,METAR,Normal,220,8.0,,,9999.0,,6.7,-0.7,29.34,994.9,,,,,,,,,,,,,,,4/8 Partly Cloudy,72000.0,18000.0,SCT,18000.0,,,,,,
KRDR,11-14-2020,17:56,METAR,Normal,210,8.0,,,9999.0,,5.4,-0.4,29.34,995.0,,,,,,,,,,,,,,,4/8 Partly Cloudy,72000.0,15000.0,SCT,15000.0,,,,,,
KRDR,11-14-2020,16:56,METAR,Normal,210,9.0,,,9999.0,,4.1,-0.7,29.33,994.7,,,,,,,,,,,,,,,4/8 Partly Cloudy,72000.0,15000.0,SCT,15000.0,,,,,,
KRDR,11-14-2020,15:56,METAR,Normal,200,12.0,,,9999.0,,1.9,-1.2,29.33,994.7,,,,,,,,,,,,,,,4/8 Partly Cloudy,72000.0,15000.0,SCT,15000.0,,,,,,
KRDR,11-14-2020,14:56,METAR,Normal,180,9.0,,,9999.0,,0.3,-1.9,29.32,994.4,,,,,,,,,,,,,,,,15000.0,15000.0,BKN,15000.0,,,,,,
KRDR,11-14-2020,13:56,METAR,Normal,190,10.0,,,9999.0,,0.1,-2.3,29.32,994.4,,,,,,,,,,,,,,,4/8 Partly Cloudy,72000.0,18000.0,SCT,18000.0,,,,,,
KRDR,11-14-2020,12:56,METAR,Normal,170,13.0,,,9999.0,,0.6,-2.1,29.33,994.7,,,,,,,,,,,,,,,,13000.0,13000.0,BKN,13000.0,,,,,,
KRDR,11-14-2020,11:56,METAR,Normal,150,12.0,,,9999.0,,0.5,-1.9,29.33,994.6,,,,,,,,,,,,,,,4/8 Partly Cloudy,72000.0,12000.0,SCT,12000.0,,,,,,
KRDR,11-14-2020,10:56,METAR,Normal,160,13.0,,,9999.0,,0.0,-1.6,29.37,996.0,,,,,,,,,,,,,,,2/8 Mostly Clear,72000.0,11000.0,FEW,11000.0,,,,,,
KRDR,11-14-2020,09:56,METAR,Normal,150,12.0,,,9999.0,,-1.3,-1.7,29.39,996.7,,,,,,,,,,,,,,,4/8 Partly Cloudy,72000.0,11000.0,SCT,11000.0,,,,,,
KRDR,11-14-2020,08:56,METAR,Normal,150,11.0,,,9999.0,,-2.1,-2.2,29.43,998.0,,,,,,,,,,,,,,,4/8 Partly Cloudy,72000.0,15000.0,SCT,15000.0,,,,,,
KRDR,11-14-2020,07:56,METAR,Normal,170,12.0,,,9999.0,,-2.9,-3.0,29.46,999.1,,,,,,,,,,,,,,,,11000.0,11000.0,BKN,11000.0,,,,,,
KRDR,11-14-2020,06:56,METAR,Normal,170,12.0,,,9999.0,,-3.2,-3.3,29.50,1000.6,,,,,,,,,,,,,,,Clear,72000.0,,,,,,,,,
KRDR,11-14-2020,05:56,METAR,Normal,170,11.0,,,9999.0,,-3.4,-3.5,29.54,1002.0,,,,,,,,,,,,,,,,18000.0,18000.0,OVC,18000.0,,,,,,
KRDR,11-14-2020,04:56,METAR,Normal,170,11.0,,,9999.0,,-3.1,-3.2,29.57,1003.1,,,,,,,,,,,,,,,4/8 Partly Cloudy,72000.0,18000.0,SCT,18000.0,,,,,,
KRDR,11-14-2020,03:56,METAR,Normal,170,11.0,,,9999.0,,-3.0,-3.6,29.58,1003.5,,,,,,,,,,,,,,,Clear,72000.0,,,,,,,,,
KRDR,11-14-2020,02:56,METAR,Normal,170,13.0,,,9999.0,,-2.6,-3.6,29.60,1004.4,,,,,,,,,,,,,,,Clear,72000.0,,,,,,,,,
KRDR,11-14-2020,01:56,METAR,Normal,170,12.0,18.0,,9999.0,,-1.6,-3.3,29.61,1004.7,,,,,,,,,,,,,,,Clear,72000.0,,,,,,,,,
KRDR,11-14-2020,00:56,METAR,Normal,160,11.0,,,9999.0,,-1.3,-3.3,29.63,1005.4,,,,,,,,,,,,,,,Clear,72000.0,,,,,,,,,
KRDR,11-13-2020,23:56,METAR,Normal,160,9.0,,,9999.0,,0.1,-3.5,29.65,1006.1,,,,,,,,,,,,,,,2/8 Mostly Clear,72000.0,15000.0,FEW,15000.0,,,,,,
KRDR,11-13-2020,22:56,METAR,Normal,170,10.0,,,9999.0,,1.4,-3.9,29.66,1006.4,,,,,,,,,,,,,,,2/8 Mostly Clear,72000.0,14000.0,FEW,14000.0,,,,,,
KRDR,11-13-2020,21:56,METAR,Normal,170,12.0,,,9999.0,,3.5,-4.7,29.68,1007.0,,,,,,,,,,,,,,,2/8 Mostly Clear,72000.0,15000.0,FEW,15000.0,,,,,,
KRDR,11-13-2020,20:56,METAR,Normal,170,14.0,,,9999.0,,4.3,-3.9,29.72,1008.4,,,,,,,,,,,,,,,4/8 Partly Cloudy,72000.0,13000.0,FEW,13000.0,SCT,18000.0,,,,
KRDR,11-13-2020,19:56,METAR,Normal,160,12.0,,,9999.0,,2.8,-2.7,29.75,1009.5,,,,,,,,,,,,,,,,16000.0,14000.0,FEW,14000.0,BKN,16000.0,BKN,20000.0,,
KRDR,11-13-2020,18:56,METAR,Normal,180,12.0,,,9999.0,,0.8,-3.1,29.79,1010.9,,,,,,,,,,,,,,,,19000.0,19000.0,BKN,19000.0,BKN,24000.0,,,,
KRDR,11-13-2020,17:56,METAR,Normal,180,14.0,,,9999.0,,-0.5,-4.4,29.84,1012.7,,,,,,,,,,,,,,,,19000.0,19000.0,BKN,19000.0,BKN,24000.0,,,,
KRDR,11-13-2020,16:56,METAR,Normal,170,10.0,,,9999.0,,-2.6,-5.4,29.88,1014.2,,,,,,,,,,,,,,,2/8 Mostly Clear,72000.0,15000.0,FEW,15000.0,FEW,21000.0,,,,
KRDR,11-13-2020,15:56,METAR,Normal,180,11.0,,,9999.0,,-5.7,-7.4,29.90,1015.0,,,,,,,,,,,,,,,2/8 Mostly Clear,72000.0,15000.0,FEW,15000.0,FEW,21000.0,,,,
KRDR,11-13-2020,14:56,METAR,Normal,180,9.0,,,9999.0,,-8.3,-9.5,29.93,1016.1,,,,,,,,,,,,,,,,21000.0,15000.0,FEW,15000.0,BKN,21000.0,,,,
KRDR,11-13-2020,13:56,METAR,Normal,180,9.0,,,9999.0,,-10.6,-11.7,29.94,1016.5,,,,,,,,,,,,,,,Clear,72000.0,,,,,,,,,
KRDR,11-13-2020,12:56,METAR,Normal,180,7.0,,,9999.0,,-10.3,-11.5,29.95,1016.7,,,,,,,,,,,,,,,Clear,72000.0,,,,,,,,,
KRDR,11-13-2020,11:56,METAR,Normal,170,7.0,,,9999.0,,-12.2,-13.4,29.97,1017.4,,,,,,,,,,,,,,,Clear,72000.0,,,,,,,,,
KRDR,11-13-2020,10:56,METAR,Normal,170,6.0,,,9999.0,,-13.0,-14.2,29.98,1017.6,,,,,,,,,,,,,,,Clear,72000.0,,,,,,,,,
KRDR,11-13-2020,09:56,METAR,Normal,160,7.0,,,9999.0,,-14.1,-15.3,30.00,1018.3,,,,,,,,,,,,,,,Clear,72000.0,,,,,,,,,
KRDR,11-13-2020,08:56,METAR,Normal,180,7.0,,,9999.0,,-13.8,-15.1,30.04,1019.7,,,,,,,,,,,,,,,Clear,72000.0,,,,,,,,,
KRDR,11-13-2020,07:56,METAR,Normal,190,7.0,,,9999.0,,-15.0,-16.2,30.05,1020.1,,,,,,,,,,,,,,,Clear,72000.0,,,,,,,,,
KRDR,11-13-2020,06:56,METAR,Normal,190,6.0,,,9999.0,,-15.7,-17.0,30.07,1020.8,,,,,,,,,,,,,,,Clear,72000.0,,,,,,,,,
KRDR,11-13-2020,05:56,METAR,Normal,190,5.0,,,9999.0,,-15.2,-16.2,30.08,1021.1,,,,,,,,,,,,,,,Clear,72000.0,,,,,,,,,
KRDR,11-13-2020,04:56,METAR,Normal,200,5.0,,,9999.0,,-15.7,-16.9,30.08,1021.1,,,,,,,,,,,,,,,Clear,72000.0,,,,,,,,,
KRDR,11-13-2020,03:56,METAR,Normal,220,5.0,,,9999.0,,-16.1,-17.3,30.08,1021.1,,,,,,,,,,,,,,,Clear,72000.0,,,,,,,,,
KRDR,11-13-2020,02:56,METAR,Normal,210,5.0,,,9999.0,,-15.4,-16.4,30.09,1021.5,,,,,,,,,,,,,,,Clear,72000.0,,,,,,,,,
KRDR,11-13-2020,01:56,METAR,Normal,230,5.0,,,9999.0,,-13.9,-14.8,30.10,1021.8,,,,,,,,,,,,,,,Clear,72000.0,,,,,,,,,
KRDR,11-13-2020,00:56,METAR,Normal,300,4.0,,,9999.0,,-11.4,-12.9,30.11,1022.1,,,,,,,,,,,,,,,Clear,72000.0,,,,,,,,,
KRDR,11-12-2020,23:56,METAR,Normal,290,6.0,,,9999.0,,-10.9,-12.8,30.09,1021.4,,,,,,,,,,,,,TRACE,,4/8 Partly Cloudy,72000.0,3000.0,SCT,3000.0,,,,,,
KRDR,11-12-2020,23:16,SPECI,Normal,290,7.0,,,9999.0,,-9.0,-12.0,30.09,1021.3,,,,,,,,,,,,,,,4/8 Partly Cloudy,72000.0,2500.0,SCT,2500.0,SCT,10000.0,,,,
KRDR,11-12-2020,22:56,METAR,Normal,300,7.0,,,9999.0,,-7.7,-11.0,30.08,1020.9,,,,,,,,,,,,,,,,2600.0,2600.0,BKN,2600.0,BKN,10000.0,,,,
KRDR,11-12-2020,21:57,METAR,Normal,300,10.0,,,9999.0,,-6.7,-10.4,30.07,1020.5,,,,,,,,,,,TRACE,,,,,2200.0,2200.0,BKN,2200.0,BKN,2800.0,,,,
KRDR,11-12-2020,20:54,METAR,Normal,290,9.0,,,9999.0,Light Snow,-6.4,-10.3,30.06,1020.1,71,,,,,,,,,,TRACE,TRACE,,,,2500.0,2500.0,BKN,2500.0,OVC,18000.0,,,,
KRDR,11-12-2020,19:54,METAR,Normal,280,9.0,,,9999.0,Light Snow,-6.4,-9.8,30.05,1019.8,71,,,,,,,,,,TRACE,,,,,2100.0,2100.0,BKN,2100.0,OVC,18000.0,,,,
KRDR,11-12-2020,18:59,METAR,Normal,320,10.0,,,9999.0,Light Snow,-5.7,-9.4,30.04,1019.4,71,,,,,,,,,,TRACE,,,,,2000.0,2000.0,BKN,2000.0,OVC,18000.0,,,,
KRDR,11-12-2020,17:56,METAR,Normal,290,11.0,,,9999.0,,-5.5,-8.6,30.05,1019.6,,,,,,,,,,,TRACE,,TRACE,,,6500.0,1600.0,SCT,1600.0,BKN,6500.0,OVC,18000.0,,
KRDR,11-12-2020,17:03,SPECI,Normal,290,12.0,,,8000.0,Light Snow/Mist,-6.0,-8.0,30.05,1019.6,71,10,,,,,,,,,,,,,,1000.0,1600.0,BKN,1600.0,BKN,2100.0,OVC,3700.0,,
KRDR,11-12-2020,16:56,METAR,Normal,300,11.0,,,8000.0,Light Snow/Mist,-6.0,-8.6,30.05,1019.6,71,10,,,,,,,,,TRACE,,,,,1000.0,1600.0,SCT,1600.0,BKN,2100.0,OVC,3300.0,,
KRDR,11-12-2020,16:51,SPECI,Normal,290,11.0,,,8000.0,Light Snow/Mist,-6.0,-9.0,30.05,1019.6,71,10,,,,,,,,,,,,,,1000.0,1100.0,FEW,1100.0,BKN,1700.0,OVC,3800.0,,
KRDR,11-12-2020,16:23,SPECI,Normal,310,9.0,,,9999.0,Light Snow,-6.0,-8.0,30.04,1019.3,71,,,,,,,,,,,,,,,1500.0,1100.0,FEW,1100.0,BKN,1500.0,OVC,4200.0,,
KRDR,11-12-2020,15:54,METAR,Normal,300,12.0,,,8000.0,Light Snow/Mist,-6.2,-8.2,30.04,1019.3,71,10,,,,,,,,,TRACE,,,,,1400.0,1400.0,BKN,1400.0,OVC,3800.0,,,,
KRDR,11-12-2020,15:27,SPECI,Normal,300,9.0,,,4800.0,Light Snow/Mist,-6.0,-8.0,30.03,1019.0,71,10,,,,,,,,,,,,,,1700.0,1700.0,BKN,1700.0,OVC,3400.0,,,,
KRDR,11-12-2020,15:11,SPECI,Normal,300,10.0,,,4800.0,Light Snow/Mist,-7.0,-8.0,30.03,1019.0,71,10,,,,,,,,,,,,,,1700.0,1700.0,BKN,1700.0,BKN,2200.0,OVC,3200.0,,
KRDR,11-12-2020,14:56,METAR,Normal,300,5.0,,,4800.0,Light Snow/Mist,-6.8,-8.2,30.03,1019.0,71,10,,,,,,,,,TRACE,TRACE,,,,1500.0,300.0,SCT,300.0,BKN,1800.0,OVC,2300.0,,
KRDR,11-12-2020,14:40,SPECI,Normal,310,5.0,,,9999.0,Light Snow,-7.0,-8.0,30.03,1019.0,71,,,,,,,,,,,,,,,1700.0,1800.0,BKN,1800.0,BKN,2300.0,OVC,4400.0,,
KRDR,11-12-2020,14:10,SPECI,Normal,310,7.0,,,9999.0,Light Snow,-7.0,-9.0,30.02,1018.6,71,,,,,,,,,,,,,,,6500.0,4600.0,FEW,4600.0,OVC,6500.0,,,,
KRDR,11-12-2020,14:02,SPECI,Normal,310,8.0,,,9999.0,,-7.0,-9.0,30.02,1018.6,,,,,,,,,,,,,,,,6500.0,4700.0,SCT,4700.0,OVC,6500.0,,,,
KRDR,11-12-2020,13:56,METAR,Normal,300,7.0,,,9999.0,Light Snow,-7.4,-8.8,30.01,1018.3,71,,,,,,,,,,TRACE,,,,,6000.0,4700.0,SCT,4700.0,OVC,6000.0,,,,
KRDR,11-12-2020,13:50,SPECI,Normal,300,6.0,,,9999.0,Light Snow,-7.0,-9.0,30.01,1018.3,71,,,,,,,,,,,,,,,6500.0,4500.0,SCT,4500.0,BKN,6500.0,,,,
KRDR,11-12-2020,13:38,SPECI,Normal,310,6.0,,,9999.0,,-8.0,-9.0,30.01,1018.3,,,,,,,,,,,,,,,,6000.0,4500.0,FEW,4500.0,BKN,6000.0,,,,
KRDR,11-12-2020,12:56,METAR,Normal,290,7.0,,,9999.0,,-8.5,-9.4,30.00,1017.9,,,,,,,,,,,,,,,,6500.0,6500.0,OVC,6500.0,,,,,,
KRDR,11-12-2020,11:56,METAR,Normal,290,7.0,,,9999.0,,-9.1,-10.3,29.98,1017.3,,,,,,,,,,,TRACE,,TRACE,.01 IN,2/8 Mostly Clear,72000.0,5000.0,FEW,5000.0,,,,,,
KRDR,11-12-2020,11:12,SPECI,Normal,300,9.0,,,9999.0,,-9.0,-10.0,29.96,1016.5,,,,,,,,,,,,,,,Clear,72000.0,,,,,,,,,
KRDR,11-12-2020,10:56,METAR,Normal,300,11.0,,,9999.0,Light Snow,-8.3,-9.5,29.96,1016.5,71,,,,,,,,,,TRACE,,,,4/8 Partly Cloudy,72000.0,3100.0,SCT,3100.0,,,,,,
KRDR,11-12-2020,10:54,SPECI,Normal,300,11.0,,,9999.0,Light Snow,-8.0,-9.0,29.96,1016.5,71,,,,,,,,,,,,,,4/8 Partly Cloudy,72000.0,3300.0,SCT,3300.0,,,,,,
KRDR,11-12-2020,10:16,SPECI,Normal,290,11.0,,,9999.0,,-7.0,-9.0,29.93,1015.4,,,,,,,,,,,,,,,,3100.0,3100.0,OVC,3100.0,,,,,,
KRDR,11-12-2020,10:06,SPECI,Normal,300,10.0,,,9999.0,,-7.0,-9.0,29.93,1015.4,,,,,,,,,,,,,,,,2800.0,2900.0,OVC,2900.0,,,,,,
KRDR,11-12-2020,09:56,METAR,Normal,290,10.0,,,9999.0,,-7.2,-8.6,29.93,1015.4,,,,,,,,,,,TRACE,,,,,3100.0,2600.0,SCT,2600.0,OVC,3100.0,,,,
KRDR,11-12-2020,09:09,SPECI,Normal,290,10.0,,,9999.0,,-7.0,-8.0,29.93,1015.4,,,,,,,,,,,,,,,,2400.0,2600.0,BKN,2600.0,,,,,,
KRDR,11-12-2020,08:57,SPECI,Normal,280,12.0,,,9999.0,Light Snow,-7.0,-9.0,29.92,1015.0,71,,,,,,,,,,,,,,2/8 Mostly Clear,72000.0,2700.0,FEW,2700.0,,,,,,
KRDR,11-12-2020,08:56,METAR,Normal,280,12.0,,,9999.0,,-7.3,-8.7,29.92,1015.0,,,,,,,,,,,,,,,2/8 Mostly Clear,72000.0,2700.0,FEW,2700.0,,,,,,
KRDR,11-12-2020,07:56,METAR,Normal,290,12.0,,,9999.0,,-7.3,-8.7,29.88,1013.7,,,,,,,,,,,,,,,Clear,72000.0,,,,,,,,,
KRDR,11-12-2020,06:56,METAR,Normal,280,14.0,,,9999.0,,-6.7,-8.4,29.86,1013.1,,,,,,,,,,,,,,,Clear,72000.0,,,,,,,,,
KRDR,11-12-2020,05:56,METAR,Normal,270,13.0,20.0,,9999.0,,-5.6,-7.6,29.83,1012.1,,,,,,,,,,,,,TRACE,,Clear,72000.0,,,,,,,,,
KRDR,11-12-2020,04:56,METAR,Normal,280,15.0,,,9999.0,,-4.9,-7.4,29.82,1011.7,,,,,,,,,,,,,,,,11000.0,2100.0,SCT,2100.0,BKN,11000.0,,,,
KRDR,11-12-2020,04:06,SPECI,Normal,280,14.0,20.0,,9999.0,,-4.0,-6.0,29.80,1011.1,,,,,,,,,,,,,,,,1800.0,1800.0,SCT,1800.0,BKN,2300.0,BKN,7500.0,,
KRDR,11-12-2020,03:56,METAR,Normal,280,10.0,18.0,,9999.0,,-4.0,-5.4,29.80,1011.1,,,,,,,,,,,,,,,,1900.0,1900.0,OVC,1900.0,,,,,,
KRDR,11-12-2020,03:20,SPECI,Normal,270,10.0,,,9999.0,,-4.0,-5.0,29.78,1010.4,,,,,,,,,,,,,,,,1900.0,1900.0,OVC,1900.0,,,,,,
KRDR,11-12-2020,02:56,METAR,Normal,280,11.0,,,9999.0,,-3.7,-5.4,29.78,1010.5,,,,,,,,,,,,TRACE,,,,2000.0,2000.0,OVC,2000.0,,,,,,
KRDR,11-12-2020,01:56,METAR,Normal,280,12.0,,,9999.0,,-2.7,-4.9,29.77,1010.3,,,,,,,,,,,TRACE,,,,,2500.0,2500.0,OVC,2500.0,,,,,,
KRDR,11-12-2020,01:25,SPECI,Normal,280,13.0,18.0,,9999.0,,-2.0,-4.0,29.76,1010.0,,,,,,,,,,,,,,,,2500.0,2000.0,FEW,2000.0,BKN,2500.0,OVC,7500.0,,
KRDR,11-12-2020,01:09,SPECI,Normal,270,12.0,19.0,,9999.0,Light Snow,-2.0,-4.0,29.76,1010.0,71,,,,,,,,,,,,,,,1800.0,1800.0,BKN,1800.0,OVC,2500.0,,,,
KRDR,11-12-2020,00:56,METAR,Normal,270,13.0,17.0,,9999.0,,-1.5,-2.2,29.75,1009.6,,,,,,,,,,,TRACE,,,,,1900.0,1900.0,BKN,1900.0,OVC,2500.0,,,,
KRDR,11-12-2020,00:43,SPECI,Normal,280,7.0,,,9999.0,Mist,-1.0,-2.0,29.75,1009.6,10,,,,,,,,,,,,,,,2100.0,2100.0,BKN,2100.0,BKN,2600.0,OVC,5500.0,,
KRDR,11-11-2020,23:56,METAR,Normal,290,14.0,23.0,280/28KTS,6400.0,Light Snow/Mist,-1.1,-1.2,29.73,1008.9,71,10,,,,,,,,,TRACE,,.03 IN,,,2400.0,1400.0,SCT,1400.0,BKN,2400.0,BKN,3000.0,OVC,3900.0
KRDR,11-11-2020,23:11,SPECI,Normal,270,14.0,23.0,,8000.0,Light Snow/Mist,0.0,0.0,29.70,1007.8,71,10,,,,,,,,,,,,,,1200.0,800.0,SCT,800.0,BKN,1200.0,BKN,1900.0,OVC,2400.0
KRDR,11-11-2020,23:07,SPECI,Normal,200,6.0,,,8000.0,Light Snow/Mist,0.0,0.0,29.70,1007.8,71,10,,,,,,,,,,,,,,1400.0,800.0,SCT,800.0,BKN,1400.0,BKN,1900.0,OVC,2400.0
KRDR,11-11-2020,22:56,METAR,Normal,160,3.0,,,8000.0,Light Snow/Mist,0.2,0.2,29.68,1007.2,71,10,,,,,,,,,TRACE,,,,,1900.0,1900.0,BKN,1900.0,BKN,4800.0,OVC,8000.0,,
KRDR,11-11-2020,22:52,SPECI,Normal,160,3.0,,,8000.0,Light Snow/Mist,0.0,0.0,29.68,1007.2,71,10,,,,,,,,,,,,,,2000.0,2000.0,BKN,2000.0,BKN,4800.0,OVC,8000.0,,
KRDR,11-11-2020,22:32,SPECI,Normal,150,4.0,,,8000.0,Mist,0.0,0.0,29.68,1007.2,10,,,,,,,,,,,,,,,8000.0,1800.0,SCT,1800.0,BKN,8000.0,,,,
KRDR,11-11-2020,22:19,SPECI,Normal,160,5.0,,,6400.0,Light Snow/Mist,0.0,0.0,29.68,1007.2,71,10,,,,,,,,,,,,,,2000.0,900.0,FEW,900.0,OVC,2000.0,,,,
KRDR,11-11-2020,21:59,SPECI,Normal,170,4.0,,,4800.0,Light Snow/Mist,0.0,0.0,29.68,1007.2,71,10,,,,,,,,,,,,,,1800.0,900.0,FEW,900.0,OVC,1800.0,,,,
KRDR,11-11-2020,21:56,SPECI,Normal,170,5.0,,,3600.0,Light Snow/Mist,0.0,0.0,29.68,1007.2,71,10,,,,,,,,,,,,,,1800.0,1800.0,OVC,1800.0,,,,,,
KRDR,11-11-2020,21:52,METAR,Normal,170,5.0,,,2600.0,Light Snow/Mist,0.2,0.2,29.68,1007.2,,,,71,10,,,,,,.01 IN,,,,,1600.0,1600.0,OVC,1600.0,,,,,,
KRDR,11-11-2020,21:46,SPECI,Normal,170,5.0,,,4000.0,Light Snow/Mist,0.0,0.0,29.68,1007.2,71,10,,,,,,,,,,,,,,1800.0,1800.0,OVC,1800.0,,,,,,
KRDR,11-11-2020,21:36,SPECI,Normal,170,6.0,,,4800.0,Light Snow/Mist,0.0,0.0,29.68,1007.2,71,10,,,,,,,,,,,,,,2000.0,2000.0,OVC,2000.0,,,,,,
KRDR,11-11-2020,20:56,METAR,Normal,190,4.0,,,4800.0,Light Snow/Mist,0.2,-0.1,29.67,1006.7,71,10,,,,,,,,,.01 IN,.02 IN,,,,1800.0,1800.0,OVC,1800.0,,,,,,
KRDR,11-11-2020,20:46,SPECI,Normal,170,4.0,,,6400.0,Light Snow/Mist,0.0,0.0,29.67,1006.8,71,10,,,,,,,,,,,,,,1800.0,1800.0,OVC,1800.0,,,,,,
KRDR,11-11-2020,20:39,SPECI,Normal,180,5.0,,,4800.0,Light Snow/Mist,0.0,-1.0,29.67,1006.8,,,,71,10,,,,,,,,,,,2000.0,2000.0,OVC,2000.0,,,,,,
KRDR,11-11-2020,19:56,METAR,Normal,160,6.0,,,6400.0,Light Snow,0.1,-2.6,29.67,1006.8,71,,,,,,,,,,.01 IN,,,,,1500.0,2500.0,BKN,2500.0,OVC,3200.0,,,,
KRDR,11-11-2020,19:37,SPECI,Normal,180,6.0,,,6400.0,Light Snow,0.0,-3.0,29.67,1006.8,,,,71,,,,,,,,,,,,1500.0,2500.0,BKN,2500.0,BKN,3200.0,OVC,6000.0,,
KRDR,11-11-2020,18:56,METAR,Normal,180,5.0,,,9999.0,Light Snow,-0.3,-4.6,29.68,1007.2,,,,71,,,,,,,TRACE,,,,,2700.0,2700.0,OVC,2700.0,,,,,,
KRDR,11-11-2020,17:56,METAR,Normal,180,7.0,,,9999.0,Light Snow,-1.8,-5.7,29.70,1007.9,71,,,,,,,,,,TRACE,,TRACE,,,4700.0,2900.0,FEW,2900.0,BKN,4700.0,OVC,5500.0,,
KRDR,11-11-2020,17:37,SPECI,Normal,180,7.0,,,9999.0,Light Snow,-2.0,-6.0,29.70,1007.9,71,,,,,,,,,,,,,,,5000.0,5000.0,OVC,5000.0,,,,,,
KRDR,11-11-2020,16:56,METAR,Normal,150,5.0,,,9999.0,,-2.9,-6.4,29.70,1007.9,,,,,,,,,,,,,,,,7000.0,7000.0,BKN,7000.0,OVC,10000.0,,,,
KRDR,11-11-2020,16:55,SPECI,Normal,160,5.0,,,9999.0,,-3.0,-6.0,29.70,1007.9,,,,,,,,,,,,,,,,7000.0,7000.0,BKN,7000.0,OVC,10000.0,,,,
KRDR,11-11-2020,15:56,METAR,Calm,,0.0,,,9999.0,,-5.9,-7.7,29.70,1008.0,,,,,,,,,,,,,,,,8500.0,6000.0,FEW,6000.0,BKN,8600.0,,,,
KRDR,11-11-2020,14:56,METAR,Normal,180,6.0,,,9999.0,,-8.7,-9.8,29.70,1008.1,,,,,,,,,,,,,,,4/8 Partly Cloudy,72000.0,6000.0,SCT,6000.0,,,,,,
KRDR,11-11-2020,13:56,METAR,Normal,150,3.0,,,9999.0,,-13.5,-15.1,29.71,1008.6,,,,,,,,,,,,,,,4/8 Partly Cloudy,72000.0,9000.0,SCT,9100.0,,,,,,
KRDR,11-11-2020,12:56,METAR,Normal,150,3.0,,,9999.0,,-14.0,-15.3,29.72,1008.9,,,,,,,,,,,,,,,Clear,72000.0,,,,,,,,,
KRDR,11-11-2020,11:56,METAR,Calm,,0.0,,,9999.0,,-12.5,-14.1,29.71,1008.4,,,,,,,,,,,,,,,Clear,72000.0,,,,,,,,,
KRDR,11-11-2020,10:56,METAR,Normal,100,4.0,,,9999.0,,-13.3,-14.5,29.71,1008.3,,,,,,,,,,,,,,,Clear,72000.0,,,,,,,,,
KRDR,11-11-2020,09:56,METAR,Calm,,0.0,,,9999.0,,-14.4,-15.6,29.71,1008.3,,,,,,,,,,,,,,,Clear,72000.0,,,,,,,,,
KRDR,11-11-2020,08:56,METAR,Calm,,0.0,,,9999.0,,-12.9,-14.6,29.72,1008.5,,,,,,,,,,,,,,,Clear,72000.0,,,,,,,,,
KRDR,11-11-2020,07:56,METAR,Normal,200,3.0,,,9999.0,,-14.4,-15.7,29.72,1008.6,,,,,,,,,,,,,,,Clear,72000.0,,,,,,,,,
KRDR,11-11-2020,06:56,METAR,Calm,,0.0,,,9999.0,,-13.4,-15.6,29.74,1009.3,,,,,,,,,,,,,,,Clear,72000.0,,,,,,,,,
KRDR,11-11-2020,05:56,METAR,Calm,,0.0,,,9999.0,,-14.1,-15.7,29.74,1009.3,,,,,,,,,,,,,,,Clear,72000.0,,,,,,,,,
KRDR,11-11-2020,04:56,METAR,Calm,,0.0,,,9999.0,,-13.9,-15.6,29.75,1009.7,,,,,,,,,,,,,,,Clear,72000.0,,,,,,,,,
KRDR,11-11-2020,03:56,METAR,Normal,210,3.0,,,9999.0,,-12.0,-14.3,29.77,,,,,,,,,,,,,,,,Clear,72000.0,,,,,,,,,
KRDR,11-11-2020,02:56,METAR,Normal,240,4.0,,,9999.0,,-11.9,-14.2,29.76,,,,,,,,,,,,,,,,2/8 Mostly Clear,72000.0,20000.0,FEW,20000.0,,,,,,
KRDR,11-11-2020,01:56,METAR,Normal,240,3.0,,,9999.0,,-11.3,-13.5,29.76,1010.2,,,,,,,,,,,,,,,2/8 Mostly Clear,72000.0,20000.0,FEW,20000.0,,,,,,
KRDR,11-11-2020,00:56,METAR,Calm,,0.0,,,9999.0,,-10.2,-12.3,29.76,1010.2,,,,,,,,,,,,,,,2/8 Mostly Clear,72000.0,20000.0,FEW,20000.0,,,,,,
KRDR,11-10-2020,23:56,METAR,Normal,40,3.0,,,9999.0,,-6.9,-11.3,29.74,1009.4,,,,,,,,,,,,,,,4/8 Partly Cloudy,72000.0,10000.0,FEW,10000.0,SCT,20000.0,,,,
KRDR,11-10-2020,22:56,METAR,Normal,40,3.0,,,9999.0,,-4.9,-10.9,29.75,1009.7,,,,,,,,,,,,,,,4/8 Partly Cloudy,72000.0,3000.0,FEW,3000.0,FEW,10000.0,SCT,20000.0,,
KRDR,11-10-2020,21:56,METAR,Calm,,0.0,,,9999.0,,-2.4,-10.9,29.76,1009.9,,,,,,,,,,,,,,,2/8 Mostly Clear,72000.0,3000.0,FEW,3000.0,FEW,10000.0,FEW,20000.0,,
KRDR,11-10-2020,20:56,METAR,Calm,,0.0,,,9999.0,,-1.6,-10.9,29.77,1010.2,,,,,,,,,,,,,,,2/8 Mostly Clear,72000.0,3000.0,FEW,3000.0,FEW,10000.0,,,,
KRDR,11-10-2020,19:56,METAR,Calm,,0.0,,,9999.0,,-1.8,-10.9,29.80,1011.1,,,,,,,,,,,,,,,2/8 Mostly Clear,72000.0,3000.0,FEW,3000.0,FEW,10000.0,,,,
KRDR,11-10-2020,18:56,METAR,Calm,,0.0,,,9999.0,,-2.9,-10.9,29.83,1012.1,,,,,,,,,,,,,,,2/8 Mostly Clear,72000.0,3000.0,FEW,3000.0,FEW,10000.0,,,,
KRDR,11-10-2020,17:56,METAR,Normal,50,3.0,,,9999.0,,-3.0,-10.8,29.87,1013.5,,,,,,,,,,,,,,,2/8 Mostly Clear,72000.0,5000.0,FEW,5000.0,FEW,10000.0,,,,
KRDR,11-10-2020,16:56,METAR,Calm,,0.0,,,9999.0,,-4.3,-10.5,29.89,1014.2,,,,,,,,,,,,,,,2/8 Mostly Clear,72000.0,16000.0,FEW,16000.0,,,,,,
KRDR,11-10-2020,15:56,METAR,Normal,360,7.0,,,9999.0,,-6.4,-10.3,29.87,1013.6,,,,,,,,,,,,,,,2/8 Mostly Clear,72000.0,18000.0,FEW,18000.0,,,,,,
KRDR,11-10-2020,14:56,METAR,Normal,320,7.0,,,9999.0,,-9.2,-11.3,29.90,1014.7,,,,,,,,,,,,,,,2/8 Mostly Clear,72000.0,12000.0,FEW,12000.0,,,,,,
KRDR,11-10-2020,13:56,METAR,Normal,310,5.0,,,9999.0,,-12.0,-13.3,29.91,1015.2,,,,,,,,,,,,,,,Clear,72000.0,,,,,,,,,
KRDR,11-10-2020,12:56,METAR,Normal,290,6.0,,,9999.0,,-12.7,-14.0,29.92,1015.5,,,,,,,,,,,,,,,Clear,72000.0,,,,,,,,,
KRDR,11-10-2020,11:56,METAR,Normal,250,5.0,,,9999.0,,-12.7,-14.0,29.94,1016.2,,,,,,,,,,,,,TRACE,,Clear,72000.0,,,,,,,,,
KRDR,11-10-2020,10:56,METAR,Normal,270,5.0,,,9999.0,,-12.4,-13.9,29.94,1016.1,,,,,,,,,,,,,,,Clear,72000.0,,,,,,,,,
KRDR,11-10-2020,09:56,METAR,Normal,250,5.0,,,9999.0,,-11.5,-13.1,29.93,1015.7,,,,,,,,,,,,,,,Clear,72000.0,,,,,,,,,
KRDR,11-10-2020,08:56,METAR,Normal,310,5.0,,,9999.0,,-9.6,-11.8,29.89,1014.2,,,,,,,,,,,,TRACE,,,Clear,72000.0,,,,,,,,,
KRDR,11-10-2020,07:56,METAR,Normal,310,6.0,,,9999.0,,-8.7,-11.1,29.88,1013.8,,,,,,,,,,,,,,,Clear,72000.0,,,,,,,,,
KRDR,11-10-2020,06:56,METAR,Normal,320,7.0,,,9999.0,,-8.0,-10.5,29.91,1014.8,,,,,,,,,,,TRACE,,,,Clear,72000.0,,,,,,,,,
KRDR,11-10-2020,06:43,SPECI,Normal,300,5.0,,,9999.0,,-8.0,-11.0,29.91,1014.8,,,,,,,,,,,,,,,2/8 Mostly Clear,72000.0,2200.0,FEW,2200.0,,,,,,
KRDR,11-10-2020,06:11,SPECI,Normal,280,5.0,,,9999.0,Light Snow,-7.0,-10.0,29.93,1015.5,71,,,,,,,,,,,,,,2/8 Mostly Clear,72000.0,2300.0,FEW,2300.0,,,,,,
KRDR,11-10-2020,05:55,METAR,Normal,280,6.0,,,9999.0,,-6.5,-10.2,29.93,1015.5,,,,,,,,,,,,,TRACE,,2/8 Mostly Clear,72000.0,2400.0,FEW,2400.0,FEW,17000.0,,,,
KRDR,11-10-2020,04:56,METAR,Normal,290,10.0,,,9999.0,,-5.5,-10.5,29.93,1015.4,,,,,,,,,,,,,,,,17000.0,2400.0,SCT,2400.0,BKN,17000.0,,,,
KRDR,11-10-2020,04:37,SPECI,Normal,290,13.0,,,9999.0,,-5.0,-10.0,29.93,1015.4,,,,,,,,,,,,,,,4/8 Partly Cloudy,72000.0,2600.0,SCT,2600.0,,,,,,
KRDR,11-10-2020,04:20,SPECI,Normal,290,12.0,,,9999.0,,-5.0,-10.0,29.92,1015.0,,,,,,,,,,,,,,,,2600.0,2600.0,BKN,2600.0,BKN,17000.0,,,,
KRDR,11-10-2020,03:58,METAR,Normal,280,9.0,,,9999.0,,-5.4,-10.4,29.92,1015.0,,,,,,,,,,,,,,,,17000.0,17000.0,BKN,17000.0,,,,,,
KRDR,11-10-2020,03:21,SPECI,Normal,280,10.0,,,9999.0,,-6.0,-10.0,29.92,1015.1,,,,,,,,,,,,,,,,17000.0,2900.0,FEW,2900.0,OVC,17000.0,,,,
KRDR,11-10-2020,02:56,METAR,Normal,290,10.0,,,9999.0,,-5.7,-11.2,29.92,1015.1,,,,,,,,,,,,TRACE,,,,2800.0,2800.0,OVC,2800.0,,,,,,
KRDR,11-10-2020,02:38,SPECI,Normal,290,9.0,,,9999.0,,-6.0,-12.0,29.92,1015.1,,,,,,,,,,,,,,,,2900.0,2900.0,BKN,2900.0,,,,,,
KRDR,11-10-2020,01:59,METAR,Normal,280,7.0,,,9999.0,,-6.3,-11.3,29.92,1015.1,,,,,,,,,,,TRACE,,,,2/8 Mostly Clear,72000.0,3200.0,FEW,3200.0,,,,,,
KRDR,11-10-2020,01:29,SPECI,Normal,290,9.0,,,9999.0,,-6.0,-12.0,29.91,1014.8,,,,,,,,,,,,,,,4/8 Partly Cloudy,72000.0,3200.0,SCT,3200.0,,,,,,
KRDR,11-09-2020,23:56,METAR,Normal,290,16.0,,,9999.0,,-5.1,-12.5,29.88,1013.8,,,,,,,,,,,,,,,2/8 Mostly Clear,72000.0,4500.0,FEW,4500.0,FEW,18000.0,,,,
KRDR,11-09-2020,22:56,METAR,Normal,290,14.0,,,9999.0,,-3.9,-12.8,29.87,1013.3,,,,,,,,,,,,,,,2/8 Mostly Clear,72000.0,4500.0,FEW,4500.0,FEW,18000.0,,,,
KRDR,11-09-2020,21:56,METAR,Normal,290,18.0,26.0,,9999.0,,-2.1,-13.0,29.84,1012.2,,,,,,,,,,,,,,,2/8 Mostly Clear,72000.0,4500.0,FEW,4500.0,FEW,18000.0,,,,
KRDR,11-09-2020,20:56,METAR,Normal,290,15.0,22.0,290/26KTS,9999.0,,-0.8,-12.7,29.82,1011.6,,,,,,,,,,,,,,,2/8 Mostly Clear,72000.0,4400.0,FEW,4400.0,,,,,,
KRDR,11-09-2020,19:56,METAR,Normal,290,16.0,21.0,,9999.0,,-0.5,-11.6,29.81,1011.1,,,,,,,,,,,,,,,4/8 Partly Cloudy,72000.0,3800.0,SCT,3800.0,,,,,,
KRDR,11-09-2020,18:56,METAR,Normal,280,15.0,22.0,,9999.0,,-0.2,-11.0,29.81,1011.0,,,,,,,,,,,,,,,4/8 Partly Cloudy,72000.0,4000.0,FEW,4000.0,SCT,15000.0,,,,
KRDR,11-09-2020,17:56,METAR,Normal,290,16.0,21.0,,9999.0,,-1.2,-10.3,29.83,1011.7,,,,,,,,,,,,,,,,14000.0,2500.0,FEW,2500.0,BKN,14000.0,BKN,17000.0,,
KRDR,11-09-2020,16:56,METAR,Normal,270,12.0,,,9999.0,,-1.5,-9.8,29.83,1011.7,,,,,,,,,,,,,,,,13000.0,2500.0,FEW,2500.0,BKN,13000.0,BKN,19000.0,,
KRDR,11-09-2020,15:56,METAR,Normal,270,10.0,,,9999.0,,-1.9,-9.3,29.84,1012.0,,,,,,,,,,,,,,,,12000.0,2500.0,FEW,2500.0,SCT,5000.0,BKN,12000.0,,
KRDR,11-09-2020,14:56,METAR,Normal,270,8.0,,,9999.0,,-2.0,-8.5,29.84,1011.9,,,,,,,,,,,,,,,,12000.0,5000.0,FEW,5000.0,BKN,12000.0,,,,
KRDR,11-09-2020,13:56,METAR,Normal,260,7.0,,,9999.0,,-2.2,-8.9,29.85,1012.1,,,,,,,,,,,,,,,,13000.0,13000.0,BKN,13000.0,,,,,,
KRDR,11-09-2020,12:56,METAR,Normal,280,9.0,,,9999.0,,-2.1,-7.6,29.86,1012.3,,,,,,,,,,,,,,,4/8 Partly Cloudy,72000.0,13000.0,SCT,13000.0,,,,,,
KRDR,11-09-2020,11:56,METAR,Normal,260,8.0,,,9999.0,,-2.2,-6.2,29.84,1011.5,,,,,,,,,,,,,,,,18000.0,18000.0,BKN,18000.0,,,,,,
KRDR,11-09-2020,10:56,METAR,Normal,230,7.0,,,9999.0,,-2.0,-5.5,29.84,1011.4,,,,,,,,,,,,,,,4/8 Partly Cloudy,72000.0,18000.0,SCT,18000.0,,,,,,
KRDR,11-09-2020,09:56,METAR,Normal,240,6.0,,,9999.0,,-2.6,-5.4,29.83,1011.1,,,,,,,,,,,,,,,,18000.0,18000.0,BKN,18000.0,,,,,,
KRDR,11-09-2020,08:56,METAR,Normal,260,3.0,,,9999.0,,-3.1,-5.4,29.82,1010.8,,,,,,,,,,,,,,,4/8 Partly Cloudy,72000.0,17000.0,SCT,17000.0,,,,,,
KRDR,11-09-2020,07:56,METAR,Normal,280,7.0,,,9999.0,,-0.3,-4.6,29.82,1010.6,,,,,,,,,,,,,,,Clear,72000.0,,,,,,,,,
KRDR,11-09-2020,06:56,METAR,Normal,260,11.0,,,9999.0,,1.2,-3.5,29.80,1010.0,,,,,,,,,,,,,,,Clear,72000.0,,,,,,,,,
KRDR,11-09-2020,05:56,METAR,Normal,260,12.0,19.0,,9999.0,,2.3,-2.4,29.77,1009.0,,,,,,,,,,,,,,,Clear,72000.0,,,,,,,,,
KRDR,11-09-2020,04:56,METAR,Normal,270,14.0,19.0,270/27KTS,9999.0,,3.4,-2.6,29.77,1009.0,,,,,,,,,,,,,,,Clear,72000.0,,,,,,,,,
KRDR,11-09-2020,03:56,METAR,Normal,280,19.0,25.0,270/33KTS,9999.0,,4.7,-2.4,29.73,1007.6,,,,,,,,,,,,,,,Clear,72000.0,,,,,,,,,
KRDR,11-09-2020,02:56,METAR,Normal,260,19.0,31.0,270/31KTS,9999.0,,7.1,2.0,29.68,1005.9,,,,,,,,,,,,,,,Clear,72000.0,,,,,,,,,
KRDR,11-09-2020,01:56,METAR,Normal,260,18.0,22.0,270/28KTS,9999.0,,10.4,5.4,29.63,1004.2,,,,,,,,,,,,,,,Clear,72000.0,,,,,,,,,
KRDR,11-09-2020,00:56,METAR,Normal,230,13.0,18.0,250/28KTS,9999.0,,14.2,5.5,29.58,1002.6,,,,,,,,,,,,,,,,4200.0,4200.0,BKN,4200.0,BKN,11000.0,,,,
KRDR,11-08-2020,23:56,METAR,Normal,230,16.0,28.0,200/33KTS,9999.0,,18.0,7.4,29.53,1000.7,,,,,,,,,,,,,,,,9500.0,4600.0,SCT,4600.0,SCT,6500.0,BKN,9600.0,,
KRDR,11-08-2020,23:50,SPECI,Normal,240,20.0,28.0,,9999.0,,19.0,10.0,29.52,1000.3,,,,,,,,,,,,,,,,6000.0,4600.0,SCT,4600.0,BKN,6000.0,OVC,9600.0,,
KRDR,11-08-2020,22:56,METAR,Normal,190,20.0,29.0,200/36KTS,9999.0,,20.2,11.1,29.49,999.3,,,,,,,,,,,,,,,,8000.0,5500.0,SCT,5500.0,OVC,8000.0,,,,
KRDR,11-08-2020,21:56,METAR,Normal,190,24.0,33.0,180/36KTS,9999.0,,20.8,10.9,29.48,999.0,,,,,,,,,,,,,,,,5000.0,5000.0,OVC,5000.0,,,,,,
KRDR,11-08-2020,20:56,METAR,Normal,180,21.0,30.0,180/39KTS,9999.0,,21.4,10.5,29.46,998.3,,,,,,,,,,,,,,,,5000.0,5000.0,BKN,5000.0,BKN,16000.0,,,,
KRDR,11-08-2020,19:56,METAR,Normal,170,22.0,31.0,180/36KTS,9999.0,,21.1,11.4,29.45,997.9,,,,,,,,,,,,,,,4/8 Partly Cloudy,72000.0,4500.0,FEW,4500.0,SCT,16000.0,,,,
KRDR,11-08-2020,18:56,METAR,Normal,170,21.0,32.0,160/35KTS,9999.0,,18.9,11.5,29.45,998.0,,,,,,,,,,,,,,,2/8 Mostly Clear,72000.0,15000.0,FEW,15000.0,,,,,,
KRDR,11-08-2020,18:32,SPECI,Normal,170,23.0,35.0,,9999.0,,18.0,11.0,29.47,998.7,,,,,,,,,,,,,,,4/8 Partly Cloudy,72000.0,15000.0,SCT,15000.0,,,,,,
KRDR,11-08-2020,17:56,METAR,Normal,160,21.0,28.0,180/33KTS,9999.0,,18.0,11.5,29.49,999.4,,,,,,,,,,,,,,,2/8 Mostly Clear,72000.0,15000.0,FEW,15000.0,,,,,,
KRDR,11-08-2020,16:56,METAR,Normal,160,20.0,28.0,150/28KTS,9999.0,,17.4,12.1,29.51,1000.1,,,,,,,,,,,,,,,4/8 Partly Cloudy,72000.0,14000.0,SCT,14000.0,SCT,16000.0,,,,
KRDR,11-08-2020,15:56,METAR,Normal,160,21.0,26.0,180/27KTS,9999.0,,15.9,12.8,29.51,1000.1,,,,,,,,,,,,,,,,16000.0,16000.0,BKN,16000.0,BKN,18000.0,,,,
KRDR,11-08-2020,14:56,METAR,Normal,160,16.0,23.0,,9999.0,,14.8,13.3,29.51,1000.2,,,,,,,,,,,,,,,2/8 Mostly Clear,72000.0,13000.0,FEW,13000.0,,,,,,
KRDR,11-08-2020,13:56,METAR,Normal,160,14.0,19.0,,9999.0,,12.0,12.0,29.52,1000.6,,,,,,,,,,,,,,,,17000.0,17000.0,BKN,17000.0,,,,,,
KRDR,11-08-2020,12:56,METAR,Calm,,0.0,,,9999.0,,4.6,4.6,29.52,1000.8,,,,,,,,,,,,,,,,18000.0,18000.0,BKN,18000.0,,,,,,
KRDR,11-08-2020,11:56,METAR,Normal,50,4.0,,,9999.0,,4.5,4.5,29.52,1000.8,,,,,,,,,,,,,,,Clear,72000.0,,,,,,,,,
KRDR,11-08-2020,10:56,METAR,Normal,20,5.0,,,9999.0,,4.2,4.2,29.53,1001.2,,,,,,,,,,,,,,,,15000.0,15000.0,BKN,15000.0,,,,,,
KRDR,11-08-2020,09:56,METAR,Normal,360,6.0,,,9999.0,,3.7,3.6,29.52,1000.8,,,,,,,,,,,,,,,,18000.0,18000.0,BKN,18000.0,,,,,,
KRDR,11-08-2020,08:56,METAR,Normal,360,6.0,,,9999.0,,3.9,3.8,29.52,1000.9,,,,,,,,,,,,,,,,18000.0,18000.0,BKN,18000.0,OVC,21000.0,,,,
KRDR,11-08-2020,07:56,METAR,Normal,330,5.0,,,9999.0,,4.2,3.9,29.52,1000.9,,,,,,,,,,,,,,,,20000.0,18000.0,SCT,18000.0,BKN,20000.0,,,,
KRDR,11-08-2020,06:56,METAR,Normal,340,4.0,,,9999.0,,4.7,4.1,29.53,1001.2,,,,,,,,,,,,,,,,15000.0,15000.0,BKN,15000.0,,,,,,
KRDR,11-08-2020,05:56,METAR,Normal,340,3.0,,,9999.0,,4.5,3.9,29.54,1001.6,,,,,,,,,,,,,,,,14000.0,14000.0,BKN,14000.0,,,,,,
KRDR,11-08-2020,04:56,METAR,Normal,350,5.0,,,9999.0,,4.4,4.1,29.55,1002.1,,,,,,,,,,,,,,,,14000.0,14000.0,BKN,14000.0,,,,,,
KRDR,11-08-2020,03:56,METAR,Normal,340,5.0,,,9999.0,,3.9,3.8,29.57,1002.7,,,,,,,,,,,,,,,Clear,72000.0,,,,,,,,,
KRDR,11-08-2020,02:56,METAR,Normal,20,4.0,,,9999.0,,3.3,3.2,29.60,1003.8,,,,,,,,,,,,,,,Clear,72000.0,,,,,,,,,
KRDR,11-08-2020,02:06,SPECI,Normal,20,5.0,,,9999.0,,4.0,3.0,29.62,1004.4,,,,,,,,,,,,,,,Clear,72000.0,,,,,,,,,
KRDR,11-08-2020,01:56,METAR,Normal,20,5.0,,,9999.0,,3.5,3.4,29.62,1004.5,,,,,,,,,,,,,,,,1300.0,1300.0,BKN,1300.0,,,,,,
KRDR,11-08-2020,01:26,SPECI,Normal,20,6.0,,,9999.0,,4.0,4.0,29.63,1004.8,,,,,,,,,,,,,,,4/8 Partly Cloudy,72000.0,1300.0,SCT,1300.0,,,,,,
KRDR,11-08-2020,00:56,METAR,Normal,40,5.0,,,9999.0,,4.9,4.0,29.64,1005.1,,,,,,,,,,,,,,,,1300.0,1300.0,OVC,1300.0,,,,,,
KRDR,11-08-2020,00:26,SPECI,Normal,10,6.0,,,9999.0,,5.0,4.0,29.65,1005.5,,,,,,,,,,,,,,,,1300.0,1400.0,OVC,1400.0,,,,,,
KRDR,11-07-2020,23:56,METAR,Normal,360,5.0,,,9999.0,,4.8,4.2,29.66,1005.8,,,,,,,,,,,,,,,,1500.0,1600.0,OVC,1600.0,,,,,,
KRDR,11-07-2020,23:26,SPECI,Normal,20,4.0,,,9999.0,,4.0,4.0,29.67,1006.2,,,,,,,,,,,,,,,,1700.0,1900.0,OVC,1900.0,,,,,,
KRDR,11-07-2020,23:16,SPECI,Normal,30,4.0,,,9999.0,,3.0,3.0,29.66,1005.9,,,,,,,,,,,,,,,,1900.0,2000.0,BKN,2000.0,,,,,,
KRDR,11-07-2020,22:56,METAR,Normal,40,3.0,,,9999.0,,3.9,3.3,29.67,1006.2,,,,,,,,,,,,,,,,1500.0,1500.0,BKN,1500.0,,,,,,
KRDR,11-07-2020,22:46,SPECI,Normal,40,4.0,,,9999.0,,5.0,4.0,29.67,1006.1,,,,,,,,,,,,,,,4/8 Partly Cloudy,72000.0,1500.0,SCT,1500.0,,,,,,
KRDR,11-07-2020,22:26,SPECI,Normal,60,4.0,,,9999.0,,6.0,4.0,29.67,1006.1,,,,,,,,,,,,,,,,1400.0,1400.0,OVC,1400.0,,,,,,
KRDR,11-07-2020,21:56,METAR,Normal,70,5.0,,,9999.0,,5.5,4.1,29.67,1006.1,,,,,,,,,,,,,,,,1200.0,1300.0,OVC,1300.0,,,,,,
KRDR,11-07-2020,21:06,SPECI,Normal,30,4.0,,,9999.0,,5.0,3.0,29.68,1006.5,,,,,,,,,,,,,,,,1100.0,1200.0,OVC,1200.0,,,,,,
KRDR,11-07-2020,20:56,METAR,Normal,30,5.0,,,9999.0,,4.4,2.9,29.68,1006.6,,,,,,,,,,,,,,,,1100.0,1100.0,OVC,1100.0,,,,,,
KRDR,11-07-2020,20:26,SPECI,Normal,30,6.0,,,9999.0,,4.0,3.0,29.68,1006.6,,,,,,,,,,,,,,,,1000.0,1100.0,OVC,1100.0,,,,,,
KRDR,11-07-2020,19:56,METAR,Normal,50,6.0,,,9999.0,,3.8,2.3,29.68,1006.6,,,,,,,,,,,,,,,,900.0,1000.0,OVC,1000.0,,,,,,
KRDR,11-07-2020,19:06,SPECI,Normal,20,8.0,,,9999.0,,3.0,2.0,29.69,1006.9,,,,,,,,,,,,,,,,700.0,800.0,OVC,800.0,,,,,,
KRDR,11-07-2020,18:56,METAR,Normal,30,7.0,,,9999.0,,2.6,2.0,29.70,1007.2,,,,,,,,,,,,,,,,700.0,700.0,OVC,700.0,,,,,,
KRDR,11-07-2020,18:46,SPECI,Normal,10,7.0,,,9999.0,,2.0,2.0,29.70,1007.2,,,,,,,,,,,,,,,,600.0,700.0,OVC,700.0,,,,,,
KRDR,11-07-2020,17:56,METAR,Normal,350,9.0,,,9999.0,,1.4,1.3,29.74,1008.7,,,,,,,,,,,,,,,,500.0,600.0,OVC,600.0,,,,,,
KRDR,11-07-2020,17:36,SPECI,Normal,10,9.0,,,9999.0,,1.0,1.0,29.74,1008.7,,,,,,,,,,,,,,,,400.0,600.0,OVC,600.0,,,,,,
KRDR,11-07-2020,16:56,METAR,Normal,20,8.0,,,9999.0,,0.9,0.8,29.77,1009.7,,,,,,,,,,,,,,,,500.0,500.0,OVC,500.0,,,,,,
KRDR,11-07-2020,16:16,SPECI,Normal,10,10.0,,,9999.0,,0.0,0.0,29.77,1009.7,,,,,,,,,,,,,,,,500.0,600.0,OVC,600.0,,,,,,
KRDR,11-07-2020,16:06,SPECI,Normal,10,11.0,,,9999.0,,0.0,0.0,29.77,1009.7,,,,,,,,,,,,,,,,500.0,500.0,OVC,500.0,,,,,,
KRDR,11-07-2020,15:56,METAR,Normal,10,11.0,,,9999.0,,0.1,0.0,29.78,1010.0,,,,,,,,,,,,,,,,500.0,600.0,OVC,600.0,,,,,,
KRDR,11-07-2020,14:56,METAR,Normal,360,12.0,,,9999.0,,-0.9,-1.0,29.79,1010.4,,,,,,,,,,,,,,,,600.0,600.0,OVC,600.0,,,,,,
KRDR,11-07-2020,14:06,SPECI,Normal,10,12.0,,,9999.0,,-1.0,-1.0,29.80,1010.7,,,,,,,,,,,,,,,,600.0,600.0,OVC,600.0,,,,,,
KRDR,11-07-2020,13:56,METAR,Normal,20,11.0,,,9999.0,,-1.2,-1.3,29.78,1010.0,,,,,,,,,,,,,,,,600.0,700.0,OVC,700.0,,,,,,
KRDR,11-07-2020,12:56,METAR,Normal,10,13.0,18.0,,9999.0,,-1.3,-1.4,29.80,1010.6,,,,,,,,,,,,,,,,700.0,700.0,OVC,700.0,,,,,,
KRDR,11-07-2020,11:56,METAR,Normal,10,14.0,,,9999.0,,-1.4,-1.5,29.79,1010.3,,,,,,,,,,,,,,,,700.0,700.0,OVC,700.0,,,,,,
KRDR,11-07-2020,10:56,METAR,Normal,360,15.0,25.0,,9999.0,,-1.4,-1.5,29.80,1010.6,,,,,,,,,,,,,,,,700.0,800.0,OVC,800.0,,,,,,
KRDR,11-07-2020,09:56,METAR,Normal,360,16.0,,,9999.0,,-1.3,-1.6,29.80,1010.5,,,,,,,,,,,,,,,,800.0,800.0,OVC,800.0,,,,,,
KRDR,11-07-2020,08:56,METAR,Normal,360,13.0,19.0,,9999.0,,-1.4,-1.7,29.81,1010.8,,,,,,,,,,,,,,,,900.0,900.0,OVC,900.0,,,,,,
KRDR,11-07-2020,08:46,SPECI,Normal,10,12.0,,,9999.0,,-1.0,-2.0,29.80,1010.5,,,,,,,,,,,,,,,,900.0,900.0,OVC,900.0,,,,,,
KRDR,11-07-2020,07:56,METAR,Normal,360,14.0,,,9999.0,,-1.2,-1.6,29.80,1010.4,,,,,,,,,,,,,,,,1000.0,1000.0,BKN,1000.0,,,,,,
KRDR,11-07-2020,06:56,METAR,Normal,360,14.0,20.0,,9999.0,,-1.0,-1.4,29.80,1010.5,,,,,,,,,,,,,,,,900.0,1000.0,BKN,1000.0,,,,,,
KRDR,11-07-2020,06:42,SPECI,Normal,350,13.0,19.0,,9999.0,,-1.0,-1.0,29.80,1010.5,,,,,,,,,,,,,,,,1000.0,1000.0,BKN,1000.0,,,,,,
KRDR,11-07-2020,06:02,SPECI,Normal,360,14.0,,,9999.0,,-1.0,-2.0,29.80,1010.4,,,,,,,,,,,,,,,2/8 Mostly Clear,72000.0,1100.0,FEW,1100.0,,,,,,
KRDR,11-07-2020,05:56,METAR,Normal,350,15.0,,,9999.0,,-1.1,-1.7,29.80,1010.4,,,,,,,,,,,,,,,Clear,72000.0,,,,,,,,,
KRDR,11-07-2020,04:56,METAR,Normal,360,16.0,21.0,,9999.0,,-0.7,-1.6,29.78,1009.8,,,,,,,,,,,,,,,,21000.0,21000.0,OVC,21000.0,,,,,,
KRDR,11-07-2020,03:56,METAR,Normal,360,14.0,,,9999.0,,-0.1,-1.4,29.80,1010.6,,,,,,,,,,,,,,,,17000.0,17000.0,BKN,17000.0,OVC,21000.0,,,,
KRDR,11-07-2020,02:56,METAR,Normal,10,16.0,,,9999.0,,0.8,-0.7,29.78,1009.8,,,,,,,,,,,,,,,,17000.0,17000.0,BKN,17000.0,OVC,21000.0,,,,
KRDR,11-07-2020,01:56,METAR,Normal,10,13.0,,,9999.0,,1.5,-0.1,29.79,1010.2,,,,,,,,,,,,,,,,17000.0,17000.0,BKN,17000.0,OVC,21000.0,,,,
KRDR,11-07-2020,00:56,METAR,Normal,10,16.0,,,9999.0,,2.4,0.8,29.80,1010.6,,,,,,,,,,,,,,,,17000.0,17000.0,BKN,17000.0,OVC,21000.0,,,,
KRDR,11-06-2020,23:56,METAR,Normal,360,15.0,22.0,,9999.0,,3.3,1.5,29.79,1010.1,,,,,,,,,,,,,,,,17000.0,17000.0,BKN,17000.0,OVC,21000.0,,,,
KRDR,11-06-2020,22:56,METAR,Normal,10,14.0,22.0,,9999.0,,4.3,2.0,29.79,1010.0,,,,,,,,,,,,,,,,17000.0,17000.0,BKN,17000.0,OVC,21000.0,,,,
KRDR,11-06-2020,21:56,METAR,Normal,10,16.0,23.0,,9999.0,,6.1,2.9,29.77,1009.2,,,,,,,,,,,,,,,,17000.0,17000.0,BKN,17000.0,OVC,21000.0,,,,
KRDR,11-06-2020,20:56,METAR,Normal,10,14.0,22.0,,9999.0,,7.2,3.3,29.77,1009.1,,,,,,,,,,,,,,,,17000.0,17000.0,BKN,17000.0,OVC,21000.0,,,,
KRDR,11-06-2020,19:56,METAR,Normal,10,16.0,,,9999.0,,8.8,3.6,29.76,1008.6,,,,,,,,,,,,,,,,17000.0,17000.0,BKN,17000.0,OVC,21000.0,,,,
KRDR,11-06-2020,18:56,METAR,Normal,20,12.0,,,9999.0,,7.7,3.5,29.76,1008.6,,,,,,,,,,,,,,,,19000.0,19000.0,BKN,19000.0,OVC,22000.0,,,,
KRDR,11-06-2020,17:56,METAR,Normal,10,14.0,,,9999.0,,8.4,3.6,29.77,1009.0,,,,,,,,,,,,,,,,19000.0,19000.0,BKN,19000.0,,,,,,
KRDR,11-06-2020,16:56,METAR,Normal,10,14.0,,,9999.0,,6.5,3.1,29.80,1010.0,,,,,,,,,,,,,,,,19000.0,19000.0,BKN,19000.0,,,,,,
KRDR,11-06-2020,15:56,METAR,Normal,10,13.0,,,9999.0,,4.3,2.2,29.78,1009.4,,,,,,,,,,,,,,,,22000.0,22000.0,BKN,22000.0,,,,,,
KRDR,11-06-2020,14:56,METAR,Normal,360,10.0,,,9999.0,,5.3,3.1,29.79,1009.7,,,,,,,,,,,,,,,2/8 Mostly Clear,72000.0,22000.0,FEW,22000.0,,,,,,
KRDR,11-06-2020,13:56,METAR,Normal,10,9.0,,,9999.0,,2.9,1.7,29.78,1009.4,,,,,,,,,,,,,,,2/8 Mostly Clear,72000.0,20000.0,FEW,20000.0,,,,,,
KRDR,11-06-2020,12:56,METAR,Normal,330,4.0,,,9999.0,,0.9,0.6,29.77,1009.1,,,,,,,,,,,,,,,Clear,72000.0,,,,,,,,,
KRDR,11-06-2020,11:56,METAR,Normal,30,5.0,,,9999.0,,3.9,1.8,29.76,1008.7,,,,,,,,,,,,,,,Clear,72000.0,,,,,,,,,
KRDR,11-06-2020,10:56,METAR,Normal,160,4.0,,,9999.0,,5.6,2.2,29.75,1008.3,,,,,,,,,,,,,,,Clear,72000.0,,,,,,,,,
KRDR,11-06-2020,09:56,METAR,Normal,210,3.0,,,9999.0,,7.4,2.3,29.75,1008.3,,,,,,,,,,,,,,,Clear,72000.0,,,,,,,,,
KRDR,11-06-2020,08:56,METAR,Normal,260,6.0,,,9999.0,,8.6,2.2,29.76,1008.5,,,,,,,,,,,,,,,Clear,72000.0,,,,,,,,,
KRDR,11-06-2020,07:56,METAR,Normal,230,6.0,,,9999.0,,10.5,2.6,29.76,1008.5,,,,,,,,,,,,,,,Clear,72000.0,,,,,,,,,
KRDR,11-06-2020,06:56,METAR,Normal,240,11.0,,,9999.0,,11.4,2.9,29.76,1008.5,,,,,,,,,,,,,,,Clear,72000.0,,,,,,,,,
KRDR,11-06-2020,05:56,METAR,Normal,230,10.0,,,9999.0,,11.6,3.4,29.77,1008.9,,,,,,,,,,,,,,,2/8 Mostly Clear,72000.0,23000.0,FEW,23000.0,,,,,,
KRDR,11-06-2020,04:56,METAR,Normal,230,11.0,,,9999.0,,12.8,3.5,29.77,1009.0,,,,,,,,,,,,,,,4/8 Partly Cloudy,72000.0,16000.0,SCT,16000.0,SCT,23000.0,,,,
KRDR,11-06-2020,03:56,METAR,Normal,230,13.0,,,9999.0,,14.4,3.8,29.78,1009.3,,,,,,,,,,,,,,,,23000.0,16000.0,SCT,16000.0,BKN,23000.0,,,,
KRDR,11-06-2020,02:56,METAR,Normal,230,13.0,,,9999.0,,15.9,4.3,29.78,1009.3,,,,,,,,,,,,,,,,23000.0,16000.0,SCT,16000.0,BKN,23000.0,,,,
KRDR,11-06-2020,01:56,METAR,Normal,210,11.0,,,9999.0,,15.6,5.8,29.77,1009.2,,,,,,,,,,,,,,,,23000.0,16000.0,SCT,16000.0,BKN,23000.0,,,,
KRDR,11-06-2020,00:56,METAR,Normal,210,12.0,,,9999.0,,15.0,6.3,29.78,1009.6,,,,,,,,,,,,,,,,23000.0,16000.0,SCT,16000.0,BKN,23000.0,,,,
KRDR,11-05-2020,23:56,METAR,Normal,200,10.0,,,9999.0,,14.0,5.9,29.79,1009.9,,,,,,,,,,,,,,,4/8 Partly Cloudy,72000.0,16000.0,SCT,16000.0,SCT,23000.0,,,,
KRDR,11-05-2020,22:56,METAR,Normal,200,10.0,,,9999.0,,14.8,4.8,29.80,1010.2,,,,,,,,,,,,,,,,23000.0,16000.0,SCT,16000.0,BKN,23000.0,,,,
KRDR,11-05-2020,21:56,METAR,Normal,200,12.0,,,9999.0,,14.2,4.5,29.83,1011.2,,,,,,,,,,,,,,,,20000.0,16000.0,SCT,16000.0,BKN,20000.0,OVC,23000.0,,
KRDR,11-05-2020,20:56,METAR,Normal,200,15.0,20.0,,9999.0,,14.3,3.1,29.85,1011.9,,,,,,,,,,,,,,,,16000.0,16000.0,BKN,16000.0,OVC,18000.0,,,,
KRDR,11-05-2020,19:56,METAR,Normal,190,12.0,,,9999.0,,13.4,2.9,29.91,1013.9,,,,,,,,,,,,,,,,13000.0,13000.0,BKN,13000.0,OVC,17000.0,,,,
KRDR,11-05-2020,18:56,METAR,Normal,200,16.0,19.0,,9999.0,,12.4,2.3,29.96,1015.5,,,,,,,,,,,,,,,,19000.0,16000.0,FEW,16000.0,OVC,19000.0,,,,
KRDR,11-05-2020,17:56,METAR,Normal,200,10.0,,,9999.0,,10.0,2.1,30.01,1017.2,,,,,,,,,,,,,,,,21000.0,19000.0,SCT,19000.0,OVC,21000.0,,,,
KRDR,11-05-2020,16:56,METAR,Normal,200,9.0,,,9999.0,,7.1,2.2,30.05,1018.5,,,,,,,,,,,,,,,,20000.0,16000.0,FEW,16000.0,OVC,20000.0,,,,
KRDR,11-05-2020,15:56,METAR,Normal,180,6.0,,,9999.0,,5.7,1.8,30.07,1019.2,,,,,,,,,,,,,,,,20000.0,15000.0,FEW,15000.0,OVC,20000.0,,,,
KRDR,11-05-2020,14:56,METAR,Calm,,0.0,,,9999.0,,2.9,1.1,30.10,1020.3,,,,,,,,,,,,,,,,24000.0,15000.0,SCT,15000.0,BKN,24000.0,,,,
KRDR,11-05-2020,13:56,METAR,Normal,270,3.0,,,9999.0,,-2.3,-2.7,30.11,1020.8,,,,,,,,,,,,,,,Clear,72000.0,,,,,,,,,
KRDR,11-05-2020,12:56,METAR,Calm,,0.0,,,9999.0,,-2.6,-3.2,30.10,1020.5,,,,,,,,,,,,,,,Clear,72000.0,,,,,,,,,
KRDR,11-05-2020,11:56,METAR,Normal,310,6.0,,,9999.0,,-0.3,-1.4,30.10,1020.3,,,,,,,,,,,,,,,Clear,72000.0,,,,,,,,,
KRDR,11-05-2020,10:56,METAR,Normal,300,3.0,,,9999.0,,-1.1,-2.2,30.07,1019.3,,,,,,,,,,,,,,,Clear,72000.0,,,,,,,,,
KRDR,11-05-2020,09:56,METAR,Normal,310,5.0,,,9999.0,,1.9,-0.7,30.08,1019.5,,,,,,,,,,,,,,,Clear,72000.0,,,,,,,,,
KRDR,11-05-2020,08:56,METAR,Normal,300,6.0,,,9999.0,,0.4,-1.4,30.08,1019.5,,,,,,,,,,,,,,,Clear,72000.0,,,,,,,,,
KRDR,11-05-2020,07:56,METAR,Normal,310,5.0,,,9999.0,,2.7,-0.6,30.05,1018.4,,,,,,,,,,,,,,,Clear,72000.0,,,,,,,,,
KRDR,11-05-2020,06:56,METAR,Normal,10,7.0,,,9999.0,,6.8,0.2,30.02,,,,,,,,,,,,,,,,Clear,72000.0,,,,,,,,,
KRDR,11-05-2020,05:56,METAR,Normal,330,11.0,,,9999.0,,10.7,1.2,29.98,1015.8,,,,,,,,,,,,,,,Clear,72000.0,,,,,,,,,
KRDR,11-05-2020,04:56,METAR,Normal,320,12.0,,,9999.0,,12.9,2.2,29.94,1014.4,,,,,,,,,,,,,,,2/8 Mostly Clear,72000.0,22000.0,FEW,22000.0,,,,,,
KRDR,11-05-2020,03:56,METAR,Normal,320,15.0,23.0,,9999.0,,15.9,2.7,29.90,1013.1,,,,,,,,,,,,,,,,22000.0,22000.0,BKN,22000.0,,,,,,
KRDR,11-05-2020,02:56,METAR,Normal,310,13.0,,,9999.0,,15.5,3.3,29.87,1012.2,,,,,,,,,,,,,,,4/8 Partly Cloudy,72000.0,21000.0,SCT,21000.0,,,,,,
KRDR,11-05-2020,01:56,METAR,Normal,290,12.0,,,9999.0,,16.6,2.9,29.85,1011.7,,,,,,,,,,,,,,,,21000.0,21000.0,BKN,21000.0,,,,,,
KRDR,11-05-2020,00:56,METAR,Normal,300,11.0,19.0,,9999.0,,17.8,2.9,29.82,1010.6,,,,,,,,,,,,,,,,21000.0,21000.0,BKN,21000.0,,,,,,
KRDR,11-04-2020,23:56,METAR,Normal,290,16.0,22.0,,9999.0,,18.4,2.2,29.80,1010.0,,,,,,,,,,,,,,,,21000.0,21000.0,BKN,21000.0,,,,,,
KRDR,11-04-2020,22:56,METAR,Normal,290,15.0,22.0,,9999.0,,19.5,1.5,29.78,1009.3,,,,,,,,,,,,,,,,22000.0,19000.0,SCT,19000.0,BKN,22000.0,,,,
KRDR,11-04-2020,21:56,METAR,Normal,280,14.0,21.0,,9999.0,,20.8,1.1,29.76,1008.6,,,,,,,,,,,,,,,,22000.0,19000.0,SCT,19000.0,BKN,22000.0,,,,
KRDR,11-04-2020,20:56,METAR,Normal,280,10.0,,,9999.0,,21.6,-0.4,29.75,1008.3,,,,,,,,,,,,,,,,22000.0,18000.0,FEW,18000.0,BKN,22000.0,,,,
KRDR,11-04-2020,19:56,METAR,Normal,300,13.0,19.0,290/26KTS,9999.0,,22.3,-1.1,29.74,1007.9,,,,,,,,,,,,,,,,22000.0,22000.0,BKN,22000.0,,,,,,
KRDR,11-04-2020,19:19,SPECI,Normal,300,14.0,21.0,,9999.0,,23.0,-2.0,29.73,1007.6,,,,,,,,,,,,,,,,22000.0,22000.0,BKN,22000.0,,,,,,
KRDR,11-04-2020,18:55,METAR,Normal,260,14.0,,,9999.0,,21.0,-1.0,29.76,,,,,,,,,,,,,,,,,22000.0,22000.0,BKN,22000.0,,,,,,
KRDR,11-04-2020,17:56,METAR,Normal,280,13.0,,,9999.0,,20.5,-2.0,29.74,1007.9,,,,,,,,,,,,,,,,22000.0,22000.0,BKN,22000.0,,,,,,
KRDR,11-04-2020,16:56,METAR,Normal,270,9.0,,,9999.0,,18.7,-1.7,29.73,1007.5,,,,,,,,,,,,,,,,22000.0,18000.0,FEW,18000.0,BKN,22000.0,,,,
KRDR,11-04-2020,15:56,METAR,Normal,280,10.0,,,9999.0,,15.7,-1.4,29.74,1007.8,,,,,,,,,,,,,,,Clear,72000.0,,,,,,,,,
KRDR,11-04-2020,14:56,METAR,Normal,230,5.0,,,9999.0,,10.7,-0.5,29.73,1007.7,,,,,,,,,,,,,,,Clear,72000.0,,,,,,,,,
KRDR,11-04-2020,13:56,METAR,Normal,190,6.0,,,9999.0,,3.4,-1.6,29.72,1007.5,,,,,,,,,,,,,,,Clear,72000.0,,,,,,,,,
KRDR,11-04-2020,12:56,METAR,Normal,210,7.0,,,9999.0,,3.1,-2.0,29.71,1007.1,,,,,,,,,,,,,,,Clear,72000.0,,,,,,,,,
KRDR,11-04-2020,11:56,METAR,Calm,,0.0,,,9999.0,,3.1,-2.4,29.72,1007.4,,,,,,,,,,,,,,.06 IN,Clear,72000.0,,,,,,,,,
KRDR,11-04-2020,10:56,METAR,Normal,260,8.0,,,9999.0,,1.8,-2.3,29.71,1006.9,,,,,,,,,,,,,,,Clear,72000.0,,,,,,,,,
KRDR,11-04-2020,09:56,METAR,Normal,250,4.0,,,9999.0,,1.0,-2.6,29.72,1007.2,,,,,,,,,,,,,,,Clear,72000.0,,,,,,,,,
KRDR,11-04-2020,08:56,METAR,Normal,220,6.0,,,9999.0,,-0.2,-3.4,29.72,1007.2,,,,,,,,,,,,,,,Clear,72000.0,,,,,,,,,
KRDR,11-04-2020,07:56,METAR,Normal,230,5.0,,,9999.0,,0.2,-3.4,29.72,1007.2,,,,,,,,,,,,,,,Clear,72000.0,,,,,,,,,
KRDR,11-04-2020,06:56,METAR,Normal,210,4.0,,,9999.0,,-0.6,-3.6,29.71,1006.9,,,,,,,,,,,,,,,Clear,72000.0,,,,,,,,,
KRDR,11-04-2020,05:56,METAR,Calm,,0.0,,,9999.0,,1.0,-3.3,29.71,1006.9,,,,,,,,,,,,,,,Clear,72000.0,,,,,,,,,
KRDR,11-04-2020,04:56,METAR,Calm,,0.0,,,9999.0,,5.7,-3.1,29.70,1006.5,,,,,,,,,,,,,,,Clear,72000.0,,,,,,,,,
KRDR,11-04-2020,03:56,METAR,Normal,270,7.0,,,9999.0,,6.8,-2.6,29.67,1005.5,,,,,,,,,,,,,,,Clear,72000.0,,,,,,,,,
KRDR,11-04-2020,02:56,METAR,Normal,270,6.0,,,9999.0,,6.7,-2.2,29.67,1005.6,,,,,,,,,,,,,,,Clear,72000.0,,,,,,,,,
KRDR,11-04-2020,01:56,METAR,Normal,270,6.0,,,9999.0,,10.7,-2.0,29.66,1005.3,,,,,,,,,,,,,,,Clear,72000.0,,,,,,,,,
KRDR,11-03-2020,23:56,METAR,Normal,260,8.0,,,9999.0,,13.3,-1.5,29.65,1004.9,,,,,,,,,,,,,,,2/8 Mostly Clear,72000.0,2500.0,FEW,2500.0,,,,,,
KRDR,11-03-2020,22:56,METAR,Normal,280,6.0,,,9999.0,,17.2,-1.0,29.65,1004.7,,,,,,,,,,,,,,,2/8 Mostly Clear,72000.0,2500.0,FEW,2500.0,,,,,,
KRDR,11-03-2020,21:56,METAR,Normal,270,12.0,,,9999.0,,20.3,-1.5,29.64,1004.2,,,,,,,,,,,,,,,2/8 Mostly Clear,72000.0,2500.0,FEW,2500.0,,,,,,
KRDR,11-03-2020,20:56,METAR,Normal,270,12.0,,,9999.0,,21.7,-1.0,29.63,1003.8,,,,,,,,,,,,,,,2/8 Mostly Clear,72000.0,2500.0,FEW,2500.0,,,,,,
KRDR,11-03-2020,19:56,METAR,Normal,270,12.0,,,9999.0,,21.4,-1.2,29.64,1004.2,,,,,,,,,,,,,,,2/8 Mostly Clear,72000.0,2500.0,FEW,2500.0,,,,,,
KRDR,11-03-2020,18:56,METAR,Normal,260,11.0,16.0,,9999.0,,19.9,-0.2,29.65,1004.6,,,,,,,,,,,,,,,2/8 Mostly Clear,72000.0,500.0,FEW,500.0,,,,,,
KRDR,11-03-2020,17:56,METAR,Normal,260,11.0,,,9999.0,,19.2,0.2,29.66,1005.1,,,,,,,,,,,,,,,2/8 Mostly Clear,72000.0,300.0,FEW,300.0,FEW,25000.0,,,,
KRDR,11-03-2020,16:56,METAR,Normal,280,9.0,,,9999.0,,17.2,0.4,29.67,1005.4,,,,,,,,,,,,,,,2/8 Mostly Clear,72000.0,25000.0,FEW,25000.0,,,,,,
KRDR,11-03-2020,15:56,METAR,Normal,280,10.0,,,9999.0,,15.2,0.6,29.67,1005.5,,,,,,,,,,,,,,,2/8 Mostly Clear,72000.0,0.0,FEW,0.0,FEW,25000.0,,,,
KRDR,11-03-2020,14:56,METAR,Normal,260,4.0,,,9999.0,,12.1,1.1,29.68,1006.0,,,,,,,,,,,,,,,2/8 Mostly Clear,72000.0,25000.0,FEW,25000.0,,,,,,
KRDR,11-03-2020,13:56,METAR,Normal,240,9.0,,,9999.0,,6.8,1.3,29.67,1005.7,,,,,,,,,,,,,,,Clear,72000.0,,,,,,,,,
KRDR,11-03-2020,12:56,METAR,Normal,260,7.0,,,9999.0,,5.1,1.2,29.67,1005.9,,,,,,,,,,,,,,,Clear,72000.0,,,,,,,,,
KRDR,11-03-2020,11:56,METAR,Normal,260,9.0,,,9999.0,,7.4,1.3,29.69,1006.4,,,,,,,,,,,,,,,Clear,72000.0,,,,,,,,,
KRDR,11-03-2020,10:56,METAR,Normal,240,7.0,,,9999.0,,8.6,1.3,29.69,1006.2,,,,,,,,,,,,,,,Clear,72000.0,,,,,,,,,
KRDR,11-03-2020,09:56,METAR,Normal,250,9.0,,,9999.0,,9.3,1.2,29.71,1006.8,,,,,,,,,,,,,,,Clear,72000.0,,,,,,,,,
KRDR,11-03-2020,08:56,METAR,Normal,250,10.0,,,9999.0,,11.0,1.5,29.71,1006.7,,,,,,,,,,,,,,,Clear,72000.0,,,,,,,,,
KRDR,11-03-2020,07:56,METAR,Normal,240,13.0,,,9999.0,,10.5,1.8,29.73,1007.4,,,,,,,,,,,,,,,Clear,72000.0,,,,,,,,,
KRDR,11-03-2020,06:56,METAR,Normal,230,12.0,,,9999.0,,10.7,2.0,29.73,1007.4,,,,,,,,,,,,,,,Clear,72000.0,,,,,,,,,
KRDR,11-03-2020,05:56,METAR,Normal,190,11.0,,,9999.0,,7.6,1.9,29.78,1009.3,,,,,,,,,,,,,,,Clear,72000.0,,,,,,,,,
KRDR,11-03-2020,04:56,METAR,Normal,200,10.0,,,9999.0,,9.2,1.4,29.81,1010.3,,,,,,,,,,,,,,,2/8 Mostly Clear,72000.0,24000.0,FEW,24000.0,,,,,,
KRDR,11-03-2020,03:56,METAR,Normal,210,8.0,,,9999.0,,8.6,1.5,29.84,1011.4,,,,,,,,,,,,,,,2/8 Mostly Clear,72000.0,8000.0,FEW,8000.0,FEW,24000.0,,,,
KRDR,11-03-2020,02:56,METAR,Normal,210,8.0,,,9999.0,,6.4,1.7,29.86,1012.3,,,,,,,,,,,,,,,2/8 Mostly Clear,72000.0,24000.0,FEW,24000.0,,,,,,
KRDR,11-03-2020,01:56,METAR,Normal,210,9.0,,,9999.0,,9.1,2.6,29.89,1013.4,,,,,,,,,,,,,,,2/8 Mostly Clear,72000.0,8000.0,FEW,8000.0,FEW,24000.0,,,,
KRDR,11-03-2020,00:56,METAR,Normal,200,9.0,,,9999.0,,7.2,1.5,29.91,1014.1,,,,,,,,,,,,,,,2/8 Mostly Clear,72000.0,8000.0,FEW,8000.0,FEW,24000.0,,,,
KRDR,11-02-2020,23:56,METAR,Normal,210,7.0,,,9999.0,,8.5,1.9,29.94,1015.1,,,,,,,,,,,,,,,2/8 Mostly Clear,72000.0,8000.0,FEW,8000.0,FEW,24000.0,,,,
KRDR,11-02-2020,22:56,METAR,Normal,230,5.0,,,9999.0,,13.3,2.2,29.95,1015.3,,,,,,,,,,,,,,,2/8 Mostly Clear,72000.0,8000.0,FEW,8000.0,FEW,24000.0,,,,
KRDR,11-02-2020,21:56,METAR,Normal,270,6.0,,,9999.0,,17.4,2.2,29.97,1015.8,,,,,,,,,,,,,,,2/8 Mostly Clear,72000.0,8000.0,FEW,8000.0,FEW,25000.0,,,,
KRDR,11-02-2020,20:56,METAR,Normal,320,12.0,,,9999.0,,17.7,2.0,29.99,1016.4,,,,,,,,,,,,,,,2/8 Mostly Clear,72000.0,15000.0,FEW,15000.0,,,,,,
KRDR,11-02-2020,19:56,METAR,Normal,320,11.0,,,9999.0,,17.2,1.6,29.98,1016.1,,,,,,,,,,,,,,,2/8 Mostly Clear,72000.0,18000.0,FEW,18000.0,,,,,,
KRDR,11-02-2020,18:56,METAR,Normal,310,10.0,,,9999.0,,15.8,1.1,29.99,1016.6,,,,,,,,,,,,,,,4/8 Partly Cloudy,72000.0,18000.0,FEW,18000.0,SCT,25000.0,,,,
KRDR,11-02-2020,17:56,METAR,Normal,300,11.0,,,9999.0,,14.3,-0.6,30.02,1017.7,,,,,,,,,,,,,,,,25000.0,0.0,FEW,0.0,BKN,25000.0,,,,
KRDR,11-02-2020,16:56,METAR,Normal,310,11.0,,,9999.0,,11.8,-0.7,30.04,1018.4,,,,,,,,,,,,,,,2/8 Mostly Clear,72000.0,25000.0,FEW,25000.0,,,,,,
KRDR,11-02-2020,15:56,METAR,Normal,300,10.0,,,9999.0,,9.4,-0.5,30.04,1018.6,,,,,,,,,,,,,,,2/8 Mostly Clear,72000.0,25000.0,FEW,25000.0,,,,,,
KRDR,11-02-2020,14:56,METAR,Normal,270,10.0,,,9999.0,,6.3,-0.7,30.03,1018.4,,,,,,,,,,,,,,,Clear,72000.0,,,,,,,,,
KRDR,11-02-2020,13:56,METAR,Normal,280,7.0,,,9999.0,,3.4,-1.2,30.04,1018.8,,,,,,,,,,,,,,,Clear,72000.0,,,,,,,,,
KRDR,11-02-2020,12:56,METAR,Normal,280,10.0,,,9999.0,,3.3,-1.3,30.04,1018.8,,,,,,,,,,,,,,,Clear,72000.0,,,,,,,,,
KRDR,11-02-2020,11:56,METAR,Normal,290,8.0,,,9999.0,,3.0,-1.4,30.04,1018.8,,,,,,,,,,,,,,,Clear,72000.0,,,,,,,,,
KRDR,11-02-2020,10:56,METAR,Normal,280,7.0,,,9999.0,,2.3,-1.7,30.04,1018.8,,,,,,,,,,,,,,,Clear,72000.0,,,,,,,,,
KRDR,11-02-2020,09:56,METAR,Normal,280,11.0,,,9999.0,,4.7,-1.5,30.04,1018.6,,,,,,,,,,,,,,,Clear,72000.0,,,,,,,,,
KRDR,11-02-2020,08:56,METAR,Normal,280,12.0,,,9999.0,,4.4,-1.8,30.04,1018.6,,,,,,,,,,,,,,,Clear,72000.0,,,,,,,,,
KRDR,11-02-2020,07:56,METAR,Normal,270,14.0,,,9999.0,,4.4,-2.0,30.03,1018.3,,,,,,,,,,,,,,,Clear,72000.0,,,,,,,,,
KRDR,11-02-2020,06:56,METAR,Normal,250,10.0,,,9999.0,,2.8,-2.1,30.05,1019.1,,,,,,,,,,,,,,,Clear,72000.0,,,,,,,,,
KRDR,11-02-2020,05:56,METAR,Normal,250,10.0,,,9999.0,,2.6,-2.5,30.07,1019.8,,,,,,,,,,,,,,,Clear,72000.0,,,,,,,,,
KRDR,11-02-2020,04:56,METAR,Normal,230,14.0,,,9999.0,,1.9,-2.6,30.09,1020.5,,,,,,,,,,,,,,,Clear,72000.0,,,,,,,,,
KRDR,11-02-2020,03:56,METAR,Normal,190,10.0,,,9999.0,,0.5,-2.9,30.13,1022.0,,,,,,,,,,,,,,,Clear,72000.0,,,,,,,,,
KRDR,11-02-2020,02:56,METAR,Normal,180,10.0,,,9999.0,,-1.1,-3.8,30.16,1023.2,,,,,,,,,,,,,,,Clear,72000.0,,,,,,,,,
KRDR,11-02-2020,01:56,METAR,Normal,190,9.0,,,9999.0,,-0.3,-3.8,30.20,1024.7,,,,,,,,,,,,,,,Clear,72000.0,,,,,,,,,
KRDR,11-02-2020,00:56,METAR,Normal,190,10.0,,,9999.0,,0.3,-4.3,30.22,1025.4,,,,,,,,,,,,,,,Clear,72000.0,,,,,,,,,
KRDR,11-01-2020,23:56,METAR,Normal,190,9.0,,,9999.0,,0.1,-5.1,30.23,1025.8,,,,,,,,,,,,,,,Clear,72000.0,,,,,,,,,
KRDR,11-01-2020,22:56,METAR,Normal,190,10.0,,,9999.0,,2.6,-6.3,30.26,1026.7,,,,,,,,,,,,,,,Clear,72000.0,,,,,,,,,
KRDR,11-01-2020,21:56,METAR,Normal,200,9.0,,,9999.0,,3.7,-7.1,30.29,1027.6,,,,,,,,,,,,,,,Clear,72000.0,,,,,,,,,
KRDR,11-01-2020,20:56,METAR,Normal,220,14.0,,,9999.0,,4.5,-8.3,30.32,1028.5,,,,,,,,,,,,,,,Clear,72000.0,,,,,,,,,
KRDR,11-01-2020,19:56,METAR,Normal,230,10.0,,,9999.0,,3.4,-7.7,30.35,1029.6,,,,,,,,,,,,,,,4/8 Partly Cloudy,72000.0,17000.0,SCT,17000.0,,,,,,
KRDR,11-01-2020,18:56,METAR,Normal,240,11.0,,,9999.0,,1.5,-7.1,30.39,1030.9,,,,,,,,,,,,,,,2/8 Mostly Clear,72000.0,18000.0,FEW,18000.0,,,,,,
KRDR,11-01-2020,17:56,METAR,Normal,230,8.0,,,9999.0,,0.6,-7.4,30.43,1032.4,,,,,,,,,,,,,,,,19000.0,19000.0,BKN,19000.0,,,,,,
KRDR,11-01-2020,16:56,METAR,Normal,230,6.0,,,9999.0,,-0.9,-8.1,30.44,1032.7,,,,,,,,,,,,,,,2/8 Mostly Clear,72000.0,21000.0,FEW,21000.0,,,,,,
KRDR,11-01-2020,15:56,METAR,Normal,250,3.0,,,9999.0,,-1.7,-7.8,30.45,1033.1,,,,,,,,,,,,,,,2/8 Mostly Clear,72000.0,21000.0,FEW,21000.0,,,,,,
KRDR,11-01-2020,14:56,METAR,Normal,270,6.0,,,9999.0,,-5.0,-7.8,30.44,1032.9,,,,,,,,,,,,,,,Clear,72000.0,,,,,,,,,
KRDR,11-01-2020,13:56,METAR,Normal,250,5.0,,,9999.0,,-8.7,-10.3,30.43,1032.6,,,,,,,,,,,,,,,Clear,72000.0,,,,,,,,,
KRDR,11-01-2020,12:56,METAR,Normal,280,4.0,,,9999.0,,-10.8,-11.5,30.41,1032.0,,,,,,,,,,,,,,,Clear,72000.0,,,,,,,,,
KRDR,11-01-2020,11:56,METAR,Normal,310,6.0,,,9999.0,,-10.1,-11.0,30.40,1031.6,,,,,,,,,,,,,,,Clear,72000.0,,,,,,,,,
KRDR,11-01-2020,10:56,METAR,Normal,310,8.0,,,9999.0,,-8.9,-10.0,30.37,1030.5,,,,,,,,,,,,,,,Clear,72000.0,,,,,,,,,
KRDR,11-01-2020,09:56,METAR,Normal,320,7.0,,,9999.0,,-7.1,-9.4,30.35,1029.7,,,,,,,,,,,,,,,Clear,72000.0,,,,,,,,,
KRDR,11-01-2020,08:56,METAR,Normal,340,8.0,,,9999.0,,-6.0,-9.1,30.33,1029.0,,,,,,,,,,,,,,,Clear,72000.0,,,,,,,,,
KRDR,11-01-2020,07:56,METAR,Normal,320,13.0,,,9999.0,,-5.0,-9.1,30.31,1028.2,,,,,,,,,,,,,,,Clear,72000.0,,,,,,,,,
KRDR,11-01-2020,06:56,METAR,Normal,330,16.0,20.0,,9999.0,,-4.8,-8.9,30.28,1027.1,,,,,,,,,,,,,,,Clear,72000.0,,,,,,,,,
KRDR,11-01-2020,05:56,METAR,Normal,340,16.0,28.0,360/28KTS,9999.0,,-4.1,-9.0,30.26,1026.4,,,,,,,,,,,,,,,4/8 Partly Cloudy,72000.0,2900.0,SCT,2900.0,,,,,,
KRDR,11-01-2020,05:32,SPECI,Normal,350,19.0,28.0,,9999.0,,-3.0,-9.0,30.25,1026.0,,,,,,,,,,,,,,,,3000.0,3000.0,OVC,3000.0,,,,,,
KRDR,11-01-2020,04:56,METAR,Normal,360,17.0,21.0,,9999.0,,-3.3,-7.6,30.23,1025.3,,,,,,,,,,,,,,,,2700.0,2800.0,BKN,2800.0,OVC,3600.0,,,,
KRDR,11-01-2020,04:25,SPECI,Normal,360,15.0,22.0,,9999.0,,-3.0,-7.0,30.21,1024.6,,,,,,,,,,,,,,,,2800.0,2800.0,BKN,2800.0,OVC,3500.0,,,,
KRDR,11-01-2020,03:56,METAR,Normal,350,11.0,,,9999.0,,-2.8,-7.2,30.18,1023.6,,,,,,,,,,,,,,,,3700.0,3700.0,BKN,3700.0,,,,,,
KRDR,11-01-2020,02:56,METAR,Normal,340,13.0,,340/26KTS,9999.0,,-2.1,-7.4,30.14,1022.2,,,,,,,,,,,,,,,,3600.0,3600.0,BKN,3600.0,,,,,,
KRDR,11-01-2020,01:56,METAR,Normal,340,19.0,25.0,340/28KTS,9999.0,,-0.5,-7.1,30.09,1020.4,,,,,,,,,,,,,,,,3500.0,3500.0,OVC,3500.0,,,,,,
KRDR,11-01-2020,00:56,METAR,Normal,330,22.0,31.0,350/36KTS,9999.0,,-0.1,-7.8,30.04,1018.7,,,,,,,,,,,,,,,,3800.0,3800.0,OVC,3800.0,,,,,,
KRDR,10-31-2020,23:56,METAR,Normal,340,25.0,37.0,330/39KTS,9999.0,,-0.1,-7.6,29.98,1016.6,,,,,,,,,,,,,,,,3900.0,3900.0,OVC,3900.0,,,,,,
KRDR,10-31-2020,22:56,METAR,Normal,320,25.0,35.0,340/41KTS,9999.0,,0.3,-8.4,29.93,1015.0,,,,,,,,,,,,,,,,4000.0,4000.0,OVC,4000.0,,,,,,
KRDR,10-31-2020,21:56,METAR,Normal,320,31.0,39.0,320/42KTS,9999.0,,1.3,-8.5,29.87,1013.0,,,,,,,,,,,,,,,,4300.0,4300.0,OVC,4300.0,,,,,,
KRDR,10-31-2020,20:56,METAR,Normal,320,25.0,32.0,320/36KTS,9999.0,,2.5,-7.1,29.82,1011.2,,,,,,,,,,,,,,,,4200.0,4200.0,BKN,4200.0,OVC,5000.0,,,,
KRDR,10-31-2020,19:56,METAR,Normal,310,22.0,37.0,300/40KTS,9999.0,,3.7,-5.3,29.77,1009.4,,,,,,,,,,,,,,,,4400.0,4400.0,OVC,4400.0,,,,,,
KRDR,10-31-2020,18:56,METAR,Normal,300,22.0,33.0,310/36KTS,9999.0,,4.3,-4.4,29.75,1008.7,,,,,,,,,,,,,,,,4200.0,4200.0,OVC,4200.0,,,,,,
KRDR,10-31-2020,17:56,METAR,Normal,300,25.0,32.0,300/37KTS,9999.0,,4.3,-3.9,29.73,1008.0,,,,,,,,,,,,,,,,3800.0,3800.0,OVC,3800.0,,,,,,
KRDR,10-31-2020,16:56,METAR,Normal,300,25.0,35.0,300/35KTS,9999.0,,5.5,-2.3,29.69,1006.6,,,,,,,,,,,,,,,,3800.0,3800.0,OVC,3800.0,,,,,,
KRDR,10-31-2020,15:56,METAR,Normal,310,20.0,31.0,310/35KTS,9999.0,,5.7,-0.4,29.67,1005.9,,,,,,,,,,,,,,,,3400.0,3400.0,OVC,3400.0,,,,,,
KRDR,10-31-2020,15:36,SPECI,Normal,310,20.0,35.0,,9999.0,,5.0,0.0,29.65,1005.3,,,,,,,,,,,,,,,,3000.0,3000.0,OVC,3000.0,,,,,,
KRDR,10-31-2020,14:56,METAR,Normal,310,22.0,30.0,300/34KTS,9999.0,,5.5,0.9,29.64,1004.9,,,,,,,,,,,,,,,,2600.0,2600.0,OVC,2600.0,,,,,,
KRDR,10-31-2020,14:16,SPECI,Normal,290,18.0,25.0,,9999.0,,6.0,3.0,29.60,1003.5,,,,,,,,,,,,,,,,2300.0,2300.0,BKN,2300.0,,,,,,
KRDR,10-31-2020,13:56,METAR,Normal,310,16.0,23.0,290/28KTS,9999.0,,6.3,3.8,29.58,1002.9,,,,,,,,,,,,,,,Clear,72000.0,,,,,,,,,
KRDR,10-31-2020,12:56,METAR,Normal,260,13.0,,,9999.0,,5.6,4.6,29.53,1001.2,,,,,,,,,,,,,,,2/8 Mostly Clear,72000.0,16000.0,FEW,16000.0,,,,,,
KRDR,10-31-2020,11:56,METAR,Normal,250,10.0,,,9999.0,,4.9,4.5,29.51,1000.5,,,,,,,,,,,,,,,2/8 Mostly Clear,72000.0,16000.0,FEW,16000.0,,,,,,
KRDR,10-31-2020,10:56,METAR,Normal,210,12.0,,,9999.0,,3.3,3.2,29.50,1000.2,,,,,,,,,,,,,,,,23000.0,20000.0,SCT,20000.0,BKN,23000.0,,,,
KRDR,10-31-2020,09:56,METAR,Normal,190,12.0,,,9999.0,,3.2,3.1,29.48,999.5,,,,,,,,,,,,,,,Clear,72000.0,,,,,,,,,
KRDR,10-31-2020,08:56,METAR,Normal,190,13.0,,,9999.0,,3.0,2.9,29.52,1000.9,,,,,,,,,,,,,,,4/8 Partly Cloudy,72000.0,10000.0,SCT,10000.0,,,,,,
KRDR,10-31-2020,07:56,METAR,Normal,200,17.0,23.0,190/33KTS,9999.0,,3.3,2.6,29.57,1002.7,,,,,,,,,,,,,,,4/8 Partly Cloudy,72000.0,10000.0,SCT,10000.0,,,,,,
KRDR,10-31-2020,06:56,METAR,Normal,180,22.0,29.0,180/31KTS,9999.0,,3.5,2.6,29.53,1001.4,,,,,,,,,,,,,,,2/8 Mostly Clear,72000.0,18000.0,FEW,18000.0,,,,,,
KRDR,10-31-2020,05:56,METAR,Normal,170,20.0,30.0,180/32KTS,9999.0,,3.3,2.4,29.59,1003.4,,,,,,,,,,,,,,,2/8 Mostly Clear,72000.0,18000.0,FEW,18000.0,,,,,,
KRDR,10-31-2020,04:56,METAR,Normal,170,23.0,33.0,190/34KTS,9999.0,,3.5,2.3,29.65,1005.5,,,,,,,,,,,,,,,,18000.0,18000.0,BKN,18000.0,,,,,,
KRDR,10-31-2020,03:56,METAR,Normal,170,23.0,30.0,190/32KTS,9999.0,,3.8,2.3,29.70,1007.2,,,,,,,,,,,,,,,,18000.0,18000.0,BKN,18000.0,,,,,,
KRDR,10-31-2020,02:56,METAR,Normal,170,22.0,29.0,160/33KTS,9999.0,,4.0,2.4,29.75,1008.9,,,,,,,,,,,,,,,,18000.0,18000.0,OVC,18000.0,,,,,,
KRDR,10-31-2020,01:56,METAR,Normal,170,21.0,27.0,180/28KTS,9999.0,,4.1,2.6,29.78,1010.0,,,,,,,,,,,,,,,,18000.0,15000.0,SCT,15000.0,BKN,18000.0,,,,
KRDR,10-31-2020,00:56,METAR,Normal,170,17.0,23.0,,9999.0,,4.1,3.2,29.85,1012.4,,,,,,,,,,,,,,,4/8 Partly Cloudy,72000.0,15000.0,SCT,15000.0,SCT,18000.0,,,,
KRDR,10-30-2020,23:56,METAR,Normal,170,13.0,,,9999.0,,4.8,3.0,29.88,1013.4,,,,,,,,,,,,,,,,15000.0,15000.0,BKN,15000.0,BKN,18000.0,,,,
KRDR,10-30-2020,22:56,METAR,Normal,170,13.0,,,9999.0,,5.3,3.0,29.92,1014.7,,,,,,,,,,,,,,,,15000.0,2300.0,FEW,2300.0,BKN,15000.0,BKN,18000.0,,
KRDR,10-30-2020,21:56,METAR,Normal,180,11.0,,,9999.0,,5.7,3.2,29.96,1016.0,,,,,,,,,,,,,,,,18000.0,2300.0,SCT,2300.0,BKN,18000.0,,,,
KRDR,10-30-2020,21:14,SPECI,Normal,170,12.0,,,9999.0,,6.0,3.0,29.99,1017.1,,,,,,,,,,,,,,,,18000.0,2000.0,SCT,2000.0,BKN,18000.0,,,,
KRDR,10-30-2020,20:57,METAR,Normal,170,9.0,,,9999.0,,5.2,3.2,30.00,1017.4,,,,,,,,,,,,,,,,1600.0,1600.0,BKN,1600.0,OVC,18000.0,,,,
KRDR,10-30-2020,19:58,METAR,Normal,170,10.0,,,9999.0,,2.3,2.2,30.04,1018.9,,,,,,,,,,,,,,,,500.0,700.0,BKN,700.0,,,,,,
KRDR,10-30-2020,19:35,SPECI,Normal,170,11.0,,,8000.0,Mist,1.0,1.0,30.06,1019.6,,,,10,,,,,,,,,,,,300.0,300.0,OVC,300.0,,,,,,
KRDR,10-30-2020,18:56,METAR,Normal,150,7.0,,,4800.0,Mist,0.7,0.7,30.08,1020.3,10,,,,,,,,,,,,,,,200.0,300.0,OVC,300.0,,,,,,
KRDR,10-30-2020,18:14,SPECI,Normal,160,8.0,,,1600.0,Mist,1.0,1.0,30.12,1021.6,,,,10,,,,,,,,,,,,400.0,500.0,OVC,500.0,,,,,,
KRDR,10-30-2020,17:54,METAR,Normal,190,8.0,,,4800.0,Mist,0.9,0.9,30.14,1022.3,10,,,,,,,,,,,,,,,400.0,400.0,OVC,400.0,,,,,,
KRDR,10-30-2020,16:59,METAR,Normal,170,6.0,,,4800.0,Mist,0.5,0.5,30.15,1022.7,10,,,,,,,,,,,,,,,200.0,300.0,OVC,300.0,,,,,,
KRDR,10-30-2020,16:37,SPECI,Normal,190,4.0,,,1600.0,Mist,0.0,0.0,30.15,1022.7,,,,10,,,,,,,,,,,,200.0,300.0,OVC,300.0,,,,,,
KRDR,10-30-2020,15:55,METAR,Normal,240,5.0,,,400.0,Fog with Rime,-0.1,-0.1,30.16,1023.1,35,,,,,,,,,,,,,,,100.0,400.0,OVC,400.0,,,,,,
KRDR,10-30-2020,15:28,SPECI,Normal,190,5.0,,,1600.0,Mist,0.0,0.0,30.17,1023.4,10,,,,,,,,,,,,,,,100.0,200.0,OVC,200.0,,,,,,
KRDR,10-30-2020,14:55,METAR,Normal,200,8.0,,,400.0,Fog with Rime,-0.8,-0.8,30.17,1023.4,35,,,,,,,,,,,,,,,100.0,100.0,OVC,100.0,,,,,,
KRDR,10-30-2020,13:57,METAR,Normal,160,3.0,,,400.0,Fog with Rime,-1.4,-1.4,30.16,1023.1,35,,,,,,,,,,,,,,,100.0,200.0,OVC,200.0,,,,,,
KRDR,10-30-2020,13:22,SPECI,Calm,,0.0,,,400.0,Fog with Rime,-2.0,-2.0,30.16,1023.2,35,,,,,,,,,,,,,,Sky Obscured (Unable to Estimate),100.0,100.0,,100.0,,,,,,
KRDR,10-30-2020,12:59,METAR,Calm,,0.0,,,2200.0,Mist,-1.9,-1.9,30.16,1023.2,,,,10,,,,,,,,,,,,200.0,200.0,OVC,200.0,,,,,,
KRDR,10-30-2020,11:56,METAR,Normal,240,5.0,,,800.0,Fog with Rime,-2.2,-2.2,30.16,1023.2,35,,,,,,,,,,,,TRACE,,,200.0,300.0,OVC,300.0,,,,,,
KRDR,10-30-2020,11:39,SPECI,Normal,240,3.0,,,800.0,Fog with Rime,-2.0,-2.0,30.16,1023.2,35,,,,,,,,,,,,,,,300.0,300.0,OVC,300.0,,,,,,
KRDR,10-30-2020,11:18,SPECI,Normal,220,5.0,,,1600.0,Mist,-2.0,-2.0,30.15,1022.8,,,,10,,,,,,,,,,,,200.0,400.0,OVC,400.0,,,,,,
KRDR,10-30-2020,11:14,SPECI,Normal,230,6.0,,,8000.0,Fog with Rime,-2.0,-2.0,30.15,1022.8,35,,,,,,,,,,,,,,,200.0,400.0,OVC,400.0,,,,,,
KRDR,10-30-2020,11:06,SPECI,Normal,210,5.0,,,9999.0,,-2.0,-2.0,30.15,1022.8,,,,,,,,,,,,,,,,100.0,500.0,OVC,500.0,,,,,,
KRDR,10-30-2020,10:56,METAR,Normal,210,4.0,,,9999.0,,-2.1,-2.1,30.15,1022.8,,,,,,,,,,,,,,,,200.0,400.0,OVC,400.0,,,,,,
KRDR,10-30-2020,09:56,METAR,Normal,170,5.0,,,9999.0,,-1.9,-1.9,30.13,1022.1,,,,,,,,,,,,,,,,400.0,400.0,BKN,400.0,OVC,2400.0,,,,
KRDR,10-30-2020,08:56,METAR,Normal,160,3.0,,,9999.0,,-1.9,-1.9,30.13,1022.1,,,,,,,,,,,,TRACE,,,,400.0,400.0,OVC,400.0,,,,,,
KRDR,10-30-2020,07:56,METAR,Normal,140,6.0,,,9999.0,,-1.8,-1.8,30.13,1022.1,,,,,,,,,,,,,,,,400.0,500.0,OVC,500.0,,,,,,
KRDR,10-30-2020,07:26,SPECI,Normal,140,5.0,,,9999.0,,-2.0,-2.0,30.13,1022.1,,,,,,,,,,,,,,,,500.0,500.0,BKN,500.0,OVC,2000.0,,,,
KRDR,10-30-2020,06:56,METAR,Normal,130,4.0,,,9999.0,,-1.8,-1.9,30.13,1022.1,,,,,,,,,,,TRACE,,,,,2000.0,500.0,FEW,500.0,OVC,2000.0,,,,
KRDR,10-30-2020,05:56,METAR,Normal,140,3.0,,,9999.0,Light Snow,-1.9,-2.0,30.12,1021.8,71,,,,,,,,,,.01 IN,,.02 IN,,,500.0,600.0,BKN,600.0,OVC,1500.0,,,,
KRDR,10-30-2020,05:47,SPECI,Normal,130,4.0,,,9999.0,Light Snow,-2.0,-2.0,30.11,1021.5,71,,,,,,,,,,,,,,,500.0,600.0,BKN,600.0,OVC,1500.0,,,,
KRDR,10-30-2020,04:55,METAR,Normal,150,6.0,,,9999.0,Light Snow,-1.9,-2.0,30.11,1021.5,,,,71,,,,,,,TRACE,,,,,800.0,1600.0,OVC,1600.0,,,,,,
KRDR,10-30-2020,03:56,METAR,Normal,140,4.0,,,9999.0,Light Snow,-2.0,-2.1,30.10,1021.2,71,,,,,,,,,,.01 IN,,,,,1800.0,1900.0,OVC,1900.0,,,,,,
KRDR,10-30-2020,03:23,SPECI,Normal,160,5.0,,,8000.0,Light Snow/Mist,-2.0,-2.0,30.09,1020.8,71,10,,,,,,,,,,,,,,1800.0,1900.0,OVC,1900.0,,,,,,
KRDR,10-30-2020,02:56,METAR,Normal,150,6.0,,,9999.0,Light Snow,-1.5,-3.1,30.09,1020.8,,,,71,,,,,,,TRACE,TRACE,,,,1700.0,2200.0,OVC,2200.0,,,,,,
KRDR,10-30-2020,01:56,METAR,Normal,140,6.0,,,9999.0,Light Snow,-1.4,-3.9,30.09,1020.8,71,,,,,,,,,,TRACE,,,,,2100.0,2300.0,OVC,2300.0,,,,,,
KRDR,10-30-2020,01:46,SPECI,Normal,140,5.0,,,9999.0,Light Snow,-1.0,-4.0,30.09,1020.8,71,,,,,,,,,,,,,,,2100.0,2300.0,OVC,2300.0,,,,,,
KRDR,10-30-2020,00:56,METAR,Normal,150,8.0,,,9999.0,,-1.2,-4.9,30.08,1020.5,,,,,,,,,,,,,,,,2300.0,2400.0,OVC,2400.0,,,,,,
KRDR,10-29-2020,23:56,METAR,Normal,150,6.0,,,9999.0,,-1.4,-5.3,30.08,1020.5,,,,,,,,,,,,,,,,2400.0,2500.0,OVC,2500.0,,,,,,
KRDR,10-29-2020,23:26,SPECI,Normal,160,7.0,,,,Haze Smoke or Dust,-1.0,-5.0,30.08,1020.5,04,,,,,,,,,,,,,,,2400.0,,,,,,,,,
KRDR,10-29-2020,22:56,METAR,Normal,170,8.0,,,,Haze Smoke or Dust,-1.3,-5.5,30.08,1020.5,04,,,,,,,,,,,,,,,,,,,,,,,,
KRDR,10-29-2020,21:56,METAR,Normal,150,9.0,,,,Haze Smoke or Dust,-1.2,-6.4,30.07,1020.2,04,,,,,,,,,,,,,,,,,,,,,,,,
KRDR,10-29-2020,20:56,METAR,Normal,160,10.0,,,9999.0,,-1.0,-7.0,30.08,1020.5,,,,,,,,,,,,,,,,3500.0,2400.0,SCT,2400.0,OVC,3500.0,,,,
KRDR,10-29-2020,20:26,SPECI,Normal,170,11.0,,,9999.0,,-1.0,-7.0,30.09,1020.8,,,,,,,,,,,,,,,,3300.0,2400.0,SCT,2400.0,BKN,3300.0,OVC,4000.0,,
KRDR,10-29-2020,19:56,METAR,Normal,160,9.0,,,9999.0,,-1.0,-7.4,30.10,1021.1,,,,,,,,,,,,,,,,2300.0,2400.0,BKN,2400.0,OVC,3100.0,,,,
KRDR,10-29-2020,18:55,METAR,Normal,140,10.0,,,9999.0,,-1.6,-7.9,30.12,1021.9,,,,,,,,,,,,,,,,2400.0,2400.0,OVC,2400.0,,,,,,
KRDR,10-29-2020,17:56,METAR,Normal,160,9.0,,,9999.0,,-2.2,-8.1,30.15,1022.9,,,,,,,,,,,,,TRACE,,,2600.0,2700.0,BKN,2700.0,BKN,7000.0,,,,
KRDR,10-29-2020,16:56,METAR,Normal,180,10.0,,,9999.0,,-3.1,-8.2,30.18,1023.9,,,,,,,,,,,,,,,,2700.0,2700.0,BKN,2700.0,OVC,3900.0,,,,
KRDR,10-29-2020,15:59,METAR,Normal,150,9.0,,,9999.0,,-3.9,-8.0,30.18,1023.9,,,,,,,,,,,TRACE,,,,,3300.0,3300.0,BKN,3300.0,BKN,5000.0,,,,
KRDR,10-29-2020,14:57,METAR,Normal,150,7.0,,,9999.0,Light Snow,-4.3,-8.2,30.19,1024.3,71,,,,,,,,,,TRACE,TRACE,,,,4300.0,4300.0,BKN,4300.0,OVC,5000.0,,,,
KRDR,10-29-2020,14:43,SPECI,Normal,140,10.0,,,9999.0,Light Snow,-4.0,-8.0,30.19,1024.3,71,,,,,,,,,,,,,,,4800.0,4800.0,OVC,4800.0,,,,,,
KRDR,10-29-2020,13:56,METAR,Normal,150,7.0,,,9999.0,Light Snow,-4.5,-8.1,30.19,1024.3,71,,,,,,,,,,,,,,,2800.0,2800.0,BKN,2800.0,OVC,6000.0,,,,
KRDR,10-29-2020,13:26,SPECI,Normal,150,6.0,,,9999.0,,-4.0,-8.0,30.20,1024.6,,,,,,,,,,,,,,,,2700.0,2800.0,BKN,2800.0,BKN,3600.0,OVC,6000.0,,
KRDR,10-29-2020,12:56,METAR,Normal,150,4.0,,,9999.0,,-4.5,-8.3,30.19,1024.3,,,,,,,,,,,,,,,,6000.0,6000.0,OVC,6000.0,,,,,,
KRDR,10-29-2020,11:56,METAR,Normal,170,4.0,,,9999.0,,-4.6,-7.5,30.20,1024.6,,,,,,,,,,,,,,,,6000.0,2200.0,SCT,2200.0,OVC,6000.0,,,,
KRDR,10-29-2020,10:56,METAR,Normal,170,3.0,,,9999.0,,-4.8,-6.8,30.20,1024.5,,,,,,,,,,,,,,,,6000.0,2200.0,SCT,2200.0,OVC,6000.0,,,,
KRDR,10-29-2020,09:56,METAR,Calm,,0.0,,,9999.0,,-6.5,-7.5,30.21,1024.9,,,,,,,,,,,,,,,,3600.0,3600.0,BKN,3600.0,OVC,6500.0,,,,
KRDR,10-29-2020,08:56,METAR,Normal,100,3.0,,,9999.0,,-4.7,-7.5,30.22,1025.1,,,,,,,,,,,,,,,,3600.0,3600.0,OVC,3600.0,,,,,,
KRDR,10-29-2020,07:56,METAR,Normal,90,3.0,,,9999.0,,-3.9,-7.5,30.22,1025.1,,,,,,,,,,,,,,,,3600.0,3600.0,OVC,3600.0,,,,,,
KRDR,10-29-2020,06:56,METAR,Normal,80,4.0,,,9999.0,,-3.5,-6.6,30.23,,,,,,,,,,,,,,,,,3600.0,3600.0,OVC,3600.0,,,,,,
KRDR,10-29-2020,05:56,METAR,Calm,,0.0,,,9999.0,,-3.2,-6.0,30.23,1025.4,,,,,,,,,,,,,,,,3700.0,3700.0,OVC,3700.0,,,,,,
KRDR,10-29-2020,04:56,METAR,Calm,,0.0,,,9999.0,,-3.0,-5.3,30.23,1025.4,,,,,,,,,,,,,,,,3600.0,2500.0,FEW,2500.0,OVC,3600.0,,,,
KRDR,10-29-2020,03:56,METAR,Normal,40,4.0,,,9999.0,,-2.6,-5.6,30.22,1025.0,,,,,,,,,,,,,,,,3500.0,3500.0,OVC,3500.0,,,,,,
KRDR,10-29-2020,02:56,METAR,Normal,30,7.0,,,9999.0,,-2.4,-5.4,30.21,1024.6,,,,,,,,,,,,,,,,3600.0,3600.0,OVC,3600.0,,,,,,
KRDR,10-29-2020,01:56,METAR,Normal,30,10.0,,,9999.0,,-2.1,-4.9,30.19,1023.9,,,,,,,,,,,,,,,,4300.0,4300.0,OVC,4300.0,,,,,,
KRDR,10-29-2020,00:56,METAR,Normal,10,7.0,,,9999.0,,-1.8,-5.0,30.17,1023.2,,,,,,,,,,,,,,,,4900.0,4900.0,OVC,4900.0,,,,,,
KRDR,10-28-2020,23:56,METAR,Normal,20,12.0,,,9999.0,,-1.2,-4.9,30.13,1021.8,,,,,,,,,,,,,,,,4900.0,4900.0,BKN,4900.0,,,,,,
KRDR,10-28-2020,23:16,SPECI,Normal,20,13.0,,,9999.0,,-1.0,-5.0,30.12,1021.5,,,,,,,,,,,,,,,,4800.0,2400.0,SCT,2400.0,BKN,4800.0,,,,
KRDR,10-28-2020,22:56,METAR,Normal,10,14.0,,,9999.0,,0.1,-4.0,30.11,1021.1,,,,,,,,,,,,,,,,2300.0,2600.0,BKN,2600.0,BKN,4900.0,,,,
KRDR,10-28-2020,22:36,SPECI,Normal,20,12.0,,,9999.0,,0.0,-4.0,30.10,1020.7,,,,,,,,,,,,,,,,2300.0,2400.0,BKN,2400.0,BKN,4700.0,,,,
KRDR,10-28-2020,22:06,SPECI,Normal,350,14.0,,,9999.0,,1.0,-4.0,30.09,1020.5,,,,,,,,,,,,,,,,4800.0,2300.0,SCT,2300.0,OVC,4800.0,,,,
KRDR,10-28-2020,21:56,METAR,Normal,360,16.0,,,9999.0,,0.9,-3.2,30.09,1020.5,,,,,,,,,,,,,,,,2100.0,2100.0,BKN,2100.0,OVC,4800.0,,,,
KRDR,10-28-2020,21:26,SPECI,Normal,10,15.0,,,9999.0,,2.0,-3.0,30.07,1019.7,,,,,,,,,,,,,,,,2200.0,2200.0,BKN,2200.0,OVC,5000.0,,,,
KRDR,10-28-2020,21:06,SPECI,Normal,360,19.0,23.0,,9999.0,,3.0,-3.0,30.05,1019.0,,,,,,,,,,,,,,,,5000.0,2400.0,SCT,2400.0,OVC,5000.0,,,,
KRDR,10-28-2020,20:56,METAR,Normal,360,19.0,23.0,,9999.0,,2.5,-2.2,30.04,1018.7,,,,,,,,,,,,,,,,2300.0,2400.0,BKN,2400.0,BKN,5500.0,,,,
KRDR,10-28-2020,19:59,METAR,Normal,340,13.0,,,9999.0,,3.0,-4.0,30.05,,,,,,,,,,,,,,,,,2500.0,2500.0,BKN,2500.0,BKN,4000.0,,,,
KRDR,10-28-2020,18:59,METAR,Normal,360,12.0,15.0,,9999.0,,2.0,-3.0,30.04,,,,,,,,,,,,,,,,,1800.0,1800.0,BKN,1800.0,OVC,2000.0,,,,
KRDR,10-28-2020,17:56,METAR,Normal,340,18.0,22.0,,9999.0,,2.2,-0.4,29.97,1016.4,,,,,,,,,,,,,,,,1300.0,1300.0,OVC,1300.0,,,,,,
KRDR,10-28-2020,17:06,SPECI,Normal,350,18.0,23.0,,9999.0,,2.0,0.0,29.92,1014.6,,,,,,,,,,,,,,,,1200.0,1200.0,OVC,1200.0,,,,,,
KRDR,10-28-2020,16:56,METAR,Normal,360,17.0,22.0,10/27KTS,9999.0,,2.6,0.5,29.91,1014.3,,,,,,,,,,,,,,,,1100.0,1100.0,OVC,1100.0,,,,,,
KRDR,10-28-2020,16:46,SPECI,Normal,360,18.0,,,9999.0,,3.0,1.0,29.90,1013.8,,,,,,,,,,,,,,,,1100.0,1100.0,OVC,1100.0,,,,,,
KRDR,10-28-2020,16:36,SPECI,Normal,350,16.0,20.0,,9999.0,,3.0,1.0,29.89,1013.5,,,,,,,,,,,,,,,,1000.0,1000.0,OVC,1000.0,,,,,,
KRDR,10-28-2020,15:56,METAR,Normal,350,20.0,29.0,340/29KTS,9999.0,,3.1,1.9,29.87,1012.8,,,,,,,,,,,,,,,,800.0,800.0,BKN,800.0,OVC,1200.0,,,,
KRDR,10-28-2020,15:46,SPECI,Normal,350,20.0,28.0,,9999.0,,4.0,2.0,29.85,1012.1,,,,,,,,,,,,,,,,1300.0,1300.0,OVC,1300.0,,,,,,
KRDR,10-28-2020,15:26,SPECI,Normal,350,19.0,26.0,,9999.0,,6.0,4.0,29.82,1011.0,,,,,,,,,,,,,,,,1400.0,1400.0,OVC,1400.0,,,,,,
KRDR,10-28-2020,14:56,METAR,Normal,330,14.0,,,9999.0,,6.3,4.1,29.79,1010.0,,,,,,,,,,,,,,,,1600.0,1600.0,OVC,1600.0,,,,,,
KRDR,10-28-2020,14:26,SPECI,Normal,320,12.0,17.0,,9999.0,,6.0,4.0,29.77,1009.3,,,,,,,,,,,,,,,,1900.0,1900.0,BKN,1900.0,OVC,3000.0,,,,
KRDR,10-28-2020,13:56,METAR,Normal,310,12.0,,,9999.0,,6.5,3.6,29.75,1008.5,,,,,,,,,,,,,,,,2900.0,2900.0,BKN,2900.0,BKN,3800.0,,,,
KRDR,10-28-2020,12:56,METAR,Normal,310,12.0,,,9999.0,,6.4,3.2,29.71,1007.2,,,,,,,,,,,,,,,,5000.0,5000.0,BKN,5000.0,OVC,11000.0,,,,
KRDR,10-28-2020,11:56,METAR,Normal,270,6.0,,,9999.0,,6.1,2.9,29.68,1006.3,,,,,,,,,,,,,,,4/8 Partly Cloudy,72000.0,8000.0,SCT,8000.0,,,,,,
KRDR,10-28-2020,10:56,METAR,Normal,280,5.0,,,9999.0,,5.3,2.5,29.67,1006.0,,,,,,,,,,,,,,,,12000.0,12000.0,OVC,12000.0,,,,,,
KRDR,10-28-2020,09:56,METAR,Normal,230,6.0,,,9999.0,,3.6,1.8,29.66,1005.7,,,,,,,,,,,,,,,,9000.0,9000.0,BKN,9100.0,BKN,11000.0,,,,
KRDR,10-28-2020,08:56,METAR,Normal,240,8.0,,,9999.0,,2.8,1.3,29.68,1006.4,,,,,,,,,,,,,,,,17000.0,17000.0,BKN,17000.0,,,,,,
KRDR,10-28-2020,07:56,METAR,Normal,250,8.0,,,9999.0,,3.6,1.8,29.67,,,,,,,,,,,,,,,,,15000.0,15000.0,OVC,15000.0,,,,,,
KRDR,10-28-2020,06:56,METAR,Normal,260,9.0,,,9999.0,,3.7,1.9,29.67,,,,,,,,,,,,,,,,Clear,72000.0,,,,,,,,,
KRDR,10-28-2020,05:56,METAR,Normal,230,6.0,,,9999.0,,2.0,1.6,29.68,,,,,,,,,,,,,,,,,11000.0,11000.0,BKN,11000.0,,,,,,
KRDR,10-28-2020,04:56,METAR,Normal,220,6.0,,,9999.0,,3.3,1.7,29.68,,,,,,,,,,,,,,,,4/8 Partly Cloudy,72000.0,3500.0,SCT,3500.0,,,,,,
KRDR,10-28-2020,03:56,METAR,Normal,280,7.0,,,9999.0,,6.2,2.1,29.68,,,,,,,,,,,,,,,,,3400.0,3400.0,OVC,3400.0,,,,,,
KRDR,10-28-2020,02:56,METAR,Normal,270,8.0,,,9999.0,,6.2,1.5,29.66,1005.9,,,,,,,,,,,,,,,,3500.0,3500.0,OVC,3500.0,,,,,,
KRDR,10-28-2020,01:56,METAR,Normal,260,8.0,,,9999.0,,6.0,0.3,29.65,1005.7,,,,,,,,,,,,,,,,3500.0,3500.0,OVC,3500.0,,,,,,
KRDR,10-28-2020,00:56,METAR,Normal,260,13.0,,,9999.0,,5.0,-1.2,29.64,1005.4,,,,,,,,,,,,,,,,3300.0,3300.0,OVC,3300.0,,,,,,
KRDR,10-28-2020,00:26,METAR,Normal,,,,,,,2.8,-1.6,29.65,1005.8,,,,,,,,,,,TRACE,,,,,,,,,,,,,,
KRDR,10-27-2020,23:56,METAR,Normal,240,9.0,,,9999.0,,3.8,-2.4,29.64,1005.4,,,,,,,,,,,,,TRACE,,,3400.0,3400.0,BKN,3400.0,,,,,,
KRDR,10-27-2020,22:55,METAR,Normal,230,14.0,19.0,,9999.0,,3.1,-3.5,29.64,1005.5,,,,,,,,,,,TRACE,,,,,4800.0,4000.0,FEW,4000.0,BKN,4800.0,BKN,8000.0,,
KRDR,10-27-2020,22:37,SPECI,Normal,220,13.0,21.0,,9999.0,Light Rain,3.0,-3.0,29.64,1005.5,61,,,,,,,,,,,,,,,8500.0,4800.0,FEW,4800.0,BKN,8600.0,,,,
KRDR,10-27-2020,21:56,METAR,Normal,230,14.0,19.0,,9999.0,,3.1,-3.5,29.64,1005.5,,,,,,,,,,,,,,,,4800.0,4000.0,FEW,4000.0,BKN,4800.0,BKN,8000.0,,
KRDR,10-27-2020,21:55,METAR,Normal,230,14.0,19.0,,9999.0,,3.1,-3.5,29.64,1005.5,,,,,,,,,,,,,,,,4800.0,4000.0,FEW,4000.0,BKN,4800.0,BKN,8000.0,,
KRDR,10-27-2020,21:29,SPECI,Normal,220,14.0,,,9999.0,,2.0,-1.0,29.66,1006.2,,,,,,,,,,,,,,,,6000.0,2400.0,FEW,2400.0,SCT,2900.0,SCT,4300.0,BKN,6000.0
KRDR,10-27-2020,20:55,METAR,Normal,240,19.0,26.0,270/29KTS,9999.0,Snow,2.6,-1.9,29.68,1006.9,,,,73,,,,,,,TRACE,TRACE,,,,3500.0,2600.0,SCT,2600.0,OVC,3500.0,,,,
KRDR,10-27-2020,20:36,SPECI,Normal,250,22.0,28.0,,9999.0,Light Snow,4.0,-5.0,29.69,1007.1,71,,,,,,,,,,,,,,,2600.0,2600.0,BKN,2600.0,BKN,3200.0,OVC,4700.0,,
KRDR,10-27-2020,19:56,METAR,Normal,220,18.0,22.0,,9999.0,,2.4,-7.5,29.69,1007.3,,,,,,,,,,,,,,,,8000.0,5000.0,FEW,5000.0,BKN,8000.0,OVC,12000.0,,
KRDR,10-27-2020,18:56,METAR,Normal,200,15.0,20.0,,9999.0,,0.1,-8.4,29.73,1008.6,,,,,,,,,,,,,,,,8000.0,8000.0,BKN,8000.0,BKN,15000.0,,,,
KRDR,10-27-2020,17:56,METAR,Normal,190,16.0,,,9999.0,,-0.8,-9.0,29.78,1010.4,,,,,,,,,,,,,,,,10000.0,10000.0,BKN,10000.0,OVC,14000.0,,,,
KRDR,10-27-2020,16:56,METAR,Normal,200,12.0,,,9999.0,,-2.4,-9.5,29.85,1012.8,,,,,,,,,,,,,,,,6500.0,6500.0,BKN,6500.0,OVC,9100.0,,,,
KRDR,10-27-2020,15:56,METAR,Normal,210,13.0,,,9999.0,,-3.1,-9.8,29.89,1014.3,,,,,,,,,,,,,,,,7500.0,7500.0,BKN,7500.0,BKN,12000.0,,,,
KRDR,10-27-2020,14:56,METAR,Normal,210,12.0,,,9999.0,,-4.2,-10.2,29.91,1014.9,,,,,,,,,,,,,,,,15000.0,15000.0,BKN,15000.0,BKN,22000.0,,,,
KRDR,10-27-2020,13:56,METAR,Normal,210,11.0,,,9999.0,,-7.4,-11.3,29.92,1015.4,,,,,,,,,,,,,,,,15000.0,15000.0,BKN,15000.0,BKN,22000.0,,,,
KRDR,10-27-2020,12:56,METAR,Normal,200,10.0,,,9999.0,,-8.4,-11.6,29.95,1016.4,,,,,,,,,,,,,,,2/8 Mostly Clear,72000.0,6000.0,FEW,6000.0,,,,,,
KRDR,10-27-2020,11:56,METAR,Normal,210,12.0,,,9999.0,,-8.6,-11.9,29.98,1017.4,,,,,,,,,,,,,,,Clear,72000.0,,,,,,,,,
KRDR,10-27-2020,10:56,METAR,Normal,200,11.0,,,9999.0,,-8.8,-12.1,29.98,1017.3,,,,,,,,,,,,,,,Clear,72000.0,,,,,,,,,
KRDR,10-27-2020,09:56,METAR,Normal,210,12.0,,,9999.0,,-8.8,-12.3,30.01,1018.4,,,,,,,,,,,,,,,Clear,72000.0,,,,,,,,,
KRDR,10-27-2020,08:56,METAR,Normal,220,11.0,,,9999.0,,-8.7,-12.2,30.04,1019.3,,,,,,,,,,,,,,,Clear,72000.0,,,,,,,,,
KRDR,10-27-2020,07:56,METAR,Normal,210,9.0,,,9999.0,,-9.1,-12.4,30.07,1020.3,,,,,,,,,,,,,,,Clear,72000.0,,,,,,,,,
KRDR,10-27-2020,06:56,METAR,Normal,200,11.0,,,9999.0,,-8.8,-12.1,30.09,1021.0,,,,,,,,,,,,,,,2/8 Mostly Clear,72000.0,8000.0,FEW,8000.0,,,,,,
KRDR,10-27-2020,05:56,METAR,Normal,210,11.0,,,9999.0,,-8.5,-12.0,30.10,1021.3,,,,,,,,,,,,,,,Clear,72000.0,,,,,,,,,
KRDR,10-27-2020,04:56,METAR,Normal,220,13.0,,,9999.0,,-8.2,-12.4,30.11,1021.6,,,,,,,,,,,,,,,Clear,72000.0,,,,,,,,,
KRDR,10-27-2020,03:56,METAR,Normal,210,12.0,,,9999.0,,-8.1,-12.1,30.14,1022.7,,,,,,,,,,,,,,,2/8 Mostly Clear,72000.0,10000.0,FEW,10000.0,,,,,,
KRDR,10-27-2020,02:56,METAR,Normal,210,14.0,,,9999.0,,-7.8,-12.0,30.16,1023.5,,,,,,,,,,,,,,,2/8 Mostly Clear,72000.0,10000.0,FEW,10000.0,,,,,,
KRDR,10-27-2020,01:56,METAR,Normal,200,11.0,,,9999.0,,-7.1,-12.2,30.19,1024.5,,,,,,,,,,,,,,,4/8 Partly Cloudy,72000.0,10000.0,SCT,10000.0,,,,,,
KRDR,10-27-2020,00:56,METAR,Normal,200,14.0,,,9999.0,,-6.3,-12.0,30.20,1024.8,,,,,,,,,,,TRACE,,,,4/8 Partly Cloudy,72000.0,10000.0,SCT,10000.0,,,,,,
KRDR,10-26-2020,23:56,METAR,Normal,210,14.0,,,9999.0,,-5.3,-12.3,30.20,1024.8,,,,,,,,,,,,,,,4/8 Partly Cloudy,72000.0,10000.0,SCT,10000.0,,,,,,
KRDR,10-26-2020,22:56,METAR,Normal,210,15.0,21.0,,9999.0,,-3.7,-12.1,30.21,1025.2,,,,,,,,,,,,,,,2/8 Mostly Clear,72000.0,10000.0,FEW,10000.0,,,,,,
KRDR,10-26-2020,21:56,METAR,Normal,220,13.0,,,9999.0,,-2.0,-12.6,30.21,1025.1,,,,,,,,,,,,,,,2/8 Mostly Clear,72000.0,4600.0,FEW,4600.0,,,,,,
KRDR,10-26-2020,20:56,METAR,Normal,240,12.0,16.0,,9999.0,,-0.6,-12.6,30.22,1025.4,,,,,,,,,,,,,,,2/8 Mostly Clear,72000.0,4000.0,FEW,4000.0,,,,,,
KRDR,10-26-2020,19:56,METAR,Normal,250,14.0,,,9999.0,,-1.0,-12.6,30.25,1026.5,,,,,,,,,,,,,,,4/8 Partly Cloudy,72000.0,4200.0,SCT,4200.0,,,,,,
KRDR,10-26-2020,18:56,METAR,Normal,250,11.0,,,9999.0,,-1.2,-13.4,30.28,1027.4,,,,,,,,,,,,,,,4/8 Partly Cloudy,72000.0,4600.0,SCT,4600.0,,,,,,
KRDR,10-26-2020,17:56,METAR,Normal,270,10.0,18.0,,9999.0,,-0.4,-14.4,30.32,1028.6,,,,,,,,,,,,,,,2/8 Mostly Clear,72000.0,4000.0,FEW,4000.0,,,,,,
KRDR,10-26-2020,16:56,METAR,Normal,250,7.0,,,9999.0,,-0.9,-13.8,30.33,1029.0,,,,,,,,,,,,,,,4/8 Partly Cloudy,72000.0,4200.0,SCT,4200.0,,,,,,
KRDR,10-26-2020,15:56,METAR,Normal,280,11.0,,,9999.0,,-1.9,-10.5,30.35,1029.7,,,,,,,,,,,,,,,2/8 Mostly Clear,72000.0,5000.0,FEW,5000.0,FEW,7000.0,,,,
KRDR,10-26-2020,14:56,METAR,Normal,290,7.0,,,9999.0,,-4.6,-7.1,30.35,1029.9,,,,,,,,,,,,,,,,4800.0,4800.0,BKN,4800.0,,,,,,
KRDR,10-26-2020,13:57,METAR,Normal,270,6.0,,,9999.0,,-5.9,-7.6,30.35,1029.9,,,,,,,,,,,,,,,,5000.0,5000.0,BKN,5000.0,,,,,,
KRDR,10-26-2020,11:56,METAR,Normal,280,6.0,,,9999.0,,-6.9,-8.6,30.35,1030.0,,,,,,,,,,,,,,,,5000.0,5000.0,OVC,5000.0,,,,,,
KRDR,10-26-2020,10:56,METAR,Normal,290,7.0,,,9999.0,,-8.8,-10.0,30.35,1030.0,,,,,,,,,,,,,,,,6000.0,6000.0,BKN,6000.0,,,,,,
KRDR,10-26-2020,09:56,METAR,Normal,280,8.0,,,9999.0,,-9.0,-10.2,30.36,1030.3,,,,,,,,,,,,,,,Clear,72000.0,,,,,,,,,
KRDR,10-26-2020,08:56,METAR,Normal,300,6.0,,,9999.0,,-8.8,-9.7,30.36,1030.3,,,,,,,,,,,,,,,Clear,72000.0,,,,,,,,,
KRDR,10-26-2020,07:56,METAR,Normal,290,7.0,,,9999.0,,-8.2,-9.2,30.37,1030.6,,,,,,,,,,,,,,,Clear,72000.0,,,,,,,,,
KRDR,10-26-2020,06:56,METAR,Normal,300,7.0,,,9999.0,,-7.2,-8.7,30.36,1030.1,,,,,,,,,,,,,,,2/8 Mostly Clear,72000.0,6500.0,FEW,6500.0,,,,,,
KRDR,10-26-2020,05:56,METAR,Normal,310,9.0,,,9999.0,,-4.6,-8.2,30.37,1030.4,,,,,,,,,,,,,,,,6000.0,6000.0,OVC,6000.0,,,,,,
KRDR,10-26-2020,04:56,METAR,Normal,310,7.0,,,9999.0,,-4.3,-7.7,30.37,1030.4,,,,,,,,,,,,,,,,6000.0,6000.0,OVC,6000.0,,,,,,
KRDR,10-26-2020,03:56,METAR,Normal,320,7.0,,,9999.0,,-4.4,-7.3,30.37,1030.5,,,,,,,,,,,,,,,,5500.0,5500.0,OVC,5500.0,,,,,,
KRDR,10-26-2020,02:56,METAR,Normal,300,7.0,,,9999.0,,-4.3,-6.9,30.37,1030.5,,,,,,,,,,,,,,,,5500.0,5500.0,OVC,5500.0,,,,,,
KRDR,10-26-2020,01:56,METAR,Normal,310,5.0,,,9999.0,,-4.3,-7.2,30.36,1030.1,,,,,,,,,,,,,,,,5500.0,5500.0,OVC,5500.0,,,,,,
KRDR,10-26-2020,00:56,METAR,Normal,290,6.0,,,9999.0,,-4.3,-7.2,30.36,1030.1,,,,,,,,,,,,,,,,5500.0,5500.0,OVC,5500.0,,,,,,
KRDR,10-25-2020,23:56,METAR,Normal,300,6.0,,,9999.0,,-4.2,-7.8,30.35,1029.8,,,,,,,,,,,TRACE,,TRACE,,,6500.0,5000.0,SCT,5000.0,OVC,6500.0,,,,
KRDR,10-25-2020,22:56,METAR,Normal,310,8.0,,,9999.0,,-3.7,-7.8,30.35,1029.8,,,,,,,,,,,TRACE,,TRACE,,,6000.0,3700.0,FEW,3700.0,OVC,6000.0,,,,
KRDR,10-25-2020,22:11,SPECI,Normal,340,10.0,14.0,,9999.0,,-3.0,-7.0,30.35,1029.8,,,,,,,,,,,,,,,,2600.0,2600.0,BKN,2600.0,BKN,3600.0,BKN,4700.0,OVC,6000.0
KRDR,10-25-2020,22:10,SPECI,Normal,340,11.0,14.0,,9999.0,Light Snow,-3.0,-7.0,30.35,1029.8,71,,,,,,,,,,,,,,,2600.0,2600.0,BKN,2600.0,BKN,3600.0,BKN,4700.0,OVC,6000.0
KRDR,10-25-2020,22:00,SPECI,Normal,10,6.0,,,9999.0,Light Snow,-4.0,-7.0,30.35,1029.8,71,,,,,,,,,,,,,,,4700.0,2500.0,FEW,2500.0,SCT,3000.0,SCT,3700.0,BKN,4700.0
KRDR,10-25-2020,21:56,METAR,Normal,360,6.0,,,9999.0,,-3.7,-7.0,30.35,1029.8,,,,,,,,,,,TRACE,,,,,4700.0,2500.0,FEW,2500.0,SCT,3200.0,SCT,4000.0,BKN,4700.0
KRDR,10-25-2020,21:49,SPECI,Normal,10,6.0,,,9999.0,,-4.0,-7.0,30.35,1029.8,,,,,,,,,,,,,,,,3200.0,2000.0,FEW,2000.0,SCT,2500.0,BKN,3200.0,BKN,4800.0
KRDR,10-25-2020,21:39,SPECI,Normal,20,9.0,15.0,,9999.0,,-3.0,-7.0,30.35,1029.8,,,,,,,,,,,,,,,,2500.0,1900.0,FEW,1900.0,BKN,2500.0,OVC,3400.0,,
KRDR,10-25-2020,21:19,SPECI,Normal,330,10.0,,,9999.0,,-3.0,-9.0,30.35,1029.8,,,,,,,,,,,,,,,,3500.0,3500.0,BKN,3500.0,OVC,6000.0,,,,
KRDR,10-25-2020,21:09,SPECI,Normal,330,12.0,,,9999.0,Light Snow,-2.0,-10.0,30.36,1030.1,71,,,,,,,,,,,,,,,3500.0,3500.0,BKN,3500.0,OVC,6000.0,,,,
KRDR,10-25-2020,20:56,METAR,Normal,320,11.0,17.0,,9999.0,,-2.4,-10.2,30.35,1029.7,,,,,,,,,,,TRACE,TRACE,,,,3400.0,3400.0,BKN,3400.0,OVC,4100.0,,,,
KRDR,10-25-2020,20:27,SPECI,Normal,330,10.0,,,9999.0,,-3.0,-9.0,30.36,1030.1,,,,,,,,,,,,,,,,3100.0,1600.0,FEW,1600.0,BKN,3100.0,BKN,4100.0,,
KRDR,10-25-2020,20:15,SPECI,Normal,320,13.0,,,9999.0,Light Snow,-3.0,-12.0,30.36,1030.1,71,,,,,,,,,,,,,,,3800.0,2800.0,FEW,2800.0,BKN,3800.0,BKN,4600.0,OVC,6000.0
KRDR,10-25-2020,19:56,METAR,Normal,320,8.0,,,9999.0,,-3.0,-9.1,30.37,1030.5,,,,,,,,,,,TRACE,,,,,5500.0,3600.0,SCT,3600.0,OVC,5500.0,,,,
KRDR,10-25-2020,19:49,SPECI,Normal,340,9.0,,,9999.0,,-3.0,-9.0,30.37,1030.5,,,,,,,,,,,,,,,,3500.0,1100.0,FEW,1100.0,BKN,3500.0,OVC,5500.0,,
KRDR,10-25-2020,19:20,SPECI,Normal,320,14.0,20.0,,9999.0,Light Snow,-3.0,-10.0,30.38,1030.8,71,,,,,,,,,,,,,,,4300.0,1100.0,FEW,1100.0,FEW,2300.0,SCT,3200.0,BKN,4300.0
KRDR,10-25-2020,19:16,SPECI,Normal,330,14.0,20.0,,9999.0,Light Snow,-2.0,-11.0,30.38,1030.7,71,,,,,,,,,,,,,,,6000.0,2300.0,FEW,2300.0,FEW,3000.0,SCT,4300.0,OVC,6000.0
KRDR,10-25-2020,19:09,SPECI,Normal,310,9.0,19.0,,9999.0,,-2.0,-12.0,30.38,1030.7,,,,,,,,,,,,,,,,4300.0,3400.0,FEW,3400.0,BKN,4300.0,OVC,6000.0,,
KRDR,10-25-2020,18:59,SPECI,Normal,320,14.0,19.0,,9999.0,Light Snow,-2.0,-12.0,30.38,1030.7,71,,,,,,,,,,,,,,,4600.0,3400.0,FEW,3400.0,BKN,4600.0,OVC,6000.0,,
KRDR,10-25-2020,18:56,METAR,Normal,310,14.0,,,9999.0,Light Snow,-2.0,-12.1,30.38,1030.7,71,,,,,,,,,,,,,,,5500.0,4300.0,SCT,4300.0,OVC,5500.0,,,,
KRDR,10-25-2020,17:56,METAR,Normal,330,13.0,16.0,,9999.0,,-1.3,-10.9,30.40,1031.4,,,,,,,,,,,,,,,,7000.0,5000.0,SCT,5000.0,BKN,7000.0,,,,
KRDR,10-25-2020,16:56,METAR,Normal,340,10.0,,,9999.0,,-2.1,-8.4,30.41,1031.8,,,,,,,,,,,,,,,,7000.0,7000.0,OVC,7000.0,,,,,,
KRDR,10-25-2020,15:56,METAR,Normal,330,9.0,,,9999.0,,-3.1,-6.7,30.41,1031.9,,,,,,,,,,,,,,,,7000.0,7000.0,OVC,7000.0,,,,,,
KRDR,10-25-2020,14:56,METAR,Normal,320,9.0,,,9999.0,,-4.1,-7.0,30.41,1031.9,,,,,,,,,,,,,,,,7000.0,7000.0,OVC,7000.0,,,,,,
KRDR,10-25-2020,13:56,METAR,Normal,320,6.0,,,9999.0,,-4.8,-6.9,30.41,1031.9,,,,,,,,,,,,,,,,6000.0,6000.0,OVC,6000.0,,,,,,
KRDR,10-25-2020,12:56,METAR,Normal,320,4.0,,,9999.0,,-5.0,-7.3,30.40,1031.5,,,,,,,,,,,,,,,,6000.0,6000.0,OVC,6000.0,,,,,,
KRDR,10-25-2020,11:56,METAR,Normal,310,6.0,,,9999.0,,-4.9,-7.2,30.40,1031.5,,,,,,,,,,,,,,,,6000.0,6000.0,OVC,6000.0,,,,,,
KRDR,10-25-2020,10:56,METAR,Normal,320,5.0,,,9999.0,,-4.7,-7.3,30.40,1031.5,,,,,,,,,,,,,,,,5500.0,5500.0,OVC,5500.0,,,,,,
KRDR,10-25-2020,09:56,METAR,Normal,320,6.0,,,9999.0,,-4.5,-7.6,30.40,1031.4,,,,,,,,,,,,,,,,5000.0,5000.0,OVC,5000.0,,,,,,
KRDR,10-25-2020,08:56,METAR,Normal,310,4.0,,,9999.0,,-4.6,-7.9,30.40,1031.4,,,,,,,,,,,,,,,,5500.0,5500.0,OVC,5500.0,,,,,,
KRDR,10-25-2020,07:56,METAR,Normal,330,5.0,,,9999.0,,-4.2,-8.3,30.41,1031.8,,,,,,,,,,,,,,,,5500.0,5500.0,OVC,5500.0,,,,,,
KRDR,10-25-2020,06:56,METAR,Normal,330,4.0,,,9999.0,,-4.2,-8.2,30.41,1031.8,,,,,,,,,,,,,,,,5500.0,5500.0,OVC,5500.0,,,,,,
KRDR,10-25-2020,05:56,METAR,Normal,320,4.0,,,9999.0,,-4.4,-8.2,30.41,1031.8,,,,,,,,,,,,,,,,5500.0,5500.0,OVC,5500.0,,,,,,
KRDR,10-25-2020,04:56,METAR,Normal,320,4.0,,,9999.0,,-4.3,-8.6,30.41,1031.8,,,,,,,,,,,,,,,,5000.0,5000.0,OVC,5000.0,,,,,,
KRDR,10-25-2020,03:56,METAR,Normal,310,4.0,,,9999.0,,-4.4,-8.5,30.41,1031.9,,,,,,,,,,,,,,,,5500.0,5500.0,OVC,5500.0,,,,,,
KRDR,10-25-2020,02:56,METAR,Normal,340,5.0,,,9999.0,,-4.0,-8.7,30.39,1031.2,,,,,,,,,,,,,,,,5000.0,5000.0,OVC,5000.0,,,,,,
KRDR,10-25-2020,01:56,METAR,Normal,320,5.0,,,9999.0,,-3.7,-9.1,30.39,1031.4,,,,,,,,,,,,,,,,4900.0,3700.0,SCT,3700.0,OVC,4900.0,,,,
KRDR,10-25-2020,00:56,METAR,Normal,330,6.0,,,9999.0,,-3.4,-8.9,30.38,1031.0,,,,,,,,,,,,,,,,5000.0,2300.0,FEW,2300.0,FEW,3000.0,FEW,3800.0,OVC,5000.0
KRDR,10-24-2020,23:56,METAR,Normal,320,4.0,,,9999.0,,-3.4,-7.4,30.36,1030.3,,,,,,,,,,,TRACE,,TRACE,,,5000.0,3200.0,FEW,3200.0,FEW,4100.0,OVC,5000.0,,
KRDR,10-24-2020,22:59,SPECI,Normal,330,5.0,,,9999.0,,-3.0,-7.0,30.35,1030.0,,,,,,,,,,,,,,,,4300.0,4300.0,OVC,4300.0,,,,,,
KRDR,10-24-2020,22:56,METAR,Normal,320,5.0,,,9999.0,Precipitation,-3.3,-7.1,30.35,1030.0,41,,,,,,,,,,TRACE,,,,,4100.0,4100.0,OVC,4100.0,,,,,,
KRDR,10-24-2020,22:46,SPECI,Normal,340,6.0,,,9999.0,Precipitation,-3.0,-7.0,30.34,1029.6,41,,,,,,,,,,,,,,,4000.0,3000.0,FEW,3000.0,OVC,4000.0,,,,
KRDR,10-24-2020,22:43,SPECI,Normal,330,7.0,,,9999.0,,-3.0,-7.0,30.34,1029.6,,,,,,,,,,,,,,,,4000.0,3000.0,FEW,3000.0,OVC,4000.0,,,,
KRDR,10-24-2020,21:56,METAR,Normal,20,5.0,,,9999.0,Light Snow,-2.5,-8.0,30.34,1029.5,71,,,,,,,,,,TRACE,,,,,3200.0,3200.0,BKN,3200.0,OVC,4100.0,,,,
KRDR,10-24-2020,21:47,SPECI,Normal,20,6.0,,,9999.0,Light Snow,-2.0,-9.0,30.34,1029.5,71,,,,,,,,,,,,,,,4100.0,3300.0,SCT,3300.0,BKN,4100.0,OVC,5000.0,,
KRDR,10-24-2020,20:56,METAR,Normal,330,7.0,,,9999.0,,-1.6,-12.9,30.33,1029.2,,,,,,,,,,,,,,,,5500.0,5500.0,OVC,5500.0,,,,,,
KRDR,10-24-2020,19:56,METAR,Normal,350,5.0,,,9999.0,,-1.7,-8.7,30.34,1029.5,,,,,,,,,,,,,,,,5500.0,2600.0,FEW,2600.0,SCT,3600.0,SCT,4700.0,OVC,5500.0
KRDR,10-24-2020,18:56,METAR,Normal,330,7.0,,,9999.0,,-1.2,-8.6,30.35,1029.9,,,,,,,,,,,,,,,,6000.0,3700.0,SCT,3700.0,OVC,6000.0,,,,
KRDR,10-24-2020,17:56,METAR,Normal,340,5.0,,,9999.0,,-1.2,-8.4,30.36,1030.2,,,,,,,,,,,,,,,,6000.0,6000.0,OVC,6000.0,,,,,,
KRDR,10-24-2020,16:56,METAR,Normal,360,3.0,,,9999.0,,-2.2,-7.1,30.37,1030.6,,,,,,,,,,,,,,,,6000.0,6000.0,OVC,6000.0,,,,,,
KRDR,10-24-2020,15:56,METAR,Calm,,0.0,,,9999.0,,-3.4,-6.7,30.37,1030.6,,,,,,,,,,,,,,,Clear,72000.0,,,,,,,,,
KRDR,10-24-2020,14:56,METAR,Normal,330,4.0,,,9999.0,,-5.9,-7.7,30.36,1030.4,,,,,,,,,,,,,,,2/8 Mostly Clear,72000.0,20000.0,FEW,20000.0,,,,,,
KRDR,10-24-2020,13:56,METAR,Normal,340,5.0,,,9999.0,,-9.7,-10.5,30.34,1029.8,,,,,,,,,,,,,,,Clear,72000.0,,,,,,,,,
KRDR,10-24-2020,12:56,METAR,Normal,310,5.0,,,9999.0,,-9.6,-10.3,30.33,1029.4,,,,,,,,,,,,,,,Clear,72000.0,,,,,,,,,
KRDR,10-24-2020,11:56,METAR,Normal,340,4.0,,,9999.0,,-9.8,-10.5,30.34,1029.7,,,,,,,,,,,,,,,4/8 Partly Cloudy,72000.0,7000.0,SCT,7000.0,,,,,,
KRDR,10-24-2020,11:38,SPECI,Normal,300,5.0,,,9999.0,,-9.0,-10.0,30.34,1029.6,,,,,,,,,,,,,,,4/8 Partly Cloudy,72000.0,7000.0,SCT,7000.0,,,,,,
KRDR,10-24-2020,11:23,SPECI,Normal,290,5.0,,,9999.0,Light Snow,-9.0,-10.0,30.33,1029.3,71,,,,,,,,,,,,,,2/8 Mostly Clear,72000.0,7000.0,FEW,7000.0,,,,,,
KRDR,10-24-2020,10:56,METAR,Normal,290,5.0,,,9999.0,,-9.2,-9.9,30.32,1028.9,,,,,,,,,,,,,,,Clear,72000.0,,,,,,,,,
KRDR,10-24-2020,09:56,METAR,Normal,300,6.0,,,9999.0,,-8.4,-9.3,30.32,1028.8,,,,,,,,,,,,,,,Clear,72000.0,,,,,,,,,
KRDR,10-24-2020,08:56,METAR,Normal,290,5.0,,,9999.0,,-8.4,-9.3,30.32,1028.8,,,,,,,,,,,,,,,Clear,72000.0,,,,,,,,,
KRDR,10-24-2020,07:56,METAR,Normal,300,6.0,,,9999.0,,-8.5,-9.4,30.32,1028.8,,,,,,,,,,,,,,,Clear,72000.0,,,,,,,,,
KRDR,10-24-2020,07:03,SPECI,Normal,290,5.0,,,9999.0,,-8.0,-9.0,30.32,1028.8,,,,,,,,,,,,,,,Clear,72000.0,,,,,,,,,
KRDR,10-24-2020,06:56,METAR,Normal,300,5.0,,,9999.0,,-8.1,-9.2,30.32,1028.8,,,,,,,,,,,,,,,Clear,72000.0,,,,,,,,,
KRDR,10-24-2020,05:56,METAR,Normal,290,4.0,,,9999.0,,-8.6,-10.0,30.33,1029.1,,,,,,,,,,,TRACE,,TRACE,,2/8 Mostly Clear,72000.0,20000.0,FEW,20000.0,,,,,,
KRDR,10-24-2020,05:43,SPECI,Normal,290,5.0,,,9999.0,,-8.0,-10.0,30.33,1029.1,,,,,,,,,,,,,,,4/8 Partly Cloudy,72000.0,20000.0,SCT,20000.0,,,,,,
KRDR,10-24-2020,05:41,SPECI,Normal,290,4.0,,,9999.0,Light Snow,-8.0,-10.0,30.33,1029.1,71,,,,,,,,,,,,,,2/8 Mostly Clear,72000.0,20000.0,FEW,20000.0,,,,,,
KRDR,10-24-2020,04:56,METAR,Normal,290,6.0,,,9999.0,,-7.6,-9.1,30.34,1029.5,,,,,,,,,,,TRACE,,,,Clear,72000.0,,,,,,,,,
KRDR,10-24-2020,04:16,SPECI,Normal,300,6.0,,,9999.0,,-9.0,-10.0,30.35,1029.9,,,,,,,,,,,,,,,Clear,72000.0,,,,,,,,,
KRDR,10-24-2020,03:56,METAR,Normal,300,6.0,,,9999.0,Light Snow,-7.4,-8.6,30.35,1029.8,71,,,,,,,,,,TRACE,,,,Clear,72000.0,,,,,,,,,
KRDR,10-24-2020,02:56,METAR,Normal,270,5.0,,,9999.0,,-7.4,-8.4,30.34,1029.5,,,,,,,,,,,,,,,Clear,72000.0,,,,,,,,,
KRDR,10-24-2020,01:56,METAR,Normal,290,6.0,,,9999.0,,-5.6,-7.4,30.34,1029.6,,,,,,,,,,,,,,,,6500.0,6500.0,OVC,6500.0,,,,,,
KRDR,10-24-2020,00:56,METAR,Normal,300,6.0,,,9999.0,,-4.8,-6.5,30.34,1029.5,,,,,,,,,,,,,,,4/8 Partly Cloudy,72000.0,2200.0,FEW,2200.0,SCT,7000.0,,,,
KRDR,10-23-2020,23:56,METAR,Normal,310,7.0,,,9999.0,,-4.6,-8.4,30.35,1029.8,,,,,,,,,,,,,,,2/8 Mostly Clear,72000.0,3200.0,FEW,3200.0,,,,,,
KRDR,10-23-2020,22:56,METAR,Normal,330,8.0,,,9999.0,,-2.3,-9.5,30.35,1029.7,,,,,,,,,,,,,,,2/8 Mostly Clear,72000.0,3200.0,FEW,3200.0,,,,,,
KRDR,10-23-2020,21:56,METAR,Normal,330,15.0,20.0,,9999.0,,-1.0,-8.2,30.34,1029.3,,,,,,,,,,,,,,,4/8 Partly Cloudy,72000.0,3200.0,SCT,3200.0,,,,,,
KRDR,10-23-2020,20:56,METAR,Normal,310,14.0,,,9999.0,,-0.2,-7.9,30.34,1029.2,,,,,,,,,,,,,,,,3300.0,3300.0,BKN,3300.0,,,,,,
KRDR,10-23-2020,19:56,METAR,Normal,320,13.0,19.0,,9999.0,,0.3,-8.7,30.35,1029.6,,,,,,,,,,,,,,,4/8 Partly Cloudy,72000.0,3300.0,SCT,3300.0,,,,,,
KRDR,10-23-2020,18:56,METAR,Normal,320,15.0,,,9999.0,,-0.2,-8.6,30.36,1029.9,,,,,,,,,,,,,,,4/8 Partly Cloudy,72000.0,3100.0,SCT,3100.0,,,,,,
KRDR,10-23-2020,17:56,METAR,Normal,320,14.0,23.0,,9999.0,,-0.1,-8.1,30.38,1030.6,,,,,,,,,,,,,,,4/8 Partly Cloudy,72000.0,3300.0,SCT,3300.0,,,,,,
KRDR,10-23-2020,16:56,METAR,Normal,320,15.0,22.0,,9999.0,,-0.9,-7.9,30.40,1031.3,,,,,,,,,,,,,,,2/8 Mostly Clear,72000.0,3000.0,FEW,3000.0,,,,,,
KRDR,10-23-2020,15:56,METAR,Normal,310,14.0,,,9999.0,,-1.9,-7.0,30.40,1031.3,,,,,,,,,,,,,,,2/8 Mostly Clear,72000.0,3000.0,FEW,3000.0,FEW,12000.0,,,,
KRDR,10-23-2020,14:56,METAR,Normal,310,13.0,,,9999.0,,-3.2,-6.8,30.41,1031.7,,,,,,,,,,,,,,,2/8 Mostly Clear,72000.0,5000.0,FEW,5000.0,FEW,12000.0,,,,
KRDR,10-23-2020,13:56,METAR,Normal,310,10.0,,,9999.0,,-5.7,-8.0,30.42,1032.1,,,,,,,,,,,,,,,Clear,72000.0,,,,,,,,,
KRDR,10-23-2020,12:56,METAR,Normal,330,11.0,,,9999.0,,-3.9,-7.0,30.41,1031.7,,,,,,,,,,,,,,,,5000.0,5000.0,OVC,5000.0,,,,,,
KRDR,10-23-2020,11:56,METAR,Normal,330,8.0,,,9999.0,,-3.4,-5.9,30.41,1031.7,,,,,,,,,,,,,,,,4300.0,4300.0,BKN,4300.0,OVC,5500.0,,,,
KRDR,10-23-2020,10:56,METAR,Normal,320,8.0,,,9999.0,,-3.2,-4.3,30.41,1031.6,,,,,,,,,,,,,,,,5500.0,5500.0,BKN,5500.0,OVC,8000.0,,,,
KRDR,10-23-2020,10:40,SPECI,Normal,330,8.0,,,9999.0,,-3.0,-4.0,30.40,1031.3,,,,,,,,,,,,,,,,5500.0,5500.0,BKN,5500.0,OVC,8000.0,,,,
KRDR,10-23-2020,10:21,SPECI,Normal,330,7.0,,,9999.0,,-3.0,-4.0,30.40,1031.3,,,,,,,,,,,,,,,,5500.0,4000.0,FEW,4000.0,OVC,5500.0,,,,
KRDR,10-23-2020,10:11,SPECI,Normal,330,6.0,,,9999.0,Precipitation,-4.0,-4.0,30.40,1031.3,41,,,,,,,,,,,,,,,5500.0,4000.0,SCT,4000.0,BKN,5500.0,OVC,7500.0,,
KRDR,10-23-2020,09:56,METAR,Normal,330,6.0,,,9999.0,,-3.9,-4.0,30.40,1031.3,,,,,,,,,,,,,,,,6000.0,6000.0,BKN,6000.0,,,,,,
KRDR,10-23-2020,08:56,METAR,Normal,340,8.0,,,9999.0,,-2.9,-3.7,30.39,1030.9,,,,,,,,,,,,,,,,4500.0,4500.0,BKN,4500.0,,,,,,
KRDR,10-23-2020,07:56,METAR,Normal,340,7.0,,,9999.0,,-2.4,-4.0,30.40,1031.2,,,,,,,,,,,,,,,,4200.0,4200.0,OVC,4200.0,,,,,,
KRDR,10-23-2020,06:56,METAR,Normal,330,8.0,,,9999.0,,-2.0,-4.0,30.38,1030.6,,,,,,,,,,,,,,,,4000.0,4000.0,OVC,4000.0,,,,,,
KRDR,10-23-2020,05:56,METAR,Normal,340,7.0,,,9999.0,,-2.8,-4.1,30.37,1030.3,,,,,,,,,,,,,,,,3800.0,3800.0,OVC,3800.0,,,,,,
KRDR,10-23-2020,04:56,METAR,Normal,340,8.0,,,9999.0,,-2.6,-3.7,30.37,1030.3,,,,,,,,,,,,,,,,12000.0,7500.0,SCT,7500.0,BKN,12000.0,,,,
KRDR,10-23-2020,03:56,METAR,Normal,350,7.0,,,9999.0,,-1.0,-2.7,30.39,1030.9,,,,,,,,,,,,,,,,4200.0,4200.0,OVC,4200.0,,,,,,
KRDR,10-23-2020,02:56,METAR,Normal,360,8.0,,,9999.0,,-0.7,-2.4,30.38,1030.7,,,,,,,,,,,,,,,,3600.0,3600.0,BKN,3600.0,OVC,7500.0,,,,
KRDR,10-23-2020,01:56,METAR,Normal,360,8.0,,,9999.0,,-0.5,-2.1,30.38,1030.6,,,,,,,,,,,,,,,,3900.0,3900.0,BKN,3900.0,OVC,7500.0,,,,
KRDR,10-23-2020,00:56,METAR,Normal,360,7.0,,,9999.0,,-0.4,-1.4,30.38,1030.7,,,,,,,,,,,,,,,,7500.0,7500.0,OVC,7500.0,,,,,,
KRDR,10-22-2020,23:56,METAR,Normal,10,7.0,,,9999.0,,-0.2,-1.2,30.36,1029.9,,,,,,,,,,,,,,,,9000.0,2500.0,FEW,2500.0,OVC,9100.0,,,,
KRDR,10-22-2020,22:56,METAR,Normal,30,8.0,,,9999.0,,0.7,-1.4,30.33,1028.9,,,,,,,,,,,,,,,,8000.0,1700.0,FEW,1700.0,SCT,2200.0,BKN,8000.0,,
KRDR,10-22-2020,22:46,SPECI,Normal,30,9.0,,,9999.0,,1.0,-1.0,30.33,1028.9,,,,,,,,,,,,,,,,8000.0,1900.0,SCT,1900.0,OVC,8000.0,,,,
KRDR,10-22-2020,21:56,METAR,Normal,30,12.0,,,9999.0,,1.0,-1.1,30.31,1028.2,,,,,,,,,,,,,,,,1500.0,1500.0,BKN,1500.0,BKN,10000.0,,,,
KRDR,10-22-2020,21:46,SPECI,Normal,30,12.0,,,9999.0,,1.0,-1.0,30.31,1028.2,,,,,,,,,,,,,,,,1400.0,1400.0,OVC,1400.0,,,,,,
KRDR,10-22-2020,21:36,SPECI,Normal,30,12.0,,,9999.0,,1.0,-1.0,30.30,1027.9,,,,,,,,,,,,,,,,1300.0,1300.0,BKN,1300.0,,,,,,
KRDR,10-22-2020,21:06,SPECI,Normal,20,12.0,,,9999.0,,1.0,0.0,30.30,1027.9,,,,,,,,,,,,,,,,1200.0,1200.0,BKN,1200.0,OVC,7000.0,,,,
KRDR,10-22-2020,20:56,METAR,Normal,30,10.0,,,9999.0,,1.5,-0.4,30.30,1027.8,,,,,,,,,,,,,,,,1300.0,1300.0,BKN,1300.0,OVC,7500.0,,,,
KRDR,10-22-2020,20:26,SPECI,Normal,40,11.0,,,9999.0,,1.0,0.0,30.29,1027.5,,,,,,,,,,,,,,,,8500.0,1200.0,SCT,1200.0,OVC,8600.0,,,,
KRDR,10-22-2020,19:56,METAR,Normal,40,12.0,,,9999.0,,1.2,-0.4,30.29,1027.5,,,,,,,,,,,,,,,,1200.0,1200.0,BKN,1200.0,OVC,9100.0,,,,
KRDR,10-22-2020,19:36,SPECI,Normal,40,11.0,,,9999.0,Mist,1.0,-1.0,30.29,1027.5,10,,,,,,,,,,,,,,,1000.0,1000.0,BKN,1000.0,OVC,9100.0,,,,
KRDR,10-22-2020,18:56,METAR,Normal,40,11.0,,,8000.0,Mist,0.2,-0.5,30.30,1027.9,10,,,,,,,,,,,,,,,800.0,800.0,OVC,800.0,,,,,,
KRDR,10-22-2020,18:37,SPECI,Normal,40,11.0,,,9999.0,Mist,0.0,-1.0,30.30,1027.9,10,,,,,,,,,,,,,,,800.0,800.0,OVC,800.0,,,,,,
KRDR,10-22-2020,17:56,METAR,Normal,40,9.0,,,8000.0,Mist,0.0,-0.4,30.31,1028.2,10,,,,,,,,,,,,,,,700.0,700.0,OVC,700.0,,,,,,
KRDR,10-22-2020,16:56,METAR,Normal,40,9.0,,,8000.0,Mist,-0.6,-0.7,30.31,1028.3,10,,,,,,,,,,,,,,,600.0,600.0,OVC,600.0,,,,,,
KRDR,10-22-2020,15:56,METAR,Normal,20,7.0,,,8000.0,Mist,-1.5,-1.6,30.32,1028.5,10,,,,,,,,,,,,,,,600.0,600.0,BKN,600.0,OVC,2000.0,,,,
KRDR,10-22-2020,15:13,SPECI,Normal,10,7.0,,,9999.0,,-2.0,-2.0,30.31,1028.3,,,,,,,,,,,,,,,,1700.0,600.0,FEW,600.0,BKN,1700.0,BKN,10000.0,,
KRDR,10-22-2020,14:56,METAR,Normal,20,7.0,,,9999.0,,-2.3,-2.4,30.31,1028.3,,,,,,,,,,,,,,,,1700.0,1700.0,OVC,1700.0,,,,,,
KRDR,10-22-2020,14:36,SPECI,Normal,20,6.0,,,9999.0,,-2.0,-2.0,30.31,1028.3,,,,,,,,,,,,,,,,1900.0,1900.0,OVC,1900.0,,,,,,
KRDR,10-22-2020,13:56,METAR,Normal,30,5.0,,,9999.0,,-2.7,-2.8,30.28,1027.3,,,,,,,,,,,,,,,,2100.0,2100.0,OVC,2100.0,,,,,,
KRDR,10-22-2020,13:16,SPECI,Normal,20,5.0,,,9999.0,,-3.0,-3.0,30.29,1027.6,,,,,,,,,,,,,,,,2100.0,2100.0,OVC,2100.0,,,,,,
KRDR,10-22-2020,13:06,SPECI,Normal,20,5.0,,,9999.0,,-3.0,-3.0,30.28,1027.3,,,,,,,,,,,,,,,,1700.0,1700.0,BKN,1700.0,BKN,2400.0,,,,
KRDR,10-22-2020,12:56,METAR,Normal,40,5.0,,,9999.0,,-3.3,-3.4,30.28,1027.3,,,,,,,,,,,,,,,,2400.0,1700.0,SCT,1700.0,BKN,2400.0,,,,
KRDR,10-22-2020,11:56,METAR,Normal,20,5.0,,,9999.0,,-2.7,-2.8,30.28,1027.3,,,,,,,,,,,,,,,2/8 Mostly Clear,72000.0,12000.0,FEW,12000.0,,,,,,
KRDR,10-22-2020,10:56,METAR,Normal,30,4.0,,,9999.0,,-2.7,-2.7,30.25,1026.2,,,,,,,,,,,,,,,,3400.0,3400.0,BKN,3400.0,,,,,,
KRDR,10-22-2020,10:06,SPECI,Normal,40,4.0,,,9999.0,,-2.0,-2.0,30.24,1025.8,,,,,,,,,,,,,,,,2600.0,1800.0,SCT,1800.0,BKN,2600.0,OVC,3800.0,,
KRDR,10-22-2020,09:56,METAR,Normal,30,4.0,,,9999.0,,-2.4,-2.4,30.25,1026.2,,,,,,,,,,,,,,,,1800.0,1800.0,BKN,1800.0,OVC,2400.0,,,,
KRDR,10-22-2020,09:46,SPECI,Normal,20,4.0,,,9999.0,,-2.0,-3.0,30.25,1026.2,,,,,,,,,,,,,,,,1800.0,1800.0,BKN,1800.0,OVC,2400.0,,,,
KRDR,10-22-2020,09:26,SPECI,Normal,360,4.0,,,9999.0,,-2.0,-2.0,30.25,1026.1,,,,,,,,,,,,,,,,2200.0,2200.0,OVC,2200.0,,,,,,
KRDR,10-22-2020,08:56,METAR,Normal,350,3.0,,,9999.0,,-2.8,-2.9,30.26,1026.5,,,,,,,,,,,,,,,,1700.0,1700.0,OVC,1700.0,,,,,,
KRDR,10-22-2020,08:26,SPECI,Normal,310,3.0,,,9999.0,,-3.0,-3.0,30.26,1026.5,,,,,,,,,,,,,,,,1700.0,1700.0,BKN,1700.0,,,,,,
KRDR,10-22-2020,07:56,METAR,Calm,,0.0,,,9999.0,,-2.7,-2.8,30.24,1025.7,,,,,,,,,,,,,,,Clear,72000.0,,,,,,,,,
KRDR,10-22-2020,06:56,METAR,Calm,,0.0,,,9999.0,,-3.2,-3.3,30.23,1025.5,,,,,,,,,,,,,,,Clear,72000.0,,,,,,,,,
KRDR,10-22-2020,05:56,METAR,Normal,10,3.0,,,9999.0,,-2.6,-2.7,30.22,1025.1,,,,,,,,,,,,,,,Clear,72000.0,,,,,,,,,
KRDR,10-22-2020,04:56,METAR,Normal,350,4.0,,,9999.0,,-2.6,-2.7,30.21,1024.8,,,,,,,,,,,,,,,Clear,72000.0,,,,,,,,,
KRDR,10-22-2020,03:56,METAR,Normal,340,5.0,,,9999.0,,-1.3,-2.3,30.23,1025.5,,,,,,,,,,,,,,,,3500.0,3500.0,OVC,3500.0,,,,,,
KRDR,10-22-2020,02:56,METAR,Normal,320,3.0,,,9999.0,,-2.1,-2.2,30.21,1024.8,,,,,,,,,,,,,,,,3400.0,3400.0,OVC,3400.0,,,,,,
KRDR,10-22-2020,01:56,METAR,Normal,350,4.0,,,9999.0,,-1.3,-2.7,30.20,1024.4,,,,,,,,,,,,,,,,3200.0,3200.0,BKN,3200.0,,,,,,
KRDR,10-22-2020,00:56,METAR,Normal,330,3.0,,,9999.0,,-0.3,-2.5,30.19,1024.0,,,,,,,,,,,,,,,,3000.0,3000.0,OVC,3000.0,,,,,,
KRDR,10-22-2020,00:26,SPECI,Calm,,0.0,,,9999.0,,0.0,-3.0,30.18,1023.8,,,,,,,,,,,,,,,,3000.0,3000.0,OVC,3000.0,,,,,,
KRDR,10-22-2020,00:06,SPECI,Normal,290,3.0,,,9999.0,,0.0,-3.0,30.18,1023.7,,,,,,,,,,,,,,,,2900.0,2900.0,OVC,2900.0,,,,,,
KRDR,10-21-2020,23:56,METAR,Normal,290,3.0,,,9999.0,,-0.3,-3.2,30.18,1023.7,,,,,,,,,,,,,,,,3100.0,3100.0,BKN,3100.0,,,,,,
KRDR,10-21-2020,22:56,METAR,Normal,300,6.0,,,9999.0,,0.3,-3.8,30.15,1022.7,,,,,,,,,,,,,,,,3400.0,3400.0,BKN,3400.0,,,,,,
KRDR,10-21-2020,21:56,METAR,Normal,300,10.0,,,9999.0,,0.9,-3.8,30.15,1022.7,,,,,,,,,,,,,,,,3400.0,3400.0,OVC,3400.0,,,,,,
KRDR,10-21-2020,20:56,METAR,Normal,290,8.0,,,9999.0,,1.5,-3.6,30.14,1022.2,,,,,,,,,,,,,,,,3000.0,3000.0,BKN,3000.0,OVC,3600.0,,,,
KRDR,10-21-2020,20:26,SPECI,Normal,290,8.0,,,9999.0,,2.0,-3.0,30.13,1021.9,,,,,,,,,,,,,,,,2800.0,2800.0,BKN,2800.0,BKN,9100.0,,,,
KRDR,10-21-2020,19:56,METAR,Normal,320,10.0,,,9999.0,,3.0,-2.5,30.12,1021.5,,,,,,,,,,,,,,,,12000.0,2300.0,SCT,2300.0,BKN,12000.0,BKN,18000.0,,
KRDR,10-21-2020,18:56,METAR,Normal,330,8.0,,,9999.0,,1.3,-2.5,30.10,1020.9,,,,,,,,,,,,,,,,19000.0,4000.0,FEW,4000.0,BKN,19000.0,,,,
KRDR,10-21-2020,17:56,METAR,Normal,340,13.0,,,9999.0,,1.0,-2.6,30.10,1020.9,,,,,,,,,,,,,,,2/8 Mostly Clear,72000.0,4000.0,FEW,4000.0,FEW,21000.0,,,,
KRDR,10-21-2020,16:56,METAR,Normal,330,15.0,19.0,,9999.0,,0.5,-2.2,30.08,1020.2,,,,,,,,,,,,,,,4/8 Partly Cloudy,72000.0,3800.0,SCT,3800.0,,,,,,
KRDR,10-21-2020,15:56,METAR,Normal,300,13.0,18.0,,9999.0,,-0.7,-2.3,30.09,1020.7,,,,,,,,,,,,,,,,3700.0,3700.0,BKN,3700.0,,,,,,
KRDR,10-21-2020,14:56,METAR,Normal,310,10.0,,,9999.0,,-0.7,-2.0,30.07,1020.0,,,,,,,,,,,,,,,,2000.0,2000.0,BKN,2000.0,OVC,4000.0,,,,
KRDR,10-21-2020,13:56,METAR,Normal,310,10.0,,,9999.0,,-0.8,-1.5,30.04,1019.0,,,,,,,,,,,,,,,,1500.0,1500.0,BKN,1500.0,BKN,2300.0,,,,
KRDR,10-21-2020,13:26,SPECI,Normal,310,11.0,,,9999.0,,-1.0,-2.0,30.03,1018.6,,,,,,,,,,,,,,,,1600.0,1600.0,BKN,1600.0,OVC,2200.0,,,,
KRDR,10-21-2020,13:06,SPECI,Normal,310,11.0,,,9999.0,,-1.0,-2.0,30.03,1018.6,,,,,,,,,,,,,,,,1500.0,1500.0,OVC,1500.0,,,,,,
KRDR,10-21-2020,12:56,METAR,Normal,310,11.0,,,9999.0,,-1.0,-1.7,30.03,1018.6,,,,,,,,,,,,,,,,1400.0,1400.0,OVC,1400.0,,,,,,
KRDR,10-21-2020,12:36,SPECI,Normal,300,12.0,,,9999.0,,-1.0,-2.0,30.03,1018.6,,,,,,,,,,,,,,,,1300.0,1300.0,OVC,1300.0,,,,,,
KRDR,10-21-2020,11:56,METAR,Normal,310,13.0,,,9999.0,,-0.9,-1.5,30.01,1017.9,,,,,,,,,,,,,TRACE,.07 IN,,1400.0,1400.0,OVC,1400.0,,,,,,
KRDR,10-21-2020,11:16,SPECI,Normal,310,12.0,19.0,,9999.0,,-1.0,-1.0,29.99,1017.2,,,,,,,,,,,,,,,,1400.0,1400.0,OVC,1400.0,,,,,,
KRDR,10-21-2020,10:56,METAR,Normal,310,15.0,,,9999.0,,-0.6,-1.3,29.98,1016.9,,,,,,,,,,,TRACE,,,,,1500.0,1500.0,OVC,1500.0,,,,,,
KRDR,10-21-2020,10:41,SPECI,Normal,310,14.0,,,9999.0,,0.0,-1.0,29.97,1016.5,,,,,,,,,,,,,,,,1600.0,1600.0,BKN,1600.0,OVC,2700.0,,,,
KRDR,10-21-2020,10:35,SPECI,Normal,310,15.0,21.0,,9999.0,Precipitation,0.0,-1.0,29.97,1016.5,41,,,,,,,,,,,,,,,1600.0,1600.0,BKN,1600.0,OVC,2700.0,,,,
KRDR,10-21-2020,09:56,METAR,Normal,310,15.0,21.0,,9999.0,,-0.2,-0.6,29.96,1016.2,,,,,,,,,,,,,,,,1600.0,1600.0,BKN,1600.0,OVC,2400.0,,,,
KRDR,10-21-2020,09:46,SPECI,Normal,310,16.0,21.0,,9999.0,,0.0,0.0,29.96,1016.2,,,,,,,,,,,,,,,,1900.0,1400.0,SCT,1400.0,BKN,1900.0,OVC,2300.0,,
KRDR,10-21-2020,09:26,SPECI,Normal,310,16.0,22.0,,9999.0,,0.0,0.0,29.95,1015.8,,,,,,,,,,,,,,,,1400.0,1400.0,OVC,1400.0,,,,,,
KRDR,10-21-2020,08:56,METAR,Normal,310,14.0,20.0,,9999.0,,0.2,0.1,29.95,1015.8,,,,,,,,,,,TRACE,TRACE,,,,1300.0,1300.0,OVC,1300.0,,,,,,
KRDR,10-21-2020,08:48,SPECI,Normal,310,13.0,20.0,,9999.0,,0.0,0.0,29.95,1015.8,,,,,,,,,,,,,,,,1300.0,1300.0,OVC,1300.0,,,,,,
KRDR,10-21-2020,08:38,SPECI,Normal,310,14.0,22.0,,9999.0,Precipitation,0.0,0.0,29.94,1015.5,41,,,,,,,,,,,,,,,1300.0,1300.0,OVC,1300.0,,,,,,
KRDR,10-21-2020,07:56,METAR,Normal,310,11.0,,,9999.0,,0.3,0.2,29.93,1015.2,,,,,,,,,,,TRACE,,,,,1300.0,1300.0,OVC,1300.0,,,,,,
KRDR,10-21-2020,07:50,SPECI,Normal,310,14.0,,,9999.0,,0.0,0.0,29.92,1014.8,,,,,,,,,,,,,,,,1300.0,1300.0,OVC,1300.0,,,,,,
KRDR,10-21-2020,07:40,SPECI,Normal,310,14.0,19.0,,9999.0,Precipitation,0.0,0.0,29.92,1014.8,41,,,,,,,,,,,,,,,1300.0,1300.0,OVC,1300.0,,,,,,
KRDR,10-21-2020,07:26,SPECI,Normal,310,13.0,,,9999.0,,0.0,0.0,29.92,1014.8,,,,,,,,,,,,,,,,1300.0,1300.0,OVC,1300.0,,,,,,
KRDR,10-21-2020,07:16,SPECI,Normal,310,15.0,18.0,,9999.0,,0.0,0.0,29.91,1014.5,,,,,,,,,,,,,,,,1200.0,1200.0,OVC,1200.0,,,,,,
KRDR,10-21-2020,06:56,METAR,Normal,310,15.0,23.0,,9999.0,,0.5,0.4,29.91,1014.4,,,,,,,,,,,TRACE,,,,,1100.0,1100.0,OVC,1100.0,,,,,,
KRDR,10-21-2020,06:50,SPECI,Normal,300,13.0,23.0,,9999.0,,1.0,1.0,29.91,1014.4,,,,,,,,,,,,,,,,1000.0,1000.0,OVC,1000.0,,,,,,
KRDR,10-21-2020,06:46,SPECI,Normal,300,15.0,20.0,,9999.0,Precipitation,1.0,1.0,29.91,1014.4,41,,,,,,,,,,,,,,,1000.0,1000.0,OVC,1000.0,,,,,,
KRDR,10-21-2020,06:41,SPECI,Normal,300,12.0,,,9999.0,,1.0,1.0,29.90,1014.1,,,,,,,,,,,,,,,,1000.0,1000.0,OVC,1000.0,,,,,,
KRDR,10-21-2020,06:40,SPECI,Normal,310,12.0,,,9999.0,Precipitation,1.0,1.0,29.90,1014.1,41,,,,,,,,,,,,,,,1000.0,1000.0,OVC,1000.0,,,,,,
KRDR,10-21-2020,06:26,SPECI,Normal,300,10.0,,,9999.0,,1.0,1.0,29.90,1014.1,,,,,,,,,,,,,,,,1000.0,1000.0,OVC,1000.0,,,,,,
KRDR,10-21-2020,05:56,METAR,Normal,310,12.0,,,9999.0,,0.9,0.9,29.89,1013.7,,,,,,,,,,,,,.02 IN,,,1100.0,1100.0,OVC,1100.0,,,,,,
KRDR,10-21-2020,05:54,SPECI,Normal,310,9.0,,,9999.0,,1.0,1.0,29.89,1013.7,,,,,,,,,,,,,,,,1100.0,1100.0,OVC,1100.0,,,,,,
KRDR,10-21-2020,05:16,SPECI,Normal,300,8.0,,,9999.0,,1.0,1.0,29.89,1013.7,,,,,,,,,,,,,,,,1200.0,1200.0,BKN,1200.0,BKN,3100.0,OVC,4400.0,,
KRDR,10-21-2020,04:56,METAR,Normal,290,6.0,,,9999.0,,0.3,0.3,29.90,1014.1,,,,,,,,,,,,,,,,3100.0,1200.0,SCT,1200.0,BKN,3100.0,OVC,4000.0,,
KRDR,10-21-2020,04:46,SPECI,Normal,270,6.0,,,9999.0,,0.0,0.0,29.90,1014.1,,,,,,,,,,,,,,,,3100.0,1200.0,SCT,1200.0,OVC,3100.0,,,,
KRDR,10-21-2020,04:36,SPECI,Normal,260,6.0,,,9999.0,,0.0,0.0,29.90,1014.1,,,,,,,,,,,,,,,,1200.0,1200.0,BKN,1200.0,OVC,1800.0,,,,
KRDR,10-21-2020,04:26,SPECI,Normal,260,5.0,,,9999.0,,0.0,0.0,29.90,1014.1,,,,,,,,,,,,,,,,1300.0,1300.0,OVC,1300.0,,,,,,
KRDR,10-21-2020,03:56,METAR,Normal,220,5.0,,,9999.0,,-0.1,-0.1,29.91,1014.5,,,,,,,,,,,,,,,,1600.0,900.0,FEW,900.0,BKN,1600.0,OVC,2400.0,,
KRDR,10-21-2020,03:46,SPECI,Normal,210,6.0,,,9999.0,,0.0,0.0,29.91,1014.5,,,,,,,,,,,,,,,,2200.0,800.0,SCT,800.0,OVC,2200.0,,,,
KRDR,10-21-2020,02:56,METAR,Normal,190,5.0,,,9999.0,,-0.1,-0.1,29.91,1014.5,,,,,,,,,,,,.02 IN,,,,600.0,600.0,OVC,600.0,,,,,,
KRDR,10-21-2020,02:25,SPECI,Normal,190,7.0,,,9999.0,,0.0,0.0,29.91,1014.5,,,,,,,,,,,,,,,,600.0,600.0,OVC,600.0,,,,,,
KRDR,10-21-2020,01:53,METAR,Normal,170,7.0,,,4800.0,Mist,-0.1,-0.1,29.92,1014.8,10,,,,,,,,,,.01 IN,,,,,700.0,700.0,OVC,700.0,,,,,,
KRDR,10-21-2020,00:54,METAR,Normal,170,7.0,,,3200.0,Light Snow/Mist,0.0,0.0,29.93,1015.2,,,,71,10,,,,,,.01 IN,,,,,500.0,500.0,OVC,500.0,,,,,,
KRDR,10-20-2020,23:58,METAR,Normal,160,9.0,,,3200.0,Light Snow,0.0,0.0,29.93,1015.2,71,,,,,,,,,,.01 IN,,.03 IN,,,400.0,400.0,OVC,400.0,,,,,,
KRDR,10-20-2020,23:31,SPECI,Normal,150,8.0,,,1600.0,Light Snow/Mist,0.0,0.0,29.93,1015.2,71,10,,,,,,,,,,,,,,400.0,400.0,BKN,400.0,OVC,800.0,,,,
KRDR,10-20-2020,22:55,METAR,Normal,150,9.0,,,800.0,Snow/Fog,0.0,0.0,29.94,1015.6,72,30,,,,,,,,,.01 IN,,,,,500.0,500.0,OVC,500.0,,,,,,
KRDR,10-20-2020,21:58,METAR,Normal,150,8.0,,,3200.0,Light Snow/Mist,0.1,0.1,29.95,1016.0,71,10,,,,,,,,,.01 IN,,,,,500.0,500.0,BKN,500.0,OVC,1300.0,,,,
KRDR,10-20-2020,20:56,METAR,Normal,140,10.0,,,3200.0,Light Snow/Mist,0.2,0.2,29.96,1016.4,71,10,,,,,,,,,TRACE,.01 IN,,,,600.0,600.0,OVC,600.0,,,,,,
KRDR,10-20-2020,19:56,METAR,Normal,140,9.0,,,4800.0,Light Snow/Mist,0.2,0.2,29.98,1017.3,71,10,,,,,,,,,TRACE,,,,,500.0,500.0,OVC,500.0,,,,,,
KRDR,10-20-2020,18:56,METAR,Normal,150,11.0,,,3200.0,Light Snow/Mist,0.3,0.3,30.00,1017.9,71,10,,,,,,,,,.01 IN,,,,,600.0,600.0,OVC,600.0,,,,,,
KRDR,10-20-2020,18:43,SPECI,Normal,150,11.0,,,4000.0,Light Snow/Mist,0.0,0.0,30.00,1017.9,,,,71,10,,,,,,,,,,,600.0,600.0,OVC,600.0,,,,,,
KRDR,10-20-2020,17:56,METAR,Normal,150,13.0,,,4800.0,Light Snow/Mist,0.3,0.3,30.03,1019.0,71,10,,,,,,,,,TRACE,,.08 IN,,,600.0,600.0,OVC,600.0,,,,,,
KRDR,10-20-2020,17:10,SPECI,Normal,140,12.0,,,3200.0,Light Snow/Mist,0.0,0.0,30.04,1019.3,71,10,,,,,,,,,,,,,,500.0,500.0,OVC,500.0,,,,,,
KRDR,10-20-2020,16:56,METAR,Normal,140,13.0,,,1600.0,Light Snow/Mist,0.0,0.0,30.05,1019.7,71,10,,,,,,,,,.02 IN,,,,,600.0,600.0,OVC,600.0,,,,,,
KRDR,10-20-2020,16:28,SPECI,Normal,130,11.0,,,1200.0,Light Snow/Mist,0.0,0.0,30.06,1020.0,71,10,,,,,,,,,,,,,,700.0,700.0,OVC,700.0,,,,,,
KRDR,10-20-2020,15:59,METAR,Normal,130,9.0,,,800.0,Snow/Mist,-0.4,-0.5,30.07,1020.2,72,10,,,,,,,,,TRACE,,,,,700.0,700.0,OVC,700.0,,,,,,
KRDR,10-20-2020,15:19,SPECI,Normal,140,10.0,,,1200.0,Light Snow/Mist,-1.0,-1.0,30.08,1020.6,,,,71,10,,,,,,,,,,,1300.0,700.0,SCT,700.0,OVC,1300.0,,,,
KRDR,10-20-2020,14:56,METAR,Normal,140,10.0,,,1600.0,Light Snow/Mist,-0.7,-0.8,30.09,1020.9,71,10,,,,,,,,,.01 IN,.01 IN,,,,2100.0,800.0,FEW,800.0,OVC,2100.0,,,,
KRDR,10-20-2020,13:56,METAR,Normal,160,10.0,,,2400.0,Light Snow/Mist,-0.7,-2.6,30.11,1021.7,71,10,,,,,,,,,TRACE,,,,,2600.0,2600.0,OVC,2600.0,,,,,,
KRDR,10-20-2020,13:38,SPECI,Normal,160,8.0,,,4800.0,Light Snow/Mist,-1.0,-3.0,30.11,1021.7,71,10,,,,,,,,,,,,,,2800.0,2300.0,FEW,2300.0,OVC,2800.0,,,,
KRDR,10-20-2020,13:19,SPECI,Normal,150,7.0,,,9999.0,Light Snow,-1.0,-4.0,30.11,1021.6,71,,,,,,,,,,,,,,,2800.0,2300.0,SCT,2300.0,BKN,2800.0,OVC,3400.0,,
KRDR,10-20-2020,12:56,METAR,Normal,140,8.0,,,9999.0,,-0.8,-4.0,30.11,1021.6,,,,,,,,,,,,,,,,3400.0,3400.0,OVC,3400.0,,,,,,
KRDR,10-20-2020,11:56,METAR,Normal,140,8.0,,,9999.0,,-1.4,-4.2,30.11,1021.5,,,,,,,,,,,,,TRACE,IN,,3700.0,3700.0,OVC,3700.0,,,,,,
KRDR,10-20-2020,10:56,METAR,Normal,120,6.0,,,9999.0,,-2.5,-5.0,30.13,1022.1,,,,,,,,,,,,,,,,4100.0,4100.0,OVC,4100.0,,,,,,
KRDR,10-20-2020,09:56,METAR,Calm,,0.0,,,9999.0,,-3.8,-5.4,30.15,1022.7,,,,,,,,,,,TRACE,,,,,4300.0,4300.0,OVC,4300.0,,,,,,
KRDR,10-20-2020,09:17,SPECI,Normal,140,4.0,,,9999.0,,-5.0,-6.0,30.16,,,,,,,,,,,,,,,,,4000.0,4000.0,OVC,4000.0,,,,,,
KRDR,10-20-2020,09:15,SPECI,Normal,140,4.0,,,9999.0,Light Snow,-5.0,-7.0,30.16,,71,,,,,,,,,,,,,,,4000.0,4000.0,OVC,4000.0,,,,,,
KRDR,10-20-2020,08:56,METAR,Calm,,0.0,,,9999.0,,-5.4,-7.5,30.17,,,,,,,,,,,,TRACE,TRACE,,,,3800.0,3800.0,OVC,3800.0,,,,,,
KRDR,10-20-2020,08:40,SPECI,Normal,140,3.0,,,9999.0,,-6.0,-8.0,30.16,,,,,,,,,,,,,,,,,3800.0,3800.0,OVC,3800.0,,,,,,
KRDR,10-20-2020,08:38,SPECI,Normal,140,3.0,,,9999.0,Light Snow,-6.0,-8.0,30.16,,71,,,,,,,,,,,,,,,3800.0,3800.0,OVC,3800.0,,,,,,
KRDR,10-20-2020,07:56,METAR,Calm,,0.0,,,9999.0,,-10.0,-11.9,30.17,,,,,,,,,,,,,,,,,4500.0,4500.0,BKN,4500.0,,,,,,
KRDR,10-20-2020,06:56,METAR,Calm,,0.0,,,9999.0,,-10.6,-13.3,30.17,,,,,,,,,,,,,,,,Clear,72000.0,,,,,,,,,
KRDR,10-20-2020,05:56,METAR,Calm,,0.0,,,9999.0,,-10.8,-13.1,30.18,,,,,,,,,,,,,,TRACE,,Clear,72000.0,,,,,,,,,
KRDR,10-20-2020,04:56,METAR,Calm,,0.0,,,9999.0,,-11.0,-12.8,30.20,1024.8,,,,,,,,,,,,,,,Clear,72000.0,,,,,,,,,
KRDR,10-20-2020,03:56,METAR,Calm,,0.0,,,9999.0,,-8.5,-11.4,30.20,1024.7,,,,,,,,,,,TRACE,,,,2/8 Mostly Clear,72000.0,5000.0,FEW,5000.0,,,,,,
KRDR,10-20-2020,03:29,SPECI,Calm,,0.0,,,9999.0,,-7.0,-11.0,30.21,1025.0,,,,,,,,,,,,,,,,5000.0,5000.0,BKN,5000.0,,,,,,
KRDR,10-20-2020,03:16,SPECI,Normal,100,5.0,,,9999.0,Light Snow,-7.0,-11.0,30.21,1025.0,71,,,,,,,,,,,,,,,5000.0,5000.0,OVC,5000.0,,,,,,
KRDR,10-20-2020,02:56,METAR,Calm,,0.0,,,9999.0,,-7.2,-11.1,30.21,1025.0,,,,,,,,,,,,,,,2/8 Mostly Clear,72000.0,5000.0,FEW,5000.0,,,,,,
KRDR,10-20-2020,01:56,METAR,Calm,,0.0,,,9999.0,,-9.5,-12.0,30.21,1025.1,,,,,,,,,,,,,,,2/8 Mostly Clear,72000.0,6000.0,FEW,6000.0,,,,,,
KRDR,10-20-2020,00:56,METAR,Calm,,0.0,,,9999.0,,-6.7,-11.3,30.20,1024.8,,,,,,,,,,,,,,,2/8 Mostly Clear,72000.0,6000.0,FEW,6000.0,,,,,,
KRDR,10-19-2020,23:56,METAR,Calm,,0.0,,,9999.0,,-2.8,-12.0,30.21,1024.9,,,,,,,,,,,,,,,2/8 Mostly Clear,72000.0,6000.0,FEW,6000.0,,,,,,
KRDR,10-19-2020,22:56,METAR,Normal,300,3.0,,,9999.0,,0.4,-12.6,30.20,1024.4,,,,,,,,,,,,,,,2/8 Mostly Clear,72000.0,5500.0,FEW,5500.0,,,,,,
KRDR,10-19-2020,21:56,METAR,Normal,250,4.0,,,9999.0,,1.7,-12.9,30.20,1024.4,,,,,,,,,,,,,,,4/8 Partly Cloudy,72000.0,5500.0,SCT,5500.0,,,,,,
KRDR,10-19-2020,20:56,METAR,Calm,,0.0,,,9999.0,,3.0,-9.0,30.25,,,,,,,,,,,,,,,,4/8 Partly Cloudy,72000.0,5000.0,SCT,5000.0,,,,,,
KRDR,10-19-2020,19:56,METAR,Normal,240,6.0,,,9999.0,,2.0,-10.0,30.26,,,,,,,,,,,,,,,,,5000.0,5000.0,BKN,5000.0,,,,,,
KRDR,10-19-2020,18:56,METAR,Variable,,3.0,,,9999.0,,4.0,-9.0,30.26,,,,,,,,,,,,,,,,,5000.0,5000.0,BKN,5000.0,,,,,,
KRDR,10-19-2020,18:35,SPECI,Normal,200,5.0,,,9999.0,,3.0,-9.0,30.27,,,,,,,,,,,,,,,,,5000.0,5000.0,BKN,5000.0,,,,,,
KRDR,10-19-2020,17:56,METAR,Normal,270,5.0,,,9999.0,,1.6,-13.0,,,,,,,,,,,,,,,,,,5000.0,5000.0,OVC,5000.0,,,,,,
KRDR,10-19-2020,16:56,METAR,Normal,290,3.0,,,9999.0,,0.2,-12.8,30.23,1025.5,,,,,,,,,,,,,,,,4800.0,4800.0,OVC,4800.0,,,,,,
KRDR,10-19-2020,15:56,METAR,Normal,280,5.0,,,9999.0,,-0.4,-12.4,30.23,1025.5,,,,,,,,,,,,,,,,5000.0,5000.0,OVC,5000.0,,,,,,
KRDR,10-19-2020,14:56,METAR,Normal,280,7.0,,,9999.0,,-1.3,-11.7,30.22,1025.1,,,,,,,,,,,,,,,,5000.0,5000.0,OVC,5000.0,,,,,,
KRDR,10-19-2020,13:56,METAR,Normal,310,5.0,,,9999.0,,-1.9,-12.8,30.21,1024.8,,,,,,,,,,,,,,,,5000.0,5000.0,OVC,5000.0,,,,,,
KRDR,10-19-2020,12:56,METAR,Normal,290,4.0,,,9999.0,,-2.9,-10.7,30.20,1024.5,,,,,,,,,,,,,,,,5000.0,5000.0,OVC,5000.0,,,,,,
KRDR,10-19-2020,11:56,METAR,Normal,290,3.0,,,9999.0,,-2.4,-11.2,30.19,1024.1,,,,,,,,,,,,,,,,4800.0,4800.0,OVC,4800.0,,,,,,
KRDR,10-19-2020,10:56,METAR,Normal,270,4.0,,,9999.0,,-2.2,-11.2,30.19,1024.1,,,,,,,,,,,,,,,,4800.0,4800.0,OVC,4800.0,,,,,,
KRDR,10-19-2020,09:56,METAR,Normal,270,5.0,,,9999.0,,-2.1,-10.9,30.19,1024.1,,,,,,,,,,,,,,,,4700.0,4700.0,OVC,4700.0,,,,,,
KRDR,10-19-2020,08:56,METAR,Normal,260,5.0,,,9999.0,,-2.0,-10.6,30.19,1024.1,,,,,,,,,,,,,,,,4700.0,4700.0,OVC,4700.0,,,,,,
KRDR,10-19-2020,07:56,METAR,Normal,270,5.0,,,9999.0,,-1.8,-10.1,30.19,1024.1,,,,,,,,,,,,,,,,4700.0,4700.0,OVC,4700.0,,,,,,
KRDR,10-19-2020,06:56,METAR,Normal,290,4.0,,,9999.0,,-1.7,-10.5,30.19,1024.1,,,,,,,,,,,,,,,,4800.0,4800.0,OVC,4800.0,,,,,,
KRDR,10-19-2020,05:56,METAR,Normal,290,6.0,,,9999.0,,-1.3,-11.4,30.19,1024.0,,,,,,,,,,,,,,,,5000.0,5000.0,OVC,5000.0,,,,,,
KRDR,10-19-2020,04:56,METAR,Normal,280,5.0,,,9999.0,,-1.2,-10.8,30.20,1024.4,,,,,,,,,,,,,,,,5000.0,4100.0,FEW,4100.0,OVC,5000.0,,,,
KRDR,10-19-2020,03:56,METAR,Normal,280,5.0,,,9999.0,,-1.2,-10.1,30.19,1024.1,,,,,,,,,,,,,,,,5000.0,5000.0,OVC,5000.0,,,,,,
KRDR,10-19-2020,02:56,METAR,Normal,270,4.0,,,9999.0,,-1.1,-10.5,30.19,1024.1,,,,,,,,,,,,,,,,5000.0,5000.0,OVC,5000.0,,,,,,
KRDR,10-19-2020,01:56,METAR,Normal,300,7.0,,,9999.0,,-0.5,-11.3,30.18,1023.8,,,,,,,,,,,,,,,,5500.0,5500.0,OVC,5500.0,,,,,,
KRDR,10-19-2020,00:56,METAR,Normal,280,6.0,,,9999.0,,-0.5,-11.3,30.18,1023.8,,,,,,,,,,,,,,,,5500.0,5500.0,OVC,5500.0,,,,,,
KRDR,10-18-2020,23:56,METAR,Normal,300,7.0,,,9999.0,,-0.3,-11.7,30.17,1023.4,,,,,,,,,,,,,,,,5000.0,3900.0,FEW,3900.0,OVC,5000.0,,,,
KRDR,10-18-2020,22:56,METAR,Normal,290,11.0,,,9999.0,,0.2,-11.5,30.16,1023.1,,,,,,,,,,,,,,,,5000.0,5000.0,OVC,5000.0,,,,,,
KRDR,10-18-2020,21:56,METAR,Normal,300,12.0,,,9999.0,,0.8,-11.9,30.15,1022.7,,,,,,,,,,,,,,,,5000.0,5000.0,OVC,5000.0,,,,,,
KRDR,10-18-2020,20:56,METAR,Normal,290,11.0,,,9999.0,,0.8,-11.6,30.14,1022.4,,,,,,,,,,,,,,,,5000.0,5000.0,OVC,5000.0,,,,,,
KRDR,10-18-2020,19:56,METAR,Normal,310,12.0,17.0,,9999.0,,0.6,-12.1,30.15,1022.7,,,,,,,,,,,,,,,,5000.0,5000.0,OVC,5000.0,,,,,,
KRDR,10-18-2020,18:56,METAR,Normal,310,13.0,22.0,,9999.0,,0.8,-11.9,30.16,1023.2,,,,,,,,,,,,,,,,5000.0,5000.0,OVC,5000.0,,,,,,
KRDR,10-18-2020,17:56,METAR,Normal,310,12.0,,,9999.0,,0.5,-11.6,30.16,1023.2,,,,,,,,,,,TRACE,,TRACE,,,4900.0,4900.0,OVC,4900.0,,,,,,
KRDR,10-18-2020,17:19,SPECI,Normal,310,12.0,,,9999.0,,0.0,-11.0,30.16,1023.2,,,,,,,,,,,,,,,,4500.0,4500.0,OVC,4500.0,,,,,,
KRDR,10-18-2020,16:56,METAR,Normal,320,12.0,19.0,,9999.0,Light Snow,-0.4,-10.9,30.16,1023.2,71,,,,,,,,,,TRACE,,,,,4500.0,4500.0,OVC,4500.0,,,,,,
KRDR,10-18-2020,16:46,SPECI,Normal,310,13.0,,,9999.0,Light Snow,0.0,-11.0,30.15,1022.8,71,,,,,,,,,,,,,,,4500.0,4500.0,OVC,4500.0,,,,,,
KRDR,10-18-2020,16:20,SPECI,Normal,330,13.0,17.0,,9999.0,,0.0,-11.0,30.15,1022.8,,,,,,,,,,,,,,,,5000.0,3900.0,SCT,3900.0,OVC,5000.0,,,,
KRDR,10-18-2020,16:00,SPECI,Normal,320,15.0,19.0,,9999.0,Light Snow,0.0,-9.0,30.15,1022.8,71,,,,,,,,,,,,,,,5000.0,3600.0,SCT,3600.0,OVC,5000.0,,,,
KRDR,10-18-2020,15:56,METAR,Normal,320,14.0,17.0,,9999.0,,-0.2,-9.6,30.15,1022.8,,,,,,,,,,,TRACE,,,,,5000.0,4000.0,FEW,4000.0,OVC,5000.0,,,,
KRDR,10-18-2020,14:56,METAR,Normal,320,11.0,,,9999.0,,-1.1,-8.5,30.15,1022.9,,,,,,,,,,,TRACE,TRACE,,,,5000.0,4500.0,FEW,4500.0,OVC,5000.0,,,,
KRDR,10-18-2020,14:53,SPECI,Normal,330,10.0,,,9999.0,,-1.0,-8.0,30.15,1022.9,,,,,,,,,,,,,,,,5000.0,4500.0,FEW,4500.0,OVC,5000.0,,,,
KRDR,10-18-2020,14:44,SPECI,Normal,320,11.0,,,9999.0,Precipitation,-1.0,-9.0,30.15,1022.8,41,,,,,,,,,,,,,,,5000.0,3600.0,FEW,3600.0,OVC,5000.0,,,,
KRDR,10-18-2020,14:39,SPECI,Normal,320,10.0,,,9999.0,,-1.0,-10.0,30.15,1022.8,,,,,,,,,,,,,,,,4800.0,3600.0,FEW,3600.0,OVC,4800.0,,,,
KRDR,10-18-2020,14:32,SPECI,Normal,320,10.0,,,9999.0,Precipitation,-1.0,-10.0,30.15,1022.8,41,,,,,,,,,,,,,,,5000.0,1800.0,FEW,1800.0,SCT,4000.0,OVC,5000.0,,
KRDR,10-18-2020,14:02,SPECI,Normal,310,9.0,,,9999.0,,-1.0,-10.0,30.14,1022.5,,,,,,,,,,,,,,,,5000.0,4100.0,FEW,4100.0,OVC,5000.0,,,,
KRDR,10-18-2020,13:56,METAR,Normal,310,9.0,,,9999.0,Light Snow,-1.4,-9.8,30.14,1022.5,71,,,,,,,,,,TRACE,,,,,5000.0,5000.0,OVC,5000.0,,,,,,
KRDR,10-18-2020,13:51,SPECI,Normal,330,13.0,,,9999.0,Precipitation,-1.0,-10.0,30.14,1022.5,41,,,,,,,,,,,,,,,5000.0,5000.0,OVC,5000.0,,,,,,
KRDR,10-18-2020,12:56,METAR,Normal,320,9.0,,,9999.0,,-1.6,-10.2,30.12,1021.7,,,,,,,,,,,,,,,,4800.0,3800.0,FEW,3800.0,OVC,4800.0,,,,
KRDR,10-18-2020,11:56,METAR,Normal,310,11.0,,,9999.0,,-1.7,-9.8,30.12,1021.7,,,,,,,,,,,,,,,,4600.0,3800.0,FEW,3800.0,OVC,4600.0,,,,
KRDR,10-18-2020,10:56,METAR,Normal,310,8.0,,,9999.0,,-1.9,-7.8,30.11,1021.3,,,,,,,,,,,,,,,,4600.0,4600.0,OVC,4600.0,,,,,,
KRDR,10-18-2020,09:56,METAR,Normal,290,8.0,,,9999.0,,-1.9,-9.1,30.10,1020.9,,,,,,,,,,,,,,,,4400.0,4400.0,OVC,4400.0,,,,,,
KRDR,10-18-2020,08:56,METAR,Normal,300,8.0,,,9999.0,,-2.2,-9.8,30.09,1020.5,,,,,,,,,,,,,,,,4400.0,4400.0,OVC,4400.0,,,,,,
KRDR,10-18-2020,07:56,METAR,Normal,320,7.0,,,9999.0,,-2.1,-10.6,30.08,1020.1,,,,,,,,,,,,,,,,4300.0,4300.0,OVC,4300.0,,,,,,
KRDR,10-18-2020,06:56,METAR,Normal,300,6.0,,,9999.0,,-5.3,-9.6,30.08,1020.3,,,,,,,,,,,,,,,Clear,72000.0,,,,,,,,,
KRDR,10-18-2020,05:56,METAR,Normal,300,7.0,,,9999.0,,-4.6,-8.7,30.07,1019.9,,,,,,,,,,,,,,,,4600.0,4600.0,BKN,4600.0,,,,,,
KRDR,10-18-2020,04:56,METAR,Normal,310,7.0,,,9999.0,,-4.0,-9.4,30.07,1019.9,,,,,,,,,,,,,,,4/8 Partly Cloudy,72000.0,4300.0,SCT,4300.0,,,,,,
KRDR,10-18-2020,03:56,METAR,Normal,310,7.0,,,9999.0,,-3.4,-9.9,30.06,1019.6,,,,,,,,,,,,,,,,3800.0,3800.0,OVC,3800.0,,,,,,
KRDR,10-18-2020,02:56,METAR,Normal,320,9.0,,,9999.0,,-4.2,-10.2,30.05,1019.3,,,,,,,,,,,,,,,Clear,72000.0,,,,,,,,,
KRDR,10-18-2020,01:56,METAR,Normal,330,12.0,19.0,,9999.0,,-3.1,-10.2,30.02,1018.3,,,,,,,,,,,,,,,Clear,72000.0,,,,,,,,,
KRDR,10-18-2020,00:56,METAR,Normal,330,9.0,,,9999.0,,-0.3,-10.5,30.00,1017.5,,,,,,,,,,,,,,,,6000.0,6000.0,BKN,6000.0,,,,,,
KRDR,10-17-2020,23:56,METAR,Normal,330,9.0,,,9999.0,,0.8,-11.0,29.96,1016.1,,,,,,,,,,,,,,,Clear,72000.0,,,,,,,,,
KRDR,10-17-2020,22:56,METAR,Normal,320,12.0,,,9999.0,,2.6,-10.6,29.94,1015.4,,,,,,,,,,,,,,,,5500.0,5500.0,BKN,5500.0,,,,,,
KRDR,10-17-2020,21:56,METAR,Normal,340,11.0,,,9999.0,,4.3,-10.6,29.91,1014.3,,,,,,,,,,,,,,,2/8 Mostly Clear,72000.0,5500.0,FEW,5500.0,,,,,,
KRDR,10-17-2020,20:56,METAR,Normal,330,9.0,17.0,,9999.0,,5.2,-11.0,29.90,1014.0,,,,,,,,,,,,,,,Clear,72000.0,,,,,,,,,
KRDR,10-17-2020,20:33,SPECI,Normal,360,13.0,20.0,,9999.0,,5.0,-11.0,29.89,1013.7,,,,,,,,,,,,,,,Clear,72000.0,,,,,,,,,
KRDR,10-17-2020,19:56,METAR,Normal,340,13.0,21.0,,9999.0,,5.6,-12.9,29.89,1013.7,,,,,,,,,,,,,,,Clear,72000.0,,,,,,,,,
KRDR,10-17-2020,18:56,METAR,Normal,340,10.0,18.0,,9999.0,,5.3,-14.2,29.88,1013.4,,,,,,,,,,,,,,,2/8 Mostly Clear,72000.0,3000.0,FEW,3000.0,,,,,,
KRDR,10-17-2020,17:56,METAR,Normal,330,13.0,19.0,,9999.0,,5.0,-12.9,29.90,1014.1,,,,,,,,,,,,,TRACE,,2/8 Mostly Clear,72000.0,3000.0,FEW,3000.0,,,,,,
KRDR,10-17-2020,16:56,METAR,Normal,330,11.0,18.0,,9999.0,,4.7,-5.4,29.88,1013.4,,,,,,,,,,,,,,,2/8 Mostly Clear,72000.0,3800.0,FEW,3800.0,,,,,,
KRDR,10-17-2020,15:56,METAR,Normal,330,9.0,,,9999.0,,2.7,-1.5,29.87,1013.2,,,,,,,,,,,,,,,4/8 Partly Cloudy,72000.0,8000.0,SCT,8000.0,,,,,,
KRDR,10-17-2020,14:56,METAR,Normal,290,5.0,,,9999.0,,1.0,0.4,29.86,1012.9,,,,,,,,,,,TRACE,TRACE,,,2/8 Mostly Clear,72000.0,8500.0,FEW,8600.0,,,,,,
KRDR,10-17-2020,14:24,SPECI,Normal,280,4.0,,,9999.0,,1.0,1.0,29.86,1012.9,,,,,,,,,,,,,,,4/8 Partly Cloudy,72000.0,8000.0,SCT,8000.0,SCT,9100.0,,,,
KRDR,10-17-2020,13:56,METAR,Normal,290,4.0,,,9999.0,Light Snow,0.2,0.1,29.86,1012.9,71,,,,,,,,,,TRACE,,,,2/8 Mostly Clear,72000.0,2200.0,FEW,2200.0,,,,,,
KRDR,10-17-2020,13:23,SPECI,Normal,300,6.0,,,9999.0,Light Snow,1.0,-1.0,29.86,1012.8,71,,,,,,,,,,,,,,,2200.0,2200.0,BKN,2200.0,,,,,,
KRDR,10-17-2020,13:22,SPECI,Normal,300,6.0,,,9999.0,,1.0,-1.0,29.86,1012.8,,,,,,,,,,,,,,,,2700.0,2100.0,SCT,2100.0,BKN,2700.0,,,,
KRDR,10-17-2020,13:12,SPECI,Normal,300,4.0,,,9999.0,,1.0,-2.0,29.85,1012.5,,,,,,,,,,,,,,,2/8 Mostly Clear,72000.0,2700.0,FEW,2700.0,,,,,,
KRDR,10-17-2020,12:56,METAR,Normal,320,3.0,,,9999.0,Light Snow,0.7,-2.0,29.85,1012.5,71,,,,,,,,,,TRACE,,,,2/8 Mostly Clear,72000.0,2800.0,FEW,2800.0,,,,,,
KRDR,10-17-2020,12:45,SPECI,Normal,310,4.0,,,9999.0,Light Snow,1.0,-2.0,29.85,1012.4,71,,,,,,,,,,,,,,4/8 Partly Cloudy,72000.0,1900.0,SCT,1900.0,SCT,2800.0,,,,
KRDR,10-17-2020,11:56,METAR,Calm,,0.0,,,9999.0,Light Snow,0.2,-4.1,29.83,1011.7,71,,,,,,,,,,TRACE,,TRACE,,,2800.0,2200.0,FEW,2200.0,BKN,2800.0,BKN,3600.0,,
KRDR,10-17-2020,10:56,METAR,Calm,,0.0,,,9999.0,,-0.5,-3.7,29.82,1011.3,,,,,,,,,,,,,,,,5000.0,4200.0,FEW,4200.0,BKN,5000.0,,,,
KRDR,10-17-2020,10:02,METAR,Calm,,0.0,,,9999.0,,-0.3,-4.6,29.80,1010.6,,,,,,,,,,,,,,,,7000.0,7000.0,BKN,7000.0,,,,,,
KRDR,10-17-2020,09:56,METAR,Calm,,0.0,,,9999.0,,-0.3,-4.6,29.80,1010.6,,,,,,,,,,,,,,,,7000.0,7000.0,BKN,7000.0,,,,,,
KRDR,10-17-2020,08:56,METAR,Calm,,0.0,,,9999.0,,-1.4,-4.2,29.81,1010.9,,,,,,,,,,,,,,,,5000.0,5000.0,BKN,5000.0,,,,,,
KRDR,10-17-2020,07:56,METAR,Calm,,0.0,,,9999.0,,-1.5,-5.5,29.81,1010.9,,,,,,,,,,,,,,,Clear,72000.0,,,,,,,,,
KRDR,10-17-2020,06:56,METAR,Normal,260,3.0,,,9999.0,,-2.1,-5.4,29.81,1011.0,,,,,,,,,,,,,,,Clear,72000.0,,,,,,,,,
KRDR,10-17-2020,05:56,METAR,Normal,230,5.0,,,9999.0,,-2.3,-6.7,29.83,1011.7,,,,,,,,,,,,,,,,13000.0,13000.0,BKN,13000.0,,,,,,
KRDR,10-17-2020,04:56,METAR,Normal,230,3.0,,,9999.0,,-3.2,-8.7,29.84,1012.2,,,,,,,,,,,,,,,,13000.0,13000.0,BKN,13000.0,,,,,,
KRDR,10-17-2020,03:56,METAR,Normal,240,4.0,,,9999.0,,-4.5,-9.7,29.83,1011.8,,,,,,,,,,,,,,,Clear,72000.0,,,,,,,,,
KRDR,10-17-2020,02:56,METAR,Calm,,0.0,,,9999.0,,-4.8,-9.1,29.84,1012.3,,,,,,,,,,,,,,,Clear,72000.0,,,,,,,,,
KRDR,10-17-2020,01:56,METAR,Normal,220,5.0,,,9999.0,,-3.5,-9.5,29.85,1012.7,,,,,,,,,,,,,,,Clear,72000.0,,,,,,,,,
KRDR,10-17-2020,00:56,METAR,Normal,220,4.0,,,9999.0,,-2.4,-9.5,29.85,1012.7,,,,,,,,,,,,,,,Clear,72000.0,,,,,,,,,
KRDR,10-16-2020,23:56,METAR,Normal,260,5.0,,,9999.0,,0.2,-10.3,29.86,1012.9,,,,,,,,,,,,,,,,19000.0,19000.0,BKN,19000.0,,,,,,
KRDR,10-16-2020,22:56,METAR,Normal,300,7.0,,,9999.0,,3.2,-11.2,29.87,1013.1,,,,,,,,,,,,,,,,19000.0,19000.0,BKN,19000.0,,,,,,
KRDR,10-16-2020,21:56,METAR,Normal,280,14.0,18.0,,9999.0,,4.4,-12.5,29.88,1013.4,,,,,,,,,,,,,,,2/8 Mostly Clear,72000.0,20000.0,FEW,20000.0,,,,,,
KRDR,10-16-2020,20:56,METAR,Normal,300,10.0,,,9999.0,,5.2,-13.3,29.88,1013.3,,,,,,,,,,,,,,,Clear,72000.0,,,,,,,,,
KRDR,10-16-2020,19:56,METAR,Normal,270,10.0,22.0,,9999.0,,5.2,-12.3,29.90,1014.0,,,,,,,,,,,,,,,4/8 Partly Cloudy,72000.0,6000.0,FEW,6000.0,SCT,20000.0,,,,
KRDR,10-16-2020,19:54,SPECI,Normal,270,12.0,22.0,,9999.0,,5.0,-12.0,29.90,1014.0,,,,,,,,,,,,,,,Clear,72000.0,,,,,,,,,
KRDR,10-16-2020,18:56,METAR,Normal,310,13.0,17.0,,9999.0,,4.2,-12.7,29.92,1014.7,,,,,,,,,,,,,,,Clear,72000.0,,,,,,,,,
KRDR,10-16-2020,17:56,METAR,Normal,320,13.0,20.0,,9999.0,,3.5,-12.5,29.95,1015.8,,,,,,,,,,,,,,,Clear,72000.0,,,,,,,,,
KRDR,10-16-2020,16:56,METAR,Normal,360,14.0,17.0,,9999.0,,1.9,-11.3,29.98,1016.8,,,,,,,,,,,,,,,2/8 Mostly Clear,72000.0,6500.0,FEW,6500.0,,,,,,
KRDR,10-16-2020,15:56,METAR,Normal,340,10.0,,,9999.0,,1.1,-10.4,30.00,1017.5,,,,,,,,,,,,,,,2/8 Mostly Clear,72000.0,6500.0,FEW,6500.0,,,,,,
KRDR,10-16-2020,14:56,METAR,Normal,340,13.0,,,9999.0,,-0.3,-9.0,29.99,1017.2,,,,,,,,,,,,,,,Clear,72000.0,,,,,,,,,
KRDR,10-16-2020,13:56,METAR,Normal,290,6.0,,,9999.0,,-2.4,-8.3,29.99,1017.3,,,,,,,,,,,,,,,Clear,72000.0,,,,,,,,,
KRDR,10-16-2020,11:56,METAR,Normal,310,7.0,,,9999.0,,-4.0,-10.0,29.98,1016.9,,,,,,,,,,,,,,,Clear,72000.0,,,,,,,,,
KRDR,10-16-2020,10:56,METAR,Normal,310,8.0,,,9999.0,,-2.9,-9.6,29.98,1016.8,,,,,,,,,,,,,,,Clear,72000.0,,,,,,,,,
KRDR,10-16-2020,09:56,METAR,Normal,320,8.0,,,9999.0,,-1.9,-8.9,29.98,1016.7,,,,,,,,,,,,,,,Clear,72000.0,,,,,,,,,
KRDR,10-16-2020,08:56,METAR,Normal,320,9.0,,,9999.0,,-0.1,-6.3,29.98,1016.6,,,,,,,,,,,,,,,,9500.0,9500.0,OVC,9600.0,,,,,,
KRDR,10-16-2020,07:56,METAR,Normal,300,5.0,,,9999.0,,-1.1,-4.8,29.98,1016.6,,,,,,,,,,,,,,,,9000.0,9000.0,OVC,9100.0,,,,,,
KRDR,10-16-2020,06:56,METAR,Normal,320,7.0,,,9999.0,,-1.3,-5.7,29.98,1016.6,,,,,,,,,,,,,,,,8000.0,8000.0,BKN,8000.0,,,,,,
KRDR,10-16-2020,05:56,METAR,Normal,300,4.0,,,9999.0,,-1.3,-6.8,29.98,1016.7,,,,,,,,,,,,,,,Clear,72000.0,,,,,,,,,
KRDR,10-16-2020,04:56,METAR,Normal,300,8.0,,,9999.0,,1.0,-8.5,29.99,1016.9,,,,,,,,,,,,,,,4/8 Partly Cloudy,72000.0,7000.0,FEW,7000.0,SCT,8600.0,,,,
KRDR,10-16-2020,03:56,METAR,Normal,300,8.0,,,9999.0,,0.4,-7.6,29.98,1016.7,,,,,,,,,,,,,,,2/8 Mostly Clear,72000.0,8000.0,FEW,8000.0,,,,,,
KRDR,10-16-2020,02:56,METAR,Normal,270,7.0,,,9999.0,,0.0,-8.2,29.99,1017.1,,,,,,,,,,,,,,,Clear,72000.0,,,,,,,,,
KRDR,10-16-2020,01:56,METAR,Normal,280,6.0,,,9999.0,,-0.8,-7.6,29.99,1017.3,,,,,,,,,,,,,,,Clear,72000.0,,,,,,,,,
KRDR,10-16-2020,00:56,METAR,Normal,320,7.0,,,9999.0,,2.4,-8.6,30.00,1017.5,,,,,,,,,,,,,,,Clear,72000.0,,,,,,,,,
KRDR,10-15-2020,23:56,METAR,Normal,330,8.0,,,9999.0,,4.3,-6.9,29.98,1016.9,,,,,,,,,,,,,,,,8500.0,7000.0,SCT,7000.0,BKN,8600.0,,,,
KRDR,10-15-2020,22:56,METAR,Normal,320,9.0,,,9999.0,,5.6,-6.6,29.98,1016.8,,,,,,,,,,,,,,,,8000.0,6500.0,SCT,6500.0,OVC,8000.0,,,,
KRDR,10-15-2020,21:56,METAR,Normal,340,14.0,19.0,,9999.0,,6.2,-7.1,29.98,1016.7,,,,,,,,,,,,,,,,7000.0,7000.0,OVC,7000.0,,,,,,
KRDR,10-15-2020,20:56,METAR,Normal,330,15.0,24.0,300/27KTS,9999.0,,8.4,-6.2,29.96,1016.0,,,,,,,,,,,,,,,,6000.0,6000.0,BKN,6000.0,,,,,,
KRDR,10-15-2020,19:56,METAR,Normal,340,17.0,24.0,330/26KTS,9999.0,,8.5,-6.5,29.96,1016.0,,,,,,,,,,,,,,,,6000.0,6000.0,BKN,6000.0,,,,,,
KRDR,10-15-2020,18:56,METAR,Normal,330,16.0,25.0,,9999.0,,7.1,-4.0,29.98,1016.6,,,,,,,,,,,,,,,,4600.0,4600.0,BKN,4600.0,BKN,6000.0,,,,
KRDR,10-15-2020,17:56,METAR,Normal,340,15.0,,,9999.0,,6.0,-4.8,29.99,1017.1,,,,,,,,,,,,,TRACE,,,5000.0,5000.0,BKN,5000.0,BKN,7500.0,,,,
KRDR,10-15-2020,16:56,METAR,Normal,330,15.0,,,9999.0,,6.9,-4.2,29.98,1016.6,,,,,,,,,,,,,,,,8000.0,5000.0,FEW,5000.0,BKN,8000.0,,,,
KRDR,10-15-2020,16:12,SPECI,Normal,310,9.0,18.0,,9999.0,,4.0,-1.0,29.98,1016.8,,,,,,,,,,,,,,,2/8 Mostly Clear,72000.0,6000.0,FEW,6000.0,,,,,,
KRDR,10-15-2020,14:56,METAR,Normal,300,11.0,,,9999.0,,1.1,-2.5,29.97,1016.5,,,,,,,,,,,,,,,,7000.0,7000.0,BKN,7000.0,BKN,8600.0,,,,
KRDR,10-15-2020,13:56,METAR,Normal,290,9.0,,,9999.0,,-0.5,-3.9,29.97,1016.5,,,,,,,,,,,,,,,,10000.0,6000.0,SCT,6000.0,BKN,10000.0,,,,
KRDR,10-15-2020,12:56,METAR,Normal,280,7.0,,,9999.0,,-2.8,-4.8,29.97,1016.6,,,,,,,,,,,,,,,4/8 Partly Cloudy,72000.0,6000.0,FEW,6000.0,SCT,8000.0,,,,
KRDR,10-15-2020,11:56,METAR,Normal,290,6.0,,,9999.0,,-3.1,-5.3,29.97,1016.5,,,,,,,,,,,,,,.04 IN,Clear,72000.0,,,,,,,,,
KRDR,10-15-2020,10:56,METAR,Normal,260,4.0,,,9999.0,,-4.6,-6.3,29.97,1016.5,,,,,,,,,,,,,,,Clear,72000.0,,,,,,,,,
KRDR,10-15-2020,09:56,METAR,Normal,330,6.0,,,9999.0,,-2.2,-5.7,29.96,1016.0,,,,,,,,,,,,,,,Clear,72000.0,,,,,,,,,
KRDR,10-15-2020,08:56,METAR,Normal,310,8.0,,,9999.0,,-2.7,-5.7,29.96,1016.0,,,,,,,,,,,,,,,Clear,72000.0,,,,,,,,,
KRDR,10-15-2020,07:56,METAR,Normal,320,6.0,,,9999.0,,-2.7,-5.7,29.95,1015.7,,,,,,,,,,,,,,,Clear,72000.0,,,,,,,,,
KRDR,10-15-2020,06:56,METAR,Normal,320,8.0,,,9999.0,,-1.7,-5.7,29.94,1015.4,,,,,,,,,,,,,,,Clear,72000.0,,,,,,,,,
KRDR,10-15-2020,05:56,METAR,Normal,310,8.0,,,9999.0,,-1.7,-5.4,29.94,1015.4,,,,,,,,,,,,,,,Clear,72000.0,,,,,,,,,
KRDR,10-15-2020,04:56,METAR,Normal,320,9.0,,,9999.0,,-1.0,-4.7,29.92,1014.7,,,,,,,,,,,,,,,Clear,72000.0,,,,,,,,,
KRDR,10-15-2020,03:56,METAR,Normal,310,7.0,,,9999.0,,-0.4,-3.6,29.91,1014.2,,,,,,,,,,,,,,,Clear,72000.0,,,,,,,,,
KRDR,10-15-2020,02:56,METAR,Normal,320,8.0,,,9999.0,,-0.2,-2.6,29.90,1013.8,,,,,,,,,,,,,,,Clear,72000.0,,,,,,,,,
KRDR,10-15-2020,01:56,METAR,Normal,320,7.0,,,9999.0,,0.5,-3.4,29.87,1012.8,,,,,,,,,,,,,,,Clear,72000.0,,,,,,,,,
KRDR,10-15-2020,00:56,METAR,Normal,350,11.0,,,9999.0,,1.5,-3.8,29.84,1011.8,,,,,,,,,,,,,,,Clear,72000.0,,,,,,,,,
KRDR,10-14-2020,23:56,METAR,Normal,350,14.0,20.0,,9999.0,,3.7,-5.3,29.80,1010.4,,,,,,,,,,,,,.03 IN,,2/8 Mostly Clear,72000.0,20000.0,FEW,20000.0,,,,,,
KRDR,10-14-2020,22:56,METAR,Normal,350,14.0,24.0,350/28KTS,9999.0,,6.0,-0.5,29.76,1008.9,,,,,,,,,,,,,,,4/8 Partly Cloudy,72000.0,4000.0,SCT,4000.0,,,,,,
KRDR,10-14-2020,21:56,METAR,Normal,350,18.0,22.0,360/32KTS,9999.0,,7.2,2.7,29.71,1007.1,,,,,,,,,,,,,,,4/8 Partly Cloudy,72000.0,2900.0,SCT,2900.0,,,,,,
KRDR,10-14-2020,20:56,METAR,Normal,10,21.0,30.0,360/31KTS,9999.0,,6.9,3.1,29.66,1005.4,,,,,,,,,,,.01 IN,.04 IN,,,4/8 Partly Cloudy,72000.0,3000.0,FEW,3000.0,SCT,15000.0,SCT,21000.0,,
KRDR,10-14-2020,20:24,SPECI,Normal,360,19.0,27.0,,9999.0,,6.0,5.0,29.64,1004.8,,,,,,,,,,,,,,,,2800.0,1800.0,SCT,1800.0,BKN,2800.0,,,,
KRDR,10-14-2020,20:06,SPECI,Normal,360,22.0,31.0,,9999.0,Light Rain,6.0,6.0,29.62,1004.1,61,,,,,,,,,,,,,,,1600.0,1600.0,BKN,1600.0,BKN,2000.0,OVC,2800.0,,
KRDR,10-14-2020,19:56,METAR,Normal,360,21.0,29.0,350/32KTS,9999.0,Light Rain,6.1,6.0,29.61,,61,,,,,,,,,,.02 IN,,,,,1400.0,1400.0,BKN,1400.0,BKN,2000.0,OVC,2700.0,,
KRDR,10-14-2020,19:46,SPECI,Normal,360,15.0,23.0,,9999.0,Light Rain,6.0,6.0,29.60,1003.4,61,,,,,,,,,,,,,,,1400.0,1400.0,BKN,1400.0,OVC,2600.0,,,,
KRDR,10-14-2020,19:40,SPECI,Normal,360,16.0,23.0,,9999.0,,6.0,6.0,29.60,1003.4,,,,,,,,,,,,,,,,1400.0,1400.0,OVC,1400.0,,,,,,
KRDR,10-14-2020,19:26,SPECI,Normal,360,16.0,22.0,,9999.0,,6.0,6.0,29.58,1002.7,,,,,,,,,,,,,,,,1100.0,1100.0,OVC,1100.0,,,,,,
KRDR,10-14-2020,19:06,SPECI,Normal,10,20.0,27.0,,9999.0,Light Drizzle,5.0,5.0,29.57,1002.4,51,,,,,,,,,,,,,,,1000.0,1000.0,OVC,1000.0,,,,,,
KRDR,10-14-2020,18:56,METAR,Normal,10,18.0,25.0,360/29KTS,9999.0,Light Drizzle,5.0,5.0,29.56,1002.1,51,,,,,,,,,,.01 IN,,,,,800.0,800.0,BKN,800.0,OVC,1200.0,,,,
KRDR,10-14-2020,18:16,SPECI,Normal,10,22.0,28.0,,8000.0,Light Rain/Mist,4.0,4.0,29.54,1001.4,61,10,,,,,,,,,,,,,,800.0,800.0,OVC,800.0,,,,,,
KRDR,10-14-2020,17:56,METAR,Normal,360,22.0,31.0,360/39KTS,6400.0,Light Rain/Mist,3.8,3.8,29.52,1000.7,61,10,,,,,,,,,.01 IN,,.01 IN,,,700.0,700.0,OVC,700.0,,,,,,
KRDR,10-14-2020,17:24,SPECI,Normal,20,25.0,31.0,,6400.0,Light Rain/Mist,5.0,4.0,29.48,999.4,61,10,,,,,,,,,,,,,,900.0,900.0,OVC,900.0,,,,,,
KRDR,10-14-2020,17:13,SPECI,Normal,10,27.0,34.0,,9999.0,Light Drizzle,5.0,4.0,29.47,999.0,51,,,,,,,,,,,,,,,900.0,900.0,OVC,900.0,,,,,,
KRDR,10-14-2020,17:06,SPECI,Normal,20,25.0,32.0,,9999.0,,5.0,5.0,29.46,998.6,,,,,,,,,,,,,,,,800.0,800.0,OVC,800.0,,,,,,
KRDR,10-14-2020,16:56,METAR,Normal,20,22.0,31.0,010/33KTS,9999.0,,5.1,5.0,29.45,998.4,,,,,,,,,,,TRACE,,,,,700.0,700.0,OVC,700.0,,,,,,
KRDR,10-14-2020,16:49,SPECI,Normal,20,22.0,31.0,,9999.0,,5.0,5.0,29.43,997.7,,,,,,,,,,,,,,,,700.0,700.0,OVC,700.0,,,,,,
KRDR,10-14-2020,16:29,SPECI,Normal,20,22.0,26.0,,9999.0,Light Rain,7.0,7.0,29.41,996.9,61,,,,,,,,,,,,,,,800.0,800.0,OVC,800.0,,,,,,
KRDR,10-14-2020,16:26,SPECI,Normal,10,18.0,24.0,,9999.0,,7.0,7.0,29.41,996.9,,,,,,,,,,,,,,,,800.0,800.0,OVC,800.0,,,,,,
KRDR,10-14-2020,15:56,METAR,Normal,20,15.0,,,9999.0,,8.0,7.9,29.38,995.8,,,,,,,,,,,,,,,,1000.0,1000.0,OVC,1000.0,,,,,,
KRDR,10-14-2020,15:36,SPECI,Normal,20,12.0,,,9999.0,,8.0,8.0,29.37,995.5,,,,,,,,,,,,,,,,1000.0,1000.0,BKN,1000.0,,,,,,
KRDR,10-14-2020,15:28,SPECI,Normal,20,13.0,,,9999.0,,8.0,8.0,29.36,995.1,,,,,,,,,,,,,,,,900.0,900.0,BKN,900.0,BKN,4900.0,,,,
KRDR,10-14-2020,14:56,METAR,Normal,10,7.0,,,9999.0,,7.8,7.7,29.36,995.1,,,,,,,,,,,,.01 IN,,,,4600.0,700.0,FEW,700.0,BKN,4600.0,,,,
KRDR,10-14-2020,13:56,METAR,Normal,80,4.0,,,9999.0,,6.6,6.6,29.37,995.5,,,,,,,,,,,TRACE,,,,,4800.0,4800.0,OVC,4800.0,,,,,,
KRDR,10-14-2020,13:22,SPECI,Normal,110,4.0,,,9999.0,,6.0,6.0,29.38,995.9,,,,,,,,,,,,,,,,5500.0,5500.0,BKN,5500.0,OVC,10000.0,,,,
KRDR,10-14-2020,12:56,METAR,Normal,120,5.0,,,9999.0,Light Drizzle,5.9,5.9,29.40,996.7,51,,,,,,,,,,TRACE,,,,,6500.0,6500.0,BKN,6500.0,BKN,10000.0,,,,
KRDR,10-14-2020,12:54,SPECI,Normal,130,4.0,,,9999.0,Light Rain,6.0,6.0,29.40,996.6,61,,,,,,,,,,,,,,,6500.0,6500.0,BKN,6500.0,BKN,10000.0,,,,
KRDR,10-14-2020,11:56,METAR,Calm,,0.0,,,9999.0,,6.9,6.8,29.45,998.1,,,,,,,,,,,,,.06 IN,.06 IN,,8000.0,8000.0,BKN,8000.0,BKN,9600.0,,,,
KRDR,10-14-2020,10:56,METAR,Normal,140,8.0,,,9999.0,,6.9,6.8,29.47,998.8,,,,,,,,,,,,,,,,8500.0,8500.0,OVC,8600.0,,,,,,
KRDR,10-14-2020,09:56,METAR,Normal,130,9.0,,,9999.0,,7.2,7.1,29.52,1000.5,,,,,,,,,,,TRACE,,,,,9000.0,9000.0,OVC,9100.0,,,,,,
KRDR,10-14-2020,09:07,SPECI,Normal,130,8.0,,,9999.0,,7.0,6.0,29.56,1001.8,,,,,,,,,,,,,,,,6000.0,3800.0,SCT,3800.0,OVC,6000.0,,,,
KRDR,10-14-2020,08:56,METAR,Normal,130,7.0,,,9999.0,Light Rain,6.7,6.6,29.57,1002.1,61,,,,,,,,,,.05 IN,.06 IN,,,,3800.0,3800.0,BKN,3800.0,BKN,6000.0,OVC,8000.0,,
KRDR,10-14-2020,07:56,METAR,Normal,200,7.0,,,9999.0,Light Rain,8.5,6.0,29.63,1004.2,61,,,,,,,,,,.01 IN,,,,,4800.0,3700.0,SCT,3700.0,BKN,4800.0,,,,
KRDR,10-14-2020,07:05,SPECI,Normal,220,5.0,,,9999.0,Light Rain,9.0,1.0,29.65,,61,,,,,,,,,,,,,,4/8 Partly Cloudy,72000.0,3200.0,FEW,3200.0,SCT,6000.0,,,,
KRDR,10-14-2020,07:00,SPECI,Normal,220,8.0,,,9999.0,,8.0,2.0,29.65,,,,,,,,,,,,,,,,,6000.0,3200.0,FEW,3200.0,SCT,5000.0,BKN,6000.0,,
KRDR,10-14-2020,06:56,METAR,Normal,150,3.0,,,9999.0,Light Rain,8.0,1.8,29.66,,61,,,,,,,,,,TRACE,,,,4/8 Partly Cloudy,72000.0,5000.0,FEW,5000.0,SCT,6000.0,,,,
KRDR,10-14-2020,06:51,SPECI,Calm,,0.0,,,9999.0,Light Rain,8.0,1.0,29.67,,61,,,,,,,,,,,,,,2/8 Mostly Clear,72000.0,4700.0,FEW,4700.0,FEW,6000.0,,,,
KRDR,10-14-2020,06:45,SPECI,Normal,150,3.0,,,9999.0,,8.0,1.0,29.67,,,,,,,,,,,,,,,,2/8 Mostly Clear,72000.0,2200.0,FEW,2200.0,FEW,6500.0,,,,
KRDR,10-14-2020,06:35,SPECI,Normal,90,3.0,,,9999.0,Light Drizzle,9.0,0.0,29.66,,51,,,,,,,,,,,,,,2/8 Mostly Clear,72000.0,7000.0,FEW,7000.0,,,,,,
KRDR,10-14-2020,06:28,SPECI,Calm,,0.0,,,9999.0,,9.0,-1.0,29.68,,,,,,,,,,,,,,,,2/8 Mostly Clear,72000.0,2500.0,FEW,2500.0,FEW,7000.0,,,,
KRDR,10-14-2020,06:18,SPECI,Normal,210,4.0,,,9999.0,Light Drizzle,8.0,-2.0,29.69,,51,,,,,,,,,,,,,,2/8 Mostly Clear,72000.0,7000.0,FEW,7000.0,,,,,,
KRDR,10-14-2020,05:56,METAR,Normal,180,5.0,,,9999.0,,7.7,-2.1,29.70,,,,,,,,,,,,,,,,Clear,72000.0,,,,,,,,,
KRDR,10-14-2020,04:56,METAR,Normal,230,5.0,,,9999.0,,7.7,-3.5,29.73,,,,,,,,,,,,,,,,2/8 Mostly Clear,72000.0,9500.0,FEW,9600.0,,,,,,
KRDR,10-14-2020,03:56,METAR,Normal,210,6.0,,,9999.0,,7.4,-3.5,29.73,,,,,,,,,,,,,,,,,13000.0,13000.0,OVC,13000.0,,,,,,
KRDR,10-14-2020,02:56,METAR,Normal,230,5.0,,,9999.0,,8.8,-4.7,29.76,,,,,,,,,,,,,,,,,14000.0,14000.0,OVC,14000.0,,,,,,
KRDR,10-14-2020,01:56,METAR,Normal,270,8.0,,,9999.0,,8.9,-5.0,29.77,1009.1,,,,,,,,,,,,,,,4/8 Partly Cloudy,72000.0,17000.0,SCT,17000.0,,,,,,
KRDR,10-14-2020,00:56,METAR,Normal,230,6.0,,,9999.0,,7.0,-4.1,29.78,1009.5,,,,,,,,,,,,,,,,19000.0,19000.0,BKN,19000.0,,,,,,
KRDR,10-13-2020,23:56,METAR,Normal,270,9.0,,,9999.0,,11.2,-4.5,29.79,1009.8,,,,,,,,,,,,,,,Clear,72000.0,,,,,,,,,
KRDR,10-13-2020,22:56,METAR,Normal,290,15.0,21.0,290/27KTS,9999.0,,13.0,-5.1,29.81,1010.4,,,,,,,,,,,,,,,Clear,72000.0,,,,,,,,,
KRDR,10-13-2020,21:56,METAR,Normal,290,15.0,24.0,280/28KTS,9999.0,,13.6,-5.6,29.82,1010.8,,,,,,,,,,,,,,,Clear,72000.0,,,,,,,,,
KRDR,10-13-2020,20:56,METAR,Normal,290,17.0,23.0,290/31KTS,9999.0,,14.0,-5.2,29.83,1011.1,,,,,,,,,,,,,,,2/8 Mostly Clear,72000.0,4000.0,FEW,4000.0,FEW,22000.0,,,,
KRDR,10-13-2020,19:56,METAR,Normal,290,18.0,28.0,290/31KTS,9999.0,,13.8,-5.4,29.84,1011.3,,,,,,,,,,,,,,,2/8 Mostly Clear,72000.0,22000.0,FEW,22000.0,,,,,,
KRDR,10-13-2020,18:56,METAR,Normal,290,21.0,29.0,290/34KTS,9999.0,,13.1,-3.7,29.84,1011.3,,,,,,,,,,,,,,,Clear,72000.0,,,,,,,,,
KRDR,10-13-2020,17:56,METAR,Normal,310,20.0,32.0,310/34KTS,9999.0,,12.2,-0.3,29.86,1012.0,,,,,,,,,,,,,,,2/8 Mostly Clear,72000.0,4000.0,FEW,4000.0,,,,,,
KRDR,10-13-2020,16:56,METAR,Normal,310,22.0,31.0,300/34KTS,9999.0,,11.6,0.7,29.86,1011.9,,,,,,,,,,,,,,,Clear,72000.0,,,,,,,,,
KRDR,10-13-2020,15:56,METAR,Normal,290,16.0,21.0,280/31KTS,9999.0,,11.4,3.4,29.85,1011.6,,,,,,,,,,,,,,,Clear,72000.0,,,,,,,,,
KRDR,10-13-2020,14:56,METAR,Normal,280,12.0,,,9999.0,,8.8,3.2,29.85,1011.7,,,,,,,,,,,,,,,Clear,72000.0,,,,,,,,,
KRDR,10-13-2020,13:56,METAR,Normal,290,12.0,21.0,280/26KTS,9999.0,,7.0,2.7,29.83,1011.1,,,,,,,,,,,,,,,Clear,72000.0,,,,,,,,,
KRDR,10-13-2020,12:56,METAR,Normal,290,16.0,23.0,,9999.0,,6.1,2.4,29.81,1010.4,,,,,,,,,,,,,,,Clear,72000.0,,,,,,,,,
KRDR,10-13-2020,11:56,METAR,Normal,280,10.0,,,9999.0,,4.7,2.4,29.80,1010.1,,,,,,,,,,,,,TRACE,,Clear,72000.0,,,,,,,,,
KRDR,10-13-2020,10:56,METAR,Normal,290,10.0,,,9999.0,,5.5,3.5,29.78,1009.3,,,,,,,,,,,,,,,Clear,72000.0,,,,,,,,,
KRDR,10-13-2020,09:56,METAR,Normal,280,7.0,,,9999.0,,4.6,4.5,29.75,1008.3,,,,,,,,,,,,,,,Clear,72000.0,,,,,,,,,
KRDR,10-13-2020,08:56,METAR,Normal,300,7.0,,,9999.0,,4.4,4.3,29.74,1008.0,,,,,,,,,,,,TRACE,,,2/8 Mostly Clear,72000.0,9000.0,FEW,9100.0,FEW,12000.0,,,,
KRDR,10-13-2020,07:56,METAR,Normal,350,8.0,,,9999.0,,7.1,6.0,29.71,1006.8,,,,,,,,,,,TRACE,,,,,5000.0,5000.0,BKN,5000.0,BKN,7000.0,,,,
KRDR,10-13-2020,06:56,METAR,Normal,350,10.0,,,9999.0,Light Rain,8.3,7.7,29.67,1005.5,61,,,,,,,,,,TRACE,,,,,7000.0,4700.0,FEW,4700.0,BKN,7000.0,,,,
KRDR,10-13-2020,06:41,SPECI,Normal,350,11.0,,,9999.0,Light Rain,9.0,7.0,29.67,1005.5,61,,,,,,,,,,,,,,,7000.0,4800.0,FEW,4800.0,BKN,7000.0,BKN,8600.0,,
KRDR,10-13-2020,05:56,METAR,Normal,350,12.0,,,9999.0,,9.7,7.3,29.64,1004.4,,,,,,,,,,,TRACE,,TRACE,,,9000.0,9000.0,BKN,9100.0,,,,,,
KRDR,10-13-2020,05:21,SPECI,Normal,340,9.0,,,9999.0,,10.0,7.0,29.64,1004.4,,,,,,,,,,,,,,,4/8 Partly Cloudy,72000.0,7000.0,FEW,7000.0,SCT,9600.0,,,,
KRDR,10-13-2020,05:06,SPECI,Normal,310,8.0,,,9999.0,Light Rain,11.0,6.0,29.64,1004.4,61,,,,,,,,,,,,,,2/8 Mostly Clear,72000.0,3600.0,FEW,3600.0,,,,,,
KRDR,10-13-2020,04:56,METAR,Normal,320,9.0,,,9999.0,,10.9,5.0,29.63,1004.0,,,,,,,,,,,TRACE,,,,4/8 Partly Cloudy,72000.0,3700.0,FEW,3700.0,SCT,5000.0,,,,
KRDR,10-13-2020,04:19,SPECI,Normal,350,4.0,,,9999.0,,11.0,4.0,29.64,1004.4,,,,,,,,,,,,,,,,8500.0,6000.0,SCT,6000.0,BKN,8600.0,,,,
KRDR,10-13-2020,04:09,SPECI,Normal,350,6.0,,,9999.0,Light Drizzle,11.0,3.0,29.63,1004.1,51,,,,,,,,,,,,,,,8000.0,2500.0,FEW,2500.0,FEW,4000.0,SCT,5000.0,OVC,8000.0
KRDR,10-13-2020,03:56,METAR,Normal,300,3.0,,,9999.0,,12.2,1.5,29.63,1004.1,,,,,,,,,,,,,,,,8500.0,3500.0,SCT,3500.0,SCT,6500.0,OVC,8600.0,,
KRDR,10-13-2020,02:56,METAR,Normal,220,3.0,,,9999.0,,10.8,0.8,29.63,1004.2,,,,,,,,,,,,,,,,8000.0,8000.0,OVC,8000.0,,,,,,
KRDR,10-13-2020,01:56,METAR,Normal,220,3.0,,,9999.0,,11.7,0.2,29.64,1004.6,,,,,,,,,,,,,,,,9000.0,9000.0,OVC,9100.0,,,,,,
KRDR,10-13-2020,00:56,METAR,Normal,210,5.0,,,9999.0,,12.0,-0.2,29.64,1004.8,,,,,,,,,,,,,,,,9500.0,9500.0,BKN,9600.0,,,,,,
KRDR,10-12-2020,23:56,METAR,Normal,230,5.0,,,9999.0,,13.2,-1.2,29.64,1004.6,,,,,,,,,,,,,,,,12000.0,12000.0,OVC,12000.0,,,,,,
KRDR,10-12-2020,22:56,METAR,Normal,280,4.0,,,9999.0,,14.6,-0.7,29.64,1004.5,,,,,,,,,,,,,,,,13000.0,13000.0,OVC,13000.0,,,,,,
KRDR,10-12-2020,21:56,METAR,Normal,290,10.0,,,9999.0,,15.4,-2.1,29.64,1004.5,,,,,,,,,,,,,,,,15000.0,15000.0,BKN,15000.0,,,,,,
KRDR,10-12-2020,20:56,METAR,Normal,280,8.0,,,9999.0,,15.9,-1.7,29.64,1004.4,,,,,,,,,,,,,,,4/8 Partly Cloudy,72000.0,19000.0,SCT,19000.0,,,,,,
KRDR,10-12-2020,19:56,METAR,Normal,290,10.0,,,9999.0,,17.0,-1.7,29.64,1004.3,,,,,,,,,,,,,,,Clear,72000.0,,,,,,,,,
KRDR,10-12-2020,18:56,METAR,Normal,290,14.0,18.0,,9999.0,,16.5,-1.6,29.66,1005.0,,,,,,,,,,,,,,,Clear,72000.0,,,,,,,,,
KRDR,10-12-2020,17:56,METAR,Normal,320,12.0,19.0,,9999.0,,15.3,-1.3,29.67,1005.4,,,,,,,,,,,,,,,Clear,72000.0,,,,,,,,,
KRDR,10-12-2020,16:56,METAR,Normal,320,14.0,20.0,,9999.0,,14.3,-1.8,29.67,1005.4,,,,,,,,,,,,,,,Clear,72000.0,,,,,,,,,
KRDR,10-12-2020,15:56,METAR,Normal,320,11.0,20.0,,9999.0,,12.1,-1.4,29.67,1005.5,,,,,,,,,,,,,,,Clear,72000.0,,,,,,,,,
KRDR,10-12-2020,14:56,METAR,Normal,310,11.0,,,9999.0,,10.0,0.3,29.67,1005.5,,,,,,,,,,,,,,,Clear,72000.0,,,,,,,,,
KRDR,10-12-2020,13:56,METAR,Normal,300,7.0,,,9999.0,,7.1,1.0,29.65,1004.9,,,,,,,,,,,,,,,Clear,72000.0,,,,,,,,,
KRDR,10-12-2020,12:56,METAR,Normal,260,7.0,,,9999.0,,2.5,-0.3,29.64,1004.7,,,,,,,,,,,,,,,Clear,72000.0,,,,,,,,,
KRDR,10-12-2020,11:56,METAR,Normal,280,8.0,,,9999.0,,4.3,-0.1,29.63,1004.3,,,,,,,,,,,,,,.05 IN,Clear,72000.0,,,,,,,,,
KRDR,10-12-2020,10:56,METAR,Normal,290,9.0,,,9999.0,,6.2,0.5,29.63,1004.1,,,,,,,,,,,,,,,Clear,72000.0,,,,,,,,,
KRDR,10-12-2020,09:56,METAR,Normal,300,8.0,,,9999.0,,6.9,1.8,29.63,1004.0,,,,,,,,,,,,,,,Clear,72000.0,,,,,,,,,
KRDR,10-12-2020,08:56,METAR,Normal,300,13.0,,,9999.0,,9.6,1.7,29.62,1003.5,,,,,,,,,,,,,,,Clear,72000.0,,,,,,,,,
KRDR,10-12-2020,07:56,METAR,Normal,310,10.0,,,9999.0,,10.2,3.7,29.60,1002.8,,,,,,,,,,,,,,,Clear,72000.0,,,,,,,,,
KRDR,10-12-2020,06:56,METAR,Normal,310,12.0,,,9999.0,,10.8,5.3,29.61,1003.2,,,,,,,,,,,,,,,2/8 Mostly Clear,72000.0,16000.0,FEW,16000.0,,,,,,
KRDR,10-12-2020,05:56,METAR,Normal,310,10.0,,,9999.0,,11.2,7.7,29.56,1001.5,,,,,,,,,,,,,TRACE,,,9500.0,9500.0,OVC,9600.0,,,,,,
KRDR,10-12-2020,04:56,METAR,Normal,300,9.0,,,9999.0,,11.4,8.3,29.60,1002.9,,,,,,,,,,,,,,,,7000.0,7000.0,OVC,7000.0,,,,,,
KRDR,10-12-2020,03:56,METAR,Normal,320,15.0,19.0,,9999.0,,11.7,8.7,29.56,1001.5,,,,,,,,,,,,,,,,8000.0,8000.0,OVC,8000.0,,,,,,
KRDR,10-12-2020,02:56,METAR,Normal,320,14.0,20.0,300/27KTS,9999.0,,12.4,8.3,29.55,1001.2,,,,,,,,,,,,TRACE,,,,8000.0,8000.0,OVC,8000.0,,,,,,
KRDR,10-12-2020,01:56,METAR,Normal,310,19.0,25.0,300/27KTS,9999.0,,13.5,6.8,29.51,999.8,,,,,,,,,,,,,,,,10000.0,10000.0,OVC,10000.0,,,,,,
KRDR,10-12-2020,00:56,METAR,Normal,310,16.0,22.0,,9999.0,,13.1,7.3,29.50,999.5,,,,,,,,,,,TRACE,,,,,11000.0,11000.0,BKN,11000.0,OVC,13000.0,,,,
KRDR,10-12-2020,00:23,SPECI,Normal,300,14.0,19.0,,9999.0,,13.0,9.0,29.47,998.5,,,,,,,,,,,,,,,4/8 Partly Cloudy,72000.0,12000.0,SCT,12000.0,,,,,,
KRDR,10-11-2020,23:56,METAR,Normal,310,14.0,23.0,,9999.0,Light Rain,13.3,9.5,29.45,997.9,61,,,,,,,,,,.05 IN,,.05 IN,,,9000.0,9000.0,BKN,9100.0,,,,,,
KRDR,10-11-2020,23:47,SPECI,Normal,310,16.0,23.0,,9999.0,Light Rain,14.0,10.0,29.45,997.8,61,,,,,,,,,,,,,,,9000.0,9000.0,BKN,9100.0,,,,,,
KRDR,10-11-2020,23:25,SPECI,Normal,310,10.0,,,9999.0,,14.0,11.0,29.43,997.2,,,,,,,,,,,,,,,,4800.0,4800.0,BKN,4800.0,BKN,11000.0,,,,
KRDR,10-11-2020,23:01,SPECI,Normal,300,13.0,23.0,,9999.0,Light Rain,18.0,7.0,29.43,997.0,61,,,,,,,,,,,,,,,4400.0,4400.0,OVC,4400.0,,,,,,
KRDR,10-11-2020,22:56,METAR,Normal,290,11.0,,,9999.0,,18.0,6.5,29.43,997.0,,,,,,,,,,,,,,,,4500.0,4500.0,OVC,4500.0,,,,,,
KRDR,10-11-2020,21:56,METAR,Normal,270,8.0,,,9999.0,,20.8,12.5,29.37,994.9,,,,,,,,,,,,,,,,13000.0,5000.0,SCT,5000.0,BKN,13000.0,,,,
KRDR,10-11-2020,20:56,METAR,Normal,250,11.0,19.0,210/28KTS,9999.0,,22.7,13.7,29.38,995.2,,,,,,,,,,,,,,,,4400.0,4400.0,OVC,4400.0,,,,,,
KRDR,10-11-2020,19:56,METAR,Normal,200,17.0,26.0,170/31KTS,9999.0,,22.5,13.5,29.37,994.9,,,,,,,,,,,,,,,4/8 Partly Cloudy,72000.0,3600.0,FEW,3600.0,FEW,5000.0,SCT,18000.0,SCT,21000.0
KRDR,10-11-2020,18:56,METAR,Normal,190,18.0,29.0,210/32KTS,9999.0,,21.1,12.5,29.37,995.0,,,,,,,,,,,,,,,4/8 Partly Cloudy,72000.0,19000.0,SCT,19000.0,,,,,,
KRDR,10-11-2020,17:56,METAR,Normal,200,23.0,32.0,170/36KTS,9999.0,,19.3,11.8,29.39,995.7,,,,,,,,,,,,,,,4/8 Partly Cloudy,72000.0,3300.0,FEW,3300.0,SCT,15000.0,,,,
KRDR,10-11-2020,16:56,METAR,Normal,200,24.0,36.0,190/38KTS,9999.0,,19.8,11.0,29.39,995.7,,,,,,,,,,,,,,,4/8 Partly Cloudy,72000.0,17000.0,FEW,17000.0,SCT,20000.0,,,,
KRDR,10-11-2020,15:56,METAR,Normal,180,26.0,36.0,170/39KTS,9999.0,,18.0,9.1,29.39,995.8,,,,,,,,,,,,,,,2/8 Mostly Clear,72000.0,17000.0,FEW,17000.0,,,,,,
KRDR,10-11-2020,14:56,METAR,Normal,190,27.0,33.0,,9999.0,,16.6,7.5,29.42,996.8,,,,,,,,,,,,,,,2/8 Mostly Clear,72000.0,15000.0,FEW,15000.0,,,,,,
KRDR,10-11-2020,13:56,METAR,Normal,190,18.0,33.0,180/33KTS,9999.0,,15.7,5.3,29.43,997.2,,,,,,,,,,,,,,,,15000.0,15000.0,BKN,15000.0,,,,,,
KRDR,10-11-2020,12:56,METAR,Normal,180,19.0,26.0,160/37KTS,9999.0,,14.5,3.3,29.44,997.6,,,,,,,,,,,,,,,,15000.0,15000.0,OVC,15000.0,,,,,,
KRDR,10-11-2020,11:56,METAR,Normal,170,27.0,39.0,170/42KTS,9999.0,,13.8,2.4,29.45,997.9,,,,,,,,,,,,,,,4/8 Partly Cloudy,72000.0,16000.0,SCT,16000.0,,,,,,
KRDR,10-11-2020,10:56,METAR,Normal,170,24.0,32.0,160/39KTS,9999.0,,13.7,1.7,29.48,998.9,,,,,,,,,,,,,,,Clear,72000.0,,,,,,,,,
KRDR,10-11-2020,09:56,METAR,Normal,180,20.0,32.0,180/33KTS,9999.0,,13.3,1.9,29.55,1001.2,,,,,,,,,,,,,,,4/8 Partly Cloudy,72000.0,16000.0,FEW,16000.0,SCT,18000.0,,,,
KRDR,10-11-2020,08:56,METAR,Normal,170,23.0,30.0,,9999.0,,12.4,2.8,29.58,1002.3,,,,,,,,,,,,,,,2/8 Mostly Clear,72000.0,16000.0,FEW,16000.0,,,,,,
KRDR,10-11-2020,07:56,METAR,Normal,170,21.0,27.0,180/28KTS,9999.0,,11.8,3.0,29.64,1004.4,,,,,,,,,,,,,,,,16000.0,16000.0,BKN,16000.0,BKN,19000.0,,,,
KRDR,10-11-2020,06:56,METAR,Normal,170,17.0,22.0,,9999.0,,11.1,3.6,29.68,1005.9,,,,,,,,,,,,,,,4/8 Partly Cloudy,72000.0,16000.0,FEW,16000.0,SCT,19000.0,SCT,21000.0,,
KRDR,10-11-2020,05:56,METAR,Normal,170,15.0,20.0,,9999.0,,10.7,3.5,29.72,1007.3,,,,,,,,,,,,,,,4/8 Partly Cloudy,72000.0,16000.0,SCT,16000.0,,,,,,
KRDR,10-11-2020,04:56,METAR,Normal,170,13.0,,,9999.0,,11.1,2.9,29.74,1008.0,,,,,,,,,,,,,,,Clear,72000.0,,,,,,,,,
KRDR,10-11-2020,03:56,METAR,Normal,170,13.0,,,9999.0,,10.5,2.6,29.75,1008.5,,,,,,,,,,,,,,,Clear,72000.0,,,,,,,,,
KRDR,10-11-2020,02:56,METAR,Normal,170,9.0,,,9999.0,,10.6,2.4,29.78,1009.5,,,,,,,,,,,,,,,Clear,72000.0,,,,,,,,,
KRDR,10-11-2020,01:56,METAR,Normal,160,8.0,,,9999.0,,9.5,3.0,29.80,1010.4,,,,,,,,,,,,,,,Clear,72000.0,,,,,,,,,
KRDR,10-11-2020,00:56,METAR,Normal,160,8.0,,,9999.0,,10.8,2.9,29.82,1011.0,,,,,,,,,,,,,,,Clear,72000.0,,,,,,,,,
KRDR,10-10-2020,23:56,METAR,Normal,170,7.0,,,9999.0,,12.1,2.5,29.84,1011.7,,,,,,,,,,,,,,,Clear,72000.0,,,,,,,,,
KRDR,10-10-2020,22:56,METAR,Normal,170,10.0,,,9999.0,,14.1,2.6,29.85,1011.9,,,,,,,,,,,,,,,Clear,72000.0,,,,,,,,,
KRDR,10-10-2020,21:56,METAR,Normal,170,11.0,,,9999.0,,14.9,2.1,29.88,1012.9,,,,,,,,,,,,,,,Clear,72000.0,,,,,,,,,
KRDR,10-10-2020,20:56,METAR,Normal,160,10.0,,,9999.0,,14.7,2.6,29.92,1014.2,,,,,,,,,,,,,,,Clear,72000.0,,,,,,,,,
KRDR,10-10-2020,19:56,METAR,Normal,180,8.0,,,9999.0,,13.7,2.9,29.96,1015.5,,,,,,,,,,,,,,,Clear,72000.0,,,,,,,,,
KRDR,10-10-2020,18:56,METAR,Normal,170,7.0,,,9999.0,,11.8,3.3,29.99,1016.6,,,,,,,,,,,,,,,Clear,72000.0,,,,,,,,,
KRDR,10-10-2020,17:56,METAR,Normal,180,5.0,,,9999.0,,9.8,3.5,30.02,1017.7,,,,,,,,,,,,,,,Clear,72000.0,,,,,,,,,
KRDR,10-10-2020,16:56,METAR,Calm,,0.0,,,9999.0,,6.2,3.2,30.04,1018.6,,,,,,,,,,,,,,,4/8 Partly Cloudy,72000.0,1000.0,SCT,1000.0,,,,,,
KRDR,10-10-2020,16:46,SPECI,Calm,,0.0,,,9999.0,,6.0,3.0,30.04,1018.6,,,,,,,,,,,,,,,,1000.0,1000.0,BKN,1000.0,,,,,,
KRDR,10-10-2020,16:16,SPECI,Normal,90,4.0,,,9999.0,,5.0,3.0,30.05,1019.0,,,,,,,,,,,,,,,,800.0,800.0,OVC,800.0,,,,,,
KRDR,10-10-2020,15:56,METAR,Normal,130,4.0,,,9999.0,,3.7,3.0,30.05,1019.0,,,,,,,,,,,,,,,,700.0,700.0,OVC,700.0,,,,,,
KRDR,10-10-2020,15:46,SPECI,Normal,120,5.0,,,9999.0,,3.0,3.0,30.05,1019.0,,,,,,,,,,,,,,,,700.0,700.0,OVC,700.0,,,,,,
KRDR,10-10-2020,15:26,SPECI,Normal,100,4.0,,,9999.0,,3.0,3.0,30.06,1019.2,,,,,,,,,,,,,,,,600.0,600.0,OVC,600.0,,,,,,
KRDR,10-10-2020,14:56,METAR,Normal,50,3.0,,,9999.0,,2.4,2.3,30.07,1019.6,,,,,,,,,,,,,,,,500.0,500.0,OVC,500.0,,,,,,
KRDR,10-10-2020,14:16,SPECI,Normal,40,6.0,,,9999.0,,2.0,2.0,30.06,1019.2,,,,,,,,,,,,,,,,500.0,500.0,OVC,500.0,,,,,,
KRDR,10-10-2020,14:06,SPECI,Normal,30,6.0,,,9999.0,,2.0,2.0,30.06,1019.1,,,,,,,,,,,,,,,,600.0,600.0,OVC,600.0,,,,,,
KRDR,10-10-2020,13:56,METAR,Normal,20,5.0,,,9999.0,,0.8,0.8,30.05,1018.8,,,,,,,,,,,,,,,,700.0,700.0,OVC,700.0,,,,,,
KRDR,10-10-2020,13:42,SPECI,Normal,10,3.0,,,9999.0,,0.0,0.0,30.05,1018.8,,,,,,,,,,,,,,,,700.0,700.0,OVC,700.0,,,,,,
KRDR,10-10-2020,13:32,SPECI,Normal,10,5.0,,,9999.0,,-1.0,-1.0,30.05,1018.8,,,,,,,,,,,,,,,,800.0,800.0,BKN,800.0,,,,,,
KRDR,10-10-2020,13:02,SPECI,Normal,360,3.0,,,9999.0,,-1.0,-1.0,30.04,1018.5,,,,,,,,,,,,,,,2/8 Mostly Clear,72000.0,900.0,FEW,900.0,,,,,,
KRDR,10-10-2020,12:56,METAR,Normal,20,3.0,,,9999.0,,-1.2,-1.3,30.04,1018.5,,,,,,,,,,,,,,,Clear,72000.0,,,,,,,,,
KRDR,10-10-2020,11:56,METAR,Normal,20,5.0,,,9999.0,,-1.0,-1.1,30.03,1018.1,,,,,,,,,,,,,,,Clear,72000.0,,,,,,,,,
KRDR,10-10-2020,10:56,METAR,Normal,10,4.0,,,9999.0,,0.4,0.3,30.01,1017.2,,,,,,,,,,,,,,,Clear,72000.0,,,,,,,,,
KRDR,10-10-2020,09:56,METAR,Normal,20,5.0,,,9999.0,,0.4,0.3,29.98,1016.2,,,,,,,,,,,,,,,Clear,72000.0,,,,,,,,,
KRDR,10-10-2020,08:56,METAR,Normal,10,6.0,,,9999.0,,1.4,1.3,29.98,1016.0,,,,,,,,,,,,,,,Clear,72000.0,,,,,,,,,
KRDR,10-10-2020,07:56,METAR,Normal,10,6.0,,,9999.0,,3.0,2.3,29.97,1015.6,,,,,,,,,,,,,,,Clear,72000.0,,,,,,,,,
KRDR,10-10-2020,06:56,METAR,Normal,350,5.0,,,9999.0,,3.5,2.0,29.95,1014.9,,,,,,,,,,,,,,,Clear,72000.0,,,,,,,,,
KRDR,10-10-2020,05:56,METAR,Normal,350,8.0,,,9999.0,,3.9,1.8,29.94,1014.7,,,,,,,,,,,,,,,Clear,72000.0,,,,,,,,,
KRDR,10-10-2020,04:56,METAR,Calm,,0.0,,,9999.0,,3.8,1.7,29.91,1013.6,,,,,,,,,,,,,,,Clear,72000.0,,,,,,,,,
KRDR,10-10-2020,03:56,METAR,Calm,,0.0,,,9999.0,,4.4,2.3,29.89,1013.0,,,,,,,,,,,,,,,Clear,72000.0,,,,,,,,,
KRDR,10-10-2020,02:56,METAR,Normal,20,6.0,,,9999.0,,6.9,3.1,29.88,1012.6,,,,,,,,,,,,,,,Clear,72000.0,,,,,,,,,
KRDR,10-10-2020,01:56,METAR,Normal,30,9.0,,,9999.0,,11.7,2.4,29.85,1011.6,,,,,,,,,,,,,,,Clear,72000.0,,,,,,,,,
KRDR,10-10-2020,00:56,METAR,Normal,350,10.0,,,9999.0,,13.1,1.1,29.81,1010.3,,,,,,,,,,,,,,,Clear,72000.0,,,,,,,,,
