Platform Id,Date,Time (UTC),Report Type,Wind Condition,Wind Direction,Wind Speed (Knots),Wind Gust Speed,Peak Wind (Knots),Visibility (M),Weather,Air Temp (C),Dew Point (C),Altimeter (inHg),SLP (Millibars),Present Automated 1,Present Automated 2,Present Automated 3,Present Manual 1,Present Manual 2,Present Manual 3,Present Manual 4,Present Manual 5,Present Manual 6,Present Manual 7,Precip Hr1,Precip Hr3,Precip Hr6,Precip Hr24,Cloud Cover,Cloud Ceiling (Feet),Lowest Cloud Base Height (Feet),Cloud Cover1,Cloudbase 1,Cloud Cover2,Cloudbase 2,Cloud Cover3,Cloudbase 3,Cloud Cover4,Cloudbase 4
KRDR,04-05-2022,23:56,METAR,Normal,40,9.0,,,9999.0,Light Drizzle,2.1,1.2,29.37,995.9,51,,,,,,,,,,TRACE,,.06 IN,,,600.0,600.0,OVC,600.0,,,,,,
KRDR,04-05-2022,22:56,METAR,Normal,40,8.0,,,9999.0,Light Drizzle,2.1,1.2,29.36,995.5,51,,,,,,,,,,.01 IN,,,,,500.0,500.0,OVC,500.0,,,,,,
KRDR,04-05-2022,21:56,METAR,Normal,40,6.0,,,9999.0,Light Rain,1.8,1.1,29.35,995.2,61,,,,,,,,,,.02 IN,,,,,400.0,500.0,OVC,500.0,,,,,,
KRDR,04-05-2022,20:56,METAR,Normal,50,7.0,,,8000.0,Light Rain,1.7,0.8,29.34,994.9,61,,,,,,,,,,.02 IN,.03 IN,,,,500.0,500.0,OVC,500.0,,,,,,
KRDR,04-05-2022,20:46,SPECI,Normal,50,8.0,,,8000.0,Light Rain,2.0,1.0,29.34,994.9,61,,,,,,,,,,,,,,,500.0,500.0,OVC,500.0,,,,,,
KRDR,04-05-2022,19:56,METAR,Normal,50,9.0,,,9999.0,Light Drizzle,2.3,1.4,29.33,994.5,51,,,,,,,,,,TRACE,,,,,500.0,600.0,OVC,600.0,,,,,,
KRDR,04-05-2022,18:56,METAR,Normal,50,9.0,,,9999.0,Light Drizzle,2.6,1.7,29.33,994.5,51,,,,,,,,,,TRACE,,,,,800.0,900.0,OVC,900.0,,,,,,
KRDR,04-05-2022,17:56,METAR,Normal,60,9.0,,,9999.0,Light Drizzle,2.9,2.0,29.32,994.2,51,,,,,,,,,,.01 IN,,.02 IN,,,1000.0,1100.0,OVC,1100.0,,,,,,
KRDR,04-05-2022,15:56,METAR,Normal,60,9.0,,,9999.0,Light Drizzle,2.5,1.6,29.33,994.5,51,,,,,,,,,,TRACE,,,,,900.0,900.0,OVC,900.0,,,,,,
KRDR,04-05-2022,14:56,METAR,Normal,60,10.0,,,9999.0,Light Drizzle,2.6,1.6,29.33,994.5,51,,,,,,,,,,.01 IN,.01 IN,,,,900.0,900.0,OVC,900.0,,,,,,
KRDR,04-05-2022,13:55,METAR,Normal,70,9.0,,,9999.0,Light Drizzle,3.1,1.8,29.34,994.7,51,,,,,,,,,,TRACE,,,,,900.0,900.0,OVC,900.0,,,,,,
KRDR,04-05-2022,12:57,SPECI,Normal,80,10.0,,,9999.0,Light Drizzle,3.0,2.0,29.35,995.1,51,,,,,,,,,,,,,,,900.0,1000.0,OVC,1000.0,,,,,,
KRDR,04-05-2022,12:55,METAR,Normal,80,10.0,,,9999.0,Light Drizzle,2.8,1.5,29.35,995.1,51,,,,,,,,,,TRACE,,,,,900.0,900.0,OVC,900.0,,,,,,
KRDR,04-05-2022,12:54,SPECI,Normal,80,11.0,,,9999.0,Light Drizzle,3.0,2.0,29.35,995.1,51,,,,,,,,,,,,,,,900.0,900.0,OVC,900.0,,,,,,
KRDR,04-05-2022,12:54,METAR,Normal,80,11.0,,,9999.0,Drizzle,2.8,1.5,29.35,995.1,,,,51,,,,,,,TRACE,,,,,900.0,900.0,OVC,900.0,,,,,,
KRDR,04-05-2022,12:14,SPECI,Normal,90,14.0,20.0,,9999.0,,3.0,2.0,29.36,995.4,,,,,,,,,,,,,,,,700.0,800.0,OVC,800.0,,,,,,
KRDR,04-05-2022,11:56,METAR,Normal,90,10.0,,,9999.0,,2.8,1.9,,995.4,,,,,,,,,,,.01 IN,,.01 IN,.01 IN,,700.0,700.0,OVC,700.0,,,,,,
KRDR,04-05-2022,11:47,SPECI,Normal,100,12.0,,,9999.0,Light Drizzle,3.0,2.0,29.37,995.7,51,,,,,,,,,,,,,,,600.0,600.0,OVC,600.0,,,,,,
KRDR,04-05-2022,11:26,SPECI,Normal,90,10.0,,,9999.0,Light Rain,3.0,2.0,29.37,995.6,61,,,,,,,,,,,,,,,600.0,600.0,OVC,600.0,,,,,,
KRDR,04-05-2022,10:55,METAR,Normal,100,12.0,,,9999.0,Light Rain,3.1,2.1,29.38,996.0,61,,,,,,,,,,TRACE,,,,,600.0,800.0,OVC,800.0,,,,,,
KRDR,04-05-2022,10:06,SPECI,Normal,100,10.0,,,9999.0,Light Rain,3.0,2.0,29.39,996.3,61,,,,,,,,,,,,,,,800.0,800.0,OVC,800.0,,,,,,
KRDR,04-05-2022,09:56,METAR,Normal,100,9.0,,,9999.0,,2.6,1.1,29.39,996.3,,,,,,,,,,,TRACE,,,,,800.0,1000.0,OVC,1000.0,,,,,,
KRDR,04-05-2022,09:30,SPECI,Normal,100,9.0,,,9999.0,,3.0,0.0,29.40,996.7,,,,,,,,,,,,,,,,1200.0,1400.0,OVC,1400.0,,,,,,
KRDR,04-05-2022,09:26,SPECI,Normal,100,9.0,,,9999.0,,3.0,0.0,29.40,996.7,,,,,,,,,,,,,,,,1200.0,1400.0,OVC,1400.0,,,,,,
KRDR,04-05-2022,09:16,SPECI,Normal,100,11.0,,,9999.0,,3.0,-1.0,29.41,997.0,,,,,,,,,,,,,,,,1500.0,1600.0,BKN,1600.0,,,,,,
KRDR,04-05-2022,08:56,METAR,Normal,110,13.0,,,9999.0,,2.5,-1.3,29.42,997.3,,,,,,,,,,,,,,,Clear,72000.0,,,,,,,,,
KRDR,04-05-2022,07:56,METAR,Normal,110,11.0,,,9999.0,,2.7,-2.2,29.44,997.9,,,,,,,,,,,,,,,,,9000.0,FEW,9100.0,,,,,,
KRDR,04-05-2022,06:56,METAR,Normal,100,11.0,,,9999.0,,2.3,-1.3,29.48,999.5,,,,,,,,,,,,,,,,10000.0,10000.0,OVC,10000.0,,,,,,
KRDR,04-05-2022,05:56,METAR,Normal,100,10.0,,,9999.0,,1.4,-1.3,29.52,1000.8,,,,,,,,,,,,,,,,9000.0,9000.0,BKN,9100.0,,,,,,
KRDR,04-05-2022,04:56,METAR,Normal,100,10.0,,,9999.0,,1.9,-1.4,29.55,1001.9,,,,,,,,,,,,,,,Clear,72000.0,,,,,,,,,
KRDR,04-05-2022,03:56,METAR,Normal,100,8.0,,,9999.0,,2.0,-0.1,29.58,1003.0,,,,,,,,,,,,,,,Clear,72000.0,,,,,,,,,
KRDR,04-05-2022,02:56,METAR,Normal,110,8.0,,,9999.0,,2.9,0.5,29.61,1004.0,,,,,,,,,,,,,,,Clear,72000.0,,,,,,,,,
KRDR,04-05-2022,01:56,METAR,Normal,120,10.0,,,9999.0,,4.1,1.0,29.62,1004.4,,,,,,,,,,,,,,,Clear,72000.0,,,,,,,,,
KRDR,04-05-2022,00:56,METAR,Normal,120,11.0,,,9999.0,,5.2,1.9,29.63,1004.7,,,,,,,,,,,,,,,,,13000.0,SCT,13000.0,,,,,,
KRDR,04-04-2022,23:56,METAR,Normal,130,14.0,,,9999.0,,6.6,1.7,29.65,1005.4,,,,,,,,,,,,,,,,,2500.0,FEW,2500.0,,,,,,
KRDR,04-04-2022,22:56,METAR,Normal,140,14.0,26.0,,9999.0,,8.4,1.8,29.66,1005.7,,,,,,,,,,,,,,,,3200.0,3200.0,OVC,3200.0,,,,,,
KRDR,04-04-2022,21:56,METAR,Normal,140,15.0,23.0,,9999.0,,9.4,2.3,29.69,1006.7,,,,,,,,,,,,,,,,3300.0,3300.0,OVC,3300.0,,,,,,
KRDR,04-04-2022,20:56,METAR,Normal,130,13.0,,,9999.0,,10.2,2.3,29.71,1007.4,,,,,,,,,,,,,,,,3300.0,3300.0,BKN,3300.0,BKN,25000.0,,,,
KRDR,04-04-2022,19:56,METAR,Normal,140,15.0,,,9999.0,,10.2,1.6,29.75,1008.7,,,,,,,,,,,,,,,,,3000.0,FEW,3000.0,SCT,3500.0,,,,
KRDR,04-04-2022,19:26,SPECI,Normal,170,14.0,20.0,,9999.0,,10.0,2.0,29.77,1009.4,,,,,,,,,,,,,,,,3000.0,3000.0,BKN,3000.0,OVC,3500.0,,,,
KRDR,04-04-2022,18:56,METAR,Normal,150,15.0,20.0,,9999.0,,8.3,1.9,29.78,1009.9,,,,,,,,,,,,,,,,2500.0,2600.0,BKN,2600.0,OVC,3400.0,,,,
KRDR,04-04-2022,18:46,SPECI,Normal,170,12.0,18.0,,9999.0,,8.0,2.0,29.78,1009.9,,,,,,,,,,,,,,,,3400.0,2500.0,SCT,2500.0,OVC,3400.0,,,,
KRDR,04-04-2022,17:56,METAR,Normal,160,9.0,,,9999.0,,8.4,1.5,29.81,1010.9,,,,,,,,,,,,,,,,3400.0,2600.0,FEW,2600.0,OVC,3400.0,,,,
KRDR,04-04-2022,17:16,SPECI,Normal,160,9.0,,,9999.0,,7.0,1.0,29.83,1011.6,,,,,,,,,,,,,,,,3000.0,3000.0,BKN,3000.0,OVC,3500.0,,,,
KRDR,04-04-2022,16:56,METAR,Normal,170,10.0,,,9999.0,,6.9,1.2,29.84,1011.9,,,,,,,,,,,,,,,,2400.0,2500.0,BKN,2500.0,OVC,3300.0,,,,
KRDR,04-04-2022,16:26,SPECI,Normal,130,8.0,,,9999.0,,5.0,0.0,29.85,1012.4,,,,,,,,,,,,,,,,2300.0,2600.0,BKN,2600.0,,,,,,
KRDR,04-04-2022,15:56,METAR,Normal,140,9.0,,,9999.0,,5.0,-0.2,29.86,1012.6,,,,,,,,,,,,,,,Clear,72000.0,,,,,,,,,
KRDR,04-04-2022,15:16,SPECI,Normal,150,10.0,,,9999.0,,3.0,-1.0,29.87,1013.0,,,,,,,,,,,,,,,,,2200.0,SCT,2200.0,,,,,,
KRDR,04-04-2022,14:56,METAR,Normal,150,10.0,,,9999.0,,2.2,-1.6,29.87,1013.0,,,,,,,,,,,,,,,,2200.0,2200.0,OVC,2200.0,,,,,,
KRDR,04-04-2022,14:26,SPECI,Normal,140,9.0,,,9999.0,,1.0,-2.0,29.87,1013.0,,,,,,,,,,,,,,,,1900.0,2100.0,OVC,2100.0,,,,,,
KRDR,04-04-2022,13:56,METAR,Normal,140,9.0,,,9999.0,,0.6,-2.0,29.88,1013.4,,,,,,,,,,,,,,,,1700.0,1700.0,OVC,1700.0,,,,,,
KRDR,04-04-2022,12:56,METAR,Normal,140,8.0,,,9999.0,,0.4,-2.0,29.90,1014.1,,,,,,,,,,,,,,,,1800.0,1900.0,OVC,1900.0,,,,,,
KRDR,04-04-2022,11:58,METAR,Normal,130,4.0,,,9999.0,,-0.3,-2.4,29.91,1014.4,,,,,,,,,,,TRACE,,TRACE,,,2000.0,2100.0,OVC,2100.0,,,,,,
KRDR,04-04-2022,11:48,SPECI,Normal,110,4.0,,,9999.0,,0.0,-2.0,29.91,1014.4,,,,,,,,,,,,,,,,2000.0,2000.0,BKN,2000.0,OVC,2900.0,,,,
KRDR,04-04-2022,11:03,METAR,Normal,170,5.0,,,9999.0,Light Snow,-0.6,-2.3,29.91,1014.4,71,,,,,,,,,,TRACE,,TRACE,,,2000.0,2000.0,OVC,2000.0,,,,,,
KRDR,04-04-2022,10:54,SPECI,Normal,190,6.0,,,9999.0,Light Snow,-1.0,-2.0,29.92,1014.7,71,,,,,,,,,,,,,,,3000.0,2000.0,SCT,2000.0,BKN,3000.0,,,,
KRDR,04-04-2022,10:06,SPECI,Normal,150,4.0,,,9999.0,,-2.0,-3.0,29.92,1014.8,,,,,,,,,,,,,,,,2200.0,2200.0,BKN,2200.0,BKN,4300.0,OVC,5500.0,,
KRDR,04-04-2022,09:56,METAR,Calm,,0.0,,,9999.0,,-2.1,-3.4,29.93,1015.2,,,,,,,,,,,,,,,,5500.0,2200.0,SCT,2200.0,SCT,4500.0,OVC,5500.0,,
KRDR,04-04-2022,08:56,METAR,Calm,,0.0,,,9999.0,,-1.9,-3.0,29.94,1015.5,,,,,,,,,,,,,,,,5500.0,5500.0,OVC,5500.0,,,,,,
KRDR,04-04-2022,07:56,METAR,Normal,200,3.0,,,9999.0,,-1.6,-2.7,29.94,1015.5,,,,,,,,,,,,,,,,5500.0,5500.0,OVC,5500.0,,,,,,
KRDR,04-04-2022,06:56,METAR,Calm,,0.0,,,9999.0,,-3.7,-4.8,29.96,1016.3,,,,,,,,,,,,,,,,6000.0,6000.0,OVC,6000.0,,,,,,
KRDR,04-04-2022,05:56,METAR,Calm,,0.0,,,9999.0,,-4.5,-5.5,29.96,1016.3,,,,,,,,,,,,,,,,6000.0,6000.0,BKN,6000.0,,,,,,
KRDR,04-04-2022,04:56,METAR,Calm,,0.0,,,9999.0,,-2.5,-3.9,29.97,1016.5,,,,,,,,,,,,,,,,,7000.0,FEW,7000.0,SCT,11000.0,,,,
KRDR,04-04-2022,04:06,SPECI,Normal,350,4.0,,,9999.0,,-1.0,-4.0,29.99,1017.2,,,,,,,,,,,,,,,,7000.0,2400.0,SCT,2400.0,BKN,7000.0,,,,
KRDR,04-04-2022,03:56,METAR,Normal,360,3.0,,,9999.0,,-2.0,-4.0,29.99,1017.3,,,,,,,,,,,,,,,,2300.0,2300.0,BKN,2300.0,BKN,7000.0,,,,
KRDR,04-04-2022,02:56,METAR,Normal,340,5.0,,,9999.0,,0.1,-2.9,29.99,1017.2,,,,,,,,,,,,,,,,2300.0,2300.0,OVC,2300.0,,,,,,
KRDR,04-04-2022,01:56,METAR,Normal,320,7.0,,,9999.0,,0.5,-2.9,29.99,1017.2,,,,,,,,,,,,,,,,2500.0,2500.0,OVC,2500.0,,,,,,
KRDR,04-04-2022,00:56,METAR,Normal,340,7.0,,,9999.0,,1.1,-3.4,29.98,1016.9,,,,,,,,,,,,,,,,2500.0,2600.0,OVC,2600.0,,,,,,
KRDR,04-03-2022,23:56,METAR,Normal,20,6.0,,,9999.0,,2.0,-3.7,29.97,1016.4,,,,,,,,,,,,,,,,2400.0,2400.0,OVC,2400.0,,,,,,
KRDR,04-03-2022,22:56,METAR,Normal,20,6.0,,,9999.0,,2.5,-3.6,29.97,1016.4,,,,,,,,,,,,,,,,2400.0,2500.0,OVC,2500.0,,,,,,
KRDR,04-03-2022,21:56,METAR,Normal,10,7.0,,,9999.0,,2.3,-3.8,29.97,1016.4,,,,,,,,,,,,,,,,2500.0,2500.0,OVC,2500.0,,,,,,
KRDR,04-03-2022,20:56,METAR,Normal,50,5.0,,,9999.0,,2.5,-4.0,29.98,1016.8,,,,,,,,,,,,,,,,2500.0,2600.0,OVC,2600.0,,,,,,
KRDR,04-03-2022,19:56,METAR,Normal,60,4.0,,,9999.0,,2.2,-4.3,29.99,1017.1,,,,,,,,,,,,,,,,2500.0,2500.0,OVC,2500.0,,,,,,
KRDR,04-03-2022,18:56,METAR,Normal,70,4.0,,,9999.0,,2.2,-4.5,30.00,1017.5,,,,,,,,,,,,,,,,2400.0,2400.0,OVC,2400.0,,,,,,
KRDR,04-03-2022,17:56,METAR,Normal,60,7.0,,,9999.0,,1.6,-4.5,30.01,1017.8,,,,,,,,,,,,,,,,2200.0,2200.0,OVC,2200.0,,,,,,
KRDR,04-03-2022,16:56,METAR,Normal,70,7.0,,,9999.0,,1.1,-4.8,30.02,1018.2,,,,,,,,,,,,,,,,2100.0,2200.0,OVC,2200.0,,,,,,
KRDR,04-03-2022,15:56,METAR,Normal,70,7.0,,,9999.0,,0.8,-4.6,30.02,1018.2,,,,,,,,,,,,,,,,2200.0,2300.0,OVC,2300.0,,,,,,
KRDR,04-03-2022,14:56,METAR,Normal,70,6.0,,,9999.0,,0.1,-4.7,30.02,1018.2,,,,,,,,,,,,,,,,2400.0,2400.0,OVC,2400.0,,,,,,
KRDR,04-03-2022,13:56,METAR,Normal,70,6.0,,,9999.0,,-0.2,-4.6,30.04,1018.9,,,,,,,,,,,,,,,,2300.0,2300.0,OVC,2300.0,,,,,,
KRDR,04-03-2022,13:03,SPECI,Normal,90,3.0,,,9999.0,,-1.0,-5.0,30.03,1018.6,,,,,,,,,,,,,,,,1900.0,2100.0,OVC,2100.0,,,,,,
KRDR,04-03-2022,12:56,METAR,Normal,120,3.0,,,9999.0,,-0.7,-5.1,30.03,1018.6,,,,,,,,,,,,,,,,1900.0,1900.0,OVC,1900.0,,,,,,
KRDR,04-03-2022,11:56,METAR,Normal,140,6.0,,,9999.0,,-0.8,-4.9,30.03,1018.6,,,,,,,,,,,,,,,,2000.0,2000.0,OVC,2000.0,,,,,,
KRDR,04-03-2022,10:56,METAR,Normal,100,5.0,,,9999.0,,-0.7,-4.9,30.04,1018.8,,,,,,,,,,,,,,,,2200.0,2200.0,OVC,2200.0,,,,,,
KRDR,04-03-2022,09:56,METAR,Normal,90,6.0,,,9999.0,,-0.6,-4.5,30.03,1018.5,,,,,,,,,,,,,,,,2200.0,2200.0,OVC,2200.0,,,,,,
KRDR,04-03-2022,08:56,METAR,Normal,80,4.0,,,9999.0,,-0.7,-3.7,30.04,1018.8,,,,,,,,,,,,,,,,2300.0,2300.0,OVC,2300.0,,,,,,
KRDR,04-03-2022,07:56,METAR,Normal,120,4.0,,,9999.0,,-0.6,-3.6,30.03,1018.5,,,,,,,,,,,,,,,,2300.0,2300.0,OVC,2300.0,,,,,,
KRDR,04-03-2022,06:56,METAR,Normal,110,4.0,,,9999.0,,-0.6,-3.3,30.04,1018.8,,,,,,,,,,,,,,,,2300.0,2300.0,OVC,2300.0,,,,,,
KRDR,04-03-2022,05:56,METAR,Normal,110,5.0,,,9999.0,,-0.7,-2.9,30.04,1018.8,,,,,,,,,,,,,,,,2400.0,2400.0,OVC,2400.0,,,,,,
KRDR,04-03-2022,04:56,METAR,Normal,90,6.0,,,9999.0,,-0.6,-3.1,30.06,1019.5,,,,,,,,,,,,,,,,2500.0,2500.0,OVC,2500.0,,,,,,
KRDR,04-03-2022,03:56,METAR,Normal,100,4.0,,,9999.0,,-0.4,-2.9,30.07,1019.9,,,,,,,,,,,,,,,,2500.0,2500.0,OVC,2500.0,,,,,,
KRDR,04-03-2022,02:56,METAR,Normal,70,7.0,,,9999.0,,-0.1,-3.0,30.07,1019.9,,,,,,,,,,,,,,,,2300.0,2300.0,OVC,2300.0,,,,,,
KRDR,04-03-2022,01:56,METAR,Normal,40,6.0,,,9999.0,,0.3,-3.1,30.05,1019.2,,,,,,,,,,,,,,,,2400.0,2600.0,BKN,2600.0,,,,,,
KRDR,04-03-2022,00:56,METAR,Normal,60,7.0,,,9999.0,,0.8,-3.3,30.03,1018.5,,,,,,,,,,,,,,,,2800.0,2800.0,BKN,2800.0,,,,,,
KRDR,04-03-2022,00:06,SPECI,Normal,50,7.0,,,9999.0,,2.0,-4.0,30.02,1018.2,,,,,,,,,,,,,,,,2600.0,2900.0,BKN,2900.0,,,,,,
KRDR,04-02-2022,23:56,METAR,Normal,50,7.0,,,9999.0,,1.7,-3.8,30.02,1018.2,,,,,,,,,,,,,,,,3100.0,3100.0,BKN,3100.0,,,,,,
KRDR,04-02-2022,22:56,METAR,Normal,20,5.0,,,9999.0,,2.1,-4.6,30.03,1018.5,,,,,,,,,,,,,,,,3000.0,3000.0,OVC,3000.0,,,,,,
KRDR,04-02-2022,21:56,METAR,Normal,360,5.0,,,9999.0,,2.3,-4.7,30.02,1018.2,,,,,,,,,,,,,,,,3000.0,3000.0,OVC,3000.0,,,,,,
KRDR,04-02-2022,21:46,SPECI,Normal,350,5.0,,,9999.0,,2.0,-5.0,30.02,1018.2,,,,,,,,,,,,,,,,3000.0,3000.0,OVC,3000.0,,,,,,
KRDR,04-02-2022,21:36,SPECI,Normal,10,5.0,,,9999.0,,2.0,-5.0,30.02,1018.2,,,,,,,,,,,,,,,,2900.0,2900.0,OVC,2900.0,,,,,,
KRDR,04-02-2022,20:56,METAR,Normal,360,8.0,,,9999.0,,2.4,-4.6,30.02,1018.2,,,,,,,,,,,,TRACE,,,,3100.0,3100.0,OVC,3100.0,,,,,,
KRDR,04-02-2022,20:06,SPECI,Normal,350,7.0,,,9999.0,,2.0,-4.0,30.02,1018.2,,,,,,,,,,,,,,,,3100.0,3100.0,OVC,3100.0,,,,,,
KRDR,04-02-2022,19:56,METAR,Normal,360,8.0,,,9999.0,,2.1,-4.4,30.02,1018.2,,,,,,,,,,,,,,,,2900.0,2900.0,OVC,2900.0,,,,,,
KRDR,04-02-2022,19:46,SPECI,Normal,10,10.0,,,9999.0,,2.0,-4.0,30.02,1018.2,,,,,,,,,,,,,,,,3100.0,3100.0,OVC,3100.0,,,,,,
KRDR,04-02-2022,18:56,METAR,Normal,330,9.0,,,9999.0,,2.2,-4.3,30.02,1018.2,,,,,,,,,,,TRACE,,,,,2500.0,2900.0,OVC,2900.0,,,,,,
KRDR,04-02-2022,18:27,SPECI,Normal,330,10.0,,,9999.0,,2.0,-4.0,30.02,1018.2,,,,,,,,,,,,,,,,2500.0,2500.0,BKN,2500.0,OVC,3500.0,,,,
KRDR,04-02-2022,18:18,SPECI,Normal,330,9.0,,,9999.0,,2.0,-4.0,30.02,1018.2,,,,,,,,,,,,,,,,2500.0,2500.0,BKN,2500.0,OVC,3500.0,,,,
KRDR,04-02-2022,17:56,METAR,Normal,310,11.0,,,9999.0,,2.6,-4.2,30.01,1017.8,,,,,,,,,,,,,,,,2600.0,2600.0,BKN,2600.0,BKN,3200.0,OVC,4200.0,,
KRDR,04-02-2022,17:46,SPECI,Normal,340,11.0,,,9999.0,,3.0,-4.0,30.01,1017.8,,,,,,,,,,,,,,,,2600.0,2600.0,BKN,2600.0,OVC,4100.0,,,,
KRDR,04-02-2022,17:16,SPECI,Normal,330,10.0,,,9999.0,,3.0,-4.0,30.01,1017.8,,,,,,,,,,,,,,,,4000.0,2800.0,SCT,2800.0,OVC,4000.0,,,,
KRDR,04-02-2022,16:56,METAR,Normal,340,12.0,,,9999.0,,2.5,-4.5,30.00,1017.4,,,,,,,,,,,,,,,,2600.0,2700.0,BKN,2700.0,OVC,4000.0,,,,
KRDR,04-02-2022,15:56,METAR,Normal,320,12.0,,,9999.0,,2.4,-4.8,29.99,1017.1,,,,,,,,,,,,,,,,4000.0,2700.0,FEW,2700.0,OVC,4000.0,,,,
KRDR,04-02-2022,15:26,SPECI,Normal,320,13.0,,,9999.0,,2.0,-4.0,29.99,1017.0,,,,,,,,,,,,,,,,4000.0,2500.0,SCT,2500.0,OVC,4000.0,,,,
KRDR,04-02-2022,15:16,SPECI,Normal,310,13.0,,,9999.0,,2.0,-5.0,29.99,1016.9,,,,,,,,,,,,,,,,2400.0,2400.0,BKN,2400.0,OVC,3800.0,,,,
KRDR,04-02-2022,14:56,METAR,Normal,320,11.0,,,9999.0,,1.7,-4.0,29.98,1016.6,,,,,,,,,,,,,,,,3400.0,3400.0,OVC,3400.0,,,,,,
KRDR,04-02-2022,13:56,METAR,Normal,320,11.0,,,9999.0,,1.1,-4.3,29.97,1016.3,,,,,,,,,,,,,,,,3800.0,3800.0,OVC,3800.0,,,,,,
KRDR,04-02-2022,12:46,SPECI,Normal,330,9.0,,,9999.0,,1.0,-3.0,29.96,1015.9,,,,,,,,,,,,,,,,3400.0,2300.0,SCT,2300.0,OVC,3400.0,,,,
KRDR,04-02-2022,12:06,SPECI,Normal,310,10.0,,,9999.0,,1.0,-4.0,29.94,1015.1,,,,,,,,,,,,,,,,2600.0,2600.0,BKN,2600.0,OVC,3200.0,,,,
KRDR,04-02-2022,11:56,METAR,Normal,310,11.0,,,9999.0,,0.9,-3.8,29.94,1015.1,,,,,,,,,,,,,,,,3100.0,2600.0,SCT,2600.0,OVC,3100.0,,,,
KRDR,04-02-2022,10:56,METAR,Normal,300,8.0,,,9999.0,,0.7,-2.9,29.91,,,,,,,,,,,,,,,,,3300.0,3300.0,OVC,3300.0,,,,,,
KRDR,04-02-2022,09:56,METAR,Normal,300,7.0,,,9999.0,,0.5,-3.1,29.91,1014.0,,,,,,,,,,,,,,,,3900.0,3900.0,OVC,3900.0,,,,,,
KRDR,04-02-2022,08:56,METAR,Normal,290,6.0,,,9999.0,,0.0,-3.2,29.90,1013.7,,,,,,,,,,,,,,,,10000.0,10000.0,BKN,10000.0,,,,,,
KRDR,04-02-2022,07:56,METAR,Normal,310,9.0,,,9999.0,,0.5,-3.6,29.90,1013.6,,,,,,,,,,,,,,,Clear,72000.0,,,,,,,,,
KRDR,04-02-2022,06:56,METAR,Normal,290,8.0,,,9999.0,,-0.9,-3.3,29.89,1013.4,,,,,,,,,,,,,,,Clear,72000.0,,,,,,,,,
KRDR,04-02-2022,05:56,METAR,Normal,260,3.0,,,9999.0,,-1.7,-3.0,29.88,1013.1,,,,,,,,,,,,,,,Clear,72000.0,,,,,,,,,
KRDR,04-02-2022,04:56,METAR,Calm,,0.0,,,9999.0,,1.7,-2.1,29.89,1013.4,,,,,,,,,,,,,,,,6500.0,6500.0,BKN,6500.0,OVC,8000.0,,,,
KRDR,04-02-2022,03:56,METAR,Calm,,0.0,,,9999.0,,2.1,-2.1,29.87,1012.8,,,,,,,,,,,,,,,,11000.0,7000.0,SCT,7000.0,BKN,11000.0,,,,
KRDR,04-02-2022,02:56,METAR,Normal,260,6.0,,,9999.0,,5.5,-1.0,29.83,1011.4,,,,,,,,,,,,,,,,7500.0,7500.0,OVC,7500.0,,,,,,
KRDR,04-02-2022,01:56,METAR,Normal,240,7.0,,,9999.0,,5.4,-0.9,29.82,1011.2,,,,,,,,,,,,,,,,8500.0,8500.0,OVC,8600.0,,,,,,
KRDR,04-02-2022,00:56,METAR,Normal,200,7.0,,,9999.0,,7.0,-1.4,29.79,1010.2,,,,,,,,,,,,,,,,8000.0,8000.0,BKN,8000.0,OVC,10000.0,,,,
KRDR,04-01-2022,22:56,METAR,Normal,230,11.0,,,9999.0,,10.7,-0.2,29.79,1010.0,,,,,,,,,,,,,,,,11000.0,9000.0,SCT,9100.0,BKN,11000.0,BKN,13000.0,OVC,15000.0
KRDR,04-01-2022,21:56,METAR,Normal,240,13.0,,220/26KTS,9999.0,,11.6,-1.5,29.79,1010.0,,,,,,,,,,,,,,,,12000.0,7500.0,SCT,7500.0,BKN,12000.0,,,,
KRDR,04-01-2022,20:56,METAR,Normal,260,10.0,,,9999.0,,12.5,-3.8,29.78,1009.7,,,,,,,,,,,,,,,,,9000.0,SCT,9100.0,SCT,16000.0,,,,
KRDR,04-01-2022,19:56,METAR,Normal,250,11.0,21.0,,9999.0,,13.1,-2.4,29.79,1010.0,,,,,,,,,,,,,,,,7000.0,7000.0,BKN,7000.0,BKN,9100.0,,,,
KRDR,04-01-2022,18:56,METAR,Normal,240,16.0,20.0,,9999.0,,13.1,-3.7,29.80,1010.3,,,,,,,,,,,,,,,,,16000.0,FEW,16000.0,SCT,18000.0,SCT,21000.0,,
KRDR,04-01-2022,17:56,METAR,Normal,220,12.0,,,9999.0,,12.5,-0.4,29.81,1010.7,,,,,,,,,,,,,,,,17000.0,17000.0,BKN,17000.0,,,,,,
KRDR,04-01-2022,16:56,METAR,Normal,220,12.0,,,9999.0,,10.4,-0.4,29.82,1011.2,,,,,,,,,,,,,,,,,16000.0,SCT,16000.0,SCT,18000.0,,,,
KRDR,04-01-2022,15:56,METAR,Normal,230,9.0,,,9999.0,,7.2,-0.5,29.83,1011.6,,,,,,,,,,,,,,,,18000.0,15000.0,SCT,15000.0,BKN,18000.0,BKN,20000.0,,
KRDR,04-01-2022,14:56,METAR,Normal,210,7.0,,,9999.0,,4.9,-1.1,29.83,1011.7,,,,,,,,,,,,,,,,,17000.0,SCT,17000.0,,,,,,
KRDR,04-01-2022,13:56,METAR,Normal,210,9.0,,,9999.0,,1.8,-2.0,29.82,1011.3,,,,,,,,,,,,,,,Clear,72000.0,,,,,,,,,
KRDR,04-01-2022,12:56,METAR,Normal,210,9.0,,,9999.0,,-1.1,-3.3,29.82,1011.5,,,,,,,,,,,,,,,Clear,72000.0,,,,,,,,,
KRDR,04-01-2022,11:56,METAR,Normal,200,11.0,,,9999.0,,-1.9,-3.8,29.81,1011.1,,,,,,,,,,,,,,,Clear,72000.0,,,,,,,,,
KRDR,04-01-2022,10:56,METAR,Normal,180,10.0,,,9999.0,,-0.8,-3.2,29.80,1010.6,,,,,,,,,,,,,,,,9000.0,7500.0,SCT,7500.0,OVC,9100.0,,,,
KRDR,04-01-2022,09:56,METAR,Normal,170,8.0,,,9999.0,,-1.2,-3.2,29.81,1011.0,,,,,,,,,,,,,,,,9000.0,9000.0,OVC,9100.0,,,,,,
KRDR,04-01-2022,08:56,METAR,Normal,170,8.0,,,9999.0,,-2.0,-4.2,29.82,1011.4,,,,,,,,,,,,,,,Clear,72000.0,,,,,,,,,
KRDR,04-01-2022,07:56,METAR,Normal,180,10.0,,,9999.0,,-1.3,-3.7,29.83,1011.7,,,,,,,,,,,,,,,,8000.0,8000.0,OVC,8000.0,,,,,,
KRDR,04-01-2022,06:56,METAR,Normal,180,7.0,,,9999.0,,-1.3,-3.8,29.84,1012.1,,,,,,,,,,,,,,,,10000.0,10000.0,OVC,10000.0,,,,,,
KRDR,04-01-2022,05:56,METAR,Normal,190,7.0,,,9999.0,,-3.2,-5.4,29.83,1011.9,,,,,,,,,,,,,,,,10000.0,10000.0,BKN,10000.0,,,,,,
KRDR,04-01-2022,04:56,METAR,Normal,170,4.0,,,9999.0,,-4.2,-5.9,29.83,1012.0,,,,,,,,,,,,,,,Clear,72000.0,,,,,,,,,
KRDR,04-01-2022,03:56,METAR,Normal,130,5.0,,,9999.0,,-2.9,-4.9,29.82,1011.6,,,,,,,,,,,,,,,,,13000.0,FEW,13000.0,,,,,,
KRDR,04-01-2022,02:56,METAR,Calm,,0.0,,,9999.0,,-3.7,-5.3,29.83,1012.1,,,,,,,,,,,,,,,Clear,72000.0,,,,,,,,,
KRDR,04-01-2022,01:56,METAR,Normal,90,4.0,,,9999.0,,-0.9,-5.0,29.81,1011.3,,,,,,,,,,,,,,,Clear,72000.0,,,,,,,,,
KRDR,04-01-2022,00:56,METAR,Normal,10,3.0,,,9999.0,,-0.6,-4.7,29.81,1011.3,,,,,,,,,,,,,,,Clear,72000.0,,,,,,,,,
KRDR,03-31-2022,23:56,METAR,Normal,330,5.0,,,9999.0,,2.1,-4.6,29.80,1010.8,,,,,,,,,,,,,,,Clear,72000.0,,,,,,,,,
KRDR,03-31-2022,22:56,METAR,Normal,320,5.0,,,9999.0,,2.6,-4.8,29.79,1010.4,,,,,,,,,,,,,,,Clear,72000.0,,,,,,,,,
KRDR,03-31-2022,21:56,METAR,Normal,340,6.0,,,9999.0,,2.6,-4.2,29.80,1010.7,,,,,,,,,,,,,,,Clear,72000.0,,,,,,,,,
KRDR,03-31-2022,20:56,METAR,Normal,320,9.0,,,9999.0,,2.4,-4.6,29.79,1010.5,,,,,,,,,,,,,,,Clear,72000.0,,,,,,,,,
KRDR,03-31-2022,19:56,METAR,Normal,10,8.0,,,9999.0,,2.0,-5.9,29.79,1010.5,,,,,,,,,,,,,,,,,2000.0,FEW,2000.0,,,,,,
KRDR,03-31-2022,19:20,SPECI,Normal,10,8.0,,,9999.0,,1.0,-5.0,29.80,1010.8,,,,,,,,,,,,,,,,,2000.0,SCT,2000.0,,,,,,
KRDR,03-31-2022,18:56,METAR,Normal,10,10.0,,,9999.0,,1.0,-5.9,29.81,1011.1,,,,,,,,,,,,,,,,1900.0,1900.0,BKN,1900.0,,,,,,
KRDR,03-31-2022,17:56,METAR,Normal,330,8.0,,,9999.0,,-1.1,-6.3,29.82,1011.6,,,,,,,,,,,,,,,,1500.0,1600.0,BKN,1600.0,,,,,,
KRDR,03-31-2022,16:56,METAR,Normal,340,10.0,,,9999.0,,-2.7,-7.1,29.83,1012.1,,,,,,,,,,,,,,,,1400.0,1400.0,OVC,1400.0,,,,,,
KRDR,03-31-2022,15:56,METAR,Normal,360,12.0,18.0,,9999.0,,-1.8,-6.7,29.83,1012.0,,,,,,,,,,,,,,,,1400.0,1400.0,BKN,1400.0,,,,,,
KRDR,03-31-2022,14:56,METAR,Normal,10,15.0,,,9999.0,,-3.1,-6.9,29.82,1011.6,,,,,,,,,,,,,,,,1400.0,1400.0,OVC,1400.0,,,,,,
KRDR,03-31-2022,14:26,SPECI,Normal,10,12.0,18.0,,9999.0,,-3.0,-7.0,29.82,1011.6,,,,,,,,,,,,,,,,1400.0,1500.0,OVC,1500.0,,,,,,
KRDR,03-31-2022,13:56,METAR,Normal,10,15.0,20.0,,9999.0,,-4.3,-7.7,29.82,1011.6,,,,,,,,,,,,,,,,1400.0,1400.0,BKN,1400.0,,,,,,
KRDR,03-31-2022,12:56,METAR,Normal,360,14.0,,,9999.0,,-4.3,-7.4,29.81,1011.3,,,,,,,,,,,,,,,,1400.0,1400.0,OVC,1400.0,,,,,,
KRDR,03-31-2022,11:56,METAR,Normal,360,13.0,20.0,,9999.0,,-4.2,-7.3,29.80,1011.0,,,,,,,,,,,,,,,,1400.0,1400.0,OVC,1400.0,,,,,,
KRDR,03-31-2022,11:36,SPECI,Normal,10,14.0,,,9999.0,,-4.0,-7.0,29.80,1011.0,,,,,,,,,,,,,,,,1400.0,1400.0,OVC,1400.0,,,,,,
KRDR,03-31-2022,10:56,METAR,Normal,10,14.0,,,9999.0,,-4.0,-7.1,29.80,1011.0,,,,,,,,,,,,,,,,1500.0,1500.0,OVC,1500.0,,,,,,
KRDR,03-31-2022,09:56,METAR,Normal,350,11.0,,,9999.0,,-3.7,-6.8,29.80,1011.0,,,,,,,,,,,,,,,,1900.0,1900.0,OVC,1900.0,,,,,,
KRDR,03-31-2022,08:56,METAR,Normal,350,9.0,,,9999.0,,-3.6,-6.4,29.79,1010.6,,,,,,,,,,,,,,,,2100.0,2100.0,OVC,2100.0,,,,,,
KRDR,03-31-2022,07:56,METAR,Normal,340,9.0,,,9999.0,,-3.7,-6.5,29.80,1011.0,,,,,,,,,,,,,,,,2300.0,2300.0,OVC,2300.0,,,,,,
KRDR,03-31-2022,06:56,METAR,Normal,350,9.0,,,9999.0,,-3.7,-6.7,29.80,1011.0,,,,,,,,,,,,,,,,2400.0,2400.0,OVC,2400.0,,,,,,
KRDR,03-31-2022,06:26,SPECI,Normal,350,9.0,,,9999.0,,-4.0,-7.0,29.80,1011.0,,,,,,,,,,,,,,,,2500.0,2500.0,BKN,2500.0,,,,,,
KRDR,03-31-2022,06:16,SPECI,Normal,360,9.0,,,9999.0,,-5.0,-7.0,29.80,1011.0,,,,,,,,,,,,,,,,,2600.0,SCT,2600.0,,,,,,
KRDR,03-31-2022,05:56,METAR,Normal,360,9.0,,,9999.0,,-4.5,-6.8,29.80,1011.0,,,,,,,,,,,,,,,,2500.0,2500.0,OVC,2500.0,,,,,,
KRDR,03-31-2022,05:36,SPECI,Normal,360,10.0,,,9999.0,,-4.0,-6.0,29.80,1011.0,,,,,,,,,,,,,,,,2400.0,2400.0,BKN,2400.0,,,,,,
KRDR,03-31-2022,04:56,METAR,Normal,10,9.0,,,9999.0,,-4.6,-7.1,29.81,1011.4,,,,,,,,,,,,,,,Clear,72000.0,,,,,,,,,
KRDR,03-31-2022,02:56,METAR,Normal,360,17.0,22.0,,9999.0,,-2.8,-6.6,29.80,1011.0,,,,,,,,,,,,,,,Clear,72000.0,,,,,,,,,
KRDR,03-31-2022,02:40,SPECI,Normal,350,16.0,21.0,,9999.0,,-3.0,-6.0,29.80,1011.0,,,,,,,,,,,,,,,Clear,72000.0,,,,,,,,,
KRDR,03-31-2022,01:56,METAR,Normal,360,16.0,24.0,,9999.0,,-2.5,-6.0,29.80,1010.9,,,,,,,,,,,,,,,,,2200.0,SCT,2200.0,,,,,,
KRDR,03-31-2022,01:54,SPECI,Normal,360,15.0,24.0,,9999.0,,-2.0,-6.0,29.80,1010.9,,,,,,,,,,,,,,,,,2200.0,SCT,2200.0,,,,,,
KRDR,03-31-2022,01:36,SPECI,Normal,360,15.0,,,9999.0,,-2.0,-6.0,29.80,1010.8,,,,,,,,,,,,,,,,2000.0,2000.0,OVC,2000.0,,,,,,
KRDR,03-31-2022,00:56,METAR,Normal,360,17.0,23.0,340/29KTS,9999.0,,-1.7,-5.2,29.80,1010.8,,,,,,,,,,,,,,,,1800.0,1800.0,OVC,1800.0,,,,,,
KRDR,03-30-2022,22:56,METAR,Normal,10,20.0,26.0,350/29KTS,9999.0,,-1.3,-5.2,29.78,1010.1,,,,,,,,,,,,,,,,1600.0,1600.0,OVC,1600.0,,,,,,
KRDR,03-30-2022,22:36,SPECI,Normal,350,17.0,25.0,,9999.0,,-1.0,-5.0,29.78,1010.0,,,,,,,,,,,,,,,,1500.0,1500.0,OVC,1500.0,,,,,,
KRDR,03-30-2022,22:16,SPECI,Normal,360,22.0,28.0,,9999.0,,-1.0,-5.0,29.78,1010.0,,,,,,,,,,,,,,,,1400.0,1400.0,OVC,1400.0,,,,,,
KRDR,03-30-2022,21:56,METAR,Normal,360,20.0,27.0,340/29KTS,9999.0,,-1.5,-4.8,29.77,1009.7,,,,,,,,,,,,,,,,1400.0,1500.0,OVC,1500.0,,,,,,
KRDR,03-30-2022,20:56,METAR,Normal,360,20.0,27.0,350/28KTS,9999.0,,-1.9,-5.1,29.78,1010.1,,,,,,,,,,,,,,,,1400.0,1400.0,OVC,1400.0,,,,,,
KRDR,03-30-2022,20:05,SPECI,Normal,350,17.0,28.0,,9999.0,,-2.0,-5.0,29.78,1010.1,,,,,,,,,,,,,,,,1400.0,1400.0,OVC,1400.0,,,,,,
KRDR,03-30-2022,19:56,METAR,Normal,360,21.0,26.0,330/31KTS,9999.0,,-2.0,-5.2,29.78,1010.1,,,,,,,,,,,,,,,,1500.0,1500.0,OVC,1500.0,,,,,,
KRDR,03-30-2022,19:50,SPECI,Normal,350,21.0,30.0,,9999.0,,-2.0,-5.0,29.78,1010.1,,,,,,,,,,,,,,,,1500.0,1500.0,OVC,1500.0,,,,,,
KRDR,03-30-2022,18:56,METAR,Normal,360,21.0,27.0,360/31KTS,9999.0,,-2.7,-5.4,29.78,1010.1,,,,,,,,,,,,,,,,1200.0,1200.0,OVC,1200.0,,,,,,
KRDR,03-30-2022,18:37,SPECI,Normal,360,20.0,31.0,,9999.0,,-3.0,-5.0,29.78,1010.1,,,,,,,,,,,,,,,,1200.0,1200.0,OVC,1200.0,,,,,,
KRDR,03-30-2022,17:56,METAR,Normal,360,21.0,29.0,320/30KTS,9999.0,,-2.9,-5.1,29.78,1010.1,,,,,,,,,,,,,,,,900.0,900.0,OVC,900.0,,,,,,
KRDR,03-30-2022,17:03,METAR,Normal,350,24.0,28.0,340/31KTS,9999.0,,-2.8,-4.7,29.78,1010.1,,,,,,,,,,,,,,,,700.0,700.0,OVC,700.0,,,,,,
KRDR,03-30-2022,15:55,METAR,Normal,360,21.0,30.0,350/32KTS,9999.0,,-2.8,-4.5,29.77,1009.8,,,,,,,,,,,,,,,,700.0,700.0,OVC,700.0,,,,,,
KRDR,03-30-2022,14:55,METAR,Normal,350,21.0,28.0,330/32KTS,9999.0,,-2.2,-3.6,29.76,1009.4,,,,,,,,,,,,,,,,700.0,700.0,OVC,700.0,,,,,,
KRDR,03-30-2022,14:23,SPECI,Normal,350,20.0,32.0,,9999.0,,-2.0,-3.0,29.74,1008.7,,,,,,,,,,,,,,,,700.0,700.0,OVC,700.0,,,,,,
KRDR,03-30-2022,13:54,METAR,Normal,350,22.0,28.0,360/34KTS,9999.0,,-1.1,-2.8,29.73,1008.3,,,,,,,,,,,,,,,,1000.0,1100.0,OVC,1100.0,,,,,,
KRDR,03-30-2022,12:54,METAR,Normal,360,23.0,29.0,360/34KTS,9999.0,,-0.8,-2.2,29.71,1007.6,,,,,,,,,,,,,,,,800.0,800.0,OVC,800.0,,,,,,
KRDR,03-30-2022,11:58,METAR,Normal,360,23.0,32.0,330/33KTS,9999.0,,-0.5,-1.6,29.69,1006.8,,,,,,,,,,,,,,.03 IN,,500.0,500.0,OVC,500.0,,,,,,
KRDR,03-30-2022,10:56,METAR,Normal,360,19.0,28.0,360/29KTS,9999.0,,-0.1,-0.7,29.68,1006.5,,,,,,,,,,,,,,,,300.0,300.0,OVC,300.0,,,,,,
KRDR,03-30-2022,10:03,SPECI,Normal,360,17.0,25.0,,9999.0,Mist,0.0,0.0,29.66,1005.7,10,,,,,,,,,,,,,,,200.0,200.0,OVC,200.0,,,,,,
KRDR,03-30-2022,09:59,METAR,Normal,360,17.0,24.0,340/26KTS,8000.0,Mist,0.2,-0.4,29.66,1005.7,10,,,,,,,,,,,,,,,200.0,200.0,OVC,200.0,,,,,,
KRDR,03-30-2022,08:55,METAR,Normal,360,16.0,20.0,,9999.0,,0.3,-0.3,29.66,1005.7,,,,,,,,,,,,TRACE,,,,200.0,200.0,OVC,200.0,,,,,,
KRDR,03-30-2022,08:36,SPECI,Normal,330,15.0,,,4800.0,Mist,0.0,0.0,29.66,1005.7,10,,,,,,,,,,,,,,,100.0,100.0,OVC,100.0,,,,,,
KRDR,03-30-2022,07:58,METAR,Normal,330,15.0,,,2000.0,Mist,0.3,-0.3,29.67,1006.1,10,,,,,,,,,,TRACE,,,,,100.0,200.0,OVC,200.0,,,,,,
KRDR,03-30-2022,07:19,SPECI,Normal,330,11.0,,,4000.0,Rain/Mist,0.0,0.0,29.68,1006.4,,,,61,10,,,,,,,,,,,100.0,200.0,OVC,200.0,,,,,,
KRDR,03-30-2022,06:54,METAR,Normal,350,7.0,,,3200.0,Mist,0.3,-0.3,29.68,1006.4,10,,,,,,,,,,,,,,,200.0,200.0,OVC,200.0,,,,,,
KRDR,03-30-2022,05:58,METAR,Normal,40,5.0,,,4800.0,Mist,0.4,-0.2,29.67,1006.1,10,,,,,,,,,,TRACE,,.03 IN,,,200.0,200.0,OVC,200.0,,,,,,
KRDR,03-30-2022,04:56,METAR,Normal,20,5.0,,,4400.0,Mist,0.4,-0.2,29.66,1005.8,10,,,,,,,,,,TRACE,,,,,200.0,200.0,OVC,200.0,,,,,,
KRDR,03-30-2022,03:56,METAR,Normal,40,6.0,,,4800.0,Light Rain/Mist,0.7,0.1,29.67,1006.1,61,10,,,,,,,,,.01 IN,,,,,200.0,200.0,BKN,200.0,OVC,3500.0,,,,
KRDR,03-30-2022,02:56,METAR,Normal,20,5.0,,,9999.0,Light Rain,1.0,0.4,29.68,1006.5,61,,,,,,,,,,.01 IN,.02 IN,,,,3000.0,800.0,FEW,800.0,BKN,3000.0,OVC,3600.0,,
KRDR,03-30-2022,02:53,SPECI,Normal,20,5.0,,,9999.0,Light Rain,1.0,0.0,29.68,1006.5,61,,,,,,,,,,,,,,,3000.0,800.0,FEW,800.0,BKN,3000.0,OVC,3600.0,,
KRDR,03-30-2022,01:56,METAR,Normal,10,3.0,,,9999.0,Light Rain,1.3,0.7,29.68,1006.6,61,,,,,,,,,,.01 IN,,,,,5000.0,1600.0,FEW,1600.0,SCT,3500.0,SCT,4200.0,OVC,5000.0
KRDR,03-30-2022,00:56,METAR,Normal,360,3.0,,,9999.0,Light Rain,1.9,0.7,29.66,1005.9,61,,,,,,,,,,TRACE,,,,,3400.0,3400.0,BKN,3400.0,BKN,4200.0,OVC,5000.0,,
KRDR,03-29-2022,23:56,METAR,Calm,,0.0,,,9999.0,Light Rain,3.0,0.9,29.65,1005.5,61,,,,,,,,,,TRACE,,TRACE,,,4000.0,2900.0,FEW,2900.0,OVC,4000.0,,,,
KRDR,03-29-2022,22:56,METAR,Normal,210,8.0,,,9999.0,Light Rain,3.4,0.4,29.65,1005.5,61,,,,,,,,,,TRACE,,,,,3400.0,700.0,FEW,700.0,OVC,3400.0,,,,
KRDR,03-29-2022,21:57,SPECI,Normal,200,9.0,,,9999.0,Light Rain,6.0,-1.0,29.63,1004.7,61,,,,,,,,,,,,,,,5500.0,2300.0,FEW,2300.0,FEW,3300.0,OVC,5500.0,,
KRDR,03-29-2022,21:56,METAR,Normal,190,9.0,,,9999.0,,5.6,-1.3,29.63,1004.7,,,,,,,,,,,,,,,,5500.0,2400.0,FEW,2400.0,FEW,3300.0,OVC,5500.0,,
KRDR,03-29-2022,20:56,METAR,Normal,170,11.0,,,9999.0,,5.8,-2.1,29.63,1004.7,,,,,,,,,,,,,,,,6000.0,6000.0,OVC,6000.0,,,,,,
KRDR,03-29-2022,19:56,METAR,Normal,170,16.0,21.0,,9999.0,,6.9,-2.8,29.64,1005.0,,,,,,,,,,,,,,,,9000.0,6000.0,FEW,6000.0,BKN,9100.0,OVC,22000.0,,
KRDR,03-29-2022,18:56,METAR,Normal,170,14.0,,,9999.0,,5.5,-3.6,29.65,1005.4,,,,,,,,,,,,,,,,8500.0,8500.0,BKN,8600.0,,,,,,
KRDR,03-29-2022,17:56,METAR,Normal,170,14.0,,,9999.0,,5.2,-3.9,29.68,1006.5,,,,,,,,,,,,,,,,11000.0,11000.0,BKN,11000.0,BKN,14000.0,,,,
KRDR,03-29-2022,16:56,METAR,Normal,170,17.0,23.0,160/26KTS,9999.0,,4.2,-4.8,29.69,1006.8,,,,,,,,,,,,,,,,15000.0,12000.0,SCT,12000.0,BKN,15000.0,BKN,18000.0,,
KRDR,03-29-2022,15:56,METAR,Normal,170,19.0,24.0,,9999.0,,3.6,-5.3,29.70,1007.2,,,,,,,,,,,,,,,,13000.0,13000.0,OVC,13000.0,,,,,,
KRDR,03-29-2022,14:56,METAR,Normal,160,16.0,24.0,,9999.0,,2.8,-5.6,29.70,1007.2,,,,,,,,,,,,,,,,,19000.0,FEW,19000.0,,,,,,
KRDR,03-29-2022,13:56,METAR,Normal,160,18.0,,,9999.0,,1.7,-5.9,29.71,1007.6,,,,,,,,,,,,,,,Clear,72000.0,,,,,,,,,
KRDR,03-29-2022,12:56,METAR,Normal,150,14.0,,,9999.0,,0.3,-6.1,29.74,1008.6,,,,,,,,,,,,,,,,13000.0,13000.0,OVC,13000.0,,,,,,
KRDR,03-29-2022,11:56,METAR,Normal,150,13.0,,,9999.0,,-0.4,-6.2,29.75,1008.9,,,,,,,,,,,,,,,,,13000.0,SCT,13000.0,,,,,,
KRDR,03-29-2022,10:56,METAR,Normal,160,16.0,22.0,,9999.0,,-0.1,-6.3,29.76,1009.2,,,,,,,,,,,,,,,,,12000.0,SCT,12000.0,SCT,14000.0,,,,
KRDR,03-29-2022,09:56,METAR,Normal,170,17.0,,,9999.0,,0.1,-6.3,29.77,1009.6,,,,,,,,,,,,,,,,13000.0,13000.0,BKN,13000.0,,,,,,
KRDR,03-29-2022,08:56,METAR,Normal,160,19.0,24.0,170/26KTS,9999.0,,0.4,-6.3,29.79,1010.2,,,,,,,,,,,,,,,,13000.0,13000.0,OVC,13000.0,,,,,,
KRDR,03-29-2022,07:56,METAR,Normal,160,13.0,,,9999.0,,0.5,-6.4,29.84,1011.9,,,,,,,,,,,,,,,,12000.0,12000.0,OVC,12000.0,,,,,,
KRDR,03-29-2022,06:56,METAR,Normal,160,17.0,,,9999.0,,0.2,-6.7,29.85,1012.4,,,,,,,,,,,,,,,,13000.0,11000.0,SCT,11000.0,OVC,13000.0,,,,
KRDR,03-29-2022,05:56,METAR,Normal,160,16.0,,,9999.0,,-0.1,-7.2,29.89,1013.7,,,,,,,,,,,,,,,,,13000.0,FEW,13000.0,,,,,,
KRDR,03-29-2022,04:56,METAR,Normal,160,15.0,21.0,,9999.0,,0.1,-7.2,29.90,1014.1,,,,,,,,,,,,,,,,,13000.0,SCT,13000.0,SCT,16000.0,,,,
KRDR,03-29-2022,04:53,SPECI,Normal,160,16.0,21.0,,9999.0,,0.0,-7.0,29.90,1014.1,,,,,,,,,,,,,,,,,13000.0,SCT,13000.0,SCT,16000.0,,,,
KRDR,03-29-2022,03:56,METAR,Normal,160,14.0,,,9999.0,,0.1,-6.8,29.92,1014.9,,,,,,,,,,,,,,,,,13000.0,SCT,13000.0,,,,,,
KRDR,03-29-2022,03:27,SPECI,Normal,160,14.0,19.0,,9999.0,,0.0,-6.0,29.93,1015.2,,,,,,,,,,,,,,,,13000.0,13000.0,OVC,13000.0,,,,,,
KRDR,03-29-2022,02:56,METAR,Normal,160,12.0,,,9999.0,,0.3,-6.6,29.94,1015.6,,,,,,,,,,,,,,,Clear,72000.0,,,,,,,,,
KRDR,03-29-2022,01:56,METAR,Normal,160,10.0,,,9999.0,,0.7,-6.9,29.94,1015.7,,,,,,,,,,,,,,,,,13000.0,SCT,13000.0,,,,,,
KRDR,03-29-2022,00:56,METAR,Normal,150,14.0,,,9999.0,,1.6,-7.2,29.93,1015.3,,,,,,,,,,,,,,,Clear,72000.0,,,,,,,,,
KRDR,03-28-2022,23:56,METAR,Normal,150,17.0,22.0,,9999.0,,3.1,-8.3,29.94,1015.6,,,,,,,,,,,,,,,Clear,72000.0,,,,,,,,,
KRDR,03-28-2022,22:56,METAR,Normal,150,19.0,,,9999.0,,3.7,-8.0,29.96,1016.3,,,,,,,,,,,,,,,Clear,72000.0,,,,,,,,,
KRDR,03-28-2022,21:56,METAR,Normal,140,18.0,25.0,140/29KTS,9999.0,,4.5,-8.6,29.98,1016.9,,,,,,,,,,,,,,,,,10000.0,FEW,10000.0,,,,,,
KRDR,03-28-2022,20:56,METAR,Normal,150,22.0,29.0,,9999.0,,4.4,-9.0,30.00,1017.6,,,,,,,,,,,,,,,,10000.0,10000.0,BKN,10000.0,,,,,,
KRDR,03-28-2022,19:56,METAR,Normal,140,19.0,26.0,120/27KTS,9999.0,,3.2,-8.8,30.03,1018.7,,,,,,,,,,,,,,,,10000.0,10000.0,BKN,10000.0,,,,,,
KRDR,03-28-2022,18:56,METAR,Normal,140,18.0,22.0,,9999.0,,2.4,-9.5,30.06,1019.8,,,,,,,,,,,,,,,,12000.0,10000.0,SCT,10000.0,OVC,12000.0,,,,
KRDR,03-28-2022,17:56,METAR,Normal,140,17.0,20.0,,9999.0,,1.1,-10.7,30.09,1020.8,,,,,,,,,,,,,,,,11000.0,11000.0,OVC,11000.0,,,,,,
KRDR,03-28-2022,17:28,SPECI,Normal,150,14.0,21.0,,9999.0,,1.0,-11.0,30.11,1021.5,,,,,,,,,,,,,,,,10000.0,10000.0,BKN,10000.0,OVC,12000.0,,,,
KRDR,03-28-2022,16:56,METAR,Normal,150,17.0,,,9999.0,,0.7,-11.1,30.11,1021.5,,,,,,,,,,,,,,,,9500.0,9500.0,BKN,9600.0,OVC,13000.0,,,,
KRDR,03-28-2022,15:56,METAR,Normal,160,16.0,,,9999.0,,-1.4,-11.8,30.14,1022.6,,,,,,,,,,,,,,,,10000.0,10000.0,OVC,10000.0,,,,,,
KRDR,03-28-2022,14:56,METAR,Normal,150,17.0,,,9999.0,,-2.9,-13.2,30.15,1023.1,,,,,,,,,,,,,,,,9500.0,9500.0,OVC,9600.0,,,,,,
KRDR,03-28-2022,13:56,METAR,Normal,160,13.0,,,9999.0,,-4.1,-11.6,30.17,1023.8,,,,,,,,,,,,,,,,10000.0,10000.0,OVC,10000.0,,,,,,
KRDR,03-28-2022,12:56,METAR,Normal,140,11.0,,,9999.0,,-5.4,-11.0,30.17,1023.7,,,,,,,,,,,,,,,,10000.0,10000.0,OVC,10000.0,,,,,,
KRDR,03-28-2022,11:56,METAR,Normal,140,9.0,,,9999.0,,-5.7,-10.7,30.18,1024.1,,,,,,,,,,,,,,,,10000.0,10000.0,OVC,10000.0,,,,,,
KRDR,03-28-2022,10:56,METAR,Normal,140,9.0,,,9999.0,,-6.2,-9.8,30.19,1024.4,,,,,,,,,,,,,,,,10000.0,10000.0,OVC,10000.0,,,,,,
KRDR,03-28-2022,09:56,METAR,Normal,130,8.0,,,9999.0,,-6.5,-10.6,30.20,1024.8,,,,,,,,,,,,,,,,10000.0,10000.0,BKN,10000.0,OVC,17000.0,,,,
KRDR,03-28-2022,08:56,METAR,Normal,140,7.0,,,9999.0,,-6.8,-10.5,30.21,1025.2,,,,,,,,,,,,,,,,17000.0,10000.0,SCT,10000.0,OVC,17000.0,,,,
KRDR,03-28-2022,07:56,METAR,Normal,130,6.0,,,9999.0,,-7.4,-11.3,30.21,1025.2,,,,,,,,,,,,,,,Clear,72000.0,,,,,,,,,
KRDR,03-28-2022,06:56,METAR,Normal,130,6.0,,,9999.0,,-8.2,-11.4,30.23,1025.9,,,,,,,,,,,,,,,Clear,72000.0,,,,,,,,,
KRDR,03-28-2022,05:56,METAR,Normal,120,5.0,,,9999.0,,-7.5,-11.2,30.24,1026.3,,,,,,,,,,,,,,,Clear,72000.0,,,,,,,,,
KRDR,03-28-2022,04:56,METAR,Normal,110,5.0,,,9999.0,,-7.6,-11.4,30.25,1026.7,,,,,,,,,,,,,,,Clear,72000.0,,,,,,,,,
KRDR,03-28-2022,03:56,METAR,Normal,110,5.0,,,9999.0,,-7.2,-11.8,30.26,1027.1,,,,,,,,,,,,,,,Clear,72000.0,,,,,,,,,
KRDR,03-28-2022,02:56,METAR,Normal,100,5.0,,,9999.0,,-7.8,-11.6,30.26,1027.2,,,,,,,,,,,,,,,Clear,72000.0,,,,,,,,,
KRDR,03-28-2022,01:56,METAR,Normal,90,6.0,,,9999.0,,-7.3,-11.7,30.26,1027.2,,,,,,,,,,,,,,,Clear,72000.0,,,,,,,,,
KRDR,03-28-2022,00:56,METAR,Normal,100,6.0,,,9999.0,,-5.6,-12.4,30.26,1027.2,,,,,,,,,,,,,,,Clear,72000.0,,,,,,,,,
KRDR,03-27-2022,23:56,METAR,Normal,130,6.0,,,9999.0,,-4.1,-13.5,30.26,1027.2,,,,,,,,,,,,,,,Clear,72000.0,,,,,,,,,
KRDR,03-27-2022,22:56,METAR,Normal,100,5.0,,,9999.0,,-3.6,-15.0,30.27,1027.5,,,,,,,,,,,,,,,Clear,72000.0,,,,,,,,,
KRDR,03-27-2022,21:56,METAR,Normal,80,5.0,,,9999.0,,-4.1,-14.8,30.29,1028.2,,,,,,,,,,,,,,,Clear,72000.0,,,,,,,,,
KRDR,03-27-2022,20:56,METAR,Normal,50,3.0,,,9999.0,,-4.7,-15.1,30.31,1028.9,,,,,,,,,,,,,,,Clear,72000.0,,,,,,,,,
KRDR,03-27-2022,19:56,METAR,Calm,,0.0,,,9999.0,,-5.3,-15.4,30.34,1029.9,,,,,,,,,,,,,,,Clear,72000.0,,,,,,,,,
KRDR,03-27-2022,18:56,METAR,Normal,250,6.0,,,9999.0,,-5.5,-14.8,30.36,1030.6,,,,,,,,,,,,,,,,11000.0,11000.0,BKN,11000.0,,,,,,
KRDR,03-27-2022,17:56,METAR,Calm,,0.0,,,9999.0,,-7.3,-17.0,30.38,1031.3,,,,,,,,,,,,,TRACE,,,,8000.0,FEW,8000.0,SCT,11000.0,,,,
KRDR,03-27-2022,16:56,METAR,Calm,,0.0,,,9999.0,,-8.4,-17.2,30.40,1032.1,,,,,,,,,,,,,,,,,11000.0,SCT,11000.0,,,,,,
KRDR,03-27-2022,15:55,METAR,Calm,,0.0,,,9999.0,,-10.4,-17.5,30.41,1032.4,,,,,,,,,,,,,,,,,1600.0,FEW,1600.0,,,,,,
KRDR,03-27-2022,14:54,METAR,Calm,,0.0,,,9999.0,,-11.6,-16.9,30.41,1032.5,,,,,,,,,,,,,,,,,1600.0,FEW,1600.0,,,,,,
KRDR,03-27-2022,14:42,SPECI,Calm,,0.0,,,9999.0,Light Snow,-12.0,-16.0,30.41,1032.5,71,,,,,,,,,,,,,,,,1600.0,FEW,1600.0,,,,,,
KRDR,03-27-2022,14:37,SPECI,Calm,,0.0,,,9999.0,,-12.0,-17.0,30.41,1032.5,,,,,,,,,,,,,,,,,1600.0,FEW,1600.0,,,,,,
KRDR,03-27-2022,14:36,SPECI,Calm,,0.0,,,9999.0,Light Snow,-12.0,-17.0,30.41,1032.5,71,,,,,,,,,,,,,,,,1600.0,FEW,1600.0,,,,,,
KRDR,03-27-2022,13:56,METAR,Normal,350,3.0,,,9999.0,,-12.6,-16.3,30.41,1032.5,,,,,,,,,,,TRACE,,,,Clear,72000.0,,,,,,,,,
KRDR,03-27-2022,13:04,SPECI,Normal,10,5.0,,,9999.0,,-14.0,-17.0,30.41,1032.5,,,,,,,,,,,,,,,,,17000.0,FEW,17000.0,,,,,,
KRDR,03-27-2022,12:56,METAR,Normal,10,4.0,,,9999.0,,-14.0,-16.9,30.41,1032.5,,,,,,,,,,,,,,,Clear,72000.0,,,,,,,,,
KRDR,03-27-2022,11:56,METAR,Normal,360,3.0,,,9999.0,,-15.4,-18.6,30.40,1032.2,,,,,,,,,,,,,,,Clear,72000.0,,,,,,,,,
KRDR,03-27-2022,10:56,METAR,Normal,20,6.0,,,9999.0,,-15.4,-19.2,30.39,1031.8,,,,,,,,,,,,,,,Clear,72000.0,,,,,,,,,
KRDR,03-27-2022,09:56,METAR,Normal,10,6.0,,,9999.0,,-15.3,-19.1,30.40,1032.1,,,,,,,,,,,,,,,Clear,72000.0,,,,,,,,,
KRDR,03-27-2022,08:56,METAR,Normal,10,6.0,,,9999.0,,-14.8,-18.8,30.41,1032.4,,,,,,,,,,,,,,,Clear,72000.0,,,,,,,,,
KRDR,03-27-2022,07:56,METAR,Normal,10,7.0,,,9999.0,,-14.3,-18.3,30.41,1032.3,,,,,,,,,,,,,,,Clear,72000.0,,,,,,,,,
KRDR,03-27-2022,06:56,METAR,Normal,20,7.0,,,9999.0,,-14.4,-18.2,30.39,1031.6,,,,,,,,,,,,,,,Clear,72000.0,,,,,,,,,
KRDR,03-27-2022,05:56,METAR,Normal,10,7.0,,,9999.0,,-14.0,-18.7,30.39,1031.7,,,,,,,,,,,,,,,Clear,72000.0,,,,,,,,,
KRDR,03-27-2022,04:56,METAR,Normal,360,9.0,,,9999.0,,-13.3,-18.3,30.39,1031.6,,,,,,,,,,,,,,,Clear,72000.0,,,,,,,,,
KRDR,03-27-2022,03:56,METAR,Normal,10,8.0,,,9999.0,,-12.8,-17.5,30.38,1031.3,,,,,,,,,,,,,,,Clear,72000.0,,,,,,,,,
KRDR,03-27-2022,02:56,METAR,Normal,10,9.0,,,9999.0,,-12.3,-17.6,30.38,1031.3,,,,,,,,,,,,,,,Clear,72000.0,,,,,,,,,
KRDR,03-27-2022,01:56,METAR,Normal,360,12.0,,,9999.0,,-11.5,-17.2,30.37,1031.0,,,,,,,,,,,,,,,Clear,72000.0,,,,,,,,,
KRDR,03-27-2022,00:56,METAR,Normal,10,11.0,,,9999.0,,-10.8,-17.5,30.36,1030.7,,,,,,,,,,,,,,,Clear,72000.0,,,,,,,,,
KRDR,03-26-2022,23:56,METAR,Normal,360,13.0,,,9999.0,,-9.6,-16.6,30.35,1030.3,,,,,,,,,,,,,,,Clear,72000.0,,,,,,,,,
KRDR,03-26-2022,22:56,METAR,Normal,360,15.0,20.0,,9999.0,,-8.4,-16.5,30.34,1029.9,,,,,,,,,,,,,,,,,3000.0,FEW,3000.0,,,,,,
KRDR,03-26-2022,21:56,METAR,Normal,10,14.0,23.0,,9999.0,,-8.0,-15.9,30.33,1029.5,,,,,,,,,,,,,,,Clear,72000.0,,,,,,,,,
KRDR,03-26-2022,20:56,METAR,Normal,360,19.0,25.0,,9999.0,,-7.0,-15.7,30.32,1029.1,,,,,,,,,,,,,,,Clear,72000.0,,,,,,,,,
KRDR,03-26-2022,19:56,METAR,Normal,340,16.0,26.0,010/26KTS,9999.0,,-6.8,-16.3,30.33,1029.4,,,,,,,,,,,,,,,,,3200.0,FEW,3200.0,,,,,,
KRDR,03-26-2022,18:56,METAR,Normal,350,15.0,22.0,,9999.0,,-6.6,-16.6,30.34,1029.8,,,,,,,,,,,,,,,,,3400.0,FEW,3400.0,FEW,21000.0,,,,
KRDR,03-26-2022,17:56,METAR,Normal,360,19.0,24.0,,9999.0,,-7.4,-18.7,30.34,1029.7,,,,,,,,,,,,,,,,,19000.0,FEW,19000.0,,,,,,
KRDR,03-26-2022,16:56,METAR,Normal,10,17.0,20.0,,9999.0,,-7.7,-18.4,30.33,1029.4,,,,,,,,,,,,,,,Clear,72000.0,,,,,,,,,
KRDR,03-26-2022,15:56,METAR,Normal,330,18.0,23.0,,9999.0,,-7.9,-18.3,30.34,1029.7,,,,,,,,,,,,,,,Clear,72000.0,,,,,,,,,
KRDR,03-26-2022,14:56,METAR,Normal,10,17.0,22.0,,9999.0,,-9.0,-19.9,30.32,1029.0,,,,,,,,,,,,,,,Clear,72000.0,,,,,,,,,
KRDR,03-26-2022,13:56,METAR,Normal,360,17.0,21.0,,9999.0,,-9.9,-18.4,30.30,1028.3,,,,,,,,,,,,,,,Clear,72000.0,,,,,,,,,
KRDR,03-26-2022,12:56,METAR,Normal,360,15.0,,,9999.0,,-10.9,-17.4,30.30,1028.4,,,,,,,,,,,,,,,Clear,72000.0,,,,,,,,,
KRDR,03-26-2022,11:56,METAR,Normal,360,15.0,,,9999.0,,-11.0,-17.1,30.28,1027.7,,,,,,,,,,,,,,,Clear,72000.0,,,,,,,,,
KRDR,03-26-2022,10:56,METAR,Normal,360,16.0,,,9999.0,,-10.6,-16.3,30.26,1026.9,,,,,,,,,,,,,,,Clear,72000.0,,,,,,,,,
KRDR,03-26-2022,09:56,METAR,Normal,360,16.0,20.0,,9999.0,,-10.2,-15.5,30.25,1026.5,,,,,,,,,,,,,,,Clear,72000.0,,,,,,,,,
KRDR,03-26-2022,08:56,METAR,Normal,360,13.0,,340/26KTS,9999.0,,-9.9,-15.5,30.23,1025.8,,,,,,,,,,,,,,,Clear,72000.0,,,,,,,,,
KRDR,03-26-2022,07:56,METAR,Normal,360,16.0,25.0,330/28KTS,9999.0,,-9.3,-16.1,30.22,1025.4,,,,,,,,,,,,,,,Clear,72000.0,,,,,,,,,
KRDR,03-26-2022,06:56,METAR,Normal,360,17.0,24.0,340/27KTS,9999.0,,-8.8,-14.8,30.21,1025.0,,,,,,,,,,,,,,,Clear,72000.0,,,,,,,,,
KRDR,03-26-2022,05:56,METAR,Normal,360,19.0,24.0,330/26KTS,9999.0,,-7.9,-14.1,30.19,1024.3,,,,,,,,,,,,,,,Clear,72000.0,,,,,,,,,
KRDR,03-26-2022,04:56,METAR,Normal,350,17.0,23.0,350/29KTS,9999.0,,-7.1,-14.2,30.19,1024.3,,,,,,,,,,,,,,,Clear,72000.0,,,,,,,,,
KRDR,03-26-2022,03:56,METAR,Normal,350,18.0,28.0,330/30KTS,9999.0,,-6.1,-13.0,30.17,1023.6,,,,,,,,,,,,,,,,,4300.0,FEW,4300.0,,,,,,
KRDR,03-26-2022,02:56,METAR,Normal,360,22.0,27.0,330/28KTS,9999.0,,-4.8,-11.8,30.15,1022.8,,,,,,,,,,,,,,,,3900.0,3900.0,OVC,3900.0,,,,,,
KRDR,03-26-2022,01:56,METAR,Normal,360,19.0,24.0,,9999.0,,-4.3,-10.7,30.13,1022.1,,,,,,,,,,,,,,,,3900.0,3000.0,SCT,3000.0,OVC,3900.0,,,,
KRDR,03-26-2022,00:56,METAR,Normal,360,14.0,21.0,360/27KTS,9999.0,,-4.2,-9.2,30.11,1021.5,,,,,,,,,,,,,,,,,2900.0,FEW,2900.0,SCT,3800.0,,,,
KRDR,03-26-2022,00:06,SPECI,Normal,10,21.0,24.0,,9999.0,,-3.0,-8.0,30.08,1020.4,,,,,,,,,,,,,,,,3600.0,2500.0,SCT,2500.0,OVC,3600.0,,,,
KRDR,03-25-2022,23:56,METAR,Normal,10,16.0,24.0,330/26KTS,9999.0,,-2.8,-7.5,30.09,1020.8,,,,,,,,,,,TRACE,,TRACE,,,2900.0,2300.0,FEW,2300.0,BKN,2900.0,OVC,3800.0,,
KRDR,03-25-2022,23:40,SPECI,Normal,360,19.0,22.0,,9999.0,,-2.0,-7.0,30.08,1020.3,,,,,,,,,,,,,,,,3000.0,3000.0,BKN,3000.0,OVC,3700.0,,,,
KRDR,03-25-2022,23:24,SPECI,Normal,10,18.0,24.0,,9999.0,Light Drizzle,-2.0,-7.0,30.08,1020.3,51,,,,,,,,,,,,,,,3100.0,3100.0,OVC,3100.0,,,,,,
KRDR,03-25-2022,23:10,SPECI,Normal,360,14.0,,,9999.0,,-2.0,-7.0,30.07,1020.0,,,,,,,,,,,,,,,,3100.0,3100.0,OVC,3100.0,,,,,,
KRDR,03-25-2022,23:00,SPECI,Normal,360,15.0,19.0,,9999.0,,-1.0,-6.0,30.07,1019.9,,,,,,,,,,,,,,,,2900.0,2900.0,BKN,2900.0,OVC,3600.0,,,,
KRDR,03-25-2022,22:56,METAR,Normal,360,13.0,,320/27KTS,9999.0,,-1.3,-6.6,30.07,1019.9,,,,,,,,,,,TRACE,,,,,2800.0,2800.0,BKN,2800.0,OVC,3600.0,,,,
KRDR,03-25-2022,22:41,SPECI,Normal,360,15.0,,,9999.0,,-1.0,-6.0,30.06,1019.6,,,,,,,,,,,,,,,,2800.0,2800.0,OVC,2800.0,,,,,,
KRDR,03-25-2022,22:38,SPECI,Normal,360,15.0,,,9999.0,,-1.0,-7.0,30.06,1019.6,,,,,,,,,,,,,,,,2800.0,2800.0,OVC,2800.0,,,,,,
KRDR,03-25-2022,22:28,SPECI,Normal,360,14.0,,,9999.0,,-1.0,-6.0,30.05,1019.2,,,,,,,,,,,,,,,,3000.0,3000.0,BKN,3000.0,OVC,3500.0,,,,
KRDR,03-25-2022,22:19,SPECI,Normal,360,13.0,,,9999.0,,-1.0,-7.0,30.05,1019.2,,,,,,,,,,,,,,,,3200.0,3200.0,OVC,3200.0,,,,,,
KRDR,03-25-2022,22:05,SPECI,Normal,320,17.0,25.0,,9999.0,,0.0,-7.0,30.04,1018.8,,,,,,,,,,,,,,,,3400.0,3400.0,BKN,3400.0,OVC,4600.0,,,,
KRDR,03-25-2022,21:56,METAR,Normal,350,16.0,25.0,330/30KTS,9999.0,,-0.3,-7.1,30.04,1018.8,,,,,,,,,,,,,,,,3400.0,3400.0,OVC,3400.0,,,,,,
KRDR,03-25-2022,20:56,METAR,Normal,340,22.0,30.0,320/33KTS,9999.0,,0.1,-7.6,30.02,1018.2,,,,,,,,,,,,TRACE,,,,4100.0,4100.0,BKN,4100.0,,,,,,
KRDR,03-25-2022,19:56,METAR,Normal,340,21.0,27.0,320/28KTS,9999.0,,0.4,-6.5,30.00,1017.5,,,,,,,,,,,,,,,,3700.0,3700.0,OVC,3700.0,,,,,,
KRDR,03-25-2022,18:57,SPECI,Normal,350,17.0,23.0,,9999.0,,0.0,-6.0,29.99,1017.1,,,,,,,,,,,,,,,,3000.0,3000.0,BKN,3000.0,OVC,4200.0,,,,
KRDR,03-25-2022,18:56,METAR,Normal,350,19.0,23.0,330/27KTS,9999.0,Light Rain,0.2,-6.0,29.99,1017.1,61,,,,,,,,,,TRACE,,,,,3000.0,3000.0,BKN,3000.0,OVC,4200.0,,,,
KRDR,03-25-2022,18:52,SPECI,Normal,350,16.0,,,9999.0,Light Rain,0.0,-6.0,29.99,1017.1,61,,,,,,,,,,,,,,,2800.0,2800.0,BKN,2800.0,BKN,3400.0,OVC,4200.0,,
KRDR,03-25-2022,18:32,SPECI,Normal,350,15.0,20.0,,9999.0,Light Rain,0.0,-6.0,29.98,1016.8,61,,,,,,,,,,,,,,,3300.0,3300.0,BKN,3300.0,OVC,4100.0,,,,
KRDR,03-25-2022,17:56,METAR,Normal,330,22.0,31.0,330/31KTS,9999.0,,0.5,-7.0,29.97,1016.4,,,,,,,,,,,,,TRACE,,,3700.0,3700.0,OVC,3700.0,,,,,,
KRDR,03-25-2022,16:56,METAR,Normal,330,19.0,28.0,340/35KTS,9999.0,,0.5,-6.6,29.95,1015.7,,,,,,,,,,,,,,,,3400.0,3400.0,OVC,3400.0,,,,,,
KRDR,03-25-2022,16:16,SPECI,Normal,330,23.0,35.0,,9999.0,,0.0,-6.0,29.94,1015.4,,,,,,,,,,,,,,,,3000.0,3000.0,BKN,3000.0,OVC,3500.0,,,,
KRDR,03-25-2022,15:56,METAR,Normal,330,22.0,29.0,310/34KTS,9999.0,,0.2,-5.6,29.93,1015.0,,,,,,,,,,,,,,,,2900.0,2900.0,OVC,2900.0,,,,,,
KRDR,03-25-2022,14:56,METAR,Normal,320,23.0,33.0,310/36KTS,9999.0,,0.8,-5.4,29.91,1014.3,,,,,,,,,,,,TRACE,,,,,3100.0,SCT,3100.0,,,,,,
KRDR,03-25-2022,13:58,METAR,Normal,310,23.0,29.0,310/31KTS,9999.0,,-0.1,-5.7,29.90,1013.9,,,,,,,,,,,TRACE,,,,,8000.0,6500.0,SCT,6500.0,BKN,8000.0,OVC,10000.0,,
KRDR,03-25-2022,13:35,SPECI,Normal,310,19.0,27.0,,9999.0,,0.0,-5.0,29.90,1013.9,,,,,,,,,,,,,,,,6000.0,6000.0,BKN,6000.0,OVC,8000.0,,,,
KRDR,03-25-2022,12:55,METAR,Normal,320,20.0,29.0,300/35KTS,9999.0,Light Snow,-0.6,-3.8,29.88,1013.2,71,,,,,,,,,,TRACE,,,,,,200.0,FEW,200.0,,,,,,
KRDR,03-25-2022,12:28,SPECI,Normal,320,22.0,28.0,,8000.0,Light Snow/Blowing or Drifting Snow or Sand,0.0,-3.0,29.87,1012.9,27,71,,,,,,,,,,,,,,3300.0,300.0,FEW,300.0,SCT,2100.0,OVC,3300.0,,
KRDR,03-25-2022,12:18,SPECI,Normal,320,21.0,32.0,,9999.0,Light Snow,0.0,-4.0,29.86,1012.5,71,,,,,,,,,,,,,,,3100.0,300.0,FEW,300.0,SCT,2000.0,OVC,3100.0,,
KRDR,03-25-2022,12:06,SPECI,Normal,320,22.0,31.0,,6400.0,Light Snow,0.0,-3.0,29.86,1012.5,71,,,,,,,,,,,,,,,3200.0,300.0,FEW,300.0,SCT,2000.0,OVC,3200.0,,
KRDR,03-25-2022,11:56,METAR,Normal,320,21.0,30.0,290/35KTS,9999.0,Light Snow,-0.3,-3.5,29.85,1012.1,71,,,,,,,,,,TRACE,,TRACE,,,3000.0,2400.0,SCT,2400.0,BKN,3000.0,OVC,3600.0,,
KRDR,03-25-2022,11:34,SPECI,Normal,320,24.0,32.0,,9999.0,Light Snow,0.0,-4.0,29.84,1011.8,71,,,,,,,,,,,,,,,2500.0,2500.0,BKN,2500.0,BKN,3100.0,,,,
KRDR,03-25-2022,10:56,METAR,Normal,320,24.0,33.0,290/35KTS,9999.0,Light Snow Showers,0.6,-4.4,29.82,1011.1,85,,,,,,,,,,TRACE,,,,,2900.0,2900.0,BKN,2900.0,,,,,,
KRDR,03-25-2022,10:49,SPECI,Normal,310,19.0,29.0,,9999.0,Light Snow Showers,1.0,-4.0,29.82,1011.1,85,,,,,,,,,,,,,,,3200.0,1100.0,FEW,1100.0,SCT,2600.0,OVC,3200.0,,
KRDR,03-25-2022,10:48,SPECI,Normal,320,20.0,28.0,,9999.0,Light Snow,1.0,-4.0,29.82,1011.1,71,,,,,,,,,,,,,,,3100.0,2600.0,SCT,2600.0,OVC,3100.0,,,,
KRDR,03-25-2022,10:38,SPECI,Normal,310,22.0,29.0,,9999.0,,1.0,-4.0,29.81,1010.8,,,,,,,,,,,,,,,,3000.0,3000.0,BKN,3000.0,OVC,3800.0,,,,
KRDR,03-25-2022,09:56,METAR,Normal,310,23.0,29.0,310/31KTS,9999.0,,1.3,-4.0,29.80,1010.4,,,,,,,,,,,TRACE,,,,,3500.0,3500.0,OVC,3500.0,,,,,,
KRDR,03-25-2022,08:59,METAR,Normal,310,20.0,31.0,,9999.0,,1.7,-3.0,29.79,1010.0,,,,,,,,,,,TRACE,TRACE,,,,3200.0,3200.0,OVC,3200.0,,,,,,
KRDR,03-25-2022,08:35,SPECI,Normal,310,20.0,28.0,,9999.0,Light Snow,2.0,-3.0,29.79,1010.0,71,,,,,,,,,,,,,,,2900.0,2900.0,OVC,2900.0,,,,,,
KRDR,03-25-2022,07:56,METAR,Normal,310,17.0,26.0,300/32KTS,9999.0,,2.3,-2.4,29.79,1010.0,,,,,,,,,,,,,,,,3000.0,3000.0,OVC,3000.0,,,,,,
KRDR,03-25-2022,06:56,METAR,Normal,310,21.0,29.0,290/34KTS,9999.0,,2.4,-2.3,29.78,1009.7,,,,,,,,,,,,,,,,3900.0,2800.0,SCT,2800.0,BKN,3900.0,OVC,6000.0,,
KRDR,03-25-2022,05:56,METAR,Normal,310,23.0,33.0,310/39KTS,9999.0,,2.5,-2.0,29.76,1009.0,,,,,,,,,,,,,,,,2500.0,2500.0,OVC,2500.0,,,,,,
KRDR,03-25-2022,04:56,METAR,Normal,300,21.0,33.0,290/34KTS,9999.0,,3.5,-1.1,29.75,1008.7,,,,,,,,,,,,,,,,2300.0,2300.0,OVC,2300.0,,,,,,
KRDR,03-25-2022,03:56,METAR,Normal,300,11.0,22.0,290/28KTS,9999.0,,4.5,0.6,29.73,1008.0,,,,,,,,,,,,,,,,2300.0,2300.0,OVC,2300.0,,,,,,
KRDR,03-25-2022,02:56,METAR,Normal,290,17.0,23.0,270/27KTS,9999.0,,5.2,1.5,29.72,1007.8,,,,,,,,,,,,,,,,2600.0,2600.0,OVC,2600.0,,,,,,
KRDR,03-25-2022,01:56,METAR,Normal,290,15.0,23.0,300/28KTS,9999.0,,5.9,2.0,29.71,1007.4,,,,,,,,,,,,,,,,2500.0,2500.0,OVC,2500.0,,,,,,
KRDR,03-25-2022,00:56,METAR,Normal,290,17.0,29.0,290/29KTS,9999.0,,7.4,3.1,29.71,1007.5,,,,,,,,,,,,,,,,2500.0,2500.0,OVC,2500.0,,,,,,
KRDR,03-25-2022,00:46,SPECI,Normal,290,17.0,23.0,,9999.0,,8.0,4.0,29.70,1007.2,,,,,,,,,,,,,,,,2600.0,2600.0,BKN,2600.0,OVC,3300.0,,,,
KRDR,03-25-2022,00:36,SPECI,Normal,250,9.0,,,9999.0,,7.0,4.0,29.71,1007.5,,,,,,,,,,,,,,,,2800.0,2800.0,BKN,2800.0,OVC,3900.0,,,,
KRDR,03-24-2022,23:56,METAR,Normal,210,8.0,,,9999.0,,7.2,3.1,29.70,1007.2,,,,,,,,,,,,,TRACE,,,19000.0,4600.0,FEW,4600.0,FEW,7000.0,SCT,17000.0,BKN,19000.0
KRDR,03-24-2022,22:56,METAR,Normal,190,9.0,,,9999.0,,7.2,4.2,29.70,1007.2,,,,,,,,,,,TRACE,,,,,6000.0,6000.0,OVC,6000.0,,,,,,
KRDR,03-24-2022,21:56,METAR,Normal,220,8.0,,,9999.0,Light Rain,7.2,3.6,29.71,1007.5,61,,,,,,,,,,TRACE,,,,,6000.0,5000.0,FEW,5000.0,BKN,6000.0,OVC,7500.0,,
KRDR,03-24-2022,21:47,SPECI,Normal,200,13.0,,,9999.0,Light Rain,8.0,3.0,29.70,1007.1,61,,,,,,,,,,,,,,,8000.0,6000.0,SCT,6000.0,BKN,8000.0,OVC,9600.0,,
KRDR,03-24-2022,21:45,SPECI,Normal,190,12.0,,,9999.0,Light Rain,8.0,3.0,29.70,1007.1,61,,,,,,,,,,,,,,,8000.0,4700.0,FEW,4700.0,SCT,7000.0,BKN,8000.0,OVC,9600.0
KRDR,03-24-2022,21:29,SPECI,Normal,200,11.0,18.0,,9999.0,,8.0,3.0,29.70,1007.2,,,,,,,,,,,,,,,,9500.0,9500.0,BKN,9600.0,OVC,12000.0,,,,
KRDR,03-24-2022,20:56,METAR,Normal,200,13.0,,,9999.0,,8.1,2.8,29.72,1007.9,,,,,,,,,,,,,,,,10000.0,10000.0,BKN,10000.0,OVC,12000.0,,,,
KRDR,03-24-2022,20:11,SPECI,Normal,220,11.0,17.0,,9999.0,,9.0,3.0,29.74,1008.4,,,,,,,,,,,,,,,,10000.0,10000.0,BKN,10000.0,OVC,15000.0,,,,
KRDR,03-24-2022,19:56,METAR,Normal,200,12.0,,,9999.0,,8.5,2.3,29.74,1008.4,,,,,,,,,,,,,,,,15000.0,10000.0,FEW,10000.0,BKN,15000.0,BKN,19000.0,,
KRDR,03-24-2022,18:56,METAR,Normal,210,12.0,,,9999.0,,7.2,1.7,29.76,1009.1,,,,,,,,,,,,,,,,20000.0,17000.0,FEW,17000.0,BKN,20000.0,,,,
KRDR,03-24-2022,17:56,METAR,Normal,210,8.0,,,9999.0,,6.0,0.5,29.81,1010.8,,,,,,,,,,,,,,,,,18000.0,FEW,18000.0,SCT,20000.0,,,,
KRDR,03-24-2022,16:56,METAR,Normal,210,9.0,,,9999.0,,5.3,0.3,29.82,1011.3,,,,,,,,,,,,,,,,21000.0,17000.0,FEW,17000.0,FEW,19000.0,BKN,21000.0,,
KRDR,03-24-2022,15:56,METAR,Normal,190,8.0,,,9999.0,,3.7,-0.1,29.85,1012.4,,,,,,,,,,,,,,,Clear,72000.0,,,,,,,,,
KRDR,03-24-2022,14:56,METAR,Normal,210,4.0,,,9999.0,,1.7,-0.7,29.86,1012.8,,,,,,,,,,,,,,,Clear,72000.0,,,,,,,,,
KRDR,03-24-2022,13:56,METAR,Calm,,0.0,,,9999.0,,-0.9,-2.0,29.88,1013.5,,,,,,,,,,,,,,,Clear,72000.0,,,,,,,,,
KRDR,03-24-2022,12:56,METAR,Calm,,0.0,,,9999.0,,-2.7,-3.3,29.90,1014.2,,,,,,,,,,,,,,,Clear,72000.0,,,,,,,,,
KRDR,03-24-2022,12:36,SPECI,Normal,280,3.0,,,9999.0,,-4.0,-4.0,29.90,1014.3,,,,,,,,,,,,,,,Clear,72000.0,,,,,,,,,
KRDR,03-24-2022,12:26,SPECI,Normal,280,3.0,,,3600.0,Mist,-4.0,-5.0,29.90,1014.3,10,,,,,,,,,,,,,,Clear,72000.0,,,,,,,,,
KRDR,03-24-2022,11:56,METAR,Calm,,0.0,,,9999.0,,-4.1,-4.9,29.90,1014.2,,,,,,,,,,,,,,,Clear,72000.0,,,,,,,,,
KRDR,03-24-2022,10:56,METAR,Normal,310,3.0,,,9999.0,,-2.9,-3.7,29.91,1014.5,,,,,,,,,,,,,,,Clear,72000.0,,,,,,,,,
KRDR,03-24-2022,09:56,METAR,Normal,280,3.0,,,9999.0,,-3.1,-3.9,29.92,1014.9,,,,,,,,,,,,,,,Clear,72000.0,,,,,,,,,
KRDR,03-24-2022,08:56,METAR,Normal,300,4.0,,,9999.0,,-3.5,-4.3,29.94,1015.5,,,,,,,,,,,,,,,Clear,72000.0,,,,,,,,,
KRDR,03-24-2022,07:56,METAR,Normal,350,5.0,,,9999.0,,-0.8,-2.2,29.96,1016.2,,,,,,,,,,,,,,,,3000.0,3000.0,BKN,3000.0,,,,,,
KRDR,03-24-2022,07:46,SPECI,Normal,330,6.0,,,9999.0,,0.0,-2.0,29.96,1016.1,,,,,,,,,,,,,,,,3000.0,3000.0,OVC,3000.0,,,,,,
KRDR,03-24-2022,06:56,METAR,Normal,360,5.0,,,9999.0,,-0.1,-1.9,29.98,1016.8,,,,,,,,,,,,,,,,2800.0,2800.0,OVC,2800.0,,,,,,
KRDR,03-24-2022,06:26,SPECI,Normal,350,7.0,,,9999.0,,0.0,-2.0,29.99,1017.1,,,,,,,,,,,,,,,,2900.0,2900.0,OVC,2900.0,,,,,,
KRDR,03-24-2022,05:56,METAR,Normal,330,9.0,,,9999.0,,-0.1,-1.7,29.99,1017.1,,,,,,,,,,,,,,,,3000.0,3000.0,OVC,3000.0,,,,,,
KRDR,03-24-2022,05:16,SPECI,Normal,340,10.0,,,9999.0,,0.0,-2.0,29.99,1017.1,,,,,,,,,,,,,,,,3000.0,3000.0,OVC,3000.0,,,,,,
KRDR,03-24-2022,04:56,METAR,Normal,340,7.0,,,9999.0,,-0.2,-1.6,30.00,1017.5,,,,,,,,,,,,,,,,2800.0,2800.0,OVC,2800.0,,,,,,
KRDR,03-24-2022,03:56,METAR,Normal,360,7.0,,,9999.0,,-1.2,-2.5,30.01,1017.9,,,,,,,,,,,,,,,,3400.0,3400.0,BKN,3400.0,,,,,,
KRDR,03-24-2022,02:56,METAR,Normal,360,6.0,,,9999.0,,-1.5,-2.5,30.02,1018.3,,,,,,,,,,,,,,,,3300.0,3300.0,BKN,3300.0,,,,,,
KRDR,03-24-2022,01:56,METAR,Normal,350,7.0,,,9999.0,,-0.6,-2.0,30.03,1018.6,,,,,,,,,,,,,,,,3300.0,3300.0,BKN,3300.0,,,,,,
KRDR,03-24-2022,01:26,SPECI,Normal,340,10.0,,,9999.0,,0.0,-2.0,30.02,1018.2,,,,,,,,,,,,,,,,3200.0,1200.0,SCT,1200.0,OVC,3200.0,,,,
KRDR,03-24-2022,01:06,SPECI,Normal,360,10.0,,,9999.0,,1.0,-2.0,30.02,1018.2,,,,,,,,,,,,,,,,1200.0,1200.0,OVC,1200.0,,,,,,
KRDR,03-24-2022,00:56,METAR,Normal,360,10.0,,,9999.0,,0.6,-1.6,30.02,1018.2,,,,,,,,,,,,,,,,1100.0,1100.0,OVC,1100.0,,,,,,
KRDR,03-24-2022,00:12,SPECI,Normal,350,12.0,20.0,,9999.0,,1.0,-1.0,30.02,1018.2,,,,,,,,,,,,,,,,1100.0,1100.0,OVC,1100.0,,,,,,
KRDR,03-23-2022,23:56,METAR,Normal,340,14.0,,,9999.0,,1.2,-1.2,30.02,1018.2,,,,,,,,,,,,,,,,1100.0,1100.0,OVC,1100.0,,,,,,
KRDR,03-23-2022,22:56,METAR,Normal,350,16.0,22.0,,9999.0,,1.5,-1.1,30.01,1017.8,,,,,,,,,,,,,,,,1100.0,1100.0,OVC,1100.0,,,,,,
KRDR,03-23-2022,22:39,SPECI,Normal,340,17.0,24.0,,9999.0,,2.0,-1.0,30.01,1017.8,,,,,,,,,,,,,,,,1100.0,1100.0,BKN,1100.0,OVC,3000.0,,,,
KRDR,03-23-2022,21:56,METAR,Normal,350,19.0,25.0,,9999.0,,1.3,-1.3,30.01,1017.8,,,,,,,,,,,,,,,,1000.0,1000.0,BKN,1000.0,OVC,1900.0,,,,
KRDR,03-23-2022,20:56,METAR,Normal,350,19.0,,320/27KTS,9999.0,,2.1,-1.0,30.03,1018.5,,,,,,,,,,,,,,,,1000.0,1100.0,OVC,1100.0,,,,,,
KRDR,03-23-2022,20:06,SPECI,Normal,360,16.0,24.0,,9999.0,,1.0,-1.0,30.02,1018.2,,,,,,,,,,,,,,,,800.0,800.0,OVC,800.0,,,,,,
KRDR,03-23-2022,19:56,METAR,Normal,360,18.0,24.0,330/27KTS,9999.0,,1.5,-1.1,30.03,1018.5,,,,,,,,,,,,,,,,1000.0,1000.0,OVC,1000.0,,,,,,
KRDR,03-23-2022,18:56,METAR,Normal,350,18.0,25.0,330/28KTS,9999.0,,2.0,-1.1,30.05,1019.2,,,,,,,,,,,,,,,,1100.0,1100.0,OVC,1100.0,,,,,,
KRDR,03-23-2022,17:56,METAR,Normal,360,20.0,23.0,330/28KTS,9999.0,,1.8,-1.5,30.06,1019.5,,,,,,,,,,,,,,,,1100.0,1100.0,OVC,1100.0,,,,,,
KRDR,03-23-2022,16:59,METAR,Normal,360,20.0,27.0,360/27KTS,9999.0,,0.4,-2.0,30.06,1019.6,,,,,,,,,,,,,,,,1000.0,1000.0,OVC,1000.0,,,,,,
KRDR,03-23-2022,16:18,SPECI,Normal,360,19.0,,,9999.0,,0.0,-2.0,30.06,1019.5,,,,,,,,,,,,,,,,700.0,700.0,OVC,700.0,,,,,,
KRDR,03-23-2022,16:16,SPECI,Normal,360,21.0,,,9999.0,,0.0,-2.0,30.06,1019.5,,,,,,,,,,,,,,,,700.0,700.0,OVC,700.0,,,,,,
KRDR,03-23-2022,15:36,SPECI,Normal,350,15.0,,,9999.0,,0.0,-2.0,30.07,1019.9,,,,,,,,,,,,,,,,600.0,600.0,OVC,600.0,,,,,,
KRDR,03-23-2022,14:56,METAR,Normal,360,17.0,24.0,330/28KTS,9999.0,,-0.2,-1.8,30.08,1020.2,,,,,,,,,,,,,,,,700.0,700.0,OVC,700.0,,,,,,
KRDR,03-23-2022,14:17,SPECI,Normal,360,17.0,27.0,,9999.0,,0.0,-2.0,30.07,1019.9,,,,,,,,,,,,,,,,800.0,800.0,OVC,800.0,,,,,,
KRDR,03-23-2022,13:56,METAR,Normal,360,20.0,28.0,360/29KTS,9999.0,,-0.1,-2.0,30.07,1019.9,,,,,,,,,,,,,,,,1000.0,1000.0,OVC,1000.0,,,,,,
KRDR,03-23-2022,12:56,METAR,Normal,10,18.0,22.0,350/26KTS,9999.0,,0.2,-1.7,30.05,1019.2,,,,,,,,,,,,,,,,1000.0,1100.0,OVC,1100.0,,,,,,
KRDR,03-23-2022,12:16,SPECI,Normal,360,19.0,,,9999.0,,0.0,-2.0,30.04,1018.8,,,,,,,,,,,,,,,,1000.0,1000.0,OVC,1000.0,,,,,,
KRDR,03-23-2022,11:56,METAR,Normal,360,16.0,21.0,360/28KTS,9999.0,,0.3,-1.5,30.04,1018.8,,,,,,,,,,,,,,,,900.0,900.0,OVC,900.0,,,,,,
KRDR,03-23-2022,10:56,METAR,Normal,360,14.0,23.0,,9999.0,,0.7,-0.8,30.03,1018.4,,,,,,,,,,,,,,,,700.0,700.0,OVC,700.0,,,,,,
KRDR,03-23-2022,10:06,SPECI,Normal,360,16.0,20.0,,9999.0,,1.0,0.0,30.04,1018.7,,,,,,,,,,,,,,,,700.0,700.0,OVC,700.0,,,,,,
KRDR,03-23-2022,09:56,METAR,Normal,360,16.0,19.0,,9999.0,,0.9,-0.6,30.03,1018.3,,,,,,,,,,,,,,,,800.0,800.0,OVC,800.0,,,,,,
KRDR,03-23-2022,09:07,SPECI,Normal,360,13.0,,,9999.0,,1.0,-1.0,30.04,1018.7,,,,,,,,,,,,,,,,900.0,900.0,BKN,900.0,BKN,1600.0,,,,
KRDR,03-23-2022,08:57,SPECI,Normal,360,12.0,18.0,,9999.0,,1.0,-1.0,30.04,1018.7,,,,,,,,,,,,,,,,1700.0,1000.0,SCT,1000.0,BKN,1700.0,,,,
KRDR,03-23-2022,08:56,METAR,Normal,360,13.0,,,9999.0,,0.6,-0.9,30.04,1018.7,,,,,,,,,,,,,,,,1500.0,1500.0,BKN,1500.0,,,,,,
KRDR,03-23-2022,08:46,SPECI,Normal,350,14.0,,,9999.0,,1.0,-1.0,30.04,1018.7,,,,,,,,,,,,,,,,1000.0,1200.0,BKN,1200.0,OVC,1800.0,,,,
KRDR,03-23-2022,08:36,SPECI,Normal,350,13.0,,,9999.0,,1.0,-1.0,30.04,1018.7,,,,,,,,,,,,,,,,1000.0,1000.0,BKN,1000.0,OVC,1500.0,,,,
KRDR,03-23-2022,07:56,METAR,Normal,350,13.0,21.0,,9999.0,,0.7,-0.8,30.05,1019.0,,,,,,,,,,,,,,,,900.0,900.0,OVC,900.0,,,,,,
KRDR,03-23-2022,07:36,SPECI,Normal,350,12.0,,,9999.0,,1.0,-1.0,30.05,1019.0,,,,,,,,,,,,,,,,1000.0,1000.0,BKN,1000.0,BKN,2900.0,,,,
KRDR,03-23-2022,07:16,SPECI,Normal,350,12.0,,,9999.0,,1.0,-1.0,30.05,1019.0,,,,,,,,,,,,,,,,2900.0,1000.0,FEW,1000.0,OVC,2900.0,,,,
KRDR,03-23-2022,06:56,METAR,Normal,350,13.0,19.0,,9999.0,,0.9,-0.7,30.04,1018.6,,,,,,,,,,,,,,,,2800.0,2800.0,OVC,2800.0,,,,,,
KRDR,03-23-2022,05:56,METAR,Normal,360,14.0,18.0,,9999.0,,1.0,-1.1,30.06,1019.3,,,,,,,,,,,,,,,,2500.0,2500.0,OVC,2500.0,,,,,,
KRDR,03-23-2022,05:16,SPECI,Normal,350,14.0,,,9999.0,,1.0,-1.0,30.06,1019.3,,,,,,,,,,,,,,,,2500.0,2500.0,BKN,2500.0,,,,,,
KRDR,03-23-2022,04:56,METAR,Normal,350,14.0,,,9999.0,,0.5,-1.1,30.06,1019.4,,,,,,,,,,,,,,,,,1500.0,FEW,1500.0,,,,,,
KRDR,03-23-2022,04:46,SPECI,Normal,360,14.0,,,9999.0,,1.0,-1.0,30.07,1019.7,,,,,,,,,,,,,,,,,1500.0,SCT,1500.0,,,,,,
KRDR,03-23-2022,04:18,SPECI,Normal,350,15.0,21.0,,9999.0,,1.0,-1.0,30.07,,,,,,,,,,,,,,,,,1200.0,1200.0,OVC,1200.0,,,,,,
KRDR,03-23-2022,04:06,SPECI,Normal,360,15.0,,,9999.0,,1.0,-1.0,30.07,,,,,,,,,,,,,,,,,1200.0,1200.0,BKN,1200.0,OVC,5500.0,,,,
KRDR,03-23-2022,03:56,METAR,Normal,360,14.0,21.0,,9999.0,,1.7,-0.7,30.07,,,,,,,,,,,,,,,,,5500.0,1400.0,SCT,1400.0,OVC,5500.0,,,,
KRDR,03-23-2022,03:53,SPECI,Normal,350,17.0,21.0,,9999.0,,2.0,-1.0,30.06,,,,,,,,,,,,,,,,,5500.0,1400.0,SCT,1400.0,OVC,5500.0,,,,
KRDR,03-23-2022,02:56,METAR,Normal,360,14.0,,,9999.0,,2.3,-0.3,30.06,,,,,,,,,,,,,,,,,5000.0,3000.0,FEW,3000.0,OVC,5000.0,,,,
KRDR,03-23-2022,02:27,SPECI,Normal,350,12.0,16.0,,9999.0,,2.0,0.0,30.05,,,,,,,,,,,,,,,,,5500.0,2800.0,SCT,2800.0,OVC,5500.0,,,,
KRDR,03-23-2022,02:16,SPECI,Normal,350,11.0,,,9999.0,,2.0,0.0,30.05,,,,,,,,,,,,,,,,,2800.0,2800.0,BKN,2800.0,OVC,5500.0,,,,
KRDR,03-23-2022,01:56,METAR,Normal,350,11.0,18.0,,9999.0,,2.4,-0.2,30.05,,,,,,,,,,,,,,,,,5500.0,2300.0,SCT,2300.0,OVC,5500.0,,,,
KRDR,03-23-2022,00:56,METAR,Normal,350,16.0,,,9999.0,,2.7,-0.1,30.03,1018.5,,,,,,,,,,,,,,,,5500.0,5500.0,OVC,5500.0,,,,,,
KRDR,03-22-2022,23:56,METAR,Normal,350,13.0,,,9999.0,,3.4,-0.2,30.03,1018.5,,,,,,,,,,,,,,,,4200.0,4200.0,OVC,4200.0,,,,,,
KRDR,03-22-2022,23:13,SPECI,Normal,360,12.0,,,9999.0,,4.0,0.0,30.02,1018.2,,,,,,,,,,,,,,,,3900.0,3900.0,OVC,3900.0,,,,,,
KRDR,03-22-2022,22:56,METAR,Normal,360,13.0,,,9999.0,,3.7,-0.1,30.01,1017.7,,,,,,,,,,,,,,,,3500.0,2500.0,FEW,2500.0,OVC,3500.0,,,,
KRDR,03-22-2022,22:36,SPECI,Normal,360,15.0,,,9999.0,,4.0,0.0,30.01,1017.7,,,,,,,,,,,,,,,,3300.0,2600.0,FEW,2600.0,OVC,3300.0,,,,
KRDR,03-22-2022,21:56,METAR,Normal,360,17.0,,,9999.0,,4.1,-0.9,30.00,1017.4,,,,,,,,,,,,,,,,2900.0,2900.0,OVC,2900.0,,,,,,
KRDR,03-22-2022,21:05,SPECI,Normal,350,14.0,,,9999.0,,4.0,-1.0,29.99,1017.0,,,,,,,,,,,,,,,,3000.0,3000.0,OVC,3000.0,,,,,,
KRDR,03-22-2022,20:56,METAR,Normal,340,14.0,,,9999.0,,4.5,-0.9,29.99,1016.9,,,,,,,,,,,,,,,,2900.0,2900.0,OVC,2900.0,,,,,,
KRDR,03-22-2022,19:56,METAR,Normal,330,14.0,,,9999.0,,5.1,-0.3,29.98,1016.6,,,,,,,,,,,,,,,,2800.0,2800.0,BKN,2800.0,,,,,,
KRDR,03-22-2022,18:56,METAR,Normal,320,15.0,21.0,,9999.0,,6.0,0.1,30.00,1017.3,,,,,,,,,,,,,,,,2600.0,2600.0,BKN,2600.0,,,,,,
KRDR,03-22-2022,18:46,SPECI,Normal,320,15.0,20.0,,9999.0,,6.0,0.0,30.00,1017.3,,,,,,,,,,,,,,,,2600.0,2700.0,BKN,2700.0,,,,,,
KRDR,03-22-2022,17:56,METAR,Normal,320,15.0,,,9999.0,,6.7,0.2,30.00,1017.3,,,,,,,,,,,,,,,Clear,72000.0,,,,,,,,,
KRDR,03-22-2022,16:56,METAR,Normal,300,11.0,,,9999.0,,5.9,0.4,29.99,1017.0,,,,,,,,,,,,,,,,,16000.0,FEW,16000.0,FEW,19000.0,,,,
KRDR,03-22-2022,16:02,METAR,Normal,300,12.0,,,9999.0,,4.0,-1.0,29.99,1017.1,,,,,,,,,,,,,,,Clear,72000.0,,,,,,,,,
KRDR,03-22-2022,15:56,METAR,Normal,300,11.0,,,9999.0,,4.0,-1.0,29.99,1017.1,,,,,,,,,,,,,,,Clear,72000.0,,,,,,,,,
KRDR,03-22-2022,14:58,METAR,Normal,290,6.0,,,9999.0,,2.0,-2.0,30.02,1018.1,,,,,,,,,,,,,,,Clear,72000.0,,,,,,,,,
KRDR,03-22-2022,14:56,METAR,Normal,290,8.0,,,9999.0,,2.3,-1.7,30.02,1018.2,,,,,,,,,,,,,,,Clear,72000.0,,,,,,,,,
KRDR,03-22-2022,13:56,METAR,Normal,280,7.0,,,9999.0,,1.0,-2.2,29.99,1017.1,,,,,,,,,,,,,,,Clear,72000.0,,,,,,,,,
KRDR,03-22-2022,12:56,METAR,Normal,270,5.0,,,9999.0,,-1.2,-3.2,29.99,1017.2,,,,,,,,,,,,,,,Clear,72000.0,,,,,,,,,
KRDR,03-22-2022,11:56,METAR,Normal,280,6.0,,,9999.0,,-1.2,-2.8,29.99,1017.1,,,,,,,,,,,,,,.11 IN,Clear,72000.0,,,,,,,,,
KRDR,03-22-2022,10:56,METAR,Normal,280,6.0,,,9999.0,,-0.4,-2.1,29.98,1016.7,,,,,,,,,,,,,,,Clear,72000.0,,,,,,,,,
KRDR,03-22-2022,09:56,METAR,Normal,270,9.0,,,9999.0,,0.8,-1.1,29.97,1016.2,,,,,,,,,,,,,,,,,3600.0,FEW,3600.0,,,,,,
KRDR,03-22-2022,08:56,METAR,Normal,290,6.0,,,9999.0,,2.1,-0.8,29.96,1015.8,,,,,,,,,,,,,,,,3500.0,3500.0,OVC,3500.0,,,,,,
KRDR,03-22-2022,07:56,METAR,Normal,270,8.0,,,9999.0,,1.1,-0.8,29.96,1015.8,,,,,,,,,,,,,,,,3900.0,3900.0,OVC,3900.0,,,,,,
KRDR,03-22-2022,06:56,METAR,Normal,240,4.0,,,9999.0,,0.9,-0.6,29.96,1015.8,,,,,,,,,,,,,,,,3900.0,3900.0,OVC,3900.0,,,,,,
KRDR,03-22-2022,05:56,METAR,Normal,230,3.0,,,9999.0,,0.7,-0.5,29.95,1015.4,,,,,,,,,,,,,.11 IN,,Clear,72000.0,,,,,,,,,
KRDR,03-22-2022,04:56,METAR,Normal,230,5.0,,,9999.0,,0.0,-0.7,29.95,1015.5,,,,,,,,,,,,,,,,,8500.0,FEW,8600.0,,,,,,
KRDR,03-22-2022,03:56,METAR,Calm,,0.0,,,9999.0,,0.6,-0.1,29.95,1015.5,,,,,,,,,,,TRACE,,,,,6000.0,3700.0,FEW,3700.0,BKN,6000.0,BKN,8000.0,OVC,9600.0
KRDR,03-22-2022,03:39,SPECI,Calm,,0.0,,,9999.0,,1.0,0.0,29.95,1015.6,,,,,,,,,,,,,,,,8000.0,2600.0,SCT,2600.0,SCT,6000.0,OVC,8000.0,,
KRDR,03-22-2022,03:20,SPECI,Calm,,0.0,,,9999.0,Light Rain,1.0,0.0,29.96,1015.9,61,,,,,,,,,,,,,,,2200.0,2200.0,BKN,2200.0,OVC,2800.0,,,,
KRDR,03-22-2022,02:56,METAR,Normal,280,3.0,,,6400.0,Light Snow,0.5,-0.1,29.96,1015.9,71,,,,,,,,,,.06 IN,.11 IN,,,,200.0,300.0,SCT,300.0,BKN,800.0,OVC,1300.0,,
KRDR,03-22-2022,01:56,METAR,Normal,290,10.0,,,9999.0,Light Snow,0.8,0.1,29.94,1015.3,71,,,,,,,,,,.04 IN,,,,,300.0,600.0,SCT,600.0,SCT,1200.0,OVC,1700.0,,
KRDR,03-22-2022,00:56,METAR,Normal,280,12.0,,,9999.0,Rain,1.2,0.2,29.93,1015.0,,,,61,,,,,,,.02 IN,,,,,700.0,700.0,BKN,700.0,BKN,2000.0,OVC,2700.0,,
KRDR,03-22-2022,00:26,SPECI,Normal,280,16.0,,,9999.0,Light Rain,2.0,1.0,29.93,1014.9,61,,,,,,,,,,,,,,,900.0,900.0,OVC,900.0,,,,,,
KRDR,03-22-2022,00:05,SPECI,Normal,280,16.0,,,9999.0,Light Rain,3.0,1.0,29.92,1014.6,61,,,,,,,,,,,,,,,1100.0,1100.0,BKN,1100.0,OVC,3500.0,,,,
KRDR,03-22-2022,00:02,SPECI,Normal,290,15.0,,,9999.0,,3.0,1.0,29.92,1014.6,,,,,,,,,,,,,,,,1100.0,1100.0,BKN,1100.0,OVC,3500.0,,,,
KRDR,03-21-2022,23:56,METAR,Normal,280,16.0,22.0,310/26KTS,9999.0,,3.2,1.1,29.91,1014.3,,,,,,,,,,,,,,,,3500.0,1200.0,SCT,1200.0,OVC,3500.0,,,,
KRDR,03-21-2022,22:56,METAR,Normal,290,21.0,25.0,310/26KTS,9999.0,,4.5,1.7,29.89,1013.5,,,,,,,,,,,,,,,,3600.0,3600.0,OVC,3600.0,,,,,,
KRDR,03-21-2022,21:56,METAR,Normal,280,13.0,,,9999.0,,7.6,1.7,29.88,1013.0,,,,,,,,,,,,,,,,3700.0,3700.0,OVC,3700.0,,,,,,
KRDR,03-21-2022,20:56,METAR,Normal,280,12.0,,,9999.0,,9.5,3.0,29.87,1012.6,,,,,,,,,,,,,,,,4000.0,4000.0,OVC,4000.0,,,,,,
KRDR,03-21-2022,19:56,METAR,Normal,220,3.0,,,9999.0,,11.4,2.7,29.86,1012.2,,,,,,,,,,,,,,,,12000.0,4400.0,SCT,4400.0,BKN,12000.0,,,,
KRDR,03-21-2022,18:56,METAR,Normal,130,8.0,,,9999.0,,11.4,2.7,29.87,1012.5,,,,,,,,,,,,,,,,11000.0,3400.0,SCT,3400.0,BKN,11000.0,,,,
KRDR,03-21-2022,17:56,METAR,Normal,100,8.0,,,9999.0,,10.8,2.4,29.87,1012.5,,,,,,,,,,,,,,,,11000.0,11000.0,BKN,11000.0,,,,,,
KRDR,03-21-2022,16:56,METAR,Normal,90,7.0,,,9999.0,,9.6,1.0,29.87,1012.5,,,,,,,,,,,,,,,,,11000.0,SCT,11000.0,,,,,,
KRDR,03-21-2022,16:23,SPECI,Normal,90,6.0,,,9999.0,,9.0,1.0,29.88,1012.9,,,,,,,,,,,,,,,,11000.0,11000.0,BKN,11000.0,BKN,20000.0,,,,
KRDR,03-21-2022,15:56,METAR,Normal,90,7.0,,,9999.0,,8.4,-0.1,29.88,1012.9,,,,,,,,,,,,,,,,,8000.0,SCT,8000.0,,,,,,
KRDR,03-21-2022,14:56,METAR,Normal,50,4.0,,,9999.0,,6.6,-1.3,29.88,1012.9,,,,,,,,,,,,,,,,,10000.0,SCT,10000.0,,,,,,
KRDR,03-21-2022,13:56,METAR,Normal,30,5.0,,,9999.0,,4.6,-1.4,29.87,1012.7,,,,,,,,,,,,,,,,10000.0,10000.0,OVC,10000.0,,,,,,
KRDR,03-21-2022,12:56,METAR,Normal,40,6.0,,,9999.0,,3.8,-1.8,29.84,1011.7,,,,,,,,,,,,,,,,11000.0,11000.0,OVC,11000.0,,,,,,
KRDR,03-21-2022,11:56,METAR,Normal,50,8.0,,,9999.0,,3.7,-1.7,29.83,1011.2,,,,,,,,,,,,,,,,14000.0,14000.0,OVC,14000.0,,,,,,
KRDR,03-21-2022,10:56,METAR,Normal,30,6.0,,,9999.0,,2.5,-1.7,29.84,1011.6,,,,,,,,,,,,,,,,11000.0,11000.0,BKN,11000.0,,,,,,
KRDR,03-21-2022,09:56,METAR,Normal,30,5.0,,,9999.0,,3.8,-1.6,29.83,1011.2,,,,,,,,,,,,,,,,11000.0,11000.0,OVC,11000.0,,,,,,
KRDR,03-21-2022,08:56,METAR,Normal,10,5.0,,,9999.0,,4.8,-1.4,29.84,1011.4,,,,,,,,,,,,,,,,11000.0,11000.0,BKN,11000.0,,,,,,
KRDR,03-21-2022,07:56,METAR,Normal,30,7.0,,,9999.0,,5.2,-1.3,29.84,1011.4,,,,,,,,,,,,,,,,11000.0,11000.0,BKN,11000.0,,,,,,
KRDR,03-21-2022,06:56,METAR,Normal,30,6.0,,,9999.0,,5.2,-1.1,29.85,1011.9,,,,,,,,,,,,,,,,,10000.0,SCT,10000.0,,,,,,
KRDR,03-21-2022,05:56,METAR,Calm,,0.0,,,9999.0,,5.8,-1.4,29.87,1012.5,,,,,,,,,,,,,,,,,13000.0,FEW,13000.0,,,,,,
KRDR,03-21-2022,04:56,METAR,Normal,70,10.0,,,9999.0,,5.8,-0.9,29.86,1012.3,,,,,,,,,,,,,,,,15000.0,11000.0,SCT,11000.0,BKN,15000.0,,,,
KRDR,03-21-2022,03:56,METAR,Normal,70,10.0,,,9999.0,,6.3,-0.9,29.87,1012.7,,,,,,,,,,,,,,,,15000.0,11000.0,SCT,11000.0,BKN,15000.0,,,,
KRDR,03-21-2022,02:56,METAR,Normal,80,9.0,,,9999.0,,6.7,0.2,29.88,1013.1,,,,,,,,,,,,,,,,,12000.0,SCT,12000.0,,,,,,
KRDR,03-21-2022,01:56,METAR,Normal,70,7.0,,,9999.0,,7.0,0.0,29.88,1013.1,,,,,,,,,,,,,,,,15000.0,8000.0,SCT,8000.0,BKN,15000.0,,,,
KRDR,03-21-2022,00:56,METAR,Normal,80,8.0,,,9999.0,,8.1,0.8,29.87,1012.8,,,,,,,,,,,,,,,,15000.0,8000.0,SCT,8000.0,BKN,15000.0,,,,
KRDR,03-20-2022,23:56,METAR,Normal,80,10.0,,,9999.0,,9.9,2.5,29.87,1012.8,,,,,,,,,,,,,,,,25000.0,12000.0,SCT,12000.0,BKN,25000.0,,,,
KRDR,03-20-2022,22:56,METAR,Normal,90,12.0,,,9999.0,,11.5,3.3,29.87,1012.8,,,,,,,,,,,,,,,Clear,72000.0,,,,,,,,,
KRDR,03-20-2022,21:56,METAR,Normal,90,16.0,22.0,,9999.0,,11.9,4.1,29.88,1013.1,,,,,,,,,,,,,,,Clear,72000.0,,,,,,,,,
KRDR,03-20-2022,20:56,METAR,Normal,100,17.0,,,9999.0,,12.3,4.0,29.89,1013.4,,,,,,,,,,,,,,,Clear,72000.0,,,,,,,,,
KRDR,03-20-2022,19:56,METAR,Normal,120,15.0,,,9999.0,,12.4,3.9,29.91,1014.1,,,,,,,,,,,,,,,Clear,72000.0,,,,,,,,,
KRDR,03-20-2022,18:56,METAR,Normal,110,14.0,,,9999.0,,11.7,4.0,29.93,1014.8,,,,,,,,,,,,,,,Clear,72000.0,,,,,,,,,
KRDR,03-20-2022,17:56,METAR,Normal,130,12.0,,,9999.0,,10.0,3.1,29.95,1015.5,,,,,,,,,,,,,,,Clear,72000.0,,,,,,,,,
KRDR,03-20-2022,16:56,METAR,Normal,110,9.0,,,9999.0,,7.9,3.2,29.96,1015.9,,,,,,,,,,,,,,,Clear,72000.0,,,,,,,,,
KRDR,03-20-2022,15:56,METAR,Normal,110,8.0,,,9999.0,,5.8,3.0,29.96,1016.0,,,,,,,,,,,,,,,,,10000.0,FEW,10000.0,,,,,,
KRDR,03-20-2022,14:56,METAR,Normal,110,7.0,,,9999.0,,3.8,2.0,29.96,1016.0,,,,,,,,,,,,,,,,,10000.0,FEW,10000.0,,,,,,
KRDR,03-20-2022,13:55,METAR,Normal,110,5.0,,,9999.0,,2.2,1.0,29.96,1016.0,,,,,,,,,,,,,,,,,10000.0,FEW,10000.0,,,,,,
KRDR,03-20-2022,12:56,METAR,Normal,150,5.0,,,9999.0,,0.0,-1.0,29.97,1016.4,,,,,,,,,,,,,,,,11000.0,11000.0,BKN,11000.0,,,,,,
KRDR,03-20-2022,11:56,METAR,Normal,140,3.0,,,9999.0,,-0.9,-1.7,29.97,1016.3,,,,,,,,,,,,,,,,8000.0,8000.0,BKN,8000.0,BKN,9600.0,,,,
KRDR,03-20-2022,10:56,METAR,Normal,130,3.0,,,9999.0,,-1.4,-2.2,29.95,1015.6,,,,,,,,,,,,,,,,10000.0,10000.0,OVC,10000.0,,,,,,
KRDR,03-20-2022,09:56,METAR,Normal,140,4.0,,,9999.0,,-1.5,-2.1,29.96,1015.8,,,,,,,,,,,,,,,Clear,72000.0,,,,,,,,,
KRDR,03-20-2022,08:56,METAR,Normal,170,3.0,,,9999.0,,-1.6,-2.4,29.95,1015.6,,,,,,,,,,,,,,,,,23000.0,FEW,23000.0,,,,,,
KRDR,03-20-2022,07:56,METAR,Calm,,0.0,,,9999.0,,-1.0,-1.8,29.95,1015.5,,,,,,,,,,,,,,,Clear,72000.0,,,,,,,,,
KRDR,03-20-2022,06:56,METAR,Normal,190,3.0,,,9999.0,,-2.3,-3.3,29.94,1015.2,,,,,,,,,,,,,,,Clear,72000.0,,,,,,,,,
KRDR,03-20-2022,05:56,METAR,Calm,,0.0,,,9999.0,,-0.6,-1.7,29.94,1015.2,,,,,,,,,,,,,,,Clear,72000.0,,,,,,,,,
KRDR,03-20-2022,04:56,METAR,Normal,190,4.0,,,9999.0,,-0.8,-1.8,29.95,1015.6,,,,,,,,,,,,,,,Clear,72000.0,,,,,,,,,
KRDR,03-20-2022,03:56,METAR,Normal,180,3.0,,,9999.0,,-0.9,-1.9,29.95,1015.7,,,,,,,,,,,,,,,Clear,72000.0,,,,,,,,,
KRDR,03-20-2022,02:56,METAR,Normal,200,4.0,,,9999.0,,0.1,-0.9,29.94,1015.4,,,,,,,,,,,,,,,Clear,72000.0,,,,,,,,,
KRDR,03-20-2022,01:56,METAR,Normal,230,3.0,,,9999.0,,1.7,0.7,29.94,1015.4,,,,,,,,,,,,,,,Clear,72000.0,,,,,,,,,
KRDR,03-20-2022,00:56,METAR,Normal,310,3.0,,,9999.0,,4.1,1.1,29.94,1015.4,,,,,,,,,,,,,,,Clear,72000.0,,,,,,,,,
KRDR,03-19-2022,23:56,METAR,Normal,300,6.0,,,9999.0,,7.7,1.7,29.94,1015.3,,,,,,,,,,,,,,,Clear,72000.0,,,,,,,,,
KRDR,03-19-2022,22:56,METAR,Normal,300,8.0,,,9999.0,,9.3,1.0,29.94,1015.2,,,,,,,,,,,,,,,Clear,72000.0,,,,,,,,,
KRDR,03-19-2022,21:56,METAR,Normal,290,10.0,,,9999.0,,10.5,2.1,29.93,1014.7,,,,,,,,,,,,,,,Clear,72000.0,,,,,,,,,
KRDR,03-19-2022,20:56,METAR,Normal,290,10.0,,,9999.0,,10.9,3.0,29.93,1014.7,,,,,,,,,,,,,,,Clear,72000.0,,,,,,,,,
KRDR,03-19-2022,19:56,METAR,Normal,290,11.0,,,9999.0,,10.5,2.1,29.92,1014.4,,,,,,,,,,,,,,,Clear,72000.0,,,,,,,,,
KRDR,03-19-2022,18:56,METAR,Normal,290,8.0,,,9999.0,,9.2,1.6,29.92,1014.5,,,,,,,,,,,,,,,Clear,72000.0,,,,,,,,,
KRDR,03-19-2022,17:56,METAR,Normal,300,7.0,,,9999.0,,8.0,1.2,29.92,1014.5,,,,,,,,,,,,,,,Clear,72000.0,,,,,,,,,
KRDR,03-19-2022,16:56,METAR,Normal,280,7.0,,,9999.0,,6.5,0.6,29.93,1014.9,,,,,,,,,,,,,,,Clear,72000.0,,,,,,,,,
KRDR,03-19-2022,15:56,METAR,Normal,280,8.0,,,9999.0,,5.1,0.5,29.91,1014.3,,,,,,,,,,,,,,,Clear,72000.0,,,,,,,,,
KRDR,03-19-2022,14:56,METAR,Normal,280,7.0,,,9999.0,,3.3,-0.3,29.91,1014.3,,,,,,,,,,,,,,,,,20000.0,FEW,20000.0,,,,,,
KRDR,03-19-2022,13:56,METAR,Normal,280,7.0,,,9999.0,,1.7,-0.7,29.89,1013.7,,,,,,,,,,,,,,,,,20000.0,FEW,20000.0,,,,,,
KRDR,03-19-2022,12:56,METAR,Normal,280,7.0,,,9999.0,,-0.3,-1.6,29.88,1013.4,,,,,,,,,,,,,,,,,20000.0,SCT,20000.0,,,,,,
KRDR,03-19-2022,11:56,METAR,Normal,230,3.0,,,9999.0,,-1.2,-1.9,29.87,1013.0,,,,,,,,,,,,,,,,,15000.0,FEW,15000.0,,,,,,
KRDR,03-19-2022,10:56,METAR,Normal,180,5.0,,,9999.0,,-0.9,-1.9,29.86,1012.6,,,,,,,,,,,,,,,,,12000.0,FEW,12000.0,,,,,,
KRDR,03-19-2022,09:56,METAR,Normal,170,4.0,,,9999.0,,0.3,-1.3,29.85,1012.2,,,,,,,,,,,,,,,,,10000.0,FEW,10000.0,,,,,,
KRDR,03-19-2022,08:56,METAR,Normal,180,5.0,,,9999.0,,1.5,-0.7,29.85,1012.1,,,,,,,,,,,,,,,,,10000.0,FEW,10000.0,,,,,,
KRDR,03-19-2022,07:56,METAR,Normal,180,8.0,,,9999.0,,1.9,-0.7,29.86,1012.5,,,,,,,,,,,,,,,,,9500.0,SCT,9600.0,,,,,,
KRDR,03-19-2022,06:56,METAR,Normal,170,11.0,,,9999.0,,1.4,-0.8,29.86,1012.5,,,,,,,,,,,,,,,,,10000.0,FEW,10000.0,,,,,,
KRDR,03-19-2022,05:56,METAR,Normal,180,11.0,,,9999.0,,1.6,-0.3,29.87,1012.9,,,,,,,,,,,,,,,,,14000.0,FEW,14000.0,,,,,,
KRDR,03-19-2022,04:56,METAR,Normal,170,10.0,,,9999.0,,1.6,-0.5,29.89,1013.7,,,,,,,,,,,,,,,,,13000.0,SCT,13000.0,,,,,,
KRDR,03-19-2022,03:56,METAR,Normal,160,10.0,,,9999.0,,1.9,-0.2,29.90,1014.1,,,,,,,,,,,,,,,Clear,72000.0,,,,,,,,,
KRDR,03-19-2022,02:56,METAR,Normal,150,9.0,,,9999.0,,1.5,-0.3,29.90,1014.1,,,,,,,,,,,,,,,Clear,72000.0,,,,,,,,,
KRDR,03-19-2022,01:56,METAR,Normal,140,11.0,,,9999.0,,2.1,0.2,29.91,1014.4,,,,,,,,,,,,,,,Clear,72000.0,,,,,,,,,
KRDR,03-19-2022,00:56,METAR,Normal,140,10.0,,,9999.0,,2.6,0.2,29.94,1015.4,,,,,,,,,,,,,,,Clear,72000.0,,,,,,,,,
KRDR,03-18-2022,23:56,METAR,Normal,150,11.0,,,9999.0,,4.2,1.1,29.96,1016.0,,,,,,,,,,,,,,,Clear,72000.0,,,,,,,,,
KRDR,03-18-2022,22:56,METAR,Normal,140,12.0,,,9999.0,,5.4,1.3,29.97,1016.4,,,,,,,,,,,,,,,Clear,72000.0,,,,,,,,,
KRDR,03-18-2022,21:56,METAR,Normal,140,11.0,,,9999.0,,5.9,1.4,29.99,1017.1,,,,,,,,,,,,,,,Clear,72000.0,,,,,,,,,
KRDR,03-18-2022,20:56,METAR,Normal,160,10.0,,,9999.0,,5.8,1.1,30.00,1017.4,,,,,,,,,,,,,,,Clear,72000.0,,,,,,,,,
KRDR,03-18-2022,20:16,SPECI,Normal,170,10.0,,,9999.0,,6.0,1.0,30.01,1017.7,,,,,,,,,,,,,,,,,1600.0,SCT,1600.0,,,,,,
KRDR,03-18-2022,20:06,SPECI,Normal,150,9.0,,,9999.0,,5.0,1.0,30.01,1017.7,,,,,,,,,,,,,,,,1500.0,1600.0,BKN,1600.0,,,,,,
KRDR,03-18-2022,19:56,METAR,Normal,160,12.0,,,9999.0,,5.1,0.7,30.02,1018.1,,,,,,,,,,,,,,,,,1600.0,SCT,1600.0,,,,,,
KRDR,03-18-2022,18:56,METAR,Normal,160,10.0,,,9999.0,,4.9,0.8,30.04,1018.8,,,,,,,,,,,,,,,,1300.0,1500.0,BKN,1500.0,,,,,,
KRDR,03-18-2022,18:06,SPECI,Normal,170,11.0,,,9999.0,,4.0,0.0,30.06,1019.5,,,,,,,,,,,,,,,,,1100.0,SCT,1100.0,,,,,,
KRDR,03-18-2022,17:56,METAR,Normal,180,11.0,,,9999.0,,3.9,0.1,30.07,1019.8,,,,,,,,,,,,,,,,1000.0,1000.0,BKN,1000.0,,,,,,
KRDR,03-18-2022,17:45,SPECI,Normal,180,12.0,,,9999.0,,3.0,0.0,30.07,1019.8,,,,,,,,,,,,,,,,900.0,1000.0,BKN,1000.0,,,,,,
KRDR,03-18-2022,17:31,SPECI,Normal,200,9.0,,,9999.0,,3.0,0.0,30.08,1020.1,,,,,,,,,,,,,,,,900.0,900.0,BKN,900.0,,,,,,
KRDR,03-18-2022,16:57,METAR,Normal,180,10.0,,,9999.0,,2.4,-0.5,30.09,1020.5,,,,,,,,,,,,,,,,600.0,600.0,BKN,600.0,,,,,,
KRDR,03-18-2022,15:55,METAR,Normal,190,8.0,,,9999.0,,0.7,-0.9,30.11,1021.2,,,,,,,,,,,,,,,,400.0,500.0,OVC,500.0,,,,,,
KRDR,03-18-2022,15:03,METAR,Normal,180,8.0,,,9999.0,,0.6,-1.0,30.11,1021.2,,,,,,,,,,,,,,,,600.0,600.0,OVC,600.0,,,,,,
KRDR,03-18-2022,13:57,METAR,Normal,190,6.0,,,9999.0,,0.4,-1.1,30.12,1021.6,,,,,,,,,,,,,,,,500.0,500.0,BKN,500.0,,,,,,
KRDR,03-18-2022,13:01,SPECI,Normal,170,7.0,,,8000.0,Mist,0.0,-1.0,30.12,1021.6,10,,,,,,,,,,,,,,,200.0,300.0,OVC,300.0,,,,,,
KRDR,03-18-2022,12:56,METAR,Normal,170,8.0,,,6400.0,Mist,-0.5,-1.2,30.12,1021.6,10,,,,,,,,,,,,,,,200.0,300.0,OVC,300.0,,,,,,
KRDR,03-18-2022,12:49,SPECI,Normal,170,8.0,,,8000.0,Mist,-1.0,-1.0,30.12,1021.6,10,,,,,,,,,,,,,,,300.0,400.0,OVC,400.0,,,,,,
KRDR,03-18-2022,12:23,SPECI,Normal,160,5.0,,,9999.0,,0.0,-1.0,30.12,1021.6,,,,,,,,,,,,,,,,500.0,500.0,OVC,500.0,,,,,,
KRDR,03-18-2022,11:57,METAR,Normal,180,7.0,,,9999.0,,-0.1,-1.1,30.12,1021.6,,,,,,,,,,,,,,,,800.0,800.0,OVC,800.0,,,,,,
KRDR,03-18-2022,10:56,METAR,Normal,200,4.0,,,9999.0,,-0.5,-1.5,30.11,1021.2,,,,,,,,,,,,,,,,800.0,800.0,OVC,800.0,,,,,,
KRDR,03-18-2022,10:26,SPECI,Normal,200,3.0,,,9999.0,,-1.0,-2.0,30.11,1021.2,,,,,,,,,,,,,,,,800.0,800.0,OVC,800.0,,,,,,
KRDR,03-18-2022,10:08,SPECI,Normal,170,4.0,,,9999.0,,-1.0,-2.0,30.11,1021.2,,,,,,,,,,,,,,,,,800.0,SCT,800.0,,,,,,
KRDR,03-18-2022,09:57,METAR,Normal,200,4.0,,,9999.0,,-1.2,-1.8,30.12,1021.5,,,,,,,,,,,,,,,,800.0,800.0,OVC,800.0,,,,,,
KRDR,03-18-2022,09:30,SPECI,Normal,170,3.0,,,9999.0,Mist,-2.0,-2.0,30.11,1021.2,10,,,,,,,,,,,,,,,2000.0,2000.0,BKN,2000.0,,,,,,
KRDR,03-18-2022,09:22,SPECI,Normal,170,4.0,,,8000.0,Mist,-2.0,-3.0,30.11,1021.2,10,,,,,,,,,,,,,,,1300.0,1300.0,BKN,1300.0,,,,,,
KRDR,03-18-2022,09:13,SPECI,Normal,170,4.0,,,1800.0,Mist,-3.0,-3.0,30.12,1021.6,10,,,,,,,,,,,,,,,,1200.0,SCT,1200.0,,,,,,
KRDR,03-18-2022,08:56,METAR,Normal,160,3.0,,,3600.0,Mist,-2.4,-3.0,30.12,1021.6,10,,,,,,,,,,,,,,Clear,72000.0,,,,,,,,,
KRDR,03-18-2022,08:41,SPECI,Normal,160,3.0,,,3200.0,Mist,-2.0,-3.0,30.13,1021.9,10,,,,,,,,,,,,,,,2500.0,2500.0,BKN,2500.0,,,,,,
KRDR,03-18-2022,07:55,METAR,Calm,,0.0,,,9999.0,,-0.6,-1.3,30.13,1021.8,,,,,,,,,,,,,,,,2500.0,800.0,SCT,800.0,BKN,2500.0,,,,
KRDR,03-18-2022,07:22,SPECI,Normal,230,3.0,,,9999.0,Mist,-1.0,-1.0,30.13,1021.8,10,,,,,,,,,,,,,,,2500.0,800.0,SCT,800.0,BKN,2500.0,,,,
KRDR,03-18-2022,07:18,SPECI,Normal,230,3.0,,,9999.0,,-1.0,-1.0,30.13,1021.8,,,,,,,,,,,,,,,,2300.0,800.0,SCT,800.0,BKN,2300.0,,,,
KRDR,03-18-2022,07:16,SPECI,Normal,230,3.0,,,9999.0,,-1.0,-1.0,30.13,1021.8,,,,,,,,,,,,,,,,800.0,800.0,BKN,800.0,BKN,2300.0,,,,
KRDR,03-18-2022,06:56,METAR,Calm,,0.0,,,9999.0,,-0.5,-1.4,30.13,1021.8,,,,,,,,,,,,,,,,2300.0,800.0,FEW,800.0,OVC,2300.0,,,,
KRDR,03-18-2022,06:55,SPECI,Calm,,0.0,,,9999.0,,0.0,-1.0,30.13,1021.8,,,,,,,,,,,,,,,,2300.0,800.0,FEW,800.0,OVC,2300.0,,,,
KRDR,03-18-2022,05:56,METAR,Calm,,0.0,,,9999.0,,0.7,-0.8,30.13,1021.8,,,,,,,,,,,,,,,,2300.0,2300.0,OVC,2300.0,,,,,,
KRDR,03-18-2022,04:56,METAR,Calm,,0.0,,,9999.0,,0.5,-0.7,30.14,1022.1,,,,,,,,,,,,,,,,2200.0,2200.0,OVC,2200.0,,,,,,
KRDR,03-18-2022,04:16,SPECI,Calm,,0.0,,,9999.0,,1.0,-1.0,30.15,1022.4,,,,,,,,,,,,,,,,2100.0,2100.0,OVC,2100.0,,,,,,
KRDR,03-18-2022,03:56,METAR,Calm,,0.0,,,9999.0,,1.2,-0.6,30.15,1022.5,,,,,,,,,,,,,,,,1600.0,1600.0,BKN,1600.0,OVC,2200.0,,,,
KRDR,03-18-2022,03:26,SPECI,Calm,,0.0,,,9999.0,,1.0,0.0,30.15,1022.5,,,,,,,,,,,,,,,,1500.0,1500.0,OVC,1500.0,,,,,,
KRDR,03-18-2022,02:56,METAR,Normal,20,3.0,,,9999.0,,1.3,-0.3,30.15,1022.5,,,,,,,,,,,,,,,,1200.0,1200.0,OVC,1200.0,,,,,,
KRDR,03-18-2022,01:56,METAR,Normal,40,5.0,,,9999.0,,1.8,0.3,30.14,1022.2,,,,,,,,,,,,,,,,1000.0,1000.0,OVC,1000.0,,,,,,
KRDR,03-18-2022,01:23,SPECI,Normal,340,4.0,,,9999.0,,2.0,0.0,30.13,1021.9,,,,,,,,,,,,,,,,1100.0,1100.0,OVC,1100.0,,,,,,
KRDR,03-18-2022,01:16,SPECI,Normal,350,4.0,,,9999.0,,2.0,0.0,30.13,1021.9,,,,,,,,,,,,,,,,1200.0,1300.0,BKN,1300.0,OVC,2700.0,,,,
KRDR,03-18-2022,00:56,METAR,Normal,330,5.0,,,9999.0,,2.1,0.2,30.12,1021.6,,,,,,,,,,,,,,,,2500.0,2500.0,OVC,2500.0,,,,,,
KRDR,03-18-2022,00:36,SPECI,Normal,300,4.0,,,9999.0,,2.0,0.0,30.11,1021.2,,,,,,,,,,,,,,,,2300.0,2300.0,OVC,2300.0,,,,,,
KRDR,03-18-2022,00:26,SPECI,Normal,320,6.0,,,9999.0,,2.0,0.0,30.11,1021.2,,,,,,,,,,,,,,,,1900.0,1900.0,BKN,1900.0,OVC,2500.0,,,,
KRDR,03-18-2022,00:16,SPECI,Normal,350,6.0,,,9999.0,,2.0,1.0,30.10,1020.9,,,,,,,,,,,,,,,,1600.0,1600.0,SCT,1600.0,OVC,2500.0,,,,
KRDR,03-17-2022,23:56,METAR,Normal,320,5.0,,,9999.0,,2.8,0.4,30.10,1020.8,,,,,,,,,,,,,,,,1700.0,1700.0,BKN,1700.0,OVC,2600.0,,,,
KRDR,03-17-2022,22:56,METAR,Normal,320,7.0,,,9999.0,,3.4,0.3,30.08,1020.1,,,,,,,,,,,,,,,,2500.0,2800.0,OVC,2800.0,,,,,,
KRDR,03-17-2022,22:46,SPECI,Normal,330,9.0,,,9999.0,,4.0,1.0,30.08,1020.1,,,,,,,,,,,,,,,,3000.0,2100.0,FEW,2100.0,OVC,3000.0,,,,
KRDR,03-17-2022,21:56,METAR,Normal,320,5.0,,,9999.0,,4.0,0.5,30.07,1019.8,,,,,,,,,,,,,,,,2400.0,1600.0,FEW,1600.0,OVC,2400.0,,,,
KRDR,03-17-2022,20:56,METAR,Normal,300,10.0,,,9999.0,,4.0,0.3,30.06,1019.5,,,,,,,,,,,,,,,,2100.0,2100.0,OVC,2100.0,,,,,,
KRDR,03-17-2022,19:56,METAR,Normal,330,7.0,,,9999.0,,5.1,1.0,30.06,1019.5,,,,,,,,,,,,,,,,1700.0,1700.0,BKN,1700.0,OVC,2400.0,,,,
KRDR,03-17-2022,19:16,SPECI,Normal,320,9.0,,,9999.0,,5.0,1.0,30.06,1019.5,,,,,,,,,,,,,,,,1700.0,1800.0,BKN,1800.0,BKN,2300.0,OVC,3300.0,,
KRDR,03-17-2022,18:56,METAR,Normal,330,11.0,,,9999.0,,5.6,0.9,30.06,1019.5,,,,,,,,,,,,,,,,1700.0,1700.0,SCT,1700.0,BKN,2300.0,,,,
KRDR,03-17-2022,17:56,METAR,Normal,320,11.0,,,9999.0,,5.3,0.9,30.05,1019.1,,,,,,,,,,,,,,,,,4500.0,FEW,4500.0,,,,,,
KRDR,03-17-2022,16:56,METAR,Normal,320,11.0,,,9999.0,,4.4,0.4,30.04,1018.8,,,,,,,,,,,,,,,,,4000.0,FEW,4000.0,FEW,13000.0,,,,
KRDR,03-17-2022,15:56,METAR,Normal,300,10.0,16.0,,9999.0,,3.7,-0.1,30.02,1018.1,,,,,,,,,,,,,,,,,13000.0,FEW,13000.0,,,,,,
KRDR,03-17-2022,14:56,METAR,Normal,300,11.0,,,9999.0,,2.6,-1.0,29.99,1017.1,,,,,,,,,,,,,,,,,13000.0,FEW,13000.0,,,,,,
KRDR,03-17-2022,13:56,METAR,Normal,290,9.0,,,9999.0,,1.1,-1.8,29.98,1016.7,,,,,,,,,,,,,,,,,13000.0,FEW,13000.0,,,,,,
KRDR,03-17-2022,12:56,METAR,Normal,290,10.0,,,9999.0,,0.0,-2.4,29.96,1016.1,,,,,,,,,,,,,,,Clear,72000.0,,,,,,,,,
KRDR,03-17-2022,11:56,METAR,Normal,270,8.0,,,9999.0,,0.1,-2.3,29.95,1015.7,,,,,,,,,,,,,,,Clear,72000.0,,,,,,,,,
KRDR,03-17-2022,10:56,METAR,Normal,290,8.0,,,9999.0,,0.0,-2.2,29.93,1015.0,,,,,,,,,,,,,,,Clear,72000.0,,,,,,,,,
KRDR,03-17-2022,09:56,METAR,Normal,280,8.0,,,9999.0,,0.4,-2.0,29.91,1014.3,,,,,,,,,,,,,,,Clear,72000.0,,,,,,,,,
KRDR,03-17-2022,08:56,METAR,Normal,280,10.0,,,9999.0,,0.7,-1.7,29.90,1013.8,,,,,,,,,,,,,,,Clear,72000.0,,,,,,,,,
KRDR,03-17-2022,07:56,METAR,Normal,260,5.0,,,9999.0,,-0.3,-2.0,29.90,1013.8,,,,,,,,,,,,,,,Clear,72000.0,,,,,,,,,
KRDR,03-17-2022,06:56,METAR,Calm,,0.0,,,9999.0,,-1.5,-2.6,29.89,1013.6,,,,,,,,,,,,,,,Clear,72000.0,,,,,,,,,
KRDR,03-17-2022,05:56,METAR,Calm,,0.0,,,9999.0,,-0.7,-1.4,29.89,1013.6,,,,,,,,,,,,,,,Clear,72000.0,,,,,,,,,
KRDR,03-17-2022,04:56,METAR,Calm,,0.0,,,9999.0,,0.0,-0.9,29.87,1012.9,,,,,,,,,,,,,,,Clear,72000.0,,,,,,,,,
KRDR,03-17-2022,03:56,METAR,Normal,300,6.0,,,9999.0,,0.8,-0.5,29.86,1012.5,,,,,,,,,,,,,,,Clear,72000.0,,,,,,,,,
KRDR,03-17-2022,03:37,SPECI,Normal,300,11.0,,,9999.0,,1.0,0.0,29.86,1012.5,,,,,,,,,,,,,,,,,800.0,SCT,800.0,,,,,,
KRDR,03-17-2022,03:17,SPECI,Normal,300,13.0,,,9999.0,,1.0,0.0,29.85,1012.2,,,,,,,,,,,,,,,,900.0,900.0,BKN,900.0,,,,,,
KRDR,03-17-2022,02:57,SPECI,Normal,310,6.0,,,9999.0,,1.0,0.0,29.85,1012.2,,,,,,,,,,,,,,,,1100.0,1100.0,BKN,1100.0,,,,,,
KRDR,03-17-2022,02:56,METAR,Normal,310,6.0,,,9999.0,,1.3,-0.5,29.85,1012.3,,,,,,,,,,,,,,,,,1200.0,SCT,1200.0,,,,,,
KRDR,03-17-2022,01:56,METAR,Normal,310,11.0,19.0,,9999.0,,2.0,-0.1,29.83,1011.6,,,,,,,,,,,,,,,,,1300.0,FEW,1300.0,,,,,,
KRDR,03-17-2022,01:46,SPECI,Normal,310,13.0,21.0,,9999.0,,2.0,0.0,29.82,1011.3,,,,,,,,,,,,,,,,,1300.0,SCT,1300.0,,,,,,
KRDR,03-17-2022,01:26,SPECI,Normal,310,17.0,24.0,,9999.0,,2.0,0.0,29.81,1010.9,,,,,,,,,,,,,,,,1400.0,1400.0,BKN,1400.0,,,,,,
KRDR,03-17-2022,00:56,METAR,Normal,310,12.0,,300/26KTS,9999.0,,2.4,0.1,29.80,1010.6,,,,,,,,,,,,,,,,,1200.0,SCT,1200.0,,,,,,
KRDR,03-17-2022,00:06,SPECI,Normal,310,15.0,20.0,,9999.0,,3.0,1.0,29.76,1009.2,,,,,,,,,,,,,,,,1400.0,1400.0,BKN,1400.0,,,,,,
KRDR,03-16-2022,23:56,METAR,Normal,310,15.0,,,9999.0,,3.4,1.0,29.76,1009.2,,,,,,,,,,,,,,,,,1500.0,SCT,1500.0,,,,,,
KRDR,03-16-2022,22:56,METAR,Normal,300,11.0,,280/28KTS,9999.0,,3.8,1.0,29.73,1008.2,,,,,,,,,,,,,,,,,1300.0,FEW,1300.0,,,,,,
KRDR,03-16-2022,22:43,SPECI,Normal,300,14.0,,,9999.0,,4.0,1.0,29.72,1007.9,,,,,,,,,,,,,,,,1200.0,1300.0,SCT,1300.0,,,,,,
KRDR,03-16-2022,22:36,SPECI,Normal,300,13.0,23.0,,9999.0,,4.0,1.0,29.71,1007.5,,,,,,,,,,,,,,,,1300.0,1300.0,BKN,1300.0,,,,,,
KRDR,03-16-2022,22:21,SPECI,Normal,290,19.0,28.0,,9999.0,,4.0,1.0,29.70,1007.2,,,,,,,,,,,,,,,,,1400.0,SCT,1400.0,,,,,,
KRDR,03-16-2022,22:16,SPECI,Normal,280,22.0,28.0,,9999.0,,4.0,1.0,29.70,1007.2,,,,,,,,,,,,,,,,1400.0,1400.0,OVC,1400.0,,,,,,
KRDR,03-16-2022,21:56,METAR,Normal,290,20.0,30.0,260/32KTS,9999.0,,4.6,1.3,29.70,1007.1,,,,,,,,,,,,,,,,1500.0,1500.0,BKN,1500.0,,,,,,
KRDR,03-16-2022,21:46,SPECI,Normal,290,23.0,30.0,,9999.0,,5.0,1.0,29.69,1006.7,,,,,,,,,,,,,,,,1700.0,1700.0,BKN,1700.0,BKN,2200.0,,,,
KRDR,03-16-2022,21:26,SPECI,Normal,300,19.0,27.0,,9999.0,,6.0,2.0,29.69,1006.7,,,,,,,,,,,,,,,,2000.0,2200.0,BKN,2200.0,,,,,,
KRDR,03-16-2022,20:56,METAR,Normal,280,15.0,26.0,290/28KTS,9999.0,,6.5,1.4,29.66,1005.7,,,,,,,,,,,,,,,Clear,72000.0,,,,,,,,,
KRDR,03-16-2022,19:56,METAR,Normal,280,17.0,27.0,,9999.0,,7.1,1.0,29.65,1005.3,,,,,,,,,,,,,,,Clear,72000.0,,,,,,,,,
KRDR,03-16-2022,18:56,METAR,Normal,290,14.0,22.0,,9999.0,,7.3,0.9,29.65,1005.3,,,,,,,,,,,,,,,Clear,72000.0,,,,,,,,,
KRDR,03-16-2022,17:56,METAR,Normal,280,16.0,,,9999.0,,7.0,0.9,29.65,1005.3,,,,,,,,,,,,,,,Clear,72000.0,,,,,,,,,
KRDR,03-16-2022,16:56,METAR,Normal,280,13.0,,,9999.0,,6.6,0.9,29.65,1005.3,,,,,,,,,,,,,,,,,12000.0,SCT,12000.0,,,,,,
KRDR,03-16-2022,15:56,METAR,Normal,270,10.0,,,9999.0,,6.1,1.4,29.64,1005.0,,,,,,,,,,,,,,,,12000.0,12000.0,OVC,12000.0,,,,,,
KRDR,03-16-2022,14:56,METAR,Normal,230,4.0,,,9999.0,,3.9,1.3,29.65,1005.4,,,,,,,,,,,,,,,,13000.0,13000.0,BKN,13000.0,,,,,,
KRDR,03-16-2022,13:56,METAR,Normal,230,5.0,,,9999.0,,2.7,0.9,29.64,1005.1,,,,,,,,,,,,,,,,12000.0,12000.0,BKN,12000.0,,,,,,
KRDR,03-16-2022,12:56,METAR,Normal,190,4.0,,,9999.0,,0.8,-0.2,29.64,1005.1,,,,,,,,,,,,,,,,14000.0,14000.0,BKN,14000.0,,,,,,
KRDR,03-16-2022,11:56,METAR,Calm,,0.0,,,9999.0,,0.5,-0.5,29.64,1005.1,,,,,,,,,,,,,,,,13000.0,13000.0,OVC,13000.0,,,,,,
KRDR,03-16-2022,10:56,METAR,Normal,240,3.0,,,9999.0,,0.2,-0.5,29.65,1005.5,,,,,,,,,,,,,,,,14000.0,14000.0,BKN,14000.0,BKN,16000.0,OVC,19000.0,,
KRDR,03-16-2022,09:56,METAR,Calm,,0.0,,,9999.0,,0.5,-0.4,29.65,1005.5,,,,,,,,,,,,,,,,14000.0,14000.0,BKN,14000.0,BKN,17000.0,,,,
KRDR,03-16-2022,08:56,METAR,Calm,,0.0,,,9999.0,,0.7,-0.2,29.66,1005.8,,,,,,,,,,,,,,,,15000.0,15000.0,OVC,15000.0,,,,,,
KRDR,03-16-2022,07:56,METAR,Calm,,0.0,,,9999.0,,1.0,0.0,29.68,1006.5,,,,,,,,,,,,,,,,,12000.0,SCT,12000.0,SCT,14000.0,,,,
KRDR,03-16-2022,06:56,METAR,Normal,150,3.0,,,9999.0,,1.4,0.1,29.69,1006.7,,,,,,,,,,,,,,,,12000.0,8500.0,SCT,8600.0,BKN,12000.0,,,,
KRDR,03-16-2022,05:56,METAR,Normal,130,7.0,,,9999.0,,1.3,0.0,29.70,1007.1,,,,,,,,,,,,,,,,7000.0,7000.0,BKN,7000.0,BKN,8600.0,,,,
KRDR,03-16-2022,04:56,METAR,Normal,130,3.0,,,9999.0,,1.9,0.3,29.72,1007.8,,,,,,,,,,,,,,,,8000.0,8000.0,OVC,8000.0,,,,,,
KRDR,03-16-2022,03:56,METAR,Normal,190,5.0,,,9999.0,,1.5,0.0,29.73,1008.1,,,,,,,,,,,,,,,,8000.0,8000.0,OVC,8000.0,,,,,,
KRDR,03-16-2022,02:56,METAR,Normal,160,5.0,,,9999.0,,2.0,0.4,29.75,1008.8,,,,,,,,,,,,,,,,8000.0,8000.0,BKN,8000.0,OVC,10000.0,,,,
KRDR,03-16-2022,01:56,METAR,Normal,160,5.0,,,9999.0,,1.9,0.3,29.76,1009.3,,,,,,,,,,,,,,,,8000.0,8000.0,OVC,8000.0,,,,,,
KRDR,03-16-2022,00:56,METAR,Normal,180,6.0,,,9999.0,,2.0,0.4,29.77,1009.8,,,,,,,,,,,,,,,,10000.0,10000.0,OVC,10000.0,,,,,,
KRDR,03-15-2022,23:56,METAR,Normal,160,8.0,,,9999.0,,2.2,0.4,29.78,1010.1,,,,,,,,,,,,,,,,10000.0,10000.0,OVC,10000.0,,,,,,
KRDR,03-15-2022,22:56,METAR,Normal,160,7.0,,,9999.0,,2.4,0.5,29.81,1011.1,,,,,,,,,,,,,,,,9000.0,9000.0,OVC,9100.0,,,,,,
KRDR,03-15-2022,21:56,METAR,Normal,160,8.0,,,9999.0,,2.9,0.6,29.83,1011.7,,,,,,,,,,,,,,,,10000.0,10000.0,OVC,10000.0,,,,,,
KRDR,03-15-2022,20:56,METAR,Normal,160,8.0,,,9999.0,,3.4,0.6,29.84,1012.0,,,,,,,,,,,,,,,,11000.0,11000.0,OVC,11000.0,,,,,,
KRDR,03-15-2022,19:56,METAR,Normal,150,6.0,,,9999.0,,3.9,0.2,29.87,1013.0,,,,,,,,,,,,,,,,13000.0,13000.0,OVC,13000.0,,,,,,
KRDR,03-15-2022,18:56,METAR,Normal,140,5.0,,,9999.0,,4.6,-0.2,29.90,1014.0,,,,,,,,,,,,,,,,13000.0,13000.0,OVC,13000.0,,,,,,
KRDR,03-15-2022,17:56,METAR,Normal,190,7.0,,,9999.0,,4.7,-0.1,29.92,1014.7,,,,,,,,,,,,,,,,14000.0,14000.0,BKN,14000.0,OVC,16000.0,,,,
KRDR,03-15-2022,16:56,METAR,Normal,180,6.0,,,9999.0,,4.3,-0.5,29.93,1015.0,,,,,,,,,,,,,,,,16000.0,16000.0,BKN,16000.0,,,,,,
KRDR,03-15-2022,15:56,METAR,Normal,230,6.0,,,9999.0,,4.7,-0.7,29.93,1015.0,,,,,,,,,,,,,,,,17000.0,13000.0,FEW,13000.0,BKN,17000.0,,,,
KRDR,03-15-2022,14:55,METAR,Normal,220,7.0,,,9999.0,,3.2,-1.4,29.93,1015.1,,,,,,,,,,,,,,,,,18000.0,SCT,18000.0,,,,,,
KRDR,03-15-2022,13:56,METAR,Normal,180,7.0,,,9999.0,,-1.1,-3.3,29.93,1015.2,,,,,,,,,,,,,,,,20000.0,18000.0,SCT,18000.0,BKN,20000.0,,,,
KRDR,03-15-2022,12:56,METAR,Normal,160,9.0,,,9999.0,,-3.1,-4.8,29.94,1015.7,,,,,,,,,,,,,,,,21000.0,21000.0,BKN,21000.0,,,,,,
KRDR,03-15-2022,11:56,METAR,Normal,160,7.0,,,9999.0,,-3.3,-5.0,29.94,1015.7,,,,,,,,,,,,,,,Clear,72000.0,,,,,,,,,
KRDR,03-15-2022,10:56,METAR,Normal,190,11.0,,,9999.0,,-1.7,-3.9,29.94,1015.6,,,,,,,,,,,,,,,Clear,72000.0,,,,,,,,,
KRDR,03-15-2022,09:56,METAR,Normal,190,8.0,,,9999.0,,-1.6,-4.0,29.95,1015.9,,,,,,,,,,,,,,,Clear,72000.0,,,,,,,,,
KRDR,03-15-2022,08:56,METAR,Normal,190,11.0,,,9999.0,,-1.2,-3.9,29.97,1016.6,,,,,,,,,,,,,,,Clear,72000.0,,,,,,,,,
KRDR,03-15-2022,07:56,METAR,Normal,190,10.0,,,9999.0,,-1.6,-4.1,30.00,1017.7,,,,,,,,,,,,,,,Clear,72000.0,,,,,,,,,
KRDR,03-15-2022,06:56,METAR,Normal,190,12.0,,,9999.0,,-1.2,-3.9,30.03,1018.6,,,,,,,,,,,,,,,,,10000.0,FEW,10000.0,,,,,,
KRDR,03-15-2022,05:56,METAR,Normal,190,11.0,,,9999.0,,-1.0,-3.7,30.06,1019.7,,,,,,,,,,,,,,,,10000.0,10000.0,BKN,10000.0,,,,,,
KRDR,03-15-2022,04:56,METAR,Normal,190,12.0,,,9999.0,,-0.8,-3.5,30.09,1020.8,,,,,,,,,,,,,,,Clear,72000.0,,,,,,,,,
KRDR,03-15-2022,03:56,METAR,Normal,180,12.0,,,9999.0,,-0.8,-3.3,30.10,1021.1,,,,,,,,,,,,,,,,3800.0,3800.0,OVC,3800.0,,,,,,
KRDR,03-15-2022,02:56,METAR,Normal,180,13.0,,,9999.0,,-0.8,-3.3,30.12,1022.0,,,,,,,,,,,,,,,,3500.0,3500.0,OVC,3500.0,,,,,,
KRDR,03-15-2022,01:56,METAR,Normal,170,10.0,,,9999.0,,-1.2,-3.4,30.15,1023.1,,,,,,,,,,,,,,,,9000.0,4500.0,FEW,4500.0,OVC,9100.0,,,,
KRDR,03-15-2022,00:56,METAR,Normal,170,10.0,,,9999.0,,-0.9,-3.3,30.17,1023.8,,,,,,,,,,,,,,,,4300.0,4300.0,OVC,4300.0,,,,,,
KRDR,03-14-2022,23:56,METAR,Normal,160,9.0,,,9999.0,,-0.8,-3.7,30.18,1024.2,,,,,,,,,,,,,,,,5000.0,5000.0,OVC,5000.0,,,,,,
KRDR,03-14-2022,22:56,METAR,Normal,160,11.0,,,9999.0,,-0.7,-3.9,30.16,1023.4,,,,,,,,,,,,,,,,5500.0,5500.0,OVC,5500.0,,,,,,
KRDR,03-14-2022,21:56,METAR,Normal,180,7.0,,,9999.0,,-0.7,-4.9,30.17,1023.8,,,,,,,,,,,,,,,,6000.0,6000.0,OVC,6000.0,,,,,,
KRDR,03-14-2022,20:56,METAR,Normal,180,9.0,,,9999.0,,-1.1,-5.9,30.17,1023.7,,,,,,,,,,,,,,,,5500.0,5500.0,OVC,5500.0,,,,,,
KRDR,03-14-2022,19:56,METAR,Normal,170,7.0,,,9999.0,,-1.5,-6.8,30.18,1024.2,,,,,,,,,,,,,,,,6000.0,6000.0,BKN,6000.0,,,,,,
KRDR,03-14-2022,18:56,METAR,Normal,190,5.0,,,9999.0,,-1.8,-8.1,30.20,1024.8,,,,,,,,,,,,,,,,,8500.0,FEW,8600.0,,,,,,
KRDR,03-14-2022,17:56,METAR,Calm,,0.0,,,9999.0,,-2.3,-8.2,30.22,1025.5,,,,,,,,,,,,,,,,,8500.0,FEW,8600.0,,,,,,
KRDR,03-14-2022,16:56,METAR,Calm,,0.0,,,9999.0,,-3.1,-8.4,30.21,1025.3,,,,,,,,,,,,,,,,,9000.0,SCT,9100.0,,,,,,
KRDR,03-14-2022,15:56,METAR,Normal,230,3.0,,,9999.0,,-3.8,-8.7,30.20,1024.9,,,,,,,,,,,,,,,,,9000.0,SCT,9100.0,,,,,,
KRDR,03-14-2022,14:56,METAR,Normal,190,5.0,,,9999.0,,-7.6,-10.8,30.18,1024.4,,,,,,,,,,,,,,,,7500.0,7500.0,BKN,7500.0,BKN,9100.0,,,,
KRDR,03-14-2022,13:56,METAR,Normal,170,3.0,,,9999.0,,-11.0,-12.9,30.16,1023.8,,,,,,,,,,,,,,,,7500.0,7500.0,BKN,7500.0,,,,,,
KRDR,03-14-2022,12:56,METAR,Calm,,0.0,,,9999.0,,-11.2,-13.0,30.15,1023.4,,,,,,,,,,,,,,,,,13000.0,SCT,13000.0,,,,,,
KRDR,03-14-2022,11:56,METAR,Calm,,0.0,,,9999.0,,-10.3,-12.2,30.13,1022.6,,,,,,,,,,,,,,,,13000.0,13000.0,OVC,13000.0,,,,,,
KRDR,03-14-2022,10:56,METAR,Calm,,0.0,,,9999.0,,-10.0,-12.1,30.13,1022.6,,,,,,,,,,,,,,,,11000.0,11000.0,OVC,11000.0,,,,,,
KRDR,03-14-2022,09:56,METAR,Calm,,0.0,,,9999.0,,-10.4,-12.6,30.12,1022.3,,,,,,,,,,,,,,,,10000.0,10000.0,OVC,10000.0,,,,,,
KRDR,03-14-2022,08:56,METAR,Normal,170,4.0,,,9999.0,,-9.8,-12.5,30.10,1021.6,,,,,,,,,,,,,,,,10000.0,10000.0,OVC,10000.0,,,,,,
KRDR,03-14-2022,07:56,METAR,Normal,170,3.0,,,9999.0,,-10.2,-12.7,30.10,1021.6,,,,,,,,,,,,,,,,8000.0,8000.0,OVC,8000.0,,,,,,
KRDR,03-14-2022,06:56,METAR,Normal,110,3.0,,,9999.0,,-9.5,-12.3,30.10,1021.6,,,,,,,,,,,,,,,,8000.0,8000.0,OVC,8000.0,,,,,,
KRDR,03-14-2022,05:59,METAR,Normal,150,3.0,,,9999.0,,-9.5,-12.5,30.08,1020.9,,,,,,,,,,,,,,,,8000.0,8000.0,OVC,8000.0,,,,,,
KRDR,03-14-2022,04:56,METAR,Normal,150,4.0,,,9999.0,,-10.5,-13.0,30.07,1020.6,,,,,,,,,,,,,,,,9000.0,9000.0,OVC,9100.0,,,,,,
KRDR,03-14-2022,03:56,METAR,Normal,150,3.0,,,9999.0,,-10.6,-13.4,30.06,1020.4,,,,,,,,,,,,,,,,,16000.0,FEW,16000.0,,,,,,
KRDR,03-14-2022,02:56,METAR,Normal,90,5.0,,,9999.0,,-9.4,-12.1,30.04,1019.6,,,,,,,,,,,,,,,,16000.0,16000.0,BKN,16000.0,,,,,,
KRDR,03-14-2022,01:56,METAR,Normal,90,4.0,,,9999.0,,-8.3,-11.6,30.02,1018.9,,,,,,,,,,,,,,,Clear,72000.0,,,,,,,,,
KRDR,03-14-2022,00:56,METAR,Normal,100,5.0,,,9999.0,,-7.5,-10.9,30.01,1018.5,,,,,,,,,,,,,,,,2100.0,2100.0,OVC,2100.0,,,,,,
KRDR,03-13-2022,23:56,METAR,Normal,90,4.0,,,9999.0,,-7.0,-10.5,30.00,1018.1,,,,,,,,,,,,,,,,1700.0,900.0,FEW,900.0,BKN,1700.0,OVC,2300.0,,
KRDR,03-13-2022,23:26,SPECI,Normal,130,3.0,,,9999.0,,-7.0,-10.0,30.00,1018.1,,,,,,,,,,,,,,,,2000.0,2000.0,BKN,2000.0,BKN,19000.0,,,,
KRDR,03-13-2022,22:56,METAR,Normal,110,3.0,,,9999.0,,-6.7,-10.7,29.99,1017.8,,,,,,,,,,,,,,,,,8000.0,FEW,8000.0,FEW,20000.0,,,,
KRDR,03-13-2022,21:56,METAR,Normal,20,5.0,,,9999.0,,-6.4,-10.5,29.97,1017.0,,,,,,,,,,,,,,,,,19000.0,FEW,19000.0,,,,,,
KRDR,03-13-2022,20:56,METAR,Normal,20,4.0,,,9999.0,,-6.8,-11.6,29.96,1016.6,,,,,,,,,,,,,,,,,9000.0,FEW,9100.0,SCT,21000.0,,,,
KRDR,03-13-2022,19:56,METAR,Calm,,0.0,,,9999.0,,-6.7,-11.8,29.96,1016.4,,,,,,,,,,,,,,,,,14000.0,FEW,14000.0,,,,,,
KRDR,03-13-2022,18:56,METAR,Normal,360,5.0,,,9999.0,,-7.1,-11.8,29.96,1016.4,,,,,,,,,,,,,,,,,1400.0,FEW,1400.0,,,,,,
KRDR,03-13-2022,17:56,METAR,Normal,10,9.0,,,9999.0,,-7.5,-12.0,29.95,1016.1,,,,,,,,,,,,,,,,,1800.0,SCT,1800.0,,,,,,
KRDR,03-13-2022,17:40,SPECI,Normal,20,8.0,,,9999.0,,-8.0,-12.0,29.95,1016.1,,,,,,,,,,,,,,,,1700.0,1800.0,FEW,1800.0,OVC,2700.0,,,,
KRDR,03-13-2022,17:20,SPECI,Normal,10,10.0,,,9999.0,,-8.0,-12.0,29.94,1015.8,,,,,,,,,,,,,,,,1100.0,1100.0,SCT,1100.0,BKN,1600.0,OVC,2700.0,,
KRDR,03-13-2022,17:10,SPECI,Normal,10,9.0,,,9999.0,,-8.0,-12.0,29.94,1015.8,,,,,,,,,,,,,,,,1100.0,1100.0,BKN,1100.0,BKN,1600.0,OVC,2700.0,,
KRDR,03-13-2022,17:00,SPECI,Normal,10,9.0,,,9999.0,,-8.0,-12.0,29.94,1015.8,,,,,,,,,,,,,,,,1500.0,900.0,FEW,900.0,BKN,1500.0,OVC,2700.0,,
KRDR,03-13-2022,16:56,METAR,Normal,10,10.0,,,9999.0,,-7.7,-11.9,29.94,1015.8,,,,,,,,,,,,,,,,1500.0,1500.0,BKN,1500.0,BKN,2100.0,OVC,2700.0,,
KRDR,03-13-2022,16:36,SPECI,Normal,360,13.0,,,9999.0,,-8.0,-13.0,29.93,1015.5,,,,,,,,,,,,,,,,1600.0,1600.0,BKN,1600.0,OVC,2700.0,,,,
KRDR,03-13-2022,15:56,METAR,Normal,20,8.0,,,9999.0,,-8.5,-12.2,29.92,1015.1,,,,,,,,,,,,,,,,2700.0,1100.0,FEW,1100.0,FEW,1800.0,OVC,2700.0,,
KRDR,03-13-2022,14:57,METAR,Normal,30,12.0,,,9999.0,,-8.4,-11.9,29.89,1014.1,,,,,,,,,,,,,,,,2800.0,2800.0,BKN,2800.0,BKN,3500.0,,,,
KRDR,03-13-2022,13:56,METAR,Normal,350,8.0,,,9999.0,,-7.4,-10.9,29.86,1013.2,,,,,,,,,,,,,,,,3400.0,3400.0,OVC,3400.0,,,,,,
KRDR,03-13-2022,12:56,METAR,Normal,350,6.0,,,9999.0,,-8.4,-11.4,29.83,1012.2,,,,,,,,,,,,,,,,4000.0,2500.0,FEW,2500.0,BKN,4000.0,,,,
KRDR,03-13-2022,11:56,METAR,Normal,360,4.0,,,9999.0,,-7.3,-10.5,29.80,1011.2,,,,,,,,,,,,,,,,2000.0,2000.0,OVC,2000.0,,,,,,
KRDR,03-13-2022,11:34,SPECI,Normal,10,9.0,,,9999.0,,-7.0,-11.0,29.78,1010.5,,,,,,,,,,,,,,,,2000.0,2000.0,OVC,2000.0,,,,,,
KRDR,03-13-2022,10:56,METAR,Normal,360,7.0,,,9999.0,,-6.9,-10.1,29.76,1009.8,,,,,,,,,,,,,,,,1800.0,1800.0,BKN,1800.0,OVC,5500.0,,,,
KRDR,03-13-2022,10:46,SPECI,Normal,360,6.0,,,9999.0,,-7.0,-10.0,29.75,1009.5,,,,,,,,,,,,,,,,5500.0,1800.0,FEW,1800.0,OVC,5500.0,,,,
KRDR,03-13-2022,10:16,SPECI,Normal,10,12.0,,,9999.0,,-6.0,-9.0,29.73,1008.8,,,,,,,,,,,,,,,,1700.0,1700.0,BKN,1700.0,OVC,5500.0,,,,
KRDR,03-13-2022,09:56,METAR,Normal,360,10.0,,,9999.0,,-5.6,-8.8,29.72,1008.5,,,,,,,,,,,,,,,,2000.0,2000.0,OVC,2000.0,,,,,,
KRDR,03-13-2022,08:56,METAR,Normal,10,18.0,,,9999.0,,-4.2,-8.0,29.69,1007.4,,,,,,,,,,,,,,,,1900.0,2100.0,BKN,2100.0,OVC,3000.0,,,,
KRDR,03-13-2022,08:41,SPECI,Normal,350,18.0,25.0,,9999.0,,0.0,-3.0,29.67,1006.6,,,,,,,,,,,,,,,,3000.0,1500.0,FEW,1500.0,SCT,2300.0,BKN,3000.0,OVC,4400.0
KRDR,03-13-2022,07:56,METAR,Normal,300,12.0,,,9999.0,,0.5,-2.9,29.65,1005.8,,,,,,,,,,,,,,,,4500.0,4500.0,OVC,4500.0,,,,,,
KRDR,03-13-2022,06:56,METAR,Normal,300,11.0,,,9999.0,,0.1,-3.3,29.62,1005.0,,,,,,,,,,,,,,,,5000.0,5000.0,OVC,5000.0,,,,,,
KRDR,03-13-2022,05:56,METAR,Normal,300,11.0,,,9999.0,,-0.3,-3.3,29.60,1004.3,,,,,,,,,,,,,TRACE,,,,4100.0,FEW,4100.0,,,,,,
KRDR,03-13-2022,04:56,METAR,Normal,290,10.0,,,9999.0,,-0.4,-2.8,29.59,1004.0,,,,,,,,,,,,,,,,,6000.0,SCT,6000.0,,,,,,
KRDR,03-13-2022,03:56,METAR,Normal,290,12.0,,,9999.0,,-0.3,-2.7,29.59,1004.1,,,,,,,,,,,,,,,,,6500.0,SCT,6500.0,,,,,,
KRDR,03-13-2022,02:56,METAR,Normal,280,16.0,,,9999.0,,0.1,-2.3,29.57,1003.5,,,,,,,,,,,,,,,Clear,72000.0,,,,,,,,,
KRDR,03-13-2022,01:56,METAR,Normal,220,5.0,,,9999.0,,-3.1,-4.7,29.57,1003.7,,,,,,,,,,,,,,,,3000.0,1700.0,FEW,1700.0,BKN,3000.0,OVC,7000.0,,
KRDR,03-13-2022,00:56,METAR,Normal,190,13.0,,,9999.0,,-4.1,-5.5,29.55,1003.2,,,,,,,,,,,TRACE,,,,,8000.0,4200.0,FEW,4200.0,OVC,8000.0,,,,
KRDR,03-13-2022,00:34,SPECI,Normal,180,14.0,,,9999.0,,-4.0,-6.0,29.56,1003.6,,,,,,,,,,,,,,,,3100.0,3100.0,BKN,3100.0,,,,,,
KRDR,03-13-2022,00:31,SPECI,Normal,180,13.0,,,9999.0,Light Snow,-5.0,-6.0,29.57,1004.0,71,,,,,,,,,,,,,,,1400.0,200.0,FEW,200.0,FEW,900.0,OVC,2900.0,,
KRDR,03-13-2022,00:21,SPECI,Normal,180,14.0,,,8000.0,Light Snow,-5.0,-6.0,29.57,1004.0,71,,,,,,,,,,,,,,,200.0,200.0,SCT,200.0,BKN,1500.0,OVC,6500.0,,
KRDR,03-13-2022,00:11,SPECI,Normal,190,16.0,20.0,,1800.0,Light Snow,-5.0,-6.0,29.57,1004.0,71,,,,,,,,,,,,,,,200.0,200.0,BKN,200.0,OVC,2100.0,,,,
KRDR,03-13-2022,00:08,SPECI,Normal,190,18.0,,,1800.0,Blowing or Drifting Snow or Sand,-5.0,-7.0,29.57,1003.9,27,,,,,,,,,,,,,,,200.0,200.0,BKN,200.0,BKN,900.0,,,,
KRDR,03-12-2022,23:59,SPECI,Normal,190,10.0,,,1800.0,Light Snow,-5.0,-7.0,29.59,1004.7,71,,,,,,,,,,,,,,,200.0,200.0,OVC,200.0,,,,,,
KRDR,03-12-2022,23:58,SPECI,Normal,190,11.0,,,1800.0,Blowing or Drifting Snow or Sand,-5.0,-7.0,29.59,1004.7,27,,,,,,,,,,,,,,,200.0,200.0,BKN,200.0,,,,,,
KRDR,03-12-2022,23:57,SPECI,Normal,180,12.0,,,1800.0,Light Snow,-5.0,-7.0,29.60,1005.0,71,,,,,,,,,,,,,,,200.0,200.0,BKN,200.0,OVC,2100.0,,,,
KRDR,03-12-2022,23:56,METAR,Normal,180,11.0,,,1800.0,Blowing or Drifting Snow or Sand,-5.5,-7.0,29.60,1005.0,27,,,,,,,,,,.02 IN,,.02 IN,,,200.0,200.0,BKN,200.0,,,,,,
KRDR,03-12-2022,23:55,SPECI,Normal,180,11.0,,,1800.0,Blowing or Drifting Snow or Sand,-5.0,-7.0,29.59,1004.7,27,,,,,,,,,,,,,,,200.0,200.0,BKN,200.0,,,,,,
KRDR,03-12-2022,23:53,SPECI,Normal,180,12.0,,,1800.0,Light Snow,-5.0,-7.0,29.59,1004.7,71,,,,,,,,,,,,,,,200.0,200.0,BKN,200.0,OVC,1900.0,,,,
KRDR,03-12-2022,23:48,SPECI,Normal,180,13.0,,,1600.0,Light Snow,-5.0,-7.0,29.59,1004.7,71,,,,,,,,,,,,,,,200.0,200.0,BKN,200.0,OVC,1800.0,,,,
KRDR,03-12-2022,23:38,SPECI,Normal,180,14.0,,,1400.0,Light Snow,-6.0,-7.0,29.60,1005.0,71,,,,,,,,,,,,,,,200.0,200.0,BKN,200.0,OVC,1700.0,,,,
KRDR,03-12-2022,23:28,SPECI,Normal,180,12.0,,,800.0,Light Snow,-6.0,-7.0,29.61,1005.4,71,,,,,,,,,,,,,,,200.0,200.0,BKN,200.0,OVC,1900.0,,,,
KRDR,03-12-2022,23:18,SPECI,Normal,190,12.0,,,1000.0,Light Snow,-6.0,-8.0,29.62,1005.7,71,,,,,,,,,,,,,,,2500.0,200.0,SCT,200.0,OVC,2500.0,,,,
KRDR,03-12-2022,23:13,SPECI,Normal,180,13.0,,,1800.0,Light Snow,-5.0,-8.0,29.63,1006.0,71,,,,,,,,,,,,,,,2600.0,300.0,FEW,300.0,BKN,2600.0,OVC,3600.0,,
KRDR,03-12-2022,23:03,SPECI,Normal,190,12.0,,,9999.0,Light Snow,-5.0,-9.0,29.64,1006.4,71,,,,,,,,,,,,,,,3100.0,300.0,FEW,300.0,BKN,3100.0,BKN,3900.0,OVC,10000.0
KRDR,03-12-2022,22:58,SPECI,Normal,190,13.0,,,9999.0,Light Snow,-5.0,-10.0,29.64,1006.4,71,,,,,,,,,,,,,,,3300.0,3300.0,BKN,3300.0,BKN,4200.0,OVC,10000.0,,
KRDR,03-12-2022,22:57,SPECI,Normal,190,14.0,,,9999.0,Light Snow,-5.0,-10.0,29.64,1006.4,,,,71,,,,,,,,,,,,3500.0,3500.0,BKN,3500.0,BKN,4200.0,OVC,10000.0,,
KRDR,03-12-2022,22:56,METAR,Normal,190,11.0,,,9999.0,,-5.3,-9.6,29.64,1006.4,,,,,,,,,,,,,,,,3500.0,3500.0,BKN,3500.0,BKN,4200.0,OVC,10000.0,,
KRDR,03-12-2022,21:56,METAR,Normal,170,18.0,23.0,150/29KTS,9999.0,,-6.2,-10.4,29.63,1006.0,,,,,,,,,,,,,,,,6500.0,6500.0,BKN,6500.0,OVC,8600.0,,,,
KRDR,03-12-2022,20:56,METAR,Normal,180,21.0,,160/27KTS,9999.0,,-7.4,-11.8,29.67,1007.4,,,,,,,,,,,,,,,,3600.0,2600.0,FEW,2600.0,BKN,3600.0,OVC,4500.0,,
KRDR,03-12-2022,20:46,SPECI,Normal,170,21.0,,,9999.0,,-7.0,-12.0,29.68,1007.8,,,,,,,,,,,,,,,,3300.0,2600.0,SCT,2600.0,OVC,3300.0,,,,
KRDR,03-12-2022,20:36,SPECI,Normal,180,17.0,25.0,,9999.0,,-7.0,-12.0,29.69,1008.1,,,,,,,,,,,,,,,,2700.0,2700.0,BKN,2700.0,BKN,3300.0,OVC,5000.0,,
KRDR,03-12-2022,19:56,METAR,Normal,170,19.0,,160/26KTS,9999.0,,-7.6,-13.1,29.71,1008.8,,,,,,,,,,,,,,,,5000.0,3400.0,FEW,3400.0,BKN,5000.0,OVC,7000.0,,
KRDR,03-12-2022,18:56,METAR,Normal,170,18.0,,,9999.0,,-9.2,-14.6,29.77,1010.9,,,,,,,,,,,,,,,,3500.0,3500.0,BKN,3500.0,OVC,4300.0,,,,
KRDR,03-12-2022,17:56,METAR,Normal,170,14.0,,,9999.0,,-10.1,-15.5,29.83,1013.0,,,,,,,,,,,,,,,,6000.0,3300.0,FEW,3300.0,SCT,4400.0,OVC,6000.0,,
KRDR,03-12-2022,16:56,METAR,Normal,170,14.0,,,9999.0,,-11.6,-17.1,29.86,1014.1,,,,,,,,,,,,,,,,6500.0,6500.0,OVC,6500.0,,,,,,
KRDR,03-12-2022,15:56,METAR,Normal,180,15.0,,,9999.0,,-13.8,-19.4,29.93,1016.6,,,,,,,,,,,,,,,,20000.0,13000.0,FEW,13000.0,FEW,15000.0,SCT,18000.0,BKN,20000.0
KRDR,03-12-2022,14:56,METAR,Normal,190,11.0,,,9999.0,,-16.8,-22.1,29.98,1018.4,,,,,,,,,,,,,,,,18000.0,14000.0,FEW,14000.0,SCT,16000.0,BKN,18000.0,BKN,21000.0
KRDR,03-12-2022,13:56,METAR,Normal,180,12.0,,,9999.0,,-19.2,-24.0,30.02,1019.8,,,,,,,,,,,,,,,,18000.0,14000.0,SCT,14000.0,SCT,16000.0,BKN,18000.0,,
KRDR,03-12-2022,12:56,METAR,Normal,170,8.0,,,9999.0,,-21.6,-25.5,30.07,1021.6,,,,,,,,,,,,,,,Clear,72000.0,,,,,,,,,
KRDR,03-12-2022,11:56,METAR,Normal,170,7.0,,,9999.0,,-22.1,-26.0,30.10,1022.5,,,,,,,,,,,,,,,Clear,72000.0,,,,,,,,,
KRDR,03-12-2022,10:56,METAR,Normal,170,6.0,,,9999.0,,-22.3,-26.2,30.12,1023.2,,,,,,,,,,,,,,,Clear,72000.0,,,,,,,,,
KRDR,03-12-2022,09:56,METAR,Normal,200,7.0,,,9999.0,,-22.8,-26.2,30.14,1023.9,,,,,,,,,,,,,,,Clear,72000.0,,,,,,,,,
KRDR,03-12-2022,08:56,METAR,Normal,220,4.0,,,9999.0,,-21.2,-25.5,30.16,1024.5,,,,,,,,,,,,,,,Clear,72000.0,,,,,,,,,
KRDR,03-12-2022,07:56,METAR,Normal,240,3.0,,,9999.0,,-20.8,-25.2,30.19,1025.6,,,,,,,,,,,,,,,Clear,72000.0,,,,,,,,,
KRDR,03-12-2022,06:56,METAR,Normal,270,8.0,,,9999.0,,-20.5,-24.9,30.20,1026.0,,,,,,,,,,,,,,,Clear,72000.0,,,,,,,,,
KRDR,03-12-2022,05:56,METAR,Normal,270,5.0,,,9999.0,,-20.5,-24.9,30.21,1026.3,,,,,,,,,,,,,,,Clear,72000.0,,,,,,,,,
KRDR,03-12-2022,04:56,METAR,Normal,260,4.0,,,9999.0,,-20.2,-24.6,30.23,1027.0,,,,,,,,,,,,,,,Clear,72000.0,,,,,,,,,
KRDR,03-12-2022,03:56,METAR,Normal,300,8.0,,,9999.0,,-19.1,-23.9,30.24,1027.3,,,,,,,,,,,,,,,Clear,72000.0,,,,,,,,,
KRDR,03-12-2022,02:56,METAR,Normal,300,10.0,,,9999.0,,-18.6,-23.6,30.25,1027.7,,,,,,,,,,,,,,,Clear,72000.0,,,,,,,,,
KRDR,03-12-2022,01:56,METAR,Normal,300,8.0,,,9999.0,,-18.2,-23.2,30.25,1027.7,,,,,,,,,,,,,,,Clear,72000.0,,,,,,,,,
KRDR,03-12-2022,01:26,SPECI,Normal,300,10.0,,,9999.0,,-18.0,-23.0,30.26,1028.0,,,,,,,,,,,,,,,,,2000.0,SCT,2000.0,,,,,,
KRDR,03-12-2022,01:06,SPECI,Normal,300,11.0,,,9999.0,,-18.0,-23.0,30.26,1028.0,,,,,,,,,,,,,,,,2100.0,2100.0,BKN,2100.0,,,,,,
KRDR,03-12-2022,00:56,METAR,Normal,300,9.0,,,9999.0,,-17.5,-22.9,30.26,1028.0,,,,,,,,,,,,,,,,,2100.0,SCT,2100.0,,,,,,
KRDR,03-11-2022,23:56,METAR,Normal,310,18.0,21.0,,9999.0,,-16.6,-22.4,30.26,1027.9,,,,,,,,,,,,,,,Clear,72000.0,,,,,,,,,
KRDR,03-11-2022,23:16,SPECI,Normal,300,15.0,24.0,,9999.0,,-16.0,-22.0,30.26,1027.9,,,,,,,,,,,,,,,,,1400.0,SCT,1400.0,,,,,,
KRDR,03-11-2022,22:56,METAR,Normal,300,19.0,24.0,,9999.0,,-15.9,-21.7,30.26,1027.9,,,,,,,,,,,,,,,,2100.0,1600.0,SCT,1600.0,BKN,2100.0,,,,
KRDR,03-11-2022,22:53,SPECI,Normal,300,16.0,24.0,,9999.0,,-16.0,-22.0,30.26,1027.9,,,,,,,,,,,,,,,,2000.0,1600.0,SCT,1600.0,BKN,2000.0,,,,
KRDR,03-11-2022,22:45,SPECI,Normal,290,16.0,22.0,,9999.0,,-16.0,-21.0,30.25,1027.5,,,,,,,,,,,,,,,,1400.0,1600.0,BKN,1600.0,OVC,2000.0,,,,
KRDR,03-11-2022,22:35,SPECI,Normal,300,15.0,22.0,,9999.0,,-16.0,-21.0,30.26,1027.8,,,,,,,,,,,,,,,,1400.0,1400.0,BKN,1400.0,BKN,2000.0,,,,
KRDR,03-11-2022,22:25,SPECI,Normal,300,18.0,24.0,,9999.0,,-16.0,-20.0,30.25,1027.5,,,,,,,,,,,,,,,,2000.0,1100.0,SCT,1100.0,BKN,2000.0,,,,
KRDR,03-11-2022,22:15,SPECI,Normal,290,17.0,24.0,,9999.0,,-15.0,-22.0,30.25,1027.5,,,,,,,,,,,,,,,,,1100.0,FEW,1100.0,SCT,2100.0,,,,
KRDR,03-11-2022,21:56,METAR,Normal,310,19.0,23.0,,9999.0,,-15.6,-22.4,30.26,1027.8,,,,,,,,,,,,,,,,,1800.0,FEW,1800.0,FEW,2400.0,,,,
KRDR,03-11-2022,21:46,SPECI,Normal,310,17.0,,,9999.0,,-16.0,-22.0,30.26,1027.8,,,,,,,,,,,,,,,,,1800.0,SCT,1800.0,SCT,2400.0,,,,
KRDR,03-11-2022,20:56,METAR,Normal,320,15.0,,,9999.0,,-16.0,-21.8,30.25,1027.5,,,,,,,,,,,,,,,,1600.0,1600.0,BKN,1600.0,OVC,2300.0,,,,
KRDR,03-11-2022,19:56,METAR,Normal,320,19.0,,310/26KTS,9999.0,,-16.8,-22.8,30.26,1027.8,,,,,,,,,,,,,,,,1800.0,1800.0,OVC,1800.0,,,,,,
KRDR,03-11-2022,19:06,SPECI,Normal,310,17.0,24.0,,9999.0,,-17.0,-23.0,30.26,1027.8,,,,,,,,,,,,,,,,1700.0,900.0,FEW,900.0,BKN,1900.0,OVC,2600.0,,
KRDR,03-11-2022,18:56,METAR,Normal,310,16.0,,,9999.0,,-17.5,-22.9,30.27,1028.2,,,,,,,,,,,,,,,,2000.0,900.0,FEW,900.0,SCT,1400.0,BKN,2000.0,OVC,2600.0
KRDR,03-11-2022,18:47,SPECI,Normal,310,15.0,,,9999.0,,-18.0,-23.0,30.27,1028.2,,,,,,,,,,,,,,,,1800.0,900.0,FEW,900.0,BKN,1800.0,OVC,2200.0,,
KRDR,03-11-2022,18:37,SPECI,Normal,310,17.0,24.0,,9999.0,,-18.0,-23.0,30.27,1028.2,,,,,,,,,,,,,,,,1600.0,1600.0,BKN,1600.0,BKN,2200.0,OVC,2800.0,,
KRDR,03-11-2022,18:27,SPECI,Normal,320,20.0,25.0,,9999.0,,-18.0,-24.0,30.27,1028.2,,,,,,,,,,,,,,,,1600.0,700.0,FEW,700.0,SCT,1500.0,OVC,2200.0,,
KRDR,03-11-2022,18:07,SPECI,Normal,320,18.0,23.0,,9999.0,,-18.0,-23.0,30.27,1028.2,,,,,,,,,,,,,,,,1600.0,700.0,FEW,700.0,BKN,1600.0,BKN,2100.0,,
KRDR,03-11-2022,17:56,METAR,Normal,310,19.0,,,9999.0,,-18.0,-23.6,30.26,1027.8,,,,,,,,,,,,,,,,1700.0,1700.0,BKN,1700.0,OVC,2400.0,,,,
KRDR,03-11-2022,17:16,SPECI,Normal,310,16.0,23.0,,9999.0,,-19.0,-24.0,30.26,1027.8,,,,,,,,,,,,,,,,1200.0,1200.0,BKN,1200.0,OVC,1800.0,,,,
KRDR,03-11-2022,16:55,METAR,Normal,320,18.0,,320/27KTS,9999.0,,-18.9,-24.2,30.25,1027.5,,,,,,,,,,,,,,,,1000.0,1000.0,SCT,1000.0,SCT,1500.0,,,,
KRDR,03-11-2022,15:57,METAR,Normal,320,23.0,26.0,330/29KTS,9999.0,,-19.0,-24.7,30.22,1026.4,,,,,,,,,,,,,,,,,1600.0,SCT,1600.0,,,,,,
KRDR,03-11-2022,14:55,METAR,Normal,320,22.0,,290/27KTS,9999.0,,-19.2,-24.4,30.19,1025.4,,,,,,,,,,,,,,,,5000.0,1300.0,SCT,1300.0,BKN,5000.0,,,,
KRDR,03-11-2022,13:56,METAR,Normal,310,16.0,21.0,,9999.0,,-20.1,-24.9,30.14,1023.6,,,,,,,,,,,,,,,,,2000.0,FEW,2000.0,,,,,,
KRDR,03-11-2022,12:56,METAR,Normal,310,17.0,24.0,,9999.0,,-20.1,-24.7,30.11,1022.4,,,,,,,,,,,,,,,,,1300.0,SCT,1300.0,,,,,,
KRDR,03-11-2022,12:46,SPECI,Normal,310,17.0,25.0,,9999.0,,-20.0,-25.0,30.11,1022.4,,,,,,,,,,,,,,,,1400.0,1400.0,BKN,1400.0,,,,,,
KRDR,03-11-2022,12:16,SPECI,Normal,310,16.0,22.0,,9999.0,,-20.0,-24.0,30.08,1021.2,,,,,,,,,,,,,,,,,1600.0,SCT,1600.0,,,,,,
KRDR,03-11-2022,11:56,METAR,Normal,300,16.0,,,9999.0,,-19.7,-24.3,30.06,1020.6,,,,,,,,,,,,,TRACE,,,1500.0,1500.0,OVC,1500.0,,,,,,
KRDR,03-11-2022,11:47,SPECI,Normal,310,17.0,22.0,,9999.0,,-20.0,-24.0,30.06,1020.6,,,,,,,,,,,,,,,,1500.0,1500.0,OVC,1500.0,,,,,,
KRDR,03-11-2022,11:16,SPECI,Normal,310,16.0,,,9999.0,,-19.0,-24.0,30.05,1020.2,,,,,,,,,,,,,,,,1400.0,1400.0,OVC,1400.0,,,,,,
KRDR,03-11-2022,10:56,METAR,Normal,300,19.0,,310/27KTS,9999.0,,-19.1,-23.9,30.03,1019.5,,,,,,,,,,,,,,,,,1700.0,SCT,1700.0,,,,,,
KRDR,03-11-2022,10:40,SPECI,Normal,310,18.0,24.0,,9999.0,,-19.0,-24.0,30.03,1019.5,,,,,,,,,,,,,,,,,1900.0,SCT,1900.0,,,,,,
KRDR,03-11-2022,10:36,SPECI,Normal,310,18.0,27.0,,9999.0,,-19.0,-24.0,30.03,1019.5,,,,,,,,,,,,,,,,1900.0,1900.0,BKN,1900.0,,,,,,
KRDR,03-11-2022,09:56,METAR,Normal,300,15.0,21.0,,9999.0,,-18.7,-23.5,30.01,1018.8,,,,,,,,,,,,,,,,,4300.0,FEW,4300.0,,,,,,
KRDR,03-11-2022,09:27,SPECI,Normal,300,16.0,22.0,,9999.0,,-18.0,-23.0,30.00,1018.5,,,,,,,,,,,,,,,Clear,72000.0,,,,,,,,,
KRDR,03-11-2022,09:00,METAR,Normal,300,17.0,23.0,290/28KTS,9999.0,,-18.1,-22.6,29.99,1018.2,,,,,,,,,,,,,,,,1100.0,1100.0,BKN,1100.0,,,,,,
KRDR,03-11-2022,08:36,SPECI,Normal,300,19.0,24.0,,9999.0,,-18.0,-22.0,29.98,1017.8,,,,,,,,,,,,,,,,1000.0,1000.0,OVC,1000.0,,,,,,
KRDR,03-11-2022,07:56,METAR,Normal,310,17.0,25.0,270/31KTS,9999.0,,-17.4,-21.1,29.97,1017.5,,,,,,,,,,,TRACE,,,,,900.0,900.0,OVC,900.0,,,,,,
KRDR,03-11-2022,07:48,SPECI,Normal,300,16.0,24.0,,9999.0,,-17.0,-21.0,29.96,1017.1,,,,,,,,,,,,,,,,900.0,900.0,OVC,900.0,,,,,,
KRDR,03-11-2022,07:37,SPECI,Normal,300,24.0,29.0,,9999.0,,-17.0,-21.0,29.95,1016.9,,,,,,,,,,,,,,,,900.0,900.0,OVC,900.0,,,,,,
KRDR,03-11-2022,07:26,SPECI,Normal,300,20.0,27.0,,9999.0,,-17.0,-21.0,29.95,1016.9,,,,,,,,,,,,,,,,900.0,900.0,OVC,900.0,,,,,,
KRDR,03-11-2022,06:56,METAR,Normal,300,23.0,28.0,280/35KTS,9999.0,,-16.8,-20.7,29.94,1016.5,,,,,,,,,,,TRACE,,,,,1000.0,1000.0,BKN,1000.0,,,,,,
KRDR,03-11-2022,06:16,SPECI,Normal,310,23.0,34.0,,9999.0,,-16.0,-20.0,29.92,,,,,,,,,,,,,,,,,1000.0,1100.0,OVC,1100.0,,,,,,
KRDR,03-11-2022,05:56,METAR,Normal,300,27.0,33.0,280/35KTS,9999.0,,-15.9,-19.8,29.91,,,,,,,,,,,,TRACE,,TRACE,,,900.0,900.0,OVC,900.0,,,,,,
KRDR,03-11-2022,05:44,SPECI,Normal,300,26.0,33.0,,6400.0,,-16.0,-20.0,29.90,,,,,,,,,,,,,,,,,700.0,900.0,BKN,900.0,OVC,1500.0,,,,
KRDR,03-11-2022,05:36,SPECI,Normal,300,24.0,32.0,,9999.0,Blowing or Drifting Snow or Sand,-15.0,-19.0,29.90,,27,,,,,,,,,,,,,,,700.0,700.0,BKN,700.0,BKN,1300.0,,,,
KRDR,03-11-2022,05:28,SPECI,Normal,310,19.0,32.0,,9999.0,,-16.0,-20.0,29.90,1015.3,,,,,,,,,,,,,,,,1000.0,1100.0,BKN,1100.0,BKN,1600.0,,,,
KRDR,03-11-2022,05:24,SPECI,Normal,310,23.0,34.0,,8000.0,,-16.0,-20.0,29.90,1015.3,,,,,,,,,,,,,,,,1000.0,1100.0,BKN,1100.0,BKN,1600.0,,,,
KRDR,03-11-2022,05:17,SPECI,Normal,300,24.0,34.0,,9999.0,,-15.0,-19.0,29.90,1015.2,,,,,,,,,,,,,,,,1000.0,1300.0,OVC,1300.0,,,,,,
KRDR,03-11-2022,05:07,SPECI,Normal,300,24.0,34.0,,9999.0,,-15.0,-19.0,29.89,,,,,,,,,,,,,,,,,1000.0,1000.0,BKN,1000.0,OVC,1500.0,,,,
KRDR,03-11-2022,05:06,SPECI,Normal,300,23.0,34.0,,9999.0,,-15.0,-19.0,29.89,,,,,,,,,,,,,,,,,1000.0,1200.0,OVC,1200.0,,,,,,
KRDR,03-11-2022,04:56,METAR,Normal,300,25.0,34.0,300/36KTS,3600.0,,-14.7,-18.7,29.88,,,,,,,,,,,,TRACE,,,,,1100.0,1100.0,BKN,1100.0,BKN,1800.0,,,,
KRDR,03-11-2022,04:55,SPECI,Normal,300,26.0,34.0,,3600.0,,-15.0,-19.0,29.88,,,,,,,,,,,,,,,,,1100.0,1100.0,BKN,1100.0,BKN,1800.0,,,,
KRDR,03-11-2022,04:54,SPECI,Normal,310,27.0,34.0,,4000.0,Blowing or Drifting Snow or Sand,-15.0,-18.0,29.88,,27,,,,,,,,,,,,,,,1100.0,1100.0,BKN,1100.0,BKN,1800.0,,,,
KRDR,03-11-2022,04:53,SPECI,Normal,310,26.0,34.0,,4000.0,Blowing or Drifting Snow or Sand,-15.0,-18.0,29.88,,27,,,,,,,,,,,,,,,1200.0,1200.0,BKN,1200.0,BKN,1800.0,,,,
KRDR,03-11-2022,04:43,SPECI,Normal,300,25.0,36.0,,9999.0,Blowing or Drifting Snow or Sand,-14.0,-18.0,29.88,,27,,,,,,,,,,,,,,,1200.0,1200.0,BKN,1200.0,,,,,,
KRDR,03-11-2022,04:40,SPECI,Normal,300,28.0,36.0,,9999.0,,-14.0,-18.0,29.87,,,,,,,,,,,,,,,,,1400.0,1400.0,BKN,1400.0,,,,,,
KRDR,03-11-2022,04:30,SPECI,Normal,300,20.0,32.0,,9999.0,,-14.0,-19.0,29.87,,,,,,,,,,,,,,,,,,1600.0,FEW,1600.0,,,,,,
KRDR,03-11-2022,04:28,SPECI,Normal,300,23.0,32.0,,9999.0,,-14.0,-19.0,29.87,,,,,,,,,,,,,,,,Clear,72000.0,,,,,,,,,
KRDR,03-11-2022,04:26,SPECI,Normal,300,23.0,32.0,,9999.0,,-14.0,-19.0,29.87,,,,,,,,,,,,,,,,Clear,72000.0,,,,,,,,,
KRDR,03-11-2022,03:56,METAR,Normal,300,26.0,32.0,290/33KTS,9999.0,,-13.6,-18.5,29.86,,,,,,,,,,,,TRACE,,,,Clear,72000.0,,,,,,,,,
KRDR,03-11-2022,03:44,SPECI,Normal,310,22.0,30.0,,9999.0,,-13.0,-18.0,29.86,,,,,,,,,,,,,,,,Clear,72000.0,,,,,,,,,
KRDR,03-11-2022,03:42,SPECI,Normal,310,24.0,30.0,,9999.0,,-13.0,-18.0,29.85,,,,,,,,,,,,,,,,Clear,72000.0,,,,,,,,,
KRDR,03-11-2022,02:56,METAR,Normal,290,22.0,31.0,290/35KTS,9999.0,,-12.1,-16.3,29.81,,,,,,,,,,,,TRACE,TRACE,,,Clear,72000.0,,,,,,,,,
KRDR,03-11-2022,02:32,SPECI,Normal,300,20.0,27.0,,9999.0,,-12.0,-16.0,29.81,,,,,,,,,,,,,,,,Clear,72000.0,,,,,,,,,
KRDR,03-11-2022,02:23,SPECI,Normal,300,22.0,31.0,,9999.0,,-11.0,-16.0,29.80,,,,,,,,,,,,,,,,,,1000.0,FEW,1000.0,SCT,2200.0,,,,
KRDR,03-11-2022,02:13,SPECI,Normal,300,20.0,35.0,,8000.0,,-11.0,-15.0,29.80,,,,,,,,,,,,,,,,,1100.0,1100.0,SCT,1100.0,BKN,2200.0,,,,
KRDR,03-11-2022,02:03,SPECI,Normal,300,26.0,35.0,,6400.0,Blowing or Drifting Snow or Sand,-10.0,-14.0,29.79,,27,,,,,,,,,,,,,,,1100.0,1100.0,BKN,1100.0,OVC,2200.0,,,,
KRDR,03-11-2022,02:00,SPECI,Normal,290,23.0,31.0,,9999.0,Blowing or Drifting Snow or Sand,-10.0,-14.0,29.79,,27,,,,,,,,,,,,,,,1100.0,1200.0,BKN,1200.0,,,,,,
KRDR,03-11-2022,01:56,METAR,Normal,300,21.0,31.0,270/33KTS,9999.0,,-10.4,-13.7,29.79,,,,,,,,,,,,TRACE,,,,,1100.0,1200.0,BKN,1200.0,OVC,6500.0,,,,
KRDR,03-11-2022,01:52,SPECI,Normal,300,20.0,29.0,,9999.0,,-10.0,-14.0,29.79,,,,,,,,,,,,,,,,,1200.0,1200.0,BKN,1200.0,OVC,6500.0,,,,
KRDR,03-11-2022,01:47,SPECI,Normal,290,21.0,29.0,,8000.0,Blowing or Drifting Snow or Sand,-10.0,-13.0,29.79,,27,,,,,,,,,,,,,,,1200.0,1200.0,BKN,1200.0,OVC,6500.0,,,,
KRDR,03-11-2022,01:46,SPECI,Normal,290,21.0,29.0,,8000.0,Light Snow,-10.0,-13.0,29.79,,71,,,,,,,,,,,,,,,1200.0,1200.0,BKN,1200.0,BKN,6500.0,OVC,8000.0,,
KRDR,03-11-2022,01:45,SPECI,Normal,290,22.0,29.0,,6400.0,Blowing or Drifting Snow or Sand,-10.0,-13.0,29.78,,27,,,,,,,,,,,,,,,7000.0,1300.0,SCT,1300.0,BKN,7000.0,OVC,8000.0,,
KRDR,03-11-2022,01:44,SPECI,Normal,290,24.0,29.0,,8000.0,Light Snow,-10.0,-13.0,29.78,,71,,,,,,,,,,,,,,,7000.0,1300.0,SCT,1300.0,BKN,7000.0,OVC,8000.0,,
KRDR,03-11-2022,01:42,SPECI,Normal,290,22.0,29.0,,8000.0,Blowing or Drifting Snow or Sand,-10.0,-13.0,29.79,,27,,,,,,,,,,,,,,,6500.0,1300.0,SCT,1300.0,BKN,6500.0,BKN,8000.0,,
KRDR,03-11-2022,01:40,SPECI,Normal,290,24.0,29.0,,8000.0,,-10.0,-13.0,29.78,,,,,,,,,,,,,,,,,6500.0,1300.0,FEW,1300.0,BKN,6500.0,BKN,8000.0,,
KRDR,03-11-2022,01:30,SPECI,Normal,290,22.0,30.0,,3200.0,,-10.0,-13.0,29.78,,,,,,,,,,,,,,,,,6500.0,700.0,FEW,700.0,SCT,1300.0,OVC,6500.0,,
KRDR,03-11-2022,01:28,SPECI,Normal,290,24.0,32.0,,2800.0,Blowing or Drifting Snow or Sand,-10.0,-12.0,29.78,,27,,,,,,,,,,,,,,,6000.0,700.0,FEW,700.0,SCT,1300.0,OVC,6000.0,,
KRDR,03-11-2022,01:18,SPECI,Normal,290,26.0,32.0,,3600.0,Blowing or Drifting Snow or Sand,-9.0,-12.0,29.77,,27,,,,,,,,,,,,,,,800.0,900.0,SCT,900.0,BKN,1500.0,OVC,6000.0,,
KRDR,03-11-2022,01:16,SPECI,Normal,290,25.0,30.0,,4000.0,Light Snow,-9.0,-12.0,29.76,,71,,,,,,,,,,,,,,,800.0,900.0,SCT,900.0,BKN,1500.0,BKN,4700.0,OVC,6000.0
KRDR,03-11-2022,01:15,SPECI,Normal,290,21.0,30.0,,4000.0,,-9.0,-12.0,29.77,,,,,,,,,,,,,,,,,800.0,700.0,FEW,700.0,BKN,1300.0,BKN,4000.0,OVC,6000.0
KRDR,03-11-2022,01:12,SPECI,Normal,290,25.0,30.0,,3200.0,Light Snow,-8.0,-11.0,29.76,,71,,,,,,,,,,,,,,,800.0,900.0,SCT,900.0,BKN,1500.0,BKN,3700.0,OVC,5500.0
KRDR,03-11-2022,01:10,SPECI,Normal,290,25.0,30.0,,3200.0,Blowing or Drifting Snow or Sand,-8.0,-11.0,29.76,,27,,,,,,,,,,,,,,,800.0,800.0,BKN,800.0,BKN,1400.0,BKN,3500.0,,
KRDR,03-11-2022,01:04,SPECI,Normal,300,22.0,31.0,,2200.0,Light Snow,-8.0,-10.0,29.77,,71,,,,,,,,,,,,,,,800.0,200.0,FEW,200.0,BKN,800.0,BKN,1400.0,OVC,3400.0
KRDR,03-11-2022,01:01,SPECI,Normal,300,20.0,32.0,,1800.0,Blowing or Drifting Snow or Sand,-8.0,-10.0,29.76,,27,,,,,,,,,,,,,,,3100.0,200.0,FEW,200.0,SCT,900.0,OVC,3100.0,,
KRDR,03-11-2022,00:56,METAR,Normal,290,25.0,32.0,290/32KTS,1200.0,Blowing or Drifting Snow or Sand,-7.2,-9.5,29.75,,27,,,,,,,,,,TRACE,,,,,2000.0,200.0,FEW,200.0,SCT,900.0,OVC,2900.0,,
KRDR,03-11-2022,00:54,SPECI,Normal,290,25.0,32.0,,1200.0,Blowing or Drifting Snow or Sand,-7.0,-9.0,29.75,,27,,,,,,,,,,,,,,,2000.0,200.0,FEW,200.0,SCT,900.0,OVC,2900.0,,
KRDR,03-11-2022,00:50,SPECI,Normal,290,26.0,30.0,,1800.0,Light Snow,-7.0,-9.0,29.74,,71,,,,,,,,,,,,,,,2000.0,200.0,FEW,200.0,SCT,1200.0,OVC,2300.0,,
KRDR,03-11-2022,00:47,SPECI,Normal,290,25.0,30.0,,2000.0,Blowing or Drifting Snow or Sand,-6.0,-8.0,29.74,,27,,,,,,,,,,,,,,,,200.0,FEW,200.0,SCT,1200.0,,,,
KRDR,03-11-2022,00:43,SPECI,Normal,280,25.0,30.0,,2000.0,Light Snow,-6.0,-8.0,29.74,,71,,,,,,,,,,,,,,,2200.0,200.0,FEW,200.0,FEW,1200.0,OVC,2600.0,,
KRDR,03-11-2022,00:38,SPECI,Normal,290,20.0,26.0,,1000.0,Light Snow,-6.0,-8.0,29.74,,71,,,,,,,,,,,,,,,2200.0,200.0,FEW,200.0,OVC,2600.0,,,,
KRDR,03-11-2022,00:28,SPECI,Normal,270,20.0,30.0,,9999.0,Light Snow,-5.0,-10.0,29.73,,71,,,,,,,,,,,,,,,3000.0,200.0,FEW,200.0,BKN,3000.0,OVC,3900.0,,
KRDR,03-11-2022,00:27,SPECI,Normal,260,21.0,30.0,,9999.0,Light Snow,-4.0,-11.0,29.73,,71,,,,,,,,,,,,,,,3000.0,3000.0,BKN,3000.0,BKN,3900.0,OVC,6000.0,,
KRDR,03-11-2022,00:23,SPECI,Normal,240,15.0,,,9999.0,Light Snow,-4.0,-11.0,29.73,,71,,,,,,,,,,,,,,,3500.0,2900.0,FEW,2900.0,BKN,3500.0,BKN,4200.0,BKN,6000.0
KRDR,03-11-2022,00:20,SPECI,Normal,230,13.0,24.0,,9999.0,,-4.0,-11.0,29.73,,,,,,,,,,,,,,,,,3900.0,2800.0,FEW,2800.0,BKN,3900.0,BKN,6000.0,OVC,7000.0
KRDR,03-10-2022,23:56,METAR,Normal,210,12.0,,,9999.0,,-5.2,-11.8,29.73,,,,,,,,,,,,,,,,,7500.0,6000.0,SCT,6000.0,BKN,7500.0,OVC,9600.0,,
KRDR,03-10-2022,22:56,METAR,Normal,210,19.0,25.0,190/27KTS,9999.0,,-5.1,-12.5,29.77,,,,,,,,,,,,,,,,,9500.0,7000.0,FEW,7000.0,BKN,9600.0,,,,
KRDR,03-10-2022,21:56,METAR,Normal,210,20.0,26.0,190/29KTS,9999.0,,-5.9,-13.1,29.81,,,,,,,,,,,,,,,,,9500.0,9500.0,BKN,9600.0,BKN,11000.0,OVC,13000.0,,
KRDR,03-10-2022,20:56,METAR,Normal,220,17.0,,210/28KTS,9999.0,,-6.5,-13.2,29.86,,,,,,,,,,,,,,,,,12000.0,9500.0,SCT,9600.0,BKN,12000.0,,,,
KRDR,03-10-2022,19:56,METAR,Normal,210,19.0,26.0,210/27KTS,9999.0,,-7.8,-14.2,29.90,,,,,,,,,,,,,,,,,18000.0,10000.0,SCT,10000.0,SCT,13000.0,BKN,18000.0,,
KRDR,03-10-2022,18:56,METAR,Normal,210,17.0,26.0,180/26KTS,9999.0,,-9.1,-15.3,29.95,1016.9,,,,,,,,,,,,,,,,15000.0,12000.0,SCT,12000.0,BKN,15000.0,,,,
KRDR,03-10-2022,17:56,METAR,Normal,200,17.0,,,9999.0,,-10.5,-17.0,30.00,1018.7,,,,,,,,,,,,,,,,,19000.0,FEW,19000.0,,,,,,
KRDR,03-10-2022,16:57,METAR,Normal,220,14.0,,,9999.0,,-12.0,-18.0,30.04,1020.0,,,,,,,,,,,,,,,,,8000.0,FEW,8000.0,,,,,,
KRDR,03-10-2022,16:56,METAR,Normal,220,13.0,,,9999.0,,-12.2,-18.0,30.04,1020.0,,,,,,,,,,,,,,,,,8000.0,FEW,8000.0,,,,,,
KRDR,03-10-2022,15:56,METAR,Normal,210,11.0,,,9999.0,,-15.1,-21.2,30.07,1021.3,,,,,,,,,,,,,,,,,8000.0,FEW,8000.0,,,,,,
KRDR,03-10-2022,14:55,METAR,Normal,220,9.0,,,9999.0,,-17.0,-22.0,30.09,1021.9,,,,,,,,,,,,,,,Clear,72000.0,,,,,,,,,
KRDR,03-10-2022,13:55,METAR,Normal,230,9.0,,,9999.0,,-19.0,-24.0,30.11,1022.7,,,,,,,,,,,,,,,Clear,72000.0,,,,,,,,,
KRDR,03-10-2022,12:59,METAR,Normal,230,6.0,,,9999.0,,-20.0,-24.0,30.13,1023.4,,,,,,,,,,,,,,,Clear,72000.0,,,,,,,,,
KRDR,03-10-2022,11:58,METAR,Normal,260,12.0,,,9999.0,,-19.0,-23.0,30.13,1023.3,,,,,,,,,,,,,,,Clear,72000.0,,,,,,,,,
KRDR,03-10-2022,10:56,METAR,Normal,290,5.0,,,9999.0,,-20.0,-24.0,30.14,1023.6,,,,,,,,,,,,,,,Clear,72000.0,,,,,,,,,
KRDR,03-10-2022,09:54,METAR,Normal,280,5.0,,,9999.0,,-19.0,-23.0,30.15,1024.0,,,,,,,,,,,,,,,Clear,72000.0,,,,,,,,,
KRDR,03-10-2022,08:57,METAR,Normal,270,6.0,,,9999.0,,-19.0,-23.0,30.16,,,,,,,,,,,,,,,,Clear,72000.0,,,,,,,,,
KRDR,03-10-2022,07:57,METAR,Normal,260,6.0,,,9999.0,,-19.0,-23.0,30.18,1024.8,,,,,,,,,,,,,,,Clear,72000.0,,,,,,,,,
KRDR,03-10-2022,06:54,METAR,Normal,280,9.0,,,9999.0,,-18.0,-22.0,30.18,,,,,,,,,,,,,,,,Clear,72000.0,,,,,,,,,
KRDR,03-10-2022,05:56,METAR,Normal,270,8.0,,,9999.0,,-17.0,-22.0,30.19,1025.2,,,,,,,,,,,,,,,Clear,72000.0,,,,,,,,,
KRDR,03-10-2022,04:58,METAR,Normal,270,10.0,,,9999.0,,-17.0,-21.0,30.18,1025.0,,,,,,,,,,,,,,,Clear,72000.0,,,,,,,,,
KRDR,03-10-2022,03:54,METAR,Normal,290,12.0,,,9999.0,,-16.0,-21.0,30.18,1025.1,,,,,,,,,,,,,,,,,2500.0,FEW,2500.0,,,,,,
KRDR,03-10-2022,02:52,METAR,Normal,290,10.0,,,9999.0,,-15.0,-21.0,30.18,1024.9,,,,,,,,,,,,,,,,,2500.0,SCT,2500.0,,,,,,
KRDR,03-10-2022,01:56,METAR,Normal,290,9.0,,,9999.0,,-15.0,-20.0,30.17,,,,,,,,,,,,,,,,,,2200.0,FEW,2200.0,,,,,,
KRDR,03-10-2022,01:00,SPECI,Normal,310,11.0,,,9999.0,,-14.0,-17.0,30.16,1030.2,,,,,,,,,,,,,,,,,400.0,FEW,400.0,SCT,1000.0,,,,
KRDR,03-10-2022,00:56,METAR,Normal,310,11.0,,,9999.0,,-14.0,-17.0,30.16,1030.2,,,,,,,,,,,,,,,,,400.0,FEW,400.0,SCT,1100.0,,,,
KRDR,03-10-2022,00:39,SPECI,Normal,310,11.0,,,6400.0,Blowing or Drifting Snow or Sand,-14.0,-16.0,30.16,1030.2,27,,,,,,,,,,,,,,,300.0,300.0,BKN,300.0,BKN,1900.0,OVC,2500.0,,
KRDR,03-10-2022,00:21,SPECI,Normal,300,10.0,,,9999.0,,-13.0,-18.0,30.16,1024.3,,,,,,,,,,,,,,,,1900.0,500.0,FEW,500.0,BKN,1900.0,BKN,2400.0,,
KRDR,03-09-2022,23:56,METAR,Normal,280,12.0,,,9999.0,,-13.0,-18.0,30.16,1024.2,,,,,,,,,,,,,,,,,1900.0,FEW,1900.0,,,,,,
KRDR,03-09-2022,22:55,METAR,Normal,280,10.0,,,9999.0,,-11.8,-17.8,30.16,1024.1,,,,,,,,,,,,,,,,,3000.0,FEW,3000.0,SCT,3600.0,,,,
KRDR,03-09-2022,21:55,METAR,Normal,310,13.0,,,9999.0,,-11.4,-19.3,30.16,1024.1,,,,,,,,,,,,,,,,3700.0,3700.0,BKN,3700.0,,,,,,
KRDR,03-09-2022,20:56,METAR,Normal,310,13.0,,,9999.0,,-11.0,-17.5,30.16,1024.1,,,,,,,,,,,,,,,,3100.0,2200.0,FEW,2200.0,BKN,3100.0,OVC,4100.0,,
KRDR,03-09-2022,19:56,METAR,Normal,270,7.0,,,9999.0,,-11.6,-19.1,30.18,1024.7,,,,,,,,,,,,,,,,,3400.0,SCT,3400.0,,,,,,
KRDR,03-09-2022,18:53,METAR,Normal,320,7.0,,,9999.0,,-12.1,-20.4,30.19,1025.0,,,,,,,,,,,,,,,,3900.0,3900.0,BKN,3900.0,,,,,,
KRDR,03-09-2022,17:56,METAR,Normal,340,7.0,,,9999.0,,-12.7,-20.8,30.20,1025.4,,,,,,,,,,,,,,,,,3300.0,FEW,3300.0,SCT,5000.0,,,,
KRDR,03-09-2022,16:56,METAR,Normal,330,8.0,,,9999.0,,-13.2,-21.0,30.20,1025.4,,,,,,,,,,,,,TRACE,,,5500.0,3300.0,FEW,3300.0,SCT,4200.0,BKN,5500.0,,
KRDR,03-09-2022,15:56,METAR,Normal,330,11.0,,,9999.0,,-13.8,-21.2,30.19,1025.1,,,,,,,,,,,,,,,,5000.0,4000.0,FEW,4000.0,OVC,5000.0,,,,
KRDR,03-09-2022,14:56,METAR,Normal,300,6.0,,,9999.0,,-15.0,-21.3,30.19,1025.1,,,,,,,,,,,,,,,,4700.0,4700.0,OVC,4700.0,,,,,,
KRDR,03-09-2022,13:56,METAR,Normal,320,7.0,,,9999.0,,-16.2,-21.3,30.17,1024.4,,,,,,,,,,,,,,,,4800.0,4800.0,OVC,4800.0,,,,,,
KRDR,03-09-2022,12:56,METAR,Normal,330,9.0,,,9999.0,,-16.7,-20.9,30.17,1024.4,,,,,,,,,,,,,,,,4700.0,4700.0,OVC,4700.0,,,,,,
KRDR,03-09-2022,11:56,METAR,Normal,330,7.0,,,9999.0,,-16.6,-20.8,30.14,1023.3,,,,,,,,,,,,,TRACE,,Clear,72000.0,,,,,,,,,
KRDR,03-09-2022,10:56,METAR,Normal,330,9.0,,,9999.0,,-15.7,-20.5,30.14,1023.2,,,,,,,,,,,,,,,Clear,72000.0,,,,,,,,,
KRDR,03-09-2022,09:56,METAR,Normal,320,10.0,,,9999.0,,-15.1,-19.9,30.12,1022.4,,,,,,,,,,,,,,,Clear,72000.0,,,,,,,,,
KRDR,03-09-2022,08:56,METAR,Normal,320,13.0,,,9999.0,,-14.3,-19.1,30.11,1022.0,,,,,,,,,,,,TRACE,,,Clear,72000.0,,,,,,,,,
KRDR,03-09-2022,07:56,METAR,Normal,340,13.0,,,9999.0,,-13.5,-18.0,30.10,,,,,,,,,,,,,,,,Clear,72000.0,,,,,,,,,
KRDR,03-09-2022,06:56,METAR,Normal,330,15.0,,,9999.0,,-13.0,-16.9,30.09,,,,,,,,,,,,TRACE,,,,,,3300.0,SCT,3300.0,,,,,,
KRDR,03-09-2022,06:55,SPECI,Normal,340,15.0,,,9999.0,,-13.0,-17.0,30.09,,,,,,,,,,,,,,,,,,3300.0,SCT,3300.0,,,,,,
KRDR,03-09-2022,05:56,METAR,Normal,330,15.0,,,9999.0,Light Snow,-12.7,-16.1,30.08,1021.0,71,,,,,,,,,,TRACE,,.01 IN,,,700.0,700.0,BKN,700.0,OVC,1300.0,,,,
KRDR,03-09-2022,04:53,METAR,Normal,330,16.0,,,6400.0,Light Snow/Blowing or Drifting Snow or Sand,-12.0,-14.8,30.07,1020.6,71,27,,,,,,,,,TRACE,,,,,500.0,500.0,OVC,500.0,,,,,,
KRDR,03-09-2022,03:58,METAR,Normal,330,16.0,,,9999.0,Light Snow,-11.7,-15.1,30.06,1020.2,71,,,,,,,,,,TRACE,,,,,,1200.0,SCT,1200.0,,,,,,
KRDR,03-09-2022,02:56,METAR,Normal,360,16.0,,,9999.0,,-11.0,-13.6,30.03,1019.2,,,,,,,,,,,TRACE,TRACE,,,,200.0,200.0,OVC,200.0,,,,,,
KRDR,03-09-2022,01:57,METAR,Normal,350,10.0,,,4800.0,Light Snow,-9.4,-11.5,30.00,1018.1,71,,,,,,,,,,TRACE,,,,,200.0,200.0,OVC,200.0,,,,,,
KRDR,03-09-2022,00:55,METAR,Normal,360,10.0,,,2200.0,Light Snow,-8.8,-10.6,29.97,1017.1,71,,,,,,,,,,TRACE,,,,,200.0,200.0,OVC,200.0,,,,,,
KRDR,03-08-2022,23:58,METAR,Normal,310,17.0,,,9999.0,Light Snow,-7.3,-10.3,29.94,1016.0,71,,,,,,,,,,TRACE,,TRACE,,,700.0,700.0,BKN,700.0,OVC,1300.0,,,,
KRDR,03-08-2022,22:54,METAR,Normal,310,16.0,21.0,,9999.0,Light Snow,-6.6,-9.5,29.92,1015.2,71,,,,,,,,,,TRACE,,,,,800.0,800.0,OVC,800.0,,,,,,
KRDR,03-08-2022,22:31,SPECI,Normal,300,15.0,22.0,,9999.0,Light Snow,-6.0,-9.0,29.91,1014.8,71,,,,,,,,,,,,,,,700.0,700.0,BKN,700.0,OVC,1000.0,,,,
KRDR,03-08-2022,21:58,METAR,Normal,300,17.0,,280/31KTS,3200.0,Light Snow,-6.1,-8.4,29.90,1014.4,71,,,,,,,,,,TRACE,,,,,400.0,400.0,BKN,400.0,OVC,900.0,,,,
KRDR,03-08-2022,20:57,METAR,Normal,310,20.0,25.0,310/28KTS,9999.0,Light Snow,-5.0,-8.0,29.87,1013.2,71,,,,,,,,,,TRACE,TRACE,,,,1300.0,300.0,FEW,300.0,BKN,1300.0,OVC,3600.0,,
KRDR,03-08-2022,20:30,SPECI,Normal,300,20.0,27.0,,8000.0,Light Snow,-4.0,-8.0,29.86,1013.1,71,,,,,,,,,,,,,,,1500.0,700.0,FEW,700.0,BKN,1500.0,BKN,2000.0,OVC,2600.0
KRDR,03-08-2022,19:54,METAR,Normal,310,18.0,25.0,280/27KTS,9999.0,Light Snow,-4.0,-8.0,29.86,1012.9,71,,,,,,,,,,TRACE,,,,,2000.0,1400.0,SCT,1400.0,BKN,2000.0,OVC,2900.0,,
KRDR,03-08-2022,19:34,SPECI,Normal,290,18.0,25.0,,1600.0,Light Snow,-4.0,-8.0,29.86,1012.9,71,,,,,,,,,,,,,,,2800.0,1900.0,SCT,1900.0,BKN,2800.0,OVC,20000.0,,
KRDR,03-08-2022,18:55,METAR,Normal,300,16.0,,270/26KTS,9999.0,Light Snow,-4.0,-8.0,29.85,,71,,,,,,,,,,TRACE,,,,,2000.0,1300.0,FEW,1300.0,BKN,2000.0,OVC,3000.0,,
KRDR,03-08-2022,17:56,METAR,Normal,290,20.0,24.0,,9999.0,,-4.2,-8.7,29.84,1012.3,,,,,,,,,,,TRACE,,TRACE,,,1400.0,1000.0,SCT,1000.0,SCT,1400.0,OVC,2300.0,,
KRDR,03-08-2022,17:50,SPECI,Normal,290,16.0,,,9999.0,,-4.0,-9.0,29.84,1012.3,,,,,,,,,,,,,,,,1400.0,800.0,FEW,800.0,SCT,1400.0,OVC,2300.0,,
KRDR,03-08-2022,17:43,SPECI,Normal,290,17.0,,,9999.0,Light Snow,-4.0,-9.0,29.84,1012.3,71,,,,,,,,,,,,,,,1600.0,800.0,FEW,800.0,SCT,1400.0,OVC,2300.0,,
KRDR,03-08-2022,17:33,SPECI,Normal,290,20.0,24.0,,9999.0,Light Snow,-4.0,-9.0,29.84,1012.3,71,,,,,,,,,,,,,,,1400.0,1000.0,FEW,1000.0,BKN,1800.0,OVC,2300.0,,
KRDR,03-08-2022,17:32,SPECI,Normal,290,21.0,24.0,,9999.0,Light Snow,-4.0,-9.0,29.84,1012.3,71,,,,,,,,,,,,,,,1800.0,1200.0,FEW,1200.0,BKN,2000.0,OVC,2500.0,,
KRDR,03-08-2022,17:16,SPECI,Normal,280,21.0,26.0,,9999.0,,-4.0,-9.0,29.83,1012.0,,,,,,,,,,,,,,,,2000.0,2000.0,BKN,2000.0,BKN,2800.0,OVC,9100.0,,
KRDR,03-08-2022,16:56,METAR,Normal,280,18.0,28.0,280/28KTS,9999.0,,-4.8,-9.3,29.83,1012.1,,,,,,,,,,,,,,,,9000.0,9000.0,BKN,9100.0,,,,,,
KRDR,03-08-2022,15:56,METAR,Normal,290,19.0,28.0,290/28KTS,9999.0,,-5.0,-9.5,29.82,1011.7,,,,,,,,,,,,,,,,,1400.0,FEW,1400.0,,,,,,
KRDR,03-08-2022,14:56,METAR,Normal,290,16.0,27.0,280/27KTS,9999.0,,-5.1,-9.6,29.81,1011.4,,,,,,,,,,,,,,,Clear,72000.0,,,,,,,,,
KRDR,03-08-2022,13:56,METAR,Normal,270,16.0,23.0,260/27KTS,9999.0,,-5.2,-9.5,29.81,1011.4,,,,,,,,,,,,,,,Clear,72000.0,,,,,,,,,
KRDR,03-08-2022,12:56,METAR,Normal,280,16.0,24.0,,9999.0,,-5.3,-9.4,29.80,1011.1,,,,,,,,,,,,,,,Clear,72000.0,,,,,,,,,
KRDR,03-08-2022,11:56,METAR,Normal,280,22.0,28.0,,9999.0,,-4.3,-8.6,29.79,1010.7,,,,,,,,,,,,,,,,,4500.0,FEW,4500.0,,,,,,
KRDR,03-08-2022,10:56,METAR,Normal,280,17.0,24.0,280/26KTS,9999.0,,-2.9,-7.2,29.79,1010.6,,,,,,,,,,,,,,,,,4900.0,FEW,4900.0,,,,,,
KRDR,03-08-2022,10:09,SPECI,Normal,280,19.0,26.0,,9999.0,,0.0,-5.0,29.77,1009.8,,,,,,,,,,,,,,,,3000.0,3000.0,BKN,3000.0,BKN,3700.0,OVC,7000.0,,
KRDR,03-08-2022,09:56,METAR,Normal,280,14.0,22.0,,9999.0,,-0.2,-6.2,29.77,1009.8,,,,,,,,,,,,,,,,6500.0,3300.0,SCT,3300.0,OVC,6500.0,,,,
KRDR,03-08-2022,09:17,SPECI,Normal,270,17.0,26.0,,9999.0,,1.0,-3.0,29.77,1009.8,,,,,,,,,,,,,,,,6000.0,6000.0,OVC,6000.0,,,,,,
KRDR,03-08-2022,08:56,METAR,Normal,250,13.0,,,9999.0,,0.0,-3.0,29.76,1009.5,,,,,,,,,,,,,,,,5500.0,5500.0,OVC,5500.0,,,,,,
KRDR,03-08-2022,07:56,METAR,Normal,250,10.0,,,9999.0,,-1.1,-4.1,29.78,1010.2,,,,,,,,,,,,,,,Clear,72000.0,,,,,,,,,
KRDR,03-08-2022,06:56,METAR,Normal,260,12.0,,,9999.0,,0.5,-3.6,29.78,1010.2,,,,,,,,,,,,,,,,4600.0,4600.0,OVC,4600.0,,,,,,
KRDR,03-08-2022,05:56,METAR,Normal,240,8.0,,,9999.0,,-1.4,-5.3,29.79,1010.6,,,,,,,,,,,,,,,,5000.0,5000.0,BKN,5000.0,OVC,6000.0,,,,
KRDR,03-08-2022,04:56,METAR,Normal,210,15.0,,,9999.0,,-2.3,-6.5,29.80,1011.1,,,,,,,,,,,,,,,,4300.0,4300.0,BKN,4300.0,BKN,6500.0,OVC,10000.0,,
KRDR,03-08-2022,03:56,METAR,Normal,190,15.0,,,9999.0,,-3.4,-6.9,29.82,1011.9,,,,,,,,,,,,,,,,10000.0,8000.0,FEW,8000.0,BKN,10000.0,,,,
KRDR,03-08-2022,02:56,METAR,Normal,190,11.0,,,9999.0,,-4.9,-7.8,29.86,1013.3,,,,,,,,,,,,,,,,,14000.0,FEW,14000.0,,,,,,
KRDR,03-08-2022,01:56,METAR,Normal,170,10.0,,,9999.0,,-5.1,-7.2,29.90,1014.8,,,,,,,,,,,,,,,,,14000.0,FEW,14000.0,,,,,,
KRDR,03-08-2022,00:56,METAR,Normal,180,8.0,,,9999.0,,-5.5,-7.8,29.94,1016.2,,,,,,,,,,,,,,,,,15000.0,FEW,15000.0,,,,,,
KRDR,03-07-2022,23:56,METAR,Normal,200,8.0,,,9999.0,,-3.6,-6.6,29.97,1017.1,,,,,,,,,,,,,,,,,15000.0,FEW,15000.0,,,,,,
KRDR,03-07-2022,22:56,METAR,Normal,210,10.0,,,9999.0,,-3.3,-6.9,29.99,1017.8,,,,,,,,,,,,,,,,,20000.0,SCT,20000.0,,,,,,
KRDR,03-07-2022,21:56,METAR,Normal,220,11.0,,,9999.0,,-3.2,-6.8,30.02,1018.9,,,,,,,,,,,,,,,,,1400.0,FEW,1400.0,,,,,,
KRDR,03-07-2022,21:26,SPECI,Normal,240,7.0,,,9999.0,,-4.0,-7.0,30.03,1019.2,,,,,,,,,,,,,,,,1400.0,1400.0,BKN,1400.0,,,,,,
KRDR,03-07-2022,20:56,METAR,Normal,230,11.0,,,9999.0,,-3.9,-7.7,30.06,1020.2,,,,,,,,,,,,,,,,1600.0,1600.0,BKN,1600.0,,,,,,
KRDR,03-07-2022,20:36,SPECI,Normal,250,10.0,,,9999.0,,-4.0,-8.0,30.06,1020.2,,,,,,,,,,,,,,,,1700.0,1700.0,BKN,1700.0,,,,,,
KRDR,03-07-2022,19:56,METAR,Normal,230,8.0,,,9999.0,,-3.2,-8.1,30.07,1020.6,,,,,,,,,,,,,,,Clear,72000.0,,,,,,,,,
KRDR,03-07-2022,18:56,METAR,Normal,290,9.0,,,9999.0,,-4.6,-8.7,30.10,1021.6,,,,,,,,,,,,,,,Clear,72000.0,,,,,,,,,
KRDR,03-07-2022,17:56,METAR,Normal,290,7.0,,,9999.0,,-5.7,-9.6,30.12,1022.3,,,,,,,,,,,,,,,Clear,72000.0,,,,,,,,,
KRDR,03-07-2022,16:56,METAR,Normal,300,7.0,,,9999.0,,-8.2,-12.0,30.13,1022.8,,,,,,,,,,,,,,,Clear,72000.0,,,,,,,,,
KRDR,03-07-2022,15:56,METAR,Normal,300,13.0,,,9999.0,,-8.2,-11.9,30.14,1023.0,,,,,,,,,,,,,,,Clear,72000.0,,,,,,,,,
KRDR,03-07-2022,14:56,METAR,Normal,290,6.0,,,9999.0,,-10.0,-13.5,30.14,1023.1,,,,,,,,,,,,,,,Clear,72000.0,,,,,,,,,
KRDR,03-07-2022,13:56,METAR,Normal,290,8.0,,,9999.0,,-12.1,-14.9,30.15,1023.4,,,,,,,,,,,,,,,Clear,72000.0,,,,,,,,,
KRDR,03-07-2022,12:56,METAR,Normal,300,8.0,,,9999.0,,-12.6,-15.2,30.16,1023.8,,,,,,,,,,,,,,,Clear,72000.0,,,,,,,,,
KRDR,03-07-2022,11:56,METAR,Normal,300,9.0,,,9999.0,,-12.7,-15.3,30.16,1023.7,,,,,,,,,,,,,,,Clear,72000.0,,,,,,,,,
KRDR,03-07-2022,10:56,METAR,Normal,290,9.0,,,9999.0,,-12.8,-15.9,30.16,1023.7,,,,,,,,,,,,,,,Clear,72000.0,,,,,,,,,
KRDR,03-07-2022,09:56,METAR,Normal,300,9.0,,,9999.0,,-12.5,-15.9,30.17,1024.0,,,,,,,,,,,,,,,Clear,72000.0,,,,,,,,,
KRDR,03-07-2022,08:56,METAR,Normal,300,9.0,,,9999.0,,-12.2,-16.1,30.18,1024.3,,,,,,,,,,,,,,,Clear,72000.0,,,,,,,,,
KRDR,03-07-2022,07:56,METAR,Normal,290,9.0,,,9999.0,,-12.5,-16.4,30.19,1024.7,,,,,,,,,,,,,,,Clear,72000.0,,,,,,,,,
KRDR,03-07-2022,06:56,METAR,Normal,300,10.0,,,9999.0,,-11.3,-15.9,30.20,1025.0,,,,,,,,,,,,,,,Clear,72000.0,,,,,,,,,
KRDR,03-07-2022,05:56,METAR,Normal,300,10.0,,,9999.0,,-10.7,-15.1,30.19,1024.7,,,,,,,,,,,,,,,Clear,72000.0,,,,,,,,,
KRDR,03-07-2022,04:56,METAR,Normal,280,7.0,,,9999.0,,-11.1,-14.8,30.19,1024.7,,,,,,,,,,,,,,,Clear,72000.0,,,,,,,,,
KRDR,03-07-2022,03:56,METAR,Normal,300,9.0,,,9999.0,,-9.5,-13.3,30.19,1024.7,,,,,,,,,,,,,,,Clear,72000.0,,,,,,,,,
KRDR,03-07-2022,02:56,METAR,Normal,300,10.0,,,9999.0,,-9.1,-12.4,30.18,1024.3,,,,,,,,,,,,,,,Clear,72000.0,,,,,,,,,
KRDR,03-07-2022,01:56,METAR,Normal,310,8.0,,,9999.0,,-8.4,-11.9,30.18,1024.3,,,,,,,,,,,,,,,Clear,72000.0,,,,,,,,,
KRDR,03-07-2022,00:56,METAR,Normal,310,9.0,,,9999.0,,-7.1,-11.1,30.18,1024.2,,,,,,,,,,,,,,,Clear,72000.0,,,,,,,,,
KRDR,03-06-2022,23:56,METAR,Normal,310,10.0,,,9999.0,,-4.9,-10.1,30.17,1023.9,,,,,,,,,,,,,TRACE,,Clear,72000.0,,,,,,,,,
KRDR,03-06-2022,22:56,METAR,Normal,320,11.0,,,9999.0,,-4.9,-10.1,30.17,1023.8,,,,,,,,,,,,,TRACE,,,,4000.0,SCT,4000.0,,,,,,
KRDR,03-06-2022,21:56,METAR,Normal,310,14.0,,,9999.0,,-4.7,-9.5,30.16,1023.5,,,,,,,,,,,TRACE,,,,,2900.0,2200.0,SCT,2200.0,OVC,2900.0,,,,
KRDR,03-06-2022,21:24,SPECI,Normal,320,13.0,,,9999.0,,-5.0,-9.0,30.15,1023.1,,,,,,,,,,,,,,,,1900.0,1300.0,FEW,1300.0,BKN,1900.0,,,,
KRDR,03-06-2022,20:56,METAR,Normal,320,13.0,,,9999.0,Light Snow,-4.7,-9.0,30.15,1023.1,71,,,,,,,,,,TRACE,,,,,1200.0,400.0,SCT,400.0,BKN,1200.0,OVC,1900.0,,
KRDR,03-06-2022,19:56,METAR,Normal,310,14.0,,,9999.0,Light Snow,-5.0,-8.4,30.14,1022.8,71,,,,,,,,,,TRACE,,,,,1300.0,400.0,FEW,400.0,SCT,1000.0,BKN,1300.0,OVC,2100.0
KRDR,03-06-2022,19:51,SPECI,Normal,310,13.0,,,9999.0,Light Snow,-5.0,-9.0,30.14,1022.8,71,,,,,,,,,,,,,,,1800.0,900.0,SCT,900.0,OVC,1800.0,,,,
KRDR,03-06-2022,18:56,METAR,Normal,320,14.0,,,9999.0,,-5.1,-9.0,30.13,1022.5,,,,,,,,,,,,,,,,1300.0,500.0,FEW,500.0,BKN,1300.0,OVC,1800.0,,
KRDR,03-06-2022,17:56,METAR,Normal,330,14.0,,,9999.0,,-5.6,-9.7,30.11,1021.8,,,,,,,,,,,,,TRACE,,,1400.0,1400.0,BKN,1400.0,OVC,10000.0,,,,
KRDR,03-06-2022,16:52,METAR,Normal,330,14.0,,,9999.0,Light Snow,-6.4,-9.9,30.09,1021.1,71,,,,,,,,,,TRACE,,,,,8500.0,1500.0,FEW,1500.0,OVC,8600.0,,,,
KRDR,03-06-2022,16:50,SPECI,Normal,330,14.0,,,9999.0,,-6.0,-10.0,30.09,1021.1,,,,,,,,,,,,,,,,8500.0,1500.0,FEW,1500.0,OVC,8600.0,,,,
KRDR,03-06-2022,15:56,METAR,Normal,320,14.0,,,9999.0,Light Snow,-6.8,-10.0,30.07,1020.4,71,,,,,,,,,,TRACE,,,,,8000.0,2600.0,FEW,2600.0,BKN,8000.0,,,,
KRDR,03-06-2022,14:55,METAR,Normal,320,15.0,,,9999.0,Light Snow,-7.1,-10.3,30.05,1019.7,71,,,,,,,,,,TRACE,TRACE,,,,3400.0,1200.0,SCT,1200.0,BKN,3400.0,BKN,6000.0,,
KRDR,03-06-2022,14:00,METAR,Normal,320,14.0,,,9999.0,Light Snow,-7.2,-10.1,30.02,1018.7,71,,,,,,,,,,TRACE,,TRACE,,,8000.0,1600.0,SCT,1600.0,OVC,8000.0,,,,
KRDR,03-06-2022,13:23,SPECI,Normal,320,12.0,,,9999.0,Light Snow,-7.0,-10.0,30.01,1018.4,71,,,,,,,,,,,,,,,1600.0,1600.0,OVC,1600.0,,,,,,
KRDR,03-06-2022,13:00,METAR,Normal,320,12.0,,,9999.0,Light Snow,-7.3,-9.9,30.01,1018.4,71,,,,,,,,,,TRACE,,,,,8000.0,600.0,FEW,600.0,SCT,1400.0,OVC,8000.0,,
KRDR,03-06-2022,11:55,METAR,Normal,320,13.0,,,9999.0,Light Snow,-7.1,-9.5,29.98,1017.3,71,,,,,,,,,,TRACE,,TRACE,,,5500.0,1400.0,SCT,1400.0,OVC,5500.0,,,,
KRDR,03-05-2022,10:56,METAR,Normal,340,7.0,,,9999.0,,-6.2,-9.9,29.94,1015.9,,,,,,,,,,,,,,,,5000.0,5000.0,OVC,5000.0,,,,,,
KRDR,03-05-2022,09:56,METAR,Normal,340,7.0,,,9999.0,,-6.3,-9.7,29.94,1015.9,,,,,,,,,,,,,,,,5000.0,5000.0,OVC,5000.0,,,,,,
KRDR,03-05-2022,09:21,SPECI,Normal,360,8.0,,,9999.0,,-6.0,-10.0,29.95,1016.2,,,,,,,,,,,,,,,,7000.0,5000.0,SCT,5000.0,OVC,7000.0,,,,
KRDR,03-05-2022,09:11,SPECI,Normal,360,9.0,,,9999.0,Light Snow,-6.0,-10.0,29.95,1016.2,71,,,,,,,,,,,,,,,7000.0,5000.0,FEW,5000.0,OVC,7000.0,,,,
KRDR,03-05-2022,08:56,METAR,Normal,350,8.0,,,9999.0,,-6.3,-10.2,29.96,1016.6,,,,,,,,,,,TRACE,TRACE,,,,5000.0,4000.0,SCT,4000.0,BKN,5000.0,OVC,6500.0,,
KRDR,03-05-2022,08:22,SPECI,Normal,340,8.0,,,9999.0,,-6.0,-10.0,29.98,1017.3,,,,,,,,,,,,,,,,4000.0,4000.0,OVC,4000.0,,,,,,
KRDR,03-05-2022,08:09,SPECI,Normal,340,9.0,,,9999.0,Light Snow,-6.0,-10.0,29.98,1017.3,71,,,,,,,,,,,,,,,3900.0,3900.0,BKN,3900.0,OVC,7000.0,,,,
KRDR,03-05-2022,07:56,METAR,Normal,340,6.0,,,9999.0,,-6.2,-10.1,29.99,1017.6,,,,,,,,,,,,,,,,4100.0,4100.0,BKN,4100.0,OVC,7000.0,,,,
KRDR,03-05-2022,06:56,METAR,Normal,360,6.0,,,9999.0,,-6.3,-9.9,30.01,1018.3,,,,,,,,,,,,,,,,4100.0,4100.0,OVC,4100.0,,,,,,
KRDR,03-05-2022,05:56,METAR,Normal,360,7.0,,,9999.0,,-6.3,-10.2,30.02,1018.7,,,,,,,,,,,,,,,,4000.0,4000.0,OVC,4000.0,,,,,,
KRDR,03-05-2022,04:56,METAR,Normal,360,7.0,,,9999.0,,-5.9,-9.6,30.02,1018.7,,,,,,,,,,,,,,,,3800.0,3800.0,OVC,3800.0,,,,,,
KRDR,03-05-2022,03:56,METAR,Normal,360,5.0,,,9999.0,,-5.4,-10.0,30.05,1019.7,,,,,,,,,,,,,,,,3600.0,3600.0,OVC,3600.0,,,,,,
KRDR,03-05-2022,02:56,METAR,Normal,40,6.0,,,9999.0,,-4.9,-11.5,30.05,1019.8,,,,,,,,,,,,,,,,3900.0,3900.0,BKN,3900.0,OVC,4700.0,,,,
KRDR,03-05-2022,01:56,METAR,Normal,50,8.0,,,9999.0,,-4.7,-11.9,30.06,1020.1,,,,,,,,,,,,,,,,4900.0,4900.0,OVC,4900.0,,,,,,
KRDR,03-05-2022,00:56,METAR,Normal,40,6.0,,,9999.0,,-4.6,-11.2,30.06,1020.2,,,,,,,,,,,,,,,,4800.0,4800.0,OVC,4800.0,,,,,,
KRDR,03-04-2022,23:56,METAR,Normal,70,8.0,,,9999.0,,-4.4,-12.8,30.04,1019.5,,,,,,,,,,,,,,,,4800.0,4800.0,OVC,4800.0,,,,,,
KRDR,03-04-2022,22:56,METAR,Normal,80,11.0,,,9999.0,,-4.4,-11.9,30.05,1019.8,,,,,,,,,,,,,,,,5000.0,5000.0,OVC,5000.0,,,,,,
KRDR,03-04-2022,21:56,METAR,Normal,80,9.0,,,9999.0,,-4.1,-12.8,30.08,1020.9,,,,,,,,,,,,,,,,5000.0,5000.0,OVC,5000.0,,,,,,
KRDR,03-04-2022,20:56,METAR,Normal,80,13.0,,,9999.0,,-4.4,-12.8,30.10,1021.6,,,,,,,,,,,,,,,,5500.0,5500.0,OVC,5500.0,,,,,,
KRDR,03-04-2022,19:56,METAR,Normal,90,11.0,,,9999.0,,-4.7,-12.4,30.13,1022.6,,,,,,,,,,,,,,,,5500.0,5500.0,OVC,5500.0,,,,,,
KRDR,03-04-2022,18:56,METAR,Normal,80,6.0,,,9999.0,,-4.8,-13.2,30.16,1023.7,,,,,,,,,,,,,,,,5000.0,4000.0,FEW,4000.0,OVC,5000.0,,,,
KRDR,03-04-2022,17:56,METAR,Normal,100,8.0,,,9999.0,,-5.6,-13.7,30.19,1024.7,,,,,,,,,,,,,,,,4300.0,4300.0,OVC,4300.0,,,,,,
KRDR,03-04-2022,16:56,METAR,Normal,90,8.0,,,9999.0,,-6.6,-12.9,30.20,1025.2,,,,,,,,,,,,,,,,3600.0,3600.0,OVC,3600.0,,,,,,
KRDR,03-04-2022,15:56,METAR,Normal,80,6.0,,,9999.0,,-7.7,-13.3,30.24,1026.5,,,,,,,,,,,,,,,,3600.0,3600.0,OVC,3600.0,,,,,,
KRDR,03-04-2022,14:56,METAR,Normal,90,4.0,,,9999.0,,-8.7,-14.1,30.25,1027.0,,,,,,,,,,,,,,,,3400.0,3400.0,OVC,3400.0,,,,,,
KRDR,03-04-2022,13:56,METAR,Normal,50,5.0,,,9999.0,,-9.7,-14.2,30.24,1026.7,,,,,,,,,,,,,,,,3200.0,3200.0,OVC,3200.0,,,,,,
KRDR,03-04-2022,13:38,SPECI,Normal,50,5.0,,,9999.0,,-10.0,-15.0,30.25,1027.0,,,,,,,,,,,,,,,,3500.0,3000.0,SCT,3000.0,OVC,3500.0,,,,
KRDR,03-04-2022,13:26,SPECI,Normal,70,5.0,,,9999.0,,-10.0,-15.0,30.25,1027.0,,,,,,,,,,,,,,,,2900.0,2900.0,BKN,2900.0,OVC,3600.0,,,,
KRDR,03-04-2022,12:56,METAR,Normal,50,6.0,,,9999.0,,-10.4,-14.5,30.25,1027.0,,,,,,,,,,,,,,,,3700.0,3700.0,OVC,3700.0,,,,,,
KRDR,03-04-2022,11:56,METAR,Normal,90,5.0,,,9999.0,,-10.6,-15.2,30.27,1027.6,,,,,,,,,,,,,,,,3800.0,3800.0,OVC,3800.0,,,,,,
KRDR,03-04-2022,10:56,METAR,Normal,80,5.0,,,9999.0,,-10.6,-16.1,30.28,1028.0,,,,,,,,,,,,,,,,4300.0,4300.0,OVC,4300.0,,,,,,
KRDR,03-04-2022,09:56,METAR,Normal,80,5.0,,,9999.0,,-11.2,-16.5,30.29,1028.3,,,,,,,,,,,,,,,,5500.0,5500.0,OVC,5500.0,,,,,,
KRDR,03-04-2022,08:56,METAR,Normal,110,5.0,,,9999.0,,-11.8,-16.4,30.33,1029.7,,,,,,,,,,,,,,,,6000.0,5000.0,SCT,5000.0,OVC,6000.0,,,,
KRDR,03-04-2022,07:56,METAR,Normal,130,5.0,,,9999.0,,-12.0,-16.2,30.36,1030.7,,,,,,,,,,,,,,,,5000.0,5000.0,OVC,5000.0,,,,,,
KRDR,03-04-2022,06:56,METAR,Normal,130,6.0,,,9999.0,,-12.1,-16.0,30.36,1030.7,,,,,,,,,,,,,,,,8000.0,8000.0,BKN,8000.0,OVC,10000.0,,,,
KRDR,03-04-2022,05:56,METAR,Normal,130,3.0,,,9999.0,,-12.2,-16.2,30.38,1031.5,,,,,,,,,,,,,,,,6500.0,6500.0,OVC,6500.0,,,,,,
KRDR,03-04-2022,04:56,METAR,Normal,150,3.0,,,9999.0,,-12.4,-16.3,30.39,1031.8,,,,,,,,,,,,,,,,8500.0,8500.0,OVC,8600.0,,,,,,
KRDR,03-04-2022,03:56,METAR,Normal,130,3.0,,,9999.0,,-12.7,-16.1,30.39,1031.9,,,,,,,,,,,,,,,,9000.0,9000.0,BKN,9100.0,,,,,,
KRDR,03-04-2022,02:56,METAR,Calm,,0.0,,,9999.0,,-13.1,-16.8,30.40,1032.5,,,,,,,,,,,,,,,,9000.0,9000.0,BKN,9100.0,,,,,,
KRDR,03-04-2022,01:56,METAR,Normal,180,4.0,,,9999.0,,-13.2,-17.2,30.41,1033.0,,,,,,,,,,,,,,,,12000.0,12000.0,BKN,12000.0,,,,,,
KRDR,03-04-2022,00:56,METAR,Normal,190,5.0,,,9999.0,,-13.1,-17.1,30.42,1033.3,,,,,,,,,,,,,,,,20000.0,6000.0,FEW,6000.0,BKN,20000.0,,,,
KRDR,03-03-2022,23:56,METAR,Normal,140,5.0,,,9999.0,,-11.5,-16.8,30.42,1033.2,,,,,,,,,,,,,TRACE,,,20000.0,6000.0,FEW,6000.0,BKN,20000.0,,,,
KRDR,03-03-2022,22:56,METAR,Normal,140,4.0,,,9999.0,,-10.9,-17.2,30.44,1033.9,,,,,,,,,,,,,,,,,8000.0,FEW,8000.0,,,,,,
KRDR,03-03-2022,21:56,METAR,Normal,170,3.0,,,9999.0,,-10.7,-17.8,30.46,1034.6,,,,,,,,,,,,,,,Clear,72000.0,,,,,,,,,
KRDR,03-03-2022,20:56,METAR,Normal,190,5.0,,,9999.0,,-10.4,-17.7,30.47,1034.9,,,,,,,,,,,,TRACE,,,,,15000.0,FEW,15000.0,,,,,,
KRDR,03-03-2022,19:56,METAR,Normal,230,5.0,,,9999.0,,-10.0,-18.0,30.49,1035.6,,,,,,,,,,,,,,,,,15000.0,FEW,15000.0,FEW,19000.0,,,,
KRDR,03-03-2022,18:56,METAR,Normal,230,4.0,,,9999.0,,-10.9,-18.6,30.51,1036.3,,,,,,,,,,,,,,,,,16000.0,FEW,16000.0,,,,,,
KRDR,03-03-2022,17:56,METAR,Normal,200,3.0,,,9999.0,,-11.2,-19.4,30.53,1037.0,,,,,,,,,,,,,,,,,16000.0,FEW,16000.0,FEW,19000.0,,,,
KRDR,03-03-2022,17:04,SPECI,Normal,220,4.0,,,9999.0,,-11.0,-20.0,30.54,1037.2,,,,,,,,,,,,,,,,,20000.0,FEW,20000.0,,,,,,
KRDR,03-03-2022,16:56,METAR,Calm,,0.0,,,9999.0,Light Snow,-12.2,-19.6,30.53,1037.0,71,,,,,,,,,,TRACE,,,,,,16000.0,FEW,16000.0,FEW,20000.0,,,,
KRDR,03-03-2022,16:50,SPECI,Calm,,0.0,,,9999.0,Light Snow,-12.0,-20.0,30.54,1037.3,71,,,,,,,,,,,,,,,,16000.0,FEW,16000.0,FEW,20000.0,,,,
KRDR,03-03-2022,15:56,METAR,Calm,,0.0,,,9999.0,,-13.8,-20.9,30.55,1037.7,,,,,,,,,,,,,,,Clear,72000.0,,,,,,,,,
KRDR,03-03-2022,14:56,METAR,Calm,,0.0,,,9999.0,,-18.3,-23.0,30.53,1037.1,,,,,,,,,,,,,,,,,22000.0,SCT,22000.0,,,,,,
KRDR,03-03-2022,13:56,METAR,Normal,220,3.0,,,9999.0,,-20.8,-24.4,30.53,1037.2,,,,,,,,,,,,,,,Clear,72000.0,,,,,,,,,
KRDR,03-03-2022,12:56,METAR,Normal,210,4.0,,,9999.0,,-21.1,-24.4,30.54,1037.5,,,,,,,,,,,,,,,,,22000.0,SCT,22000.0,,,,,,
KRDR,03-03-2022,11:56,METAR,Normal,290,3.0,,,9999.0,,-21.7,-24.9,30.52,1036.8,,,,,,,,,,,,,,,Clear,72000.0,,,,,,,,,
KRDR,03-03-2022,10:56,METAR,Normal,230,3.0,,,9999.0,,-20.9,-24.2,30.51,1036.4,,,,,,,,,,,,,,,Clear,72000.0,,,,,,,,,
KRDR,03-03-2022,09:56,METAR,Normal,270,3.0,,,9999.0,,-22.1,-25.3,30.50,1036.0,,,,,,,,,,,,,,,Clear,72000.0,,,,,,,,,
KRDR,03-03-2022,08:56,METAR,Normal,280,4.0,,,9999.0,,-21.5,-24.8,30.50,1035.9,,,,,,,,,,,,,,,Clear,72000.0,,,,,,,,,
KRDR,03-03-2022,07:56,METAR,Normal,260,4.0,,,9999.0,,-21.6,-24.8,30.49,1035.6,,,,,,,,,,,,,,,Clear,72000.0,,,,,,,,,
KRDR,03-03-2022,06:56,METAR,Normal,300,3.0,,,9999.0,,-21.5,-24.7,30.47,1034.8,,,,,,,,,,,,,,,,,22000.0,FEW,22000.0,,,,,,
KRDR,03-03-2022,05:56,METAR,Normal,320,3.0,,,9999.0,,-20.6,-23.8,30.48,1035.2,,,,,,,,,,,,,TRACE,,Clear,72000.0,,,,,,,,,
KRDR,03-03-2022,04:56,METAR,Normal,330,4.0,,,9999.0,,-20.0,-23.2,30.47,1034.8,,,,,,,,,,,TRACE,,,,Clear,72000.0,,,,,,,,,
KRDR,03-03-2022,04:28,SPECI,Normal,350,5.0,,,9999.0,,-20.0,-23.0,30.46,1034.5,,,,,,,,,,,,,,,,,22000.0,FEW,22000.0,,,,,,
KRDR,03-03-2022,04:16,SPECI,Normal,340,7.0,,,9999.0,Light Snow,-19.0,-22.0,30.47,1034.7,71,,,,,,,,,,,,,,,,22000.0,FEW,22000.0,,,,,,
KRDR,03-03-2022,03:56,METAR,Normal,340,5.0,,,9999.0,,-18.7,-22.2,30.47,1034.7,,,,,,,,,,,,,,,,,22000.0,FEW,22000.0,,,,,,
KRDR,03-03-2022,02:56,METAR,Normal,350,8.0,,,9999.0,,-17.5,-21.4,30.45,1034.0,,,,,,,,,,,,,,,,,22000.0,SCT,22000.0,,,,,,
KRDR,03-03-2022,01:56,METAR,Normal,350,9.0,,,9999.0,,-16.9,-21.0,30.45,1034.0,,,,,,,,,,,,,,,,,22000.0,FEW,22000.0,,,,,,
KRDR,03-03-2022,00:56,METAR,Normal,350,11.0,,,9999.0,,-15.9,-20.5,30.44,1033.5,,,,,,,,,,,,,,,,,7000.0,SCT,7000.0,,,,,,
KRDR,03-02-2022,23:56,METAR,Normal,360,14.0,,,9999.0,,-14.6,-19.4,30.42,1032.8,,,,,,,,,,,,,TRACE,,,,7000.0,FEW,7000.0,FEW,21000.0,,,,
KRDR,03-02-2022,22:56,METAR,Normal,360,13.0,,,9999.0,,-13.2,-18.2,30.41,1032.3,,,,,,,,,,,,,,,,,21000.0,SCT,21000.0,,,,,,
KRDR,03-02-2022,21:56,METAR,Normal,350,16.0,,,9999.0,,-12.0,-17.1,30.40,1032.0,,,,,,,,,,,,,,,,,17000.0,FEW,17000.0,SCT,21000.0,,,,
KRDR,03-02-2022,20:56,METAR,Normal,360,16.0,,,9999.0,,-11.1,-16.0,30.38,1031.2,,,,,,,,,,,,TRACE,,,,,17000.0,FEW,17000.0,FEW,21000.0,,,,
KRDR,03-02-2022,19:56,METAR,Normal,360,18.0,,,9999.0,,-10.4,-15.4,30.36,1030.5,,,,,,,,,,,,,,,,,16000.0,FEW,16000.0,SCT,19000.0,,,,
KRDR,03-02-2022,18:56,METAR,Normal,360,17.0,,,9999.0,,-9.6,-14.2,30.35,1030.2,,,,,,,,,,,,,,,,21000.0,18000.0,SCT,18000.0,BKN,21000.0,,,,
KRDR,03-02-2022,17:56,METAR,Normal,10,15.0,,,6400.0,Blowing or Drifting Snow or Sand,-9.3,-12.6,30.33,1029.4,27,,,,,,,,,,,,TRACE,,,400.0,400.0,BKN,400.0,BKN,2000.0,,,,
KRDR,03-02-2022,17:04,SPECI,Normal,10,17.0,,,6400.0,Blowing or Drifting Snow or Sand,-9.0,-12.0,30.30,1028.4,27,,,,,,,,,,,,,,,,200.0,FEW,200.0,SCT,800.0,,,,
KRDR,03-02-2022,16:56,METAR,Normal,10,17.0,,,6400.0,Blowing or Drifting Snow or Sand,-9.4,-12.1,30.30,1028.4,27,,,,,,,,,,,,,,,,200.0,FEW,200.0,SCT,800.0,,,,
KRDR,03-02-2022,16:33,SPECI,Normal,10,14.0,,,6400.0,Blowing or Drifting Snow or Sand,-9.0,-12.0,30.30,1028.4,27,,,,,,,,,,,,,,,,200.0,FEW,200.0,SCT,800.0,,,,
KRDR,03-02-2022,16:21,SPECI,Normal,10,19.0,,,4800.0,Blowing or Drifting Snow or Sand,-9.0,-12.0,30.29,1028.1,27,,,,,,,,,,,,,,,,300.0,FEW,300.0,SCT,800.0,,,,
KRDR,03-02-2022,15:56,METAR,Normal,20,16.0,,,9999.0,,-9.4,-12.5,30.28,1027.7,,,,,,,,,,,,,,,,17000.0,600.0,SCT,600.0,BKN,17000.0,,,,
KRDR,03-02-2022,14:56,METAR,Normal,10,15.0,,,9999.0,,-9.1,-11.3,30.24,1026.4,,,,,,,,,,,,TRACE,,,,5000.0,200.0,FEW,200.0,SCT,800.0,BKN,5000.0,,
KRDR,03-02-2022,13:56,METAR,Normal,10,13.0,,,9999.0,,-8.4,-10.3,30.22,1025.6,,,,,,,,,,,,,,,,5500.0,300.0,FEW,300.0,SCT,800.0,OVC,5500.0,,
KRDR,03-02-2022,13:06,SPECI,Normal,10,14.0,,,9999.0,,-8.0,-10.0,30.18,1024.2,,,,,,,,,,,,,,,,900.0,900.0,BKN,900.0,OVC,4000.0,,,,
KRDR,03-02-2022,12:56,METAR,Normal,10,13.0,,,9999.0,,-7.4,-9.2,30.18,,,,,,,,,,,,TRACE,,,,,2100.0,900.0,SCT,900.0,BKN,2100.0,OVC,4000.0,,
KRDR,03-02-2022,12:48,SPECI,Normal,10,11.0,,,9999.0,,-7.0,-9.0,30.18,1024.2,,,,,,,,,,,,,,,,4100.0,900.0,SCT,900.0,SCT,1800.0,OVC,4100.0,,
KRDR,03-02-2022,12:38,SPECI,Normal,10,11.0,,,9999.0,,-7.0,-9.0,30.18,1024.2,,,,,,,,,,,,,,,,1000.0,1000.0,BKN,1000.0,BKN,1700.0,OVC,4300.0,,
KRDR,03-02-2022,12:28,SPECI,Normal,10,11.0,,,9999.0,,-7.0,-9.0,30.17,1023.9,,,,,,,,,,,,,,,,1700.0,1000.0,FEW,1000.0,BKN,1700.0,BKN,4200.0,OVC,4900.0
KRDR,03-02-2022,12:18,SPECI,Normal,10,10.0,,,9999.0,,-7.0,-9.0,30.17,1023.9,,,,,,,,,,,,,,,,4500.0,1000.0,FEW,1000.0,SCT,1700.0,OVC,4500.0,,
KRDR,03-02-2022,12:08,SPECI,Normal,360,8.0,,,9999.0,Light Snow,-7.0,-9.0,30.17,1023.9,71,,,,,,,,,,,,,,,3900.0,1000.0,FEW,1000.0,BKN,3900.0,OVC,4900.0,,
KRDR,03-02-2022,11:56,METAR,Normal,360,8.0,,,9999.0,Light Snow,-7.5,-9.5,30.16,1023.6,71,,,,,,,,,,TRACE,,.01 IN,,,3800.0,2000.0,FEW,2000.0,OVC,3800.0,,,,
KRDR,03-02-2022,11:50,SPECI,Normal,360,8.0,,,9999.0,Light Snow,-7.0,-9.0,30.16,1023.6,71,,,,,,,,,,,,,,,3600.0,2000.0,FEW,2000.0,OVC,3600.0,,,,
KRDR,03-02-2022,11:44,SPECI,Normal,10,5.0,,,9999.0,,-7.0,-9.0,30.16,1023.6,,,,,,,,,,,,,,,,3600.0,2000.0,SCT,2000.0,OVC,3600.0,,,,
KRDR,03-02-2022,11:43,SPECI,Normal,10,5.0,,,9999.0,Light Snow,-7.0,-9.0,30.16,1023.6,71,,,,,,,,,,,,,,,3600.0,2000.0,SCT,2000.0,OVC,3600.0,,,,
KRDR,03-02-2022,11:37,SPECI,Normal,360,5.0,,,9999.0,,-7.0,-9.0,30.16,1023.6,,,,,,,,,,,,,,,,3600.0,2000.0,SCT,2000.0,OVC,3600.0,,,,
KRDR,03-02-2022,11:12,SPECI,Normal,360,4.0,,,9999.0,Light Snow,-7.0,-9.0,30.15,1023.2,71,,,,,,,,,,,,,,,1300.0,1300.0,FEW,1300.0,BKN,1900.0,BKN,2800.0,OVC,3700.0
KRDR,03-02-2022,11:03,SPECI,Normal,360,4.0,,,9999.0,,-7.0,-9.0,30.14,1022.9,,,,,,,,,,,,,,,,1300.0,1300.0,BKN,1300.0,BKN,1800.0,OVC,2900.0,,
KRDR,03-02-2022,10:56,METAR,Normal,10,5.0,,,9999.0,Light Snow,-7.5,-9.2,30.14,1022.9,71,,,,,,,,,,TRACE,,,,,1200.0,1200.0,BKN,1200.0,OVC,2900.0,,,,
KRDR,03-02-2022,10:53,SPECI,Normal,20,5.0,,,9999.0,Light Snow,-7.0,-9.0,30.14,1022.9,71,,,,,,,,,,,,,,,1200.0,1200.0,BKN,1200.0,OVC,2900.0,,,,
KRDR,03-02-2022,10:26,SPECI,Normal,20,4.0,,,9999.0,,-8.0,-9.0,30.12,1022.3,,,,,,,,,,,,,,,,1400.0,1400.0,BKN,1400.0,OVC,2900.0,,,,
KRDR,03-02-2022,10:06,SPECI,Normal,30,5.0,,,9999.0,,-7.0,-9.0,30.13,1022.5,,,,,,,,,,,,,,,,1600.0,1600.0,OVC,1600.0,,,,,,
KRDR,03-02-2022,09:56,METAR,Normal,20,5.0,,,9999.0,Light Snow,-7.4,-8.9,30.13,1022.5,71,,,,,,,,,,TRACE,,,,,1600.0,1600.0,OVC,1600.0,,,,,,
KRDR,03-02-2022,09:53,SPECI,Normal,10,5.0,,,9999.0,Light Snow,-7.0,-9.0,30.13,1022.5,71,,,,,,,,,,,,,,,1500.0,1500.0,BKN,1500.0,OVC,2100.0,,,,
KRDR,03-02-2022,08:56,METAR,Calm,,0.0,,,9999.0,,-7.3,-8.8,30.12,1022.2,,,,,,,,,,,TRACE,.01 IN,,,,1900.0,1900.0,OVC,1900.0,,,,,,
KRDR,03-02-2022,08:50,SPECI,Calm,,0.0,,,9999.0,,-7.0,-9.0,30.12,1022.2,,,,,,,,,,,,,,,,1800.0,1900.0,OVC,1900.0,,,,,,
KRDR,03-02-2022,08:30,SPECI,Calm,,0.0,,,9999.0,Mist,-7.0,-9.0,30.12,1022.2,10,,,,,,,,,,,,,,,2100.0,2200.0,BKN,2200.0,OVC,3000.0,,,,
KRDR,03-02-2022,08:26,SPECI,Calm,,0.0,,,9999.0,Light Snow,-7.0,-9.0,30.12,1022.2,71,,,,,,,,,,,,,,,2200.0,2200.0,BKN,2200.0,OVC,3000.0,,,,
KRDR,03-02-2022,07:56,METAR,Calm,,0.0,,,9999.0,Light Snow,-7.4,-8.9,30.11,1021.8,71,,,,,,,,,,TRACE,,,,,3000.0,2400.0,SCT,2400.0,OVC,3000.0,,,,
KRDR,03-02-2022,07:49,SPECI,Calm,,0.0,,,9999.0,Light Snow,-7.0,-9.0,30.11,1021.8,71,,,,,,,,,,,,,,,3000.0,2400.0,SCT,2400.0,BKN,3000.0,OVC,4300.0,,
KRDR,03-02-2022,07:40,SPECI,Calm,,0.0,,,8000.0,Mist,-7.0,-9.0,30.11,1021.8,10,,,,,,,,,,,,,,,3100.0,2400.0,FEW,2400.0,OVC,3100.0,,,,
KRDR,03-02-2022,07:33,SPECI,Calm,,0.0,,,4800.0,Light Snow,-7.0,-9.0,30.10,1021.5,71,,,,,,,,,,,,,,,3000.0,200.0,FEW,200.0,OVC,3000.0,,,,
KRDR,03-02-2022,07:23,SPECI,Calm,,0.0,,,3000.0,Light Snow,-7.0,-9.0,30.10,1021.5,71,,,,,,,,,,,,,,,2300.0,200.0,FEW,200.0,OVC,2800.0,,,,
KRDR,03-02-2022,07:16,SPECI,Calm,,0.0,,,3600.0,Light Snow,-7.0,-9.0,30.10,1021.5,71,,,,,,,,,,,,,,,2100.0,2400.0,OVC,2400.0,,,,,,
KRDR,03-02-2022,07:06,SPECI,Calm,,0.0,,,2800.0,Light Snow,-7.0,-9.0,30.11,1021.9,71,,,,,,,,,,,,,,,2300.0,2300.0,OVC,2300.0,,,,,,
KRDR,03-02-2022,06:56,METAR,Calm,,0.0,,,3200.0,Light Snow,-7.4,-9.4,30.10,1021.6,71,,,,,,,,,,TRACE,,,,,2700.0,2700.0,OVC,2700.0,,,,,,
KRDR,03-02-2022,06:00,SPECI,Calm,,0.0,,,9999.0,Light Snow,-7.0,-10.0,30.10,1021.6,71,,,,,,,,,,,,,,,1700.0,900.0,FEW,900.0,OVC,1700.0,,,,
KRDR,03-02-2022,05:56,METAR,Calm,,0.0,,,9999.0,Light Snow,-7.1,-10.3,30.10,1021.6,71,,,,,,,,,,TRACE,,TRACE,,,1700.0,1700.0,OVC,1700.0,,,,,,
KRDR,03-02-2022,05:16,SPECI,Calm,,0.0,,,9999.0,Light Snow,-7.0,-10.0,30.10,1021.6,71,,,,,,,,,,,,,,,1700.0,1700.0,OVC,1700.0,,,,,,
KRDR,03-02-2022,04:56,METAR,Calm,,0.0,,,9999.0,,-7.1,-10.3,30.11,1021.9,,,,,,,,,,,,,,,,1700.0,1700.0,OVC,1700.0,,,,,,
KRDR,03-02-2022,03:56,METAR,Normal,140,5.0,,,9999.0,,-7.2,-10.4,30.10,1021.7,,,,,,,,,,,,,,,,1800.0,1800.0,OVC,1800.0,,,,,,
KRDR,03-02-2022,03:31,SPECI,Normal,140,4.0,,,9999.0,,-7.0,-11.0,30.10,1021.7,,,,,,,,,,,,,,,,1800.0,1800.0,OVC,1800.0,,,,,,
KRDR,03-02-2022,02:56,METAR,Normal,80,3.0,,,9999.0,,-7.2,-10.2,30.12,1022.3,,,,,,,,,,,,,,,,2000.0,2000.0,OVC,2000.0,,,,,,
KRDR,03-02-2022,01:56,METAR,Normal,110,3.0,,,9999.0,,-7.0,-11.0,30.12,1022.4,,,,,,,,,,,,,,,,2000.0,2000.0,OVC,2000.0,,,,,,
KRDR,03-02-2022,01:46,SPECI,Normal,80,3.0,,,9999.0,,-7.0,-11.0,30.13,1022.8,,,,,,,,,,,,,,,,1900.0,1900.0,OVC,1900.0,,,,,,
KRDR,03-02-2022,00:56,METAR,Calm,,0.0,,,9999.0,,-6.9,-11.8,30.13,1022.8,,,,,,,,,,,,,,,,2000.0,2000.0,OVC,2000.0,,,,,,
KRDR,03-01-2022,23:56,METAR,Calm,,0.0,,,9999.0,,-7.2,-12.3,30.13,1022.7,,,,,,,,,,,,,TRACE,,,2200.0,2200.0,OVC,2200.0,,,,,,
KRDR,03-01-2022,22:56,METAR,Calm,,0.0,,,9999.0,,-6.9,-12.0,30.14,1023.0,,,,,,,,,,,,,,,,2200.0,2200.0,OVC,2200.0,,,,,,
KRDR,03-01-2022,21:56,METAR,Normal,20,3.0,,,9999.0,,-7.2,-11.9,30.13,1022.6,,,,,,,,,,,,,,,,2600.0,2600.0,OVC,2600.0,,,,,,
KRDR,03-01-2022,20:56,METAR,Normal,20,4.0,,,9999.0,,-7.4,-12.3,30.14,1023.0,,,,,,,,,,,,TRACE,,,,2700.0,2700.0,OVC,2700.0,,,,,,
KRDR,03-01-2022,19:56,METAR,Normal,340,4.0,,,9999.0,,-7.6,-12.5,30.14,1023.0,,,,,,,,,,,,,,,,2800.0,2800.0,OVC,2800.0,,,,,,
KRDR,03-01-2022,18:56,METAR,Normal,360,6.0,,,9999.0,,-8.0,-12.9,30.14,1023.0,,,,,,,,,,,,,,,,2900.0,2900.0,OVC,2900.0,,,,,,
KRDR,03-01-2022,17:56,METAR,Normal,360,5.0,,,9999.0,,-8.8,-13.7,30.15,1023.4,,,,,,,,,,,TRACE,,TRACE,,,3100.0,3100.0,OVC,3100.0,,,,,,
KRDR,03-01-2022,17:40,SPECI,Normal,10,5.0,,,9999.0,,-9.0,-14.0,30.15,1023.4,,,,,,,,,,,,,,,,3100.0,3100.0,OVC,3100.0,,,,,,
KRDR,03-01-2022,17:30,SPECI,Normal,10,5.0,,,9999.0,Light Snow,-9.0,-14.0,30.15,1023.4,71,,,,,,,,,,,,,,,3100.0,3100.0,OVC,3100.0,,,,,,
KRDR,03-01-2022,17:09,SPECI,Normal,350,6.0,,,9999.0,,-9.0,-14.0,30.14,1023.0,,,,,,,,,,,,,,,,3100.0,3100.0,OVC,3100.0,,,,,,
KRDR,03-01-2022,17:03,SPECI,Normal,360,6.0,,,9999.0,Light Snow,-9.0,-14.0,30.15,1023.4,71,,,,,,,,,,,,,,,3100.0,3100.0,OVC,3100.0,,,,,,
KRDR,03-01-2022,16:56,METAR,Normal,360,5.0,,,9999.0,,-9.4,-14.2,30.14,1023.0,,,,,,,,,,,,,,,,3100.0,3100.0,OVC,3100.0,,,,,,
KRDR,03-01-2022,15:56,METAR,Normal,340,4.0,,,9999.0,,-10.4,-14.3,30.14,1023.0,,,,,,,,,,,,,,,,3100.0,3100.0,OVC,3100.0,,,,,,
KRDR,03-01-2022,14:56,METAR,Normal,350,6.0,,,9999.0,,-11.2,-14.8,30.14,1023.1,,,,,,,,,,,,TRACE,,,,3500.0,3500.0,OVC,3500.0,,,,,,
KRDR,03-01-2022,13:56,METAR,Normal,350,4.0,,,9999.0,,-12.7,-15.0,30.12,1022.4,,,,,,,,,,,,,,,,4300.0,4300.0,BKN,4300.0,,,,,,
KRDR,03-01-2022,12:56,METAR,Normal,350,8.0,,,9999.0,,-12.5,-14.8,30.10,1021.7,,,,,,,,,,,TRACE,,,,,,8000.0,FEW,8000.0,,,,,,
KRDR,03-01-2022,12:48,SPECI,Normal,350,7.0,,,9999.0,,-12.0,-15.0,30.09,1021.4,,,,,,,,,,,,,,,,,8000.0,FEW,8000.0,,,,,,
KRDR,03-01-2022,12:38,SPECI,Normal,360,9.0,,,9999.0,Light Snow,-12.0,-14.0,30.09,1021.4,71,,,,,,,,,,,,,,,8000.0,8000.0,BKN,8000.0,,,,,,
KRDR,03-01-2022,12:28,SPECI,Normal,350,7.0,,,9999.0,,-12.0,-15.0,30.09,1021.4,,,,,,,,,,,,,,,,,8000.0,SCT,8000.0,,,,,,
KRDR,03-01-2022,12:13,SPECI,Normal,350,8.0,,,9999.0,Light Snow,-12.0,-14.0,30.09,1021.4,71,,,,,,,,,,,,,,,,7500.0,SCT,7500.0,,,,,,
KRDR,03-01-2022,11:56,METAR,Normal,350,7.0,,,9999.0,,-11.7,-14.0,30.07,1020.6,,,,,,,,,,,,,TRACE,,,,8000.0,SCT,8000.0,,,,,,
KRDR,03-01-2022,10:56,METAR,Normal,10,7.0,,,9999.0,,-10.7,-13.2,30.04,1019.6,,,,,,,,,,,,,,,,12000.0,7500.0,FEW,7500.0,BKN,12000.0,,,,
KRDR,03-01-2022,09:56,METAR,Normal,20,7.0,,,9999.0,,-9.8,-12.5,30.02,1018.9,,,,,,,,,,,TRACE,,,,,9000.0,7000.0,FEW,7000.0,OVC,9100.0,,,,
KRDR,03-01-2022,09:47,SPECI,Normal,20,7.0,,,9999.0,,-10.0,-12.0,30.01,1018.5,,,,,,,,,,,,,,,,9000.0,6500.0,FEW,6500.0,OVC,9100.0,,,,
KRDR,03-01-2022,09:28,SPECI,Normal,10,8.0,,,9999.0,Light Snow,-10.0,-12.0,30.02,1018.9,71,,,,,,,,,,,,,,,8000.0,8000.0,BKN,8000.0,OVC,10000.0,,,,
KRDR,03-01-2022,08:56,METAR,Normal,10,7.0,,,9999.0,,-9.6,-12.0,30.02,1018.9,,,,,,,,,,,TRACE,TRACE,,,,7000.0,7000.0,OVC,7000.0,,,,,,
KRDR,03-01-2022,08:37,SPECI,Normal,20,7.0,,,9999.0,,-9.0,-12.0,30.01,1018.4,,,,,,,,,,,,,,,,7500.0,1800.0,FEW,1800.0,OVC,7500.0,,,,
KRDR,03-01-2022,08:36,SPECI,Normal,10,6.0,,,9999.0,Light Snow,-9.0,-12.0,30.01,1018.4,71,,,,,,,,,,,,,,,7500.0,1800.0,FEW,1800.0,OVC,7500.0,,,,
KRDR,03-01-2022,08:26,SPECI,Normal,20,7.0,,,9999.0,Light Snow,-9.0,-12.0,30.01,1018.4,71,,,,,,,,,,,,,,,2000.0,2000.0,BKN,2000.0,OVC,8000.0,,,,
KRDR,03-01-2022,08:20,SPECI,Normal,20,7.0,,,9999.0,,-9.0,-12.0,30.01,1018.4,,,,,,,,,,,,,,,,2000.0,2000.0,BKN,2000.0,OVC,8000.0,,,,
KRDR,03-01-2022,08:08,SPECI,Normal,20,6.0,,,9999.0,Light Snow,-9.0,-12.0,30.01,1018.4,71,,,,,,,,,,,,,,,2200.0,2200.0,BKN,2200.0,OVC,8000.0,,,,
KRDR,03-01-2022,07:56,METAR,Normal,10,8.0,,,9999.0,,-9.0,-11.7,30.00,1018.1,,,,,,,,,,,,,,,,2200.0,2200.0,OVC,2200.0,,,,,,
KRDR,03-01-2022,06:56,METAR,Normal,30,5.0,,,9999.0,,-8.9,-11.7,30.00,1018.1,,,,,,,,,,,,,,,,2000.0,2000.0,OVC,2000.0,,,,,,
KRDR,03-01-2022,05:56,METAR,Normal,10,8.0,,,9999.0,,-8.8,-11.8,30.00,1018.2,,,,,,,,,,,,,,,,2100.0,2100.0,OVC,2100.0,,,,,,
KRDR,03-01-2022,04:56,METAR,Normal,350,7.0,,,9999.0,,-8.6,-11.1,30.00,1018.2,,,,,,,,,,,,,,,,2200.0,2200.0,OVC,2200.0,,,,,,
KRDR,03-01-2022,03:56,METAR,Normal,360,7.0,,,9999.0,,-8.5,-11.0,29.99,1017.9,,,,,,,,,,,,,,,,2200.0,2200.0,OVC,2200.0,,,,,,
KRDR,03-01-2022,02:56,METAR,Normal,350,9.0,,,9999.0,,-8.4,-10.9,29.98,1017.6,,,,,,,,,,,,,,,,2400.0,2400.0,OVC,2400.0,,,,,,
KRDR,03-01-2022,01:56,METAR,Normal,350,8.0,,,9999.0,,-8.0,-10.5,29.97,1017.3,,,,,,,,,,,,,,,,2400.0,1000.0,FEW,1000.0,OVC,2400.0,,,,
KRDR,03-01-2022,00:56,METAR,Normal,360,9.0,,,9999.0,,-7.7,-10.1,29.96,1017.0,,,,,,,,,,,,,,,,2300.0,2300.0,BKN,2300.0,,,,,,
KRDR,02-28-2022,23:56,METAR,Normal,360,11.0,,,9999.0,,-6.8,-9.4,29.94,1016.2,,,,,,,,,,,,,,,,1000.0,1000.0,BKN,1000.0,BKN,2700.0,,,,
KRDR,02-28-2022,22:56,METAR,Normal,350,12.0,,,9999.0,,-6.2,-8.9,29.94,1016.1,,,,,,,,,,,,,,,,1200.0,1200.0,OVC,1200.0,,,,,,
KRDR,02-28-2022,21:56,METAR,Normal,340,11.0,,,9999.0,,-5.3,-8.2,29.93,1015.7,,,,,,,,,,,,,,,,1200.0,1200.0,OVC,1200.0,,,,,,
KRDR,02-28-2022,21:46,SPECI,Normal,340,11.0,,,9999.0,,-5.0,-8.0,29.93,1015.7,,,,,,,,,,,,,,,,1200.0,1200.0,OVC,1200.0,,,,,,
KRDR,02-28-2022,20:56,METAR,Normal,320,8.0,,,9999.0,,-5.4,-8.0,29.91,1015.0,,,,,,,,,,,,,,,,1000.0,1000.0,OVC,1000.0,,,,,,
KRDR,02-28-2022,20:20,SPECI,Normal,340,10.0,,,9999.0,,-5.0,-8.0,29.91,1015.0,,,,,,,,,,,,,,,,1000.0,1000.0,BKN,1000.0,,,,,,
KRDR,02-28-2022,20:06,SPECI,Normal,340,10.0,,,9999.0,,-5.0,-8.0,29.90,1014.7,,,,,,,,,,,,,,,,900.0,900.0,OVC,900.0,,,,,,
KRDR,02-28-2022,19:56,METAR,Normal,340,12.0,,,9999.0,,-5.4,-8.0,29.90,1014.7,,,,,,,,,,,,,,,,1000.0,1000.0,OVC,1000.0,,,,,,
KRDR,02-28-2022,19:12,SPECI,Normal,340,8.0,,,9999.0,,-5.0,-8.0,29.89,1014.3,,,,,,,,,,,,,,,,1000.0,1000.0,BKN,1000.0,BKN,1800.0,,,,
KRDR,02-28-2022,19:02,SPECI,Normal,340,8.0,,,9999.0,,-5.0,-8.0,29.88,1014.0,,,,,,,,,,,,,,,,,1000.0,FEW,1000.0,SCT,1800.0,,,,
KRDR,02-28-2022,18:56,METAR,Normal,350,7.0,,,9999.0,,-5.5,-8.6,29.89,1014.3,,,,,,,,,,,,,,,,,1600.0,FEW,1600.0,,,,,,
KRDR,02-28-2022,17:56,METAR,Normal,350,5.0,,,9999.0,,-6.6,-9.5,29.90,1014.8,,,,,,,,,,,,,,,,,6000.0,FEW,6000.0,FEW,16000.0,,,,
KRDR,02-28-2022,16:56,METAR,Normal,330,9.0,,,9999.0,,-8.2,-10.7,29.91,1015.1,,,,,,,,,,,,,,,Clear,72000.0,,,,,,,,,
KRDR,02-28-2022,15:56,METAR,Calm,,0.0,,,9999.0,,-9.1,-11.8,29.90,1014.8,,,,,,,,,,,,,,,Clear,72000.0,,,,,,,,,
KRDR,02-28-2022,14:56,METAR,Normal,320,3.0,,,9999.0,,-10.3,-12.8,29.91,1015.2,,,,,,,,,,,,TRACE,,,Clear,72000.0,,,,,,,,,
KRDR,02-28-2022,13:56,METAR,Normal,310,4.0,,,9999.0,,-11.6,-13.4,29.93,1015.9,,,,,,,,,,,,,,,,,6000.0,SCT,6000.0,,,,,,
KRDR,02-28-2022,12:56,METAR,Normal,270,5.0,,,9999.0,,-12.1,-13.6,29.94,1016.2,,,,,,,,,,,,,,,,,9000.0,SCT,9100.0,,,,,,
KRDR,02-28-2022,11:56,METAR,Normal,330,4.0,,,9999.0,,-10.2,-11.8,29.96,1016.8,,,,,,,,,,,,,,,,9000.0,9000.0,OVC,9100.0,,,,,,
KRDR,02-28-2022,10:56,METAR,Normal,330,7.0,,,9999.0,,-9.6,-11.1,29.97,1017.1,,,,,,,,,,,,,,,,9000.0,9000.0,BKN,9100.0,OVC,16000.0,,,,
KRDR,02-28-2022,09:56,METAR,Normal,330,5.0,,,9999.0,,-9.2,-11.1,29.99,1017.7,,,,,,,,,,,,,,,,9000.0,9000.0,BKN,9100.0,BKN,15000.0,OVC,17000.0,,
KRDR,02-28-2022,08:56,METAR,Normal,340,5.0,,,9999.0,,-9.2,-11.3,30.01,1018.4,,,,,,,,,,,,,,,,8500.0,8500.0,OVC,8600.0,,,,,,
KRDR,02-28-2022,07:56,METAR,Normal,360,6.0,,,9999.0,,-8.7,-10.9,30.04,1019.4,,,,,,,,,,,,,,,,9000.0,9000.0,OVC,9100.0,,,,,,
KRDR,02-28-2022,06:56,METAR,Normal,350,8.0,,,9999.0,,-8.1,-11.0,30.06,1020.1,,,,,,,,,,,,,,,,8000.0,8000.0,BKN,8000.0,BKN,10000.0,OVC,12000.0,,
KRDR,02-28-2022,05:56,METAR,Normal,360,8.0,,,9999.0,,-8.1,-10.6,30.06,1020.1,,,,,,,,,,,,,,,,8500.0,8500.0,BKN,8600.0,,,,,,
KRDR,02-28-2022,04:57,METAR,Normal,360,7.0,,,9999.0,,-8.1,-10.8,30.07,1020.5,,,,,,,,,,,,,,,,10000.0,10000.0,BKN,10000.0,,,,,,
KRDR,02-28-2022,03:56,METAR,Normal,350,6.0,,,9999.0,,-7.6,-10.5,30.11,1021.8,,,,,,,,,,,,,,,,10000.0,10000.0,BKN,10000.0,,,,,,
KRDR,02-28-2022,02:56,METAR,Normal,20,6.0,,,9999.0,,-7.2,-10.2,30.10,1021.6,,,,,,,,,,,,,,,,12000.0,12000.0,BKN,12000.0,BKN,19000.0,,,,
KRDR,02-28-2022,01:53,METAR,Normal,30,7.0,,,9999.0,,-6.7,-9.7,30.11,1022.0,,,,,,,,,,,,,,,,10000.0,10000.0,OVC,10000.0,,,,,,
KRDR,02-28-2022,00:56,METAR,Normal,30,7.0,,,9999.0,,-5.9,-9.6,30.12,1022.3,,,,,,,,,,,,,,,,10000.0,10000.0,BKN,10000.0,BKN,12000.0,,,,
KRDR,02-27-2022,23:56,METAR,Normal,60,9.0,,,9999.0,,-5.1,-9.7,30.11,1021.9,,,,,,,,,,,,,,,,9500.0,9500.0,BKN,9600.0,,,,,,
KRDR,02-27-2022,22:56,METAR,Normal,60,11.0,,,9999.0,,-4.5,-9.5,30.10,1021.5,,,,,,,,,,,,,,,,13000.0,11000.0,SCT,11000.0,BKN,13000.0,BKN,16000.0,BKN,20000.0
KRDR,02-27-2022,21:56,METAR,Normal,80,9.0,,,9999.0,,-3.9,-9.5,30.10,1021.5,,,,,,,,,,,,,,,,14000.0,10000.0,FEW,10000.0,BKN,14000.0,OVC,17000.0,,
KRDR,02-27-2022,20:56,METAR,Normal,70,9.0,,,9999.0,,-3.8,-7.8,30.10,1021.5,,,,,,,,,,,,,,,,11000.0,11000.0,BKN,11000.0,OVC,17000.0,,,,
KRDR,02-27-2022,19:56,METAR,Normal,100,9.0,,,9999.0,,-3.6,-7.7,30.11,1021.8,,,,,,,,,,,,,,,,15000.0,11000.0,SCT,11000.0,BKN,15000.0,,,,
KRDR,02-27-2022,18:56,METAR,Normal,100,9.0,,,9999.0,,-4.0,-8.1,30.12,1022.0,,,,,,,,,,,,,,,,12000.0,12000.0,BKN,12000.0,,,,,,
KRDR,02-27-2022,17:56,METAR,Normal,110,13.0,,,9999.0,,-4.5,-8.8,30.13,1022.4,,,,,,,,,,,,,,,,12000.0,12000.0,BKN,12000.0,OVC,15000.0,,,,
KRDR,02-27-2022,16:56,METAR,Normal,120,10.0,,,9999.0,,-5.2,-9.1,30.14,1022.8,,,,,,,,,,,,,,,,13000.0,13000.0,BKN,13000.0,OVC,20000.0,,,,
KRDR,02-27-2022,15:56,METAR,Normal,90,10.0,,,9999.0,,-6.9,-9.9,30.13,1022.6,,,,,,,,,,,,,,,,,13000.0,SCT,13000.0,,,,,,
KRDR,02-27-2022,14:58,METAR,Normal,90,5.0,,,9999.0,,-9.4,-11.6,30.14,1023.0,,,,,,,,,,,,,,,,14000.0,14000.0,OVC,14000.0,,,,,,
KRDR,02-27-2022,13:56,METAR,Calm,,0.0,,,9999.0,,-11.1,-13.2,30.14,1023.0,,,,,,,,,,,,,,,,15000.0,15000.0,OVC,15000.0,,,,,,
KRDR,02-27-2022,12:56,METAR,Calm,,0.0,,,9999.0,,-11.3,-13.3,30.14,1023.0,,,,,,,,,,,,,,,,16000.0,16000.0,OVC,16000.0,,,,,,
KRDR,02-27-2022,11:56,METAR,Calm,,0.0,,,9999.0,,-11.3,-13.3,30.15,1023.3,,,,,,,,,,,,,,,,16000.0,16000.0,OVC,16000.0,,,,,,
KRDR,02-27-2022,10:56,METAR,Calm,,0.0,,,9999.0,,-10.9,-13.1,30.15,1023.3,,,,,,,,,,,,,,,,15000.0,15000.0,OVC,15000.0,,,,,,
KRDR,02-27-2022,09:56,METAR,Calm,,0.0,,,9999.0,,-10.3,-12.7,30.14,1022.9,,,,,,,,,,,,,,,,16000.0,16000.0,OVC,16000.0,,,,,,
KRDR,02-27-2022,08:56,METAR,Normal,240,3.0,,,9999.0,,-10.5,-12.9,30.15,1023.2,,,,,,,,,,,,,,,,9500.0,9500.0,BKN,9600.0,BKN,17000.0,,,,
KRDR,02-27-2022,07:57,METAR,Normal,280,6.0,,,9999.0,,-8.7,-12.0,30.16,1023.6,,,,,,,,,,,,,,,,,8000.0,FEW,8000.0,SCT,11000.0,,,,
KRDR,02-27-2022,07:24,SPECI,Normal,280,4.0,,,9999.0,,-7.0,-11.0,30.14,1022.7,,,,,,,,,,,,,,,,,8000.0,SCT,8000.0,,,,,,
KRDR,02-27-2022,06:56,METAR,Normal,280,5.0,,,9999.0,,-7.0,-10.7,30.14,1022.7,,,,,,,,,,,,,,,,8500.0,8500.0,OVC,8600.0,,,,,,
KRDR,02-27-2022,05:56,METAR,Normal,300,8.0,,,9999.0,,-6.7,-10.6,30.16,1023.5,,,,,,,,,,,,,,,,8000.0,6000.0,FEW,6000.0,OVC,8000.0,,,,
KRDR,02-27-2022,04:56,METAR,Normal,290,9.0,,,9999.0,,-7.1,-10.6,30.17,1023.8,,,,,,,,,,,,,,,,9000.0,9000.0,BKN,9100.0,OVC,13000.0,,,,
KRDR,02-27-2022,03:56,METAR,Normal,290,7.0,,,9999.0,,-8.4,-11.7,30.15,1023.2,,,,,,,,,,,,,,,,,8000.0,FEW,8000.0,SCT,14000.0,,,,
KRDR,02-27-2022,02:56,METAR,Normal,270,7.0,,,9999.0,,-6.9,-10.6,30.13,1022.5,,,,,,,,,,,,,,,,19000.0,16000.0,FEW,16000.0,BKN,19000.0,,,,
KRDR,02-27-2022,01:56,METAR,Normal,280,7.0,,,9999.0,,-6.3,-10.4,30.13,1022.6,,,,,,,,,,,,,,,,16000.0,16000.0,OVC,16000.0,,,,,,
KRDR,02-27-2022,00:56,METAR,Normal,290,9.0,,,9999.0,,-6.9,-10.6,30.13,1022.7,,,,,,,,,,,,,,,,19000.0,8000.0,FEW,8000.0,BKN,19000.0,,,,
KRDR,02-26-2022,23:56,METAR,Normal,290,7.0,,,9999.0,,-5.8,-9.9,30.11,1022.0,,,,,,,,,,,,,,,,,8000.0,FEW,8000.0,FEW,13000.0,,,,
KRDR,02-26-2022,22:56,METAR,Normal,310,12.0,,,9999.0,,-5.0,-9.3,30.11,1022.0,,,,,,,,,,,,,,,,13000.0,8000.0,FEW,8000.0,BKN,13000.0,,,,
KRDR,02-26-2022,21:56,METAR,Normal,300,13.0,,,9999.0,,-4.3,-9.3,30.09,1021.3,,,,,,,,,,,,,,,,,8000.0,FEW,8000.0,SCT,13000.0,,,,
KRDR,02-26-2022,20:56,METAR,Normal,310,15.0,,,9999.0,,-4.0,-9.2,30.05,1020.0,,,,,,,,,,,,,,,,13000.0,13000.0,BKN,13000.0,,,,,,
KRDR,02-26-2022,19:56,METAR,Normal,300,14.0,,,9999.0,,-4.2,-9.6,30.04,1019.6,,,,,,,,,,,,,,,,9000.0,9000.0,BKN,9100.0,BKN,13000.0,,,,
KRDR,02-26-2022,18:56,METAR,Normal,310,15.0,22.0,,9999.0,,-3.8,-9.4,30.05,1020.0,,,,,,,,,,,,,,,,,25000.0,FEW,25000.0,,,,,,
KRDR,02-26-2022,17:56,METAR,Normal,300,11.0,,,9999.0,,-4.3,-10.1,30.03,1019.4,,,,,,,,,,,,,,,,,25000.0,FEW,25000.0,,,,,,
KRDR,02-26-2022,16:56,METAR,Normal,280,15.0,,,9999.0,,-5.2,-11.6,30.01,1018.7,,,,,,,,,,,,,,,,,25000.0,FEW,25000.0,,,,,,
KRDR,02-26-2022,15:56,METAR,Normal,270,13.0,,,9999.0,,-6.0,-12.3,30.00,1018.4,,,,,,,,,,,,,,,,,25000.0,FEW,25000.0,,,,,,
KRDR,02-26-2022,14:56,METAR,Normal,270,11.0,,,9999.0,,-7.5,-13.5,30.00,1018.4,,,,,,,,,,,,,,,,,10000.0,FEW,10000.0,SCT,25000.0,,,,
KRDR,02-26-2022,13:56,METAR,Normal,250,13.0,,,9999.0,,-9.9,-14.7,29.99,1018.2,,,,,,,,,,,,,,,,,10000.0,FEW,10000.0,SCT,25000.0,,,,
KRDR,02-26-2022,12:56,METAR,Normal,250,13.0,,,9999.0,,-10.2,-15.0,29.99,1018.1,,,,,,,,,,,,,,,Clear,72000.0,,,,,,,,,
KRDR,02-26-2022,11:56,METAR,Normal,240,9.0,,,9999.0,,-11.9,-16.0,30.02,1019.2,,,,,,,,,,,,,,,Clear,72000.0,,,,,,,,,
KRDR,02-26-2022,10:56,METAR,Normal,240,10.0,,,9999.0,,-12.8,-16.3,30.03,1019.5,,,,,,,,,,,,,,,Clear,72000.0,,,,,,,,,
KRDR,02-26-2022,09:56,METAR,Normal,230,11.0,,,9999.0,,-13.3,-16.8,30.05,1020.2,,,,,,,,,,,,,,,Clear,72000.0,,,,,,,,,
KRDR,02-26-2022,08:56,METAR,Normal,230,13.0,,,9999.0,,-13.6,-17.0,30.08,1021.2,,,,,,,,,,,,,,,Clear,72000.0,,,,,,,,,
KRDR,02-26-2022,07:56,METAR,Normal,230,9.0,,,9999.0,,-14.6,-17.9,30.12,1022.7,,,,,,,,,,,,,,,Clear,72000.0,,,,,,,,,
KRDR,02-26-2022,06:56,METAR,Normal,220,8.0,,,9999.0,,-15.3,-18.8,30.13,1023.1,,,,,,,,,,,,,,,Clear,72000.0,,,,,,,,,
KRDR,02-26-2022,05:56,METAR,Normal,210,8.0,,,9999.0,,-15.7,-19.3,30.16,1024.2,,,,,,,,,,,,,,,Clear,72000.0,,,,,,,,,
KRDR,02-26-2022,04:56,METAR,Normal,210,7.0,,,9999.0,,-16.0,-19.6,30.19,1025.4,,,,,,,,,,,,,,,Clear,72000.0,,,,,,,,,
KRDR,02-26-2022,03:56,METAR,Normal,220,8.0,,,9999.0,,-15.1,-18.9,30.21,1026.0,,,,,,,,,,,,,,,Clear,72000.0,,,,,,,,,
KRDR,02-26-2022,02:56,METAR,Normal,220,9.0,,,9999.0,,-14.5,-18.5,30.23,1026.8,,,,,,,,,,,,,,,Clear,72000.0,,,,,,,,,
KRDR,02-26-2022,01:56,METAR,Normal,220,9.0,,,9999.0,,-13.6,-17.9,30.24,1027.2,,,,,,,,,,,,,,,Clear,72000.0,,,,,,,,,
KRDR,02-26-2022,00:56,METAR,Normal,220,8.0,,,9999.0,,-12.7,-17.1,30.26,1027.9,,,,,,,,,,,,,,,Clear,72000.0,,,,,,,,,
KRDR,02-25-2022,23:56,METAR,Normal,220,9.0,,,9999.0,,-11.2,-16.0,30.28,1028.5,,,,,,,,,,,,,,,Clear,72000.0,,,,,,,,,
KRDR,02-25-2022,22:56,METAR,Normal,210,10.0,,,9999.0,,-10.5,-14.9,30.29,1028.9,,,,,,,,,,,,,,,Clear,72000.0,,,,,,,,,
KRDR,02-25-2022,21:56,METAR,Normal,220,13.0,,,9999.0,,-10.7,-15.5,30.30,1029.3,,,,,,,,,,,,,,,,,1400.0,FEW,1400.0,,,,,,
KRDR,02-25-2022,20:56,METAR,Normal,210,14.0,,,9999.0,,-10.1,-15.1,30.31,1029.5,,,,,,,,,,,,,,,Clear,72000.0,,,,,,,,,
KRDR,02-25-2022,20:51,SPECI,Normal,210,14.0,,,9999.0,,-10.0,-15.0,30.31,1029.5,,,,,,,,,,,,,,,Clear,72000.0,,,,,,,,,
KRDR,02-25-2022,20:46,SPECI,Normal,210,14.0,,,9999.0,,-10.0,-15.0,30.31,1029.5,,,,,,,,,,,,,,,,2000.0,1400.0,SCT,1400.0,BKN,2000.0,,,,
KRDR,02-25-2022,19:56,METAR,Normal,190,14.0,,,9999.0,,-11.5,-16.3,30.34,1030.7,,,,,,,,,,,,,,,Clear,72000.0,,,,,,,,,
KRDR,02-25-2022,18:56,METAR,Normal,200,14.0,,,9999.0,,-12.8,-17.3,30.37,1031.8,,,,,,,,,,,,,,,,,19000.0,FEW,19000.0,,,,,,
KRDR,02-25-2022,17:56,METAR,Normal,190,10.0,,,9999.0,,-13.8,-18.5,30.40,1032.8,,,,,,,,,,,,,,,Clear,72000.0,,,,,,,,,
KRDR,02-25-2022,16:56,METAR,Normal,200,9.0,,,9999.0,,-16.2,-20.6,30.42,1033.6,,,,,,,,,,,,,,,Clear,72000.0,,,,,,,,,
KRDR,02-25-2022,15:56,METAR,Normal,200,7.0,,,9999.0,,-17.8,-22.2,30.44,1034.3,,,,,,,,,,,,,,,Clear,72000.0,,,,,,,,,
KRDR,02-25-2022,14:56,METAR,Normal,190,7.0,,,9999.0,,-20.7,-24.3,30.45,1034.8,,,,,,,,,,,,,,,Clear,72000.0,,,,,,,,,
KRDR,02-25-2022,13:56,METAR,Normal,190,6.0,,,9999.0,,-23.0,-26.3,30.45,1034.8,,,,,,,,,,,,,,,Clear,72000.0,,,,,,,,,
KRDR,02-25-2022,12:56,METAR,Normal,210,6.0,,,9999.0,,-23.2,-26.3,30.45,1034.6,,,,,,,,,,,,,,,Clear,72000.0,,,,,,,,,
KRDR,02-25-2022,11:56,METAR,Normal,220,6.0,,,9999.0,,-23.1,-25.8,30.45,1034.5,,,,,,,,,,,,,,,Clear,72000.0,,,,,,,,,
KRDR,02-25-2022,10:56,METAR,Normal,210,4.0,,,9999.0,,-25.2,-28.1,30.45,1034.6,,,,,,,,,,,,,,,Clear,72000.0,,,,,,,,,
KRDR,02-25-2022,09:56,METAR,Normal,220,5.0,,,9999.0,,-24.4,-27.2,30.46,1034.9,,,,,,,,,,,,,,,Clear,72000.0,,,,,,,,,
KRDR,02-25-2022,08:56,METAR,Normal,200,3.0,,,9999.0,,-24.8,-27.8,30.46,1034.9,,,,,,,,,,,,,,,Clear,72000.0,,,,,,,,,
KRDR,02-25-2022,07:56,METAR,Normal,210,4.0,,,9999.0,,-24.0,-27.0,30.48,1035.5,,,,,,,,,,,,,,,Clear,72000.0,,,,,,,,,
KRDR,02-25-2022,06:56,METAR,Normal,210,3.0,,,9999.0,,-24.4,-27.4,30.49,1036.0,,,,,,,,,,,,,,,Clear,72000.0,,,,,,,,,
KRDR,02-25-2022,05:56,METAR,Normal,210,4.0,,,9999.0,,-23.8,-26.8,30.49,1036.0,,,,,,,,,,,,,,,Clear,72000.0,,,,,,,,,
KRDR,02-25-2022,04:56,METAR,Calm,,0.0,,,9999.0,,-23.7,-26.8,30.49,1036.2,,,,,,,,,,,,,,,Clear,72000.0,,,,,,,,,
KRDR,02-25-2022,03:56,METAR,Calm,,0.0,,,9999.0,,-22.6,-25.6,30.49,1036.2,,,,,,,,,,,,,,,Clear,72000.0,,,,,,,,,
KRDR,02-25-2022,02:56,METAR,Calm,,0.0,,,9999.0,,-22.5,-25.4,30.48,1035.9,,,,,,,,,,,,,,,Clear,72000.0,,,,,,,,,
KRDR,02-25-2022,01:56,METAR,Calm,,0.0,,,9999.0,,-20.6,-24.2,30.48,1036.0,,,,,,,,,,,,,,,Clear,72000.0,,,,,,,,,
KRDR,02-25-2022,00:56,METAR,Normal,130,3.0,,,9999.0,,-16.8,-21.7,30.49,1036.2,,,,,,,,,,,,,,,Clear,72000.0,,,,,,,,,
KRDR,02-24-2022,23:56,METAR,Calm,,0.0,,,9999.0,,-15.7,-21.6,30.49,1036.2,,,,,,,,,,,,,,,Clear,72000.0,,,,,,,,,
KRDR,02-24-2022,22:56,METAR,Calm,,0.0,,,9999.0,,-15.3,-21.6,30.49,1036.1,,,,,,,,,,,,,,,Clear,72000.0,,,,,,,,,
KRDR,02-24-2022,21:56,METAR,Calm,,0.0,,,9999.0,,-15.2,-21.9,30.49,1036.0,,,,,,,,,,,,,,,Clear,72000.0,,,,,,,,,
KRDR,02-24-2022,20:56,METAR,Normal,210,3.0,,,9999.0,,-14.5,-21.4,30.49,1036.0,,,,,,,,,,,,,,,Clear,72000.0,,,,,,,,,
KRDR,02-24-2022,19:56,METAR,Normal,260,4.0,,,9999.0,,-14.6,-21.3,30.51,1036.6,,,,,,,,,,,,,,,Clear,72000.0,,,,,,,,,
KRDR,02-24-2022,18:56,METAR,Normal,200,7.0,,,9999.0,,-15.7,-21.6,30.54,1037.7,,,,,,,,,,,,,,,,,20000.0,FEW,20000.0,,,,,,
KRDR,02-24-2022,17:56,METAR,Normal,170,5.0,,,9999.0,,-16.8,-21.9,30.56,1038.4,,,,,,,,,,,,,,,Clear,72000.0,,,,,,,,,
KRDR,02-24-2022,16:56,METAR,Normal,170,3.0,,,9999.0,,-19.2,-23.7,30.56,1038.5,,,,,,,,,,,,,,,Clear,72000.0,,,,,,,,,
KRDR,02-24-2022,15:56,METAR,Normal,170,3.0,,,9999.0,,-22.0,-25.8,30.56,1038.6,,,,,,,,,,,,,,,Clear,72000.0,,,,,,,,,
KRDR,02-24-2022,14:56,METAR,Calm,,0.0,,,9999.0,,-24.9,-28.4,30.55,1038.3,,,,,,,,,,,,,,,Clear,72000.0,,,,,,,,,
KRDR,02-24-2022,13:56,METAR,Normal,220,4.0,,,9999.0,,-26.2,-29.6,30.55,1038.4,,,,,,,,,,,,,,,Clear,72000.0,,,,,,,,,
KRDR,02-24-2022,12:56,METAR,Normal,230,3.0,,,9999.0,,-26.5,-29.6,30.54,1038.0,,,,,,,,,,,,,,,Clear,72000.0,,,,,,,,,
KRDR,02-24-2022,11:56,METAR,Normal,210,3.0,,,9999.0,,-27.3,-30.5,30.54,1038.0,,,,,,,,,,,,,,,Clear,72000.0,,,,,,,,,
KRDR,02-24-2022,10:56,METAR,Calm,,0.0,,,9999.0,,-27.2,-30.2,30.52,1037.2,,,,,,,,,,,,,,,Clear,72000.0,,,,,,,,,
KRDR,02-24-2022,09:56,METAR,Calm,,0.0,,,9999.0,,-25.3,-28.1,30.53,1037.4,,,,,,,,,,,,,,,Clear,72000.0,,,,,,,,,
KRDR,02-24-2022,08:56,METAR,Normal,220,3.0,,,9999.0,,-25.1,-28.2,30.55,1038.1,,,,,,,,,,,,,,,Clear,72000.0,,,,,,,,,
KRDR,02-24-2022,07:56,METAR,Normal,220,4.0,,,9999.0,,-25.2,-28.6,30.56,1038.5,,,,,,,,,,,,,,,Clear,72000.0,,,,,,,,,
KRDR,02-24-2022,06:56,METAR,Normal,190,5.0,,,9999.0,,-24.3,-27.6,30.56,1038.5,,,,,,,,,,,,,,,Clear,72000.0,,,,,,,,,
KRDR,02-24-2022,05:56,METAR,Normal,220,4.0,,,9999.0,,-24.0,-27.3,30.56,1038.5,,,,,,,,,,,,,,,Clear,72000.0,,,,,,,,,
KRDR,02-24-2022,04:56,METAR,Normal,250,5.0,,,9999.0,,-23.9,-27.5,30.57,1038.9,,,,,,,,,,,,,,,Clear,72000.0,,,,,,,,,
KRDR,02-24-2022,03:56,METAR,Normal,230,4.0,,,9999.0,,-21.8,-25.6,30.59,1039.7,,,,,,,,,,,,,,,Clear,72000.0,,,,,,,,,
KRDR,02-24-2022,02:56,METAR,Normal,230,4.0,,,9999.0,,-21.6,-25.4,30.59,1039.7,,,,,,,,,,,,,,,Clear,72000.0,,,,,,,,,
KRDR,02-24-2022,01:56,METAR,Normal,220,5.0,,,9999.0,,-22.1,-25.7,30.59,1039.8,,,,,,,,,,,,,,,Clear,72000.0,,,,,,,,,
KRDR,02-24-2022,00:56,METAR,Normal,240,5.0,,,9999.0,,-20.7,-24.6,30.59,1039.8,,,,,,,,,,,,,,,Clear,72000.0,,,,,,,,,
KRDR,02-23-2022,23:56,METAR,Normal,280,4.0,,,9999.0,,-18.4,-23.4,30.60,1040.0,,,,,,,,,,,,,,,Clear,72000.0,,,,,,,,,
KRDR,02-23-2022,22:56,METAR,Normal,290,6.0,,,9999.0,,-17.1,-22.7,30.60,1039.9,,,,,,,,,,,,,,,Clear,72000.0,,,,,,,,,
KRDR,02-23-2022,21:56,METAR,Normal,300,7.0,,,9999.0,,-17.1,-22.9,30.62,1040.6,,,,,,,,,,,,,,,Clear,72000.0,,,,,,,,,
KRDR,02-23-2022,20:56,METAR,Normal,290,9.0,,,9999.0,,-16.8,-23.0,30.62,1040.5,,,,,,,,,,,,,,,Clear,72000.0,,,,,,,,,
KRDR,02-23-2022,19:56,METAR,Normal,280,8.0,,,9999.0,,-17.0,-22.8,30.63,1040.8,,,,,,,,,,,,,,,Clear,72000.0,,,,,,,,,
KRDR,02-23-2022,18:56,METAR,Normal,290,7.0,,,9999.0,,-17.8,-23.6,30.65,1041.5,,,,,,,,,,,,,,,Clear,72000.0,,,,,,,,,
KRDR,02-23-2022,17:56,METAR,Normal,270,5.0,,,9999.0,,-18.6,-24.7,30.68,1042.7,,,,,,,,,,,,,,,Clear,72000.0,,,,,,,,,
KRDR,02-23-2022,16:56,METAR,Normal,280,4.0,,,9999.0,,-20.8,-26.4,30.68,1042.7,,,,,,,,,,,,,,,Clear,72000.0,,,,,,,,,
KRDR,02-23-2022,15:56,METAR,Normal,300,7.0,,,9999.0,,-23.2,-28.0,30.68,1042.8,,,,,,,,,,,,,,,,,20000.0,FEW,20000.0,,,,,,
KRDR,02-23-2022,14:56,METAR,Normal,270,4.0,,,9999.0,,-24.5,-29.5,30.69,1043.1,,,,,,,,,,,,,,,Clear,72000.0,,,,,,,,,
KRDR,02-23-2022,13:56,METAR,Normal,250,4.0,,,9999.0,,-26.3,-30.5,30.70,1043.5,,,,,,,,,,,,,,,Clear,72000.0,,,,,,,,,
KRDR,02-23-2022,12:56,METAR,Normal,280,4.0,,,9999.0,,-27.1,-30.9,30.69,1043.2,,,,,,,,,,,,,,,Clear,72000.0,,,,,,,,,
KRDR,02-23-2022,11:56,METAR,Normal,290,7.0,,,9999.0,,-27.9,-31.8,30.70,1043.6,,,,,,,,,,,,,,,Clear,72000.0,,,,,,,,,
KRDR,02-23-2022,10:56,METAR,Normal,290,5.0,,,9999.0,,-27.6,-31.5,30.69,1043.3,,,,,,,,,,,,,,,Clear,72000.0,,,,,,,,,
KRDR,02-23-2022,09:56,METAR,Normal,270,5.0,,,9999.0,,-26.6,-30.8,30.69,1043.2,,,,,,,,,,,,,,,Clear,72000.0,,,,,,,,,
KRDR,02-23-2022,08:56,METAR,Normal,270,5.0,,,9999.0,,-25.8,-30.2,30.69,1043.2,,,,,,,,,,,,,,,Clear,72000.0,,,,,,,,,
KRDR,02-23-2022,07:56,METAR,Normal,270,5.0,,,9999.0,,-25.5,-29.9,30.69,1043.1,,,,,,,,,,,,,,,Clear,72000.0,,,,,,,,,
KRDR,02-23-2022,06:56,METAR,Normal,310,6.0,,,9999.0,,-25.0,-29.8,30.68,1042.8,,,,,,,,,,,,,,,Clear,72000.0,,,,,,,,,
KRDR,02-23-2022,04:56,METAR,Normal,320,8.0,,,9999.0,,-23.0,-28.0,30.66,1041.9,,,,,,,,,,,,,,,,,12000.0,FEW,12000.0,,,,,,
KRDR,02-23-2022,03:56,METAR,Normal,330,11.0,,,9999.0,,-21.9,-27.1,30.65,1041.7,,,,,,,,,,,,,,,,,12000.0,FEW,12000.0,,,,,,
KRDR,02-23-2022,02:56,METAR,Normal,340,13.0,,,9999.0,,-21.9,-27.1,30.63,1041.1,,,,,,,,,,,,,,,,12000.0,12000.0,OVC,12000.0,,,,,,
KRDR,02-23-2022,01:56,METAR,Normal,330,12.0,,,9999.0,,-21.8,-26.9,30.63,1041.1,,,,,,,,,,,,,,,,12000.0,12000.0,OVC,12000.0,,,,,,
KRDR,02-23-2022,00:56,METAR,Normal,340,16.0,,,9999.0,,-22.0,-27.2,30.61,1040.5,,,,,,,,,,,,,,,,14000.0,14000.0,BKN,14000.0,,,,,,
KRDR,02-22-2022,23:56,METAR,Normal,340,17.0,,310/26KTS,9999.0,,-21.9,-27.5,30.60,1040.1,,,,,,,,,,,,,,,,15000.0,15000.0,BKN,15000.0,,,,,,
KRDR,02-22-2022,22:56,METAR,Normal,340,21.0,,,9999.0,,-21.7,-27.3,30.58,1039.4,,,,,,,,,,,,,,,,,12000.0,FEW,12000.0,FEW,14000.0,SCT,17000.0,SCT,20000.0
KRDR,02-22-2022,21:56,METAR,Normal,340,16.0,,,9999.0,,-21.4,-26.5,30.57,1039.0,,,,,,,,,,,,,,,,18000.0,10000.0,FEW,10000.0,FEW,16000.0,BKN,18000.0,,
KRDR,02-22-2022,21:54,SPECI,Normal,340,16.0,,,9999.0,,-21.0,-26.0,30.57,1039.0,,,,,,,,,,,,,,,,18000.0,10000.0,FEW,10000.0,FEW,16000.0,BKN,18000.0,,
KRDR,02-22-2022,20:56,METAR,Normal,350,20.0,24.0,320/27KTS,9999.0,,-21.4,-26.5,30.56,1038.7,,,,,,,,,,,,,,,,17000.0,1400.0,SCT,1400.0,SCT,13000.0,BKN,17000.0,,
KRDR,02-22-2022,19:56,METAR,Normal,340,19.0,,,9999.0,,-21.4,-26.3,30.55,1038.3,,,,,,,,,,,,,,,,19000.0,9000.0,FEW,9100.0,SCT,16000.0,BKN,19000.0,,
KRDR,02-22-2022,18:56,METAR,Normal,350,20.0,,350/27KTS,9999.0,,-21.9,-26.8,30.55,1038.3,,,,,,,,,,,,,,,,,15000.0,FEW,15000.0,SCT,18000.0,SCT,21000.0,,
KRDR,02-22-2022,17:55,METAR,Normal,350,21.0,26.0,330/28KTS,9999.0,,-22.1,-26.6,30.54,1038.0,,,,,,,,,,,,,,,,17000.0,8000.0,FEW,8000.0,FEW,10000.0,SCT,13000.0,BKN,17000.0
KRDR,02-22-2022,16:56,METAR,Normal,350,19.0,,330/27KTS,9999.0,,-23.7,-28.2,30.53,1037.7,,,,,,,,,,,,,,,,9500.0,8000.0,FEW,8000.0,BKN,9600.0,BKN,16000.0,BKN,20000.0
KRDR,02-22-2022,15:54,METAR,Normal,350,17.0,,360/26KTS,9999.0,,-25.0,-29.4,30.55,1038.4,,,,,,,,,,,,,,,,8500.0,8500.0,OVC,8600.0,,,,,,
KRDR,02-22-2022,14:56,METAR,Normal,350,19.0,24.0,,9999.0,,-25.7,-30.1,30.56,1038.9,,,,,,,,,,,,,,,,9000.0,9000.0,BKN,9100.0,OVC,10000.0,,,,
KRDR,02-22-2022,13:55,METAR,Normal,350,18.0,,,9999.0,,-25.8,-30.1,30.55,1038.5,,,,,,,,,,,,,,,,13000.0,9500.0,SCT,9600.0,BKN,13000.0,OVC,15000.0,,
KRDR,02-22-2022,12:54,METAR,Normal,350,18.0,,,9999.0,,-26.0,-30.4,30.54,1038.2,,,,,,,,,,,,,,,,8000.0,8000.0,BKN,8000.0,OVC,15000.0,,,,
KRDR,02-22-2022,11:57,METAR,Normal,360,18.0,,,9999.0,,-25.9,-30.2,30.53,1037.8,,,,,,,,,,,,,,,,5000.0,5000.0,OVC,5000.0,,,,,,
KRDR,02-22-2022,10:55,METAR,Normal,360,18.0,,,9999.0,,-25.2,-29.5,30.52,1037.4,,,,,,,,,,,,,,,,5000.0,5000.0,BKN,5000.0,OVC,7000.0,,,,
KRDR,02-22-2022,09:57,METAR,Normal,360,16.0,21.0,350/26KTS,9999.0,,-25.1,-29.4,30.51,1037.0,,,,,,,,,,,,,,,,10000.0,10000.0,OVC,10000.0,,,,,,
KRDR,02-22-2022,08:54,METAR,Normal,360,19.0,,340/26KTS,9999.0,,-24.8,-29.1,30.52,1037.4,,,,,,,,,,,,TRACE,,,,8500.0,8500.0,BKN,8600.0,OVC,14000.0,,,,
KRDR,02-22-2022,07:57,METAR,Normal,360,18.0,,,9999.0,,-24.9,-29.2,30.52,1037.4,,,,,,,,,,,,,,,,10000.0,10000.0,BKN,10000.0,,,,,,
KRDR,02-22-2022,07:29,SPECI,Normal,360,19.0,,,9999.0,,-25.0,-29.0,30.52,1037.4,,,,,,,,,,,,,,,,8000.0,8000.0,BKN,8000.0,,,,,,
KRDR,02-22-2022,06:54,METAR,Normal,360,18.0,,360/27KTS,9999.0,Blowing or Drifting Snow or Sand,-24.4,-28.5,30.51,1037.0,27,,,,,,,,,,TRACE,,,,,8000.0,8000.0,BKN,8000.0,,,,,,
KRDR,02-22-2022,05:55,METAR,Normal,360,20.0,,340/27KTS,4800.0,Light Snow/Blowing or Drifting Snow or Sand,-24.0,-28.0,30.53,1037.7,27,71,,,,,,,,,TRACE,,TRACE,,,4500.0,4500.0,BKN,4500.0,OVC,10000.0,,,,
KRDR,02-22-2022,04:56,METAR,Normal,360,19.0,26.0,340/29KTS,4800.0,Light Snow/Blowing or Drifting Snow or Sand,-23.8,-27.8,30.55,1038.4,27,71,,,,,,,,,TRACE,,,,,1500.0,1500.0,BKN,1500.0,OVC,2500.0,,,,
KRDR,02-22-2022,03:56,METAR,Normal,360,23.0,,350/28KTS,4800.0,Light Snow/Blowing or Drifting Snow or Sand,-23.8,-27.5,30.52,1037.4,27,71,,,,,,,,,TRACE,,,,,1300.0,1300.0,OVC,1300.0,,,,,,
KRDR,02-22-2022,02:55,METAR,Normal,360,20.0,25.0,340/28KTS,4800.0,Light Snow/Blowing or Drifting Snow or Sand,-23.8,-27.4,30.52,1037.5,27,71,,,,,,,,,TRACE,TRACE,,,,700.0,700.0,BKN,700.0,OVC,1400.0,,,,
KRDR,02-22-2022,01:56,METAR,Normal,360,22.0,,340/27KTS,4800.0,Light Snow/Blowing or Drifting Snow or Sand,-23.8,-27.2,30.52,1037.5,27,71,,,,,,,,,TRACE,,,,,500.0,500.0,OVC,500.0,,,,,,
KRDR,02-22-2022,00:56,METAR,Normal,360,21.0,27.0,340/29KTS,3200.0,Blowing or Drifting Snow or Sand,-23.7,-27.0,30.48,1036.1,27,,,,,,,,,,,,,,,300.0,300.0,OVC,300.0,,,,,,
KRDR,02-21-2022,23:56,METAR,Normal,360,19.0,25.0,360/29KTS,3200.0,Blowing or Drifting Snow or Sand,-23.6,-26.9,30.47,1035.7,27,,,,,,,,,,,,TRACE,,,200.0,200.0,OVC,200.0,,,,,,
KRDR,02-21-2022,22:56,METAR,Normal,360,22.0,,360/29KTS,4800.0,Blowing or Drifting Snow or Sand,-23.3,-26.4,30.44,1034.7,27,,,,,,,,,,,,,,,200.0,200.0,OVC,200.0,,,,,,
KRDR,02-21-2022,21:56,METAR,Normal,360,22.0,28.0,340/30KTS,3200.0,Blowing or Drifting Snow or Sand,-23.1,-26.4,30.43,1034.3,27,,,,,,,,,,TRACE,,,,,200.0,200.0,OVC,200.0,,,,,,
KRDR,02-21-2022,20:56,METAR,Normal,10,22.0,29.0,340/32KTS,1800.0,Light Snow/Blowing or Drifting Snow or Sand,-23.1,-26.4,30.41,1033.6,71,27,,,,,,,,,TRACE,TRACE,,,,200.0,200.0,OVC,200.0,,,,,,
KRDR,02-21-2022,20:22,SPECI,Normal,10,22.0,31.0,,4800.0,Light Snow/Blowing or Drifting Snow or Sand,-23.0,-26.0,30.41,1033.5,71,27,,,,,,,,,,,,,,200.0,200.0,BKN,200.0,BKN,600.0,OVC,5000.0,,
KRDR,02-21-2022,20:13,SPECI,Normal,10,25.0,31.0,,600.0,Blowing or Drifting Snow or Sand,-23.0,-26.0,30.40,1033.2,27,,,,,,,,,,,,,,,200.0,200.0,BKN,200.0,OVC,4200.0,,,,
KRDR,02-21-2022,19:56,METAR,Normal,10,25.0,28.0,350/29KTS,1200.0,Blowing or Drifting Snow or Sand,-23.0,-26.3,30.40,1033.2,27,,,,,,,,,,,,,,,500.0,500.0,BKN,500.0,,,,,,
KRDR,02-21-2022,18:56,METAR,Normal,10,22.0,28.0,360/29KTS,1200.0,Blowing or Drifting Snow or Sand,-23.2,-26.8,30.41,1033.5,27,,,,,,,,,,TRACE,,,,,300.0,300.0,BKN,300.0,OVC,3300.0,,,,
KRDR,02-21-2022,18:24,SPECI,Normal,360,21.0,29.0,,1400.0,Blowing or Drifting Snow or Sand,-23.0,-27.0,30.41,1033.5,27,,,,,,,,,,,,,,,300.0,300.0,BKN,300.0,OVC,3800.0,,,,
KRDR,02-21-2022,17:56,METAR,Normal,10,19.0,,330/26KTS,2800.0,Light Snow/Blowing or Drifting Snow or Sand,-23.7,-27.4,30.41,1033.5,71,27,,,,,,,,,TRACE,,TRACE,,,500.0,500.0,OVC,500.0,,,,,,
KRDR,02-21-2022,17:30,SPECI,Normal,360,19.0,,,4800.0,Light Snow/Blowing or Drifting Snow or Sand,-24.0,-28.0,30.43,1034.2,71,27,,,,,,,,,,,,,,1000.0,1000.0,OVC,1000.0,,,,,,
KRDR,02-21-2022,17:15,SPECI,Normal,360,19.0,23.0,,2000.0,Light Snow/Blowing or Drifting Snow or Sand,-24.0,-28.0,30.43,1034.2,71,27,,,,,,,,,,,,,,1800.0,600.0,SCT,600.0,OVC,1800.0,,,,
KRDR,02-21-2022,16:54,METAR,Normal,10,21.0,25.0,340/26KTS,2000.0,Light Snow/Blowing or Drifting Snow or Sand,-24.6,-28.1,30.42,1034.0,71,27,,,,,,,,,TRACE,,,,,1000.0,1000.0,OVC,1000.0,,,,,,
KRDR,02-21-2022,16:47,SPECI,Normal,10,18.0,25.0,,3200.0,Light Snow/Blowing or Drifting Snow or Sand,-25.0,-28.0,30.43,1034.3,71,27,,,,,,,,,,,,,,500.0,500.0,OVC,500.0,,,,,,
KRDR,02-21-2022,16:32,SPECI,Normal,10,20.0,25.0,,4800.0,Light Snow/Blowing or Drifting Snow or Sand,-25.0,-28.0,30.43,1034.3,71,27,,,,,,,,,,,,,,1000.0,1000.0,OVC,1000.0,,,,,,
KRDR,02-21-2022,15:56,METAR,Normal,360,20.0,,350/26KTS,8000.0,Light Snow,-25.0,-28.8,30.44,1034.7,71,,,,,,,,,,TRACE,,,,,1000.0,1000.0,OVC,1000.0,,,,,,
KRDR,02-21-2022,14:58,METAR,Normal,10,21.0,,350/26KTS,8000.0,Light Snow,-25.3,-29.1,30.41,1033.5,71,,,,,,,,,,TRACE,TRACE,,,,1000.0,1000.0,OVC,1000.0,,,,,,
KRDR,02-21-2022,14:25,SPECI,Normal,10,19.0,,,8000.0,Light Snow,-25.0,-29.0,30.41,1033.5,71,,,,,,,,,,,,,,,1000.0,1000.0,OVC,1000.0,,,,,,
KRDR,02-21-2022,13:56,METAR,Normal,10,20.0,,,9999.0,Light Snow,-25.3,-29.3,30.38,1032.5,71,,,,,,,,,,TRACE,,,,,3600.0,3600.0,BKN,3600.0,OVC,4700.0,,,,
KRDR,02-21-2022,13:42,SPECI,Normal,10,20.0,,,9999.0,Light Snow,-25.0,-29.0,30.39,1032.8,71,,,,,,,,,,,,,,,3600.0,3600.0,OVC,3600.0,,,,,,
KRDR,02-21-2022,12:57,METAR,Normal,360,18.0,,,9999.0,,-25.2,-29.2,30.39,1032.8,,,,,,,,,,,,,,,,6000.0,1000.0,FEW,1000.0,OVC,6000.0,,,,
KRDR,02-21-2022,11:54,METAR,Normal,360,19.0,,,9999.0,,-24.9,-28.9,30.38,1032.5,,,,,,,,,,,TRACE,,TRACE,,,5000.0,5000.0,BKN,5000.0,OVC,7000.0,,,,
KRDR,02-21-2022,11:03,SPECI,Normal,340,18.0,,,9999.0,,-25.0,-29.0,30.36,1031.7,,,,,,,,,,,,,,,,6500.0,6500.0,OVC,6500.0,,,,,,
KRDR,02-21-2022,10:56,METAR,Normal,340,18.0,,,9999.0,Light Snow,-24.8,-28.9,30.36,1031.7,71,,,,,,,,,,TRACE,,,,,6500.0,6500.0,OVC,6500.0,,,,,,
KRDR,02-21-2022,09:55,METAR,Normal,340,18.0,24.0,360/28KTS,9999.0,Light Snow,-24.5,-28.6,30.35,1031.4,71,,,,,,,,,,TRACE,,,,,5500.0,1000.0,FEW,1000.0,BKN,5500.0,,,,
KRDR,02-21-2022,09:31,SPECI,Normal,350,19.0,26.0,,9999.0,Light Snow,-24.0,-28.0,30.33,1030.6,71,,,,,,,,,,,,,,,,5000.0,SCT,5000.0,,,,,,
KRDR,02-21-2022,08:55,METAR,Normal,350,20.0,26.0,010/27KTS,9999.0,,-24.2,-28.5,30.33,1030.6,,,,,,,,,,,,,,,,6000.0,1000.0,FEW,1000.0,OVC,6000.0,,,,
KRDR,02-21-2022,07:55,METAR,Normal,340,20.0,,020/29KTS,9999.0,,-24.1,-28.6,30.35,1031.3,,,,,,,,,,,,,,,,6500.0,1000.0,FEW,1000.0,OVC,6500.0,,,,
KRDR,02-21-2022,06:54,METAR,Normal,350,22.0,27.0,010/28KTS,9999.0,,-23.6,-28.1,30.32,1030.2,,,,,,,,,,,,,,,,9500.0,9500.0,BKN,9600.0,,,,,,
KRDR,02-21-2022,05:54,METAR,Normal,350,19.0,27.0,350/27KTS,9999.0,,-22.7,-27.2,30.31,1029.8,,,,,,,,,,,,,,,,,7000.0,FEW,7000.0,,,,,,
KRDR,02-21-2022,04:56,METAR,Normal,350,18.0,,340/26KTS,9999.0,,-22.3,-26.8,30.31,1029.8,,,,,,,,,,,,,,,,,6500.0,FEW,6500.0,,,,,,
KRDR,02-21-2022,03:56,METAR,Normal,340,20.0,,340/27KTS,9999.0,Blowing or Drifting Snow or Sand,-22.1,-26.3,30.28,1028.7,27,,,,,,,,,,,,,,,7500.0,7500.0,OVC,7500.0,,,,,,
KRDR,02-21-2022,02:56,METAR,Normal,330,19.0,29.0,340/29KTS,9999.0,Blowing or Drifting Snow or Sand,-21.5,-25.6,30.26,1027.9,27,,,,,,,,,,,,,,,8000.0,8000.0,OVC,8000.0,,,,,,
KRDR,02-21-2022,01:57,METAR,Normal,340,20.0,,340/29KTS,9999.0,Blowing or Drifting Snow or Sand,-21.4,-25.2,30.21,1026.2,27,,,,,,,,,,,,,,,8000.0,8000.0,OVC,8000.0,,,,,,
KRDR,02-21-2022,00:56,METAR,Normal,340,21.0,28.0,,8000.0,Blowing or Drifting Snow or Sand,-20.9,-24.5,30.19,1025.4,27,,,,,,,,,,,,,,,9000.0,800.0,SCT,800.0,BKN,9100.0,OVC,11000.0,,
KRDR,02-20-2022,23:56,METAR,Normal,340,22.0,,360/28KTS,8000.0,Blowing or Drifting Snow or Sand,-20.7,-24.3,30.18,1025.1,27,,,,,,,,,,,,,,,700.0,700.0,BKN,700.0,OVC,9100.0,,,,
KRDR,02-20-2022,22:56,METAR,Normal,330,19.0,,350/26KTS,6400.0,Blowing or Drifting Snow or Sand,-20.0,-23.4,30.16,1024.2,27,,,,,,,,,,,,,,,600.0,600.0,OVC,600.0,,,,,,
KRDR,02-20-2022,22:20,SPECI,Normal,330,20.0,,,6400.0,,-20.0,-23.0,30.11,1022.4,,,,,,,,,,,,,,,,500.0,500.0,OVC,500.0,,,,,,
KRDR,02-20-2022,21:56,METAR,Normal,340,18.0,24.0,330/27KTS,8000.0,Blowing or Drifting Snow or Sand,-19.3,-22.7,30.11,1022.4,27,,,,,,,,,,,,,,,700.0,700.0,OVC,700.0,,,,,,
KRDR,02-20-2022,20:56,METAR,Normal,330,20.0,26.0,330/28KTS,8000.0,Blowing or Drifting Snow or Sand,-18.9,-22.3,30.07,1020.7,27,,,,,,,,,,,,,,,700.0,700.0,BKN,700.0,,,,,,
KRDR,02-20-2022,20:05,SPECI,Normal,340,20.0,,,8000.0,,-18.0,-21.0,30.02,1018.9,,,,,,,,,,,,,,,,700.0,700.0,BKN,700.0,,,,,,
KRDR,02-20-2022,19:56,METAR,Normal,340,23.0,26.0,,1600.0,Blowing or Drifting Snow or Sand,-18.0,-21.0,30.02,1018.9,27,,,,,,,,,,,,,,,1000.0,500.0,SCT,500.0,OVC,1000.0,,,,
KRDR,02-20-2022,18:56,METAR,Normal,330,22.0,26.0,340/26KTS,1000.0,Blowing or Drifting Snow or Sand,-17.8,-20.8,30.02,1018.9,27,,,,,,,,,,,,,,,1000.0,500.0,FEW,500.0,OVC,1000.0,,,,
KRDR,02-20-2022,17:56,METAR,Normal,330,19.0,,340/27KTS,400.0,Blowing or Drifting Snow or Sand,-17.2,-20.2,29.99,1017.9,27,,,,,,,,,,,,.04 IN,,,1100.0,600.0,SCT,600.0,OVC,1100.0,,,,
KRDR,02-20-2022,16:57,METAR,Normal,330,20.0,28.0,360/32KTS,400.0,Blowing or Drifting Snow or Sand,-17.3,-20.3,29.93,1015.9,27,,,,,,,,,,,,,,,700.0,700.0,BKN,700.0,OVC,1100.0,,,,
KRDR,02-20-2022,15:55,METAR,Normal,330,26.0,32.0,330/35KTS,400.0,Blowing Snow,-16.6,-19.3,29.85,1013.1,,,,38,,,,,,,TRACE,,,,,700.0,700.0,BKN,700.0,OVC,1200.0,,,,
KRDR,02-20-2022,15:20,SPECI,Normal,340,24.0,32.0,,400.0,Blowing or Drifting Snow or Sand,-16.0,-19.0,29.82,1012.1,27,,,,,,,,,,,,,,,200.0,700.0,BKN,700.0,OVC,1200.0,,,,
KRDR,02-20-2022,14:56,METAR,Normal,330,23.0,34.0,340/34KTS,400.0,Heavy Snow/Blowing Snow,-15.8,-18.4,29.81,1011.8,,,,75,38,,,,,,TRACE,.04 IN,,,,600.0,600.0,BKN,600.0,OVC,1500.0,,,,
KRDR,02-20-2022,14:00,METAR,Normal,330,26.0,32.0,330/41KTS,400.0,Heavy Snow/Blowing or Drifting Snow or Sand,-14.9,-17.3,29.76,1010.0,73,27,,,,,,,,,.02 IN,,,,,700.0,700.0,BKN,700.0,OVC,1100.0,,,,
KRDR,02-20-2022,12:55,METAR,Normal,330,25.0,38.0,330/38KTS,400.0,Heavy Snow/Blowing or Drifting Snow or Sand,-13.6,-15.8,29.65,1006.1,73,27,,,,,,,,,,,,,,700.0,700.0,BKN,700.0,OVC,1400.0,,,,
KRDR,02-20-2022,12:02,SPECI,Normal,330,25.0,37.0,,800.0,Heavy Snow/Blowing or Drifting Snow or Sand,-12.0,-14.0,29.58,1003.7,73,27,,,,,,,,,,,,,,700.0,700.0,BKN,700.0,OVC,1100.0,,,,
KRDR,02-20-2022,11:57,METAR,Normal,340,29.0,37.0,330/42KTS,400.0,Heavy Snow/Blowing or Drifting Snow or Sand,-12.3,-14.3,29.57,1003.3,73,27,,,,,,,,,,,TRACE,,,1100.0,1100.0,OVC,1100.0,,,,,,
KRDR,02-20-2022,10:55,METAR,Normal,330,33.0,39.0,350/40KTS,400.0,Heavy Snow,-10.4,-12.3,29.48,1000.3,73,,,,,,,,,,TRACE,,,,,500.0,500.0,OVC,500.0,,,,,,
KRDR,02-20-2022,09:54,METAR,Normal,330,26.0,35.0,340/37KTS,400.0,Heavy Snow,-6.2,-7.9,29.39,997.1,73,,,,,,,,,,TRACE,,,,,1000.0,1000.0,BKN,1000.0,OVC,2600.0,,,,
KRDR,02-20-2022,09:38,SPECI,Normal,340,29.0,37.0,,400.0,Snow,-5.0,-7.0,29.37,996.4,72,,,,,,,,,,,,,,,1000.0,1000.0,BKN,1000.0,BKN,1500.0,OVC,3000.0,,
KRDR,02-20-2022,09:19,SPECI,Normal,330,28.0,35.0,,2600.0,Light Snow,-3.0,-5.0,29.35,995.7,71,,,,,,,,,,,,,,,1000.0,1000.0,BKN,1000.0,OVC,2400.0,,,,
KRDR,02-20-2022,09:13,SPECI,Normal,330,24.0,30.0,,4000.0,Light Snow,-2.0,-3.0,29.34,995.3,71,,,,,,,,,,,,,,,1000.0,1000.0,BKN,1000.0,OVC,1400.0,,,,
KRDR,02-20-2022,08:56,METAR,Normal,320,21.0,27.0,,6400.0,Light Snow,-0.5,-1.8,29.33,994.9,71,,,,,,,,,,TRACE,TRACE,,,,1000.0,1000.0,OVC,1000.0,,,,,,
KRDR,02-20-2022,08:47,SPECI,Normal,320,15.0,,,6400.0,Light Snow,0.0,-2.0,29.32,994.6,71,,,,,,,,,,,,,,,1200.0,1200.0,BKN,1200.0,BKN,3400.0,OVC,4600.0,,
KRDR,02-20-2022,08:38,SPECI,Normal,320,15.0,,,9999.0,Light Snow,0.0,-3.0,29.33,995.0,71,,,,,,,,,,,,,,,5500.0,1000.0,SCT,1000.0,BKN,5500.0,BKN,7000.0,OVC,8000.0
KRDR,02-20-2022,08:26,SPECI,Normal,310,10.0,,,9999.0,Light Freezing Drizzle,0.0,-3.0,29.31,994.3,54,,,,,,,,,,,,,,,5500.0,5500.0,BKN,5500.0,OVC,7500.0,,,,
KRDR,02-20-2022,08:08,SPECI,Normal,310,8.0,,,9999.0,Light Snow,0.0,-3.0,29.30,994.0,71,,,,,,,,,,,,,,,,4700.0,FEW,4700.0,SCT,6500.0,,,,
KRDR,02-20-2022,07:56,METAR,Normal,280,7.0,,,9999.0,,0.5,-2.6,29.31,994.3,,,,,,,,,,,,,,,,6500.0,6500.0,BKN,6500.0,BKN,8600.0,BKN,11000.0,,
KRDR,02-20-2022,06:56,METAR,Normal,190,8.0,,,9999.0,,0.3,-2.9,29.27,993.0,,,,,,,,,,,,,,,,8000.0,8000.0,OVC,8000.0,,,,,,
KRDR,02-20-2022,05:56,METAR,Normal,170,10.0,,,9999.0,,-0.3,-3.8,29.28,993.4,,,,,,,,,,,,,,,,7000.0,7000.0,OVC,7000.0,,,,,,
KRDR,02-20-2022,04:56,METAR,Normal,170,11.0,,,9999.0,,-0.5,-4.2,29.32,994.9,,,,,,,,,,,,,,,,7000.0,7000.0,OVC,7000.0,,,,,,
KRDR,02-20-2022,03:56,METAR,Normal,160,13.0,,,9999.0,,-1.3,-5.2,29.37,996.7,,,,,,,,,,,,,,,,9500.0,6500.0,FEW,6500.0,OVC,9600.0,,,,
KRDR,02-20-2022,02:56,METAR,Normal,160,13.0,,,9999.0,,-1.5,-5.5,29.41,998.2,,,,,,,,,,,,,,,,10000.0,10000.0,BKN,10000.0,OVC,12000.0,,,,
KRDR,02-20-2022,01:56,METAR,Normal,170,15.0,,,9999.0,,-1.1,-5.5,29.45,999.5,,,,,,,,,,,,,,,,,11000.0,SCT,11000.0,,,,,,
KRDR,02-20-2022,00:56,METAR,Normal,160,12.0,,,9999.0,,-1.0,-5.2,29.48,1000.7,,,,,,,,,,,,,,,,10000.0,10000.0,OVC,10000.0,,,,,,
KRDR,02-19-2022,23:56,METAR,Normal,170,15.0,,,9999.0,,-0.6,-5.4,29.51,1001.7,,,,,,,,,,,,,TRACE,,,10000.0,10000.0,OVC,10000.0,,,,,,
KRDR,02-19-2022,22:56,METAR,Normal,180,20.0,,190/32KTS,9999.0,,-1.6,-6.5,29.55,1003.1,,,,,,,,,,,,,,,,10000.0,10000.0,OVC,10000.0,,,,,,
KRDR,02-19-2022,21:56,METAR,Normal,170,25.0,34.0,170/35KTS,9999.0,,-4.0,-8.9,29.58,1004.2,,,,,,,,,,,TRACE,,,,,10000.0,10000.0,OVC,10000.0,,,,,,
KRDR,02-19-2022,21:29,SPECI,Normal,170,27.0,32.0,,9999.0,,-5.0,-10.0,29.60,1005.0,,,,,,,,,,,,,,,,10000.0,10000.0,OVC,10000.0,,,,,,
KRDR,02-19-2022,21:26,SPECI,Normal,170,27.0,32.0,,9999.0,Light Snow,-5.0,-10.0,29.61,1005.4,71,,,,,,,,,,,,,,,10000.0,10000.0,OVC,10000.0,,,,,,
KRDR,02-19-2022,20:56,METAR,Normal,170,22.0,31.0,170/37KTS,9999.0,,-6.5,-11.1,29.64,1006.4,,,,,,,,,,,,,,,,10000.0,10000.0,BKN,10000.0,,,,,,
KRDR,02-19-2022,19:56,METAR,Normal,170,29.0,36.0,170/44KTS,6400.0,,-8.7,-13.0,29.68,1007.8,,,,,,,,,,,,,,,,10000.0,10000.0,OVC,10000.0,,,,,,
KRDR,02-19-2022,19:48,SPECI,Normal,170,30.0,40.0,,4400.0,,-9.0,-13.0,29.69,1008.2,,,,,,,,,,,,,,,,10000.0,10000.0,BKN,10000.0,,,,,,
KRDR,02-19-2022,19:42,SPECI,Normal,170,32.0,44.0,,1800.0,Blowing or Drifting Snow or Sand,-9.0,-13.0,29.69,1008.2,27,,,,,,,,,,,,,,,10000.0,10000.0,OVC,10000.0,,,,,,
KRDR,02-19-2022,19:37,SPECI,Normal,170,34.0,41.0,,2800.0,Blowing or Drifting Snow or Sand,-9.0,-13.0,29.70,1008.5,27,,,,,,,,,,,,,,,10000.0,10000.0,OVC,10000.0,,,,,,
KRDR,02-19-2022,19:36,SPECI,Normal,170,34.0,41.0,,3000.0,Haze Smoke or Dust,-9.0,-13.0,29.71,1008.9,05,,,,,,,,,,,,,,,10000.0,10000.0,OVC,10000.0,,,,,,
KRDR,02-19-2022,19:26,SPECI,Normal,170,34.0,40.0,,3600.0,Haze Smoke or Dust,-9.0,-14.0,29.72,1009.2,05,,,,,,,,,,,,,,,11000.0,11000.0,OVC,11000.0,,,,,,
KRDR,02-19-2022,18:56,METAR,Normal,160,27.0,37.0,160/37KTS,9999.0,,-10.9,-15.2,29.77,1010.9,,,,,,,,,,,,,,,,11000.0,11000.0,OVC,11000.0,,,,,,
KRDR,02-19-2022,17:56,METAR,Normal,150,24.0,,160/34KTS,9999.0,,-13.1,-17.3,29.86,1014.1,,,,,,,,,,,,,,,,12000.0,5000.0,SCT,5000.0,BKN,12000.0,,,,
KRDR,02-19-2022,16:56,METAR,Normal,170,24.0,29.0,180/31KTS,9999.0,,-14.7,-19.0,29.97,1017.9,,,,,,,,,,,,,,,,5000.0,5000.0,OVC,5000.0,,,,,,
KRDR,02-19-2022,15:56,METAR,Normal,170,20.0,,170/26KTS,8000.0,,-16.5,-20.9,30.06,1021.0,,,,,,,,,,,,,,,,4900.0,3900.0,FEW,3900.0,OVC,4900.0,,,,
KRDR,02-19-2022,14:56,METAR,Normal,160,14.0,,,9999.0,,-18.2,-22.1,30.11,1022.8,,,,,,,,,,,,,,,,6000.0,6000.0,BKN,6000.0,OVC,7500.0,,,,
KRDR,02-19-2022,13:56,METAR,Normal,130,8.0,,,9999.0,,-19.9,-23.6,30.15,1024.2,,,,,,,,,,,,,,,,9000.0,9000.0,OVC,9100.0,,,,,,
KRDR,02-19-2022,13:16,SPECI,Normal,170,6.0,,,9999.0,,-21.0,-25.0,30.19,1025.6,,,,,,,,,,,,,,,,9000.0,9000.0,OVC,9100.0,,,,,,
KRDR,02-19-2022,12:56,METAR,Normal,180,7.0,,,9999.0,,-21.1,-24.9,30.22,1026.6,,,,,,,,,,,,,,,,,9000.0,FEW,9100.0,SCT,12000.0,,,,
KRDR,02-19-2022,11:56,METAR,Normal,170,6.0,,,9999.0,,-21.2,-24.8,30.24,1027.2,,,,,,,,,,,,,,.01 IN,,,12000.0,SCT,12000.0,,,,,,
KRDR,02-19-2022,10:56,METAR,Normal,210,5.0,,,9999.0,,-22.3,-25.9,30.28,1028.7,,,,,,,,,,,,,,,Clear,72000.0,,,,,,,,,
KRDR,02-19-2022,09:56,METAR,Normal,230,7.0,,,9999.0,,-22.4,-26.0,30.29,1029.0,,,,,,,,,,,,,,,Clear,72000.0,,,,,,,,,
KRDR,02-19-2022,08:56,METAR,Normal,230,7.0,,,9999.0,,-22.2,-25.8,30.30,1029.4,,,,,,,,,,,,,,,Clear,72000.0,,,,,,,,,
KRDR,02-19-2022,07:56,METAR,Normal,270,6.0,,,9999.0,,-21.0,-24.9,30.31,1029.7,,,,,,,,,,,,,,,Clear,72000.0,,,,,,,,,
KRDR,02-19-2022,06:56,METAR,Normal,290,8.0,,,9999.0,,-19.7,-23.8,30.33,1030.4,,,,,,,,,,,,,,,Clear,72000.0,,,,,,,,,
KRDR,02-19-2022,05:56,METAR,Normal,290,10.0,,,9999.0,,-18.8,-23.1,30.31,1029.6,,,,,,,,,,,,,,,Clear,72000.0,,,,,,,,,
KRDR,02-19-2022,04:56,METAR,Normal,300,12.0,,,9999.0,,-18.4,-22.4,30.30,1029.2,,,,,,,,,,,,,,,Clear,72000.0,,,,,,,,,
KRDR,02-19-2022,03:56,METAR,Normal,290,13.0,,,9999.0,,-17.9,-22.3,30.28,1028.5,,,,,,,,,,,,,,,Clear,72000.0,,,,,,,,,
KRDR,02-19-2022,02:56,METAR,Normal,300,15.0,,,9999.0,,-17.3,-21.7,30.26,1027.7,,,,,,,,,,,,,,,Clear,72000.0,,,,,,,,,
KRDR,02-19-2022,01:56,METAR,Normal,300,15.0,,,9999.0,,-16.9,-21.3,30.23,1026.4,,,,,,,,,,,,,,,Clear,72000.0,,,,,,,,,
KRDR,02-19-2022,01:36,SPECI,Normal,290,18.0,24.0,,9999.0,,-17.0,-21.0,30.22,1026.0,,,,,,,,,,,,,,,,,1600.0,FEW,1600.0,SCT,2200.0,,,,
KRDR,02-19-2022,01:26,SPECI,Normal,290,16.0,23.0,,9999.0,,-16.0,-21.0,30.22,1025.9,,,,,,,,,,,,,,,,1100.0,1100.0,SCT,1100.0,SCT,1700.0,BKN,2300.0,,
KRDR,02-19-2022,01:06,SPECI,Normal,290,14.0,23.0,,9999.0,,-16.0,-20.0,30.21,1025.6,,,,,,,,,,,,,,,,1000.0,1000.0,OVC,1000.0,,,,,,
KRDR,02-19-2022,00:56,METAR,Normal,290,17.0,,,9999.0,,-16.1,-20.2,30.20,1025.2,,,,,,,,,,,,,,,,700.0,700.0,SCT,700.0,OVC,1200.0,,,,
KRDR,02-19-2022,00:46,SPECI,Normal,290,18.0,,,9999.0,,-16.0,-20.0,30.19,1024.9,,,,,,,,,,,,,,,,700.0,700.0,BKN,700.0,OVC,1200.0,,,,
KRDR,02-19-2022,00:36,SPECI,Normal,290,17.0,26.0,,9999.0,,-16.0,-20.0,30.18,1024.6,,,,,,,,,,,,,,,,500.0,600.0,BKN,600.0,OVC,1100.0,,,,
KRDR,02-19-2022,00:26,SPECI,Normal,290,19.0,26.0,,9999.0,,-16.0,-19.0,30.17,1024.2,,,,,,,,,,,,,,,,500.0,900.0,BKN,900.0,OVC,1300.0,,,,
KRDR,02-18-2022,23:56,METAR,Normal,300,15.0,,300/29KTS,9999.0,,-15.3,-19.6,30.15,1023.5,,,,,,,,,,,,,TRACE,,,800.0,1100.0,BKN,1100.0,OVC,2000.0,,,,
KRDR,02-18-2022,23:50,SPECI,Normal,300,18.0,28.0,,9999.0,,-15.0,-20.0,30.14,1023.3,,,,,,,,,,,,,,,,1000.0,900.0,SCT,900.0,BKN,1600.0,OVC,2200.0,,
KRDR,02-18-2022,23:33,SPECI,Normal,300,18.0,24.0,,9999.0,,-15.0,-20.0,30.13,1023.0,,,,,,,,,,,,,,,,1500.0,1700.0,BKN,1700.0,OVC,2300.0,,,,
KRDR,02-18-2022,22:56,METAR,Normal,300,22.0,32.0,310/35KTS,9999.0,Blowing or Drifting Snow or Sand,-15.4,-19.8,30.09,1021.8,27,,,,,,,,,,,,,,,1300.0,1500.0,OVC,1500.0,,,,,,
KRDR,02-18-2022,22:07,SPECI,Normal,290,26.0,33.0,,9999.0,Blowing Snow,-15.0,-20.0,30.04,1020.0,,,,38,,,,,,,,,,,,1200.0,1300.0,OVC,1300.0,,,,,,
KRDR,02-18-2022,21:56,METAR,Normal,300,24.0,33.0,330/35KTS,9999.0,,-15.6,-19.9,30.03,1019.8,,,,,,,,,,,TRACE,,,,,1200.0,1200.0,OVC,1200.0,,,,,,
KRDR,02-18-2022,21:43,SPECI,Normal,300,24.0,33.0,,9999.0,,-16.0,-20.0,30.02,1019.5,,,,,,,,,,,,,,,,1100.0,1200.0,OVC,1200.0,,,,,,
KRDR,02-18-2022,21:33,SPECI,Normal,300,25.0,34.0,,9999.0,Blowing or Drifting Snow or Sand,-16.0,-20.0,30.02,1019.5,27,,,,,,,,,,,,,,,1200.0,1200.0,OVC,1200.0,,,,,,
KRDR,02-18-2022,21:26,SPECI,Normal,300,23.0,31.0,,9999.0,Blowing or Drifting Snow or Sand,-16.0,-20.0,30.01,1019.1,27,,,,,,,,,,,,,,,1000.0,1100.0,BKN,1100.0,OVC,1900.0,,,,
KRDR,02-18-2022,20:56,METAR,Normal,310,22.0,31.0,300/34KTS,4800.0,Blowing or Drifting Snow or Sand,-16.2,-20.0,29.98,1018.1,27,,,,,,,,,,,TRACE,,,,900.0,900.0,OVC,900.0,,,,,,
KRDR,02-18-2022,20:49,SPECI,Normal,300,24.0,31.0,,4800.0,Blowing or Drifting Snow or Sand,-16.0,-20.0,29.97,1017.7,27,,,,,,,,,,,,,,,800.0,800.0,BKN,800.0,OVC,1200.0,,,,
KRDR,02-18-2022,20:43,SPECI,Normal,290,22.0,31.0,,3600.0,Blowing or Drifting Snow or Sand,-16.0,-20.0,29.97,1017.7,27,,,,,,,,,,,,,,,800.0,800.0,BKN,800.0,BKN,1300.0,OVC,1900.0,,
KRDR,02-18-2022,20:41,SPECI,Normal,290,25.0,31.0,,3600.0,Blowing or Drifting Snow or Sand,-16.0,-20.0,29.97,1017.8,27,,,,,,,,,,,,,,,700.0,1000.0,BKN,1000.0,OVC,1900.0,,,,
KRDR,02-18-2022,20:36,SPECI,Normal,290,24.0,29.0,,3200.0,Blowing or Drifting Snow or Sand,-16.0,-20.0,29.96,1017.5,27,,,,,,,,,,,,,,,800.0,800.0,BKN,800.0,BKN,1200.0,OVC,1900.0,,
KRDR,02-18-2022,20:34,SPECI,Normal,290,22.0,29.0,,3000.0,Blowing or Drifting Snow or Sand,-16.0,-20.0,29.96,1017.5,27,,,,,,,,,,,,,,,800.0,1000.0,BKN,1000.0,OVC,1900.0,,,,
KRDR,02-18-2022,20:30,SPECI,Normal,290,20.0,31.0,,2400.0,Blowing or Drifting Snow or Sand,-16.0,-20.0,29.96,1017.5,27,,,,,,,,,,,,,,,800.0,800.0,SCT,800.0,BKN,1200.0,OVC,1900.0,,
KRDR,02-18-2022,20:20,SPECI,Normal,300,23.0,31.0,,2800.0,Blowing or Drifting Snow or Sand,-16.0,-20.0,29.95,1017.2,27,,,,,,,,,,,,,,,1000.0,600.0,FEW,600.0,BKN,1200.0,OVC,1800.0,,
KRDR,02-18-2022,20:16,SPECI,Normal,300,21.0,29.0,,3000.0,Blowing or Drifting Snow or Sand,-16.0,-20.0,29.94,1016.8,27,,,,,,,,,,,,,,,1000.0,1200.0,BKN,1200.0,OVC,1800.0,,,,
KRDR,02-18-2022,19:57,SPECI,Normal,300,23.0,35.0,,4400.0,Blowing or Drifting Snow or Sand,-17.0,-21.0,29.93,1016.5,27,,,,,,,,,,,,,,,1000.0,1100.0,BKN,1100.0,OVC,2100.0,,,,
KRDR,02-18-2022,19:56,METAR,Normal,300,26.0,35.0,320/36KTS,4800.0,Blowing or Drifting Snow or Sand,-16.7,-20.6,29.93,1016.5,27,,,,,,,,,,,,,,,1000.0,1100.0,BKN,1100.0,OVC,2100.0,,,,
KRDR,02-18-2022,19:41,SPECI,Normal,300,23.0,32.0,,4800.0,Blowing or Drifting Snow or Sand,-17.0,-21.0,29.92,1016.1,27,,,,,,,,,,,,,,,1000.0,1000.0,BKN,1000.0,OVC,1900.0,,,,
KRDR,02-18-2022,19:35,SPECI,Normal,300,26.0,36.0,,3600.0,Blowing or Drifting Snow or Sand,-17.0,-20.0,29.91,1015.8,27,,,,,,,,,,,,,,,1000.0,1000.0,BKN,1000.0,BKN,1400.0,OVC,1900.0,,
KRDR,02-18-2022,19:07,SPECI,Normal,300,24.0,31.0,,9999.0,Blowing or Drifting Snow or Sand,-17.0,-21.0,29.89,1015.1,27,,,,,,,,,,,,,,,1000.0,1000.0,OVC,1000.0,,,,,,
KRDR,02-18-2022,18:57,SPECI,Normal,310,24.0,30.0,,9999.0,Blowing or Drifting Snow or Sand,-17.0,-21.0,29.89,1015.1,27,,,,,,,,,,,,,,,700.0,900.0,BKN,900.0,OVC,1800.0,,,,
KRDR,02-18-2022,18:56,METAR,Normal,310,24.0,30.0,310/39KTS,9999.0,Blowing or Drifting Snow or Sand,-17.2,-21.1,29.89,1015.1,27,,,,,,,,,,TRACE,,,,,700.0,700.0,BKN,700.0,OVC,1100.0,,,,
KRDR,02-18-2022,18:49,SPECI,Normal,300,19.0,31.0,,8000.0,,-17.0,-21.0,29.88,1014.8,,,,,,,,,,,,,,,,700.0,1000.0,BKN,1000.0,OVC,1800.0,,,,
KRDR,02-18-2022,18:48,SPECI,Normal,300,19.0,31.0,,8000.0,Blowing or Drifting Snow or Sand,-17.0,-21.0,29.88,1014.8,27,,,,,,,,,,,,,,,700.0,1000.0,BKN,1000.0,OVC,1800.0,,,,
KRDR,02-18-2022,18:38,SPECI,Normal,310,22.0,32.0,,6400.0,Blowing or Drifting Snow or Sand,-17.0,-21.0,29.87,1014.5,27,,,,,,,,,,,,,,,700.0,700.0,BKN,700.0,BKN,1200.0,OVC,1800.0,,
KRDR,02-18-2022,18:28,SPECI,Normal,310,25.0,31.0,,4000.0,Blowing or Drifting Snow or Sand,-17.0,-20.0,29.86,1014.2,27,,,,,,,,,,,,,,,700.0,1100.0,BKN,1100.0,BKN,1800.0,,,,
KRDR,02-18-2022,18:13,SPECI,Normal,300,27.0,36.0,,2600.0,Blowing or Drifting Snow or Sand,-17.0,-20.0,29.85,1013.8,27,,,,,,,,,,,,,,,100.0,1200.0,SCT,1200.0,BKN,1700.0,,,,
KRDR,02-18-2022,17:56,METAR,Normal,310,27.0,39.0,300/41KTS,1400.0,Blowing or Drifting Snow or Sand,-17.1,-19.8,29.83,1013.1,27,,,,,,,,,,,,.01 IN,,,100.0,1000.0,BKN,1000.0,OVC,1500.0,,,,
KRDR,02-18-2022,17:55,SPECI,Normal,310,28.0,39.0,,1400.0,Blowing or Drifting Snow or Sand,-17.0,-20.0,29.83,1013.1,27,,,,,,,,,,,,,,,100.0,600.0,FEW,600.0,OVC,1200.0,,,,
KRDR,02-18-2022,17:50,SPECI,Normal,310,28.0,41.0,,1800.0,Blowing or Drifting Snow or Sand,-17.0,-20.0,29.82,1012.8,27,,,,,,,,,,,,,,,100.0,600.0,FEW,600.0,OVC,1200.0,,,,
KRDR,02-18-2022,16:56,METAR,Normal,290,22.0,31.0,300/40KTS,400.0,Blowing or Drifting Snow or Sand,-16.3,-19.1,29.76,1010.7,27,,,,,,,,,,,,,,,1500.0,1500.0,OVC,1500.0,,,,,,
KRDR,02-18-2022,16:31,SPECI,Normal,290,26.0,40.0,,400.0,Blowing or Drifting Snow or Sand,-16.0,-19.0,29.73,1009.7,27,,,,,,,,,,,,,,,1500.0,1500.0,BKN,1500.0,,,,,,
KRDR,02-18-2022,16:15,SPECI,Normal,290,30.0,38.0,,600.0,Blowing or Drifting Snow or Sand,-15.0,-19.0,29.72,1009.4,27,,,,,,,,,,,,,,,,1400.0,SCT,1400.0,,,,,,
KRDR,02-18-2022,15:56,METAR,Normal,290,24.0,38.0,280/45KTS,400.0,Blowing or Drifting Snow or Sand,-15.2,-18.4,29.70,1008.7,27,,,,,,,,,,,,,,,,1300.0,FEW,1300.0,,,,,,
KRDR,02-18-2022,15:44,SPECI,Normal,290,28.0,41.0,,400.0,Blowing Snow,-15.0,-18.0,29.68,1008.0,,,,38,,,,,,,,,,,,,1100.0,FEW,1100.0,,,,,,
KRDR,02-18-2022,15:36,SPECI,Normal,290,29.0,44.0,,400.0,Blowing or Drifting Snow or Sand,-14.0,-17.0,29.67,1007.6,27,,,,,,,,,,,,,,,4000.0,1000.0,SCT,1000.0,BKN,4000.0,,,,
KRDR,02-18-2022,15:21,SPECI,Normal,290,30.0,44.0,,400.0,Blowing or Drifting Snow or Sand,-13.0,-17.0,29.65,1006.9,27,,,,,,,,,,,,,,,800.0,800.0,BKN,800.0,,,,,,
KRDR,02-18-2022,14:56,METAR,Normal,290,32.0,,,400.0,Blowing or Drifting Snow or Sand,-13.4,-16.5,29.65,1006.9,27,,,,,,,,,,,,,,,2000.0,2000.0,BKN,2000.0,,,,,,
KRDR,02-18-2022,14:32,SPECI,Normal,290,25.0,32.0,,400.0,Blowing or Drifting Snow or Sand,-10.0,-13.0,29.59,1004.7,27,,,,,,,,,,,,,,,4100.0,1400.0,SCT,1400.0,SCT,2700.0,BKN,4100.0,,
KRDR,02-18-2022,14:08,SPECI,Normal,290,23.0,32.0,,1200.0,Blowing or Drifting Snow or Sand,-9.0,-11.0,29.56,1003.7,27,,,,,,,,,,,,,,,3100.0,2200.0,SCT,2200.0,BKN,3100.0,BKN,4200.0,,
KRDR,02-18-2022,13:56,METAR,Normal,300,22.0,31.0,290/39KTS,2000.0,Blowing or Drifting Snow or Sand,-8.5,-10.9,29.56,,27,,,,,,,,,,TRACE,,,,,2200.0,1600.0,FEW,1600.0,BKN,2200.0,BKN,4000.0,BKN,16000.0
KRDR,02-18-2022,13:40,SPECI,Normal,290,28.0,39.0,,400.0,Blowing or Drifting Snow or Sand,-7.0,-9.0,29.55,1003.2,27,,,,,,,,,,,,,,,1800.0,1800.0,BKN,1800.0,OVC,2900.0,,,,
KRDR,02-18-2022,13:13,SPECI,Normal,280,24.0,31.0,,800.0,Light Snow/Blowing or Drifting Snow or Sand,-5.0,-8.0,29.53,1002.5,71,27,,,,,,,,,,,,,,3100.0,3100.0,OVC,3100.0,,,,,,
KRDR,02-18-2022,12:56,METAR,Normal,280,18.0,,300/29KTS,1200.0,Blowing or Drifting Snow or Sand,-5.5,-8.6,29.51,1001.8,27,,,,,,,,,,,,,,,2800.0,1800.0,FEW,1800.0,BKN,2800.0,OVC,3300.0,,
KRDR,02-18-2022,12:49,SPECI,Normal,280,17.0,25.0,,9999.0,,-5.0,-8.0,29.51,1001.8,,,,,,,,,,,,,,,,2600.0,1800.0,FEW,1800.0,OVC,2600.0,,,,
KRDR,02-18-2022,12:18,SPECI,Normal,270,19.0,24.0,,2400.0,Blowing or Drifting Snow or Sand,-5.0,-8.0,29.54,1002.8,27,,,,,,,,,,,,,,,1800.0,1800.0,BKN,1800.0,OVC,2300.0,,,,
KRDR,02-18-2022,11:56,METAR,Normal,260,21.0,32.0,270/32KTS,4800.0,Blowing or Drifting Snow or Sand,-8.4,-10.2,29.53,1002.6,27,,,,,,,,,,,,TRACE,,,1400.0,1400.0,OVC,1400.0,,,,,,
KRDR,02-18-2022,10:56,METAR,Normal,170,13.0,,,9999.0,,-12.3,-14.9,29.53,1002.8,,,,,,,,,,,,,,,,1900.0,500.0,FEW,500.0,OVC,1900.0,,,,
KRDR,02-18-2022,10:10,SPECI,Normal,160,18.0,,,9999.0,,-14.0,-16.0,29.55,1003.5,,,,,,,,,,,,,,,,1000.0,1000.0,BKN,1000.0,BKN,2000.0,OVC,4600.0,,
KRDR,02-18-2022,09:56,METAR,Normal,160,17.0,,150/26KTS,8000.0,Blowing or Drifting Snow or Sand,-14.2,-16.8,29.56,1003.8,27,,,,,,,,,,TRACE,,,,,500.0,500.0,BKN,500.0,,,,,,
KRDR,02-18-2022,09:29,SPECI,Normal,160,20.0,,,4000.0,Light Snow/Blowing or Drifting Snow or Sand,-15.0,-17.0,29.60,1005.3,71,27,,,,,,,,,,,,,,600.0,600.0,BKN,600.0,,,,,,
KRDR,02-18-2022,09:09,SPECI,Normal,160,18.0,23.0,,6400.0,Light Snow/Blowing or Drifting Snow or Sand,-15.0,-18.0,29.62,1006.0,71,27,,,,,,,,,,,,,,600.0,600.0,BKN,600.0,OVC,1300.0,,,,
KRDR,02-18-2022,08:56,METAR,Normal,150,20.0,,,3200.0,Blowing or Drifting Snow or Sand,-14.9,-17.5,29.63,1006.3,27,,,,,,,,,,TRACE,TRACE,,,,600.0,600.0,BKN,600.0,BKN,1100.0,OVC,1600.0,,
KRDR,02-18-2022,08:38,SPECI,Normal,150,18.0,,,2400.0,Light Snow/Blowing or Drifting Snow or Sand,-15.0,-18.0,29.64,1006.6,71,27,,,,,,,,,,,,,,1600.0,600.0,FEW,600.0,OVC,1600.0,,,,
KRDR,02-18-2022,08:18,SPECI,Normal,150,19.0,,,800.0,Light Snow/Blowing or Drifting Snow or Sand,-15.0,-18.0,29.67,1007.7,71,27,,,,,,,,,,,,,,900.0,900.0,OVC,900.0,,,,,,
KRDR,02-18-2022,08:06,SPECI,Normal,150,18.0,,,1600.0,Light Snow/Blowing or Drifting Snow or Sand,-15.0,-18.0,29.68,1008.0,71,27,,,,,,,,,,,,,,200.0,1200.0,OVC,1200.0,,,,,,
KRDR,02-18-2022,07:56,METAR,Normal,140,19.0,26.0,170/29KTS,800.0,Light Snow/Blowing or Drifting Snow or Sand,-15.5,-18.5,29.69,1008.4,71,27,,,,,,,,,TRACE,,,,,2000.0,2000.0,OVC,2000.0,,,,,,
KRDR,02-18-2022,07:50,SPECI,Normal,140,20.0,27.0,,1600.0,Light Snow/Blowing or Drifting Snow or Sand,-15.0,-19.0,29.69,1008.4,71,27,,,,,,,,,,,,,Sky Obscured (Unable to Estimate),800.0,2000.0,,2000.0,,,,,,
KRDR,02-18-2022,07:12,SPECI,Normal,140,17.0,,,3200.0,Light Snow,-16.0,-19.0,29.73,1009.8,71,,,,,,,,,,,,,,,2600.0,2600.0,BKN,2600.0,OVC,3700.0,,,,
KRDR,02-18-2022,07:02,SPECI,Normal,140,16.0,24.0,,8000.0,Light Snow,-16.0,-20.0,29.76,1010.8,,,,71,,,,,,,,,,,,3900.0,3000.0,SCT,3000.0,BKN,3900.0,OVC,5000.0,,
KRDR,02-18-2022,06:56,METAR,Normal,130,17.0,,,9999.0,,-15.9,-19.8,29.76,1010.8,,,,,,,,,,,,,,,,3800.0,3800.0,BKN,3800.0,OVC,4500.0,,,,
KRDR,02-18-2022,06:32,SPECI,Normal,140,16.0,,,9999.0,Light Snow,-16.0,-20.0,29.79,1011.9,71,,,,,,,,,,,,,,,4700.0,4700.0,BKN,4700.0,OVC,6000.0,,,,
KRDR,02-18-2022,05:56,METAR,Normal,130,18.0,,,9999.0,,-16.9,-20.6,29.84,1013.7,,,,,,,,,,,,,,,,5000.0,5000.0,OVC,5000.0,,,,,,
KRDR,02-18-2022,05:16,SPECI,Normal,130,16.0,,,9999.0,,-17.0,-21.0,29.89,1015.5,,,,,,,,,,,,,,,,3100.0,3100.0,BKN,3100.0,OVC,4600.0,,,,
KRDR,02-18-2022,04:56,METAR,Normal,130,13.0,,,9999.0,,-17.8,-21.7,29.91,1016.1,,,,,,,,,,,,,,,,2700.0,2800.0,BKN,2800.0,,,,,,
KRDR,02-18-2022,03:56,METAR,Normal,130,13.0,,,9999.0,Light Snow,-18.6,-22.8,29.96,1017.9,71,,,,,,,,,,TRACE,,,,,5000.0,1900.0,FEW,1900.0,SCT,3300.0,BKN,5000.0,OVC,9600.0
KRDR,02-18-2022,03:41,SPECI,Normal,130,12.0,,,9999.0,Light Snow,-19.0,-23.0,29.98,1018.7,71,,,,,,,,,,,,,,,4700.0,4100.0,FEW,4100.0,OVC,4700.0,,,,
KRDR,02-18-2022,02:56,METAR,Normal,120,12.0,,,9999.0,,-18.8,-23.1,30.01,1019.8,,,,,,,,,,,,,,,,3900.0,3900.0,BKN,3900.0,OVC,4800.0,,,,
KRDR,02-18-2022,02:36,SPECI,Normal,120,11.0,,,9999.0,Light Snow,-19.0,-23.0,30.03,1020.4,71,,,,,,,,,,,,,,,5000.0,1700.0,SCT,1700.0,OVC,5000.0,,,,
KRDR,02-18-2022,01:56,METAR,Normal,130,11.0,,,9999.0,,-19.2,-23.4,30.08,1022.2,,,,,,,,,,,,,,,,5500.0,4300.0,FEW,4300.0,OVC,5500.0,,,,
KRDR,02-18-2022,00:56,METAR,Normal,120,10.0,,,9999.0,,-19.5,-23.6,30.11,1023.3,,,,,,,,,,,,,,,,5500.0,5500.0,OVC,5500.0,,,,,,
KRDR,02-18-2022,00:45,SPECI,Normal,120,11.0,,,9999.0,,-19.0,-23.0,30.12,1023.6,,,,,,,,,,,,,,,,5500.0,5500.0,OVC,5500.0,,,,,,
KRDR,02-18-2022,00:25,SPECI,Normal,150,11.0,,,9999.0,,-20.0,-23.0,30.13,1024.1,,,,,,,,,,,,,,,,2100.0,2100.0,BKN,2100.0,BKN,2700.0,OVC,3500.0,,
KRDR,02-17-2022,23:59,METAR,Normal,140,11.0,,,9999.0,,-19.6,-23.3,30.13,1024.0,,,,,,,,,,,,,,,,3500.0,2900.0,FEW,2900.0,BKN,3500.0,OVC,4900.0,,
KRDR,02-17-2022,22:57,METAR,Normal,130,11.0,,,9999.0,,-19.1,-22.8,30.16,1024.9,,,,,,,,,,,,,,,,3900.0,3000.0,FEW,3000.0,BKN,3900.0,OVC,6000.0,,
KRDR,02-17-2022,21:56,METAR,Normal,140,9.0,,,9999.0,,-18.9,-23.1,30.20,1026.2,,,,,,,,,,,,,,,,6000.0,4500.0,SCT,4500.0,BKN,6000.0,,,,
KRDR,02-17-2022,21:44,SPECI,Normal,140,7.0,,,9999.0,,-19.0,-23.0,30.21,1026.6,,,,,,,,,,,,,,,,6000.0,4400.0,FEW,4400.0,BKN,6000.0,,,,
KRDR,02-17-2022,20:56,METAR,Normal,170,7.0,,,9999.0,,-19.6,-24.2,30.23,1027.3,,,,,,,,,,,,,,,,6000.0,6000.0,BKN,6000.0,,,,,,
KRDR,02-17-2022,19:56,METAR,Normal,160,6.0,,,9999.0,,-20.2,-25.5,30.26,1028.2,,,,,,,,,,,,,,,,20000.0,6000.0,SCT,6000.0,BKN,20000.0,,,,
KRDR,02-17-2022,18:56,METAR,Normal,190,5.0,,,9999.0,,-20.7,-26.0,30.31,1030.0,,,,,,,,,,,,,,,,,20000.0,SCT,20000.0,,,,,,
KRDR,02-17-2022,17:56,METAR,Normal,170,4.0,,,9999.0,,-21.8,-26.9,30.35,1031.4,,,,,,,,,,,,,,,Clear,72000.0,,,,,,,,,
KRDR,02-17-2022,16:56,METAR,Normal,150,3.0,,,9999.0,,-22.5,-27.7,30.38,1032.3,,,,,,,,,,,,,,,Clear,72000.0,,,,,,,,,
KRDR,02-17-2022,15:56,METAR,Normal,90,3.0,,,9999.0,,-23.3,-28.5,30.39,1032.7,,,,,,,,,,,,,,,Clear,72000.0,,,,,,,,,
KRDR,02-17-2022,14:56,METAR,Calm,,0.0,,,9999.0,,-25.4,-29.8,30.40,1033.1,,,,,,,,,,,,,,,Clear,72000.0,,,,,,,,,
KRDR,02-17-2022,13:56,METAR,Normal,330,4.0,,,9999.0,,-26.6,-30.4,30.39,1032.8,,,,,,,,,,,,,,,Clear,72000.0,,,,,,,,,
KRDR,02-17-2022,12:56,METAR,Normal,300,5.0,,,9999.0,,-27.2,-30.7,30.39,1032.7,,,,,,,,,,,,,,,Clear,72000.0,,,,,,,,,
KRDR,02-17-2022,11:56,METAR,Normal,300,6.0,,,9999.0,,-26.2,-29.8,30.40,1033.0,,,,,,,,,,,,,,,Clear,72000.0,,,,,,,,,
KRDR,02-17-2022,10:56,METAR,Normal,310,7.0,,,9999.0,,-25.6,-29.4,30.40,1033.0,,,,,,,,,,,,,,,Clear,72000.0,,,,,,,,,
KRDR,02-17-2022,09:56,METAR,Normal,310,4.0,,,9999.0,,-25.0,-28.8,30.40,1032.9,,,,,,,,,,,,,,,Clear,72000.0,,,,,,,,,
KRDR,02-17-2022,08:56,METAR,Normal,310,7.0,,,9999.0,,-23.9,-28.1,30.41,1033.1,,,,,,,,,,,,,,,Clear,72000.0,,,,,,,,,
KRDR,02-17-2022,07:56,METAR,Normal,310,9.0,,,9999.0,,-22.6,-27.1,30.41,1033.0,,,,,,,,,,,,,,,Clear,72000.0,,,,,,,,,
KRDR,02-17-2022,06:56,METAR,Normal,300,7.0,,,9999.0,,-22.4,-26.6,30.40,1032.6,,,,,,,,,,,,,,,Clear,72000.0,,,,,,,,,
KRDR,02-17-2022,05:56,METAR,Normal,290,8.0,,,9999.0,,-21.4,-26.0,30.38,1031.9,,,,,,,,,,,,,,,Clear,72000.0,,,,,,,,,
KRDR,02-17-2022,04:56,METAR,Normal,310,8.0,,,9999.0,,-20.9,-25.3,30.36,1031.2,,,,,,,,,,,,,,,Clear,72000.0,,,,,,,,,
KRDR,02-17-2022,03:56,METAR,Normal,310,8.0,,,9999.0,,-20.2,-24.6,30.33,1030.1,,,,,,,,,,,,,,,Clear,72000.0,,,,,,,,,
KRDR,02-17-2022,02:56,METAR,Normal,310,9.0,,,9999.0,,-19.6,-24.1,30.30,1029.0,,,,,,,,,,,,,,,Clear,72000.0,,,,,,,,,
KRDR,02-17-2022,01:56,METAR,Normal,320,8.0,,,9999.0,,-19.0,-23.5,30.27,1028.0,,,,,,,,,,,,,,,Clear,72000.0,,,,,,,,,
KRDR,02-17-2022,00:56,METAR,Normal,320,13.0,,,9999.0,,-18.0,-22.7,30.23,1026.6,,,,,,,,,,,,,,,,,1300.0,FEW,1300.0,,,,,,
KRDR,02-16-2022,23:56,METAR,Normal,320,12.0,,,9999.0,,-16.5,-21.1,30.18,1024.8,,,,,,,,,,,,,,,,,1600.0,FEW,1600.0,,,,,,
KRDR,02-16-2022,22:56,METAR,Normal,310,12.0,,,9999.0,,-15.3,-19.9,30.13,1023.0,,,,,,,,,,,,,,,,2500.0,2500.0,BKN,2500.0,,,,,,
KRDR,02-16-2022,21:56,METAR,Normal,320,13.0,,,9999.0,,-14.4,-18.9,30.10,1022.0,,,,,,,,,,,,,,,,2500.0,2500.0,BKN,2500.0,,,,,,
KRDR,02-16-2022,20:56,METAR,Normal,330,12.0,,,9999.0,,-13.5,-17.8,30.07,1021.0,,,,,,,,,,,,,,,,1000.0,1000.0,OVC,1000.0,,,,,,
KRDR,02-16-2022,19:56,METAR,Normal,320,15.0,,,9999.0,,-13.1,-17.6,30.04,1020.0,,,,,,,,,,,,,,,,,15000.0,SCT,15000.0,,,,,,
KRDR,02-16-2022,18:56,METAR,Normal,310,14.0,,,9999.0,,-12.7,-17.2,30.03,1019.5,,,,,,,,,,,,,,,,,15000.0,SCT,15000.0,,,,,,
KRDR,02-16-2022,17:56,METAR,Normal,320,15.0,,,9999.0,,-12.5,-16.9,30.00,1018.4,,,,,,,,,,,,,,,,21000.0,1000.0,FEW,1000.0,BKN,21000.0,,,,
KRDR,02-16-2022,17:40,SPECI,Normal,320,15.0,,,9999.0,,-12.0,-17.0,29.99,1018.0,,,,,,,,,,,,,,,,21000.0,1000.0,FEW,1000.0,BKN,21000.0,,,,
KRDR,02-16-2022,17:27,SPECI,Normal,320,15.0,,,9999.0,,-12.0,-17.0,29.98,1017.6,,,,,,,,,,,,,,,,1100.0,1100.0,BKN,1100.0,,,,,,
KRDR,02-16-2022,17:26,SPECI,Normal,320,14.0,,,9999.0,,-12.0,-17.0,29.98,1017.6,,,,,,,,,,,,,,,,1300.0,1300.0,BKN,1300.0,,,,,,
KRDR,02-16-2022,16:56,METAR,Normal,320,17.0,,,9999.0,,-12.5,-17.0,29.96,1017.0,,,,,,,,,,,,,,,,,21000.0,FEW,21000.0,,,,,,
KRDR,02-16-2022,15:56,METAR,Normal,320,18.0,26.0,330/26KTS,9999.0,,-11.4,-16.0,29.92,1015.5,,,,,,,,,,,TRACE,,,,,,900.0,SCT,900.0,,,,,,
KRDR,02-16-2022,15:15,SPECI,Normal,300,10.0,,,9999.0,,-10.0,-14.0,29.89,1014.5,,,,,,,,,,,,,,,,2000.0,700.0,FEW,700.0,SCT,1100.0,BKN,2000.0,OVC,2300.0
KRDR,02-16-2022,14:56,METAR,Normal,290,6.0,,,9999.0,Light Snow,-10.8,-15.1,29.88,1014.2,71,,,,,,,,,,TRACE,,,,,2000.0,700.0,FEW,700.0,SCT,1200.0,OVC,2000.0,,
KRDR,02-16-2022,14:52,SPECI,Normal,300,6.0,,,9999.0,,-11.0,-15.0,29.88,1014.2,,,,,,,,,,,,,,,,1900.0,1000.0,FEW,1000.0,BKN,1900.0,OVC,2700.0,,
KRDR,02-16-2022,14:48,SPECI,Normal,300,6.0,,,9999.0,,-11.0,-15.0,29.88,1014.2,,,,,,,,,,,,,,,,2100.0,2100.0,BKN,2100.0,OVC,2700.0,,,,
KRDR,02-16-2022,13:56,METAR,Normal,300,6.0,,,9999.0,,-11.8,-15.4,29.86,1013.5,,,,,,,,,,,,,,,,3200.0,2200.0,FEW,2200.0,OVC,3200.0,,,,
KRDR,02-16-2022,12:56,METAR,Normal,300,7.0,,,9999.0,,-13.0,-16.2,29.84,1012.9,,,,,,,,,,,,,,,,3600.0,3600.0,OVC,3600.0,,,,,,
KRDR,02-16-2022,11:56,METAR,Normal,320,11.0,,,9999.0,,-12.5,-16.0,29.82,1012.2,,,,,,,,,,,,,,,Clear,72000.0,,,,,,,,,
KRDR,02-16-2022,10:56,METAR,Normal,310,12.0,,,9999.0,,-10.8,-14.7,29.79,1011.1,,,,,,,,,,,,,,,,,2300.0,FEW,2300.0,SCT,2900.0,,,,
KRDR,02-16-2022,09:56,METAR,Normal,300,14.0,,,9999.0,,-11.6,-15.7,29.76,1010.1,,,,,,,,,,,,,,,,,2600.0,SCT,2600.0,,,,,,
KRDR,02-16-2022,08:56,METAR,Normal,290,8.0,,,9999.0,,-13.8,-17.5,29.77,1010.6,,,,,,,,,,,,,,,,,3700.0,FEW,3700.0,,,,,,
KRDR,02-16-2022,07:56,METAR,Normal,300,7.0,,,9999.0,,-13.3,-16.4,29.77,1010.6,,,,,,,,,,,,,,,Clear,72000.0,,,,,,,,,
KRDR,02-16-2022,06:56,METAR,Normal,310,8.0,,,9999.0,,-11.3,-14.9,29.77,1010.5,,,,,,,,,,,,,,,,,1000.0,SCT,1000.0,,,,,,
KRDR,02-16-2022,05:56,METAR,Normal,310,11.0,,,9999.0,,-9.3,-13.3,29.75,1009.7,,,,,,,,,,,,,TRACE,,,,700.0,FEW,700.0,SCT,4100.0,,,,
KRDR,02-16-2022,05:27,SPECI,Normal,300,12.0,,,9999.0,,-8.0,-12.0,29.74,1009.4,,,,,,,,,,,,,,,,3900.0,1000.0,FEW,1000.0,OVC,3900.0,,,,
KRDR,02-16-2022,04:56,METAR,Normal,300,11.0,,,9999.0,,-7.9,-11.6,29.75,1009.7,,,,,,,,,,,,,,,,3900.0,3900.0,OVC,3900.0,,,,,,
KRDR,02-16-2022,03:56,METAR,Normal,300,11.0,,,9999.0,,-7.3,-10.7,29.75,1009.7,,,,,,,,,,,,,,,,3500.0,3500.0,OVC,3500.0,,,,,,
KRDR,02-16-2022,02:56,METAR,Normal,280,8.0,,,9999.0,,-7.2,-10.2,29.76,1010.1,,,,,,,,,,,,TRACE,,,,3800.0,3800.0,OVC,3800.0,,,,,,
KRDR,02-16-2022,01:56,METAR,Normal,260,5.0,,,9999.0,,-7.0,-9.6,29.77,1010.5,,,,,,,,,,,TRACE,,,,,4900.0,1000.0,FEW,1000.0,OVC,4900.0,,,,
KRDR,02-16-2022,01:44,SPECI,Normal,270,4.0,,,9999.0,,-7.0,-9.0,29.76,1010.2,,,,,,,,,,,,,,,,4900.0,1000.0,FEW,1000.0,OVC,4900.0,,,,
KRDR,02-16-2022,01:16,SPECI,Normal,240,4.0,,,9999.0,Light Snow,-7.0,-9.0,29.76,1010.2,71,,,,,,,,,,,,,,,300.0,300.0,BKN,300.0,BKN,900.0,BKN,2600.0,OVC,5000.0
KRDR,02-16-2022,01:06,SPECI,Normal,250,3.0,,,6400.0,Light Snow,-7.0,-10.0,29.76,1010.3,71,,,,,,,,,,,,,,,400.0,400.0,OVC,400.0,,,,,,
KRDR,02-16-2022,00:56,METAR,Calm,,0.0,,,8000.0,Light Snow,-7.2,-9.6,29.76,1010.3,71,,,,,,,,,,TRACE,,,,,800.0,800.0,BKN,800.0,OVC,1600.0,,,,
KRDR,02-16-2022,00:29,SPECI,Calm,,0.0,,,9999.0,Light Snow,-7.0,-10.0,29.75,1010.0,71,,,,,,,,,,,,,,,1400.0,800.0,SCT,800.0,OVC,1400.0,,,,
KRDR,02-16-2022,00:08,SPECI,Calm,,0.0,,,9999.0,,-7.0,-10.0,29.75,1010.0,,,,,,,,,,,,,,,,1500.0,800.0,SCT,800.0,OVC,1500.0,,,,
KRDR,02-15-2022,23:56,METAR,Calm,,0.0,,,9999.0,,-7.3,-10.3,29.75,1010.0,,,,,,,,,,,TRACE,,TRACE,,,1500.0,1500.0,OVC,1500.0,,,,,,
KRDR,02-15-2022,23:29,SPECI,Calm,,0.0,,,9999.0,,-7.0,-10.0,29.74,1009.6,,,,,,,,,,,,,,,,1400.0,1400.0,OVC,1400.0,,,,,,
KRDR,02-15-2022,23:23,SPECI,Normal,160,3.0,,,9999.0,Light Snow,-7.0,-10.0,29.74,1009.6,71,,,,,,,,,,,,,,,1400.0,1400.0,OVC,1400.0,,,,,,
KRDR,02-15-2022,23:08,SPECI,Normal,180,4.0,,,9999.0,Light Snow,-7.0,-11.0,29.75,1010.0,71,,,,,,,,,,,,,,,1500.0,1500.0,OVC,1500.0,,,,,,
KRDR,02-15-2022,22:56,METAR,Normal,200,4.0,,,9999.0,,-7.3,-10.8,29.76,1010.3,,,,,,,,,,,,,,,,1600.0,1600.0,OVC,1600.0,,,,,,
KRDR,02-15-2022,21:56,METAR,Normal,170,6.0,,,9999.0,,-7.5,-11.5,29.77,1010.6,,,,,,,,,,,,,,,,1700.0,1700.0,OVC,1700.0,,,,,,
KRDR,02-15-2022,21:16,SPECI,Normal,160,7.0,,,9999.0,,-8.0,-12.0,29.78,1011.1,,,,,,,,,,,,,,,,1900.0,1300.0,FEW,1300.0,OVC,1900.0,,,,
KRDR,02-15-2022,20:56,METAR,Normal,160,11.0,,,9999.0,,-7.7,-12.1,29.79,1011.4,,,,,,,,,,,,,,,,2000.0,1300.0,SCT,1300.0,OVC,2000.0,,,,
KRDR,02-15-2022,20:06,SPECI,Normal,150,12.0,,,9999.0,,-8.0,-13.0,29.80,1011.8,,,,,,,,,,,,,,,,1200.0,1200.0,OVC,1200.0,,,,,,
KRDR,02-15-2022,19:56,METAR,Normal,150,13.0,,,9999.0,,-8.3,-13.0,29.81,1012.1,,,,,,,,,,,,,,,,1500.0,1500.0,BKN,1500.0,OVC,2000.0,,,,
KRDR,02-15-2022,19:46,SPECI,Normal,150,13.0,,,9999.0,,-8.0,-13.0,29.82,1012.4,,,,,,,,,,,,,,,,1800.0,1800.0,OVC,1800.0,,,,,,
KRDR,02-15-2022,18:56,METAR,Normal,150,17.0,24.0,,9999.0,,-9.0,-13.5,29.86,1013.9,,,,,,,,,,,,,,,,2100.0,2100.0,OVC,2100.0,,,,,,
KRDR,02-15-2022,18:06,SPECI,Normal,140,18.0,,,9999.0,,-9.0,-14.0,29.91,1015.6,,,,,,,,,,,,,,,,2300.0,2300.0,BKN,2300.0,OVC,11000.0,,,,
KRDR,02-15-2022,17:56,METAR,Normal,140,16.0,,,9999.0,,-9.5,-13.8,29.93,1016.3,,,,,,,,,,,,,TRACE,,,11000.0,2400.0,SCT,2400.0,BKN,11000.0,OVC,13000.0,,
KRDR,02-15-2022,16:56,METAR,Normal,120,11.0,,,9999.0,,-10.5,-14.8,29.98,1018.1,,,,,,,,,,,,,,,,10000.0,10000.0,OVC,10000.0,,,,,,
KRDR,02-15-2022,15:56,METAR,Normal,120,10.0,,,9999.0,,-11.3,-15.0,30.01,1019.1,,,,,,,,,,,,,,,,10000.0,7000.0,FEW,7000.0,OVC,10000.0,,,,
KRDR,02-15-2022,14:56,METAR,Normal,120,9.0,,,9999.0,,-12.2,-15.4,30.05,1020.5,,,,,,,,,,,,TRACE,,,,8000.0,8000.0,BKN,8000.0,OVC,11000.0,,,,
KRDR,02-15-2022,13:56,METAR,Normal,110,6.0,,,9999.0,,-13.8,-16.7,30.07,1021.3,,,,,,,,,,,,,,,,6000.0,6000.0,OVC,6000.0,,,,,,
KRDR,02-15-2022,12:56,METAR,Normal,90,4.0,,,9999.0,,-16.4,-19.1,30.10,1022.4,,,,,,,,,,,TRACE,,,,,6000.0,3900.0,FEW,3900.0,BKN,6000.0,OVC,8000.0,,
KRDR,02-15-2022,12:47,SPECI,Normal,90,5.0,,,9999.0,,-16.0,-19.0,30.11,1022.7,,,,,,,,,,,,,,,,6000.0,2500.0,FEW,2500.0,SCT,4700.0,OVC,6000.0,,
KRDR,02-15-2022,11:56,METAR,Normal,70,4.0,,,9999.0,Light Snow,-17.4,-20.2,30.14,1023.7,71,,,,,,,,,,TRACE,,TRACE,,,4400.0,2900.0,SCT,2900.0,BKN,4400.0,,,,
KRDR,02-15-2022,11:46,SPECI,Normal,70,4.0,,,9999.0,Light Snow,-17.0,-20.0,30.15,1024.1,71,,,,,,,,,,,,,,,6000.0,2500.0,FEW,2500.0,SCT,4600.0,OVC,6000.0,,
KRDR,02-15-2022,11:30,SPECI,Normal,80,4.0,,,9999.0,,-17.0,-20.0,30.16,1024.4,,,,,,,,,,,,,,,,3400.0,2800.0,SCT,2800.0,BKN,3400.0,OVC,5000.0,,
KRDR,02-15-2022,11:24,SPECI,Normal,90,4.0,,,9999.0,,-18.0,-21.0,30.16,1024.4,,,,,,,,,,,,,,,,2800.0,2800.0,BKN,2800.0,BKN,3400.0,OVC,5500.0,,
KRDR,02-15-2022,10:56,METAR,Normal,80,5.0,,,8000.0,Light Snow,-17.9,-20.9,30.17,1024.8,71,,,,,,,,,,TRACE,,,,,2700.0,2700.0,BKN,2700.0,OVC,3200.0,,,,
KRDR,02-15-2022,10:21,SPECI,Normal,90,6.0,,,8000.0,Light Snow,-18.0,-21.0,30.18,1025.1,71,,,,,,,,,,,,,,,3200.0,2500.0,SCT,2500.0,BKN,3200.0,,,,
KRDR,02-15-2022,09:56,METAR,Normal,90,6.0,,,8000.0,Light Snow,-17.9,-21.3,30.20,1025.8,71,,,,,,,,,,TRACE,,,,,4600.0,4600.0,BKN,4600.0,OVC,6000.0,,,,
KRDR,02-15-2022,09:48,SPECI,Normal,100,6.0,,,8000.0,Light Snow,-18.0,-21.0,30.21,1026.1,71,,,,,,,,,,,,,,,5000.0,5000.0,BKN,5000.0,OVC,6500.0,,,,
KRDR,02-15-2022,08:56,METAR,Normal,90,6.0,,,9999.0,,-18.5,-21.9,30.24,1027.1,,,,,,,,,,,,,,,,4400.0,4400.0,BKN,4400.0,OVC,5500.0,,,,
KRDR,02-15-2022,07:56,METAR,Normal,140,4.0,,,9999.0,,-18.9,-22.0,30.28,1028.7,,,,,,,,,,,,,,,,6500.0,6500.0,OVC,6500.0,,,,,,
KRDR,02-15-2022,06:56,METAR,Normal,130,4.0,,,9999.0,,-19.1,-22.2,30.29,1028.9,,,,,,,,,,,,,,,,7000.0,7000.0,OVC,7000.0,,,,,,
KRDR,02-15-2022,05:56,METAR,Normal,140,4.0,,,9999.0,,-19.1,-22.2,30.30,1029.4,,,,,,,,,,,,,,,,7500.0,7500.0,OVC,7500.0,,,,,,
KRDR,02-15-2022,04:56,METAR,Normal,140,7.0,,,9999.0,,-19.7,-22.3,30.30,1029.5,,,,,,,,,,,,,,,,9000.0,9000.0,OVC,9100.0,,,,,,
KRDR,02-15-2022,03:56,METAR,Normal,110,6.0,,,9999.0,,-19.3,-21.9,30.31,1029.8,,,,,,,,,,,,,,,,15000.0,15000.0,BKN,15000.0,BKN,18000.0,,,,
KRDR,02-15-2022,02:56,METAR,Normal,110,5.0,,,9999.0,,-18.4,-21.3,30.32,1030.1,,,,,,,,,,,,,,,Clear,72000.0,,,,,,,,,
KRDR,02-15-2022,01:56,METAR,Normal,130,3.0,,,9999.0,,-17.8,-21.1,30.32,1030.2,,,,,,,,,,,,,,,Clear,72000.0,,,,,,,,,
KRDR,02-15-2022,00:56,METAR,Normal,120,4.0,,,9999.0,,-17.4,-20.7,30.33,1030.6,,,,,,,,,,,,,,,,,11000.0,FEW,11000.0,,,,,,
KRDR,02-14-2022,23:56,METAR,Normal,130,4.0,,,9999.0,,-16.8,-20.9,30.32,1030.1,,,,,,,,,,,TRACE,,TRACE,,,11000.0,11000.0,OVC,11000.0,,,,,,
KRDR,02-14-2022,23:16,SPECI,Normal,160,4.0,,,9999.0,,-17.0,-21.0,30.32,1030.1,,,,,,,,,,,,,,,,14000.0,12000.0,SCT,12000.0,OVC,14000.0,,,,
KRDR,02-14-2022,22:56,METAR,Normal,170,4.0,,,9999.0,Light Snow,-16.4,-20.8,30.33,1030.4,71,,,,,,,,,,TRACE,,,,,13000.0,13000.0,OVC,13000.0,,,,,,
KRDR,02-14-2022,22:52,SPECI,Normal,190,4.0,,,9999.0,Light Snow,-16.0,-21.0,30.33,1030.4,71,,,,,,,,,,,,,,,13000.0,13000.0,OVC,13000.0,,,,,,
KRDR,02-14-2022,22:05,SPECI,Normal,200,5.0,,,9999.0,,-17.0,-21.0,30.35,1031.2,,,,,,,,,,,,,,,,14000.0,14000.0,BKN,14000.0,OVC,16000.0,,,,
KRDR,02-14-2022,21:56,METAR,Normal,190,4.0,,,9999.0,Light Snow,-16.8,-21.0,30.35,1031.2,71,,,,,,,,,,TRACE,,,,,14000.0,14000.0,OVC,14000.0,,,,,,
KRDR,02-14-2022,21:45,SPECI,Normal,180,4.0,,,9999.0,Light Snow,-17.0,-21.0,30.35,1031.2,71,,,,,,,,,,,,,,,15000.0,15000.0,BKN,15000.0,OVC,17000.0,,,,
KRDR,02-14-2022,21:39,SPECI,Calm,,0.0,,,9999.0,,-17.0,-21.0,30.35,1031.2,,,,,,,,,,,,,,,,15000.0,15000.0,OVC,15000.0,,,,,,
KRDR,02-14-2022,21:09,SPECI,Normal,190,3.0,,,9999.0,Light Snow,-17.0,-22.0,30.35,1031.1,71,,,,,,,,,,,,,,,14000.0,14000.0,OVC,14000.0,,,,,,
KRDR,02-14-2022,20:56,METAR,Calm,,0.0,,,9999.0,,-16.2,-21.3,30.36,1031.4,,,,,,,,,,,TRACE,TRACE,,,,14000.0,14000.0,BKN,14000.0,OVC,16000.0,,,,
KRDR,02-14-2022,20:03,SPECI,Calm,,0.0,,,9999.0,,-18.0,-22.0,30.36,1031.4,,,,,,,,,,,,,,,,16000.0,16000.0,BKN,16000.0,BKN,19000.0,,,,
KRDR,02-14-2022,19:56,METAR,Calm,,0.0,,,9999.0,Light Snow,-18.0,-22.0,30.36,1031.4,71,,,,,,,,,,TRACE,,,,,16000.0,12000.0,FEW,12000.0,BKN,16000.0,BKN,19000.0,,
KRDR,02-14-2022,19:55,SPECI,Calm,,0.0,,,9999.0,Light Snow,-18.0,-22.0,30.36,1031.4,71,,,,,,,,,,,,,,,16000.0,12000.0,FEW,12000.0,BKN,16000.0,BKN,18000.0,,
KRDR,02-14-2022,19:49,SPECI,Calm,,0.0,,,9999.0,,-18.0,-22.0,30.36,1031.4,,,,,,,,,,,,,,,,16000.0,16000.0,BKN,16000.0,BKN,18000.0,,,,
KRDR,02-14-2022,19:21,SPECI,Calm,,0.0,,,9999.0,Light Snow,-18.0,-22.0,30.36,1031.4,71,,,,,,,,,,,,,,,17000.0,13000.0,FEW,13000.0,BKN,17000.0,OVC,20000.0,,
KRDR,02-14-2022,19:03,SPECI,Calm,,0.0,,,9999.0,,-18.0,-22.0,30.37,1031.8,,,,,,,,,,,,,,,,20000.0,14000.0,FEW,14000.0,SCT,17000.0,BKN,20000.0,,
KRDR,02-14-2022,18:57,SPECI,Calm,,0.0,,,9999.0,Light Snow,-18.0,-22.0,30.37,1031.8,71,,,,,,,,,,,,,,,,15000.0,FEW,15000.0,FEW,17000.0,SCT,20000.0,,
KRDR,02-14-2022,18:56,METAR,Calm,,0.0,,,9999.0,,-17.8,-21.8,30.37,1031.8,,,,,,,,,,,TRACE,,,,,,15000.0,FEW,15000.0,SCT,17000.0,SCT,20000.0,,
KRDR,02-14-2022,18:37,SPECI,Calm,,0.0,,,9999.0,,-19.0,-22.0,30.38,1032.1,,,,,,,,,,,,,,,,,17000.0,FEW,17000.0,,,,,,
KRDR,02-14-2022,18:33,SPECI,Normal,10,3.0,,,9999.0,Light Snow,-18.0,-22.0,30.38,1032.1,71,,,,,,,,,,,,,,,,18000.0,FEW,18000.0,SCT,22000.0,,,,
KRDR,02-14-2022,17:56,METAR,Normal,350,3.0,,,9999.0,,-19.1,-23.1,30.39,1032.5,,,,,,,,,,,,,,,,,400.0,FEW,400.0,,,,,,
KRDR,02-14-2022,17:31,SPECI,Calm,,0.0,,,9999.0,,-20.0,-23.0,30.39,1032.5,,,,,,,,,,,,,,,,,400.0,FEW,400.0,FEW,21000.0,,,,
KRDR,02-14-2022,16:56,METAR,Normal,330,5.0,,,9999.0,,-19.9,-23.7,30.38,1032.1,,,,,,,,,,,,,,,Clear,72000.0,,,,,,,,,
KRDR,02-14-2022,15:56,METAR,Normal,310,4.0,,,9999.0,,-20.4,-24.4,30.37,1031.7,,,,,,,,,,,,,,,Clear,72000.0,,,,,,,,,
KRDR,02-14-2022,14:56,METAR,Normal,320,4.0,,,9999.0,,-22.5,-25.6,30.37,1031.7,,,,,,,,,,,,,,,Clear,72000.0,,,,,,,,,
KRDR,02-14-2022,13:56,METAR,Normal,290,4.0,,,9999.0,,-24.4,-27.5,30.36,1031.4,,,,,,,,,,,,,,,Clear,72000.0,,,,,,,,,
KRDR,02-14-2022,12:56,METAR,Normal,310,5.0,,,9999.0,,-24.1,-26.9,30.35,1031.1,,,,,,,,,,,,,,,,,500.0,SCT,500.0,,,,,,
KRDR,02-14-2022,11:56,METAR,Normal,350,6.0,,,9999.0,,-23.3,-26.1,30.33,1030.4,,,,,,,,,,,,,TRACE,,,,200.0,SCT,200.0,,,,,,
KRDR,02-14-2022,10:56,METAR,Normal,330,8.0,,,9999.0,,-22.9,-25.8,30.30,1029.5,,,,,,,,,,,,,,,,,200.0,SCT,200.0,,,,,,
KRDR,02-14-2022,09:56,METAR,Normal,350,10.0,,,9999.0,,-22.4,-25.3,30.27,1028.4,,,,,,,,,,,TRACE,,,,,,200.0,SCT,200.0,,,,,,
KRDR,02-14-2022,09:07,SPECI,Normal,340,11.0,,,9999.0,,-22.0,-25.0,30.26,1028.1,,,,,,,,,,,,,,,,,200.0,SCT,200.0,,,,,,
KRDR,02-14-2022,08:56,METAR,Normal,330,10.0,,,9999.0,Light Snow,-21.6,-24.5,30.25,1027.8,71,,,,,,,,,,TRACE,TRACE,,,,,200.0,SCT,200.0,,,,,,
KRDR,02-14-2022,07:56,METAR,Normal,340,13.0,,,9999.0,Light Snow,-20.4,-23.2,30.23,1027.0,71,,,,,,,,,,,,,,,,100.0,SCT,100.0,,,,,,
KRDR,02-14-2022,07:31,SPECI,Normal,340,12.0,,,9999.0,,-20.0,-23.0,30.22,1026.6,,,,,,,,,,,,,,,,200.0,200.0,OVC,200.0,,,,,,
KRDR,02-14-2022,06:56,METAR,Normal,340,14.0,,,9999.0,,-19.3,-22.1,30.20,1025.9,,,,,,,,,,,,,,,,400.0,400.0,BKN,400.0,OVC,1200.0,,,,
KRDR,02-14-2022,05:56,METAR,Normal,350,14.0,,,9999.0,,-18.6,-21.3,30.13,1023.6,,,,,,,,,,,TRACE,,TRACE,,,800.0,800.0,BKN,800.0,OVC,1200.0,,,,
KRDR,02-14-2022,05:42,SPECI,Normal,350,13.0,,,9999.0,,-18.0,-21.0,30.13,1023.5,,,,,,,,,,,,,,,,300.0,300.0,SCT,300.0,OVC,1000.0,,,,
KRDR,02-14-2022,04:51,METAR,Normal,360,12.0,,,9999.0,Light Snow,-17.4,-19.9,30.07,1021.4,71,,,,,,,,,,TRACE,,,,,100.0,100.0,BKN,100.0,OVC,800.0,,,,
KRDR,02-14-2022,03:50,METAR,Normal,10,10.0,,,8000.0,Light Snow,-15.4,-17.8,29.99,1018.7,71,,,,,,,,,,TRACE,,,,,200.0,100.0,FEW,100.0,OVC,800.0,,,,
KRDR,02-14-2022,02:53,METAR,Normal,60,6.0,,,9999.0,Light Snow,-13.3,-15.8,29.92,1016.3,71,,,,,,,,,,TRACE,TRACE,,,,800.0,800.0,BKN,800.0,BKN,4000.0,OVC,4900.0,,
KRDR,02-14-2022,02:43,SPECI,Normal,50,6.0,,,8000.0,Light Snow,-13.0,-16.0,29.91,1016.0,71,,,,,,,,,,,,,,,900.0,1000.0,SCT,1000.0,BKN,2000.0,BKN,4000.0,OVC,4900.0
KRDR,02-14-2022,01:59,METAR,Normal,140,6.0,,,8000.0,Light Snow,-13.5,-16.1,29.88,1014.9,71,,,,,,,,,,TRACE,,,,,4500.0,4500.0,OVC,4500.0,,,,,,
KRDR,02-14-2022,01:13,SPECI,Normal,160,7.0,,,9999.0,Light Snow,-14.0,-17.0,29.89,,,,,71,,,,,,,,,,,,4200.0,1100.0,FEW,1100.0,FEW,1700.0,SCT,2300.0,SCT,2900.0
KRDR,02-14-2022,00:55,METAR,Normal,170,16.0,,,9999.0,,-14.2,-16.8,29.89,1015.5,,,,,,,,,,,TRACE,,,,,5000.0,1500.0,FEW,1500.0,SCT,3000.0,OVC,5000.0,,
KRDR,02-13-2022,23:55,METAR,Normal,170,18.0,,,1800.0,Light Snow/Blowing or Drifting Snow or Sand,-15.3,-17.9,29.92,1016.6,71,27,,,,,,,,,TRACE,,.01 IN,,,200.0,200.0,OVC,200.0,,,,,,
KRDR,02-13-2022,22:53,METAR,Normal,160,15.0,,,1200.0,,-16.3,-18.8,29.93,1016.9,,,,,,,,,,,TRACE,,,,,200.0,200.0,OVC,200.0,,,,,,
KRDR,02-13-2022,22:37,SPECI,Normal,170,17.0,,,800.0,Light Snow,-16.0,-19.0,29.94,1017.3,71,,,,,,,,,,,,,,,200.0,200.0,OVC,200.0,,,,,,
KRDR,02-13-2022,21:54,METAR,Normal,170,15.0,,,1600.0,Light Snow,-16.9,-19.7,29.97,1018.3,71,,,,,,,,,,TRACE,,,,,200.0,200.0,OVC,200.0,,,,,,
KRDR,02-13-2022,21:19,SPECI,Normal,170,17.0,,,4000.0,,-17.0,-20.0,30.00,1019.3,,,,,,,,,,,,,,,,400.0,400.0,BKN,400.0,OVC,1200.0,,,,
KRDR,02-13-2022,20:57,METAR,Normal,180,18.0,26.0,160/26KTS,1600.0,,-17.6,-20.7,30.00,1019.4,,,,,,,,,,,TRACE,.01 IN,,,,400.0,400.0,OVC,400.0,,,,,,
KRDR,02-13-2022,20:24,SPECI,Normal,170,18.0,26.0,,1600.0,Blowing or Drifting Snow or Sand,-18.0,-21.0,30.00,1019.3,27,,,,,,,,,,,,,,,200.0,400.0,OVC,400.0,,,,,,
KRDR,02-13-2022,19:59,METAR,Normal,170,16.0,20.0,,1800.0,Blowing or Drifting Snow or Sand,-17.9,-21.0,30.07,1021.7,27,,,,,,,,,,TRACE,,,,,200.0,200.0,OVC,200.0,,,,,,
KRDR,02-13-2022,18:56,METAR,Normal,170,19.0,24.0,,1200.0,Light Snow/Blowing or Drifting Snow or Sand,-18.0,-21.1,30.07,1021.7,71,27,,,,,,,,,.01 IN,,,,,200.0,200.0,OVC,200.0,,,,,,
KRDR,02-13-2022,18:01,SPECI,Normal,180,16.0,,,800.0,Snow/Blowing or Drifting Snow or Sand,-18.0,-22.0,30.15,1024.4,72,27,,,,,,,,,,,,,,2600.0,2600.0,OVC,2600.0,,,,,,
KRDR,02-13-2022,17:56,METAR,Normal,180,16.0,,,1200.0,Light Snow/Blowing or Drifting Snow or Sand,-18.4,-21.8,30.16,1024.8,71,27,,,,,,,,,TRACE,,TRACE,,,2700.0,900.0,FEW,900.0,BKN,2700.0,OVC,3400.0,,
KRDR,02-13-2022,17:51,SPECI,Normal,180,15.0,,,1200.0,Light Snow/Blowing or Drifting Snow or Sand,-18.0,-22.0,30.17,1025.1,71,27,,,,,,,,,,,,,,2900.0,2900.0,BKN,2900.0,OVC,3600.0,,,,
KRDR,02-13-2022,17:44,SPECI,Normal,190,17.0,,,1200.0,Light Snow,-18.0,-23.0,30.18,1025.5,71,,,,,,,,,,,,,,,3300.0,2000.0,FEW,2000.0,BKN,3300.0,BKN,4000.0,,
KRDR,02-13-2022,17:42,SPECI,Normal,190,17.0,,,1200.0,,-18.0,-23.0,30.18,1025.5,,,,,,,,,,,,,,,,4000.0,3300.0,SCT,3300.0,BKN,4000.0,BKN,5500.0,,
KRDR,02-13-2022,17:39,SPECI,Normal,190,18.0,,,4800.0,Light Snow,-18.0,-23.0,30.19,1025.7,71,,,,,,,,,,,,,,,3800.0,2800.0,FEW,2800.0,BKN,3800.0,OVC,5500.0,,
KRDR,02-13-2022,16:56,METAR,Normal,190,16.0,,,9999.0,,-19.2,-23.4,30.22,1026.8,,,,,,,,,,,,,,,,5000.0,5000.0,BKN,5000.0,OVC,6000.0,,,,
KRDR,02-13-2022,15:56,METAR,Normal,180,11.0,,,9999.0,,-20.4,-24.4,30.26,1028.2,,,,,,,,,,,,,,,,6000.0,6000.0,OVC,6000.0,,,,,,
KRDR,02-13-2022,14:56,METAR,Normal,190,10.0,,,9999.0,,-22.0,-25.6,30.30,1029.7,,,,,,,,,,,,,,,,7000.0,7000.0,BKN,7000.0,OVC,9100.0,,,,
KRDR,02-13-2022,14:00,METAR,Normal,200,8.0,,,9999.0,,-23.2,-26.5,30.37,1032.1,,,,,,,,,,,,,,,,13000.0,13000.0,BKN,13000.0,,,,,,
KRDR,02-13-2022,13:56,METAR,Normal,200,8.0,,,9999.0,,-23.2,-26.5,30.37,1032.1,,,,,,,,,,,,,,,,13000.0,13000.0,BKN,13000.0,,,,,,
KRDR,02-13-2022,12:57,SPECI,Normal,230,4.0,,,9999.0,,-25.0,-28.0,30.42,1033.8,,,,,,,,,,,,,,,,,15000.0,SCT,15000.0,,,,,,
KRDR,02-13-2022,12:56,METAR,Normal,230,4.0,,,9999.0,,-25.2,-28.3,30.42,1033.8,,,,,,,,,,,,,,,,,15000.0,SCT,15000.0,,,,,,
KRDR,02-13-2022,11:56,METAR,Normal,230,4.0,,,9999.0,,-26.3,-29.4,30.43,1034.1,,,,,,,,,,,,,,,Clear,72000.0,,,,,,,,,
KRDR,02-13-2022,10:56,METAR,Calm,,0.0,,,9999.0,,-26.6,-29.5,30.44,1034.4,,,,,,,,,,,,,,,Clear,72000.0,,,,,,,,,
KRDR,02-13-2022,09:56,METAR,Calm,,0.0,,,9999.0,,-25.6,-28.5,30.44,1034.3,,,,,,,,,,,,,,,Clear,72000.0,,,,,,,,,
KRDR,02-13-2022,08:56,METAR,Normal,310,3.0,,,9999.0,,-25.1,-28.3,30.47,1035.2,,,,,,,,,,,,,,,Clear,72000.0,,,,,,,,,
KRDR,02-13-2022,07:56,METAR,Normal,300,5.0,,,9999.0,,-25.0,-28.1,30.48,1035.6,,,,,,,,,,,,,,,Clear,72000.0,,,,,,,,,
KRDR,02-13-2022,06:56,METAR,Normal,320,5.0,,,9999.0,,-23.8,-26.9,30.47,1035.3,,,,,,,,,,,,,,,Clear,72000.0,,,,,,,,,
KRDR,02-13-2022,05:58,METAR,Normal,320,7.0,,,9999.0,,-23.4,-26.5,30.47,1035.3,,,,,,,,,,,,,,,Clear,72000.0,,,,,,,,,
KRDR,02-13-2022,04:56,METAR,Normal,320,7.0,,,9999.0,,-22.9,-26.0,30.47,1035.4,,,,,,,,,,,,,,,Clear,72000.0,,,,,,,,,
KRDR,02-13-2022,03:57,METAR,Normal,350,9.0,,,9999.0,,-21.6,-24.8,30.45,1034.7,,,,,,,,,,,,,,,Clear,72000.0,,,,,,,,,
KRDR,02-13-2022,02:57,METAR,Normal,360,9.0,,,9999.0,,-21.1,-24.4,30.43,1034.0,,,,,,,,,,,,,,,Clear,72000.0,,,,,,,,,
KRDR,02-13-2022,01:56,METAR,Normal,360,15.0,,,9999.0,,-20.1,-23.8,30.40,1033.0,,,,,,,,,,,,,,,Clear,72000.0,,,,,,,,,
KRDR,02-13-2022,00:57,METAR,Normal,360,16.0,20.0,,9999.0,,-18.9,-23.1,30.37,1032.0,,,,,,,,,,,,,,,,,1200.0,FEW,1200.0,FEW,18000.0,,,,
KRDR,02-12-2022,23:59,METAR,Normal,360,13.0,,,9999.0,,-17.8,-21.7,30.34,1030.9,,,,,,,,,,,TRACE,,,,,,1100.0,SCT,1100.0,,,,,,
KRDR,02-12-2022,23:07,SPECI,Normal,360,18.0,,,9999.0,Blowing Snow,-16.0,-20.0,30.30,1029.5,,,,38,,,,,,,,,,,,200.0,900.0,SCT,900.0,BKN,3900.0,BKN,8000.0,,
KRDR,02-12-2022,22:49,SPECI,Normal,360,20.0,27.0,,400.0,Light Snow/Blowing Snow,-15.0,-19.0,30.29,1029.1,,,,38,71,,,,,,,,,,,3700.0,200.0,FEW,200.0,FEW,1000.0,SCT,1500.0,SCT,2500.0
KRDR,02-12-2022,22:45,SPECI,Normal,340,13.0,,,800.0,Light Snow/Blowing or Drifting Snow or Sand,-15.0,-19.0,30.29,1029.1,27,71,,,,,,,,,,,,,,3700.0,1000.0,FEW,1000.0,SCT,1300.0,SCT,2300.0,BKN,3700.0
KRDR,02-12-2022,22:26,SPECI,Normal,340,16.0,,,9999.0,,-15.0,-19.0,30.28,1028.8,,,,,,,,,,,,,,,,8000.0,1300.0,SCT,1300.0,SCT,2800.0,BKN,8000.0,,
KRDR,02-12-2022,22:10,SPECI,Normal,330,14.0,,,6400.0,Light Snow/Mist,-14.0,-18.0,30.28,1028.7,,,,71,10,,,,,,,,,,,200.0,200.0,SCT,200.0,BKN,1100.0,OVC,3000.0,,
KRDR,02-12-2022,21:56,METAR,Normal,330,17.0,22.0,,4800.0,Mist,-14.3,-17.6,,1028.4,,,,10,,,,,,,TRACE,,,,,,700.0,SCT,700.0,SCT,200.0,,,,
KRDR,02-12-2022,20:58,METAR,Normal,260,6.0,,,4000.0,Light Snow,-13.7,-17.2,30.25,1027.8,71,,,,,,,,,,TRACE,TRACE,,,,700.0,700.0,BKN,700.0,OVC,3900.0,,,,
KRDR,02-12-2022,20:23,SPECI,Normal,260,4.0,,,1600.0,Light Snow/Mist,-14.0,-17.0,30.26,1028.1,,,,71,10,,,,,,,,,,,700.0,700.0,BKN,700.0,OVC,1000.0,,,,
KRDR,02-12-2022,19:55,METAR,Normal,240,5.0,,,3200.0,Light Snow/Mist,-14.7,-18.3,30.27,1028.5,71,10,,,,,,,,,TRACE,,,,,600.0,600.0,BKN,600.0,OVC,1000.0,,,,
KRDR,02-12-2022,19:40,SPECI,Normal,250,7.0,,,3200.0,Light Snow/Mist,-15.0,-19.0,30.27,1028.5,,,,71,10,,,,,,,,,,,400.0,400.0,SCT,400.0,BKN,1000.0,OVC,2000.0,,
KRDR,02-12-2022,19:24,SPECI,Normal,220,7.0,,,4800.0,Light Snow/Mist,-15.0,-20.0,30.27,1028.5,71,10,,,,,,,,,,,,,,700.0,700.0,BKN,700.0,BKN,2000.0,OVC,6000.0,,
KRDR,02-12-2022,19:14,SPECI,Normal,230,8.0,,,9999.0,,-15.0,-20.0,30.27,1028.5,,,,,,,,,,,,,,,,6000.0,1100.0,FEW,1100.0,SCT,2000.0,OVC,6000.0,,
KRDR,02-12-2022,18:56,METAR,Normal,210,7.0,,,9999.0,,-15.8,-20.7,30.29,1029.2,,,,,,,,,,,,,,,,9000.0,6500.0,FEW,6500.0,BKN,9100.0,OVC,11000.0,,
KRDR,02-12-2022,17:56,METAR,Normal,220,8.0,,,9999.0,,-17.0,-22.8,30.31,1029.9,,,,,,,,,,,,,,,,12000.0,12000.0,BKN,12000.0,BKN,19000.0,,,,
KRDR,02-12-2022,17:06,SPECI,Normal,210,10.0,,,9999.0,,-18.0,-25.0,30.33,1030.6,,,,,,,,,,,,,,,,12000.0,2300.0,FEW,2300.0,BKN,12000.0,,,,
KRDR,02-12-2022,16:56,METAR,Normal,220,8.0,,,9999.0,,-18.8,-24.5,30.33,1030.7,,,,,,,,,,,,,,,,2200.0,1700.0,SCT,1700.0,BKN,2200.0,,,,
KRDR,02-12-2022,16:36,SPECI,Normal,200,10.0,,,9999.0,,-20.0,-25.0,30.33,1030.7,,,,,,,,,,,,,,,,2700.0,1800.0,FEW,1800.0,BKN,2700.0,,,,
KRDR,02-12-2022,15:56,METAR,Normal,190,12.0,,,9999.0,,-21.0,-25.7,30.33,1030.8,,,,,,,,,,,,,,,,5000.0,2000.0,SCT,2000.0,BKN,5000.0,,,,
KRDR,02-12-2022,14:56,METAR,Normal,180,7.0,,,9999.0,,-22.0,-27.0,30.37,1032.2,,,,,,,,,,,,,,,,3900.0,3000.0,SCT,3000.0,BKN,3900.0,BKN,5000.0,OVC,6000.0
KRDR,02-12-2022,13:56,METAR,Normal,200,9.0,,,9999.0,,-22.7,-28.1,30.39,1032.8,,,,,,,,,,,,,,,,7500.0,7500.0,OVC,7500.0,,,,,,
KRDR,02-12-2022,12:56,METAR,Normal,200,7.0,,,9999.0,,-23.4,-29.1,30.41,1033.5,,,,,,,,,,,,,,,,9000.0,9000.0,BKN,9100.0,,,,,,
KRDR,02-12-2022,11:56,METAR,Normal,220,7.0,,,9999.0,,-23.6,-29.3,30.43,1034.2,,,,,,,,,,,,,,,,8000.0,8000.0,OVC,8000.0,,,,,,
KRDR,02-12-2022,10:56,METAR,Normal,220,4.0,,,9999.0,,-24.1,-29.1,30.44,1034.6,,,,,,,,,,,,,,,,1000.0,1000.0,OVC,1000.0,,,,,,
KRDR,02-12-2022,09:56,METAR,Normal,180,4.0,,,9999.0,,-25.3,-29.4,30.45,1034.9,,,,,,,,,,,,,,,,11000.0,11000.0,BKN,11000.0,OVC,14000.0,,,,
KRDR,02-12-2022,08:56,METAR,Normal,230,5.0,,,9999.0,,-26.0,-30.1,30.48,1035.9,,,,,,,,,,,,,,,,,11000.0,SCT,11000.0,SCT,14000.0,,,,
KRDR,02-12-2022,07:56,METAR,Normal,320,3.0,,,9999.0,,-27.2,-30.7,30.51,1037.0,,,,,,,,,,,,,,,Clear,72000.0,,,,,,,,,
KRDR,02-12-2022,06:56,METAR,Calm,,0.0,,,9999.0,,-25.9,-29.9,30.52,1037.3,,,,,,,,,,,,,,,Clear,72000.0,,,,,,,,,
KRDR,02-12-2022,05:56,METAR,Normal,360,5.0,,,9999.0,,-25.5,-30.1,30.51,1036.9,,,,,,,,,,,,,,,Clear,72000.0,,,,,,,,,
KRDR,02-12-2022,04:56,METAR,Normal,340,6.0,,,9999.0,,-24.5,-29.3,30.52,1037.2,,,,,,,,,,,,,,,,,25000.0,FEW,25000.0,,,,,,
KRDR,02-12-2022,03:56,METAR,Normal,360,8.0,,,9999.0,,-24.1,-29.6,30.52,1037.2,,,,,,,,,,,,,,,,,25000.0,FEW,25000.0,,,,,,
KRDR,02-12-2022,02:56,METAR,Normal,350,12.0,,,9999.0,,-23.5,-29.9,30.51,1036.7,,,,,,,,,,,,,,,,,25000.0,FEW,25000.0,,,,,,
KRDR,02-12-2022,01:56,METAR,Normal,360,16.0,,,9999.0,,-23.4,-29.3,30.49,1036.1,,,,,,,,,,,,,,,Clear,72000.0,,,,,,,,,
KRDR,02-12-2022,00:56,METAR,Normal,360,13.0,,,9999.0,,-22.9,-28.4,30.48,1035.6,,,,,,,,,,,,,,,Clear,72000.0,,,,,,,,,
KRDR,02-11-2022,23:56,METAR,Normal,350,13.0,,,9999.0,,-22.1,-27.7,30.45,1034.5,,,,,,,,,,,,,,,Clear,72000.0,,,,,,,,,
KRDR,02-11-2022,22:56,METAR,Normal,350,15.0,,330/27KTS,9999.0,,-21.2,-27.2,30.41,1033.0,,,,,,,,,,,,,,,Clear,72000.0,,,,,,,,,
KRDR,02-11-2022,21:56,METAR,Normal,350,23.0,26.0,340/28KTS,9999.0,,-20.5,-24.9,30.36,1031.2,,,,,,,,,,,,,,,,,900.0,SCT,900.0,,,,,,
KRDR,02-11-2022,20:56,METAR,Normal,350,15.0,,320/29KTS,9999.0,,-20.0,-24.3,30.32,1029.8,,,,,,,,,,,,,,,,,1000.0,SCT,1000.0,,,,,,
KRDR,02-11-2022,20:13,SPECI,Normal,350,19.0,27.0,,9999.0,Blowing or Drifting Snow or Sand,-20.0,-24.0,30.29,1028.7,27,,,,,,,,,,,,,,,1200.0,600.0,SCT,600.0,BKN,1200.0,,,,
KRDR,02-11-2022,19:56,METAR,Normal,350,24.0,,340/31KTS,9999.0,Blowing or Drifting Snow or Sand,-20.5,-24.8,30.27,1028.0,27,,,,,,,,,,,,,,,500.0,500.0,BKN,500.0,,,,,,
KRDR,02-11-2022,19:18,SPECI,Normal,350,22.0,28.0,,6400.0,Blowing or Drifting Snow or Sand,-21.0,-25.0,30.24,1027.0,27,,,,,,,,,,,,,,,400.0,400.0,BKN,400.0,OVC,1200.0,,,,
KRDR,02-11-2022,18:56,METAR,Normal,360,22.0,28.0,330/31KTS,8000.0,Blowing or Drifting Snow or Sand,-20.9,-24.8,30.23,1026.5,27,,,,,,,,,,,,,,,500.0,600.0,BKN,600.0,OVC,1300.0,,,,
KRDR,02-11-2022,18:43,SPECI,Normal,350,24.0,29.0,,3200.0,Blowing or Drifting Snow or Sand,-21.0,-25.0,30.23,1026.5,27,,,,,,,,,,,,,,,500.0,400.0,SCT,400.0,OVC,1300.0,,,,
KRDR,02-11-2022,18:36,SPECI,Normal,340,23.0,28.0,,2400.0,Blowing or Drifting Snow or Sand,-21.0,-25.0,30.23,1026.5,27,,,,,,,,,,,,,,,500.0,400.0,SCT,400.0,OVC,1300.0,,,,
KRDR,02-11-2022,17:56,METAR,Normal,350,22.0,31.0,340/36KTS,1600.0,Blowing or Drifting Snow or Sand,-21.1,-25.0,30.21,1025.8,27,,,,,,,,,,,,,,,1300.0,1300.0,OVC,1300.0,,,,,,
KRDR,02-11-2022,16:56,METAR,Normal,350,27.0,34.0,360/41KTS,1200.0,,-20.7,-24.3,30.16,1023.9,,,,,,,,,,,,,,,,1500.0,1500.0,BKN,1500.0,,,,,,
KRDR,02-11-2022,15:56,METAR,Normal,350,31.0,38.0,330/39KTS,800.0,,-20.4,-23.9,30.09,1021.3,,,,,,,,,,,,,,,,1400.0,1400.0,BKN,1400.0,,,,,,
KRDR,02-11-2022,14:56,METAR,Normal,350,26.0,37.0,330/39KTS,800.0,Blowing or Drifting Snow or Sand,-19.6,-23.0,30.03,1019.3,27,,,,,,,,,,,,,,,1400.0,1400.0,BKN,1400.0,,,,,,
KRDR,02-11-2022,13:56,METAR,Normal,350,29.0,36.0,320/39KTS,400.0,Blowing or Drifting Snow or Sand,-18.4,-21.5,29.96,1016.7,27,,,,,,,,,,,,,,,1600.0,1600.0,OVC,1600.0,,,,,,
KRDR,02-11-2022,12:57,SPECI,Normal,340,28.0,33.0,,1200.0,Blowing or Drifting Snow or Sand,-17.0,-19.0,29.89,1014.3,27,,,,,,,,,,,,,,,1000.0,1000.0,BKN,1000.0,OVC,2000.0,,,,
KRDR,02-11-2022,12:56,METAR,Normal,340,27.0,33.0,330/38KTS,600.0,Blowing or Drifting Snow or Sand,-16.7,-19.4,29.89,1014.3,27,,,,,,,,,,,,,,,1200.0,1200.0,BKN,1200.0,OVC,2000.0,,,,
KRDR,02-11-2022,11:56,METAR,Normal,340,30.0,38.0,340/39KTS,800.0,Light Snow/Blowing or Drifting Snow or Sand,-15.3,-18.2,29.81,1011.5,71,27,,,,,,,,,TRACE,,TRACE,.06 IN,,1000.0,1000.0,BKN,1000.0,OVC,2000.0,,,,
KRDR,02-11-2022,10:57,SPECI,Normal,340,29.0,39.0,,800.0,Light Snow/Blowing or Drifting Snow or Sand,-14.0,-17.0,29.75,1009.4,71,27,,,,,,,,,,,,,,1900.0,1900.0,OVC,1900.0,,,,,,
KRDR,02-11-2022,10:56,METAR,Normal,350,31.0,39.0,340/41KTS,600.0,Light Snow/Blowing or Drifting Snow or Sand,-14.4,-17.0,29.74,1009.1,71,27,,,,,,,,,TRACE,,,,,1200.0,1200.0,BKN,1200.0,OVC,1900.0,,,,
KRDR,02-11-2022,10:13,SPECI,Normal,340,33.0,41.0,,800.0,Light Snow/Blowing or Drifting Snow or Sand,-14.0,-16.0,29.68,1007.0,71,27,,,,,,,,,,,,,,600.0,1500.0,BKN,1500.0,,,,,,
KRDR,02-11-2022,09:57,METAR,Normal,340,27.0,38.0,320/40KTS,1200.0,Snow/Blowing or Drifting Snow or Sand,-13.1,-15.4,29.67,1006.6,72,27,,,,,,,,,,,,,,1600.0,1600.0,OVC,1600.0,,,,,,
KRDR,02-11-2022,09:16,SPECI,Normal,340,27.0,38.0,,600.0,Light Snow/Blowing or Drifting Snow or Sand,-12.0,-15.0,29.63,1005.2,71,27,,,,,,,,,,,,,,1500.0,1500.0,OVC,1500.0,,,,,,
KRDR,02-11-2022,08:56,METAR,Normal,340,32.0,39.0,320/41KTS,400.0,Light Snow/Blowing or Drifting Snow or Sand,-11.6,-13.8,29.60,1004.2,71,27,,,,,,,,,TRACE,.05 IN,,,,1600.0,1600.0,OVC,1600.0,,,,,,
KRDR,02-11-2022,07:56,METAR,Normal,340,28.0,34.0,340/39KTS,400.0,Light Snow/Blowing or Drifting Snow or Sand,-9.4,-11.3,29.53,1001.7,71,27,,,,,,,,,TRACE,,,,,1600.0,1600.0,OVC,1600.0,,,,,,
KRDR,02-11-2022,06:56,METAR,Normal,350,28.0,32.0,330/34KTS,400.0,Light Snow/Blowing or Drifting Snow or Sand,-7.2,-8.9,29.46,999.2,71,27,,,,,,,,,.05 IN,,,,,1500.0,1500.0,OVC,1500.0,,,,,,
KRDR,02-11-2022,06:25,SPECI,Normal,350,22.0,31.0,,1600.0,Light Snow/Blowing or Drifting Snow or Sand,-5.0,-7.0,29.42,997.8,71,27,,,,,,,,,,,,,,1700.0,1700.0,OVC,1700.0,,,,,,
KRDR,02-11-2022,05:56,METAR,Normal,350,22.0,28.0,330/31KTS,4800.0,Light Snow/Blowing or Drifting Snow or Sand,-4.1,-6.1,29.39,996.8,71,27,,,,,,,,,.01 IN,,.06 IN,,,1200.0,1200.0,BKN,1200.0,BKN,1700.0,BKN,3200.0,OVC,3900.0
KRDR,02-11-2022,05:37,SPECI,Normal,340,22.0,30.0,,4800.0,Light Snow/Blowing or Drifting Snow or Sand,-3.0,-5.0,29.37,996.1,71,27,,,,,,,,,,,,,,1500.0,1500.0,BKN,1500.0,BKN,2000.0,OVC,3200.0,,
KRDR,02-11-2022,05:18,SPECI,Normal,360,21.0,29.0,,4800.0,Light Snow/Blowing or Drifting Snow or Sand,-3.0,-4.0,29.35,995.4,71,27,,,,,,,,,,,,,,1400.0,1400.0,BKN,1400.0,BKN,2100.0,OVC,2700.0,,
KRDR,02-11-2022,04:56,METAR,Normal,350,19.0,26.0,320/27KTS,4800.0,Light Snow/Blowing or Drifting Snow or Sand,-1.9,-3.2,29.34,995.2,71,27,,,,,,,,,.01 IN,,,,,2300.0,2300.0,OVC,2300.0,,,,,,
KRDR,02-11-2022,04:02,SPECI,Normal,10,14.0,,,6400.0,Light Snow,2.0,0.0,29.31,994.1,,,,71,,,,,,,,,,,,600.0,600.0,OVC,600.0,,,,,,
KRDR,02-11-2022,03:56,METAR,Normal,320,11.0,,,9999.0,Light Rain Showers,2.0,0.5,29.30,993.7,81,,,,,,,,,,.02 IN,,,,,700.0,1400.0,OVC,1400.0,,,,,,
KRDR,02-11-2022,02:56,METAR,Normal,310,12.0,,,9999.0,Light Rain Showers,2.1,0.6,29.28,993.1,81,,,,,,,,,,.02 IN,.03 IN,,,,1100.0,1100.0,OVC,1100.0,,,,,,
KRDR,02-11-2022,01:56,METAR,Normal,300,13.0,,,9999.0,Light Rain Showers,3.0,0.6,29.27,992.8,81,,,,,,,,,,TRACE,,,,,2000.0,2000.0,BKN,2000.0,OVC,5500.0,,,,
KRDR,02-11-2022,01:25,SPECI,Normal,290,18.0,24.0,,9999.0,Light Rain Showers,4.0,1.0,29.26,992.4,81,,,,,,,,,,,,,,,4200.0,2600.0,SCT,2600.0,OVC,4200.0,,,,
KRDR,02-11-2022,01:06,SPECI,Normal,300,16.0,22.0,,9999.0,,4.0,0.0,29.25,992.1,,,,,,,,,,,,,,,,2600.0,2600.0,BKN,2600.0,OVC,4700.0,,,,
KRDR,02-11-2022,00:56,METAR,Normal,300,17.0,23.0,,9999.0,,3.6,0.5,29.25,992.1,,,,,,,,,,,,,,,,4700.0,4700.0,OVC,4700.0,,,,,,
KRDR,02-10-2022,23:56,METAR,Normal,300,18.0,24.0,,9999.0,,3.7,0.9,29.22,991.2,,,,,,,,,,,,,TRACE,,,4200.0,4200.0,OVC,4200.0,,,,,,
KRDR,02-10-2022,22:56,METAR,Normal,300,19.0,24.0,270/26KTS,9999.0,,4.2,0.9,29.19,990.1,,,,,,,,,,,TRACE,,,,,8500.0,6000.0,SCT,6000.0,OVC,8600.0,,,,
KRDR,02-10-2022,21:56,METAR,Normal,300,19.0,27.0,300/28KTS,9999.0,,4.2,0.7,29.18,989.9,,,,,,,,,,,TRACE,,,,,6000.0,4200.0,SCT,4200.0,BKN,6000.0,BKN,7500.0,OVC,9100.0
KRDR,02-10-2022,20:56,METAR,Normal,290,18.0,26.0,290/27KTS,9999.0,,4.3,0.8,29.16,989.2,,,,,,,,,,,,TRACE,,,,2200.0,2200.0,BKN,2200.0,OVC,4000.0,,,,
KRDR,02-10-2022,20:26,SPECI,Normal,280,20.0,26.0,,9999.0,,4.0,1.0,29.15,988.9,,,,,,,,,,,,,,,,2400.0,2400.0,BKN,2400.0,OVC,4000.0,,,,
KRDR,02-10-2022,20:06,SPECI,Normal,290,20.0,26.0,,9999.0,,5.0,1.0,29.14,988.5,,,,,,,,,,,,,,,,3200.0,2500.0,SCT,2500.0,BKN,3200.0,OVC,3900.0,,
KRDR,02-10-2022,19:56,METAR,Normal,290,19.0,29.0,300/29KTS,9999.0,,4.7,0.8,29.14,988.5,,,,,,,,,,,,,,,,2600.0,2600.0,BKN,2600.0,OVC,3100.0,,,,
KRDR,02-10-2022,19:26,SPECI,Normal,290,20.0,29.0,,9999.0,,5.0,1.0,29.14,988.5,,,,,,,,,,,,,,,,2900.0,2900.0,BKN,2900.0,BKN,3800.0,OVC,5500.0,,
KRDR,02-10-2022,18:56,METAR,Normal,270,19.0,28.0,280/28KTS,9999.0,,4.9,0.7,29.15,988.8,,,,,,,,,,,TRACE,,,,,5000.0,5000.0,BKN,5000.0,OVC,6000.0,,,,
KRDR,02-10-2022,18:52,SPECI,Normal,270,21.0,28.0,,9999.0,Light Rain Showers,5.0,1.0,29.14,988.5,81,,,,,,,,,,,,,,,5000.0,5000.0,BKN,5000.0,OVC,6000.0,,,,
KRDR,02-10-2022,18:24,SPECI,Normal,260,17.0,25.0,,9999.0,Light Rain Showers,4.0,0.0,29.18,989.9,81,,,,,,,,,,,,,,,6000.0,6000.0,BKN,6000.0,BKN,7000.0,OVC,9100.0,,
KRDR,02-10-2022,17:56,METAR,Normal,220,17.0,,190/27KTS,9999.0,Light Rain,2.6,0.0,29.20,990.6,61,,,,,,,,,,TRACE,,.02 IN,,,4900.0,4900.0,BKN,4900.0,BKN,6000.0,OVC,8000.0,,
KRDR,02-10-2022,17:11,SPECI,Normal,210,17.0,,,9999.0,,0.0,-1.0,29.26,992.8,,,,,,,,,,,,,,,,900.0,900.0,BKN,900.0,BKN,1300.0,OVC,4600.0,,
KRDR,02-10-2022,16:56,METAR,Normal,200,19.0,,200/28KTS,6400.0,Light Snow,-1.8,-3.1,29.28,993.6,71,,,,,,,,,,.01 IN,,,,,800.0,300.0,FEW,300.0,BKN,800.0,BKN,3600.0,OVC,4600.0
KRDR,02-10-2022,16:40,SPECI,Normal,190,20.0,,,1800.0,Snow,-2.0,-3.0,29.31,994.6,72,,,,,,,,,,,,,,,200.0,200.0,SCT,200.0,BKN,700.0,BKN,1100.0,BKN,3600.0
KRDR,02-10-2022,16:27,SPECI,Normal,200,21.0,28.0,,1200.0,Light Snow,-2.0,-4.0,29.33,995.3,,,,71,,,,,,,,,,,,800.0,200.0,SCT,200.0,OVC,1000.0,,,,
KRDR,02-10-2022,16:17,SPECI,Normal,190,23.0,28.0,,6400.0,Light Snow,-3.0,-4.0,29.34,995.7,71,,,,,,,,,,,,,,,800.0,1000.0,OVC,1000.0,,,,,,
KRDR,02-10-2022,15:56,METAR,Normal,190,16.0,,,4800.0,Light Snow,-3.8,-5.2,29.39,997.5,71,,,,,,,,,,.01 IN,,,,,1200.0,1200.0,BKN,1200.0,OVC,2400.0,,,,
KRDR,02-10-2022,15:33,SPECI,Normal,180,18.0,,,4800.0,Light Snow,-5.0,-6.0,29.43,998.9,71,,,,,,,,,,,,,,,3500.0,1200.0,FEW,1200.0,FEW,2400.0,OVC,3500.0,,
KRDR,02-10-2022,14:56,METAR,Normal,180,15.0,,,2400.0,Blowing or Drifting Snow or Sand,-5.8,-7.3,29.48,1000.6,27,,,,,,,,,,TRACE,TRACE,,,,,200.0,SCT,200.0,,,,,,
KRDR,02-10-2022,14:21,SPECI,Normal,180,17.0,,,4800.0,Light Snow,-7.0,-9.0,29.54,1002.6,71,,,,,,,,,,,,,,,4600.0,4600.0,OVC,4600.0,,,,,,
KRDR,02-10-2022,13:56,METAR,Normal,180,16.0,,,9999.0,Light Snow,-7.2,-9.2,29.58,1004.0,71,,,,,,,,,,TRACE,,,,,,2800.0,FEW,2800.0,SCT,3500.0,,,,
KRDR,02-10-2022,13:44,SPECI,Normal,180,13.0,,,9999.0,Light Snow,-7.0,-9.0,29.61,1005.0,71,,,,,,,,,,,,,,,3500.0,2600.0,SCT,2600.0,BKN,3500.0,OVC,4600.0,,
KRDR,02-10-2022,12:56,METAR,Normal,180,14.0,,,9999.0,,-8.8,-10.9,29.68,1007.4,,,,,,,,,,,,,,,,7000.0,5000.0,SCT,5000.0,OVC,7000.0,,,,
KRDR,02-10-2022,11:56,METAR,Normal,180,12.0,,,9999.0,,-9.7,-11.9,29.75,1009.8,,,,,,,,,,,,,,,,7000.0,7000.0,OVC,7000.0,,,,,,
KRDR,02-10-2022,10:56,METAR,Normal,180,11.0,,,9999.0,,-11.0,-13.1,29.82,1012.2,,,,,,,,,,,,,,,,15000.0,15000.0,BKN,15000.0,OVC,17000.0,,,,
KRDR,02-10-2022,09:56,METAR,Normal,180,10.0,,,9999.0,,-12.1,-14.4,29.88,1014.2,,,,,,,,,,,,,,,,17000.0,17000.0,OVC,17000.0,,,,,,
KRDR,02-10-2022,08:56,METAR,Normal,180,8.0,,,9999.0,,-12.8,-15.3,29.91,1015.3,,,,,,,,,,,,,,,,,18000.0,FEW,18000.0,,,,,,
KRDR,02-10-2022,07:56,METAR,Normal,170,7.0,,,9999.0,,-13.5,-15.8,29.96,1017.0,,,,,,,,,,,,,,,Clear,72000.0,,,,,,,,,
KRDR,02-10-2022,06:56,METAR,Normal,180,6.0,,,9999.0,,-12.7,-15.2,30.01,1018.7,,,,,,,,,,,,,,,,9000.0,9000.0,BKN,9100.0,,,,,,
KRDR,02-10-2022,05:57,METAR,Calm,,0.0,,,9999.0,,-12.9,-15.2,30.04,1019.7,,,,,,,,,,,,,,,,9000.0,9000.0,OVC,9100.0,,,,,,
KRDR,02-10-2022,04:54,METAR,Normal,290,3.0,,,9999.0,,-14.6,-16.9,30.05,1020.0,,,,,,,,,,,,,,,,9000.0,9000.0,OVC,9100.0,,,,,,
KRDR,02-10-2022,03:59,METAR,Normal,300,4.0,,,9999.0,,-15.1,-17.2,30.07,1020.7,,,,,,,,,,,,,,,,9500.0,1100.0,SCT,1100.0,BKN,9600.0,,,,
KRDR,02-10-2022,02:59,METAR,Normal,280,3.0,,,9999.0,,-15.0,-17.3,30.05,1020.0,,,,,,,,,,,,,,,,,1100.0,FEW,1100.0,,,,,,
KRDR,02-10-2022,01:59,METAR,Normal,340,7.0,,,9999.0,,-12.8,-15.6,30.07,1020.6,,,,,,,,,,,,,,,,900.0,900.0,BKN,900.0,,,,,,
KRDR,02-10-2022,00:59,METAR,Normal,360,8.0,,,9999.0,,-11.0,-14.3,30.05,1019.8,,,,,,,,,,,,,,,,800.0,800.0,OVC,800.0,,,,,,
KRDR,02-09-2022,23:57,METAR,Normal,360,10.0,,,9999.0,,-9.8,-12.5,30.03,1019.0,,,,,,,,,,,TRACE,,TRACE,,,200.0,600.0,OVC,600.0,,,,,,
KRDR,02-09-2022,22:56,METAR,Normal,360,14.0,,,9999.0,,-9.1,-12.7,30.01,1018.3,,,,,,,,,,,,,,,,900.0,900.0,OVC,900.0,,,,,,
KRDR,02-09-2022,21:56,METAR,Normal,350,17.0,,,9999.0,,-8.5,-12.5,29.99,1017.5,,,,,,,,,,,TRACE,,,,,1200.0,1200.0,OVC,1200.0,,,,,,
KRDR,02-09-2022,20:55,METAR,Normal,350,15.0,23.0,,9999.0,Light Snow,-7.7,-11.4,29.94,1015.8,,,,71,,,,,,,TRACE,TRACE,,,,600.0,600.0,BKN,600.0,BKN,1100.0,,,,
KRDR,02-09-2022,19:58,METAR,Variable,360,16.0,21.0,320/26KTS,9999.0,Light Snow,-7.2,-10.6,29.94,1015.7,,,,71,,,,,,,TRACE,,,,,500.0,500.0,BKN,500.0,OVC,2100.0,,,,
KRDR,02-09-2022,19:16,SPECI,Normal,360,18.0,23.0,,9999.0,Light Snow,-7.0,-11.0,29.93,1015.4,,,,71,,,,,,,,,,,,1100.0,1100.0,BKN,1100.0,OVC,2300.0,,,,
KRDR,02-09-2022,18:59,METAR,Normal,340,19.0,23.0,330/27KTS,9999.0,,-6.7,-10.6,29.93,1015.4,,,,,,,,,,,TRACE,,,,,1200.0,1200.0,BKN,1200.0,,,,,,
KRDR,02-09-2022,17:56,METAR,Normal,340,21.0,,320/30KTS,9999.0,,-6.1,-10.5,29.92,1015.0,,,,,,,,,,,,,TRACE,,,2500.0,1600.0,FEW,1600.0,OVC,2500.0,,,,
KRDR,02-09-2022,16:56,METAR,Normal,350,22.0,29.0,330/31KTS,9999.0,,-5.9,-10.0,29.90,1014.3,,,,,,,,,,,,,,,,1800.0,1500.0,FEW,1500.0,BKN,2200.0,,,,
KRDR,02-09-2022,15:56,METAR,Normal,350,19.0,27.0,330/27KTS,9999.0,,-5.1,-8.7,29.87,1013.3,,,,,,,,,,,TRACE,,,,,3700.0,1800.0,FEW,1800.0,FEW,2600.0,OVC,3700.0,,
KRDR,02-09-2022,15:19,SPECI,Normal,340,21.0,27.0,,9999.0,,-4.0,-8.0,29.86,1012.8,,,,,,,,,,,,,,,,3100.0,1700.0,SCT,1700.0,BKN,3100.0,BKN,3900.0,OVC,4700.0
KRDR,02-09-2022,14:56,METAR,Normal,350,12.0,,,9999.0,Light Snow,-4.2,-7.0,29.85,1012.5,71,,,,,,,,,,TRACE,TRACE,,,,4500.0,2400.0,FEW,2400.0,OVC,4500.0,,,,
KRDR,02-09-2022,13:56,METAR,Normal,10,14.0,,310/30KTS,9999.0,Light Snow,-4.1,-6.3,29.82,1011.5,71,,,,,,,,,,TRACE,,,,,3100.0,1700.0,FEW,1700.0,SCT,2400.0,OVC,3100.0,,
KRDR,02-09-2022,13:19,SPECI,Normal,340,19.0,28.0,,9999.0,Light Snow,-3.0,-6.0,29.81,1011.1,,,,71,,,,,,,,,,,,1600.0,1200.0,SCT,1200.0,BKN,2000.0,OVC,2500.0,,
KRDR,02-09-2022,12:56,METAR,Normal,340,20.0,26.0,,9999.0,,-2.8,-5.8,29.80,1010.7,,,,,,,,,,,TRACE,,,,,2100.0,2100.0,OVC,2100.0,,,,,,
KRDR,02-09-2022,12:17,SPECI,Normal,340,18.0,,,9999.0,,-2.0,-5.0,29.78,1010.0,,,,,,,,,,,,,,,,2000.0,600.0,SCT,600.0,OVC,2000.0,,,,
KRDR,02-09-2022,11:59,SPECI,Normal,350,18.0,24.0,,9999.0,Light Freezing Drizzle,-2.0,-5.0,29.77,1009.7,54,,,,,,,,,,,,,,,1600.0,600.0,SCT,600.0,OVC,1600.0,,,,
KRDR,02-09-2022,11:56,METAR,Normal,350,19.0,24.0,350/26KTS,9999.0,,-2.2,-4.9,29.77,1009.7,,,,,,,,,,,,,TRACE,,,1600.0,600.0,FEW,600.0,OVC,1600.0,,,,
KRDR,02-09-2022,10:58,SPECI,Normal,340,18.0,24.0,,9999.0,,-1.0,-5.0,29.74,1008.6,,,,,,,,,,,,,,,,700.0,600.0,FEW,600.0,SCT,1300.0,BKN,2200.0,OVC,2800.0
KRDR,02-09-2022,10:56,METAR,Normal,350,19.0,23.0,320/27KTS,9999.0,Light Freezing Rain,-1.3,-4.5,29.74,1008.6,64,,,,,,,,,,TRACE,,,,,700.0,600.0,SCT,600.0,BKN,1300.0,BKN,2200.0,OVC,2800.0
KRDR,02-09-2022,10:35,SPECI,Normal,350,17.0,,,9999.0,Light Freezing Rain,-1.0,-3.0,29.73,1008.3,64,,,,,,,,,,,,,,,600.0,600.0,BKN,600.0,BKN,1100.0,OVC,1700.0,,
KRDR,02-09-2022,09:56,METAR,Normal,330,16.0,,,9999.0,,0.0,-3.2,29.72,1007.9,,,,,,,,,,,TRACE,,,,,1900.0,2500.0,BKN,2500.0,OVC,3300.0,,,,
KRDR,02-09-2022,09:16,SPECI,Normal,320,15.0,,,9999.0,,0.0,-3.0,29.71,1007.5,,,,,,,,,,,,,,,,2200.0,2000.0,SCT,2000.0,OVC,2600.0,,,,
KRDR,02-09-2022,08:56,METAR,Normal,320,16.0,,,9999.0,Light Rain,0.2,-2.8,29.71,1007.5,61,,,,,,,,,,TRACE,TRACE,,,,2000.0,2000.0,BKN,2000.0,OVC,2800.0,,,,
KRDR,02-09-2022,08:14,SPECI,Normal,310,18.0,23.0,,9999.0,Light Snow,0.0,-2.0,29.69,1006.8,71,,,,,,,,,,,,,,,2100.0,2100.0,OVC,2100.0,,,,,,
KRDR,02-09-2022,08:03,SPECI,Normal,310,13.0,,,9999.0,,1.0,-3.0,29.69,1006.8,,,,,,,,,,,,,,,,2200.0,2200.0,OVC,2200.0,,,,,,
KRDR,02-09-2022,07:56,METAR,Normal,320,16.0,,,9999.0,,0.6,-2.8,29.69,1006.8,,,,,,,,,,,,,,,,2400.0,2400.0,OVC,2400.0,,,,,,
KRDR,02-09-2022,06:56,METAR,Normal,330,18.0,23.0,,9999.0,,0.7,-2.7,29.67,1006.1,,,,,,,,,,,,,,,,2700.0,2700.0,OVC,2700.0,,,,,,
KRDR,02-09-2022,06:36,SPECI,Normal,320,18.0,,,9999.0,,1.0,-3.0,29.67,1006.1,,,,,,,,,,,,,,,,2700.0,2700.0,BKN,2700.0,OVC,3300.0,,,,
KRDR,02-09-2022,05:56,METAR,Normal,320,17.0,22.0,,9999.0,,1.1,-2.5,29.66,1005.8,,,,,,,,,,,,,,,,3500.0,3500.0,OVC,3500.0,,,,,,
KRDR,02-09-2022,04:56,METAR,Normal,310,19.0,23.0,300/28KTS,9999.0,,1.3,-2.1,29.65,1005.5,,,,,,,,,,,,,,,,3900.0,3900.0,OVC,3900.0,,,,,,
KRDR,02-09-2022,03:56,METAR,Normal,310,19.0,24.0,280/29KTS,9999.0,,1.6,-2.2,29.66,1005.8,,,,,,,,,,,,,,,,4100.0,4100.0,OVC,4100.0,,,,,,
KRDR,02-09-2022,02:56,METAR,Normal,310,17.0,26.0,320/26KTS,9999.0,,1.8,-1.8,29.66,1005.8,,,,,,,,,,,,,,,,4300.0,4300.0,OVC,4300.0,,,,,,
KRDR,02-09-2022,01:56,METAR,Normal,320,17.0,24.0,290/28KTS,9999.0,,2.2,-1.6,29.66,1005.8,,,,,,,,,,,,,,,,4500.0,4500.0,BKN,4500.0,OVC,5000.0,,,,
KRDR,02-09-2022,01:36,SPECI,Normal,310,17.0,25.0,,9999.0,,2.0,-1.0,29.66,1005.8,,,,,,,,,,,,,,,,4900.0,2300.0,SCT,2300.0,OVC,4900.0,,,,
KRDR,02-09-2022,01:06,SPECI,Normal,310,17.0,22.0,,9999.0,,3.0,-1.0,29.66,1005.7,,,,,,,,,,,,,,,,2500.0,2500.0,BKN,2500.0,BKN,3600.0,OVC,4700.0,,
KRDR,02-09-2022,00:56,METAR,Normal,310,19.0,23.0,280/27KTS,9999.0,,2.4,-1.2,29.66,1005.8,,,,,,,,,,,,,,,,3700.0,2500.0,FEW,2500.0,BKN,3700.0,OVC,4700.0,,
KRDR,02-08-2022,23:56,METAR,Normal,300,17.0,25.0,280/28KTS,9999.0,,2.7,-0.9,29.65,1005.5,,,,,,,,,,,,,,,,4500.0,4500.0,BKN,4500.0,OVC,7500.0,,,,
KRDR,02-08-2022,22:56,METAR,Normal,300,20.0,26.0,280/31KTS,9999.0,,3.1,-0.5,29.63,1004.7,,,,,,,,,,,,,,,,3100.0,3100.0,OVC,3100.0,,,,,,
KRDR,02-08-2022,21:56,METAR,Normal,300,18.0,25.0,310/30KTS,9999.0,,3.5,-0.5,29.60,1003.7,,,,,,,,,,,,,,,,16000.0,13000.0,SCT,13000.0,BKN,16000.0,BKN,20000.0,,
KRDR,02-08-2022,21:06,SPECI,Normal,300,22.0,29.0,,9999.0,,3.0,0.0,29.59,1003.6,,,,,,,,,,,,,,,,3900.0,2600.0,FEW,2600.0,BKN,3900.0,BKN,5000.0,,
KRDR,02-08-2022,20:56,METAR,Normal,300,21.0,27.0,290/28KTS,9999.0,,3.4,-0.2,29.59,1003.7,,,,,,,,,,,,,,,,2500.0,2500.0,BKN,2500.0,OVC,5000.0,,,,
KRDR,02-08-2022,20:06,SPECI,Normal,300,18.0,27.0,,9999.0,,3.0,0.0,29.59,1003.7,,,,,,,,,,,,,,,,2500.0,1800.0,SCT,1800.0,BKN,2800.0,BKN,3200.0,OVC,4600.0
KRDR,02-08-2022,19:56,METAR,Normal,290,19.0,26.0,290/28KTS,9999.0,,3.2,-0.3,29.58,1003.4,,,,,,,,,,,,,,,,4600.0,3100.0,FEW,3100.0,OVC,4600.0,,,,
KRDR,02-08-2022,18:56,METAR,Normal,290,17.0,25.0,290/27KTS,9999.0,,2.7,-0.2,29.59,1003.8,,,,,,,,,,,,,,,,5500.0,1500.0,SCT,1500.0,SCT,4100.0,OVC,5500.0,,
KRDR,02-08-2022,17:56,METAR,Normal,290,22.0,28.0,280/30KTS,9999.0,,2.8,-1.2,29.58,1003.4,,,,,,,,,,,,,,,,7000.0,3300.0,FEW,3300.0,OVC,7000.0,,,,
KRDR,02-08-2022,16:56,METAR,Normal,280,19.0,24.0,280/26KTS,9999.0,,2.8,-1.4,29.57,1003.1,,,,,,,,,,,,,,,,8500.0,8500.0,OVC,8600.0,,,,,,
KRDR,02-08-2022,15:56,METAR,Normal,280,19.0,29.0,290/29KTS,9999.0,,2.3,-1.9,29.57,1003.1,,,,,,,,,,,,,,,,,10000.0,FEW,10000.0,SCT,12000.0,,,,
KRDR,02-08-2022,14:56,METAR,Normal,280,20.0,26.0,,9999.0,,2.1,-2.2,29.57,1003.1,,,,,,,,,,,,,,,Clear,72000.0,,,,,,,,,
KRDR,02-08-2022,13:56,METAR,Normal,280,16.0,22.0,,9999.0,,2.0,-2.7,29.57,1003.1,,,,,,,,,,,,,,,Clear,72000.0,,,,,,,,,
KRDR,02-08-2022,12:56,METAR,Normal,270,15.0,,,9999.0,,2.0,-2.0,29.58,1003.4,,,,,,,,,,,,,,,Clear,72000.0,,,,,,,,,
KRDR,02-08-2022,11:56,METAR,Normal,270,13.0,,,9999.0,,1.6,-2.0,29.59,1003.8,,,,,,,,,,,,,,,Clear,72000.0,,,,,,,,,
KRDR,02-08-2022,10:56,METAR,Normal,300,21.0,24.0,,9999.0,,2.4,-1.4,29.56,1002.8,,,,,,,,,,,,,,,Clear,72000.0,,,,,,,,,
KRDR,02-08-2022,10:42,SPECI,Normal,290,18.0,24.0,,9999.0,,2.0,-2.0,29.55,1002.4,,,,,,,,,,,,,,,Clear,72000.0,,,,,,,,,
KRDR,02-08-2022,09:56,METAR,Normal,290,11.0,,280/26KTS,9999.0,,,,29.57,1003.0,,,,,,,,,,,,,,,Clear,72000.0,,,,,,,,,
KRDR,02-08-2022,08:56,METAR,Normal,200,5.0,,,9999.0,,-8.0,-10.4,29.57,1003.4,,,,,,,,,,,,,,,Clear,72000.0,,,,,,,,,
KRDR,02-08-2022,08:07,SPECI,Normal,190,9.0,,,9999.0,,-7.0,-10.0,29.56,1003.1,,,,,,,,,,,,,,,,,19000.0,SCT,19000.0,,,,,,
KRDR,02-08-2022,07:56,METAR,Normal,190,9.0,,,9999.0,,-6.8,-9.2,29.56,1003.1,,,,,,,,,,,,,,,Clear,72000.0,,,,,,,,,
KRDR,02-08-2022,06:56,METAR,Normal,190,12.0,,,9999.0,,-8.2,-10.3,29.59,1004.2,,,,,,,,,,,,,,,Clear,72000.0,,,,,,,,,
KRDR,02-08-2022,05:56,METAR,Normal,190,12.0,,,9999.0,,-8.4,-10.5,29.61,1004.9,,,,,,,,,,,,,,,,,25000.0,FEW,25000.0,,,,,,
KRDR,02-08-2022,04:56,METAR,Normal,180,12.0,,,9999.0,,-8.5,-10.6,29.65,1006.3,,,,,,,,,,,,,,,,,25000.0,FEW,25000.0,,,,,,
KRDR,02-08-2022,03:56,METAR,Normal,170,11.0,,,9999.0,,-8.4,-10.3,29.68,1007.3,,,,,,,,,,,,,,,,,25000.0,FEW,25000.0,,,,,,
KRDR,02-08-2022,02:56,METAR,Normal,180,10.0,,,9999.0,,-8.2,-10.4,29.72,1008.8,,,,,,,,,,,,TRACE,,,,,20000.0,FEW,20000.0,,,,,,
KRDR,02-08-2022,01:56,METAR,Normal,180,12.0,,,9999.0,,-7.6,-10.0,29.75,1009.8,,,,,,,,,,,,,,,,16000.0,16000.0,BKN,16000.0,OVC,18000.0,,,,
KRDR,02-08-2022,00:56,METAR,Normal,160,8.0,,,9999.0,,-8.0,-10.4,29.78,1010.9,,,,,,,,,,,,,,,,25000.0,19000.0,SCT,19000.0,OVC,25000.0,,,,
KRDR,02-07-2022,23:56,METAR,Normal,160,9.0,,,9999.0,,-8.1,-10.5,29.81,1011.9,,,,,,,,,,,,,,,,20000.0,20000.0,OVC,20000.0,,,,,,
KRDR,02-07-2022,22:56,METAR,Normal,170,10.0,,,9999.0,,-7.4,-10.1,29.82,1012.2,,,,,,,,,,,,,,,,25000.0,25000.0,OVC,25000.0,,,,,,
KRDR,02-07-2022,21:56,METAR,Normal,160,13.0,,,9999.0,,-6.9,-10.1,29.83,1012.5,,,,,,,,,,,,,,,,25000.0,25000.0,BKN,25000.0,,,,,,
KRDR,02-07-2022,20:56,METAR,Normal,160,11.0,,,9999.0,,-6.1,-9.8,29.85,1013.2,,,,,,,,,,,,,,,,,25000.0,SCT,25000.0,,,,,,
KRDR,02-07-2022,19:56,METAR,Normal,180,10.0,,,9999.0,,-6.8,-10.5,29.89,1014.7,,,,,,,,,,,,,,,,,25000.0,FEW,25000.0,,,,,,
KRDR,02-07-2022,18:56,METAR,Normal,180,12.0,,,9999.0,,-8.2,-11.9,29.92,1015.8,,,,,,,,,,,,,,,,,20000.0,FEW,20000.0,,,,,,
KRDR,02-07-2022,17:56,METAR,Normal,190,11.0,,,9999.0,,-9.0,-12.6,29.95,1016.8,,,,,,,,,,,,,,,,,6000.0,FEW,6000.0,,,,,,
KRDR,02-07-2022,16:56,METAR,Normal,180,13.0,,,9999.0,,-10.0,-13.6,29.96,1017.2,,,,,,,,,,,,,,,,,6000.0,FEW,6000.0,,,,,,
KRDR,02-07-2022,15:56,METAR,Normal,190,11.0,,,9999.0,,-10.8,-13.9,29.99,1018.4,,,,,,,,,,,,,,,,,6000.0,FEW,6000.0,,,,,,
KRDR,02-07-2022,14:56,METAR,Normal,180,13.0,,,9999.0,,-11.4,-14.3,29.99,1018.5,,,,,,,,,,,,,,,,6000.0,6000.0,BKN,6000.0,,,,,,
KRDR,02-07-2022,13:56,METAR,Normal,180,9.0,,,9999.0,,-12.4,-15.3,30.02,1019.6,,,,,,,,,,,,,,,,5500.0,5500.0,BKN,5500.0,,,,,,
KRDR,02-07-2022,12:56,METAR,Normal,180,11.0,,,9999.0,,-13.8,-16.7,30.02,1019.7,,,,,,,,,,,,,,,,,5500.0,SCT,5500.0,,,,,,
KRDR,02-07-2022,12:34,SPECI,Normal,180,14.0,,,9999.0,,-14.0,-16.0,30.02,1019.6,,,,,,,,,,,,,,,,,8500.0,SCT,8600.0,,,,,,
KRDR,02-07-2022,11:56,METAR,Normal,170,14.0,,,9999.0,,-13.2,-16.1,30.03,1019.9,,,,,,,,,,,,,TRACE,,,9000.0,9000.0,BKN,9100.0,,,,,,
KRDR,02-07-2022,10:56,METAR,Normal,180,13.0,,,9999.0,,-13.3,-16.2,30.06,1020.8,,,,,,,,,,,TRACE,,,,,2100.0,2100.0,OVC,2100.0,,,,,,
KRDR,02-07-2022,10:24,SPECI,Normal,180,14.0,,,8000.0,Light Snow,-14.0,-17.0,30.07,1021.2,71,,,,,,,,,,,,,,,2200.0,2200.0,OVC,2200.0,,,,,,
KRDR,02-07-2022,09:56,METAR,Normal,170,13.0,,,9999.0,,-13.8,-16.8,30.09,1021.8,,,,,,,,,,,TRACE,,,,,2300.0,2300.0,OVC,2300.0,,,,,,
KRDR,02-07-2022,09:24,SPECI,Normal,170,13.0,,,9999.0,,-14.0,-17.0,30.11,1022.5,,,,,,,,,,,,,,,,2600.0,2600.0,OVC,2600.0,,,,,,
KRDR,02-07-2022,08:56,METAR,Normal,180,11.0,,,4800.0,Light Snow,-14.4,-17.4,30.12,1022.9,71,,,,,,,,,,TRACE,TRACE,,,,2600.0,2600.0,OVC,2600.0,,,,,,
KRDR,02-07-2022,08:23,SPECI,Normal,180,11.0,,,6400.0,Light Snow,-15.0,-18.0,30.13,1023.3,71,,,,,,,,,,,,,,,2700.0,2700.0,OVC,2700.0,,,,,,
KRDR,02-07-2022,08:06,SPECI,Normal,180,12.0,,,9999.0,Light Snow,-15.0,-18.0,30.13,1023.3,71,,,,,,,,,,,,,,,2900.0,2900.0,OVC,2900.0,,,,,,
KRDR,02-07-2022,07:56,METAR,Normal,180,14.0,,,9999.0,,-14.9,-18.2,30.14,1023.6,,,,,,,,,,,TRACE,,,,,3300.0,3300.0,OVC,3300.0,,,,,,
KRDR,02-07-2022,07:52,SPECI,Normal,180,14.0,,,9999.0,,-15.0,-18.0,30.14,1023.6,,,,,,,,,,,,,,,,3500.0,3500.0,OVC,3500.0,,,,,,
KRDR,02-07-2022,07:34,SPECI,Normal,170,11.0,,,9999.0,Light Snow,-15.0,-18.0,30.14,1023.6,71,,,,,,,,,,,,,,,2600.0,2600.0,BKN,2600.0,OVC,5500.0,,,,
KRDR,02-07-2022,06:56,METAR,Normal,170,11.0,,,4800.0,Light Snow,-15.6,-19.2,30.16,1024.3,71,,,,,,,,,,TRACE,,,,,1400.0,1400.0,BKN,1400.0,BKN,4100.0,OVC,7000.0,,
KRDR,02-07-2022,06:22,SPECI,Normal,170,9.0,,,9999.0,Light Snow,-15.0,-19.0,30.19,1025.4,71,,,,,,,,,,,,,,,4200.0,1900.0,FEW,1900.0,FEW,2600.0,OVC,4200.0,,
KRDR,02-07-2022,05:56,METAR,Normal,180,9.0,,,9999.0,,-15.7,-19.6,30.20,1025.7,,,,,,,,,,,,,,,,4400.0,4400.0,OVC,4400.0,,,,,,
KRDR,02-07-2022,04:56,METAR,Normal,180,7.0,,,9999.0,,-17.1,-20.7,30.22,1026.5,,,,,,,,,,,,,,,,5000.0,5000.0,OVC,5000.0,,,,,,
KRDR,02-07-2022,03:56,METAR,Normal,180,4.0,,,9999.0,,-19.6,-22.8,30.22,1026.6,,,,,,,,,,,,,,,,13000.0,6000.0,FEW,6000.0,BKN,13000.0,OVC,16000.0,,
KRDR,02-07-2022,03:08,SPECI,Normal,160,3.0,,,9999.0,,-21.0,-24.0,30.23,1027.0,,,,,,,,,,,,,,,,18000.0,18000.0,BKN,18000.0,,,,,,
KRDR,02-07-2022,02:56,METAR,Normal,220,4.0,,,9999.0,,-21.9,-25.2,30.25,1027.8,,,,,,,,,,,,,,,Clear,72000.0,,,,,,,,,
KRDR,02-07-2022,01:56,METAR,Normal,160,4.0,,,9999.0,,-22.8,-25.9,30.24,1027.4,,,,,,,,,,,,,,,Clear,72000.0,,,,,,,,,
KRDR,02-07-2022,00:56,METAR,Calm,,0.0,,,9999.0,,-21.3,-24.8,30.27,1028.4,,,,,,,,,,,,,,,,,20000.0,FEW,20000.0,,,,,,
KRDR,02-06-2022,23:56,METAR,Calm,,0.0,,,9999.0,,-19.3,-23.5,30.27,1028.2,,,,,,,,,,,,,,,,,25000.0,FEW,25000.0,,,,,,
KRDR,02-06-2022,22:56,METAR,Normal,290,4.0,,,9999.0,,-17.1,-22.3,30.25,1027.4,,,,,,,,,,,,,,,,,25000.0,FEW,25000.0,,,,,,
KRDR,02-06-2022,21:56,METAR,Normal,290,7.0,,,9999.0,,-16.4,-21.9,30.25,1027.4,,,,,,,,,,,,,,,Clear,72000.0,,,,,,,,,
KRDR,02-06-2022,20:56,METAR,Normal,310,7.0,,,9999.0,,-16.0,-21.5,30.26,1027.7,,,,,,,,,,,,,,,Clear,72000.0,,,,,,,,,
KRDR,02-06-2022,18:56,METAR,Normal,310,10.0,,,9999.0,,-16.4,-21.9,30.27,1028.0,,,,,,,,,,,,,,,,,8000.0,FEW,8000.0,,,,,,
KRDR,02-06-2022,17:55,METAR,Normal,310,11.0,,,9999.0,,-16.8,-21.7,30.28,1028.4,,,,,,,,,,,,,,,,8000.0,8000.0,BKN,8000.0,,,,,,
KRDR,02-06-2022,16:56,METAR,Normal,310,11.0,,,9999.0,,-17.5,-22.4,30.28,1028.4,,,,,,,,,,,,,,,,6000.0,2400.0,SCT,2400.0,BKN,6000.0,,,,
KRDR,02-06-2022,15:56,METAR,Normal,320,11.0,,,9999.0,,-18.5,-23.0,30.27,1028.1,,,,,,,,,,,,,,,,3200.0,3200.0,BKN,3200.0,,,,,,
KRDR,02-06-2022,14:06,SPECI,Normal,330,14.0,,,9999.0,,-17.0,-20.0,30.21,1025.9,,,,,,,,,,,,,,,,4000.0,2100.0,FEW,2100.0,OVC,4000.0,,,,
KRDR,02-06-2022,09:56,METAR,Normal,330,11.0,,,9999.0,Light Snow,-15.7,-19.0,30.09,1021.8,71,,,,,,,,,,TRACE,,,,,3500.0,2000.0,FEW,2000.0,OVC,3500.0,,,,
KRDR,02-06-2022,08:56,METAR,Normal,330,13.0,,,9999.0,Light Snow,-15.4,-18.6,30.07,1021.1,71,,,,,,,,,,TRACE,TRACE,,,,3000.0,3000.0,OVC,3000.0,,,,,,
KRDR,02-06-2022,07:56,METAR,Normal,340,11.0,,,9999.0,,-14.9,-17.8,30.04,1020.0,,,,,,,,,,,TRACE,,,,,2300.0,2300.0,OVC,2300.0,,,,,,
KRDR,02-06-2022,07:41,SPECI,Normal,340,12.0,,,9999.0,,-15.0,-17.0,30.04,1020.0,,,,,,,,,,,,,,,,2600.0,300.0,FEW,300.0,OVC,2600.0,,,,
KRDR,02-06-2022,06:56,METAR,Normal,340,9.0,,,9999.0,Light Snow,-14.5,-17.1,30.02,1019.3,71,,,,,,,,,,TRACE,,,,,300.0,300.0,OVC,300.0,,,,,,
KRDR,02-06-2022,06:26,SPECI,Normal,340,8.0,,,9999.0,Light Snow,-14.0,-17.0,30.01,1018.9,71,,,,,,,,,,,,,,,300.0,300.0,OVC,300.0,,,,,,
KRDR,02-06-2022,05:56,METAR,Normal,340,10.0,,,9999.0,Light Snow,-14.2,-16.9,29.99,1018.3,71,,,,,,,,,,TRACE,,TRACE,,,200.0,400.0,BKN,400.0,OVC,3800.0,,,,
KRDR,02-06-2022,05:50,SPECI,Normal,340,8.0,,,9999.0,Light Snow,-14.0,-17.0,29.99,1018.3,71,,,,,,,,,,,,,,,200.0,200.0,BKN,200.0,OVC,600.0,,,,
KRDR,02-06-2022,05:01,SPECI,Normal,350,10.0,,,9999.0,Light Snow,-14.0,-17.0,29.97,1017.7,71,,,,,,,,,,,,,,,200.0,200.0,BKN,200.0,OVC,1100.0,,,,
KRDR,02-06-2022,04:30,SPECI,Normal,350,7.0,,,9999.0,Light Snow,-14.0,-17.0,29.95,1017.0,71,,,,,,,,,,,,,,,1400.0,400.0,FEW,400.0,BKN,1400.0,BKN,2200.0,OVC,3000.0
KRDR,02-06-2022,04:21,SPECI,Normal,360,7.0,,,9999.0,Light Snow,-14.0,-17.0,29.95,1017.0,71,,,,,,,,,,,,,,,2100.0,400.0,FEW,400.0,SCT,1300.0,BKN,2100.0,OVC,3000.0
KRDR,02-06-2022,03:56,METAR,Normal,350,8.0,,,9999.0,,-14.0,-17.7,29.95,1017.0,,,,,,,,,,,,,,,,1700.0,1700.0,OVC,1700.0,,,,,,
KRDR,02-06-2022,03:46,SPECI,Normal,350,9.0,,,9999.0,,-14.0,-18.0,29.95,1017.0,,,,,,,,,,,,,,,,1800.0,1900.0,OVC,1900.0,,,,,,
KRDR,02-06-2022,02:13,SPECI,Normal,350,9.0,,,9999.0,,-13.0,-17.0,29.93,1016.4,,,,,,,,,,,,,,,,2700.0,2700.0,OVC,2700.0,,,,,,
KRDR,02-06-2022,01:57,SPECI,Normal,360,9.0,,,9999.0,Light Snow,-13.0,-17.0,29.92,1016.0,71,,,,,,,,,,,,,,,2600.0,2600.0,OVC,2600.0,,,,,,
KRDR,02-06-2022,01:56,METAR,Normal,360,9.0,,,9999.0,,-13.2,-17.2,29.92,1016.0,,,,,,,,,,,TRACE,,,,,2600.0,2600.0,OVC,2600.0,,,,,,
KRDR,02-06-2022,01:52,SPECI,Normal,360,9.0,,,9999.0,,-13.0,-17.0,29.93,1016.4,,,,,,,,,,,,,,,,2600.0,2600.0,OVC,2600.0,,,,,,
KRDR,02-06-2022,01:38,SPECI,Normal,10,8.0,,,9999.0,Light Snow,-13.0,-17.0,29.91,1015.7,71,,,,,,,,,,,,,,,2600.0,2600.0,OVC,2600.0,,,,,,
KRDR,02-06-2022,01:26,SPECI,Normal,360,8.0,,,9999.0,,-13.0,-17.0,29.91,1015.7,,,,,,,,,,,,,,,,2800.0,2800.0,BKN,2800.0,OVC,3600.0,,,,
KRDR,02-06-2022,00:56,METAR,Normal,350,8.0,,,9999.0,,-13.0,-16.5,29.90,1015.4,,,,,,,,,,,TRACE,,,,,3700.0,3700.0,OVC,3700.0,,,,,,
KRDR,02-06-2022,00:22,SPECI,Normal,340,7.0,,,9999.0,,-13.0,-16.0,29.89,1015.0,,,,,,,,,,,,,,,,3500.0,1900.0,FEW,1900.0,OVC,3500.0,,,,
KRDR,02-06-2022,00:19,SPECI,Normal,350,8.0,,,9999.0,Light Snow,-13.0,-17.0,29.89,1015.0,71,,,,,,,,,,,,,,,3500.0,1900.0,FEW,1900.0,OVC,3500.0,,,,
KRDR,02-06-2022,00:09,SPECI,Normal,350,10.0,,,9999.0,Light Snow,-12.0,-16.0,29.89,1015.0,71,,,,,,,,,,,,,,,1900.0,1900.0,BKN,1900.0,OVC,3600.0,,,,
KRDR,02-05-2022,23:59,SPECI,Normal,350,9.0,,,9999.0,Light Snow,-12.0,-17.0,29.88,1014.7,71,,,,,,,,,,,,,,,2000.0,2000.0,OVC,2000.0,,,,,,
KRDR,02-05-2022,23:56,METAR,Normal,340,9.0,,,9999.0,,-12.4,-16.6,29.88,1014.7,,,,,,,,,,,TRACE,,.03 IN,,,2000.0,2000.0,OVC,2000.0,,,,,,
KRDR,02-05-2022,23:35,SPECI,Normal,340,10.0,,,9999.0,Light Snow,-13.0,-17.0,29.87,1014.4,71,,,,,,,,,,,,,,,2000.0,2000.0,BKN,2000.0,BKN,3100.0,OVC,3800.0,,
KRDR,02-05-2022,23:23,SPECI,Normal,330,10.0,,,9999.0,,-13.0,-17.0,29.87,1014.4,,,,,,,,,,,,,,,,2000.0,2000.0,BKN,2000.0,BKN,3100.0,OVC,3800.0,,
KRDR,02-05-2022,23:13,SPECI,Normal,330,11.0,,,9999.0,,-13.0,-16.0,29.87,1014.4,,,,,,,,,,,,,,,,1800.0,1800.0,BKN,1800.0,OVC,3800.0,,,,
KRDR,02-05-2022,22:56,METAR,Normal,340,9.0,,,9999.0,Light Snow,-12.7,-16.4,29.85,1013.7,71,,,,,,,,,,TRACE,,,,,1800.0,1900.0,OVC,1900.0,,,,,,
KRDR,02-05-2022,22:52,SPECI,Normal,340,8.0,,,9999.0,Light Snow,-13.0,-17.0,29.85,1013.7,71,,,,,,,,,,,,,,,1800.0,1900.0,OVC,1900.0,,,,,,
KRDR,02-05-2022,22:47,SPECI,Normal,340,9.0,,,9999.0,,-13.0,-17.0,29.85,1013.7,,,,,,,,,,,,,,,,1800.0,1900.0,OVC,1900.0,,,,,,
KRDR,02-05-2022,22:37,SPECI,Normal,330,9.0,,,9999.0,Light Snow,-13.0,-17.0,29.85,1013.7,71,,,,,,,,,,,,,,,1800.0,1900.0,OVC,1900.0,,,,,,
KRDR,02-05-2022,22:35,SPECI,Normal,330,9.0,,,9999.0,,-13.0,-17.0,29.85,1013.7,,,,,,,,,,,,,,,,1900.0,1900.0,OVC,1900.0,,,,,,
KRDR,02-05-2022,22:24,SPECI,Normal,340,9.0,,,9999.0,Light Snow,-13.0,-17.0,29.85,1013.7,71,,,,,,,,,,,,,,,1900.0,1900.0,BKN,1900.0,BKN,2400.0,,,,
KRDR,02-05-2022,22:16,SPECI,Normal,330,10.0,,,9999.0,,-13.0,-17.0,29.83,1013.1,,,,,,,,,,,,,,,,2300.0,2300.0,BKN,2300.0,,,,,,
KRDR,02-05-2022,21:56,METAR,Normal,310,8.0,,,9999.0,,-13.4,-17.2,29.83,1013.1,,,,,,,,,,,,,,,Clear,72000.0,,,,,,,,,
KRDR,02-05-2022,21:16,SPECI,Normal,320,12.0,,,9999.0,,-13.0,-17.0,29.80,1012.0,,,,,,,,,,,,,,,,,2900.0,SCT,2900.0,SCT,20000.0,,,,
KRDR,02-05-2022,20:56,METAR,Normal,320,14.0,,,9999.0,,-12.7,-16.2,29.80,1012.0,,,,,,,,,,,,.03 IN,,,,2900.0,700.0,FEW,700.0,BKN,2900.0,BKN,16000.0,BKN,18000.0
KRDR,02-05-2022,20:53,SPECI,Normal,320,12.0,,,9999.0,,-13.0,-16.0,29.79,1011.7,,,,,,,,,,,,,,,,2900.0,700.0,FEW,700.0,BKN,2900.0,BKN,16000.0,BKN,18000.0
KRDR,02-05-2022,20:43,SPECI,Normal,320,12.0,,,9999.0,,-12.0,-16.0,29.79,1011.7,,,,,,,,,,,,,,,,13000.0,700.0,SCT,700.0,BKN,13000.0,BKN,16000.0,,
KRDR,02-05-2022,20:33,SPECI,Normal,320,11.0,,,9999.0,,-12.0,-16.0,29.78,1011.3,,,,,,,,,,,,,,,,700.0,700.0,BKN,700.0,BKN,12000.0,BKN,15000.0,,
KRDR,02-05-2022,19:56,METAR,Normal,340,9.0,,,9999.0,,-12.0,-15.1,29.75,1010.3,,,,,,,,,,,TRACE,,,,,1400.0,400.0,SCT,400.0,OVC,2000.0,,,,
KRDR,02-05-2022,19:46,SPECI,Normal,340,8.0,,,9999.0,Light Snow,-12.0,-15.0,29.74,1010.0,71,,,,,,,,,,,,,,,3500.0,400.0,SCT,400.0,OVC,3500.0,,,,
KRDR,02-05-2022,19:36,SPECI,Normal,330,8.0,,,4800.0,Light Snow,-12.0,-15.0,29.75,1010.3,71,,,,,,,,,,,,,,,200.0,400.0,BKN,400.0,OVC,4200.0,,,,
KRDR,02-05-2022,18:56,METAR,Normal,330,4.0,,,6400.0,Light Snow,-11.8,-14.6,29.75,1010.3,71,,,,,,,,,,.03 IN,,,,,200.0,200.0,OVC,200.0,,,,,,
KRDR,02-05-2022,17:56,METAR,Normal,160,5.0,,,1600.0,Light Snow,-12.8,-15.1,29.73,1009.7,71,,,,,,,,,,.03 IN,,.06 IN,,,1500.0,1500.0,OVC,1500.0,,,,,,
KRDR,02-05-2022,16:56,METAR,Normal,160,10.0,,,1600.0,Light Snow/Blowing or Drifting Snow or Sand,-13.7,-16.3,29.72,1009.4,71,27,,,,,,,,,.03 IN,,,,,800.0,800.0,OVC,800.0,,,,,,
KRDR,02-05-2022,15:56,METAR,Normal,160,14.0,,,1600.0,Light Snow/Blowing or Drifting Snow or Sand,-14.5,-17.2,29.72,1009.4,71,27,,,,,,,,,TRACE,,,,,800.0,800.0,OVC,800.0,,,,,,
KRDR,02-05-2022,15:52,SPECI,Normal,160,13.0,,,1600.0,Snow/Blowing or Drifting Snow or Sand,-15.0,-17.0,29.72,1009.5,72,27,,,,,,,,,,,,,,1000.0,1000.0,OVC,1000.0,,,,,,
KRDR,02-05-2022,15:41,SPECI,Normal,160,14.0,,,4000.0,Light Snow/Blowing or Drifting Snow or Sand,-15.0,-17.0,29.73,1009.8,71,27,,,,,,,,,,,,,,2000.0,2000.0,OVC,2000.0,,,,,,
KRDR,02-05-2022,15:34,SPECI,Normal,160,15.0,,,8000.0,Light Snow/Blowing or Drifting Snow or Sand,-15.0,-17.0,29.72,1009.5,71,27,,,,,,,,,,,,,,2000.0,2000.0,OVC,2000.0,,,,,,
KRDR,02-05-2022,14:56,METAR,Normal,160,14.0,,,9999.0,Blowing or Drifting Snow or Sand,-15.6,-18.3,29.74,1010.2,27,,,,,,,,,,,,,,,2000.0,2000.0,BKN,2000.0,,,,,,
KRDR,02-05-2022,13:56,METAR,Normal,160,17.0,,170/28KTS,3200.0,Blowing or Drifting Snow or Sand,-16.3,-19.0,29.77,1011.2,27,,,,,,,,,,TRACE,,,,,2500.0,2500.0,OVC,2500.0,,,,,,
KRDR,02-05-2022,13:47,SPECI,Normal,160,17.0,,,3200.0,Blowing or Drifting Snow or Sand,-16.0,-19.0,29.77,1011.2,27,,,,,,,,,,,,,,,2500.0,2500.0,OVC,2500.0,,,,,,
KRDR,02-05-2022,13:01,SPECI,Normal,170,21.0,,,2000.0,Blowing or Drifting Snow or Sand,-17.0,-20.0,29.81,1012.6,27,,,,,,,,,,,,,,,2500.0,2500.0,OVC,2500.0,,,,,,
KRDR,02-05-2022,12:56,METAR,Normal,170,19.0,,,2400.0,Light Snow/Blowing or Drifting Snow or Sand,-17.0,-20.0,29.82,1013.0,71,27,,,,,,,,,,,,,,2500.0,2500.0,OVC,2500.0,,,,,,
KRDR,02-05-2022,11:56,METAR,Normal,160,21.0,,,2400.0,Light Snow/Blowing or Drifting Snow or Sand,-18.1,-21.1,29.85,1014.1,71,27,,,,,,,,,TRACE,,.02 IN,,,2500.0,2500.0,OVC,2500.0,,,,,,
KRDR,02-05-2022,10:56,METAR,Normal,150,18.0,,,2400.0,Light Snow/Blowing or Drifting Snow or Sand,-18.9,-21.8,29.92,1016.5,71,27,,,,,,,,,.02 IN,,,,,2100.0,2100.0,OVC,2100.0,,,,,,
KRDR,02-05-2022,09:56,METAR,Normal,150,16.0,25.0,,2400.0,Light Snow/Blowing or Drifting Snow or Sand,-19.5,-22.6,29.99,1018.9,71,27,,,,,,,,,TRACE,,,,,2000.0,2000.0,OVC,2000.0,,,,,,
KRDR,02-05-2022,09:36,SPECI,Normal,150,17.0,,,2400.0,Light Snow/Blowing or Drifting Snow or Sand,-20.0,-22.0,30.00,1019.2,71,27,,,,,,,,,,,,,,1600.0,1600.0,BKN,1600.0,OVC,2000.0,,,,
KRDR,02-05-2022,08:56,METAR,Normal,160,14.0,,,3000.0,Light Snow/Blowing or Drifting Snow or Sand,-19.7,-22.6,30.06,1021.3,71,27,,,,,,,,,TRACE,TRACE,,,,1200.0,1200.0,BKN,1200.0,OVC,1600.0,,,,
KRDR,02-05-2022,08:45,SPECI,Normal,150,15.0,,,3200.0,Light Snow/Blowing or Drifting Snow or Sand,-20.0,-23.0,30.07,1021.6,71,27,,,,,,,,,,,,,,1700.0,1700.0,BKN,1700.0,OVC,2000.0,,,,
KRDR,02-05-2022,07:56,METAR,Normal,160,16.0,,,4800.0,Light Snow/Blowing or Drifting Snow or Sand,-19.9,-23.1,30.12,1023.3,71,27,,,,,,,,,TRACE,,,,,2700.0,600.0,FEW,600.0,BKN,2700.0,OVC,3300.0,,
KRDR,02-05-2022,06:56,METAR,Normal,150,16.0,,,4800.0,Light Snow/Blowing or Drifting Snow or Sand,-20.2,-23.4,30.17,1025.1,71,27,,,,,,,,,TRACE,,,,,2200.0,2200.0,BKN,2200.0,OVC,3000.0,,,,
KRDR,02-05-2022,06:22,SPECI,Normal,160,15.0,,,3200.0,Light Snow/Blowing or Drifting Snow or Sand,-20.0,-23.0,30.20,1026.1,71,27,,,,,,,,,,,,,,2200.0,2200.0,BKN,2200.0,OVC,2900.0,,,,
KRDR,02-05-2022,06:11,SPECI,Normal,160,14.0,,,4800.0,Light Snow/Blowing Snow,-20.0,-24.0,30.21,1026.5,,,,71,38,,,,,,,,,,,2300.0,2900.0,OVC,2900.0,,,,,,
KRDR,02-05-2022,06:03,SPECI,Normal,160,16.0,,,8000.0,Blowing or Drifting Snow or Sand,-20.0,-24.0,30.22,1026.8,27,,,,,,,,,,,,,,,2300.0,400.0,FEW,400.0,SCT,1400.0,BKN,2300.0,OVC,3000.0
KRDR,02-05-2022,06:02,SPECI,Normal,170,15.0,,,9999.0,Haze Smoke or Dust,-20.0,-24.0,30.22,1026.8,05,,,,,,,,,,,,,,,2300.0,400.0,FEW,400.0,SCT,1400.0,BKN,2300.0,OVC,3000.0
KRDR,02-05-2022,06:01,SPECI,Normal,170,15.0,,,9999.0,Blowing or Drifting Snow or Sand,-20.0,-24.0,30.22,1026.8,27,,,,,,,,,,,,,,,2300.0,400.0,FEW,400.0,SCT,1400.0,BKN,2300.0,OVC,3000.0
KRDR,02-05-2022,05:57,METAR,Normal,160,13.0,,,9999.0,,-20.2,-23.7,30.22,1026.8,,,,,,,,,,,,,TRACE,,,2400.0,700.0,FEW,700.0,SCT,1400.0,OVC,2400.0,,
KRDR,02-05-2022,05:56,METAR,Normal,170,14.0,,,9999.0,,-20.2,-23.9,30.23,1027.2,,,,,,,,,,,,,,,,2400.0,1400.0,SCT,1400.0,OVC,2400.0,,,,
KRDR,02-05-2022,04:56,METAR,Normal,180,13.0,,,9999.0,,-20.4,-24.2,30.29,1029.2,,,,,,,,,,,,,,,,4400.0,4400.0,OVC,4400.0,,,,,,
KRDR,02-05-2022,03:56,METAR,Normal,180,11.0,,,9999.0,,-20.4,-24.2,30.34,,,,,,,,,,,,,,,,,5000.0,5000.0,OVC,5000.0,,,,,,
KRDR,02-05-2022,02:56,METAR,Normal,180,8.0,,,9999.0,,-20.5,-24.5,30.38,1032.4,,,,,,,,,,,,,,,,6500.0,6500.0,OVC,6500.0,,,,,,
KRDR,02-05-2022,01:56,METAR,Normal,170,7.0,,,9999.0,,-20.6,-24.6,30.39,1032.7,,,,,,,,,,,,,,,,8000.0,8000.0,OVC,8000.0,,,,,,
KRDR,02-05-2022,00:56,METAR,Normal,160,3.0,,,9999.0,,-20.7,-25.0,30.42,1033.8,,,,,,,,,,,,,,,,9500.0,9500.0,OVC,9600.0,,,,,,
KRDR,02-04-2022,23:56,METAR,Normal,270,4.0,,,9999.0,,-21.1,-25.2,30.46,1035.1,,,,,,,,,,,,,,,,,10000.0,SCT,10000.0,,,,,,
KRDR,02-04-2022,22:56,METAR,Normal,290,4.0,,,9999.0,,-20.4,-25.0,30.47,1035.4,,,,,,,,,,,,,,,,,11000.0,SCT,11000.0,,,,,,
KRDR,02-04-2022,22:08,SPECI,Normal,280,3.0,,,9999.0,,-21.0,-25.0,30.48,1035.8,,,,,,,,,,,,,,,,,15000.0,SCT,15000.0,,,,,,
KRDR,02-04-2022,21:56,METAR,Normal,290,5.0,,,9999.0,,-20.5,-25.3,30.47,1035.4,,,,,,,,,,,,,,,Clear,72000.0,,,,,,,,,
KRDR,02-04-2022,20:56,METAR,Normal,330,6.0,,,9999.0,,-20.6,-24.9,30.47,1035.5,,,,,,,,,,,,,,,Clear,72000.0,,,,,,,,,
KRDR,02-04-2022,20:14,SPECI,Normal,320,7.0,,,9999.0,,-21.0,-25.0,30.48,1035.7,,,,,,,,,,,,,,,,,10000.0,SCT,10000.0,,,,,,
KRDR,02-04-2022,19:56,METAR,Normal,320,7.0,,,9999.0,,-20.9,-25.0,30.48,1035.7,,,,,,,,,,,,,,,,,1200.0,SCT,1200.0,,,,,,
KRDR,02-04-2022,18:56,METAR,Normal,340,10.0,,,9999.0,,-21.3,-25.2,30.50,1036.3,,,,,,,,,,,,,,,,,900.0,SCT,900.0,,,,,,
KRDR,02-04-2022,17:56,METAR,Normal,350,13.0,,,9999.0,,-21.7,-25.6,30.50,1036.4,,,,,,,,,,,,,,,,,200.0,SCT,200.0,,,,,,
KRDR,02-04-2022,16:56,METAR,Normal,330,11.0,,,9999.0,,-22.0,-27.0,30.51,1036.7,,,,,,,,,,,,,,,,,400.0,SCT,400.0,,,,,,
KRDR,02-04-2022,15:56,METAR,Normal,330,12.0,,,9999.0,,-23.6,-26.7,30.49,1034.5,,,,,,,,,,,,,,,,1400.0,500.0,SCT,500.0,BKN,1400.0,,,,
KRDR,02-04-2022,14:56,METAR,Normal,320,9.0,,,9999.0,,-23.6,-26.7,30.47,1034.5,,,,,,,,,,,,,,,,,200.0,SCT,200.0,,,,,,
KRDR,02-04-2022,14:13,SPECI,Normal,330,11.0,,,9999.0,,-24.0,-27.0,30.45,1034.8,,,,,,,,,,,,,,,,,200.0,FEW,200.0,,,,,,
KRDR,02-04-2022,13:56,METAR,Normal,320,9.0,,,9999.0,Blowing or Drifting Snow or Sand,-23.6,-26.7,30.44,1034.5,27,,,,,,,,,,,,,,,200.0,200.0,OVC,200.0,,,,,,
KRDR,02-04-2022,12:56,METAR,Normal,340,17.0,,,6400.0,Blowing or Drifting Snow or Sand,-22.7,-25.7,30.40,1033.1,27,,,,,,,,,,,,,,,200.0,200.0,OVC,200.0,,,,,,
KRDR,02-04-2022,12:35,SPECI,Normal,340,17.0,,,8000.0,Blowing or Drifting Snow or Sand,-22.0,-25.0,30.38,1032.3,27,,,,,,,,,,,,,,,200.0,200.0,OVC,200.0,,,,,,
KRDR,02-04-2022,11:56,METAR,Normal,330,14.0,,,9999.0,,-22.5,-25.4,30.35,1031.3,,,,,,,,,,,,,,,,400.0,400.0,BKN,400.0,,,,,,
KRDR,02-04-2022,10:56,METAR,Normal,320,12.0,,,9999.0,,-22.5,-25.4,30.32,1030.2,,,,,,,,,,,,,,,,,500.0,SCT,500.0,,,,,,
KRDR,02-04-2022,09:56,METAR,Normal,310,8.0,,,9999.0,,-23.1,-25.8,30.29,1029.3,,,,,,,,,,,,,,,,,700.0,SCT,700.0,,,,,,
KRDR,02-04-2022,08:56,METAR,Normal,330,5.0,,,9999.0,,-23.6,-26.3,30.27,1028.6,,,,,,,,,,,,,,,,,400.0,SCT,400.0,,,,,,
KRDR,02-04-2022,08:16,SPECI,Normal,340,4.0,,,9999.0,,-22.0,-25.0,30.25,1027.9,,,,,,,,,,,,,,,,1900.0,600.0,SCT,600.0,OVC,1900.0,,,,
KRDR,02-04-2022,07:56,METAR,Calm,,0.0,,,9999.0,,-20.7,-23.5,30.25,1027.9,,,,,,,,,,,,,,,,2900.0,300.0,SCT,300.0,BKN,2900.0,OVC,7500.0,,
KRDR,02-04-2022,06:56,METAR,Normal,200,5.0,,,9999.0,,-19.4,-22.6,30.25,1027.8,,,,,,,,,,,,,,,,3000.0,200.0,FEW,200.0,BKN,3000.0,,,,
KRDR,02-04-2022,05:56,METAR,Normal,190,12.0,,,9999.0,,-19.3,-22.5,30.25,1027.9,,,,,,,,,,,.01 IN,,.02 IN,,,1000.0,1000.0,BKN,1000.0,OVC,2000.0,,,,
KRDR,02-04-2022,04:56,METAR,Normal,180,13.0,,,6400.0,Light Snow Showers/Blowing or Drifting Snow or Sand,-19.5,-22.6,30.26,1028.3,85,27,,,,,,,,,.01 IN,,,,,200.0,200.0,BKN,200.0,,,,,,
KRDR,02-04-2022,03:56,METAR,Normal,170,15.0,,,8000.0,Light Snow Showers/Blowing or Drifting Snow or Sand,-19.9,-23.1,30.28,1029.2,85,27,,,,,,,,,TRACE,,,,,1200.0,500.0,SCT,500.0,OVC,1200.0,,,,
KRDR,02-04-2022,02:56,METAR,Normal,170,15.0,,,6400.0,Light Snow Showers/Blowing or Drifting Snow or Sand,-20.2,-23.5,30.30,1030.1,85,27,,,,,,,,,TRACE,TRACE,,,,1200.0,300.0,SCT,300.0,BKN,1200.0,OVC,2800.0,,
KRDR,02-04-2022,01:56,METAR,Normal,170,16.0,,,6400.0,Light Snow Showers/Blowing or Drifting Snow or Sand,-20.3,-23.6,30.33,1031.1,85,27,,,,,,,,,TRACE,,,,,1400.0,300.0,SCT,300.0,BKN,1400.0,OVC,2300.0,,
KRDR,02-04-2022,01:07,SPECI,Normal,160,15.0,,,6400.0,Light Snow Showers/Blowing or Drifting Snow or Sand,-20.0,-24.0,30.36,1032.1,85,27,,,,,,,,,,,,,,300.0,300.0,BKN,300.0,BKN,1700.0,,,,
KRDR,02-04-2022,00:16,SPECI,Normal,160,15.0,,,9999.0,,-20.0,-25.0,30.38,1032.8,,,,,,,,,,,,,,,,1600.0,1600.0,OVC,1600.0,,,,,,
KRDR,02-04-2022,00:06,SPECI,Normal,160,16.0,,,9999.0,,-20.0,-25.0,30.37,1032.5,,,,,,,,,,,,,,,,1400.0,1400.0,BKN,1400.0,OVC,2000.0,,,,
KRDR,02-03-2022,23:56,METAR,Normal,160,16.0,,,9999.0,,-20.4,-24.5,30.38,1032.8,,,,,,,,,,,,,,,,1600.0,1600.0,BKN,1600.0,OVC,2100.0,,,,
KRDR,02-03-2022,23:26,SPECI,Normal,160,16.0,,,9999.0,,-20.0,-25.0,30.39,1033.0,,,,,,,,,,,,,,,,1900.0,1900.0,BKN,1900.0,OVC,3600.0,,,,
KRDR,02-03-2022,22:56,METAR,Normal,160,15.0,,,9999.0,,-20.6,-25.2,30.41,1033.8,,,,,,,,,,,,,,,,3700.0,3700.0,BKN,3700.0,OVC,5000.0,,,,
KRDR,02-03-2022,22:34,SPECI,Normal,160,18.0,22.0,,9999.0,,-21.0,-25.0,30.42,1034.2,,,,,,,,,,,,,,,,4400.0,3300.0,SCT,3300.0,BKN,4400.0,OVC,5500.0,,
KRDR,02-03-2022,21:56,METAR,Normal,170,18.0,,,9999.0,,-20.7,-25.5,30.43,1034.5,,,,,,,,,,,,,,,,8000.0,6000.0,SCT,6000.0,BKN,8000.0,BKN,9600.0,BKN,15000.0
KRDR,02-03-2022,20:56,METAR,Normal,160,16.0,,,9999.0,,-20.8,-25.6,30.46,1035.4,,,,,,,,,,,,,,,,13000.0,11000.0,SCT,11000.0,BKN,13000.0,,,,
KRDR,02-03-2022,19:56,METAR,Normal,170,14.0,,,9999.0,,-20.9,-25.7,30.50,1036.9,,,,,,,,,,,,,,,,13000.0,13000.0,BKN,13000.0,BKN,15000.0,,,,
KRDR,02-03-2022,18:56,METAR,Normal,170,12.0,,,9999.0,,-21.4,-26.3,30.53,1037.8,,,,,,,,,,,,,,,,14000.0,14000.0,BKN,14000.0,,,,,,
KRDR,02-03-2022,17:56,METAR,Normal,170,12.0,,,9999.0,,-22.8,-27.5,30.57,1039.3,,,,,,,,,,,,,,,Clear,72000.0,,,,,,,,,
KRDR,02-03-2022,16:56,METAR,Normal,180,9.0,,,9999.0,,-24.4,-28.5,30.59,1040.0,,,,,,,,,,,,,,,,,20000.0,FEW,20000.0,,,,,,
KRDR,02-03-2022,15:56,METAR,Normal,180,6.0,,,9999.0,,-27.5,-31.3,30.60,1040.4,,,,,,,,,,,,,,,Clear,72000.0,,,,,,,,,
KRDR,02-03-2022,14:56,METAR,Normal,190,3.0,,,9999.0,,-32.1,-35.7,30.63,1041.6,,,,,,,,,,,,,,,Clear,72000.0,,,,,,,,,
KRDR,02-03-2022,13:56,METAR,Normal,200,4.0,,,9999.0,,-32.6,-35.8,30.63,1041.6,,,,,,,,,,,,,,,Clear,72000.0,,,,,,,,,
KRDR,02-03-2022,12:56,METAR,Normal,200,5.0,,,9999.0,,-32.9,-36.5,30.64,1042.0,,,,,,,,,,,,,,,Clear,72000.0,,,,,,,,,
KRDR,02-03-2022,11:56,METAR,Normal,200,5.0,,,9999.0,,-31.6,-35.0,30.65,1042.1,,,,,,,,,,,,,,,Clear,72000.0,,,,,,,,,
KRDR,02-03-2022,10:56,METAR,Normal,220,3.0,,,9999.0,,-30.9,-34.3,30.65,1042.0,,,,,,,,,,,,,,,Clear,72000.0,,,,,,,,,
KRDR,02-03-2022,09:56,METAR,Normal,220,4.0,,,9999.0,,-31.5,-35.0,30.66,1042.4,,,,,,,,,,,,,,,Clear,72000.0,,,,,,,,,
KRDR,02-03-2022,08:56,METAR,Normal,210,4.0,,,9999.0,,-29.5,-32.9,30.67,1042.6,,,,,,,,,,,,,,,Clear,72000.0,,,,,,,,,
KRDR,02-03-2022,07:56,METAR,Normal,260,3.0,,,9999.0,,-30.3,-33.8,30.66,1042.3,,,,,,,,,,,,,,,Clear,72000.0,,,,,,,,,
KRDR,02-03-2022,06:56,METAR,Normal,260,5.0,,,9999.0,,-29.3,-33.0,30.67,1042.6,,,,,,,,,,,,,,,Clear,72000.0,,,,,,,,,
KRDR,02-03-2022,05:56,METAR,Normal,260,5.0,,,9999.0,,-28.4,-32.1,30.66,1042.2,,,,,,,,,,,,,,,Clear,72000.0,,,,,,,,,
KRDR,02-03-2022,04:56,METAR,Normal,280,7.0,,,9999.0,,-27.3,-31.2,30.65,1041.8,,,,,,,,,,,,,,,Clear,72000.0,,,,,,,,,
KRDR,02-03-2022,03:56,METAR,Normal,290,6.0,,,9999.0,,-26.7,-30.5,30.65,1041.9,,,,,,,,,,,,,,,Clear,72000.0,,,,,,,,,
KRDR,02-03-2022,02:56,METAR,Normal,290,7.0,,,9999.0,,-26.0,-30.1,30.65,1041.9,,,,,,,,,,,,,,,Clear,72000.0,,,,,,,,,
KRDR,02-03-2022,01:56,METAR,Normal,280,5.0,,,9999.0,,-24.5,-29.0,30.65,1041.9,,,,,,,,,,,,,,,Clear,72000.0,,,,,,,,,
KRDR,02-03-2022,00:56,METAR,Normal,270,6.0,,,9999.0,,-24.4,-29.2,30.64,1041.6,,,,,,,,,,,,,,,Clear,72000.0,,,,,,,,,
KRDR,02-02-2022,23:56,METAR,Normal,300,8.0,,,9999.0,,-22.7,-28.1,30.65,1041.8,,,,,,,,,,,,,,,Clear,72000.0,,,,,,,,,
KRDR,02-02-2022,22:56,METAR,Normal,320,9.0,,,9999.0,,-21.3,-27.4,30.64,1041.4,,,,,,,,,,,,,,,Clear,72000.0,,,,,,,,,
KRDR,02-02-2022,21:56,METAR,Normal,310,12.0,,,9999.0,,-21.0,-27.0,30.63,1040.9,,,,,,,,,,,,,,,,,20000.0,FEW,20000.0,,,,,,
KRDR,02-02-2022,20:57,METAR,Normal,300,13.0,,,9999.0,,-20.0,-27.0,30.63,1040.9,,,,,,,,,,,,,,,,,20000.0,FEW,20000.0,,,,,,
KRDR,02-02-2022,20:56,METAR,Normal,310,12.0,,,9999.0,,-20.2,-26.6,30.63,1040.9,,,,,,,,,,,,,,,Clear,72000.0,,,,,,,,,
KRDR,02-02-2022,19:56,METAR,Normal,300,14.0,,,9999.0,,-20.1,-25.6,30.63,1040.8,,,,,,,,,,,,,,,,,20000.0,FEW,20000.0,,,,,,
KRDR,02-02-2022,18:56,METAR,Normal,300,13.0,,,9999.0,,-20.3,-25.6,30.62,1040.5,,,,,,,,,,,,,,,,,19000.0,FEW,19000.0,,,,,,
KRDR,02-02-2022,17:56,METAR,Normal,300,11.0,,,9999.0,,-20.9,-26.3,30.62,1040.5,,,,,,,,,,,,,,,,,2900.0,FEW,2900.0,,,,,,
KRDR,02-02-2022,16:56,METAR,Normal,280,11.0,,,9999.0,,-21.9,-27.3,30.62,1040.5,,,,,,,,,,,,,,,Clear,72000.0,,,,,,,,,
KRDR,02-02-2022,15:56,METAR,Normal,290,9.0,,,9999.0,,-23.4,-28.4,30.60,1039.9,,,,,,,,,,,,,,,Clear,72000.0,,,,,,,,,
KRDR,02-02-2022,14:56,METAR,Normal,290,9.0,,,9999.0,,-24.8,-29.6,30.57,1038.9,,,,,,,,,,,,,,,Clear,72000.0,,,,,,,,,
KRDR,02-02-2022,13:56,METAR,Normal,300,9.0,,,9999.0,,-25.3,-29.7,30.56,1038.6,,,,,,,,,,,,,,,Clear,72000.0,,,,,,,,,
KRDR,02-02-2022,12:56,METAR,Normal,290,9.0,,,9999.0,,-25.4,-29.8,30.54,1037.9,,,,,,,,,,,,,,,Clear,72000.0,,,,,,,,,
KRDR,02-02-2022,11:56,METAR,Normal,290,8.0,,,9999.0,,-25.5,-29.8,30.52,1037.1,,,,,,,,,,,,,,,Clear,72000.0,,,,,,,,,
KRDR,02-02-2022,10:56,METAR,Normal,300,8.0,,,9999.0,,-24.7,-29.0,30.50,1036.4,,,,,,,,,,,,,,,Clear,72000.0,,,,,,,,,
KRDR,02-02-2022,09:56,METAR,Normal,300,9.0,,,9999.0,,-23.9,-28.4,30.48,1035.5,,,,,,,,,,,,,,,Clear,72000.0,,,,,,,,,
KRDR,02-02-2022,08:56,METAR,Normal,300,9.0,,,9999.0,,-23.3,-27.8,30.45,1034.5,,,,,,,,,,,,,,,Clear,72000.0,,,,,,,,,
KRDR,02-02-2022,07:56,METAR,Normal,290,9.0,,,9999.0,,-22.8,-27.3,30.43,1033.7,,,,,,,,,,,,,,,Clear,72000.0,,,,,,,,,
KRDR,02-02-2022,06:56,METAR,Normal,310,10.0,,,9999.0,,-22.1,-26.6,30.41,1033.0,,,,,,,,,,,,,,,Clear,72000.0,,,,,,,,,
KRDR,02-02-2022,05:56,METAR,Normal,310,13.0,,,9999.0,,-21.5,-26.1,30.38,1031.9,,,,,,,,,,,,,,,Clear,72000.0,,,,,,,,,
KRDR,02-02-2022,04:56,METAR,Normal,310,10.0,,,9999.0,,-20.8,-25.6,30.36,1031.2,,,,,,,,,,,,,,,Clear,72000.0,,,,,,,,,
KRDR,02-02-2022,03:56,METAR,Normal,310,12.0,,,9999.0,,-20.3,-24.9,30.34,1030.5,,,,,,,,,,,,,,,Clear,72000.0,,,,,,,,,
KRDR,02-02-2022,02:56,METAR,Normal,300,12.0,,,9999.0,,-19.7,-24.3,30.30,1029.1,,,,,,,,,,,,,,,Clear,72000.0,,,,,,,,,
KRDR,02-02-2022,01:56,METAR,Normal,300,13.0,,,9999.0,,-19.0,-23.8,30.27,1028.1,,,,,,,,,,,,,,,Clear,72000.0,,,,,,,,,
KRDR,02-02-2022,00:56,METAR,Normal,310,14.0,21.0,,9999.0,,-18.3,-23.0,30.22,1026.3,,,,,,,,,,,,,,,,,2000.0,FEW,2000.0,,,,,,
KRDR,02-01-2022,23:56,METAR,Normal,300,12.0,,,9999.0,,-17.3,-22.0,30.19,1025.2,,,,,,,,,,,,,TRACE,,,,2000.0,FEW,2000.0,,,,,,
KRDR,02-01-2022,22:56,METAR,Normal,310,16.0,24.0,310/27KTS,9999.0,,-16.4,-21.1,30.14,1023.3,,,,,,,,,,,,,,,,,2000.0,FEW,2000.0,,,,,,
KRDR,02-01-2022,22:38,SPECI,Normal,310,19.0,26.0,,9999.0,,-16.0,-21.0,30.12,1022.5,,,,,,,,,,,,,,,,,2000.0,FEW,2000.0,,,,,,
KRDR,02-01-2022,21:54,METAR,Normal,310,21.0,28.0,300/31KTS,9999.0,Blowing or Drifting Snow or Sand,-14.9,-19.5,30.08,1021.1,27,,,,,,,,,,,,,,,1800.0,1800.0,BKN,1800.0,,,,,,
KRDR,02-01-2022,21:32,SPECI,Normal,310,20.0,30.0,,8000.0,,-14.0,-19.0,30.06,1020.4,,,,,,,,,,,,,,,,2000.0,1300.0,FEW,1300.0,BKN,2000.0,,,,
KRDR,02-01-2022,21:18,SPECI,Normal,310,18.0,26.0,,9999.0,Blowing or Drifting Snow or Sand,-14.0,-19.0,30.05,1020.0,27,,,,,,,,,,,,,,,3300.0,3300.0,BKN,3300.0,,,,,,
KRDR,02-01-2022,20:54,METAR,Normal,310,24.0,,320/29KTS,8000.0,Blowing or Drifting Snow or Sand,-14.4,-18.9,30.03,1019.4,27,,,,,,,,,,,TRACE,,,,4800.0,4800.0,OVC,4800.0,,,,,,
KRDR,02-01-2022,20:44,SPECI,Normal,310,19.0,29.0,,6400.0,Blowing or Drifting Snow or Sand,-14.0,-19.0,30.03,1019.4,27,,,,,,,,,,,,,,,4700.0,4700.0,OVC,4700.0,,,,,,
KRDR,02-01-2022,19:54,METAR,Normal,310,18.0,24.0,320/34KTS,6400.0,Blowing or Drifting Snow or Sand,-13.7,-17.5,30.00,1018.3,27,,,,,,,,,,,,,,,2200.0,400.0,FEW,400.0,SCT,900.0,SCT,1500.0,BKN,2200.0
KRDR,02-01-2022,19:52,SPECI,Normal,310,19.0,25.0,,9999.0,Blowing or Drifting Snow or Sand,-14.0,-18.0,30.00,1018.3,27,,,,,,,,,,,,,,,2200.0,400.0,FEW,400.0,SCT,900.0,SCT,1500.0,BKN,2200.0
KRDR,02-01-2022,18:53,METAR,Normal,310,21.0,30.0,300/35KTS,8000.0,Blowing or Drifting Snow or Sand,-13.4,-17.9,29.97,1017.1,27,,,,,,,,,,TRACE,,,,,4600.0,3100.0,FEW,3100.0,BKN,4600.0,,,,
KRDR,02-01-2022,18:31,SPECI,Normal,310,22.0,29.0,,6400.0,Blowing or Drifting Snow or Sand,-13.0,-17.0,29.96,1016.8,27,,,,,,,,,,,,,,,3000.0,1100.0,FEW,1100.0,FEW,2100.0,OVC,3000.0,,
KRDR,02-01-2022,18:30,SPECI,Normal,310,22.0,29.0,,4800.0,Light Snow/Blowing or Drifting Snow or Sand,-13.0,-17.0,29.96,1016.8,71,27,,,,,,,,,,,,,,3000.0,1100.0,FEW,1100.0,FEW,2100.0,OVC,3000.0,,
KRDR,02-01-2022,17:57,METAR,Normal,310,22.0,30.0,300/32KTS,8000.0,Light Snow/Blowing or Drifting Snow or Sand,-13.2,-17.5,29.95,1016.5,71,27,,,,,,,,,TRACE,,TRACE,,,1100.0,600.0,SCT,600.0,BKN,1100.0,BKN,2200.0,OVC,6500.0
KRDR,02-01-2022,16:55,METAR,Normal,300,20.0,30.0,290/32KTS,8000.0,Blowing Snow,-13.0,-17.2,29.90,1014.8,,,,38,,,,,,,,,,,,4000.0,1400.0,FEW,1400.0,FEW,1900.0,SCT,2400.0,OVC,4000.0
KRDR,02-01-2022,16:11,METAR,Normal,310,19.0,24.0,280/28KTS,9999.0,,-12.9,-17.4,29.88,1014.2,,,,,,,,,,,,,,,,2200.0,1400.0,SCT,1400.0,BKN,2200.0,BKN,10000.0,,
KRDR,02-01-2022,15:54,METAR,Normal,300,19.0,27.0,290/32KTS,9999.0,,-12.9,-17.6,29.85,1013.1,,,,,,,,,,,,,,,,,2100.0,FEW,2100.0,,,,,,
KRDR,02-01-2022,14:55,METAR,Normal,310,22.0,32.0,280/35KTS,8000.0,Blowing or Drifting Snow or Sand,-12.9,-17.3,29.78,1010.7,27,,,,,,,,,,,TRACE,,,Clear,72000.0,,,,,,,,,
KRDR,02-01-2022,13:55,METAR,Normal,310,18.0,29.0,310/37KTS,9999.0,,-12.6,-16.6,29.75,1009.7,,,,,,,,,,,TRACE,,,,,,2200.0,FEW,2200.0,,,,,,
KRDR,02-01-2022,13:25,SPECI,Normal,310,19.0,28.0,,9999.0,Blowing or Drifting Snow or Sand,-12.0,-16.0,29.72,1008.6,27,,,,,,,,,,,,,,,,2100.0,FEW,2100.0,,,,,,
KRDR,02-01-2022,12:56,METAR,Normal,320,26.0,35.0,310/39KTS,400.0,Light Snow/Blowing or Drifting Snow or Sand,-11.9,-15.5,29.68,1007.2,71,27,,,,,,,,,TRACE,,,,,2500.0,1500.0,FEW,1500.0,BKN,2500.0,OVC,3100.0,,
KRDR,02-01-2022,12:45,SPECI,Normal,310,23.0,34.0,,1600.0,Light Snow/Blowing or Drifting Snow or Sand,-12.0,-15.0,29.67,1006.9,71,27,,,,,,,,,,,,,,1500.0,700.0,FEW,700.0,SCT,1300.0,OVC,2400.0,,
KRDR,02-01-2022,11:56,METAR,Normal,310,24.0,35.0,290/36KTS,400.0,Heavy Snow/Blowing or Drifting Snow or Sand,-10.2,-12.7,29.61,1004.9,73,27,,,,,,,,,.02 IN,,TRACE,.05 IN,,700.0,200.0,FEW,200.0,BKN,1000.0,BKN,1600.0,OVC,2500.0
KRDR,02-01-2022,10:55,METAR,Normal,310,25.0,35.0,300/39KTS,400.0,Heavy Snow/Blowing or Drifting Snow or Sand,-7.5,-10.1,29.53,1002.0,73,27,,,,,,,,,TRACE,,,,,400.0,600.0,BKN,600.0,BKN,1100.0,BKN,1800.0,OVC,2300.0
KRDR,02-01-2022,09:56,METAR,Normal,290,23.0,31.0,290/38KTS,1600.0,Light Snow/Blowing or Drifting Snow or Sand,-6.5,-9.4,29.42,998.1,71,27,,,,,,,,,TRACE,,,,,1300.0,1700.0,OVC,1700.0,,,,,,
KRDR,02-01-2022,09:34,SPECI,Normal,290,25.0,34.0,,1600.0,Light Snow/Blowing or Drifting Snow or Sand,-6.0,-9.0,29.39,997.1,71,27,,,,,,,,,,,,,,1400.0,1400.0,OVC,1400.0,,,,,,
KRDR,02-01-2022,09:02,SPECI,Normal,280,21.0,28.0,,9999.0,Light Snow,-7.0,-10.0,29.40,997.5,71,,,,,,,,,,,,,,,1700.0,1700.0,OVC,1700.0,,,,,,
KRDR,02-01-2022,08:58,METAR,Normal,270,21.0,28.0,250/31KTS,9999.0,,-6.9,-10.3,29.40,997.5,,,,,,,,,,,TRACE,TRACE,,,,1700.0,1700.0,OVC,1700.0,,,,,,
KRDR,02-01-2022,08:23,SPECI,Normal,280,21.0,28.0,,9999.0,Blowing or Drifting Snow or Sand,-7.0,-11.0,29.41,997.9,27,,,,,,,,,,,,,,,2000.0,2000.0,OVC,2000.0,,,,,,
KRDR,02-01-2022,08:20,SPECI,Normal,270,22.0,27.0,,9999.0,,-7.0,-11.0,29.41,997.9,,,,,,,,,,,,,,,,2200.0,2200.0,OVC,2200.0,,,,,,
KRDR,02-01-2022,08:11,SPECI,Normal,280,18.0,27.0,,9999.0,Light Snow,-7.0,-11.0,29.42,998.3,71,,,,,,,,,,,,,,,2300.0,2300.0,OVC,2300.0,,,,,,
KRDR,02-01-2022,07:56,METAR,Normal,270,21.0,28.0,270/33KTS,9999.0,,-6.3,-10.9,29.42,998.2,,,,,,,,,,,,,,,,2300.0,2300.0,OVC,2300.0,,,,,,
KRDR,02-01-2022,06:56,METAR,Normal,280,17.0,32.0,250/32KTS,9999.0,,-3.8,-8.1,29.42,998.2,,,,,,,,,,,,,,,,2300.0,2300.0,BKN,2300.0,OVC,2700.0,,,,
KRDR,02-01-2022,06:36,SPECI,Normal,280,19.0,24.0,,9999.0,,-3.0,-6.0,29.42,998.1,,,,,,,,,,,,,,,,2200.0,2200.0,BKN,2200.0,OVC,3000.0,,,,
KRDR,02-01-2022,05:55,METAR,Normal,250,7.0,,,9999.0,,-3.0,-4.6,29.41,997.9,,,,,,,,,,,,,.09 IN,,,1900.0,1900.0,OVC,1900.0,,,,,,
KRDR,02-01-2022,05:39,SPECI,Normal,210,10.0,,,9999.0,,-4.0,-5.0,29.40,997.6,,,,,,,,,,,,,,,,2300.0,2300.0,BKN,2300.0,OVC,3000.0,,,,
KRDR,02-01-2022,05:25,SPECI,Normal,200,11.0,,,9999.0,,-4.0,-5.0,29.39,997.3,,,,,,,,,,,,,,,,3000.0,2300.0,SCT,2300.0,BKN,3000.0,OVC,4000.0,,
KRDR,02-01-2022,05:24,SPECI,Normal,200,12.0,,,9999.0,,-4.0,-5.0,29.39,997.3,,,,,,,,,,,,,,,,2300.0,2300.0,BKN,2300.0,BKN,3200.0,OVC,4000.0,,
KRDR,02-01-2022,04:53,METAR,Normal,190,14.0,,,9999.0,,-4.2,-5.8,29.39,997.3,,,,,,,,,,,,,,,,8000.0,3900.0,SCT,3900.0,OVC,8000.0,,,,
KRDR,02-01-2022,03:55,METAR,Normal,190,17.0,23.0,,9999.0,,-4.2,-5.8,29.38,996.9,,,,,,,,,,,.03 IN,,,,,4300.0,1700.0,FEW,1700.0,BKN,4300.0,OVC,5500.0,,
KRDR,02-01-2022,02:54,METAR,Normal,190,17.0,,,1800.0,Snow/Mist,-4.3,-5.7,29.42,998.3,72,10,,,,,,,,,.04 IN,.06 IN,,,,2100.0,400.0,FEW,400.0,SCT,900.0,OVC,2100.0,,
KRDR,02-01-2022,02:28,SPECI,Normal,190,14.0,,,1800.0,Snow/Freezing Rain,-4.0,-6.0,29.43,998.7,72,65,,,,,,,,,,,,,,2500.0,2500.0,OVC,2500.0,,,,,,
KRDR,02-01-2022,02:14,SPECI,Normal,180,17.0,,,8000.0,Light Snow/Freezing Rain,-4.0,-6.0,29.42,998.4,65,71,,,,,,,,,,,,,,2900.0,300.0,FEW,300.0,FEW,1800.0,OVC,2900.0,,
KRDR,02-01-2022,01:53,METAR,Normal,180,15.0,,,8000.0,Freezing Rain,-4.2,-6.1,29.43,998.7,65,,,,,,,,,,.02 IN,,,,,1900.0,300.0,SCT,300.0,BKN,1900.0,BKN,2500.0,OVC,3200.0
KRDR,02-01-2022,01:45,SPECI,Normal,180,17.0,,,8000.0,Freezing Rain,-4.0,-6.0,29.43,998.7,65,,,,,,,,,,,,,,,1900.0,300.0,FEW,300.0,BKN,1900.0,BKN,2500.0,OVC,3700.0
KRDR,02-01-2022,01:34,SPECI,Normal,180,17.0,,,9999.0,Freezing Rain,-4.0,-6.0,29.44,999.1,65,,,,,,,,,,,,,,,1900.0,300.0,FEW,300.0,BKN,1900.0,OVC,2600.0,,
KRDR,02-01-2022,00:54,METAR,Normal,180,15.0,,,9999.0,Freezing Rain,-4.8,-7.1,29.45,999.5,65,,,,,,,,,,TRACE,,,,,2600.0,1900.0,FEW,1900.0,BKN,2600.0,OVC,4600.0,,
KRDR,02-01-2022,00:19,SPECI,Normal,170,13.0,,,9999.0,Freezing Rain,-5.0,-8.0,29.45,999.5,65,,,,,,,,,,,,,,,5000.0,5000.0,OVC,5000.0,,,,,,
KRDR,01-31-2022,23:53,METAR,Normal,170,12.0,,,9999.0,Light Freezing Drizzle,-5.2,-8.1,29.45,999.5,54,,,,,,,,,,,,,,,5000.0,5000.0,OVC,5000.0,,,,,,
KRDR,01-31-2022,22:53,METAR,Normal,180,12.0,,,9999.0,,-5.2,-8.1,29.47,1000.2,,,,,,,,,,,,,,,,7000.0,7000.0,OVC,7000.0,,,,,,
KRDR,01-31-2022,21:54,METAR,Normal,160,12.0,,,9999.0,,-4.7,-8.0,29.48,1000.5,,,,,,,,,,,,,,,,7000.0,7000.0,BKN,7000.0,OVC,8600.0,,,,
KRDR,01-31-2022,20:52,METAR,Normal,170,14.0,,,9999.0,,-5.9,-9.0,29.50,1001.3,,,,,,,,,,,,,,,,8000.0,8000.0,BKN,8000.0,OVC,10000.0,,,,
KRDR,01-31-2022,19:55,METAR,Normal,160,10.0,,,9999.0,,-6.6,-9.5,29.51,1001.6,,,,,,,,,,,,,,,,8500.0,8500.0,BKN,8600.0,OVC,11000.0,,,,
KRDR,01-31-2022,18:55,METAR,Normal,170,13.0,,,9999.0,,-7.6,-10.3,29.53,1002.4,,,,,,,,,,,,,,,,14000.0,11000.0,FEW,11000.0,BKN,14000.0,,,,
KRDR,01-31-2022,17:56,METAR,Normal,160,12.0,,,9999.0,,-9.0,-11.7,29.57,1003.7,,,,,,,,,,,,,,,,8500.0,8500.0,BKN,8600.0,OVC,14000.0,,,,
KRDR,01-31-2022,16:56,METAR,Normal,140,8.0,,,9999.0,,-9.8,-12.5,29.60,1004.8,,,,,,,,,,,,,,,,15000.0,15000.0,BKN,15000.0,BKN,19000.0,,,,
KRDR,01-31-2022,15:56,METAR,Normal,160,8.0,,,9999.0,,-10.6,-13.1,29.63,1005.9,,,,,,,,,,,,,,,,17000.0,17000.0,BKN,17000.0,OVC,21000.0,,,,
KRDR,01-31-2022,14:56,METAR,Normal,150,8.0,,,9999.0,,-10.9,-13.0,29.65,1006.6,,,,,,,,,,,,,,,,14000.0,14000.0,OVC,14000.0,,,,,,
KRDR,01-31-2022,13:56,METAR,Normal,160,5.0,,,9999.0,,-12.5,-14.5,29.66,1006.9,,,,,,,,,,,,,,,,16000.0,16000.0,BKN,16000.0,,,,,,
KRDR,01-31-2022,12:56,METAR,Normal,160,5.0,,,9999.0,,-13.9,-16.1,29.67,1007.3,,,,,,,,,,,,,,,,19000.0,19000.0,OVC,19000.0,,,,,,
KRDR,01-31-2022,11:56,METAR,Normal,190,5.0,,,9999.0,,-14.8,-16.9,29.69,1008.0,,,,,,,,,,,,,,,,,25000.0,FEW,25000.0,,,,,,
KRDR,01-31-2022,10:56,METAR,Normal,190,7.0,,,9999.0,,-14.2,-16.4,29.71,1008.6,,,,,,,,,,,,,,,,,25000.0,FEW,25000.0,,,,,,
KRDR,01-31-2022,09:56,METAR,Normal,210,7.0,,,9999.0,,-12.9,-15.1,29.72,1008.9,,,,,,,,,,,,,,,,,25000.0,FEW,25000.0,,,,,,
KRDR,01-31-2022,08:59,METAR,Normal,210,4.0,,,9999.0,,-13.3,-15.6,29.73,1009.2,,,,,,,,,,,,,,,Clear,72000.0,,,,,,,,,
KRDR,01-31-2022,07:59,METAR,Normal,220,6.0,,,9999.0,,-13.8,-16.1,29.74,1009.6,,,,,,,,,,,,,,,Clear,72000.0,,,,,,,,,
KRDR,01-31-2022,06:57,METAR,Normal,200,6.0,,,9999.0,,-13.3,-15.6,29.76,1010.3,,,,,,,,,,,,,,,Clear,72000.0,,,,,,,,,
KRDR,01-31-2022,05:59,METAR,Normal,200,9.0,,,9999.0,,-12.5,-14.8,29.77,1010.6,,,,,,,,,,,,,,,,,400.0,SCT,400.0,,,,,,
KRDR,01-31-2022,04:52,METAR,Normal,200,13.0,,,9999.0,,-12.2,-14.5,29.78,1011.0,,,,,,,,,,,,,,,,,18000.0,FEW,18000.0,,,,,,
KRDR,01-31-2022,03:52,METAR,Normal,190,13.0,,,9999.0,,-12.5,-14.7,29.79,1011.4,,,,,,,,,,,,,,,,,18000.0,FEW,18000.0,,,,,,
KRDR,01-31-2022,02:58,METAR,Normal,190,14.0,,,9999.0,,-12.1,-14.4,29.82,1012.4,,,,,,,,,,,,,,,,,18000.0,SCT,18000.0,,,,,,
KRDR,01-31-2022,01:52,METAR,Normal,170,14.0,,,9999.0,,-11.9,-14.2,29.83,,,,,,,,,,,,,,,,,,18000.0,SCT,18000.0,,,,,,
KRDR,01-31-2022,01:05,SPECI,Normal,170,14.0,,,9999.0,,-12.0,-14.0,29.84,1013.1,,,,,,,,,,,,,,,,,18000.0,SCT,18000.0,,,,,,
KRDR,01-31-2022,00:17,SPECI,Normal,170,13.0,,,9999.0,,-11.0,-14.0,29.85,1013.4,,,,,,,,,,,,,,,,,18000.0,SCT,18000.0,,,,,,
KRDR,01-30-2022,23:56,METAR,Normal,180,13.0,,,9999.0,,-11.1,-13.4,29.86,1013.7,,,,,,,,,,,,,,,,,18000.0,SCT,18000.0,,,,,,
KRDR,01-30-2022,22:56,METAR,Normal,170,12.0,,,9999.0,,-10.2,-12.7,29.86,1013.7,,,,,,,,,,,,,,,,,900.0,FEW,900.0,SCT,15000.0,,,,
KRDR,01-30-2022,21:54,METAR,Normal,180,14.0,,,9999.0,,-9.6,-12.6,29.87,1014.1,,,,,,,,,,,,,,,,11000.0,700.0,SCT,700.0,BKN,11000.0,,,,
KRDR,01-30-2022,20:56,METAR,Normal,170,12.0,,,9999.0,,-9.4,-12.5,29.89,1014.7,,,,,,,,,,,,,,,,1000.0,800.0,FEW,800.0,BKN,1000.0,,,,
KRDR,01-30-2022,19:56,METAR,Normal,170,14.0,,,9999.0,,-9.8,-12.9,29.91,1015.4,,,,,,,,,,,,,,,,9000.0,600.0,FEW,600.0,BKN,9100.0,,,,
KRDR,01-30-2022,18:56,METAR,Normal,180,12.0,,,9999.0,,-10.2,-13.2,29.95,1016.7,,,,,,,,,,,,,,,,6500.0,800.0,FEW,800.0,OVC,6500.0,,,,
KRDR,01-30-2022,17:56,METAR,Normal,180,14.0,,,9999.0,,-11.0,-13.8,29.99,1018.2,,,,,,,,,,,,,TRACE,,,6500.0,500.0,FEW,500.0,OVC,6500.0,,,,
KRDR,01-30-2022,17:41,SPECI,Normal,170,13.0,,,9999.0,,-11.0,-14.0,30.00,1018.5,,,,,,,,,,,,,,,,7000.0,500.0,SCT,500.0,OVC,7000.0,,,,
KRDR,01-30-2022,16:56,METAR,Normal,170,8.0,,,9999.0,,-12.1,-14.9,30.02,1019.2,,,,,,,,,,,,,,,,7000.0,7000.0,BKN,7000.0,OVC,9600.0,,,,
KRDR,01-30-2022,16:00,SPECI,Normal,170,8.0,,,9999.0,,-13.0,-16.0,30.04,1019.9,,,,,,,,,,,,,,,,10000.0,700.0,FEW,700.0,OVC,10000.0,,,,
KRDR,01-30-2022,15:56,METAR,Normal,170,7.0,,,9999.0,,-13.2,-15.8,30.04,1019.9,,,,,,,,,,,TRACE,,,,,10000.0,10000.0,OVC,10000.0,,,,,,
KRDR,01-30-2022,15:02,SPECI,Normal,160,7.0,,,9999.0,,-14.0,-16.0,30.05,1020.3,,,,,,,,,,,,,,,,14000.0,600.0,FEW,600.0,BKN,14000.0,OVC,17000.0,,
KRDR,01-30-2022,14:56,METAR,Normal,160,5.0,,,9999.0,Light Snow,-14.0,-16.4,30.06,1020.6,71,,,,,,,,,,TRACE,TRACE,,,,15000.0,600.0,FEW,600.0,BKN,15000.0,BKN,17000.0,,
KRDR,01-30-2022,14:46,SPECI,Normal,170,5.0,,,9999.0,Light Snow,-14.0,-17.0,30.06,1020.6,71,,,,,,,,,,,,,,,15000.0,600.0,FEW,600.0,BKN,15000.0,BKN,17000.0,,
KRDR,01-30-2022,14:19,SPECI,Normal,190,4.0,,,9999.0,Light Snow,-14.0,-17.0,30.07,1020.9,71,,,,,,,,,,,,,,,15000.0,1100.0,SCT,1100.0,OVC,15000.0,,,,
KRDR,01-30-2022,13:56,METAR,Normal,220,3.0,,,9999.0,,-14.3,-16.9,30.07,1020.9,,,,,,,,,,,TRACE,,,,,1500.0,1100.0,SCT,1100.0,BKN,1500.0,,,,
KRDR,01-30-2022,12:56,METAR,Normal,140,3.0,,,9999.0,Light Snow,-14.2,-16.6,30.07,1020.9,71,,,,,,,,,,TRACE,,,,,1500.0,1500.0,OVC,1500.0,,,,,,
KRDR,01-30-2022,11:56,METAR,Normal,220,3.0,,,9999.0,,-13.8,-16.4,30.08,1021.1,,,,,,,,,,,,,TRACE,,,1500.0,1500.0,OVC,1500.0,,,,,,
KRDR,01-30-2022,10:56,METAR,Normal,260,3.0,,,9999.0,,-13.6,-16.0,30.09,1021.5,,,,,,,,,,,,,,,,1500.0,1500.0,OVC,1500.0,,,,,,
KRDR,01-30-2022,09:56,METAR,Calm,,0.0,,,9999.0,,-13.6,-16.0,30.11,1022.2,,,,,,,,,,,TRACE,,,,,1500.0,1500.0,BKN,1500.0,,,,,,
KRDR,01-30-2022,09:33,SPECI,Normal,300,4.0,,,9999.0,Light Snow,-13.0,-16.0,30.11,1022.1,71,,,,,,,,,,,,,,,1500.0,1500.0,OVC,1500.0,,,,,,
KRDR,01-30-2022,09:25,SPECI,Normal,310,4.0,,,9999.0,,-13.0,-16.0,30.12,1022.4,,,,,,,,,,,,,,,,1500.0,1500.0,OVC,1500.0,,,,,,
KRDR,01-30-2022,08:56,METAR,Normal,310,4.0,,,9999.0,,-13.3,-15.9,30.12,1022.4,,,,,,,,,,,TRACE,TRACE,,,,2000.0,2000.0,OVC,2000.0,,,,,,
KRDR,01-30-2022,07:56,METAR,Normal,340,8.0,,,9999.0,Light Snow,-13.1,-15.9,30.13,1022.8,71,,,,,,,,,,TRACE,,,,,2000.0,2000.0,OVC,2000.0,,,,,,
KRDR,01-30-2022,07:41,SPECI,Normal,350,7.0,,,9999.0,Light Snow,-13.0,-16.0,30.13,1022.8,71,,,,,,,,,,,,,,,2000.0,2000.0,OVC,2000.0,,,,,,
KRDR,01-30-2022,06:56,METAR,Normal,350,9.0,,,9999.0,Light Snow,-12.9,-15.8,30.14,1023.1,71,,,,,,,,,,TRACE,,,,,2000.0,2000.0,OVC,2000.0,,,,,,
KRDR,01-30-2022,06:07,SPECI,Normal,360,9.0,,,9999.0,Light Snow,-13.0,-16.0,30.12,1022.4,71,,,,,,,,,,,,,,,2000.0,2000.0,OVC,2000.0,,,,,,
KRDR,01-30-2022,05:56,METAR,Normal,360,10.0,,,9999.0,,-12.6,-15.7,30.12,1022.4,,,,,,,,,,,,,TRACE,,,2000.0,2000.0,OVC,2000.0,,,,,,
KRDR,01-30-2022,04:56,METAR,Normal,350,12.0,,,9999.0,,-12.1,-15.3,30.11,1022.0,,,,,,,,,,,,,,,,2000.0,2000.0,OVC,2000.0,,,,,,
KRDR,01-30-2022,03:57,SPECI,Normal,350,11.0,19.0,,9999.0,,-12.0,-15.0,30.10,1021.7,,,,,,,,,,,,,,,,2000.0,2000.0,OVC,2000.0,,,,,,
KRDR,01-30-2022,03:56,METAR,Normal,350,12.0,,,9999.0,,-11.7,-14.8,30.10,1021.7,,,,,,,,,,,,,,,,2000.0,2000.0,OVC,2000.0,,,,,,
KRDR,01-30-2022,02:56,METAR,Normal,350,16.0,20.0,,9999.0,,-11.1,-13.9,30.09,1021.3,,,,,,,,,,,,TRACE,,,,1300.0,1300.0,BKN,1300.0,OVC,1800.0,,,,
KRDR,01-30-2022,01:56,METAR,Normal,10,11.0,,,9999.0,Light Snow Showers,-10.1,-13.1,30.08,1021.0,85,,,,,,,,,,TRACE,,,,,1000.0,1000.0,BKN,1000.0,OVC,2000.0,,,,
KRDR,01-30-2022,00:56,METAR,Normal,350,16.0,,,9999.0,Light Snow Showers,-9.5,-13.1,30.06,1020.5,85,,,,,,,,,,TRACE,,,,,1100.0,1100.0,OVC,1100.0,,,,,,
KRDR,01-29-2022,23:56,METAR,Normal,350,12.0,,,9999.0,Light Snow Showers,-9.0,-11.7,30.03,1019.4,85,,,,,,,,,,TRACE,,TRACE,,,1000.0,1000.0,OVC,1000.0,,,,,,
KRDR,01-29-2022,23:22,SPECI,Normal,350,17.0,,,9999.0,,-8.0,-13.0,30.03,1019.4,,,,,,,,,,,,,,,,1600.0,1600.0,BKN,1600.0,BKN,2100.0,OVC,2700.0,,
KRDR,01-29-2022,23:07,SPECI,Normal,350,15.0,,,9999.0,,-8.0,-13.0,30.02,1019.0,,,,,,,,,,,,,,,,1400.0,1000.0,FEW,1000.0,BKN,1400.0,OVC,2700.0,,
KRDR,01-29-2022,23:06,SPECI,Normal,350,15.0,,,9999.0,,-8.0,-13.0,30.02,1019.0,,,,,,,,,,,,,,,,1400.0,1400.0,BKN,1400.0,BKN,2100.0,OVC,2700.0,,
KRDR,01-29-2022,22:56,METAR,Normal,350,16.0,,,9999.0,,-8.3,-12.6,30.01,1018.7,,,,,,,,,,,,,,,,1700.0,1700.0,BKN,1700.0,BKN,2600.0,,,,
KRDR,01-29-2022,21:56,METAR,Normal,340,15.0,,330/26KTS,9999.0,,-7.9,-12.3,29.98,1017.6,,,,,,,,,,,,,,,,,1500.0,SCT,1500.0,SCT,2200.0,,,,
KRDR,01-29-2022,20:56,METAR,Normal,340,15.0,,350/26KTS,9999.0,,-7.7,-11.4,29.95,1016.7,,,,,,,,,,,TRACE,TRACE,,,,1100.0,900.0,SCT,900.0,BKN,1400.0,OVC,2300.0,,
KRDR,01-29-2022,19:56,METAR,Normal,340,20.0,25.0,320/27KTS,8000.0,Light Snow/Blowing or Drifting Snow or Sand,-7.0,-10.5,29.93,1016.0,71,27,,,,,,,,,TRACE,,,,,2200.0,2200.0,OVC,2200.0,,,,,,
KRDR,01-29-2022,18:56,METAR,Normal,350,16.0,25.0,340/28KTS,8000.0,Light Snow/Blowing or Drifting Snow or Sand,-7.1,-10.5,29.91,1015.3,71,27,,,,,,,,,TRACE,,,,,1900.0,1900.0,OVC,1900.0,,,,,,
KRDR,01-29-2022,18:37,SPECI,Normal,340,19.0,,,8000.0,Blowing or Drifting Snow or Sand,-7.0,-10.0,29.91,1015.3,27,,,,,,,,,,,,,,,1300.0,600.0,FEW,600.0,BKN,1400.0,OVC,1900.0,,
KRDR,01-29-2022,18:35,SPECI,Normal,330,20.0,,,9999.0,,-7.0,-10.0,29.91,1015.3,,,,,,,,,,,,,,,,1300.0,600.0,FEW,600.0,BKN,1700.0,,,,
KRDR,01-29-2022,18:34,SPECI,Normal,340,21.0,,,9999.0,Light Snow,-7.0,-10.0,29.91,1015.3,71,,,,,,,,,,,,,,,1300.0,600.0,FEW,600.0,SCT,1300.0,OVC,1900.0,,
KRDR,01-29-2022,18:33,SPECI,Normal,340,21.0,,,9999.0,,-7.0,-10.0,29.91,1015.3,,,,,,,,,,,,,,,,1300.0,600.0,FEW,600.0,SCT,1300.0,OVC,1900.0,,
KRDR,01-29-2022,18:32,SPECI,Normal,340,21.0,,,9999.0,,-7.0,-10.0,29.91,1015.3,,,,,,,,,,,,,,,,1300.0,600.0,FEW,600.0,BKN,1700.0,,,,
KRDR,01-29-2022,18:29,SPECI,Normal,340,21.0,,,9999.0,,-7.0,-10.0,29.91,1015.3,,,,,,,,,,,,,,,,1500.0,600.0,FEW,600.0,FEW,1000.0,BKN,1500.0,BKN,2000.0
KRDR,01-29-2022,18:28,SPECI,Normal,340,20.0,,,9999.0,Light Snow,-7.0,-10.0,29.91,1015.3,71,,,,,,,,,,,,,,,1500.0,600.0,FEW,600.0,FEW,1000.0,BKN,1500.0,BKN,2000.0
KRDR,01-29-2022,18:25,SPECI,Normal,340,23.0,,,9999.0,,-7.0,-11.0,29.91,1015.3,,,,,,,,,,,,,,,,1500.0,800.0,FEW,800.0,BKN,1500.0,BKN,2000.0,BKN,18000.0
KRDR,01-29-2022,18:15,SPECI,Normal,340,23.0,28.0,,9999.0,,-7.0,-10.0,29.90,1014.9,,,,,,,,,,,,,,,,2100.0,1000.0,FEW,1000.0,SCT,1400.0,BKN,2100.0,BKN,17000.0
KRDR,01-29-2022,17:56,METAR,Normal,350,20.0,,320/26KTS,9999.0,,-6.6,-10.3,29.89,1014.6,,,,,,,,,,,,,,,,15000.0,15000.0,BKN,15000.0,BKN,22000.0,,,,
KRDR,01-29-2022,16:56,METAR,Normal,330,14.0,,,9999.0,,-6.0,-10.1,29.88,1014.2,,,,,,,,,,,,,,,,18000.0,14000.0,FEW,14000.0,BKN,18000.0,BKN,21000.0,,
KRDR,01-29-2022,15:56,METAR,Normal,310,11.0,,,9999.0,,-6.4,-10.3,29.84,1012.8,,,,,,,,,,,,,,,,15000.0,15000.0,BKN,15000.0,BKN,17000.0,,,,
KRDR,01-29-2022,14:56,METAR,Normal,310,17.0,23.0,,9999.0,,-6.6,-10.7,29.80,1011.5,,,,,,,,,,,,,,,,15000.0,15000.0,BKN,15000.0,,,,,,
KRDR,01-29-2022,13:56,METAR,Normal,300,10.0,,,9999.0,,-7.7,-10.9,29.77,1010.5,,,,,,,,,,,,,,,,16000.0,16000.0,BKN,16000.0,,,,,,
KRDR,01-29-2022,12:56,METAR,Normal,210,7.0,,,9999.0,,-12.8,-15.3,29.77,1010.6,,,,,,,,,,,,,,,,,18000.0,FEW,18000.0,,,,,,
KRDR,01-29-2022,11:56,METAR,Normal,170,8.0,,,9999.0,,-13.6,-15.8,29.78,1011.0,,,,,,,,,,,,,,,,,16000.0,SCT,16000.0,SCT,20000.0,,,,
KRDR,01-29-2022,10:56,METAR,Normal,190,11.0,,,9999.0,,-12.9,-15.2,29.82,1012.4,,,,,,,,,,,,,,,,,14000.0,SCT,14000.0,,,,,,
KRDR,01-29-2022,09:56,METAR,Normal,180,10.0,,,9999.0,,-12.5,-14.7,29.84,1013.0,,,,,,,,,,,,,,,,,14000.0,SCT,14000.0,,,,,,
KRDR,01-29-2022,08:56,METAR,Normal,180,9.0,,,9999.0,,-13.3,-15.5,29.87,1014.1,,,,,,,,,,,,,,,,,14000.0,SCT,14000.0,,,,,,
KRDR,01-29-2022,07:56,METAR,Normal,180,8.0,,,9999.0,,-14.5,-16.6,29.94,1016.5,,,,,,,,,,,,,,,Clear,72000.0,,,,,,,,,
KRDR,01-29-2022,06:56,METAR,Normal,160,8.0,,,9999.0,,-14.3,-16.6,29.96,1017.1,,,,,,,,,,,,,,,Clear,72000.0,,,,,,,,,
KRDR,01-29-2022,05:57,METAR,Normal,160,7.0,,,9999.0,,-13.6,-15.9,30.01,1018.8,,,,,,,,,,,,,,,,13000.0,13000.0,OVC,13000.0,,,,,,
KRDR,01-29-2022,05:56,METAR,Normal,160,7.0,,,9999.0,,-13.6,-15.9,30.01,1018.8,,,,,,,,,,,,,,,,13000.0,1700.0,FEW,1700.0,OVC,13000.0,,,,
KRDR,01-29-2022,04:56,METAR,Normal,160,7.0,,,9999.0,,-13.6,-16.0,30.05,1020.2,,,,,,,,,,,,,,,,,15000.0,FEW,15000.0,SCT,17000.0,,,,
KRDR,01-29-2022,03:56,METAR,Normal,160,7.0,,,9999.0,,-12.9,-15.2,30.08,1021.2,,,,,,,,,,,,,,,,,9000.0,SCT,9100.0,,,,,,
KRDR,01-29-2022,02:56,METAR,Normal,160,6.0,,,9999.0,,-12.7,-14.9,30.11,1022.4,,,,,,,,,,,,,,,,,9000.0,SCT,9100.0,,,,,,
KRDR,01-29-2022,01:56,METAR,Normal,150,6.0,,,9999.0,,-12.5,-15.0,30.13,1022.9,,,,,,,,,,,,,,,,,15000.0,FEW,15000.0,,,,,,
KRDR,01-29-2022,00:56,METAR,Normal,150,7.0,,,9999.0,,-11.7,-14.5,30.16,1024.0,,,,,,,,,,,,,,,,19000.0,1200.0,FEW,1200.0,SCT,17000.0,BKN,19000.0,,
KRDR,01-28-2022,23:56,METAR,Normal,130,5.0,,,9999.0,,-11.0,-14.1,30.19,1025.0,,,,,,,,,,,,,TRACE,,,1300.0,1300.0,BKN,1300.0,OVC,3300.0,,,,
KRDR,01-28-2022,22:56,METAR,Normal,100,3.0,,,9999.0,,-10.9,-14.2,30.20,1025.4,,,,,,,,,,,,,,,,2600.0,2600.0,BKN,2600.0,OVC,3200.0,,,,
KRDR,01-28-2022,21:56,METAR,Normal,70,4.0,,,9999.0,,-10.8,-14.4,30.21,1025.9,,,,,,,,,,,,,,,,2200.0,2200.0,OVC,2200.0,,,,,,
KRDR,01-28-2022,20:56,METAR,Normal,60,4.0,,,9999.0,,-11.0,-14.0,,,,,,,,,,,,,,,,,,2000.0,2000.0,OVC,2000.0,,,,,,
KRDR,01-28-2022,19:56,METAR,Normal,50,5.0,,,9999.0,,-10.5,-13.9,30.25,1027.2,,,,,,,,,,,,,,,,1600.0,1600.0,OVC,1600.0,,,,,,
KRDR,01-28-2022,18:56,METAR,Normal,20,5.0,,,9999.0,,-10.5,-13.6,30.26,1027.7,,,,,,,,,,,,,,,,1400.0,1400.0,OVC,1400.0,,,,,,
KRDR,01-28-2022,17:56,METAR,Normal,40,5.0,,,9999.0,,-10.5,-13.6,30.28,1028.3,,,,,,,,,,,.01 IN,,.01 IN,,,1300.0,1300.0,OVC,1300.0,,,,,,
KRDR,01-28-2022,16:56,METAR,Normal,20,6.0,,,9999.0,Light Snow,-10.6,-13.6,30.29,1028.8,71,,,,,,,,,,TRACE,,,,,1500.0,1500.0,BKN,1500.0,OVC,1600.0,,,,
KRDR,01-28-2022,15:56,METAR,Normal,330,3.0,,,9999.0,,-10.9,-13.9,30.27,1028.1,,,,,,,,,,,,,,,,1600.0,1600.0,BKN,1600.0,OVC,2000.0,,,,
KRDR,01-28-2022,14:56,METAR,Calm,,0.0,,,9999.0,,-11.1,-13.9,30.26,1027.7,,,,,,,,,,,TRACE,,,,,1900.0,1900.0,OVC,1900.0,,,,,,
KRDR,01-28-2022,14:35,SPECI,Calm,,0.0,,,9999.0,,-12.0,-15.0,30.27,1028.2,,,,,,,,,,,,,,,,1800.0,1800.0,BKN,1800.0,BKN,3000.0,,,,
KRDR,01-28-2022,13:56,METAR,Calm,,0.0,,,9999.0,Light Snow,-12.2,-15.0,30.26,1027.7,71,,,,,,,,,,TRACE,,,,,2700.0,2400.0,SCT,2400.0,BKN,2700.0,OVC,3400.0,,
KRDR,01-28-2022,12:56,METAR,Normal,250,5.0,,,9999.0,,-12.7,-15.8,30.26,1027.8,,,,,,,,,,,TRACE,,,,,2600.0,2600.0,BKN,2600.0,,,,,,
KRDR,01-28-2022,12:20,SPECI,Normal,260,9.0,,,9999.0,,-13.0,-16.0,30.26,1027.7,,,,,,,,,,,,,,,,3000.0,3000.0,BKN,3000.0,OVC,5000.0,,,,
KRDR,01-28-2022,11:56,METAR,Normal,250,8.0,,,9999.0,Light Snow,-13.3,-16.4,30.27,1028.1,71,,,,,,,,,,TRACE,,TRACE,,,4000.0,3000.0,FEW,3000.0,BKN,4000.0,,,,
KRDR,01-28-2022,10:56,METAR,Normal,240,6.0,,,8000.0,Light Snow,-14.8,-17.5,30.28,1028.4,71,,,,,,,,,,TRACE,,,,,2800.0,2200.0,FEW,2200.0,BKN,2800.0,OVC,3200.0,,
KRDR,01-28-2022,10:33,SPECI,Normal,260,6.0,,,9999.0,Light Snow,-15.0,-19.0,30.29,1028.7,71,,,,,,,,,,,,,,,2400.0,2400.0,BKN,2400.0,BKN,3000.0,,,,
KRDR,01-28-2022,10:28,SPECI,Normal,250,6.0,,,9999.0,,-15.0,-19.0,30.29,1028.7,,,,,,,,,,,,,,,,2200.0,2200.0,BKN,2200.0,OVC,3000.0,,,,
KRDR,01-28-2022,09:56,METAR,Normal,250,6.0,,,9999.0,,-16.4,-19.7,30.30,1029.1,,,,,,,,,,,,,,,,,6500.0,SCT,6500.0,,,,,,
KRDR,01-28-2022,08:56,METAR,Normal,220,6.0,,,9999.0,,-18.9,-22.3,30.33,1030.2,,,,,,,,,,,,,,,,8000.0,6000.0,SCT,6000.0,BKN,8000.0,,,,
KRDR,01-28-2022,07:56,METAR,Normal,190,5.0,,,9999.0,,-18.9,-22.9,30.34,1030.6,,,,,,,,,,,,,,,,9000.0,6000.0,FEW,6000.0,OVC,9100.0,,,,
KRDR,01-28-2022,06:56,METAR,Normal,210,7.0,,,9999.0,,-19.5,-23.3,30.36,1031.3,,,,,,,,,,,,,,,,,13000.0,SCT,13000.0,,,,,,
KRDR,01-28-2022,06:38,SPECI,Normal,210,9.0,,,9999.0,Light Snow,-21.0,-24.0,30.37,1031.8,71,,,,,,,,,,,,,,,,12000.0,FEW,12000.0,,,,,,
KRDR,01-28-2022,05:56,METAR,Normal,220,7.0,,,9999.0,,-21.0,-24.2,30.38,1032.1,,,,,,,,,,,,,,,,,12000.0,FEW,12000.0,,,,,,
KRDR,01-28-2022,04:56,METAR,Normal,210,7.0,,,9999.0,,-20.7,-23.7,30.40,1032.8,,,,,,,,,,,,,,,,,12000.0,FEW,12000.0,,,,,,
KRDR,01-28-2022,03:56,METAR,Normal,210,8.0,,,9999.0,,-20.1,-23.0,30.42,1033.4,,,,,,,,,,,,,,,,,12000.0,FEW,12000.0,,,,,,
KRDR,01-28-2022,02:56,METAR,Normal,240,6.0,,,9999.0,,-21.2,-24.1,30.46,1034.8,,,,,,,,,,,,,,,,,12000.0,FEW,12000.0,,,,,,
KRDR,01-28-2022,01:56,METAR,Normal,230,4.0,,,9999.0,,-21.1,-24.3,30.47,1035.2,,,,,,,,,,,,,,,,,12000.0,FEW,12000.0,,,,,,
KRDR,01-28-2022,00:56,METAR,Normal,270,5.0,,,9999.0,,-21.4,-24.7,30.48,1035.4,,,,,,,,,,,,,,,,,17000.0,FEW,17000.0,,,,,,
KRDR,01-27-2022,23:56,METAR,Normal,280,5.0,,,9999.0,,-19.0,-22.5,30.48,1035.3,,,,,,,,,,,,,,,,,17000.0,FEW,17000.0,,,,,,
KRDR,01-27-2022,22:56,METAR,Normal,290,5.0,,,9999.0,,-16.5,-20.9,30.47,1034.6,,,,,,,,,,,,,,,,,17000.0,FEW,17000.0,,,,,,
KRDR,01-27-2022,21:56,METAR,Normal,330,5.0,,,9999.0,,-15.8,-19.9,30.47,1034.6,,,,,,,,,,,,,,,,,17000.0,FEW,17000.0,,,,,,
KRDR,01-27-2022,20:56,METAR,Normal,340,9.0,,,9999.0,,-15.5,-20.1,30.46,1034.0,,,,,,,,,,,,,,,,,15000.0,FEW,15000.0,,,,,,
KRDR,01-27-2022,19:56,METAR,Normal,340,11.0,,,9999.0,,-15.6,-20.0,30.46,1034.1,,,,,,,,,,,,,,,,,1100.0,FEW,1100.0,,,,,,
KRDR,01-27-2022,19:04,SPECI,Normal,360,14.0,,,9999.0,,-16.0,-20.0,30.46,1034.0,,,,,,,,,,,,,,,,,700.0,FEW,700.0,SCT,1300.0,,,,
KRDR,01-27-2022,17:56,METAR,Normal,360,16.0,,,9999.0,,-16.3,-20.5,30.45,1033.6,,,,,,,,,,,,,,,,,1500.0,FEW,1500.0,,,,,,
KRDR,01-27-2022,16:56,METAR,Normal,350,14.0,,,9999.0,,-16.5,-20.7,30.44,1033.3,,,,,,,,,,,,,,,,,1400.0,FEW,1400.0,,,,,,
KRDR,01-27-2022,15:56,METAR,Normal,350,16.0,,,9999.0,,-16.8,-21.2,30.40,1032.0,,,,,,,,,,,,,,,Clear,72000.0,,,,,,,,,
KRDR,01-27-2022,14:56,METAR,Normal,350,15.0,,,9999.0,,-16.9,-21.1,30.36,1030.6,,,,,,,,,,,,,,,Clear,72000.0,,,,,,,,,
KRDR,01-27-2022,13:56,METAR,Normal,350,15.0,,,9999.0,,-16.6,-20.5,30.31,1028.9,,,,,,,,,,,,,,,Clear,72000.0,,,,,,,,,
KRDR,01-27-2022,12:56,METAR,Normal,350,18.0,,330/26KTS,9999.0,,-15.5,-20.1,30.27,1027.4,,,,,,,,,,,,,,,,,5000.0,FEW,5000.0,,,,,,
KRDR,01-27-2022,12:01,SPECI,Normal,360,23.0,,,9999.0,,-12.0,-17.0,30.19,1024.6,,,,,,,,,,,,,,,,4900.0,4100.0,SCT,4100.0,OVC,4900.0,,,,
KRDR,01-27-2022,11:56,METAR,Normal,350,19.0,29.0,350/30KTS,6400.0,Blowing or Drifting Snow or Sand,-12.1,-17.2,30.19,1024.6,27,,,,,,,,,,TRACE,,TRACE,,,4100.0,3000.0,SCT,3000.0,BKN,4100.0,OVC,5000.0,,
KRDR,01-27-2022,11:18,SPECI,Normal,10,18.0,,,4000.0,Blowing or Drifting Snow or Sand,-11.0,-15.0,30.16,1023.3,27,,,,,,,,,,,,,,,3600.0,2700.0,FEW,2700.0,BKN,3600.0,,,,
KRDR,01-27-2022,10:56,METAR,Normal,10,22.0,29.0,350/31KTS,2400.0,Blowing or Drifting Snow or Sand,-10.9,-13.7,30.13,1022.3,27,,,,,,,,,,TRACE,,,,,3300.0,2800.0,SCT,2800.0,OVC,3300.0,,,,
KRDR,01-27-2022,10:32,SPECI,Normal,10,19.0,28.0,,3200.0,Blowing or Drifting Snow or Sand,-10.0,-13.0,30.11,1021.6,27,,,,,,,,,,,,,,,3600.0,2500.0,SCT,2500.0,OVC,3600.0,,,,
KRDR,01-27-2022,10:18,SPECI,Normal,10,21.0,29.0,,2000.0,Blowing or Drifting Snow or Sand,-10.0,-13.0,30.09,1020.9,27,,,,,,,,,,,,,,,3000.0,1200.0,FEW,1200.0,OVC,3000.0,,,,
KRDR,01-27-2022,10:05,SPECI,Normal,10,26.0,30.0,,1600.0,Blowing Snow,-9.0,-12.0,30.07,1020.2,,,,38,,,,,,,,,,,,3500.0,1500.0,SCT,1500.0,BKN,3500.0,,,,
KRDR,01-27-2022,09:56,METAR,Normal,10,23.0,27.0,350/33KTS,1600.0,Light Snow/Blowing or Drifting Snow or Sand,-9.1,-11.3,30.06,1019.9,71,27,,,,,,,,,TRACE,,,,,3000.0,1100.0,FEW,1100.0,OVC,3000.0,,,,
KRDR,01-27-2022,09:40,SPECI,Normal,10,26.0,31.0,,1000.0,Blowing or Drifting Snow or Sand/Mist,-8.0,-10.0,30.04,1019.1,27,10,,,,,,,,,,,,,,2000.0,500.0,SCT,500.0,BKN,2000.0,BKN,2100.0,OVC,2800.0
KRDR,01-27-2022,09:21,SPECI,Normal,360,19.0,24.0,,3200.0,Light Snow/Blowing or Drifting Snow or Sand,-7.0,-9.0,30.02,1018.5,71,27,,,,,,,,,,,,,,3800.0,1100.0,SCT,1100.0,SCT,1800.0,OVC,3800.0,,
KRDR,01-27-2022,09:12,SPECI,Normal,360,20.0,,,3200.0,Blowing Snow,-7.0,-9.0,30.01,1018.0,,,,38,,,,,,,,,,,,2000.0,1100.0,SCT,1100.0,OVC,3600.0,,,,
KRDR,01-27-2022,08:56,METAR,Normal,350,16.0,,,4800.0,Blowing or Drifting Snow or Sand,-5.9,-8.2,30.00,1017.7,27,,,,,,,,,,TRACE,TRACE,,,,3600.0,2400.0,FEW,2400.0,OVC,3600.0,,,,
KRDR,01-27-2022,08:40,SPECI,Normal,360,19.0,25.0,,3200.0,Blowing or Drifting Snow or Sand,-6.0,-8.0,29.97,1016.7,27,,,,,,,,,,,,,,,3600.0,2400.0,FEW,2400.0,OVC,3600.0,,,,
KRDR,01-27-2022,08:21,SPECI,Normal,360,16.0,22.0,,3200.0,Light Snow/Blowing or Drifting Snow or Sand,-5.0,-8.0,29.96,1016.3,71,27,,,,,,,,,,,,,,3200.0,3200.0,OVC,3200.0,,,,,,
KRDR,01-27-2022,07:56,METAR,Normal,360,17.0,,,2600.0,Light Snow/Blowing or Drifting Snow or Sand,-5.1,-6.9,29.93,1015.3,71,27,,,,,,,,,TRACE,,,,,700.0,700.0,OVC,700.0,,,,,,
KRDR,01-27-2022,07:34,SPECI,Normal,10,21.0,,,2400.0,Light Snow/Blowing or Drifting Snow or Sand,-4.0,-6.0,29.91,1014.6,71,27,,,,,,,,,,,,,,500.0,500.0,OVC,500.0,,,,,,
KRDR,01-27-2022,07:22,SPECI,Normal,10,18.0,,,4800.0,Light Snow/Blowing or Drifting Snow or Sand,-4.0,-5.0,29.90,1014.3,71,27,,,,,,,,,,,,,,400.0,400.0,SCT,400.0,BKN,900.0,OVC,1800.0,,
KRDR,01-27-2022,07:12,SPECI,Normal,20,14.0,,,8000.0,Light Snow/Blowing or Drifting Snow or Sand,-3.0,-5.0,29.89,1013.9,71,27,,,,,,,,,,,,,,1100.0,600.0,FEW,600.0,BKN,1100.0,OVC,2000.0,,
KRDR,01-27-2022,06:56,METAR,Normal,30,13.0,,,9999.0,Light Snow,-2.1,-5.1,29.87,1013.2,71,,,,,,,,,,TRACE,,,,,2200.0,2200.0,BKN,2200.0,OVC,3200.0,,,,
KRDR,01-27-2022,06:53,SPECI,Normal,360,12.0,,,9999.0,Light Snow,-2.0,-5.0,29.87,1013.2,,,,71,,,,,,,,,,,,2200.0,2200.0,BKN,2200.0,OVC,3200.0,,,,
KRDR,01-27-2022,05:55,METAR,Normal,310,12.0,,,9999.0,,-1.3,-5.0,29.84,1012.2,,,,,,,,,,,TRACE,,TRACE,,,3200.0,3200.0,OVC,3200.0,,,,,,
KRDR,01-27-2022,05:43,SPECI,Normal,320,8.0,,,9999.0,,-1.0,-4.0,29.83,1012.0,,,,,,,,,,,,,,,,3400.0,2200.0,SCT,2200.0,OVC,3400.0,,,,
KRDR,01-27-2022,05:42,SPECI,Normal,320,8.0,,,9999.0,Light Snow,-1.0,-4.0,29.83,1012.0,71,,,,,,,,,,,,,,,3400.0,2200.0,SCT,2200.0,OVC,3400.0,,,,
KRDR,01-27-2022,04:56,METAR,Normal,290,5.0,,,9999.0,Light Snow,-2.2,-4.5,29.81,1011.4,71,,,,,,,,,,TRACE,,,,,2100.0,2100.0,BKN,2100.0,BKN,2900.0,OVC,3600.0,,
KRDR,01-27-2022,04:35,SPECI,Normal,280,3.0,,,9999.0,Light Snow,-3.0,-5.0,29.80,1011.1,71,,,,,,,,,,,,,,,2100.0,2200.0,OVC,2200.0,,,,,,
KRDR,01-27-2022,04:08,SPECI,Normal,180,3.0,,,9999.0,Light Snow Showers,-3.0,-5.0,29.79,1010.8,85,,,,,,,,,,,,,,,2000.0,2000.0,OVC,2000.0,,,,,,
KRDR,01-27-2022,03:55,METAR,Calm,,0.0,,,9999.0,Light Snow Showers,-3.3,-5.0,29.79,1010.8,85,,,,,,,,,,,,,,,1800.0,1900.0,OVC,1900.0,,,,,,
KRDR,01-27-2022,03:34,SPECI,Normal,60,3.0,,,9999.0,Light Snow Showers,-3.0,-5.0,29.78,1010.5,85,,,,,,,,,,,,,,,1400.0,1500.0,OVC,1500.0,,,,,,
KRDR,01-27-2022,03:22,SPECI,Normal,60,3.0,,,9999.0,Light Snow Showers,-3.0,-5.0,29.77,1010.2,85,,,,,,,,,,,,,,,1300.0,1300.0,OVC,1300.0,,,,,,
KRDR,01-27-2022,03:20,SPECI,Normal,60,3.0,,,9999.0,,-3.0,-5.0,29.77,1010.2,,,,,,,,,,,,,,,,1300.0,1300.0,OVC,1300.0,,,,,,
KRDR,01-27-2022,02:58,METAR,Normal,40,3.0,,,9999.0,,-2.5,-5.0,29.76,1009.9,,,,,,,,,,,,,,,,1700.0,1700.0,OVC,1700.0,,,,,,
KRDR,01-27-2022,02:00,METAR,Normal,340,6.0,,,9999.0,,-2.1,-4.9,29.73,1009.0,,,,,,,,,,,,,TRACE,,,2200.0,2300.0,OVC,2300.0,,,,,,
KRDR,01-27-2022,01:53,SPECI,Normal,340,7.0,,,9999.0,,-2.0,-5.0,29.73,1009.0,,,,,,,,,,,,,,,,2200.0,2300.0,OVC,2300.0,,,,,,
KRDR,01-27-2022,01:38,SPECI,Normal,330,8.0,,,9999.0,,-2.0,-5.0,29.72,1008.6,,,,,,,,,,,,,,,,2600.0,2600.0,BKN,2600.0,OVC,3900.0,,,,
KRDR,01-27-2022,00:55,METAR,Normal,340,11.0,,,9999.0,,-1.4,-5.1,29.69,1007.6,,,,,,,,,,,,,,,,3200.0,3200.0,OVC,3200.0,,,,,,
KRDR,01-27-2022,00:34,SPECI,Normal,350,14.0,21.0,,9999.0,Light Snow,-1.0,-5.0,29.68,1007.3,71,,,,,,,,,,,,,,,2800.0,2800.0,OVC,2800.0,,,,,,
KRDR,01-27-2022,00:15,SPECI,Normal,340,10.0,,,9999.0,Light Snow,-1.0,-3.0,29.67,1007.0,71,,,,,,,,,,,,,,,3000.0,3000.0,OVC,3000.0,,,,,,
KRDR,01-27-2022,00:08,SPECI,Normal,350,9.0,,,9999.0,Light Snow,-1.0,-4.0,29.66,1006.6,71,,,,,,,,,,,,,,,2900.0,2900.0,OVC,2900.0,,,,,,
KRDR,01-27-2022,00:04,METAR,Normal,350,11.0,,310/28KTS,9999.0,,-1.4,-3.6,29.66,1006.6,,,,,,,,,,,TRACE,,,,,2900.0,2900.0,OVC,2900.0,,,,,,
KRDR,01-26-2022,23:51,SPECI,Normal,360,16.0,,,9999.0,Light Snow,-1.0,-3.0,29.64,1006.0,71,,,,,,,,,,,,,,,1800.0,1800.0,BKN,1800.0,OVC,2700.0,,,,
KRDR,01-26-2022,23:36,SPECI,Normal,350,18.0,25.0,,9999.0,Light Snow/Mist,0.0,-2.0,29.62,1005.3,71,10,,,,,,,,,,,,,,1900.0,100.0,FEW,100.0,SCT,900.0,OVC,1900.0,,
KRDR,01-26-2022,23:30,SPECI,Normal,330,23.0,,,400.0,Light Snow/Blowing or Drifting Snow or Sand,2.0,-1.0,29.62,1005.2,71,27,,,,,,,,,,,,,,2000.0,2000.0,BKN,2000.0,OVC,3300.0,,,,
KRDR,01-26-2022,23:00,SPECI,Normal,290,22.0,29.0,,9999.0,Light Snow,2.0,-1.0,29.57,1003.5,71,,,,,,,,,,,,,,,3800.0,3800.0,OVC,3800.0,,,,,,
KRDR,01-26-2022,22:56,METAR,Normal,300,19.0,26.0,270/27KTS,9999.0,,2.1,-1.3,29.58,1003.8,,,,,,,,,,,,,,,,3800.0,3800.0,OVC,3800.0,,,,,,
KRDR,01-26-2022,21:56,METAR,Normal,280,22.0,30.0,280/32KTS,9999.0,,1.9,-1.4,29.54,1002.5,,,,,,,,,,,,,,,,3900.0,3900.0,BKN,3900.0,BKN,6000.0,,,,
KRDR,01-26-2022,20:56,METAR,Normal,280,23.0,31.0,280/31KTS,9999.0,,1.9,-2.4,29.50,1001.3,,,,,,,,,,,,,,,,,15000.0,SCT,15000.0,SCT,20000.0,,,,
KRDR,01-26-2022,19:56,METAR,Normal,270,19.0,26.0,260/30KTS,9999.0,,1.3,-4.0,29.50,1001.3,,,,,,,,,,,,,,,,,15000.0,SCT,15000.0,SCT,20000.0,,,,
KRDR,01-26-2022,18:56,METAR,Normal,260,19.0,29.0,270/29KTS,9999.0,,0.1,-4.9,29.51,1001.8,,,,,,,,,,,,,,,,,15000.0,SCT,15000.0,SCT,25000.0,,,,
KRDR,01-26-2022,17:57,SPECI,Normal,240,15.0,,,9999.0,,-3.0,-8.0,29.55,1003.3,,,,,,,,,,,,,,,Clear,72000.0,,,,,,,,,
KRDR,01-26-2022,17:56,METAR,Normal,230,13.0,,,9999.0,,-3.1,-7.8,29.54,1003.0,,,,,,,,,,,,,,,,,14000.0,FEW,14000.0,,,,,,
KRDR,01-26-2022,16:56,METAR,Normal,210,10.0,,,9999.0,,-6.8,-10.8,29.59,1004.8,,,,,,,,,,,,,,,,22000.0,17000.0,FEW,17000.0,SCT,20000.0,BKN,22000.0,,
KRDR,01-26-2022,15:56,METAR,Normal,210,13.0,,,9999.0,,-9.3,-12.9,29.61,1005.6,,,,,,,,,,,,,,,,21000.0,8000.0,FEW,8000.0,BKN,21000.0,,,,
KRDR,01-26-2022,14:56,METAR,Normal,180,11.0,,,9999.0,,-12.9,-15.7,29.64,1006.8,,,,,,,,,,,,,,,,22000.0,11000.0,SCT,11000.0,BKN,22000.0,,,,
KRDR,01-26-2022,13:56,METAR,Normal,180,17.0,,,9999.0,,-13.9,-16.8,29.67,1007.8,,,,,,,,,,,,,,,,11000.0,11000.0,OVC,11000.0,,,,,,
KRDR,01-26-2022,12:56,METAR,Normal,190,18.0,26.0,160/29KTS,9999.0,,-15.3,-18.2,29.72,1009.6,,,,,,,,,,,,,,,,8000.0,8000.0,BKN,8000.0,OVC,9600.0,,,,
KRDR,01-26-2022,11:56,METAR,Normal,180,20.0,28.0,160/29KTS,8000.0,Haze Smoke or Dust,-17.2,-20.3,29.77,1011.4,05,,,,,,,,,,,,,,,7500.0,7500.0,BKN,7500.0,OVC,9100.0,,,,
KRDR,01-26-2022,10:56,METAR,Normal,190,20.0,27.0,170/28KTS,9999.0,Haze Smoke or Dust,-17.8,-21.1,29.85,1014.1,05,,,,,,,,,,,,,,,13000.0,13000.0,BKN,13000.0,,,,,,
KRDR,01-26-2022,09:56,METAR,Normal,180,18.0,,,9999.0,,-19.6,-23.0,29.93,1016.8,,,,,,,,,,,,,,,,15000.0,15000.0,OVC,15000.0,,,,,,
KRDR,01-26-2022,08:56,METAR,Normal,190,16.0,,,9999.0,,-21.5,-25.3,30.00,1019.2,,,,,,,,,,,,,,,,,14000.0,FEW,14000.0,,,,,,
KRDR,01-26-2022,07:56,METAR,Normal,180,16.0,,,9999.0,,-22.9,-27.1,30.06,1022.6,,,,,,,,,,,,,,,Clear,72000.0,,,,,,,,,
KRDR,01-26-2022,06:56,METAR,Normal,180,10.0,,,9999.0,,-24.4,-28.4,30.14,,,,,,,,,,,,,,,,Clear,72000.0,,,,,,,,,
KRDR,01-26-2022,05:52,METAR,Normal,190,10.0,,,9999.0,,-24.4,-28.4,30.19,,,,,,,,,,,,,,,,Clear,72000.0,,,,,,,,,
KRDR,01-26-2022,04:56,METAR,Normal,200,11.0,,,9999.0,,-24.0,-28.0,30.24,,,,,,,,,,,,,,,,Clear,72000.0,,,,,,,,,
KRDR,01-26-2022,03:56,METAR,Normal,200,11.0,,,9999.0,,-24.2,-28.0,30.28,,,,,,,,,,,,,,,,Clear,72000.0,,,,,,,,,
KRDR,01-26-2022,02:56,METAR,Normal,200,8.0,,,9999.0,,-24.2,-28.4,30.32,,,,,,,,,,,,,,,,Clear,72000.0,,,,,,,,,
KRDR,01-26-2022,01:56,METAR,Normal,210,7.0,,,9999.0,,-24.8,-28.9,30.36,,,,,,,,,,,,,,,,Clear,72000.0,,,,,,,,,
KRDR,01-26-2022,00:56,METAR,Normal,200,6.0,,,9999.0,,-24.6,-28.7,30.40,,,,,,,,,,,,,,,,Clear,72000.0,,,,,,,,,
KRDR,01-25-2022,23:56,METAR,Normal,220,7.0,,,9999.0,,-23.5,-27.8,30.41,,,,,,,,,,,,,,,,Clear,72000.0,,,,,,,,,
KRDR,01-25-2022,22:56,METAR,Normal,250,5.0,,,9999.0,,-21.6,-26.8,30.41,1033.6,,,,,,,,,,,,,,,Clear,72000.0,,,,,,,,,
KRDR,01-25-2022,21:56,METAR,Normal,260,5.0,,,9999.0,,-20.2,-25.8,30.44,1034.6,,,,,,,,,,,,,,,Clear,72000.0,,,,,,,,,
KRDR,01-25-2022,20:56,METAR,Normal,290,6.0,,,9999.0,,-20.0,-25.7,30.44,1034.6,,,,,,,,,,,,,,,Clear,72000.0,,,,,,,,,
KRDR,01-25-2022,19:56,METAR,Normal,280,7.0,,,9999.0,,-21.1,-26.7,30.45,1034.9,,,,,,,,,,,,,,,Clear,72000.0,,,,,,,,,
KRDR,01-25-2022,18:56,METAR,Normal,280,8.0,,,9999.0,,-21.8,-27.2,30.46,1035.2,,,,,,,,,,,,,,,Clear,72000.0,,,,,,,,,
KRDR,01-25-2022,17:56,METAR,Normal,260,9.0,,,9999.0,,-22.4,-27.4,30.47,1035.7,,,,,,,,,,,,,,,Clear,72000.0,,,,,,,,,
KRDR,01-25-2022,16:56,METAR,Normal,270,9.0,,,9999.0,,-23.7,-28.5,30.47,1035.8,,,,,,,,,,,,,,,Clear,72000.0,,,,,,,,,
KRDR,01-25-2022,15:56,METAR,Normal,280,8.0,,,9999.0,,-24.7,-29.2,30.45,1035.1,,,,,,,,,,,,,,,Clear,72000.0,,,,,,,,,
KRDR,01-25-2022,14:56,METAR,Normal,270,8.0,,,9999.0,,-27.0,-30.9,30.42,1034.1,,,,,,,,,,,,,,,Clear,72000.0,,,,,,,,,
KRDR,01-25-2022,13:56,METAR,Normal,270,9.0,,,9999.0,,-28.1,-31.7,30.40,1033.5,,,,,,,,,,,,,,,Clear,72000.0,,,,,,,,,
KRDR,01-25-2022,12:56,METAR,Normal,270,9.0,,,9999.0,,-27.6,-31.4,30.37,1032.4,,,,,,,,,,,,,,,Clear,72000.0,,,,,,,,,
KRDR,01-25-2022,11:58,METAR,Normal,270,8.0,,,9999.0,,-27.0,-31.0,30.35,,,,,,,,,,,,,,,,Clear,72000.0,,,,,,,,,
KRDR,01-25-2022,11:56,METAR,Normal,280,9.0,,,9999.0,,-27.4,-31.2,30.35,1031.6,,,,,,,,,,,,,,,Clear,72000.0,,,,,,,,,
KRDR,01-25-2022,10:56,METAR,Normal,270,9.0,,,9999.0,,-26.6,-30.4,30.33,1030.8,,,,,,,,,,,,,,,Clear,72000.0,,,,,,,,,
KRDR,01-25-2022,09:56,METAR,Normal,270,7.0,,,9999.0,,-26.3,-30.4,30.30,1029.8,,,,,,,,,,,,,,,Clear,72000.0,,,,,,,,,
KRDR,01-25-2022,08:56,METAR,Normal,280,8.0,,,9999.0,,-26.1,-30.4,30.28,1029.1,,,,,,,,,,,,,,,Clear,72000.0,,,,,,,,,
KRDR,01-25-2022,07:56,METAR,Normal,280,9.0,,,9999.0,,-24.7,-29.3,30.25,1028.0,,,,,,,,,,,,,,,Clear,72000.0,,,,,,,,,
KRDR,01-25-2022,06:56,METAR,Normal,270,8.0,,,9999.0,,-24.0,-28.8,30.25,1028.0,,,,,,,,,,,,,,,Clear,72000.0,,,,,,,,,
KRDR,01-25-2022,05:55,METAR,Normal,270,9.0,,,9999.0,,-25.2,-29.2,30.23,1027.4,,,,,,,,,,,,,,,Clear,72000.0,,,,,,,,,
KRDR,01-25-2022,04:56,METAR,Normal,270,8.0,,,9999.0,,-25.5,-29.3,30.22,1027.0,,,,,,,,,,,,,,,Clear,72000.0,,,,,,,,,
KRDR,01-25-2022,03:56,METAR,Normal,260,7.0,,,9999.0,,-24.4,-28.2,30.21,1026.7,,,,,,,,,,,,,,,Clear,72000.0,,,,,,,,,
KRDR,01-25-2022,02:56,METAR,Normal,280,7.0,,,9999.0,,-23.1,-27.1,30.20,1026.3,,,,,,,,,,,,,,,,,25000.0,FEW,25000.0,,,,,,
KRDR,01-25-2022,01:56,METAR,Normal,280,7.0,,,9999.0,,-23.2,-26.5,30.19,1025.9,,,,,,,,,,,,,,,,,25000.0,FEW,25000.0,,,,,,
KRDR,01-25-2022,00:56,METAR,Normal,290,5.0,,,9999.0,,-22.6,-26.0,30.18,1025.6,,,,,,,,,,,,,,,,,25000.0,FEW,25000.0,,,,,,
KRDR,01-24-2022,23:56,METAR,Normal,290,7.0,,,9999.0,,-21.8,-25.9,30.17,1025.1,,,,,,,,,,,,,,,,,25000.0,FEW,25000.0,,,,,,
KRDR,01-24-2022,22:56,METAR,Normal,290,10.0,,,9999.0,,-19.8,-24.6,30.16,1024.7,,,,,,,,,,,,,,,Clear,72000.0,,,,,,,,,
KRDR,01-24-2022,21:56,METAR,Normal,300,8.0,,,9999.0,,-19.4,-24.4,30.15,1024.3,,,,,,,,,,,,,,,Clear,72000.0,,,,,,,,,
KRDR,01-24-2022,20:56,METAR,Normal,280,9.0,,,9999.0,,-19.2,-24.5,30.15,1024.3,,,,,,,,,,,,,,,Clear,72000.0,,,,,,,,,
KRDR,01-24-2022,19:57,METAR,Normal,300,11.0,,,9999.0,,-19.6,-24.4,30.13,1023.5,,,,,,,,,,,,,,,Clear,72000.0,,,,,,,,,
KRDR,01-24-2022,18:55,METAR,Normal,320,14.0,,,9999.0,,-20.2,-24.5,30.12,1023.1,,,,,,,,,,,,,,,Clear,72000.0,,,,,,,,,
KRDR,01-24-2022,17:56,METAR,Normal,310,14.0,,,9999.0,,-20.4,-24.8,30.12,1023.1,,,,,,,,,,,,,,,Clear,72000.0,,,,,,,,,
KRDR,01-24-2022,16:56,METAR,Normal,310,11.0,,,9999.0,,-20.8,-24.9,30.11,1022.8,,,,,,,,,,,,,,,Clear,72000.0,,,,,,,,,
KRDR,01-24-2022,15:55,METAR,Normal,320,11.0,,,9999.0,,-21.7,-25.3,30.08,1021.8,,,,,,,,,,,,,,,,,15000.0,FEW,15000.0,,,,,,
KRDR,01-24-2022,14:59,METAR,Normal,310,11.0,,,9999.0,,-22.2,-25.4,30.06,1021.1,,,,,,,,,,,,,,,,,15000.0,FEW,15000.0,,,,,,
KRDR,01-24-2022,13:59,METAR,Normal,310,11.0,,,9999.0,,-22.1,-25.1,30.03,1020.1,,,,,,,,,,,,,,,Clear,72000.0,,,,,,,,,
KRDR,01-24-2022,12:57,METAR,Normal,320,11.0,,,9999.0,,-21.3,-24.2,30.00,1019.0,,,,,,,,,,,,,,,Clear,72000.0,,,,,,,,,
KRDR,01-24-2022,11:57,METAR,Normal,320,13.0,,,9999.0,,-20.7,-23.3,29.96,1017.7,,,,,,,,,,,,,,,Clear,72000.0,,,,,,,,,
KRDR,01-24-2022,10:56,METAR,Normal,320,12.0,,,9999.0,,-19.9,-22.5,29.92,1016.3,,,,,,,,,,,,,,,Clear,72000.0,,,,,,,,,
KRDR,01-24-2022,09:57,METAR,Normal,320,13.0,,,9999.0,,-19.5,-22.3,29.89,1015.2,,,,,,,,,,,,,,,Clear,72000.0,,,,,,,,,
KRDR,01-24-2022,08:56,METAR,Normal,320,12.0,,,9999.0,,-18.3,-21.4,29.86,1014.2,,,,,,,,,,,,,,,Clear,72000.0,,,,,,,,,
KRDR,01-24-2022,07:58,METAR,Normal,330,10.0,,,9999.0,,-16.9,-19.9,29.82,1012.8,,,,,,,,,,,,,,,,10000.0,10000.0,OVC,10000.0,,,,,,
KRDR,01-24-2022,06:57,METAR,Normal,330,15.0,,,9999.0,,-15.8,-18.7,29.76,,,,,,,,,,,,,,,,,10000.0,1300.0,FEW,1300.0,OVC,10000.0,,,,
KRDR,01-24-2022,06:06,SPECI,Normal,340,14.0,,,9999.0,,-15.0,-18.0,29.73,,,,,,,,,,,,,,,,,3300.0,1200.0,FEW,1200.0,SCT,2700.0,BKN,3300.0,OVC,10000.0
KRDR,01-24-2022,05:56,METAR,Normal,340,13.0,,,9999.0,,-15.2,-17.8,29.73,,,,,,,,,,,,,,TRACE,,,2600.0,2600.0,BKN,2600.0,OVC,10000.0,,,,
KRDR,01-24-2022,04:56,METAR,Normal,330,14.0,,,9999.0,,-14.9,-17.2,29.71,,,,,,,,,,,,TRACE,,,,,100.0,500.0,SCT,500.0,SCT,900.0,BKN,2500.0,OVC,3100.0
KRDR,01-24-2022,03:56,METAR,Normal,350,6.0,,,9999.0,Light Snow Showers,-14.2,-16.6,29.66,1007.2,85,,,,,,,,,,TRACE,,,,,200.0,300.0,FEW,300.0,OVC,2300.0,,,,
KRDR,01-24-2022,02:56,METAR,Normal,50,3.0,,,8000.0,Light Snow,-14.2,-16.6,29.64,,71,,,,,,,,,,TRACE,TRACE,,,,300.0,300.0,BKN,300.0,OVC,900.0,,,,
KRDR,01-24-2022,02:25,SPECI,Normal,60,3.0,,,9999.0,,-14.0,-17.0,29.63,,,,,,,,,,,,,,,,,300.0,900.0,BKN,900.0,OVC,1500.0,,,,
KRDR,01-24-2022,01:56,METAR,Normal,120,4.0,,,9999.0,,-14.3,-16.9,29.62,,,,,,,,,,,,,,,,,400.0,1200.0,OVC,1200.0,,,,,,
KRDR,01-24-2022,01:36,SPECI,Normal,120,5.0,,,9999.0,,-14.0,-17.0,29.62,,,,,,,,,,,,,,,,,300.0,1400.0,OVC,1400.0,,,,,,
KRDR,01-24-2022,00:56,METAR,Normal,120,7.0,,,9999.0,,-14.7,-17.4,29.62,1006.2,,,,,,,,,,,,,,,,200.0,1700.0,OVC,1700.0,,,,,,
KRDR,01-23-2022,23:56,METAR,Normal,120,7.0,,,9999.0,,-15.0,-17.7,29.63,1006.8,,,,,,,,,,,.02 IN,,.02 IN,,,1900.0,600.0,FEW,600.0,BKN,1900.0,OVC,3000.0,,
KRDR,01-23-2022,23:14,SPECI,Normal,150,11.0,20.0,,4800.0,Light Snow Showers/Blowing or Drifting Snow or Sand,-15.0,-18.0,29.63,,85,27,,,,,,,,,,,,,,1400.0,200.0,SCT,200.0,BKN,1400.0,BKN,4100.0,OVC,9600.0
KRDR,01-23-2022,22:56,METAR,Normal,150,14.0,,,4800.0,Light Snow Showers/Blowing or Drifting Snow or Sand,-15.4,-17.8,29.64,1007.2,85,27,,,,,,,,,TRACE,,,,,200.0,200.0,OVC,200.0,,,,,,
KRDR,01-23-2022,21:56,METAR,Normal,150,15.0,,,4800.0,Light Snow Showers/Blowing or Drifting Snow or Sand,-15.6,-18.0,29.66,,85,27,,,,,,,,,TRACE,,,,,300.0,300.0,BKN,300.0,OVC,2100.0,,,,
KRDR,01-23-2022,21:11,SPECI,Normal,150,13.0,,,4800.0,Light Snow Showers/Blowing or Drifting Snow or Sand,-16.0,-18.0,29.69,1008.9,85,27,,,,,,,,,,,,,,500.0,500.0,OVC,500.0,,,,,,
KRDR,01-23-2022,20:56,METAR,Normal,150,16.0,,,8000.0,Light Snow Showers,-16.2,-18.6,29.71,,85,,,,,,,,,,TRACE,TRACE,,,,300.0,4500.0,BKN,4500.0,,,,,,
KRDR,01-23-2022,19:56,METAR,Normal,150,18.0,,,4800.0,Light Snow Showers/Blowing or Drifting Snow or Sand,-16.8,-19.2,29.75,1011.0,85,27,,,,,,,,,TRACE,,,,,4100.0,600.0,FEW,600.0,OVC,4100.0,,,,
KRDR,01-23-2022,19:18,SPECI,Normal,140,12.0,,,4800.0,Light Snow/Blowing or Drifting Snow or Sand,-16.0,-19.0,29.80,1012.6,71,27,,,,,,,,,,,,,,300.0,500.0,SCT,500.0,BKN,2800.0,OVC,4100.0,,
KRDR,01-23-2022,18:56,METAR,Normal,150,13.0,,,8000.0,Light Snow Showers,-16.6,-18.9,29.84,1014.0,85,,,,,,,,,,TRACE,,,,,4300.0,600.0,SCT,600.0,OVC,4300.0,,,,
KRDR,01-23-2022,17:57,METAR,Normal,150,14.0,,,4800.0,,-17.0,-19.0,29.88,,,,,,,,,,,,TRACE,,TRACE,,,4000.0,4000.0,BKN,4000.0,OVC,6500.0,,,,
KRDR,01-23-2022,17:56,METAR,Normal,150,14.0,,,4800.0,Light Snow,-17.0,-19.0,,1015.4,71,,,,,,,,,,TRACE,,TRACE,,,4000.0,4000.0,BKN,4000.0,OVC,6500.0,,,,
KRDR,01-23-2022,16:56,METAR,Normal,150,12.0,,,3200.0,Light Snow,-18.3,-20.7,29.95,1017.8,71,,,,,,,,,,TRACE,,,,,2800.0,2800.0,OVC,2800.0,,,,,,
KRDR,01-23-2022,16:07,SPECI,Normal,160,10.0,,,3200.0,Light Snow,-19.0,-21.0,29.98,1018.8,71,,,,,,,,,,,,,,,2500.0,2500.0,OVC,2500.0,,,,,,
KRDR,01-23-2022,15:58,METAR,Normal,160,10.0,,,2400.0,Light Snow,-18.9,-21.4,29.98,1018.8,71,,,,,,,,,,TRACE,,,,,2600.0,2600.0,BKN,2600.0,BKN,3600.0,OVC,4700.0,,
KRDR,01-23-2022,15:54,METAR,Normal,160,10.0,,,2400.0,Light Snow,-18.9,-21.4,29.98,1018.8,71,,,,,,,,,,TRACE,,,,,2600.0,2600.0,BKN,2600.0,BKN,3600.0,OVC,4700.0,,
KRDR,01-23-2022,15:46,SPECI,Normal,150,9.0,,,4800.0,Light Snow,-19.0,-21.0,29.99,1019.2,71,,,,,,,,,,,,,,,4100.0,3100.0,SCT,3100.0,BKN,4100.0,BKN,5000.0,OVC,6500.0
KRDR,01-23-2022,15:43,SPECI,Normal,150,8.0,,,9999.0,,-19.0,-21.0,29.99,1019.1,,,,,,,,,,,,,,,,4100.0,3100.0,FEW,3100.0,BKN,4100.0,BKN,5000.0,OVC,7000.0
KRDR,01-23-2022,15:39,SPECI,Normal,150,8.0,,,9999.0,Light Snow,-19.0,-21.0,30.00,,71,,,,,,,,,,,,,,,4700.0,3600.0,FEW,3600.0,BKN,4700.0,OVC,6500.0,,
KRDR,01-23-2022,14:56,METAR,Normal,160,7.0,,,9999.0,,-20.0,-22.0,30.03,1020.4,,,,,,,,,,,,,,,,7500.0,6000.0,FEW,6000.0,OVC,7500.0,,,,
KRDR,01-23-2022,14:55,METAR,Normal,160,7.0,,,9999.0,,-20.0,-22.0,30.03,,,,,,,,,,,,,,,,,7500.0,6000.0,FEW,6000.0,OVC,7500.0,,,,
KRDR,01-23-2022,13:56,METAR,Normal,180,6.0,,,9999.0,,-22.0,-24.0,30.06,,,,,,,,,,,,,,,,,8000.0,8000.0,OVC,8000.0,,,,,,
KRDR,01-23-2022,12:56,METAR,Normal,180,4.0,,,9999.0,,-24.6,-27.4,30.11,1023.1,,,,,,,,,,,,,,,,,9500.0,FEW,9600.0,,,,,,
KRDR,01-23-2022,11:56,METAR,Normal,190,4.0,,,9999.0,,-28.9,-32.0,30.14,1024.3,,,,,,,,,,,,,,,,,14000.0,SCT,14000.0,,,,,,
KRDR,01-23-2022,10:56,METAR,Normal,200,4.0,,,9999.0,,-30.3,-33.7,30.17,1025.4,,,,,,,,,,,,,,,Clear,72000.0,,,,,,,,,
KRDR,01-23-2022,09:56,METAR,Normal,210,3.0,,,9999.0,,-31.0,-34.0,30.20,,,,,,,,,,,,,,,,Clear,72000.0,,,,,,,,,
KRDR,01-23-2022,08:56,METAR,Calm,,0.0,,,9999.0,,-30.0,-34.0,30.21,,,,,,,,,,,,,,,,Clear,72000.0,,,,,,,,,
KRDR,01-23-2022,07:56,METAR,Normal,260,3.0,,,9999.0,,-29.0,-33.0,30.21,,,,,,,,,,,,,,,,Clear,72000.0,,,,,,,,,
KRDR,01-23-2022,05:56,METAR,Normal,290,5.0,,,9999.0,,-28.1,-31.4,30.23,1027.4,,,,,,,,,,,TRACE,,TRACE,,,,10000.0,SCT,10000.0,,,,,,
KRDR,01-23-2022,04:56,METAR,Normal,290,5.0,,,9999.0,,-27.7,-30.7,30.22,1027.0,,,,,,,,,,,,,,,,,10000.0,SCT,10000.0,,,,,,
KRDR,01-23-2022,03:56,METAR,Normal,280,5.0,,,9999.0,,-26.7,-29.8,30.21,1026.7,,,,,,,,,,,,,,,,,8000.0,SCT,8000.0,,,,,,
KRDR,01-23-2022,02:56,METAR,Normal,330,7.0,,,9999.0,,-23.7,-26.3,30.18,1025.6,,,,,,,,,,,,.02 IN,,,,,8000.0,SCT,8000.0,,,,,,
KRDR,01-23-2022,01:56,METAR,Normal,330,7.0,,,9999.0,,-20.8,-23.4,30.16,1024.8,,,,,,,,,,,.01 IN,,,,,,8000.0,SCT,8000.0,,,,,,
KRDR,01-23-2022,00:56,METAR,Normal,330,7.0,,,9999.0,Light Snow Showers,-17.6,-20.6,30.13,1023.8,85,,,,,,,,,,.01 IN,,,,,8000.0,6000.0,FEW,6000.0,OVC,8000.0,,,,
KRDR,01-22-2022,23:56,METAR,Normal,310,3.0,,,9999.0,Light Snow Showers,-17.3,-20.0,30.12,1023.2,85,,,,,,,,,,TRACE,,TRACE,,,6000.0,400.0,FEW,400.0,OVC,6000.0,,,,
KRDR,01-22-2022,22:56,METAR,Calm,,0.0,,,8000.0,Light Snow Showers,-17.3,-20.3,30.09,1022.1,85,,,,,,,,,,TRACE,,,,,,200.0,FEW,200.0,,,,,,
KRDR,01-22-2022,21:56,METAR,Normal,70,3.0,,,8000.0,Light Snow Showers,-17.3,-20.9,30.07,1021.3,85,,,,,,,,,,TRACE,,,,,4100.0,500.0,FEW,500.0,OVC,4100.0,,,,
KRDR,01-22-2022,20:56,METAR,Normal,80,4.0,,,8000.0,Light Snow Showers,-17.3,-20.7,30.07,1021.3,85,,,,,,,,,,TRACE,TRACE,,,,4100.0,4100.0,OVC,4100.0,,,,,,
KRDR,01-22-2022,20:00,SPECI,Normal,160,4.0,,,8000.0,Light Snow Showers,-17.0,-21.0,30.10,1022.4,85,,,,,,,,,,,,,,,3000.0,200.0,FEW,200.0,OVC,3000.0,,,,
KRDR,01-22-2022,19:56,METAR,Normal,150,3.0,,,8000.0,Light Snow Showers,-17.3,-20.9,30.10,1022.4,85,,,,,,,,,,TRACE,,,,,2800.0,2800.0,OVC,2800.0,,,,,,
KRDR,01-22-2022,19:17,SPECI,Normal,170,5.0,,,8000.0,Light Snow,-17.0,-21.0,30.12,1023.0,71,,,,,,,,,,,,,,,2600.0,2600.0,OVC,2600.0,,,,,,
KRDR,01-22-2022,19:06,SPECI,Normal,150,4.0,,,9999.0,Light Snow Showers,-17.0,-21.0,30.13,1023.3,85,,,,,,,,,,,,,,,2800.0,2800.0,OVC,2800.0,,,,,,
KRDR,01-22-2022,18:56,METAR,Normal,160,4.0,,,9999.0,Light Snow Showers,-17.3,-21.7,30.13,1023.3,85,,,,,,,,,,TRACE,,,,,3000.0,3000.0,OVC,3000.0,,,,,,
KRDR,01-22-2022,18:29,SPECI,Normal,170,5.0,,,9999.0,Light Snow Showers,-17.0,-22.0,30.15,1024.0,85,,,,,,,,,,,,,,,3300.0,3300.0,BKN,3300.0,OVC,4200.0,,,,
KRDR,01-22-2022,18:10,SPECI,Normal,170,4.0,,,9999.0,,-17.0,-22.0,30.16,1024.3,,,,,,,,,,,,,,,,4100.0,1100.0,FEW,1100.0,BKN,4100.0,OVC,4900.0,,
KRDR,01-22-2022,18:03,SPECI,Normal,180,4.0,,,9999.0,,-18.0,-22.0,30.16,1024.4,,,,,,,,,,,,,,,,4300.0,4300.0,OVC,4300.0,,,,,,
KRDR,01-22-2022,17:57,METAR,Normal,170,3.0,,,9999.0,Light Snow,-17.6,-22.5,30.16,1024.4,71,,,,,,,,,,TRACE,,TRACE,,,4500.0,4500.0,OVC,4500.0,,,,,,
KRDR,01-22-2022,17:56,METAR,Normal,170,3.0,,,9999.0,,-17.7,-22.6,30.16,1024.4,,,,,,,,,,,,,,,,5000.0,5000.0,OVC,5000.0,,,,,,
KRDR,01-22-2022,16:56,METAR,Calm,,0.0,,,9999.0,,-18.2,-23.2,30.19,1025.4,,,,,,,,,,,,,,,,6000.0,6000.0,OVC,6000.0,,,,,,
KRDR,01-22-2022,15:56,METAR,Calm,,0.0,,,9999.0,,-19.2,-23.7,30.21,1025.9,,,,,,,,,,,,,,,,7500.0,7500.0,BKN,7500.0,,,,,,
KRDR,01-22-2022,14:56,METAR,Normal,230,4.0,,,9999.0,,-20.5,-24.1,30.23,,,,,,,,,,,,,,,,,8000.0,8000.0,BKN,8000.0,BKN,14000.0,,,,
KRDR,01-22-2022,13:56,METAR,Normal,260,6.0,,,9999.0,,-21.2,-24.7,30.25,1027.2,,,,,,,,,,,,,,,,12000.0,2600.0,FEW,2600.0,BKN,12000.0,,,,
KRDR,01-22-2022,12:56,METAR,Normal,220,6.0,,,9999.0,,-23.2,-26.5,30.24,1027.0,,,,,,,,,,,,,,,,16000.0,2600.0,SCT,2600.0,BKN,16000.0,,,,
KRDR,01-22-2022,11:56,METAR,Calm,,0.0,,,9999.0,,-21.3,-24.9,30.24,1026.8,,,,,,,,,,,,,,,,,3000.0,FEW,3000.0,FEW,10000.0,,,,
KRDR,01-22-2022,10:56,METAR,Normal,330,9.0,,,9999.0,,-19.1,-23.7,30.24,1026.5,,,,,,,,,,,,,,,,,2800.0,SCT,2800.0,,,,,,
KRDR,01-22-2022,09:56,METAR,Normal,330,11.0,,,9999.0,,-17.7,-22.4,30.23,1026.1,,,,,,,,,,,,,,,,2800.0,2800.0,OVC,2800.0,,,,,,
KRDR,01-22-2022,08:56,METAR,Normal,330,11.0,,,9999.0,,-16.7,-20.9,30.22,,,,,,,,,,,,,,,,,2800.0,2800.0,OVC,2800.0,,,,,,
KRDR,01-22-2022,07:56,METAR,Normal,340,14.0,,,6400.0,Blowing or Drifting Snow or Sand,-16.6,-20.7,30.20,1025.1,27,,,,,,,,,,,,,,,2900.0,2900.0,OVC,2900.0,,,,,,
KRDR,01-22-2022,07:38,SPECI,Normal,330,17.0,,,6400.0,Blowing or Drifting Snow or Sand,-16.0,-20.0,30.19,1024.7,27,,,,,,,,,,,,,,,2800.0,1100.0,SCT,1100.0,OVC,2800.0,,,,
KRDR,01-22-2022,07:33,SPECI,Normal,340,18.0,,,6400.0,Blowing or Drifting Snow or Sand,-16.0,-20.0,30.18,1024.4,27,,,,,,,,,,,,,,,2800.0,1100.0,SCT,1100.0,OVC,2800.0,,,,
KRDR,01-22-2022,06:56,METAR,Normal,340,14.0,,,4800.0,Blowing or Drifting Snow or Sand,-15.8,-19.3,30.17,1024.2,27,,,,,,,,,,,,,,,700.0,900.0,BKN,900.0,OVC,2800.0,,,,
KRDR,01-22-2022,06:11,SPECI,Normal,340,14.0,,,3200.0,Blowing or Drifting Snow or Sand,-15.0,-18.0,30.14,1023.3,27,,,,,,,,,,,,,,,700.0,700.0,BKN,700.0,OVC,3300.0,,,,
KRDR,01-22-2022,05:56,METAR,Normal,340,18.0,,,2800.0,Blowing or Drifting Snow or Sand,-15.3,-18.0,30.13,1022.9,27,,,,,,,,,,TRACE,,TRACE,,,600.0,600.0,OVC,600.0,,,,,,
KRDR,01-22-2022,05:46,SPECI,Normal,340,18.0,23.0,,3000.0,Light Snow Showers/Blowing or Drifting Snow or Sand,-15.0,-18.0,30.13,1022.9,85,27,,,,,,,,,,,,,,600.0,600.0,OVC,600.0,,,,,,
KRDR,01-22-2022,05:36,SPECI,Normal,340,16.0,,,3000.0,Light Snow Showers/Blowing or Drifting Snow or Sand,-15.0,-18.0,30.12,1022.6,85,27,,,,,,,,,,,,,,300.0,500.0,BKN,500.0,OVC,1100.0,,,,
KRDR,01-22-2022,05:16,SPECI,Normal,330,20.0,,,3600.0,Light Snow Showers/Blowing or Drifting Snow or Sand,-15.0,-17.0,30.10,1021.9,85,27,,,,,,,,,,,,,,500.0,500.0,BKN,500.0,OVC,1100.0,,,,
KRDR,01-22-2022,04:56,METAR,Normal,340,16.0,25.0,340/28KTS,3000.0,Light Snow Showers/Blowing or Drifting Snow or Sand,-14.3,-16.7,30.09,1021.6,85,27,,,,,,,,,,,,,,600.0,600.0,OVC,600.0,,,,,,
KRDR,01-22-2022,04:06,SPECI,Normal,340,21.0,26.0,,2000.0,Light Snow Showers/Blowing or Drifting Snow or Sand,-12.0,-15.0,30.05,1020.1,85,27,,,,,,,,,,,,,,600.0,600.0,OVC,600.0,,,,,,
KRDR,01-22-2022,03:56,METAR,Normal,330,19.0,,,4800.0,Light Snow Showers/Blowing or Drifting Snow or Sand,-11.7,-14.3,30.04,1019.9,85,27,,,,,,,,,TRACE,,,,,600.0,600.0,OVC,600.0,,,,,,
KRDR,01-22-2022,03:11,SPECI,Normal,340,15.0,,,3600.0,Snow/Blowing or Drifting Snow or Sand,-11.0,-13.0,30.01,1018.8,72,27,,,,,,,,,,,,,,1200.0,500.0,FEW,500.0,SCT,1100.0,OVC,1800.0,,
KRDR,01-22-2022,02:56,METAR,Normal,340,16.0,29.0,320/31KTS,6400.0,Light Snow Showers,-9.0,-13.1,30.00,1018.4,85,,,,,,,,,,TRACE,TRACE,,,,1300.0,500.0,FEW,500.0,BKN,1300.0,OVC,2100.0,,
KRDR,01-22-2022,02:51,SPECI,Normal,330,18.0,29.0,,9999.0,,-9.0,-13.0,29.99,1018.1,,,,,,,,,,,,,,,,1000.0,500.0,FEW,500.0,BKN,1300.0,OVC,1900.0,,
KRDR,01-22-2022,02:06,SPECI,Normal,300,23.0,29.0,,9999.0,,-8.0,-13.0,29.97,1017.4,,,,,,,,,,,,,,,,1400.0,1400.0,BKN,1400.0,BKN,2000.0,BKN,2700.0,OVC,4300.0
KRDR,01-22-2022,01:56,METAR,Normal,300,19.0,28.0,290/32KTS,9999.0,,-7.9,-12.8,29.96,1017.1,,,,,,,,,,,,,,,,2400.0,1500.0,SCT,1500.0,SCT,2000.0,BKN,2700.0,OVC,4300.0
KRDR,01-22-2022,00:56,METAR,Normal,290,24.0,35.0,320/37KTS,9999.0,,-6.7,-11.3,29.92,1015.7,,,,,,,,,,,,,,,,3800.0,2300.0,SCT,2300.0,OVC,3800.0,,,,
KRDR,01-21-2022,23:56,METAR,Normal,290,22.0,33.0,320/37KTS,6400.0,Blowing or Drifting Snow or Sand,-5.1,-8.9,29.87,1014.0,27,,,,,,,,,,,,TRACE,,,3900.0,3000.0,FEW,3000.0,BKN,3900.0,BKN,6000.0,OVC,7000.0
KRDR,01-21-2022,23:40,SPECI,Normal,300,29.0,35.0,,3200.0,Blowing or Drifting Snow or Sand,-4.0,-8.0,29.86,1013.5,27,,,,,,,,,,,,,,,4000.0,2900.0,FEW,2900.0,OVC,4000.0,,,,
KRDR,01-21-2022,23:31,SPECI,Normal,290,24.0,32.0,,3200.0,Blowing or Drifting Snow or Sand,-4.0,-7.0,29.86,1013.5,27,,,,,,,,,,,,,,,3000.0,2200.0,SCT,2200.0,BKN,3000.0,OVC,4000.0,,
KRDR,01-21-2022,23:22,SPECI,Normal,290,21.0,26.0,,4800.0,Blowing or Drifting Snow or Sand,-3.0,-7.0,29.84,1012.9,27,,,,,,,,,,,,,,,1900.0,2500.0,BKN,2500.0,OVC,3800.0,,,,
KRDR,01-21-2022,23:18,SPECI,Normal,300,20.0,28.0,,8000.0,Blowing or Drifting Snow or Sand,-3.0,-6.0,29.84,1012.9,27,,,,,,,,,,,,,,,1900.0,2200.0,BKN,2200.0,OVC,2700.0,,,,
KRDR,01-21-2022,23:09,SPECI,Normal,290,25.0,30.0,,8000.0,,-2.0,-5.0,29.83,1012.5,,,,,,,,,,,,,,,,1900.0,2300.0,OVC,2300.0,,,,,,
KRDR,01-21-2022,22:56,METAR,Normal,300,19.0,26.0,,9999.0,,-1.2,-4.9,29.82,1012.1,,,,,,,,,,,,,,,,2100.0,2200.0,BKN,2200.0,OVC,3100.0,,,,
KRDR,01-21-2022,21:56,METAR,Normal,300,19.0,24.0,,9999.0,,-0.7,-4.8,29.78,1010.8,,,,,,,,,,,,,,,,2300.0,2600.0,OVC,2600.0,,,,,,
KRDR,01-21-2022,21:21,SPECI,Normal,320,18.0,24.0,,9999.0,,1.0,-3.0,29.76,1010.1,,,,,,,,,,,,,,,,3100.0,2300.0,SCT,2300.0,OVC,3100.0,,,,
KRDR,01-21-2022,20:56,METAR,Normal,260,12.0,,,9999.0,,1.5,-3.0,29.74,1009.4,,,,,,,,,,,,TRACE,,,,3500.0,3500.0,BKN,3500.0,BKN,4100.0,BKN,4800.0,BKN,7000.0
KRDR,01-21-2022,19:56,METAR,Normal,280,15.0,21.0,,9999.0,,-1.5,-4.3,29.73,1009.2,,,,,,,,,,,,,,,,7000.0,2000.0,FEW,2000.0,FEW,2700.0,SCT,3900.0,OVC,7000.0
KRDR,01-21-2022,18:56,METAR,Normal,170,11.0,,,9999.0,,-5.5,-7.3,29.74,1009.7,,,,,,,,,,,,,,,,1700.0,1700.0,BKN,1700.0,BKN,2200.0,OVC,3300.0,,
KRDR,01-21-2022,18:48,SPECI,Normal,180,12.0,,,9999.0,Light Snow,-6.0,-8.0,29.73,1009.5,71,,,,,,,,,,,,,,,1700.0,1700.0,BKN,1700.0,OVC,3400.0,,,,
KRDR,01-21-2022,18:42,SPECI,Normal,180,12.0,,,9999.0,,-7.0,-9.0,29.73,1009.5,,,,,,,,,,,,,,,,1900.0,1200.0,FEW,1200.0,SCT,1900.0,BKN,2900.0,OVC,3400.0
KRDR,01-21-2022,17:56,METAR,Normal,170,18.0,,,4800.0,Blowing or Drifting Snow or Sand,-8.5,-10.6,29.74,1009.9,27,,,,,,,,,,TRACE,,TRACE,,,500.0,500.0,OVC,500.0,,,,,,
KRDR,01-21-2022,17:19,SPECI,Normal,170,20.0,,,3200.0,Blowing or Drifting Snow or Sand,-9.0,-11.0,29.76,1010.7,27,,,,,,,,,,,,,,,600.0,600.0,OVC,600.0,,,,,,
KRDR,01-21-2022,16:56,METAR,Normal,170,17.0,,160/28KTS,6400.0,,-9.7,-12.2,29.75,1010.3,,,,,,,,,,,TRACE,,,,,600.0,600.0,OVC,600.0,,,,,,
KRDR,01-21-2022,16:44,SPECI,Normal,170,19.0,,,6400.0,Blowing or Drifting Snow or Sand,-10.0,-12.0,29.75,1010.3,27,,,,,,,,,,,,,,,700.0,700.0,OVC,700.0,,,,,,
KRDR,01-21-2022,15:56,METAR,Normal,170,22.0,,190/32KTS,2200.0,Light Snow/Blowing or Drifting Snow or Sand,-11.3,-13.8,29.76,1010.7,71,27,,,,,,,,,TRACE,,,,,600.0,600.0,OVC,600.0,,,,,,
KRDR,01-21-2022,15:24,SPECI,Normal,160,24.0,,,1000.0,Light Snow,-12.0,-14.0,29.77,1011.2,71,,,,,,,,,,,,,,Sky Obscured (Unable to Estimate),2000.0,2000.0,,2000.0,,,,,,
KRDR,01-21-2022,15:14,SPECI,Normal,170,25.0,29.0,,800.0,Light Snow/Blowing or Drifting Snow or Sand,-12.0,-14.0,29.77,1011.2,71,27,,,,,,,,,,,,,,,,,,,,,,,
KRDR,01-21-2022,14:57,SPECI,Normal,160,22.0,28.0,,1200.0,Light Snow/Blowing Snow,-13.0,-16.0,29.79,1011.9,,,,71,38,,,,,,,,,,,2200.0,2200.0,OVC,2200.0,,,,,,
KRDR,01-21-2022,14:56,METAR,Normal,160,22.0,,160/31KTS,1200.0,Light Snow/Blowing or Drifting Snow or Sand,-12.8,-15.6,29.79,1011.9,71,27,,,,,,,,,,,,,,2200.0,2200.0,OVC,2200.0,,,,,,
KRDR,01-21-2022,14:40,SPECI,Normal,160,20.0,,,3200.0,Light Snow/Blowing or Drifting Snow or Sand,-13.0,-17.0,29.80,1012.2,71,27,,,,,,,,,,,,,,2200.0,2200.0,OVC,2200.0,,,,,,
KRDR,01-21-2022,14:26,SPECI,Normal,160,23.0,31.0,,4800.0,Light Snow,-13.0,-18.0,29.80,1012.2,71,,,,,,,,,,,,,,,2000.0,2100.0,BKN,2100.0,OVC,7500.0,,,,
KRDR,01-21-2022,14:16,SPECI,Normal,160,23.0,31.0,,9999.0,,-14.0,-18.0,29.79,1011.9,,,,,,,,,,,,,,,,2100.0,2100.0,BKN,2100.0,BKN,6000.0,OVC,8000.0,,
KRDR,01-21-2022,13:56,METAR,Normal,150,23.0,28.0,160/30KTS,9999.0,,-14.1,-18.3,29.79,1011.9,,,,,,,,,,,,,,,,8000.0,6000.0,FEW,6000.0,OVC,8000.0,,,,
KRDR,01-21-2022,12:56,METAR,Normal,150,22.0,,160/34KTS,9999.0,,-15.5,-19.6,29.82,1013.0,,,,,,,,,,,,,,,,10000.0,10000.0,OVC,10000.0,,,,,,
KRDR,01-21-2022,11:56,METAR,Normal,150,26.0,31.0,170/32KTS,9999.0,,-16.6,-20.7,29.85,1014.0,,,,,,,,,,,,,,,,11000.0,11000.0,BKN,11000.0,,,,,,
KRDR,01-21-2022,10:56,METAR,Normal,150,25.0,32.0,150/32KTS,9999.0,,-17.5,-21.7,29.88,1014.9,,,,,,,,,,,,,,,,,13000.0,SCT,13000.0,,,,,,
KRDR,01-21-2022,09:56,METAR,Normal,150,20.0,24.0,170/26KTS,9999.0,,-18.8,-23.0,29.95,1017.4,,,,,,,,,,,,,,,Clear,72000.0,,,,,,,,,
KRDR,01-21-2022,08:56,METAR,Normal,150,17.0,,170/26KTS,9999.0,,-19.8,-23.6,30.01,1019.5,,,,,,,,,,,,,,,Clear,72000.0,,,,,,,,,
KRDR,01-21-2022,07:56,METAR,Normal,150,18.0,,,9999.0,,-20.9,-24.5,30.07,1021.6,,,,,,,,,,,,,,,Clear,72000.0,,,,,,,,,
KRDR,01-21-2022,06:56,METAR,Normal,150,16.0,,,9999.0,,-21.8,-25.3,30.11,1023.1,,,,,,,,,,,,,,,Clear,72000.0,,,,,,,,,
KRDR,01-21-2022,05:56,METAR,Normal,160,16.0,,,9999.0,,-22.1,-25.6,30.16,1024.9,,,,,,,,,,,,,,,Clear,72000.0,,,,,,,,,
KRDR,01-21-2022,04:56,METAR,Normal,140,16.0,,,9999.0,,-22.3,-25.6,30.19,1026.0,,,,,,,,,,,,,,,Clear,72000.0,,,,,,,,,
KRDR,01-21-2022,03:56,METAR,Normal,150,15.0,,,9999.0,,-22.8,-26.4,30.25,1028.2,,,,,,,,,,,,,,,Clear,72000.0,,,,,,,,,
KRDR,01-21-2022,02:56,METAR,Normal,150,17.0,,,9999.0,,-23.2,-26.8,30.28,1029.3,,,,,,,,,,,,,,,Clear,72000.0,,,,,,,,,
KRDR,01-21-2022,01:56,METAR,Normal,150,12.0,,,9999.0,,-23.0,-26.6,30.32,1030.6,,,,,,,,,,,,,,,Clear,72000.0,,,,,,,,,
KRDR,01-21-2022,00:56,METAR,Normal,150,15.0,,,9999.0,,-22.4,-26.1,30.34,1031.3,,,,,,,,,,,,,,,Clear,72000.0,,,,,,,,,
KRDR,01-20-2022,23:56,METAR,Normal,140,15.0,,,9999.0,,-21.8,-25.4,30.37,1032.3,,,,,,,,,,,,,,,Clear,72000.0,,,,,,,,,
KRDR,01-20-2022,22:56,METAR,Normal,140,11.0,,,9999.0,,-19.7,-24.2,30.41,1033.6,,,,,,,,,,,,,,,Clear,72000.0,,,,,,,,,
KRDR,01-20-2022,21:56,METAR,Normal,160,11.0,,,9999.0,,-19.1,-23.9,30.44,1034.6,,,,,,,,,,,,,,,Clear,72000.0,,,,,,,,,
KRDR,01-20-2022,20:56,METAR,Normal,170,13.0,,,9999.0,,-18.6,-24.0,30.48,1035.9,,,,,,,,,,,,,,,Clear,72000.0,,,,,,,,,
KRDR,01-20-2022,19:56,METAR,Normal,170,9.0,,,9999.0,,-19.3,-25.0,30.51,1036.9,,,,,,,,,,,,,,,Clear,72000.0,,,,,,,,,
KRDR,01-20-2022,18:56,METAR,Normal,170,9.0,,,9999.0,,-20.4,-25.5,30.54,1038.0,,,,,,,,,,,,,,,Clear,72000.0,,,,,,,,,
KRDR,01-20-2022,17:56,METAR,Normal,170,8.0,,,9999.0,,-21.9,-27.1,30.58,1039.4,,,,,,,,,,,,,,,Clear,72000.0,,,,,,,,,
KRDR,01-20-2022,16:56,METAR,Normal,170,7.0,,,9999.0,,-23.7,-28.8,30.60,1040.2,,,,,,,,,,,,,,,Clear,72000.0,,,,,,,,,
KRDR,01-20-2022,15:56,METAR,Normal,170,8.0,,,9999.0,,-25.5,-30.2,30.60,1040.2,,,,,,,,,,,,,,,Clear,72000.0,,,,,,,,,
KRDR,01-20-2022,14:56,METAR,Normal,170,6.0,,,9999.0,,-27.3,-31.7,30.61,1040.7,,,,,,,,,,,,,,,Clear,72000.0,,,,,,,,,
KRDR,01-20-2022,13:56,METAR,Normal,190,7.0,,,9999.0,,-27.0,-31.1,30.62,1041.0,,,,,,,,,,,,,,,Clear,72000.0,,,,,,,,,
KRDR,01-20-2022,12:56,METAR,Normal,180,3.0,,,9999.0,,-28.3,-32.2,30.64,1041.7,,,,,,,,,,,,,,,Clear,72000.0,,,,,,,,,
KRDR,01-20-2022,11:56,METAR,Normal,260,3.0,,,9999.0,,-26.8,-30.9,30.64,1041.6,,,,,,,,,,,,,,,Clear,72000.0,,,,,,,,,
KRDR,01-20-2022,10:56,METAR,Normal,240,5.0,,,9999.0,,-27.1,-31.0,30.64,1041.6,,,,,,,,,,,,,,,Clear,72000.0,,,,,,,,,
KRDR,01-20-2022,09:56,METAR,Normal,230,3.0,,,9999.0,,-27.1,-31.0,30.66,1042.2,,,,,,,,,,,,,,,Clear,72000.0,,,,,,,,,
KRDR,01-20-2022,08:56,METAR,Normal,280,7.0,,,9999.0,,-27.1,-30.9,30.66,1042.2,,,,,,,,,,,,,,,Clear,72000.0,,,,,,,,,
KRDR,01-20-2022,07:56,METAR,Normal,250,3.0,,,9999.0,,-26.7,-30.8,30.65,1041.8,,,,,,,,,,,,,,,Clear,72000.0,,,,,,,,,
KRDR,01-20-2022,06:56,METAR,Normal,280,8.0,,,9999.0,,-25.9,-30.0,30.65,1041.8,,,,,,,,,,,,,,,Clear,72000.0,,,,,,,,,
KRDR,01-20-2022,05:56,METAR,Normal,280,9.0,,,9999.0,,-25.2,-29.5,30.65,1041.7,,,,,,,,,,,,,,,Clear,72000.0,,,,,,,,,
KRDR,01-20-2022,04:56,METAR,Normal,280,9.0,,,9999.0,,-25.1,-29.4,30.65,1041.7,,,,,,,,,,,,,,,Clear,72000.0,,,,,,,,,
KRDR,01-20-2022,03:56,METAR,Normal,280,9.0,,,9999.0,,-24.9,-29.3,30.65,1041.7,,,,,,,,,,,,,,,Clear,72000.0,,,,,,,,,
KRDR,01-20-2022,02:56,METAR,Normal,270,7.0,,,9999.0,,-24.7,-29.0,30.65,1041.8,,,,,,,,,,,,,,,Clear,72000.0,,,,,,,,,
KRDR,01-20-2022,01:56,METAR,Normal,270,8.0,,,9999.0,,-24.6,-28.7,30.64,1041.4,,,,,,,,,,,,,,,Clear,72000.0,,,,,,,,,
KRDR,01-20-2022,00:56,METAR,Normal,270,6.0,,,9999.0,,-24.1,-28.4,30.63,1041.0,,,,,,,,,,,,,,,Clear,72000.0,,,,,,,,,
KRDR,01-19-2022,23:56,METAR,Normal,280,12.0,,,9999.0,,-23.1,-27.6,30.61,1040.3,,,,,,,,,,,,,,,Clear,72000.0,,,,,,,,,
KRDR,01-19-2022,22:54,METAR,Normal,300,8.0,,,9999.0,,-22.3,-27.0,30.60,1039.8,,,,,,,,,,,,,,,Clear,72000.0,,,,,,,,,
KRDR,01-19-2022,22:01,SPECI,Normal,300,12.0,,,9999.0,,-21.0,-26.0,30.59,1039.5,,,,,,,,,,,,,,,,,1000.0,FEW,1000.0,,,,,,
KRDR,01-19-2022,21:56,METAR,Normal,310,12.0,,,9999.0,,-21.3,-26.2,30.58,1039.1,,,,,,,,,,,,,,,Clear,72000.0,,,,,,,,,
KRDR,01-19-2022,20:56,METAR,Normal,310,11.0,,,9999.0,,-21.0,-26.1,30.57,1038.8,,,,,,,,,,,,,,,Clear,72000.0,,,,,,,,,
KRDR,01-19-2022,19:56,METAR,Normal,300,12.0,,,9999.0,,-21.2,-26.3,30.56,1038.4,,,,,,,,,,,,,,,Clear,72000.0,,,,,,,,,
KRDR,01-19-2022,18:56,METAR,Normal,300,14.0,,,9999.0,,-21.2,-26.3,30.55,1038.0,,,,,,,,,,,,,,,Clear,72000.0,,,,,,,,,
KRDR,01-19-2022,17:56,METAR,Normal,310,14.0,,,9999.0,,-21.3,-26.5,30.54,1037.7,,,,,,,,,,,,,,,Clear,72000.0,,,,,,,,,
KRDR,01-19-2022,16:56,METAR,Normal,310,13.0,,,9999.0,,-21.4,-26.5,30.54,1037.7,,,,,,,,,,,,,,,Clear,72000.0,,,,,,,,,
KRDR,01-19-2022,15:56,METAR,Normal,300,12.0,,,9999.0,,-21.8,-26.7,30.52,1037.0,,,,,,,,,,,,,,,Clear,72000.0,,,,,,,,,
KRDR,01-19-2022,14:56,METAR,Normal,310,14.0,,,9999.0,,-22.3,-26.7,30.47,1035.3,,,,,,,,,,,,,,,Clear,72000.0,,,,,,,,,
KRDR,01-19-2022,13:56,METAR,Normal,310,9.0,,,9999.0,,-21.7,-25.8,30.45,1034.5,,,,,,,,,,,,,,,Clear,72000.0,,,,,,,,,
KRDR,01-19-2022,12:58,METAR,Normal,320,15.0,,,9999.0,,-21.2,-25.3,30.41,1033.0,,,,,,,,,,,,,,,Clear,72000.0,,,,,,,,,
KRDR,01-19-2022,11:57,METAR,Normal,320,14.0,,,9999.0,,-20.2,-24.5,30.38,1031.9,,,,,,,,,,,,,,.01 IN,Clear,72000.0,,,,,,,,,
KRDR,01-19-2022,10:59,METAR,Normal,330,15.0,,,9999.0,,-19.8,-23.9,30.35,1030.9,,,,,,,,,,,,,,,,1300.0,1400.0,BKN,1400.0,BKN,6000.0,OVC,7500.0,,
KRDR,01-19-2022,10:40,SPECI,Normal,320,11.0,,,9999.0,,-20.0,-24.0,30.34,1030.6,,,,,,,,,,,,,,,,1100.0,1100.0,OVC,1100.0,,,,,,
KRDR,01-19-2022,09:58,METAR,Normal,320,9.0,,,9999.0,,-20.7,-24.8,30.33,1030.2,,,,,,,,,,,,,,,,,2000.0,FEW,2000.0,,,,,,
KRDR,01-19-2022,08:58,METAR,Normal,330,14.0,,,9999.0,,-20.3,-24.4,30.27,1028.1,,,,,,,,,,,,,,,,,2000.0,FEW,2000.0,,,,,,
KRDR,01-19-2022,07:56,METAR,Normal,330,15.0,,340/26KTS,9999.0,,-19.9,-24.0,30.24,1027.0,,,,,,,,,,,,,,,,,1600.0,SCT,1600.0,,,,,,
KRDR,01-19-2022,06:58,METAR,Normal,330,20.0,25.0,310/26KTS,9999.0,,-19.4,-23.4,30.20,1025.5,,,,,,,,,,,,,,,,1600.0,1100.0,FEW,1100.0,BKN,1600.0,,,,
KRDR,01-19-2022,05:52,METAR,Normal,330,19.0,,330/28KTS,9999.0,Blowing or Drifting Snow or Sand,-19.2,-23.2,30.16,1024.1,27,,,,,,,,,,,,,,,1600.0,1200.0,FEW,1200.0,BKN,1600.0,,,,
KRDR,01-19-2022,04:52,METAR,Normal,330,25.0,,330/31KTS,9999.0,Blowing or Drifting Snow or Sand,-18.9,-22.9,30.11,1022.2,27,,,,,,,,,,,,,,,1600.0,1000.0,FEW,1000.0,BKN,1600.0,,,,
KRDR,01-19-2022,03:53,METAR,Normal,330,25.0,31.0,310/33KTS,6400.0,Blowing or Drifting Snow or Sand,-18.2,-21.9,30.06,1020.5,27,,,,,,,,,,,,,,,1600.0,1000.0,FEW,1000.0,BKN,1600.0,,,,
KRDR,01-19-2022,02:58,METAR,Normal,330,21.0,,340/33KTS,9999.0,Blowing or Drifting Snow or Sand,-17.5,-20.9,30.03,1019.4,27,,,,,,,,,,,,,,,1100.0,700.0,SCT,700.0,OVC,1100.0,,,,
KRDR,01-19-2022,01:55,METAR,Normal,330,24.0,31.0,310/33KTS,6400.0,Blowing or Drifting Snow or Sand,-16.7,-20.3,29.98,1017.6,27,,,,,,,,,,,,,,,2700.0,1000.0,SCT,1000.0,SCT,2000.0,BKN,2700.0,,
KRDR,01-19-2022,00:56,METAR,Normal,330,27.0,34.0,340/35KTS,1600.0,Blowing or Drifting Snow or Sand,-15.7,-18.9,29.93,1015.9,27,,,,,,,,,,,,,,,1200.0,1200.0,BKN,1200.0,OVC,2600.0,,,,
KRDR,01-19-2022,00:42,SPECI,Normal,330,26.0,31.0,,2000.0,Blowing or Drifting Snow or Sand,-15.0,-18.0,29.93,1015.9,27,,,,,,,,,,,,,,,1700.0,1000.0,SCT,1000.0,BKN,1700.0,,,,
KRDR,01-19-2022,00:30,SPECI,Normal,330,23.0,35.0,,1200.0,Blowing or Drifting Snow or Sand,-15.0,-18.0,29.91,1015.2,27,,,,,,,,,,,,,,,1600.0,1000.0,SCT,1000.0,BKN,1600.0,,,,
KRDR,01-18-2022,23:55,METAR,Normal,320,23.0,31.0,330/33KTS,400.0,Blowing or Drifting Snow or Sand,-14.0,-16.7,29.88,1014.1,27,,,,,,,,,,,,,,,1700.0,600.0,SCT,600.0,BKN,1700.0,,,,
KRDR,01-18-2022,22:56,METAR,Normal,320,20.0,30.0,310/32KTS,3200.0,Blowing or Drifting Snow or Sand,-13.3,-16.7,29.82,1012.0,27,,,,,,,,,,,,,,,1400.0,700.0,SCT,700.0,BKN,1400.0,,,,
KRDR,01-18-2022,22:41,SPECI,Normal,320,24.0,30.0,,3200.0,Blowing or Drifting Snow or Sand,-13.0,-17.0,29.81,1011.7,27,,,,,,,,,,,,,,,1400.0,600.0,SCT,600.0,BKN,1400.0,,,,
KRDR,01-18-2022,22:29,SPECI,Normal,320,24.0,31.0,,3200.0,,-13.0,-16.0,29.80,1011.3,,,,,,,,,,,,,,,,600.0,600.0,BKN,600.0,OVC,1400.0,,,,
KRDR,01-18-2022,21:57,METAR,Normal,320,24.0,32.0,300/39KTS,400.0,Blowing or Drifting Snow or Sand,-13.0,-15.8,29.77,1010.3,27,,,,,,,,,,,,,,,1300.0,700.0,SCT,700.0,BKN,1300.0,,,,
KRDR,01-18-2022,21:48,SPECI,Normal,320,19.0,32.0,,400.0,Blowing or Drifting Snow or Sand,-13.0,-16.0,29.76,1010.1,27,,,,,,,,,,,,,,,1300.0,700.0,SCT,700.0,BKN,1300.0,,,,
KRDR,01-18-2022,21:43,SPECI,Normal,320,24.0,32.0,,1600.0,Blowing or Drifting Snow or Sand,-13.0,-16.0,29.76,1010.1,27,,,,,,,,,,,,,,,1000.0,1000.0,BKN,1000.0,,,,,,
KRDR,01-18-2022,20:55,METAR,Normal,320,22.0,32.0,290/37KTS,400.0,Blowing or Drifting Snow or Sand,-11.8,-15.2,29.70,1008.0,27,,,,,,,,,,,,,,,1700.0,1000.0,SCT,1000.0,BKN,1700.0,,,,
KRDR,01-18-2022,20:47,SPECI,Normal,320,27.0,34.0,,400.0,Blowing or Drifting Snow or Sand,-12.0,-15.0,29.69,1007.7,27,,,,,,,,,,,,,,,1500.0,800.0,SCT,800.0,BKN,1500.0,,,,
KRDR,01-18-2022,19:57,METAR,Normal,320,24.0,33.0,290/39KTS,2400.0,Blowing or Drifting Snow or Sand,-10.4,-14.0,29.63,1005.5,27,,,,,,,,,,,,,,,1500.0,800.0,SCT,800.0,BKN,1500.0,,,,
KRDR,01-18-2022,19:46,SPECI,Normal,330,24.0,31.0,,2200.0,Blowing or Drifting Snow or Sand,-10.0,-14.0,29.63,1005.5,27,,,,,,,,,,,,,,,800.0,800.0,SCT,800.0,BKN,1300.0,,,,
KRDR,01-18-2022,19:39,SPECI,Normal,320,24.0,36.0,,1000.0,Blowing or Drifting Snow or Sand,-10.0,-14.0,29.62,1005.2,27,,,,,,,,,,,,,,,1300.0,600.0,SCT,600.0,BKN,1300.0,,,,
KRDR,01-18-2022,18:56,METAR,Normal,320,27.0,36.0,290/39KTS,400.0,Blowing or Drifting Snow or Sand,-9.3,-12.9,29.59,1004.2,27,,,,,,,,,,,,,,,1000.0,1000.0,BKN,1000.0,BKN,2800.0,,,,
KRDR,01-18-2022,18:46,SPECI,Normal,320,29.0,33.0,,1000.0,Blowing or Drifting Snow or Sand,-9.0,-12.0,29.58,1003.8,27,,,,,,,,,,,,,,,1000.0,1000.0,BKN,1000.0,OVC,1500.0,,,,
KRDR,01-18-2022,17:55,METAR,Normal,320,25.0,33.0,310/36KTS,1600.0,Blowing or Drifting Snow or Sand,-6.8,-9.8,29.54,1002.4,27,,,,,,,,,,TRACE,,TRACE,,,500.0,500.0,FEW,500.0,BKN,1400.0,,,,
KRDR,01-18-2022,17:20,SPECI,Normal,330,26.0,32.0,,800.0,Blowing or Drifting Snow or Sand,-5.0,-8.0,29.51,1001.3,27,,,,,,,,,,,,,,,1400.0,1500.0,OVC,1500.0,,,,,,
KRDR,01-18-2022,16:56,METAR,Normal,320,19.0,27.0,320/30KTS,9999.0,Blowing or Drifting Snow or Sand,-3.8,-6.8,29.49,1000.6,27,,,,,,,,,,,,,,,1300.0,1300.0,OVC,1300.0,,,,,,
KRDR,01-18-2022,16:32,SPECI,Normal,310,21.0,30.0,,9999.0,,-3.0,-6.0,29.45,999.2,,,,,,,,,,,,,,,,1100.0,1200.0,OVC,1200.0,,,,,,
KRDR,01-18-2022,15:58,METAR,Normal,320,15.0,,,9999.0,,-4.3,-6.1,29.41,997.9,,,,,,,,,,,,,,,,1000.0,1000.0,BKN,1000.0,,,,,,
KRDR,01-18-2022,14:56,METAR,Normal,310,6.0,,,9999.0,,-3.8,-5.2,29.36,996.2,,,,,,,,,,,TRACE,TRACE,,,,14000.0,12000.0,SCT,12000.0,BKN,14000.0,OVC,18000.0,,
KRDR,01-18-2022,14:09,SPECI,Variable,,6.0,,,9999.0,Mist,-4.0,-5.0,29.33,995.1,10,,,,,,,,,,,,,,,8500.0,8500.0,OVC,8600.0,,,,,,
KRDR,01-18-2022,13:57,METAR,Normal,190,5.0,,,9999.0,Mist,-3.7,-4.8,29.33,995.1,,10,,,,,,,,,,,,,,8000.0,5500.0,FEW,5500.0,BKN,8000.0,OVC,9600.0,,
KRDR,01-18-2022,13:38,SPECI,Normal,220,3.0,,,9999.0,Mist,-3.0,-5.0,29.35,995.8,10,,,,,,,,,,,,,,,9500.0,600.0,SCT,600.0,OVC,9600.0,,,,
KRDR,01-18-2022,12:56,METAR,Normal,210,7.0,,,9999.0,Mist,-3.0,-4.3,29.36,996.2,,,,10,,,,,,,,,,,,600.0,600.0,OVC,600.0,,,,,,
KRDR,01-18-2022,12:26,SPECI,Normal,230,6.0,,,9999.0,Mist,-3.0,-4.0,29.37,996.4,10,,,,,,,,,,,,,,,1000.0,7000.0,SCT,7000.0,OVC,1000.0,,,,
KRDR,01-18-2022,11:58,METAR,Normal,200,10.0,,,9999.0,,-2.8,-4.2,29.37,996.4,,,,,,,,,,,,,TRACE,,,2000.0,700.0,SCT,700.0,BKN,2000.0,,,,
KRDR,01-18-2022,10:57,METAR,Normal,160,12.0,,,9999.0,,-2.6,-4.0,29.38,996.8,,,,,,,,,,,,,,,,10000.0,8000.0,SCT,8000.0,BKN,10000.0,,,,
KRDR,01-18-2022,09:56,METAR,Normal,150,9.0,,,9999.0,,-4.2,-5.3,29.43,998.5,,,,,,,,,,,TRACE,,,,,7000.0,900.0,SCT,900.0,BKN,7000.0,OVC,9100.0,,
KRDR,01-18-2022,09:40,SPECI,Normal,160,5.0,,,9999.0,,-5.0,-7.0,29.45,999.2,,,,,,,,,,,,,,,,1000.0,1000.0,OVC,1000.0,,,,,,
KRDR,01-18-2022,09:31,SPECI,Normal,180,3.0,,,9999.0,Light Snow,-5.0,-7.0,29.46,999.6,,,,71,,,,,,,,,,,,1000.0,1000.0,OVC,1000.0,,,,,,
KRDR,01-18-2022,08:56,METAR,Calm,,0.0,,,9999.0,,-5.6,-6.8,29.50,1000.9,,,,,,,,,,,,TRACE,,,,1200.0,1200.0,OVC,1200.0,,,,,,
KRDR,01-18-2022,07:56,METAR,Calm,,0.0,,,9999.0,,-6.4,-7.8,29.53,1002.0,,,,,,,,,,,,,,,,7500.0,1300.0,SCT,1300.0,OVC,7500.0,,,,
KRDR,01-18-2022,06:56,METAR,Normal,40,4.0,,,9999.0,,-7.5,-8.9,29.58,1003.6,,,,,,,,,,,,,,,,3400.0,3400.0,OVC,3400.0,,,,,,
KRDR,01-18-2022,05:56,METAR,Calm,,0.0,,,9999.0,,-7.9,-9.4,29.63,1005.3,,,,,,,,,,,TRACE,,TRACE,,,600.0,600.0,BKN,600.0,OVC,7000.0,,,,
KRDR,01-18-2022,04:57,SPECI,Normal,360,3.0,,,9999.0,Light Snow,-8.0,-10.0,29.66,1006.3,71,,,,,,,,,,,,,,,6500.0,6500.0,OVC,6500.0,,,,,,
KRDR,01-18-2022,04:56,METAR,Calm,,0.0,,,9999.0,,-8.1,-9.8,29.66,1006.3,,,,,,,,,,,,,,,,6500.0,6500.0,OVC,6500.0,,,,,,
KRDR,01-18-2022,03:56,METAR,Calm,,0.0,,,9999.0,,-8.3,-10.0,29.70,1007.7,,,,,,,,,,,,,,,,1200.0,1200.0,BKN,1200.0,OVC,7500.0,,,,
KRDR,01-18-2022,02:56,METAR,Normal,20,5.0,,,9999.0,,-8.4,-10.1,29.74,1009.1,,,,,,,,,,,,,,,,7500.0,1200.0,FEW,1200.0,BKN,7500.0,OVC,9100.0,,
KRDR,01-18-2022,02:16,SPECI,Normal,10,5.0,,,9999.0,,-8.0,-10.0,29.76,1009.8,,,,,,,,,,,,,,,,8000.0,800.0,SCT,800.0,OVC,8000.0,,,,
KRDR,01-18-2022,01:56,METAR,Normal,360,4.0,,,9999.0,,-8.4,-10.1,29.77,1010.1,,,,,,,,,,,TRACE,,,,,800.0,800.0,OVC,800.0,,,,,,
KRDR,01-18-2022,00:56,METAR,Normal,20,8.0,,,9999.0,Light Snow,-8.3,-10.1,29.79,1010.8,71,,,,,,,,,,TRACE,,,,,6000.0,1000.0,FEW,1000.0,OVC,6000.0,,,,
KRDR,01-17-2022,23:56,METAR,Normal,20,10.0,,,9999.0,Light Snow,-7.8,-9.6,29.80,1011.1,71,,,,,,,,,,.01 IN,,.01 IN,,,6000.0,6000.0,BKN,6000.0,OVC,7500.0,,,,
KRDR,01-17-2022,22:56,METAR,Normal,20,7.0,,,9999.0,Light Snow,-7.0,-8.8,29.80,1011.0,71,,,,,,,,,,TRACE,,,,,6000.0,6000.0,BKN,6000.0,OVC,7500.0,,,,
KRDR,01-17-2022,22:42,SPECI,Normal,10,9.0,,,9999.0,,-7.0,-9.0,29.80,1011.0,,,,,,,,,,,,,,,,6000.0,700.0,SCT,700.0,OVC,6000.0,,,,
KRDR,01-17-2022,22:14,SPECI,Normal,10,9.0,,,9999.0,Light Snow,-7.0,-9.0,29.81,1011.4,71,,,,,,,,,,,,,,,800.0,800.0,OVC,800.0,,,,,,
KRDR,01-17-2022,21:56,METAR,Normal,350,7.0,,,9999.0,,-6.7,-8.5,29.81,1011.4,,,,,,,,,,,,,,,,800.0,800.0,OVC,800.0,,,,,,
KRDR,01-17-2022,20:56,METAR,Normal,360,9.0,,,9999.0,,-6.1,-8.2,29.81,1011.4,,,,,,,,,,,,,,,,800.0,800.0,BKN,800.0,OVC,8600.0,,,,
KRDR,01-17-2022,19:56,METAR,Normal,360,10.0,,,9999.0,,-5.7,-7.7,29.80,1011.0,,,,,,,,,,,,,,,,800.0,800.0,BKN,800.0,OVC,7000.0,,,,
KRDR,01-17-2022,18:56,METAR,Normal,10,10.0,,,9999.0,,-3.8,-5.8,29.83,1012.1,,,,,,,,,,,,,,,,700.0,700.0,OVC,700.0,,,,,,
KRDR,01-17-2022,18:28,SPECI,Normal,10,12.0,,,9999.0,,-3.0,-5.0,29.81,1011.4,,,,,,,,,,,,,,,,2500.0,2500.0,OVC,2500.0,,,,,,
KRDR,01-17-2022,18:06,SPECI,Normal,20,12.0,,,9999.0,,-3.0,-5.0,29.81,1011.4,,,,,,,,,,,,,,,,900.0,900.0,BKN,900.0,OVC,2100.0,,,,
KRDR,01-17-2022,17:56,METAR,Normal,10,13.0,,,9999.0,,-2.8,-4.8,29.81,1011.4,,,,,,,,,,,,,,,,2100.0,900.0,SCT,900.0,OVC,2100.0,,,,
KRDR,01-17-2022,16:56,METAR,Normal,10,10.0,,,9999.0,,-2.5,-4.7,29.82,1011.7,,,,,,,,,,,,,,,,1100.0,1100.0,BKN,1100.0,,,,,,
KRDR,01-17-2022,16:36,SPECI,Normal,360,7.0,,,9999.0,,-3.0,-5.0,29.81,1011.4,,,,,,,,,,,,,,,,1000.0,1000.0,BKN,1000.0,BKN,1600.0,,,,
KRDR,01-17-2022,15:56,METAR,Normal,320,5.0,,,9999.0,,-2.9,-5.4,29.80,1011.0,,,,,,,,,,,,,,,,1500.0,1500.0,BKN,1500.0,BKN,5500.0,,,,
KRDR,01-17-2022,15:26,SPECI,Normal,300,4.0,,,9999.0,,-3.0,-6.0,29.79,1010.7,,,,,,,,,,,,,,,,1200.0,1200.0,OVC,1200.0,,,,,,
KRDR,01-17-2022,14:56,METAR,Normal,310,7.0,,,9999.0,,-3.3,-5.8,29.80,1011.0,,,,,,,,,,,,,,,,1100.0,1100.0,OVC,1100.0,,,,,,
KRDR,01-17-2022,14:36,SPECI,Normal,310,7.0,,,9999.0,,-3.0,-6.0,29.80,1011.0,,,,,,,,,,,,,,,,1200.0,1200.0,BKN,1200.0,OVC,4400.0,,,,
KRDR,01-17-2022,13:56,METAR,Normal,310,7.0,,,9999.0,,-3.0,-5.8,29.79,1010.7,,,,,,,,,,,,,,,,4400.0,4400.0,BKN,4400.0,,,,,,
KRDR,01-17-2022,12:56,METAR,Normal,300,7.0,,,9999.0,,-3.2,-5.8,29.79,1010.7,,,,,,,,,,,,,,,,4100.0,4100.0,BKN,4100.0,OVC,7000.0,,,,
KRDR,01-17-2022,11:56,METAR,Normal,350,7.0,,,9999.0,,-1.9,-5.1,29.77,1010.0,,,,,,,,,,,,,,,,10000.0,5500.0,FEW,5500.0,BKN,10000.0,,,,
KRDR,01-17-2022,10:56,METAR,Normal,280,9.0,,,9999.0,,-1.7,-4.9,29.76,1009.6,,,,,,,,,,,,,,,,12000.0,12000.0,OVC,12000.0,,,,,,
KRDR,01-17-2022,09:56,METAR,Normal,280,10.0,,,9999.0,,-1.5,-4.3,29.77,1009.8,,,,,,,,,,,,,,,,5000.0,5000.0,BKN,5000.0,BKN,19000.0,,,,
KRDR,01-17-2022,08:56,METAR,Normal,250,7.0,,,9999.0,,-1.6,-3.8,29.79,1010.5,,,,,,,,,,,,,,,,4900.0,4900.0,BKN,4900.0,,,,,,
KRDR,01-17-2022,07:56,METAR,Normal,240,8.0,,,9999.0,,-2.3,-4.2,29.79,1010.5,,,,,,,,,,,,,,,,5000.0,2500.0,FEW,2500.0,SCT,3100.0,BKN,5000.0,,
KRDR,01-17-2022,07:36,SPECI,Normal,240,6.0,,,9999.0,,-4.0,-5.0,29.81,1011.3,,,,,,,,,,,,,,,,2500.0,2500.0,BKN,2500.0,BKN,5500.0,,,,
KRDR,01-17-2022,06:56,METAR,Normal,240,10.0,,,9999.0,,-3.6,-5.9,29.82,1011.6,,,,,,,,,,,,,,,,6000.0,6000.0,BKN,6000.0,,,,,,
KRDR,01-17-2022,05:56,METAR,Normal,220,10.0,,,9999.0,,-5.2,-7.2,29.83,1012.0,,,,,,,,,,,,,,,,6000.0,6000.0,BKN,6000.0,,,,,,
KRDR,01-17-2022,04:56,METAR,Normal,190,7.0,,,9999.0,,-6.6,-8.6,29.86,1013.1,,,,,,,,,,,,,,,,,3000.0,FEW,3000.0,,,,,,
KRDR,01-17-2022,04:46,SPECI,Normal,180,7.0,,,9999.0,,-6.0,-8.0,29.87,1013.3,,,,,,,,,,,,,,,,,2900.0,SCT,2900.0,,,,,,
KRDR,01-17-2022,03:56,METAR,Normal,180,6.0,,,9999.0,,-5.4,-7.7,29.89,1013.9,,,,,,,,,,,,,,,,2800.0,2800.0,OVC,2800.0,,,,,,
KRDR,01-17-2022,03:16,SPECI,Normal,180,6.0,,,9999.0,,-6.0,-8.0,29.91,1014.7,,,,,,,,,,,,,,,,2900.0,2900.0,OVC,2900.0,,,,,,
KRDR,01-17-2022,02:56,METAR,Normal,170,6.0,,,9999.0,,-5.6,-8.0,29.92,1015.0,,,,,,,,,,,,,,,,3000.0,3000.0,OVC,3000.0,,,,,,
KRDR,01-17-2022,01:56,METAR,Calm,,0.0,,,9999.0,,-5.7,-8.3,29.94,1015.7,,,,,,,,,,,,,,,,2900.0,2900.0,OVC,2900.0,,,,,,
KRDR,01-17-2022,00:56,METAR,Calm,,0.0,,,9999.0,,-5.5,-7.8,29.94,1015.7,,,,,,,,,,,,,,,,3100.0,3100.0,OVC,3100.0,,,,,,
KRDR,01-17-2022,00:36,SPECI,Normal,330,3.0,,,9999.0,,-5.0,-8.0,29.95,1016.0,,,,,,,,,,,,,,,,3000.0,3000.0,OVC,3000.0,,,,,,
KRDR,01-16-2022,23:56,METAR,Normal,330,5.0,,,9999.0,,-5.3,-7.9,29.95,1016.0,,,,,,,,,,,,,,,,2900.0,2900.0,OVC,2900.0,,,,,,
KRDR,01-16-2022,23:26,SPECI,Normal,350,5.0,,,9999.0,,-5.0,-8.0,29.94,1015.7,,,,,,,,,,,,,,,,2900.0,2900.0,OVC,2900.0,,,,,,
KRDR,01-16-2022,22:56,METAR,Normal,360,10.0,,,9999.0,,-4.9,-8.0,29.94,1015.7,,,,,,,,,,,,,,,,3000.0,3000.0,OVC,3000.0,,,,,,
KRDR,01-16-2022,22:16,SPECI,Normal,10,12.0,,,9999.0,,-4.0,-7.0,29.93,1015.3,,,,,,,,,,,,,,,,3100.0,3100.0,OVC,3100.0,,,,,,
KRDR,01-16-2022,21:56,METAR,Normal,360,10.0,,,9999.0,,-3.9,-7.0,29.92,1015.0,,,,,,,,,,,,,,,,2200.0,2200.0,SCT,2200.0,OVC,2900.0,,,,
KRDR,01-16-2022,21:04,SPECI,Normal,350,17.0,24.0,,9999.0,,-3.0,-6.0,29.89,1013.9,,,,,,,,,,,,,,,,2300.0,2300.0,OVC,2300.0,,,,,,
KRDR,01-16-2022,20:56,METAR,Normal,340,15.0,,320/27KTS,9999.0,,-2.5,-6.3,29.89,1013.9,,,,,,,,,,,,,,,,2400.0,2500.0,OVC,2500.0,,,,,,
KRDR,01-16-2022,19:56,METAR,Normal,340,16.0,,330/26KTS,9999.0,,-2.6,-5.9,29.88,1013.8,,,,,,,,,,,,,,,,2200.0,2200.0,OVC,2200.0,,,,,,
KRDR,01-16-2022,19:18,SPECI,Normal,350,21.0,25.0,,9999.0,,-3.0,-6.0,29.87,1013.4,,,,,,,,,,,,,,,,2000.0,1200.0,FEW,1200.0,OVC,2000.0,,,,
KRDR,01-16-2022,19:16,SPECI,Normal,350,19.0,24.0,,9999.0,,-3.0,-6.0,29.87,1013.4,,,,,,,,,,,,,,,,1100.0,1000.0,FEW,1000.0,OVC,2000.0,,,,
KRDR,01-16-2022,18:56,METAR,Normal,360,19.0,23.0,010/27KTS,9999.0,,-2.7,-4.7,29.87,1013.4,,,,,,,,,,,,,,,,1100.0,1100.0,OVC,1100.0,,,,,,
KRDR,01-16-2022,18:50,SPECI,Normal,350,15.0,23.0,,9999.0,,-3.0,-5.0,29.87,1013.4,,,,,,,,,,,,,,,,1100.0,1100.0,OVC,1100.0,,,,,,
KRDR,01-16-2022,18:46,SPECI,Normal,350,18.0,,,9999.0,,-3.0,-5.0,29.87,1013.4,,,,,,,,,,,,,,,,1100.0,1100.0,OVC,1100.0,,,,,,
KRDR,01-16-2022,18:24,SPECI,Normal,360,15.0,,,9999.0,,-2.0,-4.0,29.85,1012.7,,,,,,,,,,,,,,,,1000.0,1100.0,OVC,1100.0,,,,,,
KRDR,01-16-2022,18:13,SPECI,Normal,350,18.0,,,9999.0,,-2.0,-4.0,29.85,1012.7,,,,,,,,,,,,,,,,1100.0,1100.0,OVC,1100.0,,,,,,
KRDR,01-16-2022,18:00,SPECI,Normal,350,19.0,25.0,,9999.0,,-2.0,-4.0,29.85,1012.7,,,,,,,,,,,,,,,,1100.0,1100.0,BKN,1100.0,OVC,1700.0,,,,
KRDR,01-16-2022,17:59,SPECI,Normal,350,19.0,25.0,,9999.0,,-2.0,-4.0,29.85,1012.7,,,,,,,,,,,,,,,,1100.0,1300.0,OVC,1300.0,,,,,,
KRDR,01-16-2022,17:57,SPECI,Normal,350,19.0,25.0,,9999.0,Light Drizzle,-2.0,-4.0,29.85,1012.7,51,,,,,,,,,,,,,,,1100.0,1100.0,BKN,1100.0,OVC,1700.0,,,,
KRDR,01-16-2022,17:56,METAR,Normal,360,17.0,25.0,340/30KTS,9999.0,,-2.0,-4.3,29.85,1012.7,,,,,,,,,,,TRACE,,TRACE,,,1200.0,1300.0,OVC,1300.0,,,,,,
KRDR,01-16-2022,17:22,SPECI,Normal,360,23.0,30.0,,8000.0,Blowing or Drifting Snow or Sand,-2.0,-4.0,29.84,1012.4,27,,,,,,,,,,,,,,,1300.0,1300.0,OVC,1300.0,,,,,,
KRDR,01-16-2022,16:56,METAR,Normal,360,19.0,26.0,330/29KTS,9999.0,Light Snow,-1.1,-3.0,29.82,1011.7,71,,,,,,,,,,TRACE,,,,,1000.0,1000.0,BKN,1000.0,OVC,2000.0,,,,
KRDR,01-16-2022,16:43,SPECI,Normal,350,18.0,,,9999.0,Light Snow,-1.0,-3.0,29.81,1011.4,71,,,,,,,,,,,,,,,700.0,700.0,BKN,700.0,OVC,3000.0,,,,
KRDR,01-16-2022,16:00,SPECI,Normal,360,18.0,26.0,,2000.0,Light Snow/Mist,0.0,-1.0,29.78,1010.3,71,10,,,,,,,,,,,,,,200.0,200.0,BKN,200.0,,,,,,
KRDR,01-16-2022,15:56,METAR,Normal,330,16.0,,360/29KTS,3600.0,Light Snow/Mist,0.3,-0.9,29.77,1010.0,71,10,,,,,,,,,TRACE,,,,,300.0,300.0,BKN,300.0,OVC,800.0,,,,
KRDR,01-16-2022,14:56,METAR,Normal,320,15.0,,,1800.0,Light Snow/Mist,0.2,-0.9,29.74,1009.0,71,10,,,,,,,,,TRACE,TRACE,,,,200.0,200.0,BKN,200.0,OVC,2200.0,,,,
KRDR,01-16-2022,14:40,SPECI,Normal,320,15.0,,,3200.0,Light Snow,0.0,-1.0,29.73,1008.6,,,,71,,,,,,,,,,,,1900.0,300.0,SCT,300.0,SCT,1300.0,OVC,2200.0,,
KRDR,01-16-2022,13:56,METAR,Normal,300,16.0,22.0,,9999.0,Light Rain,0.8,-2.4,29.71,1008.0,61,,,,,,,,,,TRACE,,,,,4700.0,3000.0,SCT,3000.0,OVC,4700.0,,,,
KRDR,01-16-2022,13:50,SPECI,Normal,310,15.0,21.0,,9999.0,Light Snow,1.0,-2.0,29.71,1008.0,71,,,,,,,,,,,,,,,4700.0,3000.0,SCT,3000.0,OVC,4700.0,,,,
KRDR,01-16-2022,13:41,SPECI,Normal,310,14.0,21.0,,9999.0,,1.0,-2.0,29.70,1007.6,,,,,,,,,,,,,,,,5000.0,3000.0,SCT,3000.0,SCT,4300.0,OVC,5000.0,,
KRDR,01-16-2022,12:56,METAR,Normal,300,15.0,,,9999.0,,0.4,-3.0,29.69,1007.4,,,,,,,,,,,,,,,,4300.0,4300.0,OVC,4300.0,,,,,,
KRDR,01-16-2022,11:56,METAR,Normal,310,12.0,,,9999.0,,0.2,-3.2,29.68,1007.0,,,,,,,,,,,,,,,,4500.0,4500.0,BKN,4500.0,BKN,5000.0,,,,
KRDR,01-16-2022,10:56,METAR,Normal,290,15.0,,,9999.0,,-0.2,-3.2,29.67,1006.7,,,,,,,,,,,,,,,,,6000.0,SCT,6000.0,,,,,,
KRDR,01-16-2022,09:56,METAR,Normal,290,14.0,,,9999.0,,0.3,-2.9,29.66,1006.3,,,,,,,,,,,,,,,,6000.0,6000.0,BKN,6000.0,,,,,,
KRDR,01-16-2022,08:56,METAR,Normal,290,8.0,,,9999.0,,-0.3,-3.2,29.68,1007.0,,,,,,,,,,,,,,,,16000.0,16000.0,BKN,16000.0,,,,,,
KRDR,01-16-2022,07:56,METAR,Normal,210,6.0,,,9999.0,,-4.8,-6.5,29.69,1007.5,,,,,,,,,,,,,,,,13000.0,13000.0,BKN,13000.0,OVC,16000.0,,,,
KRDR,01-16-2022,06:56,METAR,Normal,210,8.0,,,9999.0,,-4.7,-7.0,29.68,1007.2,,,,,,,,,,,,,,,,10000.0,10000.0,BKN,10000.0,OVC,12000.0,,,,
KRDR,01-16-2022,05:56,METAR,Normal,200,13.0,,,9999.0,,-5.4,-7.7,29.69,1007.6,,,,,,,,,,,,,,,,10000.0,10000.0,OVC,10000.0,,,,,,
KRDR,01-16-2022,04:56,METAR,Normal,200,14.0,,,9999.0,,-6.3,-8.7,29.73,1009.1,,,,,,,,,,,,,,,,10000.0,10000.0,OVC,10000.0,,,,,,
KRDR,01-16-2022,03:56,METAR,Normal,190,17.0,,,9999.0,,-7.1,-9.4,29.76,1010.2,,,,,,,,,,,,,,,,11000.0,11000.0,BKN,11000.0,OVC,13000.0,,,,
KRDR,01-16-2022,03:31,SPECI,Normal,190,17.0,24.0,,9999.0,,-7.0,-10.0,29.78,1011.0,,,,,,,,,,,,,,,,11000.0,11000.0,OVC,11000.0,,,,,,
KRDR,01-16-2022,02:56,METAR,Normal,180,15.0,,160/27KTS,9999.0,,-8.8,-11.2,29.80,1011.8,,,,,,,,,,,,,,,,12000.0,12000.0,OVC,12000.0,,,,,,
KRDR,01-16-2022,01:56,METAR,Normal,190,20.0,26.0,160/30KTS,9999.0,,-9.6,-12.0,29.83,1012.9,,,,,,,,,,,,,,,,11000.0,11000.0,OVC,11000.0,,,,,,
KRDR,01-16-2022,00:56,METAR,Normal,190,23.0,29.0,170/32KTS,8000.0,Blowing or Drifting Snow or Sand,-10.1,-12.6,29.87,1014.3,27,,,,,,,,,,,,,,,12000.0,12000.0,OVC,12000.0,,,,,,
KRDR,01-15-2022,23:59,SPECI,Normal,190,25.0,30.0,,6400.0,Blowing or Drifting Snow or Sand,-10.0,-12.0,29.90,1015.4,27,,,,,,,,,,,,,,,900.0,900.0,OVC,900.0,,,,,,
KRDR,01-15-2022,23:56,METAR,Normal,190,22.0,26.0,160/28KTS,6400.0,Blowing or Drifting Snow or Sand,-9.9,-12.1,29.91,1015.7,27,,,,,,,,,,,,,,,900.0,900.0,OVC,900.0,,,,,,
KRDR,01-15-2022,23:10,SPECI,Normal,180,19.0,25.0,,4800.0,Blowing or Drifting Snow or Sand,-10.0,-12.0,29.95,1017.1,27,,,,,,,,,,,,,,,900.0,900.0,OVC,900.0,,,,,,
KRDR,01-15-2022,22:56,METAR,Normal,180,16.0,,190/30KTS,4800.0,Blowing or Drifting Snow or Sand,-10.3,-12.4,29.96,1017.4,27,,,,,,,,,,,,,,,900.0,900.0,OVC,900.0,,,,,,
KRDR,01-15-2022,22:02,SPECI,Normal,180,24.0,30.0,,4800.0,Blowing or Drifting Snow or Sand,-10.0,-12.0,29.98,1018.2,27,,,,,,,,,,,,,,,900.0,900.0,OVC,900.0,,,,,,
KRDR,01-15-2022,21:56,METAR,Normal,180,20.0,29.0,160/30KTS,6400.0,Blowing or Drifting Snow or Sand,-10.2,-12.4,30.00,1018.9,27,,,,,,,,,,,,,,,900.0,900.0,OVC,900.0,,,,,,
KRDR,01-15-2022,21:16,SPECI,Normal,180,19.0,25.0,,8000.0,Blowing or Drifting Snow or Sand,-10.0,-12.0,30.04,1020.3,27,,,,,,,,,,,,,,,800.0,800.0,OVC,800.0,,,,,,
KRDR,01-15-2022,20:56,METAR,Normal,180,17.0,,,9999.0,,-9.6,-11.8,30.06,1020.9,,,,,,,,,,,,,,,,900.0,900.0,OVC,900.0,,,,,,
KRDR,01-15-2022,20:36,SPECI,Normal,180,14.0,24.0,,9999.0,,-9.0,-12.0,30.09,1021.9,,,,,,,,,,,,,,,,900.0,900.0,OVC,900.0,,,,,,
KRDR,01-15-2022,19:56,METAR,Normal,190,17.0,,,9999.0,,-9.3,-11.7,30.12,1023.0,,,,,,,,,,,,,,,,900.0,900.0,OVC,900.0,,,,,,
KRDR,01-15-2022,19:45,SPECI,Normal,190,17.0,23.0,,8000.0,Blowing or Drifting Snow or Sand,-10.0,-12.0,30.13,1023.4,27,,,,,,,,,,,,,,,900.0,900.0,OVC,900.0,,,,,,
KRDR,01-15-2022,19:36,SPECI,Normal,190,22.0,25.0,,8000.0,Blowing or Drifting Snow or Sand,-10.0,-12.0,30.13,1023.4,27,,,,,,,,,,,,,,,300.0,300.0,BKN,300.0,OVC,900.0,,,,
KRDR,01-15-2022,19:28,SPECI,Normal,190,20.0,24.0,,9999.0,,-10.0,-12.0,30.14,1023.6,,,,,,,,,,,,,,,,900.0,300.0,SCT,300.0,OVC,900.0,,,,
KRDR,01-15-2022,18:56,METAR,Normal,180,17.0,,,9999.0,,-11.2,-13.8,30.18,1025.1,,,,,,,,,,,,,,,,900.0,900.0,OVC,900.0,,,,,,
KRDR,01-15-2022,18:41,SPECI,Normal,180,14.0,,,9999.0,,-11.0,-14.0,30.21,1026.1,,,,,,,,,,,,,,,,900.0,900.0,OVC,900.0,,,,,,
KRDR,01-15-2022,17:56,METAR,Normal,200,13.0,,,9999.0,,-12.0,-15.1,30.26,1027.8,,,,,,,,,,,,,,,,1000.0,1000.0,OVC,1000.0,,,,,,
KRDR,01-15-2022,16:56,METAR,Normal,190,14.0,,,9999.0,,-14.7,-18.2,30.29,1028.9,,,,,,,,,,,,,,,,1200.0,1200.0,OVC,1200.0,,,,,,
KRDR,01-15-2022,16:07,SPECI,Normal,200,13.0,,,9999.0,,-16.0,-19.0,30.34,1030.7,,,,,,,,,,,,,,,,1600.0,1600.0,BKN,1600.0,BKN,18000.0,,,,
KRDR,01-15-2022,15:56,METAR,Normal,190,10.0,,,9999.0,,-16.0,-19.8,30.34,1030.6,,,,,,,,,,,,,,,,18000.0,2000.0,FEW,2000.0,BKN,18000.0,,,,
KRDR,01-15-2022,14:56,METAR,Normal,180,8.0,,,9999.0,,-18.5,-21.6,30.37,1031.7,,,,,,,,,,,,,,,,,18000.0,SCT,18000.0,SCT,22000.0,,,,
KRDR,01-15-2022,13:56,METAR,Normal,200,7.0,,,9999.0,,-18.3,-21.2,30.44,1034.1,,,,,,,,,,,,,,,,,18000.0,SCT,18000.0,,,,,,
KRDR,01-15-2022,12:56,METAR,Normal,190,8.0,,,9999.0,,-19.6,-22.4,30.44,1034.2,,,,,,,,,,,,,,,Clear,72000.0,,,,,,,,,
KRDR,01-15-2022,11:56,METAR,Normal,190,8.0,,,9999.0,,-19.6,-22.2,30.48,1035.4,,,,,,,,,,,,,,,Clear,72000.0,,,,,,,,,
KRDR,01-15-2022,10:56,METAR,Normal,180,7.0,,,9999.0,,-21.1,-23.7,30.48,1035.4,,,,,,,,,,,,,,,Clear,72000.0,,,,,,,,,
KRDR,01-15-2022,09:56,METAR,Normal,180,6.0,,,9999.0,,-22.0,-24.9,30.51,1036.6,,,,,,,,,,,,,,,Clear,72000.0,,,,,,,,,
KRDR,01-15-2022,08:56,METAR,Normal,200,4.0,,,9999.0,,-21.9,-24.6,30.56,1038.3,,,,,,,,,,,,,,,Clear,72000.0,,,,,,,,,
KRDR,01-15-2022,07:56,METAR,Normal,210,4.0,,,9999.0,,-22.8,-25.4,30.57,1038.6,,,,,,,,,,,,,,,Clear,72000.0,,,,,,,,,
KRDR,01-15-2022,06:56,METAR,Normal,230,3.0,,,9999.0,,-22.7,-25.4,30.58,1039.0,,,,,,,,,,,,,,,Clear,72000.0,,,,,,,,,
KRDR,01-15-2022,05:56,METAR,Calm,,0.0,,,9999.0,,-21.7,-24.3,30.60,1039.6,,,,,,,,,,,,,TRACE,,Clear,72000.0,,,,,,,,,
KRDR,01-15-2022,04:56,METAR,Normal,290,4.0,,,9999.0,,-21.5,-24.0,30.61,1039.9,,,,,,,,,,,,,,,Clear,72000.0,,,,,,,,,
KRDR,01-15-2022,03:56,METAR,Calm,,0.0,,,9999.0,,-18.5,-21.3,30.59,1039.0,,,,,,,,,,,,,,,,,6000.0,FEW,6000.0,,,,,,
KRDR,01-15-2022,02:56,METAR,Normal,350,7.0,,,9999.0,,-18.0,-21.0,30.61,1039.7,,,,,,,,,,,,,,,,,6000.0,FEW,6000.0,,,,,,
KRDR,01-15-2022,01:56,METAR,Normal,350,8.0,,,9999.0,,-17.0,-20.1,30.60,1039.3,,,,,,,,,,,,,,,,6000.0,6000.0,BKN,6000.0,,,,,,
KRDR,01-15-2022,00:56,METAR,Normal,350,7.0,,,9999.0,,-17.8,-20.8,30.58,1038.6,,,,,,,,,,,,,,,,,6000.0,SCT,6000.0,,,,,,
KRDR,01-15-2022,00:05,METAR,Normal,360,7.0,,,9999.0,,-16.6,-19.7,30.56,1037.9,,,,,,,,,,,,,,,,5500.0,5500.0,BKN,5500.0,,,,,,
KRDR,01-14-2022,22:56,METAR,Normal,360,9.0,,,9999.0,,-15.9,-19.2,30.53,1036.8,,,,,,,,,,,,,,,,13000.0,13000.0,BKN,13000.0,,,,,,
KRDR,01-14-2022,21:56,METAR,Normal,360,11.0,,,9999.0,,-15.8,-19.4,30.51,1036.1,,,,,,,,,,,,,,,,13000.0,18000.0,SCT,18000.0,BKN,13000.0,,,,
KRDR,01-14-2022,21:45,SPECI,Normal,360,10.0,,,9999.0,,-16.0,-19.0,30.50,1035.8,,,,,,,,,,,,,,,,,12000.0,SCT,12000.0,,,,,,
KRDR,01-14-2022,21:20,SPECI,Normal,330,11.0,,,9999.0,,-16.0,-19.0,30.51,1036.1,,,,,,,,,,,,,,,,,600.0,FEW,600.0,FEW,12000.0,,,,
KRDR,01-14-2022,20:56,METAR,Normal,330,11.0,,,9999.0,,-15.6,-19.4,30.49,1035.4,,,,,,,,,,,,,,,,,18000.0,SCT,18000.0,,,,,,
KRDR,01-14-2022,19:56,METAR,Normal,10,12.0,,,9999.0,,-15.8,-19.6,30.47,1034.7,,,,,,,,,,,,,,,,,10000.0,FEW,10000.0,,,,,,
KRDR,01-14-2022,18:56,METAR,Normal,10,12.0,,,9999.0,,-16.2,-19.8,30.46,1034.4,,,,,,,,,,,,,,,,,20000.0,SCT,20000.0,,,,,,
KRDR,01-14-2022,17:58,METAR,Normal,10,12.0,,,9999.0,,-15.7,-19.0,30.45,1034.1,,,,,,,,,,,,,TRACE,,,12000.0,600.0,SCT,600.0,OVC,12000.0,,,,
KRDR,01-14-2022,16:57,METAR,Normal,10,12.0,,,9999.0,,-15.9,-19.0,30.42,1033.0,,,,,,,,,,,,,,,,10000.0,10000.0,BKN,10000.0,,,,,,
KRDR,01-14-2022,15:56,METAR,Normal,10,14.0,,,9999.0,,-13.8,-17.0,30.38,1031.7,,,,,,,,,,,,,,,,800.0,9000.0,BKN,9100.0,,,,,,
KRDR,01-14-2022,14:57,METAR,Normal,40,9.0,,,9999.0,,-13.1,-16.3,30.33,1029.9,,,,,,,,,,,,TRACE,,,,6000.0,6000.0,OVC,6000.0,,,,,,
KRDR,01-14-2022,13:55,METAR,Normal,70,7.0,,,9999.0,,-12.7,-15.9,30.27,1027.8,,,,,,,,,,,TRACE,,,,,4400.0,4400.0,OVC,4400.0,,,,,,
KRDR,01-14-2022,13:18,SPECI,Normal,70,9.0,,,8000.0,Light Snow,-12.0,-15.0,30.26,1027.5,71,,,,,,,,,,,,,,,4200.0,4200.0,OVC,4200.0,,,,,,
KRDR,01-14-2022,12:57,METAR,Normal,80,9.0,,,3200.0,Light Snow,-12.5,-14.8,30.25,1027.1,71,,,,,,,,,,.01 IN,,,,,3600.0,3600.0,OVC,3600.0,,,,,,
KRDR,01-14-2022,11:36,SPECI,Normal,70,10.0,,,3000.0,Light Snow,-12.0,-14.0,30.22,1026.0,71,,,,,,,,,,,,,,,200.0,200.0,OVC,200.0,,,,,,
KRDR,01-14-2022,10:55,METAR,Normal,80,9.0,,,6400.0,Light Snow,-11.7,-14.0,30.19,1025.0,71,,,,,,,,,,TRACE,,,,,2000.0,2000.0,OVC,2000.0,,,,,,
KRDR,01-14-2022,09:56,METAR,Normal,70,10.0,,,8000.0,Light Snow,-11.4,-13.7,30.18,1024.6,,,,71,,,,,,,TRACE,,,,,2000.0,2000.0,OVC,2000.0,,,,,,
KRDR,01-14-2022,09:43,SPECI,Normal,70,10.0,,,8000.0,Light Snow,-11.0,-14.0,30.17,1024.2,71,,,,,,,,,,,,,,,2000.0,2000.0,BKN,2000.0,,,,,,
KRDR,01-14-2022,08:56,METAR,Normal,70,8.0,,,9999.0,,-11.3,-13.6,30.17,1024.2,,,,,,,,,,,TRACE,TRACE,,,,1700.0,1700.0,BKN,1700.0,BKN,6500.0,OVC,9600.0,,
KRDR,01-14-2022,08:40,SPECI,Normal,70,7.0,,,9999.0,,-11.0,-14.0,30.16,1023.9,,,,,,,,,,,,,,,,1700.0,1700.0,BKN,1700.0,OVC,9600.0,,,,
KRDR,01-14-2022,07:56,METAR,Normal,60,4.0,,,9999.0,Light Snow,-11.7,-14.3,30.17,1024.2,71,,,,,,,,,,TRACE,,,,,4700.0,4700.0,BKN,4700.0,OVC,10000.0,,,,
KRDR,01-14-2022,07:25,SPECI,Normal,80,5.0,,,8000.0,Light Snow,-12.0,-15.0,30.17,1024.2,71,,,,,,,,,,,,,,,4800.0,4800.0,BKN,4800.0,OVC,5500.0,,,,
KRDR,01-14-2022,06:56,METAR,Normal,80,4.0,,,9999.0,,-12.0,-15.2,30.18,1024.6,,,,,,,,,,,,,,,,4800.0,2400.0,FEW,2400.0,OVC,4800.0,,,,
KRDR,01-14-2022,05:56,METAR,Normal,40,4.0,,,9999.0,,-12.2,-15.4,30.18,1024.6,,,,,,,,,,,,,,,,5000.0,5000.0,OVC,5000.0,,,,,,
KRDR,01-14-2022,04:56,METAR,Normal,50,5.0,,,9999.0,,-12.9,-15.8,30.17,1024.2,,,,,,,,,,,,,,,,5500.0,5500.0,BKN,5500.0,OVC,7000.0,,,,
KRDR,01-14-2022,03:56,METAR,Normal,30,8.0,,,9999.0,,-13.3,-15.9,30.18,1024.6,,,,,,,,,,,,,,,,8000.0,8000.0,OVC,8000.0,,,,,,
KRDR,01-14-2022,02:56,METAR,Normal,360,6.0,,,9999.0,,-13.5,-16.1,30.21,1025.6,,,,,,,,,,,,,,,,10000.0,300.0,FEW,300.0,BKN,10000.0,OVC,12000.0,,
KRDR,01-14-2022,01:56,METAR,Normal,20,6.0,,,9999.0,,-13.2,-15.8,30.22,1025.8,,,,,,,,,,,,,,,,10000.0,400.0,SCT,400.0,BKN,10000.0,OVC,13000.0,,
KRDR,01-14-2022,00:56,METAR,Normal,20,7.0,,,9999.0,,-13.1,-15.7,30.22,1025.8,,,,,,,,,,,,,,,,10000.0,300.0,SCT,300.0,OVC,10000.0,,,,
KRDR,01-14-2022,00:00,SPECI,Normal,10,8.0,,,9999.0,,-13.0,-15.0,30.23,1026.0,,,,,,,,,,,,,,,,14000.0,400.0,SCT,400.0,BKN,14000.0,,,,
KRDR,01-13-2022,23:56,METAR,Normal,10,7.0,,,9999.0,,-12.9,-15.5,30.23,1026.0,,,,,,,,,,,,,TRACE,,,500.0,500.0,BKN,500.0,BKN,14000.0,,,,
KRDR,01-13-2022,23:53,SPECI,Normal,20,7.0,,,9999.0,,-13.0,-15.0,30.23,1026.0,,,,,,,,,,,,,,,,14000.0,500.0,SCT,500.0,BKN,14000.0,,,,
KRDR,01-13-2022,22:55,METAR,Normal,360,10.0,,,9999.0,,-12.5,-15.3,30.23,1025.9,,,,,,,,,,,TRACE,,,,,17000.0,500.0,SCT,500.0,BKN,17000.0,,,,
KRDR,01-13-2022,22:50,SPECI,Normal,360,9.0,,,9999.0,,-12.0,-15.0,30.23,1025.9,,,,,,,,,,,,,,,,500.0,500.0,BKN,500.0,,,,,,
KRDR,01-13-2022,22:23,SPECI,Normal,10,8.0,,,9999.0,,-12.0,-15.0,30.23,1025.9,,,,,,,,,,,,,,,,300.0,300.0,BKN,300.0,,,,,,
KRDR,01-13-2022,21:56,METAR,Normal,20,9.0,,,9999.0,Light Snow Showers,-11.6,-14.4,30.22,1025.5,85,,,,,,,,,,TRACE,,,,,500.0,500.0,BKN,500.0,OVC,1000.0,,,,
KRDR,01-13-2022,21:24,SPECI,Normal,10,9.0,,,9999.0,Light Snow,-11.0,-14.0,30.20,1024.8,71,,,,,,,,,,,,,,,200.0,200.0,OVC,200.0,,,,,,
KRDR,01-13-2022,21:09,SPECI,Normal,360,9.0,,,9999.0,Light Snow Showers,-11.0,-14.0,30.20,1024.8,85,,,,,,,,,,,,,,,300.0,300.0,BKN,300.0,OVC,1100.0,,,,
KRDR,01-13-2022,20:56,METAR,Normal,360,9.0,,,9999.0,Light Snow Showers,-10.7,-13.7,,1024.8,85,,,,,,,,,,,,,,,100.0,300.0,BKN,300.0,OVC,100.0,,,,
KRDR,01-13-2022,20:48,SPECI,Normal,360,12.0,,,9999.0,Light Snow Showers,-11.0,-14.0,30.20,1024.9,85,,,,,,,,,,,,,,,300.0,300.0,BKN,300.0,OVC,1100.0,,,,
KRDR,01-13-2022,19:57,METAR,Normal,360,11.0,,,9999.0,,-10.3,-13.4,30.20,1024.8,,,,,,,,,,,,,,,,2000.0,2000.0,BKN,2000.0,BKN,18000.0,,,,
KRDR,01-13-2022,18:56,SPECI,Variable,350,12.0,,,9999.0,,-10.0,-13.0,30.20,1024.8,,,,,,,,,,,,,,,,1100.0,500.0,SCT,500.0,BKN,1100.0,BKN,17000.0,,
KRDR,01-13-2022,18:54,METAR,Normal,360,13.0,,,9999.0,,-9.9,-13.2,30.19,1024.4,,,,,,,,,,,,,,,,1700.0,1700.0,BKN,1700.0,BKN,17000.0,,,,
KRDR,01-13-2022,18:41,SPECI,Normal,360,15.0,,,9999.0,,-10.0,-13.0,30.20,1024.8,,,,,,,,,,,,,,,,1000.0,700.0,SCT,700.0,BKN,1000.0,BKN,1700.0,,
KRDR,01-13-2022,17:59,METAR,Normal,360,15.0,,,9999.0,,-9.5,-13.0,30.21,1025.1,,,,,,,,,,,,,,,,1600.0,700.0,SCT,700.0,OVC,1600.0,,,,
KRDR,01-13-2022,16:54,METAR,Normal,350,13.0,,,9999.0,,-8.7,-11.4,30.22,1025.6,,,,,,,,,,,,,,,,1600.0,600.0,SCT,600.0,OVC,1600.0,,,,
KRDR,01-13-2022,16:25,SPECI,Normal,350,15.0,,,9999.0,,-9.0,-11.0,30.20,1024.9,,,,,,,,,,,,,,,,500.0,500.0,OVC,500.0,,,,,,
KRDR,01-13-2022,16:15,SPECI,Normal,360,11.0,,,9999.0,,-8.0,-11.0,30.19,1024.6,,,,,,,,,,,,,,,,400.0,400.0,BKN,400.0,BKN,1000.0,OVC,1400.0,,
KRDR,01-13-2022,16:05,SPECI,Normal,360,13.0,,,9999.0,,-9.0,-11.0,30.19,1024.6,,,,,,,,,,,,,,,,1400.0,800.0,SCT,800.0,OVC,1400.0,,,,
KRDR,01-13-2022,15:55,SPECI,Normal,360,13.0,,,9999.0,,-9.0,-11.0,30.19,1024.6,,,,,,,,,,,,,,,,1400.0,700.0,SCT,700.0,OVC,1400.0,,,,
KRDR,01-13-2022,15:54,METAR,Normal,360,12.0,,,9999.0,,-8.6,-11.4,30.19,1024.6,,,,,,,,,,,,,,,,1500.0,1500.0,OVC,1500.0,,,,,,
KRDR,01-13-2022,15:37,SPECI,Normal,360,12.0,,,9999.0,,-8.0,-11.0,30.18,1024.2,,,,,,,,,,,,,,,,1400.0,700.0,FEW,700.0,OVC,1400.0,,,,
KRDR,01-13-2022,15:06,SPECI,Normal,360,15.0,,,9999.0,,-8.0,-11.0,30.16,1023.6,,,,,,,,,,,,,,,,1400.0,1400.0,OVC,1400.0,,,,,,
KRDR,01-13-2022,14:56,METAR,Normal,360,19.0,,,9999.0,,-8.1,-11.1,30.15,1023.2,,,,,,,,,,,,,,,,1500.0,1500.0,OVC,1500.0,,,,,,
KRDR,01-13-2022,13:56,METAR,Normal,360,14.0,,,9999.0,,-7.0,-10.0,30.12,1022.1,,,,,,,,,,,,,,,,1700.0,1700.0,OVC,1700.0,,,,,,
KRDR,01-13-2022,13:06,SPECI,Normal,360,18.0,,,9999.0,,-6.0,-9.0,30.08,1020.7,,,,,,,,,,,,,,,,1900.0,1900.0,OVC,1900.0,,,,,,
KRDR,01-13-2022,12:56,METAR,Normal,360,18.0,27.0,360/27KTS,9999.0,,-5.4,-8.5,30.07,1020.3,,,,,,,,,,,,,,,,2000.0,2000.0,OVC,2000.0,,,,,,
KRDR,01-13-2022,12:16,SPECI,Normal,360,16.0,21.0,,9999.0,,-4.0,-7.0,30.05,1019.6,,,,,,,,,,,,,,,,2100.0,2100.0,OVC,2100.0,,,,,,
KRDR,01-13-2022,11:56,METAR,Normal,360,17.0,,340/26KTS,9999.0,,-3.4,-6.2,30.03,1018.9,,,,,,,,,,,,,,,,1700.0,1700.0,OVC,1700.0,,,,,,
KRDR,01-13-2022,11:46,SPECI,Normal,360,17.0,22.0,,9999.0,,-3.0,-6.0,30.03,1018.9,,,,,,,,,,,,,,,,1500.0,1500.0,OVC,1500.0,,,,,,
KRDR,01-13-2022,11:05,SPECI,Normal,360,14.0,,,9999.0,,-1.0,-4.0,30.00,1017.8,,,,,,,,,,,,,,,,1400.0,1400.0,OVC,1400.0,,,,,,
KRDR,01-13-2022,10:56,METAR,Normal,360,13.0,,,9999.0,,-1.3,-3.8,29.99,1017.4,,,,,,,,,,,,,,,,1500.0,1500.0,OVC,1500.0,,,,,,
KRDR,01-13-2022,09:56,METAR,Normal,330,13.0,,,9999.0,,-0.8,-3.5,29.96,1016.4,,,,,,,,,,,,,,,,1800.0,1800.0,OVC,1800.0,,,,,,
KRDR,01-13-2022,09:26,SPECI,Normal,320,10.0,,,9999.0,,-1.0,-4.0,29.95,1016.1,,,,,,,,,,,,,,,,1500.0,1500.0,OVC,1500.0,,,,,,
KRDR,01-13-2022,09:08,SPECI,Normal,320,10.0,,,9999.0,,-1.0,-4.0,29.95,1016.1,,,,,,,,,,,,,,,,1400.0,1400.0,BKN,1400.0,,,,,,
KRDR,01-13-2022,08:56,METAR,Normal,320,12.0,,,9999.0,,-1.9,-5.1,29.94,1015.8,,,,,,,,,,,,,,,,,1600.0,SCT,1600.0,,,,,,
KRDR,01-13-2022,07:56,METAR,Normal,310,14.0,,,9999.0,,-1.4,-4.7,29.90,1014.4,,,,,,,,,,,,,,,Clear,72000.0,,,,,,,,,
KRDR,01-13-2022,06:56,METAR,Normal,330,12.0,,,9999.0,,-0.7,-3.6,29.87,1013.4,,,,,,,,,,,,,,,,,6000.0,SCT,6000.0,,,,,,
KRDR,01-13-2022,05:56,METAR,Normal,280,4.0,,,9999.0,,-1.7,-4.1,29.84,1012.4,,,,,,,,,,,,,,,,9000.0,9000.0,OVC,9100.0,,,,,,
KRDR,01-13-2022,04:56,METAR,Normal,190,4.0,,,9999.0,,-4.9,-6.6,29.84,1012.6,,,,,,,,,,,,,,,,7000.0,7000.0,BKN,7000.0,OVC,8600.0,,,,
KRDR,01-13-2022,03:56,METAR,Normal,190,7.0,,,9999.0,,-5.3,-7.1,29.84,1012.6,,,,,,,,,,,,,,,,13000.0,10000.0,FEW,10000.0,OVC,13000.0,,,,
KRDR,01-13-2022,02:56,METAR,Normal,180,8.0,,,9999.0,,-5.3,-7.3,29.85,1012.9,,,,,,,,,,,,,,,,9500.0,9500.0,BKN,9600.0,OVC,14000.0,,,,
KRDR,01-13-2022,01:56,METAR,Normal,180,6.0,,,9999.0,,-5.3,-7.3,29.87,1013.6,,,,,,,,,,,,,,,,8000.0,8000.0,OVC,8000.0,,,,,,
KRDR,01-13-2022,00:56,METAR,Normal,190,5.0,,,9999.0,,-5.1,-7.2,29.88,1013.9,,,,,,,,,,,,,,,,8500.0,8500.0,OVC,8600.0,,,,,,
KRDR,01-12-2022,23:56,METAR,Normal,180,9.0,,,9999.0,,-4.7,-6.8,29.89,1014.3,,,,,,,,,,,,,,,,7000.0,7000.0,BKN,7000.0,OVC,9600.0,,,,
KRDR,01-12-2022,22:56,METAR,Normal,170,7.0,,,9999.0,,-4.9,-7.0,29.91,1014.9,,,,,,,,,,,,,,,,7000.0,7000.0,OVC,7000.0,,,,,,
KRDR,01-12-2022,22:08,SPECI,Normal,150,6.0,,,9999.0,,-5.0,-8.0,29.93,1015.6,,,,,,,,,,,,,,,,7000.0,1100.0,SCT,1100.0,OVC,7000.0,,,,
KRDR,01-12-2022,22:05,SPECI,Normal,140,5.0,,,9999.0,,-5.0,-8.0,29.92,1015.3,,,,,,,,,,,,,,,,1100.0,1100.0,BKN,1100.0,OVC,7000.0,,,,
KRDR,01-12-2022,21:56,METAR,Normal,150,6.0,,,9999.0,,-5.4,-8.0,29.93,1015.6,,,,,,,,,,,,,,,,7000.0,7000.0,OVC,7000.0,,,,,,
KRDR,01-12-2022,21:46,SPECI,Normal,150,5.0,,,9999.0,,-5.0,-8.0,29.93,1015.6,,,,,,,,,,,,,,,,1100.0,1100.0,BKN,1100.0,OVC,7000.0,,,,
KRDR,01-12-2022,21:26,SPECI,Normal,150,6.0,,,9999.0,,-6.0,-8.0,29.93,1015.6,,,,,,,,,,,,,,,,7000.0,1000.0,SCT,1000.0,BKN,7000.0,OVC,11000.0,,
KRDR,01-12-2022,20:56,METAR,Normal,150,4.0,,,9999.0,,-5.7,-8.6,29.94,1016.0,,,,,,,,,,,,,,,,900.0,900.0,OVC,900.0,,,,,,
KRDR,01-12-2022,20:46,SPECI,Normal,140,3.0,,,9999.0,,-6.0,-9.0,29.95,1016.3,,,,,,,,,,,,,,,,900.0,900.0,OVC,900.0,,,,,,
KRDR,01-12-2022,19:56,METAR,Normal,90,3.0,,,9999.0,,-6.1,-9.5,29.97,1017.0,,,,,,,,,,,,,,,,1100.0,1100.0,BKN,1100.0,OVC,7500.0,,,,
KRDR,01-12-2022,19:54,SPECI,Normal,100,3.0,,,9999.0,,-6.0,-9.0,29.97,1017.0,,,,,,,,,,,,,,,,1000.0,1100.0,BKN,1100.0,OVC,7500.0,,,,
KRDR,01-12-2022,18:55,METAR,Calm,,0.0,,,9999.0,,-6.4,-9.8,29.99,1017.7,,,,,,,,,,,,,,,,1300.0,1300.0,BKN,1300.0,BKN,27000.0,,,,
KRDR,01-12-2022,17:53,METAR,Calm,,0.0,,,9999.0,,-6.7,-9.9,30.00,1017.9,,,,,,,,,,,,,,,,1000.0,1000.0,OVC,1000.0,,,,,,
KRDR,01-12-2022,16:54,METAR,Normal,350,5.0,,,9999.0,,-7.0,-9.7,30.02,1018.5,,,,,,,,,,,,,,,,1600.0,1600.0,BKN,1600.0,OVC,2600.0,,,,
KRDR,01-12-2022,15:53,METAR,Calm,,0.0,,,9999.0,,-7.3,-9.7,30.01,1018.1,,,,,,,,,,,,,,,,1500.0,1500.0,OVC,1500.0,,,,,,
KRDR,01-12-2022,14:54,METAR,Normal,360,5.0,,,9999.0,,-7.4,-9.5,30.00,1017.9,,,,,,,,,,,,,,,,1600.0,1600.0,OVC,1600.0,,,,,,
KRDR,01-12-2022,13:56,METAR,Normal,10,4.0,,,9999.0,,-7.5,-9.6,29.99,1017.4,,,,,,,,,,,,,,,,1500.0,1500.0,OVC,1500.0,,,,,,
KRDR,01-12-2022,13:23,SPECI,Normal,10,5.0,,,9999.0,,-7.0,-9.0,30.00,1017.9,,,,,,,,,,,,,,,,1400.0,1400.0,OVC,1400.0,,,,,,
KRDR,01-12-2022,12:56,METAR,Normal,360,8.0,,,9999.0,,-7.4,-9.7,30.01,1018.1,,,,,,,,,,,,,,,,1700.0,1700.0,OVC,1700.0,,,,,,
KRDR,01-12-2022,11:56,METAR,Normal,10,5.0,,,9999.0,,-7.5,-9.6,29.97,1016.8,,,,,,,,,,,,,,,,1500.0,1500.0,OVC,1500.0,,,,,,
KRDR,01-12-2022,11:45,SPECI,Normal,10,6.0,,,9999.0,,-7.0,-10.0,29.97,1016.8,,,,,,,,,,,,,,,,1500.0,1600.0,BKN,1600.0,BKN,7000.0,OVC,9100.0,,
KRDR,01-12-2022,11:05,SPECI,Variable,360,9.0,,,9999.0,,-7.0,-9.0,29.96,1016.3,,,,,,,,,,,,,,,,2400.0,2400.0,BKN,2400.0,OVC,8000.0,,,,
KRDR,01-12-2022,10:56,METAR,Normal,360,7.0,,,9999.0,,-6.9,-9.5,29.96,1016.3,,,,,,,,,,,,,,,,8000.0,2600.0,FEW,2600.0,OVC,8000.0,,,,
KRDR,01-12-2022,09:55,METAR,Normal,10,7.0,,,9999.0,,-7.1,-9.2,29.93,1015.3,,,,,,,,,,,,,,,,12000.0,4900.0,FEW,4900.0,FEW,5500.0,OVC,12000.0,,
KRDR,01-12-2022,08:56,METAR,Normal,10,6.0,,,9999.0,,-6.5,-8.6,29.92,1015.0,,,,,,,,,,,,,,,,11000.0,5500.0,FEW,5500.0,OVC,11000.0,,,,
KRDR,01-12-2022,07:56,METAR,Normal,340,7.0,,,9999.0,,-5.7,-7.7,29.90,1014.4,,,,,,,,,,,,,,,,6500.0,6500.0,BKN,6500.0,OVC,10000.0,,,,
KRDR,01-12-2022,06:56,METAR,Normal,10,8.0,,,9999.0,,-5.2,-6.9,29.87,1013.3,,,,,,,,,,,,,,,,8500.0,8500.0,OVC,8600.0,,,,,,
KRDR,01-12-2022,05:56,METAR,Normal,340,6.0,,,9999.0,,-2.6,-4.8,29.87,,,,,,,,,,,,,,,,,9500.0,9500.0,OVC,9600.0,,,,,,
KRDR,01-12-2022,04:56,METAR,Normal,300,9.0,,,9999.0,,0.3,-3.3,29.86,,,,,,,,,,,,,,,,,10000.0,10000.0,OVC,10000.0,,,,,,
KRDR,01-12-2022,03:56,METAR,Normal,300,8.0,,,9999.0,,0.1,-3.8,29.83,,,,,,,,,,,,,,,,,11000.0,11000.0,BKN,11000.0,BKN,15000.0,,,,
KRDR,01-12-2022,02:56,METAR,Normal,290,6.0,,,9999.0,,-1.5,-4.7,29.82,1011.9,,,,,,,,,,,,,,,,,13000.0,SCT,13000.0,,,,,,
KRDR,01-12-2022,01:56,METAR,Normal,290,10.0,,,9999.0,,0.8,-3.3,29.82,1011.9,,,,,,,,,,,,,,,,,22000.0,SCT,22000.0,,,,,,
KRDR,01-12-2022,00:56,METAR,Normal,290,9.0,,,9999.0,,0.7,-3.2,29.82,1011.9,,,,,,,,,,,,,,,,,22000.0,SCT,22000.0,,,,,,
KRDR,01-11-2022,23:56,METAR,Normal,310,11.0,,,9999.0,,1.4,-2.9,29.81,1011.6,,,,,,,,,,,,,,,,,22000.0,FEW,22000.0,,,,,,
KRDR,01-11-2022,23:27,SPECI,Normal,20,10.0,,,9999.0,,2.0,-3.0,29.82,1011.9,,,,,,,,,,,,,,,,,22000.0,FEW,22000.0,,,,,,
KRDR,01-11-2022,23:05,SPECI,Normal,320,11.0,20.0,,9999.0,,2.0,-3.0,29.79,1010.9,,,,,,,,,,,,,,,,,22000.0,SCT,22000.0,,,,,,
KRDR,01-11-2022,22:56,METAR,Normal,280,15.0,21.0,270/27KTS,9999.0,,2.2,-2.5,29.77,1010.2,,,,,,,,,,,,,,,,,22000.0,SCT,22000.0,,,,,,
KRDR,01-11-2022,21:56,METAR,Normal,270,18.0,27.0,280/28KTS,9999.0,,2.4,-2.9,29.74,1009.2,,,,,,,,,,,,,,,,,22000.0,FEW,22000.0,,,,,,
KRDR,01-11-2022,21:46,SPECI,Normal,270,21.0,28.0,,9999.0,,2.0,-3.0,29.74,1009.2,,,,,,,,,,,,,,,,,22000.0,FEW,22000.0,,,,,,
KRDR,01-11-2022,21:30,SPECI,Normal,270,19.0,24.0,,9999.0,,2.0,-3.0,29.75,1009.6,,,,,,,,,,,,,,,,,22000.0,FEW,22000.0,,,,,,
KRDR,01-11-2022,21:10,SPECI,Normal,280,14.0,20.0,,9999.0,,2.0,-3.0,29.75,1009.6,,,,,,,,,,,,,,,,,22000.0,FEW,22000.0,,,,,,
KRDR,01-11-2022,20:56,METAR,Normal,280,14.0,,,9999.0,,1.6,-3.5,29.76,1010.0,,,,,,,,,,,,,,,,,22000.0,FEW,22000.0,,,,,,
KRDR,01-11-2022,19:56,METAR,Normal,290,14.0,24.0,,9999.0,,0.6,-4.4,29.77,1010.3,,,,,,,,,,,,,,,,,15000.0,FEW,15000.0,,,,,,
KRDR,01-11-2022,19:30,SPECI,Normal,300,18.0,21.0,,9999.0,,0.0,-4.0,29.75,1009.7,,,,,,,,,,,,,,,,,15000.0,FEW,15000.0,,,,,,
KRDR,01-11-2022,18:56,METAR,Normal,300,14.0,,,9999.0,,0.1,-4.9,29.75,1009.7,,,,,,,,,,,,,,,,,8000.0,FEW,8000.0,SCT,16000.0,,,,
KRDR,01-11-2022,17:56,METAR,Normal,310,14.0,,,9999.0,,0.0,-5.2,29.76,1010.1,,,,,,,,,,,,,,,,16000.0,13000.0,FEW,13000.0,BKN,16000.0,,,,
KRDR,01-11-2022,17:55,METAR,Normal,310,14.0,,,9999.0,,0.0,-5.0,29.76,,,,,,,,,,,,,,,,,,13000.0,FEW,13000.0,SCT,16000.0,,,,
KRDR,01-11-2022,16:56,METAR,Normal,310,11.0,,,9999.0,,-0.9,-5.5,29.75,1009.8,,,,,,,,,,,,,,,Clear,72000.0,,,,,,,,,
KRDR,01-11-2022,16:55,METAR,Normal,310,11.0,,,9999.0,,,-5.0,29.75,,,,,,,,,,,,,,,,,16000.0,14000.0,SCT,14000.0,BKN,16000.0,,,,
KRDR,01-11-2022,15:56,METAR,Calm,,0.0,,,9999.0,,-9.0,-12.0,29.73,,,,,,,,,,,,,,,,,16000.0,16000.0,BKN,16000.0,BKN,18000.0,,,,
KRDR,01-11-2022,14:56,METAR,Normal,220,7.0,,,9999.0,,-10.4,-13.8,29.73,1009.5,,,,,,,,,,,,,,,,21000.0,21000.0,BKN,21000.0,,,,,,
KRDR,01-11-2022,13:56,METAR,Normal,180,7.0,,,9999.0,,-14.2,-16.9,29.75,1010.4,,,,,,,,,,,,,,,,22000.0,22000.0,OVC,22000.0,,,,,,
KRDR,01-11-2022,12:56,METAR,Normal,180,12.0,,,9999.0,,-15.0,-18.2,29.78,1011.4,,,,,,,,,,,,,,,,23000.0,23000.0,OVC,23000.0,,,,,,
KRDR,01-11-2022,11:56,METAR,Normal,190,12.0,,,9999.0,,-15.5,-18.8,29.82,1012.8,,,,,,,,,,,,,,,,23000.0,23000.0,BKN,23000.0,,,,,,
KRDR,01-11-2022,10:56,METAR,Normal,200,15.0,,,9999.0,,-15.8,-19.4,29.87,1014.5,,,,,,,,,,,,,,,Clear,72000.0,,,,,,,,,
KRDR,01-11-2022,09:56,METAR,Normal,190,16.0,,,9999.0,,-16.4,-20.2,29.91,1015.9,,,,,,,,,,,,,,,Clear,72000.0,,,,,,,,,
KRDR,01-11-2022,08:56,METAR,Normal,180,13.0,,,9999.0,,-17.5,-21.2,29.97,1018.0,,,,,,,,,,,,,,,Clear,72000.0,,,,,,,,,
KRDR,01-11-2022,07:56,METAR,Normal,180,11.0,,,9999.0,,-18.0,-22.0,30.02,1019.7,,,,,,,,,,,,,,,Clear,72000.0,,,,,,,,,
KRDR,01-11-2022,06:56,METAR,Normal,180,15.0,,,9999.0,,-18.3,-22.5,30.06,1021.2,,,,,,,,,,,,,,,Clear,72000.0,,,,,,,,,
KRDR,01-11-2022,05:56,METAR,Normal,170,16.0,,,9999.0,,-18.8,-23.0,30.11,1023.0,,,,,,,,,,,,,,,Clear,72000.0,,,,,,,,,
KRDR,01-11-2022,04:56,METAR,Normal,180,14.0,,,9999.0,,-19.2,-23.5,30.17,1025.0,,,,,,,,,,,,,,,Clear,72000.0,,,,,,,,,
KRDR,01-11-2022,03:56,METAR,Normal,170,14.0,,,9999.0,,-19.1,-23.9,30.22,1026.8,,,,,,,,,,,,,,,Clear,72000.0,,,,,,,,,
KRDR,01-11-2022,02:56,METAR,Normal,170,12.0,,,9999.0,,-19.2,-23.8,30.27,1028.6,,,,,,,,,,,,,,,Clear,72000.0,,,,,,,,,
KRDR,01-11-2022,01:56,METAR,Normal,170,13.0,,,9999.0,,-19.2,-23.8,30.30,1029.7,,,,,,,,,,,,,,,Clear,72000.0,,,,,,,,,
KRDR,01-11-2022,00:56,METAR,Normal,160,12.0,,,9999.0,,-19.4,-23.7,30.35,1031.4,,,,,,,,,,,,,,,Clear,72000.0,,,,,,,,,
KRDR,01-10-2022,23:56,METAR,Normal,160,11.0,,,9999.0,,-18.6,-23.3,30.40,1033.1,,,,,,,,,,,,,,,,16000.0,16000.0,OVC,16000.0,,,,,,
KRDR,01-10-2022,22:56,METAR,Normal,150,8.0,,,9999.0,,-17.8,-23.2,30.43,1034.0,,,,,,,,,,,,,,,,6500.0,6500.0,BKN,6500.0,BKN,22000.0,,,,
KRDR,01-10-2022,21:56,METAR,Normal,160,8.0,,,9999.0,,-17.9,-23.3,30.46,1035.0,,,,,,,,,,,,,,,,6500.0,6500.0,BKN,6500.0,,,,,,
KRDR,01-10-2022,20:56,METAR,Normal,170,7.0,,,9999.0,,-18.1,-23.8,30.50,1036.4,,,,,,,,,,,,,,,,6000.0,6000.0,BKN,6000.0,,,,,,
KRDR,01-10-2022,19:56,METAR,Normal,210,4.0,,,9999.0,,-18.9,-25.2,30.52,,,,,,,,,,,,,,,,,6000.0,6000.0,BKN,6000.0,BKN,7500.0,,,,
KRDR,01-10-2022,18:56,METAR,Normal,180,5.0,,,9999.0,,-19.6,-26.6,30.54,1037.9,,,,,,,,,,,,,,,,8000.0,8000.0,BKN,8000.0,BKN,17000.0,,,,
KRDR,01-10-2022,17:53,METAR,Normal,190,5.0,,,9999.0,,-20.6,-27.4,30.57,1038.9,,,,,,,,,,,,,,,,14000.0,14000.0,BKN,14000.0,BKN,20000.0,,,,
KRDR,01-10-2022,16:56,METAR,Calm,,0.0,,,9999.0,,-21.8,-28.5,30.59,1039.8,,,,,,,,,,,,,,,,20000.0,14000.0,SCT,14000.0,BKN,20000.0,,,,
KRDR,01-10-2022,15:56,METAR,Normal,260,4.0,,,9999.0,,-23.3,-29.2,30.61,1040.5,,,,,,,,,,,,,,,,20000.0,14000.0,SCT,14000.0,BKN,20000.0,,,,
KRDR,01-10-2022,14:55,METAR,Normal,290,5.0,,,9999.0,,-25.4,-30.3,30.60,1040.2,,,,,,,,,,,,,,,,14000.0,14000.0,BKN,14000.0,BKN,25000.0,,,,
KRDR,01-10-2022,13:56,METAR,Normal,260,3.0,,,9999.0,,-25.0,-30.3,30.59,1039.9,,,,,,,,,,,,,,,,,15000.0,SCT,15000.0,,,,,,
KRDR,01-10-2022,12:56,METAR,Normal,300,7.0,,,9999.0,,-25.1,-30.4,30.60,1040.2,,,,,,,,,,,,,,,Clear,72000.0,,,,,,,,,
KRDR,01-10-2022,11:56,METAR,Normal,300,6.0,,,9999.0,,-25.0,-30.3,30.59,1039.8,,,,,,,,,,,,,,,Clear,72000.0,,,,,,,,,
KRDR,01-10-2022,10:56,METAR,Normal,290,7.0,,,9999.0,,-24.9,-30.2,30.58,1039.3,,,,,,,,,,,,,,,Clear,72000.0,,,,,,,,,
KRDR,01-10-2022,09:56,METAR,Normal,300,8.0,,,9999.0,,-24.1,-29.9,30.58,1039.2,,,,,,,,,,,,,,,Clear,72000.0,,,,,,,,,
KRDR,01-10-2022,08:56,METAR,Normal,290,10.0,,,9999.0,,-24.4,-30.0,30.56,1038.6,,,,,,,,,,,,,,,Clear,72000.0,,,,,,,,,
KRDR,01-10-2022,07:56,METAR,Normal,300,11.0,,,9999.0,,-23.7,-29.7,30.55,1038.2,,,,,,,,,,,,,,,Clear,72000.0,,,,,,,,,
KRDR,01-10-2022,06:56,METAR,Normal,300,11.0,,,9999.0,,-23.8,-30.0,30.54,1038.0,,,,,,,,,,,,,,,Clear,72000.0,,,,,,,,,
KRDR,01-10-2022,05:56,METAR,Normal,300,11.0,,,9999.0,,-23.5,-30.1,30.54,1037.9,,,,,,,,,,,,,,,Clear,72000.0,,,,,,,,,
KRDR,01-10-2022,04:56,METAR,Normal,280,8.0,,,9999.0,,-25.2,-30.5,30.54,1038.0,,,,,,,,,,,,,,,Clear,72000.0,,,,,,,,,
KRDR,01-10-2022,03:56,METAR,Normal,270,5.0,,,9999.0,,-25.3,-30.6,30.55,1038.4,,,,,,,,,,,,,,,Clear,72000.0,,,,,,,,,
KRDR,01-10-2022,02:56,METAR,Normal,290,9.0,,,9999.0,,-24.3,-30.3,30.55,1038.4,,,,,,,,,,,,,,,Clear,72000.0,,,,,,,,,
KRDR,01-10-2022,01:56,METAR,Normal,290,6.0,,,9999.0,,-24.8,-28.5,30.54,1038.2,,,,,,,,,,,,,,,Clear,72000.0,,,,,,,,,
KRDR,01-10-2022,00:56,METAR,Normal,290,7.0,,,9999.0,,-24.5,-28.5,30.54,1038.1,,,,,,,,,,,,,,,Clear,72000.0,,,,,,,,,
KRDR,01-09-2022,23:56,METAR,Normal,300,6.0,,,9999.0,,-23.7,-28.0,30.52,1037.4,,,,,,,,,,,,,,,Clear,72000.0,,,,,,,,,
KRDR,01-09-2022,22:56,METAR,Normal,290,8.0,,,9999.0,,-21.8,-27.0,30.52,1037.3,,,,,,,,,,,,,,,,,11000.0,FEW,11000.0,,,,,,
KRDR,01-09-2022,21:56,METAR,Normal,290,9.0,,,9999.0,,-20.5,-26.9,30.51,1036.8,,,,,,,,,,,,,,,,,11000.0,FEW,11000.0,,,,,,
KRDR,01-09-2022,20:56,METAR,Normal,290,9.0,,,9999.0,,-20.6,-27.2,30.50,1036.5,,,,,,,,,,,,,,,,11000.0,11000.0,BKN,11000.0,,,,,,
KRDR,01-09-2022,19:56,METAR,Normal,290,9.0,,,9999.0,,-20.5,-26.9,30.50,1036.4,,,,,,,,,,,,,,,,11000.0,11000.0,BKN,11000.0,,,,,,
KRDR,01-09-2022,18:56,METAR,Normal,320,11.0,,,9999.0,,-21.4,-27.5,30.48,1035.8,,,,,,,,,,,,,,,,8500.0,8500.0,BKN,8600.0,OVC,11000.0,,,,
KRDR,01-09-2022,17:56,METAR,Normal,320,10.0,,,9999.0,,-21.7,-28.2,30.50,1036.5,,,,,,,,,,,,,,,,11000.0,11000.0,BKN,11000.0,,,,,,
KRDR,01-09-2022,16:56,METAR,Normal,300,13.0,19.0,,9999.0,,-22.1,-28.4,30.49,1036.2,,,,,,,,,,,,,,,,10000.0,10000.0,BKN,10000.0,,,,,,
KRDR,01-09-2022,15:56,METAR,Normal,310,13.0,23.0,,9999.0,,-23.4,-29.6,30.47,1035.5,,,,,,,,,,,,,,,,,11000.0,SCT,11000.0,,,,,,
KRDR,01-09-2022,14:56,METAR,Normal,300,11.0,,,9999.0,,-24.6,-30.1,30.45,1034.9,,,,,,,,,,,,,,,,,10000.0,FEW,10000.0,,,,,,
KRDR,01-09-2022,13:56,METAR,Normal,290,7.0,,,9999.0,,-25.8,-30.7,30.43,1034.2,,,,,,,,,,,,,,,Clear,72000.0,,,,,,,,,
KRDR,01-09-2022,12:56,METAR,Normal,290,13.0,18.0,,9999.0,,-24.5,-29.6,30.41,1033.4,,,,,,,,,,,,,,,Clear,72000.0,,,,,,,,,
KRDR,01-09-2022,11:56,METAR,Normal,300,11.0,,,9999.0,,-24.3,-29.1,30.38,1032.3,,,,,,,,,,,,,,,Clear,72000.0,,,,,,,,,
KRDR,01-09-2022,10:56,METAR,Normal,300,13.0,,,9999.0,,-24.1,-28.7,30.36,1031.6,,,,,,,,,,,,,,,Clear,72000.0,,,,,,,,,
KRDR,01-09-2022,09:56,METAR,Normal,290,15.0,,,9999.0,,-23.6,-28.3,30.34,1030.8,,,,,,,,,,,,,,,Clear,72000.0,,,,,,,,,
KRDR,01-09-2022,08:56,METAR,Normal,300,12.0,,,9999.0,,-23.3,-28.0,30.33,1030.3,,,,,,,,,,,,,,,Clear,72000.0,,,,,,,,,
KRDR,01-09-2022,07:56,METAR,Normal,300,16.0,,,9999.0,,-22.9,-27.6,30.29,1028.9,,,,,,,,,,,,,,,Clear,72000.0,,,,,,,,,
KRDR,01-09-2022,06:56,METAR,Normal,300,13.0,,,9999.0,,-22.6,-27.0,30.26,1027.8,,,,,,,,,,,,,,,Clear,72000.0,,,,,,,,,
KRDR,01-09-2022,05:56,METAR,Normal,300,12.0,,,9999.0,,-22.2,-26.6,30.24,1027.1,,,,,,,,,,,,,,,Clear,72000.0,,,,,,,,,
KRDR,01-09-2022,04:56,METAR,Normal,300,11.0,,,9999.0,,-21.5,-25.9,30.21,1025.9,,,,,,,,,,,,,,,Clear,72000.0,,,,,,,,,
KRDR,01-09-2022,03:56,METAR,Normal,290,17.0,21.0,290/26KTS,9999.0,,-21.2,-25.5,30.17,1024.4,,,,,,,,,,,,,,,Clear,72000.0,,,,,,,,,
KRDR,01-09-2022,02:56,METAR,Normal,300,19.0,23.0,290/27KTS,9999.0,,-20.8,-24.9,30.14,1023.5,,,,,,,,,,,,,,,Clear,72000.0,,,,,,,,,
KRDR,01-09-2022,01:56,METAR,Normal,290,17.0,26.0,300/30KTS,9999.0,,-20.3,-24.3,30.11,1022.5,,,,,,,,,,,,,,,,,15000.0,FEW,15000.0,,,,,,
KRDR,01-09-2022,00:56,METAR,Normal,300,23.0,28.0,310/28KTS,6400.0,Blowing or Drifting Snow or Sand,-19.8,-23.8,30.06,1020.8,27,,,,,,,,,,,,,,,,15000.0,SCT,15000.0,,,,,,
KRDR,01-08-2022,23:55,METAR,Normal,300,15.0,20.0,270/29KTS,6400.0,Blowing or Drifting Snow or Sand,-18.5,-22.0,30.03,1019.7,27,,,,,,,,,,,,,,,1300.0,1300.0,BKN,1300.0,BKN,15000.0,,,,
KRDR,01-08-2022,23:02,SPECI,Normal,290,16.0,25.0,,9999.0,,-17.0,-21.0,29.97,1017.7,,,,,,,,,,,,,,,,13000.0,1000.0,SCT,1000.0,BKN,13000.0,,,,
KRDR,01-08-2022,22:56,METAR,Normal,290,18.0,27.0,270/29KTS,6400.0,Blowing or Drifting Snow or Sand,-17.3,-21.7,29.97,1017.7,27,,,,,,,,,,,,,,,1000.0,1000.0,BKN,1000.0,BKN,13000.0,,,,
KRDR,01-08-2022,21:57,METAR,Normal,290,19.0,24.0,270/26KTS,9999.0,,-15.7,-19.8,29.91,1015.5,,,,,,,,,,,,,,,,700.0,500.0,SCT,500.0,BKN,1000.0,OVC,1800.0,,
KRDR,01-08-2022,21:55,SPECI,Normal,290,19.0,24.0,,9999.0,,-16.0,-20.0,29.91,1015.5,,,,,,,,,,,,,,,,1000.0,1000.0,BKN,1000.0,OVC,1600.0,,,,
KRDR,01-08-2022,21:30,SPECI,Normal,290,14.0,22.0,,4400.0,Blowing or Drifting Snow or Sand,-14.0,-18.0,29.88,1014.4,27,,,,,,,,,,,,,,,1400.0,1400.0,BKN,1400.0,OVC,10000.0,,,,
KRDR,01-08-2022,20:58,METAR,Normal,300,17.0,,300/27KTS,6400.0,Blowing or Drifting Snow or Sand,-14.0,-17.3,,1014.1,27,,,,,,,,,,,,,,,1000.0,1000.0,BKN,1000.0,OVC,1000.0,,,,
KRDR,01-08-2022,20:50,SPECI,Normal,300,16.0,25.0,,1200.0,Blowing Snow,-14.0,-17.0,29.84,1013.0,,,,38,,,,,,,,,,,,1000.0,1000.0,BKN,1000.0,OVC,10000.0,,,,
KRDR,01-08-2022,19:58,METAR,Normal,320,14.0,22.0,290/27KTS,9999.0,,-12.3,-16.5,29.78,1010.9,,,,,,,,,,,,,,,,2000.0,2000.0,BKN,2000.0,OVC,3000.0,,,,
KRDR,01-08-2022,19:28,SPECI,Normal,310,19.0,24.0,,9999.0,,-12.0,-17.0,29.76,1010.2,,,,,,,,,,,,,,,,1900.0,1200.0,SCT,1200.0,BKN,1900.0,OVC,2900.0,,
KRDR,01-08-2022,19:24,SPECI,Normal,320,19.0,23.0,,9999.0,,-12.0,-17.0,29.76,1010.2,,,,,,,,,,,,,,,,2100.0,1000.0,FEW,1000.0,SCT,1600.0,BKN,2100.0,OVC,2900.0
KRDR,01-08-2022,19:12,SPECI,Normal,310,18.0,25.0,,9999.0,,-12.0,-16.0,29.75,1010.0,,,,,,,,,,,,,,,,1100.0,500.0,FEW,500.0,SCT,1100.0,BKN,1500.0,BKN,2200.0
KRDR,01-08-2022,18:57,METAR,Normal,310,16.0,20.0,290/33KTS,9999.0,,-11.2,-14.9,29.74,1009.5,,,,,,,,,,,,,,,,700.0,700.0,SCT,700.0,OVC,1300.0,,,,
KRDR,01-08-2022,18:52,SPECI,Normal,320,14.0,,,9999.0,,-11.0,-15.0,29.73,1009.2,,,,,,,,,,,,,,,,500.0,400.0,SCT,400.0,OVC,1500.0,,,,
KRDR,01-08-2022,17:56,METAR,Normal,310,24.0,30.0,300/30KTS,1600.0,Blowing or Drifting Snow or Sand,-9.8,-13.6,29.68,1007.5,27,,,,,,,,,,,,,,,1100.0,1100.0,SCT,1100.0,OVC,2000.0,,,,
KRDR,01-08-2022,17:44,SPECI,Normal,310,21.0,29.0,,1600.0,Blowing or Drifting Snow or Sand,-9.0,-12.0,29.67,1007.1,27,,,,,,,,,,,,,,,1100.0,1100.0,BKN,1100.0,OVC,1800.0,,,,
KRDR,01-08-2022,16:57,METAR,Normal,290,18.0,23.0,270/26KTS,9999.0,,-7.7,-11.0,29.63,1005.8,,,,,,,,,,,,,,,,2100.0,2100.0,OVC,2100.0,,,,,,
KRDR,01-08-2022,15:56,METAR,Normal,310,12.0,,,9999.0,,-6.0,-9.6,29.56,1003.3,,,,,,,,,,,,,,,,8000.0,2500.0,FEW,2500.0,SCT,3400.0,BKN,8000.0,BKN,10000.0
KRDR,01-08-2022,15:26,SPECI,Normal,290,7.0,,,9999.0,,-7.0,-10.0,29.55,1003.0,,,,,,,,,,,,,,,,2400.0,2400.0,BKN,2400.0,OVC,3000.0,,,,
KRDR,01-08-2022,14:56,METAR,Normal,240,7.0,,,9999.0,,-8.0,-11.2,29.53,1002.5,,,,,,,,,,,,,,,,3700.0,2400.0,SCT,2400.0,BKN,3700.0,OVC,4800.0,,
KRDR,01-08-2022,13:56,METAR,Normal,200,7.0,,,9999.0,,-10.1,-12.8,29.48,1000.8,,,,,,,,,,,,,,,,8000.0,4300.0,SCT,4300.0,OVC,8000.0,,,,
KRDR,01-08-2022,12:56,METAR,Normal,190,10.0,,,9999.0,,-10.2,-13.0,29.47,1000.5,,,,,,,,,,,,,,,,6500.0,6500.0,OVC,6500.0,,,,,,
KRDR,01-08-2022,11:59,METAR,Normal,170,11.0,,,9999.0,,-10.3,-13.0,29.42,998.9,,,,,,,,,,,,,,,,7000.0,7000.0,BKN,7000.0,OVC,8600.0,,,,
KRDR,01-08-2022,10:56,METAR,Normal,180,10.0,,,9999.0,,-11.0,-13.6,29.42,999.0,,,,,,,,,,,,,,,,700.0,700.0,BKN,700.0,,,,,,
KRDR,01-08-2022,09:58,METAR,Normal,180,14.0,,,9999.0,,-10.9,-13.4,29.41,998.7,,,,,,,,,,,,,,,,600.0,600.0,OVC,600.0,,,,,,
KRDR,01-08-2022,08:57,METAR,Normal,170,16.0,23.0,130/33KTS,9999.0,,-10.5,-13.0,29.41,998.8,,,,,,,,,,,,,,,,600.0,600.0,OVC,600.0,,,,,,
KRDR,01-08-2022,07:59,METAR,Normal,160,23.0,27.0,170/30KTS,8000.0,Blowing or Drifting Snow or Sand,-10.6,-13.1,29.39,998.2,27,,,,,,,,,,,,,,,600.0,600.0,OVC,600.0,,,,,,
KRDR,01-08-2022,06:56,METAR,Normal,170,21.0,27.0,130/31KTS,6400.0,Blowing or Drifting Snow or Sand,-11.2,-13.7,29.43,999.6,27,,,,,,,,,,,,,,,500.0,500.0,OVC,500.0,,,,,,
KRDR,01-08-2022,06:15,SPECI,Normal,170,20.0,27.0,,4000.0,Blowing or Drifting Snow or Sand,-12.0,-14.0,29.46,1000.7,27,,,,,,,,,,,,,,,500.0,500.0,OVC,500.0,,,,,,
KRDR,01-08-2022,04:59,METAR,Normal,160,23.0,28.0,150/31KTS,3600.0,Blowing or Drifting Snow or Sand,-13.0,-15.3,29.50,1002.2,27,,,,,,,,,,,,,,,300.0,300.0,OVC,300.0,,,,,,
KRDR,01-08-2022,04:11,SPECI,Normal,160,21.0,31.0,,3600.0,Blowing or Drifting Snow or Sand,-14.0,-16.0,29.53,1003.3,27,,,,,,,,,,,,,,,400.0,400.0,OVC,400.0,,,,,,
KRDR,01-08-2022,04:00,METAR,Normal,160,21.0,,130/32KTS,2600.0,Light Snow/Blowing or Drifting Snow or Sand,-14.1,-16.5,29.53,1003.3,71,27,,,,,,,,,TRACE,,,,,500.0,500.0,OVC,500.0,,,,,,
KRDR,01-08-2022,03:36,SPECI,Normal,160,21.0,27.0,,2800.0,Blowing or Drifting Snow or Sand,-15.0,-17.0,29.55,1004.1,27,,,,,,,,,,,,,,,300.0,300.0,OVC,300.0,,,,,,
KRDR,01-08-2022,02:54,METAR,Normal,160,21.0,,140/29KTS,3200.0,Light Snow/Blowing or Drifting Snow or Sand,-15.1,-17.7,29.58,1005.1,71,27,,,,,,,,,TRACE,,,,,300.0,300.0,OVC,300.0,,,,,,
KRDR,01-08-2022,02:12,SPECI,Normal,160,18.0,,,4000.0,Light Snow/Blowing or Drifting Snow or Sand,-15.0,-18.0,29.63,1006.9,71,27,,,,,,,,,,,,,,200.0,200.0,OVC,200.0,,,,,,
KRDR,01-08-2022,02:01,SPECI,Normal,160,18.0,,,4800.0,Light Snow/Blowing or Drifting Snow or Sand,-16.0,-18.0,29.63,1007.0,71,27,,,,,,,,,,,,,,200.0,200.0,OVC,200.0,,,,,,
KRDR,01-08-2022,01:57,METAR,Normal,160,17.0,21.0,,4800.0,Blowing or Drifting Snow or Sand,-15.8,-18.4,29.64,1007.2,27,,,,,,,,,,TRACE,,,,,200.0,200.0,OVC,200.0,,,,,,
KRDR,01-08-2022,01:32,SPECI,Normal,150,13.0,,,3200.0,Light Snow/Blowing or Drifting Snow or Sand,-16.0,-19.0,29.67,1008.3,71,27,,,,,,,,,,,,,,300.0,300.0,OVC,300.0,,,,,,
KRDR,01-08-2022,00:57,METAR,Normal,170,17.0,,,2400.0,Light Snow/Blowing or Drifting Snow or Sand,-16.8,-19.5,29.69,1009.0,71,27,,,,,,,,,TRACE,,,,,400.0,400.0,OVC,400.0,,,,,,
KRDR,01-08-2022,00:48,SPECI,Normal,160,17.0,,,2800.0,Light Snow/Blowing or Drifting Snow or Sand,-17.0,-20.0,29.68,1008.7,71,27,,,,,,,,,,,,,,400.0,400.0,OVC,400.0,,,,,,
KRDR,01-07-2022,23:58,METAR,Normal,150,16.0,,,8000.0,Light Snow/Blowing or Drifting Snow or Sand,-18.3,-21.2,29.69,1009.1,71,27,,,,,,,,,TRACE,,TRACE,,,400.0,400.0,OVC,400.0,,,,,,
KRDR,01-07-2022,23:04,SPECI,Normal,140,15.0,,,4800.0,Light Snow/Blowing or Drifting Snow or Sand,-20.0,-23.0,29.74,1010.9,71,27,,,,,,,,,,,,,,500.0,700.0,OVC,700.0,,,,,,
KRDR,01-07-2022,22:55,METAR,Normal,140,16.0,,,4000.0,Light Snow/Blowing or Drifting Snow or Sand,-20.2,-23.5,29.74,1011.0,71,27,,,,,,,,,TRACE,,,,,8000.0,1000.0,SCT,1000.0,OVC,8000.0,,,,
KRDR,01-07-2022,22:43,SPECI,Normal,140,15.0,,,4800.0,Light Snow,-20.0,-24.0,29.75,1011.3,71,,,,,,,,,,,,,,,4000.0,1000.0,SCT,1000.0,OVC,4000.0,,,,
KRDR,01-07-2022,21:54,METAR,Normal,160,14.0,,,9999.0,Light Snow,-21.4,-25.2,29.83,1014.1,,,,71,,,,,,,,,,,,9000.0,1000.0,SCT,1000.0,OVC,9100.0,,,,
KRDR,01-07-2022,21:11,SPECI,Normal,160,16.0,,,9999.0,Light Snow,,,,1015.2,,,,71,,,,,,,,,,,,1500.0,9000.0,BKN,9100.0,OVC,1500.0,,,,
KRDR,01-07-2022,20:53,METAR,Normal,160,15.0,,,9999.0,,-23.5,-27.5,29.86,1015.1,,,,,,,,,,,,,,,,9000.0,9000.0,BKN,9100.0,OVC,15000.0,,,,
KRDR,01-07-2022,19:54,METAR,Normal,160,15.0,,,9999.0,,-24.9,-29.0,29.91,1017.0,,,,,,,,,,,,,,,,15000.0,15000.0,BKN,15000.0,BKN,20000.0,,,,
KRDR,01-07-2022,18:54,METAR,Normal,150,12.0,,,9999.0,,-26.1,-30.5,29.96,1018.7,,,,,,,,,,,,,,,,20000.0,11000.0,SCT,11000.0,BKN,20000.0,,,,
KRDR,01-07-2022,17:57,METAR,Normal,160,10.0,,,9999.0,,-27.2,-31.7,30.02,1020.8,,,,,,,,,,,,,,,,16000.0,16000.0,BKN,16000.0,,,,,,
KRDR,01-07-2022,16:59,METAR,Normal,170,11.0,,,9999.0,,-28.2,-32.5,30.07,1022.6,,,,,,,,,,,,,,,,,16000.0,SCT,16000.0,,,,,,
KRDR,01-07-2022,15:56,METAR,Normal,160,12.0,,,9999.0,,-29.5,-33.2,30.08,1022.9,,,,,,,,,,,,,,,,,20000.0,SCT,20000.0,,,,,,
KRDR,01-07-2022,14:56,METAR,Normal,160,9.0,,,9999.0,,-30.9,-34.4,30.10,1023.7,,,,,,,,,,,,,,,,,20000.0,FEW,20000.0,,,,,,
KRDR,01-07-2022,14:35,SPECI,Normal,160,7.0,,,9999.0,,-31.0,-35.0,30.11,1024.1,,,,,,,,,,,,,,,,,100.0,FEW,100.0,,,,,,
KRDR,01-07-2022,13:56,METAR,Normal,170,7.0,,,9999.0,,-31.0,-34.5,30.13,1024.6,,,,,,,,,,,,,,,Clear,72000.0,,,,,,,,,
KRDR,01-07-2022,12:57,METAR,Normal,200,6.0,,,9999.0,,-31.9,-35.5,30.15,1025.4,,,,,,,,,,,,,,,Clear,72000.0,,,,,,,,,
KRDR,01-07-2022,11:58,METAR,Normal,170,4.0,,,9999.0,,-32.2,-36.0,30.16,1025.7,,,,,,,,,,,,,,,,,1500.0,SCT,1500.0,,,,,,
KRDR,01-07-2022,11:18,SPECI,Normal,180,5.0,,,9999.0,,-33.0,-37.0,30.17,1026.1,,,,,,,,,,,,,,,,,1200.0,SCT,1200.0,,,,,,
KRDR,01-07-2022,10:56,METAR,Normal,180,6.0,,,9999.0,,-33.3,-37.0,30.18,1026.4,,,,,,,,,,,,,,,Clear,72000.0,,,,,,,,,
KRDR,01-07-2022,09:56,METAR,Normal,210,4.0,,,9999.0,,-32.6,-36.4,30.20,1027.0,,,,,,,,,,,,,,,Clear,72000.0,,,,,,,,,
KRDR,01-07-2022,08:56,METAR,Normal,190,5.0,,,9999.0,,-32.1,-35.9,30.22,1027.6,,,,,,,,,,,,,,,Clear,72000.0,,,,,,,,,
KRDR,01-07-2022,07:56,METAR,Normal,190,4.0,,,9999.0,,-32.3,-36.1,30.21,1027.3,,,,,,,,,,,,,,,Clear,72000.0,,,,,,,,,
KRDR,01-07-2022,06:56,METAR,Normal,200,3.0,,,9999.0,,-31.6,-35.2,30.23,1028.0,,,,,,,,,,,,,,,Clear,72000.0,,,,,,,,,
KRDR,01-07-2022,05:56,METAR,Normal,180,4.0,,,9999.0,,-31.9,-35.8,30.25,1028.7,,,,,,,,,,,,,,,Clear,72000.0,,,,,,,,,
KRDR,01-07-2022,04:56,METAR,Calm,,0.0,,,9999.0,,-31.3,-35.1,30.27,1029.3,,,,,,,,,,,,,,,Clear,72000.0,,,,,,,,,
KRDR,01-07-2022,03:56,METAR,Normal,220,3.0,,,9999.0,,-30.9,-34.7,30.27,1029.3,,,,,,,,,,,,,,,Clear,72000.0,,,,,,,,,
KRDR,01-07-2022,02:56,METAR,Calm,,0.0,,,9999.0,,-30.8,-34.8,30.28,1029.7,,,,,,,,,,,,,,,Clear,72000.0,,,,,,,,,
KRDR,01-07-2022,01:56,METAR,Calm,,0.0,,,9999.0,,-29.8,-33.9,30.27,1029.2,,,,,,,,,,,,,,,Clear,72000.0,,,,,,,,,
KRDR,01-07-2022,00:56,METAR,Normal,280,3.0,,,9999.0,,-29.5,-33.8,30.29,1029.8,,,,,,,,,,,,,,,Clear,72000.0,,,,,,,,,
KRDR,01-06-2022,23:56,METAR,Normal,290,4.0,,,9999.0,,-28.7,-33.2,30.30,1030.2,,,,,,,,,,,,,,,Clear,72000.0,,,,,,,,,
KRDR,01-06-2022,22:56,METAR,Normal,280,8.0,,,9999.0,,-27.8,-32.6,30.32,1030.8,,,,,,,,,,,,,,,,,2200.0,FEW,2200.0,,,,,,
KRDR,01-06-2022,21:55,METAR,Normal,280,8.0,,,9999.0,,-26.4,-31.6,30.32,1030.6,,,,,,,,,,,,,,,,,1700.0,SCT,1700.0,,,,,,
KRDR,01-06-2022,21:23,METAR,Normal,280,8.0,,,9999.0,,-25.8,-30.9,30.32,1030.6,,,,,,,,,,,,,,,,1800.0,1800.0,BKN,1800.0,,,,,,
KRDR,01-06-2022,20:54,METAR,Normal,280,7.0,,,9999.0,,-25.9,-30.8,30.33,1031.0,,,,,,,,,,,,,,,,1400.0,1400.0,BKN,1400.0,BKN,1900.0,,,,
KRDR,01-06-2022,20:36,SPECI,Normal,290,7.0,,,9999.0,,-26.0,-31.0,30.32,1030.6,,,,,,,,,,,,,,,,1500.0,1500.0,BKN,1500.0,,,,,,
KRDR,01-06-2022,19:55,METAR,Normal,300,8.0,,,9999.0,,-25.6,-30.5,30.34,1031.4,,,,,,,,,,,,,,,,1700.0,1700.0,BKN,1700.0,,,,,,
KRDR,01-06-2022,18:55,METAR,Normal,280,4.0,,,9999.0,,-26.4,-31.4,30.35,1031.8,,,,,,,,,,,,,,,,1900.0,1900.0,BKN,1900.0,,,,,,
KRDR,01-06-2022,17:56,METAR,Normal,300,7.0,,,9999.0,,-27.1,-32.1,30.37,1032.5,,,,,,,,,,,,,,,,2100.0,2100.0,BKN,2100.0,,,,,,
KRDR,01-06-2022,16:55,METAR,Normal,290,10.0,,,9999.0,,-27.2,-32.0,30.41,1033.8,,,,,,,,,,,,,,,,1800.0,1800.0,OVC,1800.0,,,,,,
KRDR,01-06-2022,15:57,METAR,Normal,300,9.0,,,9999.0,,-27.0,-31.7,30.42,1034.2,,,,,,,,,,,,,,,,2000.0,2000.0,OVC,2000.0,,,,,,
KRDR,01-06-2022,14:59,METAR,Normal,300,10.0,,,9999.0,,-26.9,-31.6,30.40,1033.5,,,,,,,,,,,,,,,,2200.0,2200.0,OVC,2200.0,,,,,,
KRDR,01-06-2022,13:58,METAR,Normal,300,8.0,,,9999.0,,-26.1,-30.4,30.40,1033.4,,,,,,,,,,,,,,,,2200.0,2200.0,OVC,2200.0,,,,,,
KRDR,01-06-2022,12:58,METAR,Normal,300,10.0,,,9999.0,,-25.7,-29.8,30.41,1033.7,,,,,,,,,,,,,,,,2100.0,2100.0,OVC,2100.0,,,,,,
KRDR,01-06-2022,11:56,METAR,Normal,320,5.0,,,9999.0,,-25.6,-29.6,30.40,1033.4,,,,,,,,,,,,,,,,2000.0,2000.0,OVC,2000.0,,,,,,
KRDR,01-06-2022,10:58,METAR,Normal,330,9.0,,,9999.0,,-25.3,-29.4,30.41,1033.7,,,,,,,,,,,,,,,,2000.0,2000.0,BKN,2000.0,,,,,,
KRDR,01-06-2022,09:59,METAR,Normal,330,9.0,,,9999.0,,-25.0,-29.1,30.41,1033.7,,,,,,,,,,,,,,,,1900.0,1900.0,BKN,1900.0,,,,,,
KRDR,01-06-2022,08:57,METAR,Normal,340,12.0,,,9999.0,,-24.8,-28.8,30.41,1033.7,,,,,,,,,,,,,,,,1800.0,1800.0,BKN,1800.0,,,,,,
KRDR,01-06-2022,07:58,METAR,Normal,330,12.0,,,9999.0,,-25.5,-29.5,30.40,1033.3,,,,,,,,,,,,,,,,1800.0,1800.0,BKN,1800.0,,,,,,
KRDR,01-06-2022,06:56,METAR,Normal,330,10.0,,,9999.0,,-25.9,-30.0,30.40,,,,,,,,,,,,,,,,,,2000.0,SCT,2000.0,,,,,,
KRDR,01-06-2022,05:56,METAR,Normal,330,10.0,,,9999.0,,-25.7,-29.7,30.40,1033.4,,,,,,,,,,,,,,,,200.0,200.0,SCT,200.0,OVC,600.0,,,,
KRDR,01-06-2022,04:56,METAR,Normal,330,12.0,,,9999.0,,-25.6,-29.3,30.40,1033.4,,,,,,,,,,,,,,,,300.0,300.0,OVC,300.0,,,,,,
KRDR,01-06-2022,03:56,METAR,Normal,330,13.0,,,9999.0,,-25.3,-29.0,30.39,1032.9,,,,,,,,,,,,,,,,300.0,300.0,OVC,300.0,,,,,,
KRDR,01-06-2022,02:57,METAR,Normal,330,15.0,,,9999.0,,-25.0,-28.8,30.38,1032.6,,,,,,,,,,,,,,,,300.0,300.0,OVC,300.0,,,,,,
KRDR,01-06-2022,01:56,METAR,Normal,340,13.0,,,9999.0,,-24.8,-28.3,30.37,1032.3,,,,,,,,,,,,,,,,300.0,300.0,OVC,300.0,,,,,,
KRDR,01-06-2022,00:56,METAR,Normal,340,16.0,,,9999.0,,-24.8,-28.6,30.36,1031.8,,,,,,,,,,,,,,,,500.0,500.0,OVC,500.0,,,,,,
KRDR,01-05-2022,23:56,METAR,Normal,340,17.0,22.0,,9999.0,,-24.8,-28.3,30.33,1030.8,,,,,,,,,,,,,,,,400.0,400.0,OVC,400.0,,,,,,
KRDR,01-05-2022,22:56,METAR,Normal,340,17.0,,,8000.0,Blowing or Drifting Snow or Sand,-24.5,-28.5,30.31,1030.0,27,,,,,,,,,,,,,,,300.0,500.0,OVC,500.0,,,,,,
KRDR,01-05-2022,22:50,SPECI,Normal,340,17.0,,,8000.0,Blowing or Drifting Snow or Sand,-25.0,-28.0,30.30,1029.8,27,,,,,,,,,,,,,,,300.0,500.0,OVC,500.0,,,,,,
KRDR,01-05-2022,22:06,SPECI,Normal,350,15.0,,,4800.0,Blowing or Drifting Snow or Sand,-24.0,-28.0,30.29,1029.3,27,,,,,,,,,,,,,,,300.0,300.0,OVC,300.0,,,,,,
KRDR,01-05-2022,21:56,METAR,Normal,340,14.0,,,8000.0,Blowing or Drifting Snow or Sand,-24.1,-27.7,30.28,1029.0,27,,,,,,,,,,,,,,,400.0,400.0,OVC,400.0,,,,,,
KRDR,01-05-2022,21:26,SPECI,Normal,350,18.0,,,6400.0,Blowing or Drifting Snow or Sand,-24.0,-28.0,30.27,1028.6,27,,,,,,,,,,,,,,,300.0,300.0,BKN,300.0,OVC,700.0,,,,
KRDR,01-05-2022,21:16,SPECI,Normal,350,15.0,24.0,,4400.0,Blowing or Drifting Snow or Sand,-24.0,-28.0,30.26,1028.3,27,,,,,,,,,,,,,,,300.0,300.0,OVC,300.0,,,,,,
KRDR,01-05-2022,21:06,SPECI,Normal,350,17.0,,,4800.0,Blowing or Drifting Snow or Sand,-24.0,-28.0,30.26,1028.3,27,,,,,,,,,,,,,,,300.0,300.0,BKN,300.0,OVC,700.0,,,,
KRDR,01-05-2022,20:56,METAR,Normal,340,18.0,,320/26KTS,4000.0,Blowing or Drifting Snow or Sand,-24.1,-27.7,30.26,1028.3,27,,,,,,,,,,,,,,,300.0,300.0,OVC,300.0,,,,,,
KRDR,01-05-2022,20:26,SPECI,Normal,350,18.0,,,4000.0,Blowing or Drifting Snow or Sand,-24.0,-27.0,30.24,1027.5,27,,,,,,,,,,,,,,,200.0,200.0,OVC,200.0,,,,,,
KRDR,01-05-2022,20:16,SPECI,Normal,350,17.0,,,4800.0,Blowing or Drifting Snow or Sand,-24.0,-27.0,30.24,1027.5,27,,,,,,,,,,,,,,,200.0,200.0,OVC,200.0,,,,,,
KRDR,01-05-2022,20:06,SPECI,Normal,350,14.0,,,3200.0,Blowing or Drifting Snow or Sand,-24.0,-27.0,30.24,1027.5,27,,,,,,,,,,,,,,,200.0,200.0,OVC,200.0,,,,,,
KRDR,01-05-2022,19:56,METAR,Normal,350,19.0,,350/26KTS,4000.0,Blowing or Drifting Snow or Sand,-23.9,-27.3,30.23,1027.2,27,,,,,,,,,,,,,,,400.0,400.0,OVC,400.0,,,,,,
KRDR,01-05-2022,19:36,SPECI,Normal,350,18.0,,,4000.0,Blowing or Drifting Snow or Sand,-24.0,-27.0,30.23,1027.2,27,,,,,,,,,,,,,,,300.0,300.0,OVC,300.0,,,,,,
KRDR,01-05-2022,19:16,SPECI,Normal,350,19.0,26.0,,2400.0,Blowing or Drifting Snow or Sand,-24.0,-27.0,30.22,1026.8,27,,,,,,,,,,,,,,,200.0,200.0,OVC,200.0,,,,,,
KRDR,01-05-2022,19:06,SPECI,Normal,360,17.0,22.0,,2200.0,Blowing or Drifting Snow or Sand,-23.0,-27.0,30.22,1026.7,27,,,,,,,,,,,,,,,200.0,200.0,OVC,200.0,,,,,,
KRDR,01-05-2022,18:56,METAR,Normal,350,17.0,,350/28KTS,2400.0,Blowing or Drifting Snow or Sand,-23.4,-26.8,30.21,1026.4,27,,,,,,,,,,,,,,,200.0,200.0,OVC,200.0,,,,,,
KRDR,01-05-2022,18:51,SPECI,Normal,360,16.0,,,2400.0,Blowing or Drifting Snow or Sand,-23.0,-27.0,30.21,1026.4,27,,,,,,,,,,,,,,,200.0,200.0,OVC,200.0,,,,,,
KRDR,01-05-2022,18:41,SPECI,Normal,360,20.0,,,2000.0,Blowing or Drifting Snow or Sand,-23.0,-27.0,30.21,1026.4,27,,,,,,,,,,,,,,,200.0,200.0,OVC,200.0,,,,,,
KRDR,01-05-2022,18:31,SPECI,Normal,350,18.0,,,1600.0,Blowing or Drifting Snow or Sand,-23.0,-27.0,30.21,1026.4,27,,,,,,,,,,,,,,,200.0,200.0,OVC,200.0,,,,,,
KRDR,01-05-2022,18:06,SPECI,Normal,350,17.0,28.0,,2600.0,Blowing or Drifting Snow or Sand,-23.0,-27.0,30.22,1026.6,27,,,,,,,,,,,,,,,200.0,400.0,OVC,400.0,,,,,,
KRDR,01-05-2022,17:56,METAR,Normal,360,20.0,,350/27KTS,2200.0,Blowing or Drifting Snow or Sand,-23.5,-26.9,30.22,1026.6,27,,,,,,,,,,,,,,,200.0,200.0,BKN,200.0,OVC,600.0,,,,
KRDR,01-05-2022,17:46,SPECI,Normal,340,20.0,25.0,,2200.0,Blowing or Drifting Snow or Sand,-23.0,-27.0,30.22,1026.6,27,,,,,,,,,,,,,,,200.0,200.0,OVC,200.0,,,,,,
KRDR,01-05-2022,17:36,SPECI,Normal,360,18.0,,,2400.0,Blowing or Drifting Snow or Sand,-23.0,-27.0,30.22,1026.6,27,,,,,,,,,,,,,,,200.0,200.0,OVC,200.0,,,,,,
KRDR,01-05-2022,17:26,SPECI,Normal,340,20.0,,,2000.0,Blowing or Drifting Snow or Sand,-23.0,-27.0,30.22,1026.6,27,,,,,,,,,,,,,,,200.0,200.0,OVC,200.0,,,,,,
KRDR,01-05-2022,17:16,SPECI,Normal,350,17.0,25.0,,2200.0,Blowing or Drifting Snow or Sand,-23.0,-27.0,30.22,1026.6,27,,,,,,,,,,,,,,,300.0,300.0,OVC,300.0,,,,,,
KRDR,01-05-2022,16:56,METAR,Normal,350,18.0,26.0,350/29KTS,2400.0,Blowing or Drifting Snow or Sand,-23.6,-26.9,30.21,1026.3,27,,,,,,,,,,,,,,,300.0,300.0,OVC,300.0,,,,,,
KRDR,01-05-2022,16:51,SPECI,Normal,360,21.0,29.0,,2000.0,Blowing or Drifting Snow or Sand,-24.0,-27.0,30.21,1026.3,27,,,,,,,,,,,,,,,300.0,300.0,OVC,300.0,,,,,,
KRDR,01-05-2022,16:21,SPECI,Normal,350,18.0,,,2200.0,Blowing or Drifting Snow or Sand,-23.0,-27.0,30.20,1026.0,27,,,,,,,,,,,,,,,200.0,200.0,BKN,200.0,OVC,700.0,,,,
KRDR,01-05-2022,16:16,SPECI,Normal,350,20.0,26.0,,1600.0,Blowing or Drifting Snow or Sand,-23.0,-27.0,30.20,1025.9,27,,,,,,,,,,,,,,,200.0,200.0,BKN,200.0,OVC,700.0,,,,
KRDR,01-05-2022,16:06,SPECI,Normal,350,16.0,,,2000.0,Blowing or Drifting Snow or Sand,-23.0,-26.0,30.19,1025.5,27,,,,,,,,,,,,,,,200.0,200.0,BKN,200.0,OVC,700.0,,,,
KRDR,01-05-2022,15:56,METAR,Normal,360,18.0,24.0,330/30KTS,2800.0,Blowing or Drifting Snow or Sand,-23.5,-26.8,30.19,1025.5,27,,,,,,,,,,,,,,,300.0,300.0,BKN,300.0,OVC,900.0,,,,
KRDR,01-05-2022,15:36,SPECI,Normal,350,24.0,29.0,,1800.0,Blowing or Drifting Snow or Sand,-23.0,-26.0,30.18,1025.2,27,,,,,,,,,,,,,,,200.0,200.0,BKN,200.0,OVC,900.0,,,,
KRDR,01-05-2022,15:16,SPECI,Normal,350,19.0,28.0,,2600.0,Blowing or Drifting Snow or Sand,-23.0,-27.0,30.17,1024.8,27,,,,,,,,,,,,,,,300.0,300.0,OVC,300.0,,,,,,
KRDR,01-05-2022,15:06,SPECI,Normal,350,21.0,27.0,,2200.0,Blowing or Drifting Snow or Sand,-23.0,-27.0,30.16,1024.5,27,,,,,,,,,,,,,,,200.0,200.0,BKN,200.0,OVC,600.0,,,,
KRDR,01-05-2022,14:56,METAR,Normal,350,20.0,27.0,330/29KTS,3000.0,Blowing or Drifting Snow or Sand,-23.2,-26.3,30.16,1024.5,27,,,,,,,,,,,TRACE,,,,200.0,200.0,OVC,200.0,,,,,,
KRDR,01-05-2022,13:56,METAR,Normal,350,23.0,,330/33KTS,3200.0,Blowing or Drifting Snow or Sand,-22.7,-25.8,30.12,1023.1,27,,,,,,,,,,TRACE,,,,,200.0,200.0,BKN,200.0,OVC,600.0,,,,
KRDR,01-05-2022,13:50,SPECI,Normal,350,20.0,29.0,,3200.0,Blowing or Drifting Snow or Sand,-23.0,-26.0,30.11,1022.8,27,,,,,,,,,,,,,,,200.0,200.0,OVC,200.0,,,,,,
KRDR,01-05-2022,13:44,SPECI,Normal,350,23.0,29.0,,2800.0,Blowing or Drifting Snow or Sand,-23.0,-26.0,30.11,1022.8,27,,,,,,,,,,,,,,,200.0,200.0,OVC,200.0,,,,,,
KRDR,01-05-2022,13:34,SPECI,Normal,350,19.0,,,2000.0,Blowing or Drifting Snow or Sand,-22.0,-25.0,30.10,1022.4,27,,,,,,,,,,,,,,,200.0,200.0,BKN,200.0,OVC,600.0,,,,
KRDR,01-05-2022,13:17,SPECI,Normal,350,24.0,30.0,,3200.0,Blowing or Drifting Snow or Sand,-22.0,-25.0,30.09,1022.1,27,,,,,,,,,,,,,,,200.0,400.0,OVC,400.0,,,,,,
KRDR,01-05-2022,13:16,SPECI,Normal,350,24.0,28.0,,3600.0,Blowing or Drifting Snow or Sand,-22.0,-25.0,30.09,1022.1,27,,,,,,,,,,,,,,,200.0,200.0,OVC,200.0,,,,,,
KRDR,01-05-2022,12:56,METAR,Normal,360,23.0,30.0,330/31KTS,2400.0,Blowing or Drifting Snow or Sand,-22.0,-25.0,30.08,1021.8,27,,,,,,,,,,TRACE,,,,,200.0,200.0,BKN,200.0,OVC,600.0,,,,
KRDR,01-05-2022,12:40,SPECI,Normal,350,23.0,29.0,,2200.0,Blowing or Drifting Snow or Sand,-22.0,-25.0,30.08,1021.8,27,,,,,,,,,,,,,,,200.0,200.0,BKN,200.0,OVC,600.0,,,,
KRDR,01-05-2022,12:34,SPECI,Normal,350,23.0,28.0,,2400.0,Blowing or Drifting Snow or Sand,-22.0,-25.0,30.08,1021.8,27,,,,,,,,,,,,,,,200.0,200.0,BKN,200.0,OVC,600.0,,,,
KRDR,01-05-2022,12:28,SPECI,Normal,350,23.0,28.0,,2200.0,Blowing or Drifting Snow or Sand,-22.0,-25.0,30.07,1021.4,27,,,,,,,,,,,,,,,200.0,200.0,OVC,200.0,,,,,,
KRDR,01-05-2022,12:16,SPECI,Normal,350,22.0,28.0,,2600.0,Blowing or Drifting Snow or Sand,-21.0,-24.0,30.07,1021.3,27,,,,,,,,,,,,,,,200.0,200.0,OVC,200.0,,,,,,
KRDR,01-05-2022,11:56,METAR,Normal,340,23.0,26.0,350/34KTS,2200.0,Blowing or Drifting Snow or Sand,-21.1,-24.0,30.05,1020.7,27,,,,,,,,,,TRACE,,.04 IN,.12 IN,,200.0,200.0,OVC,200.0,,,,,,
KRDR,01-05-2022,10:56,METAR,Normal,350,22.0,33.0,330/35KTS,1800.0,Blowing or Drifting Snow or Sand,-20.4,-23.3,30.01,1019.3,27,,,,,,,,,,TRACE,,,,,200.0,200.0,OVC,200.0,,,,,,
KRDR,01-05-2022,09:56,METAR,Normal,350,23.0,32.0,320/36KTS,1800.0,Blowing or Drifting Snow or Sand,-19.8,-22.6,29.99,1018.5,27,,,,,,,,,,.01 IN,,,,,200.0,200.0,BKN,200.0,OVC,2300.0,,,,
KRDR,01-05-2022,09:51,SPECI,Normal,350,27.0,31.0,,1600.0,Blowing or Drifting Snow or Sand,-20.0,-22.0,29.98,1018.2,27,,,,,,,,,,,,,,,200.0,200.0,BKN,200.0,OVC,2300.0,,,,
KRDR,01-05-2022,09:06,SPECI,Normal,350,24.0,31.0,,1800.0,Blowing or Drifting Snow or Sand,-19.0,-22.0,29.97,1017.8,27,,,,,,,,,,,,,,,200.0,200.0,BKN,200.0,,,,,,
KRDR,01-05-2022,09:01,SPECI,Normal,350,24.0,34.0,,1600.0,Blowing or Drifting Snow or Sand,-19.0,-22.0,29.97,1017.8,27,,,,,,,,,,,,,,,200.0,200.0,BKN,200.0,,,,,,
KRDR,01-05-2022,08:56,METAR,Normal,350,25.0,34.0,340/36KTS,1800.0,Blowing or Drifting Snow or Sand,-19.1,-21.9,29.97,1017.8,27,,,,,,,,,,.01 IN,.03 IN,,,,200.0,200.0,BKN,200.0,,,,,,
KRDR,01-05-2022,08:37,SPECI,Normal,360,22.0,33.0,,1600.0,Blowing or Drifting Snow or Sand,-19.0,-22.0,29.96,1017.5,27,,,,,,,,,,,,,,,200.0,200.0,BKN,200.0,,,,,,
KRDR,01-05-2022,08:11,SPECI,Normal,350,26.0,35.0,,1400.0,Blowing or Drifting Snow or Sand,-18.0,-21.0,29.94,1016.8,27,,,,,,,,,,,,,,,200.0,200.0,BKN,200.0,,,,,,
KRDR,01-05-2022,07:56,METAR,Normal,350,21.0,34.0,330/36KTS,1600.0,Blowing or Drifting Snow or Sand,-18.0,-20.7,29.94,1016.8,27,,,,,,,,,,.01 IN,,,,,200.0,200.0,BKN,200.0,,,,,,
KRDR,01-05-2022,07:51,SPECI,Normal,360,29.0,34.0,,1600.0,Blowing or Drifting Snow or Sand,-18.0,-21.0,29.92,1016.1,27,,,,,,,,,,,,,,,200.0,200.0,BKN,200.0,OVC,1200.0,,,,
KRDR,01-05-2022,07:46,SPECI,Normal,350,26.0,31.0,,1800.0,Blowing or Drifting Snow or Sand,-18.0,-20.0,29.93,1016.5,27,,,,,,,,,,,,,,,200.0,200.0,BKN,200.0,OVC,1200.0,,,,
KRDR,01-05-2022,07:31,SPECI,Normal,350,24.0,36.0,,1600.0,Blowing or Drifting Snow or Sand,-18.0,-20.0,29.93,1016.5,27,,,,,,,,,,,,,,,200.0,200.0,OVC,200.0,,,,,,
KRDR,01-05-2022,07:06,SPECI,Normal,350,27.0,33.0,,2000.0,Blowing or Drifting Snow or Sand,-17.0,-19.0,29.91,1015.8,27,,,,,,,,,,,,,,,200.0,200.0,OVC,200.0,,,,,,
KRDR,01-05-2022,07:01,SPECI,Normal,350,23.0,33.0,,1800.0,Blowing or Drifting Snow or Sand,-17.0,-19.0,29.91,1015.8,27,,,,,,,,,,,,,,,200.0,200.0,OVC,200.0,,,,,,
KRDR,01-05-2022,06:56,METAR,Normal,350,24.0,31.0,340/33KTS,2000.0,Blowing or Drifting Snow or Sand,-16.8,-19.3,29.91,1015.8,27,,,,,,,,,,.01 IN,,,,,200.0,200.0,OVC,200.0,,,,,,
KRDR,01-05-2022,06:36,SPECI,Normal,350,23.0,30.0,,1800.0,Blowing or Drifting Snow or Sand,-16.0,-19.0,29.90,1015.4,27,,,,,,,,,,,,,,,200.0,200.0,OVC,200.0,,,,,,
KRDR,01-05-2022,06:26,SPECI,Normal,360,24.0,33.0,,1600.0,Blowing or Drifting Snow or Sand,-16.0,-19.0,29.90,1015.4,27,,,,,,,,,,,,,,,200.0,200.0,OVC,200.0,,,,,,
KRDR,01-05-2022,06:16,SPECI,Normal,350,22.0,30.0,,2200.0,Blowing or Drifting Snow or Sand,-16.0,-19.0,29.90,1015.4,27,,,,,,,,,,,,,,,200.0,200.0,OVC,200.0,,,,,,
KRDR,01-05-2022,05:56,METAR,Normal,350,24.0,31.0,320/32KTS,2400.0,Light Snow/Blowing or Drifting Snow or Sand,-15.7,-18.3,29.89,1015.0,71,27,,,,,,,,,TRACE,,TRACE,,,200.0,200.0,OVC,200.0,,,,,,
KRDR,01-05-2022,05:36,SPECI,Normal,350,22.0,28.0,,2600.0,Light Snow/Blowing or Drifting Snow or Sand,-15.0,-18.0,29.89,1015.0,71,27,,,,,,,,,,,,,,200.0,200.0,OVC,200.0,,,,,,
KRDR,01-05-2022,05:26,SPECI,Normal,350,22.0,30.0,,2200.0,Light Snow/Blowing or Drifting Snow or Sand,-15.0,-18.0,29.89,1015.0,71,27,,,,,,,,,,,,,,200.0,200.0,OVC,200.0,,,,,,
KRDR,01-05-2022,04:56,METAR,Normal,350,24.0,,330/30KTS,2800.0,Light Snow/Blowing or Drifting Snow or Sand,-14.6,-17.0,29.88,1014.7,71,27,,,,,,,,,TRACE,,,,,200.0,200.0,OVC,200.0,,,,,,
KRDR,01-05-2022,03:56,METAR,Normal,350,20.0,27.0,320/31KTS,2600.0,Light Snow/Blowing or Drifting Snow or Sand,-13.7,-16.0,29.86,1014.0,71,27,,,,,,,,,TRACE,,,,,200.0,200.0,OVC,200.0,,,,,,
KRDR,01-05-2022,03:46,SPECI,Normal,350,22.0,27.0,,2600.0,Light Snow/Blowing or Drifting Snow or Sand,-14.0,-16.0,29.86,1014.0,71,27,,,,,,,,,,,,,,200.0,200.0,OVC,200.0,,,,,,
KRDR,01-05-2022,03:36,SPECI,Normal,350,21.0,,,2200.0,Light Snow/Blowing or Drifting Snow or Sand,-14.0,-16.0,29.85,1013.6,71,27,,,,,,,,,,,,,,200.0,200.0,OVC,200.0,,,,,,
KRDR,01-05-2022,03:26,SPECI,Normal,350,24.0,27.0,,2400.0,Light Snow/Blowing or Drifting Snow or Sand,-14.0,-16.0,29.85,1013.6,71,27,,,,,,,,,,,,,,200.0,200.0,OVC,200.0,,,,,,
KRDR,01-05-2022,03:13,SPECI,Normal,350,21.0,25.0,,1800.0,Light Snow/Blowing or Drifting Snow or Sand,-13.0,-16.0,29.84,1013.3,71,27,,,,,,,,,,,,,,200.0,200.0,OVC,200.0,,,,,,
KRDR,01-05-2022,03:06,SPECI,Normal,350,20.0,26.0,,2200.0,Light Snow/Blowing or Drifting Snow or Sand,-13.0,-16.0,29.84,1013.3,71,27,,,,,,,,,,,,,,200.0,200.0,OVC,200.0,,,,,,
KRDR,01-05-2022,02:56,METAR,Normal,350,21.0,,340/28KTS,2400.0,Light Snow/Blowing or Drifting Snow or Sand,-13.3,-15.6,29.84,1013.3,71,27,,,,,,,,,TRACE,TRACE,,,,200.0,200.0,OVC,200.0,,,,,,
KRDR,01-05-2022,02:36,SPECI,Normal,350,19.0,,,2400.0,Light Snow/Blowing or Drifting Snow or Sand,-13.0,-15.0,29.84,1013.3,71,27,,,,,,,,,,,,,,200.0,200.0,OVC,200.0,,,,,,
KRDR,01-05-2022,02:26,SPECI,Normal,360,19.0,24.0,,2200.0,Light Snow/Blowing or Drifting Snow or Sand,-13.0,-15.0,29.83,1013.0,71,27,,,,,,,,,,,,,,200.0,200.0,OVC,200.0,,,,,,
KRDR,01-05-2022,02:06,SPECI,Normal,360,20.0,27.0,,2600.0,Light Snow/Blowing or Drifting Snow or Sand,-13.0,-15.0,29.82,1012.6,71,27,,,,,,,,,,,,,,200.0,200.0,OVC,200.0,,,,,,
KRDR,01-05-2022,01:56,METAR,Normal,360,21.0,27.0,360/27KTS,2200.0,Light Snow/Blowing or Drifting Snow or Sand,-12.9,-15.2,29.82,1012.6,71,27,,,,,,,,,TRACE,,,,,200.0,200.0,OVC,200.0,,,,,,
KRDR,01-05-2022,01:16,SPECI,Normal,360,20.0,26.0,,2200.0,Light Snow/Blowing or Drifting Snow or Sand/Mist,-13.0,-15.0,29.80,1011.9,71,27,10,,,,,,,,,,,,,200.0,200.0,OVC,200.0,,,,,,
KRDR,01-05-2022,01:03,SPECI,Normal,350,21.0,,,2800.0,Light Snow/Blowing or Drifting Snow or Sand,-13.0,-15.0,29.80,1011.9,71,27,,,,,,,,,,,,,,200.0,200.0,OVC,200.0,,,,,,
KRDR,01-05-2022,00:56,METAR,Normal,350,18.0,24.0,,3000.0,Light Snow/Blowing or Drifting Snow or Sand,-13.1,-15.4,29.80,1011.9,71,27,,,,,,,,,TRACE,,,,,200.0,200.0,OVC,200.0,,,,,,
KRDR,01-05-2022,00:48,SPECI,Normal,350,20.0,24.0,,3000.0,Light Snow/Blowing or Drifting Snow or Sand,-13.0,-15.0,29.79,1011.6,71,27,,,,,,,,,,,,,,200.0,200.0,OVC,200.0,,,,,,
KRDR,01-05-2022,00:46,SPECI,Normal,350,19.0,,,3000.0,Light Snow/Blowing or Drifting Snow or Sand,-13.0,-15.0,29.80,1011.9,71,27,,,,,,,,,,,,,,200.0,200.0,OVC,200.0,,,,,,
KRDR,01-05-2022,00:26,SPECI,Normal,350,17.0,,,3600.0,Blowing or Drifting Snow or Sand,-13.0,-16.0,29.79,1011.6,27,,,,,,,,,,,,,,,200.0,200.0,OVC,200.0,,,,,,
KRDR,01-04-2022,23:56,METAR,Normal,350,17.0,,,2400.0,Light Snow/Blowing or Drifting Snow or Sand,-13.3,-15.6,29.78,1011.3,71,27,,,,,,,,,TRACE,,TRACE,,,200.0,200.0,OVC,200.0,,,,,,
KRDR,01-04-2022,23:04,SPECI,Normal,350,17.0,23.0,,1200.0,Light Snow/Blowing or Drifting Snow or Sand,-13.0,-15.0,29.76,1010.7,71,27,,,,,,,,,,,,,,200.0,200.0,OVC,200.0,,,,,,
KRDR,01-04-2022,22:56,METAR,Normal,350,18.0,23.0,,2000.0,Light Snow/Mist,-13.2,-15.5,29.76,1010.7,71,10,,,,,,,,,TRACE,,,,,200.0,200.0,OVC,200.0,,,,,,
KRDR,01-04-2022,22:55,SPECI,Normal,350,18.0,23.0,,2000.0,Light Snow/Mist,-13.0,-15.0,29.76,1010.7,71,10,,,,,,,,,,,,,,200.0,200.0,OVC,200.0,,,,,,
KRDR,01-04-2022,22:37,SPECI,Normal,350,16.0,,,4400.0,Blowing or Drifting Snow or Sand,-13.0,-15.0,29.75,1010.3,27,,,,,,,,,,,,,,,200.0,200.0,OVC,200.0,,,,,,
KRDR,01-04-2022,22:27,SPECI,Normal,350,17.0,,,4800.0,Blowing or Drifting Snow or Sand,-13.0,-15.0,29.75,1010.3,27,,,,,,,,,,,,,,,200.0,200.0,OVC,200.0,,,,,,
KRDR,01-04-2022,22:20,SPECI,Normal,360,16.0,,,2000.0,Light Snow/Mist,-13.0,-15.0,29.75,1010.4,71,10,,,,,,,,,,,,,,200.0,200.0,OVC,200.0,,,,,,
KRDR,01-04-2022,22:10,SPECI,Normal,360,16.0,21.0,,4400.0,Blowing or Drifting Snow or Sand,-13.0,-15.0,29.74,1010.0,27,,,,,,,,,,,,,,,100.0,100.0,OVC,100.0,,,,,,
KRDR,01-04-2022,22:00,SPECI,Normal,360,15.0,,,4800.0,Blowing or Drifting Snow or Sand,-13.0,-15.0,29.73,1009.7,27,,,,,,,,,,,,,,,100.0,100.0,OVC,100.0,,,,,,
KRDR,01-04-2022,21:56,METAR,Normal,360,17.0,,,3200.0,Light Snow/Mist,-12.7,-15.0,29.73,1009.7,71,10,,,,,,,,,TRACE,,,,,100.0,100.0,OVC,100.0,,,,,,
KRDR,01-04-2022,21:46,SPECI,Normal,360,15.0,,,3200.0,Light Snow/Mist,-13.0,-15.0,29.73,1009.7,71,10,,,,,,,,,,,,,,100.0,100.0,OVC,100.0,,,,,,
KRDR,01-04-2022,21:41,SPECI,Normal,360,17.0,,,3200.0,Light Snow/Mist,-13.0,-15.0,29.72,1009.3,71,10,,,,,,,,,,,,,,200.0,200.0,BKN,200.0,OVC,800.0,,,,
KRDR,01-04-2022,21:29,SPECI,Normal,360,16.0,,,4000.0,Light Snow,-13.0,-15.0,29.72,1009.3,71,,,,,,,,,,,,,,,200.0,200.0,BKN,200.0,OVC,800.0,,,,
KRDR,01-04-2022,21:17,SPECI,Normal,10,16.0,,,4400.0,Light Snow/Mist,-13.0,-15.0,29.72,1009.3,71,10,,,,,,,,,,,,,,300.0,200.0,SCT,200.0,OVC,800.0,,,,
KRDR,01-04-2022,20:56,METAR,Normal,10,17.0,,,4800.0,Light Snow,-13.1,-15.7,29.71,1008.9,71,,,,,,,,,,TRACE,TRACE,,,,300.0,800.0,OVC,800.0,,,,,,
KRDR,01-04-2022,20:18,SPECI,Normal,10,15.0,,,6400.0,Light Snow,-14.0,-16.0,29.71,1009.0,71,,,,,,,,,,,,,,,200.0,200.0,SCT,200.0,OVC,800.0,,,,
KRDR,01-04-2022,19:56,METAR,Normal,10,18.0,,,6400.0,Light Snow,-13.8,-16.4,29.70,1008.6,71,,,,,,,,,,TRACE,,,,,200.0,200.0,BKN,200.0,OVC,800.0,,,,
KRDR,01-04-2022,19:40,SPECI,Normal,10,17.0,,,4800.0,Light Snow,-14.0,-16.0,29.70,1008.6,71,,,,,,,,,,,,,,,200.0,200.0,BKN,200.0,OVC,700.0,,,,
KRDR,01-04-2022,18:57,METAR,Normal,20,16.0,,,6400.0,Light Snow,-14.4,-17.1,29.70,1008.6,71,,,,,,,,,,,,,,,200.0,200.0,BKN,200.0,OVC,700.0,,,,
KRDR,01-04-2022,18:37,SPECI,Normal,20,15.0,,,8000.0,Light Snow,-15.0,-17.0,29.70,1008.6,71,,,,,,,,,,,,,,,200.0,200.0,BKN,200.0,OVC,700.0,,,,
KRDR,01-04-2022,18:07,SPECI,Normal,20,14.0,,,9999.0,Light Snow,-15.0,-18.0,29.71,1009.0,,,,71,,,,,,,,,,,,1200.0,200.0,SCT,200.0,OVC,1200.0,,,,
KRDR,01-04-2022,17:56,METAR,Normal,20,14.0,,,9999.0,,-15.0,-17.7,29.71,1009.0,,,,,,,,,,,,,,,,1000.0,200.0,SCT,200.0,OVC,1000.0,,,,
KRDR,01-04-2022,17:46,SPECI,Normal,20,14.0,,,9999.0,,-15.0,-18.0,29.72,1009.3,,,,,,,,,,,,,,,,1000.0,200.0,SCT,200.0,OVC,1000.0,,,,
KRDR,01-04-2022,16:56,METAR,Normal,20,13.0,,,9999.0,,-15.4,-18.1,29.74,1010.1,,,,,,,,,,,,,,,,1200.0,200.0,SCT,200.0,BKN,1200.0,,,,
KRDR,01-04-2022,16:19,SPECI,Normal,30,12.0,,,9999.0,,-16.0,-18.0,29.73,1009.7,,,,,,,,,,,,,,,,1000.0,200.0,SCT,200.0,BKN,1000.0,,,,
KRDR,01-04-2022,15:56,METAR,Normal,30,11.0,,,9999.0,,-16.1,-18.5,29.73,1009.7,,,,,,,,,,,,,,,,200.0,200.0,OVC,200.0,,,,,,
KRDR,01-04-2022,15:24,SPECI,Normal,30,11.0,,,9999.0,,-16.0,-18.0,29.75,1010.4,,,,,,,,,,,,,,,,2400.0,200.0,FEW,200.0,BKN,2400.0,,,,
KRDR,01-04-2022,14:56,METAR,Normal,30,11.0,,,9999.0,,-16.6,-18.9,29.75,1010.5,,,,,,,,,,,,,,,,200.0,200.0,BKN,200.0,OVC,11000.0,,,,
KRDR,01-04-2022,13:56,METAR,Normal,30,11.0,,,9999.0,,-16.7,-19.0,29.77,1011.2,,,,,,,,,,,,,,,,11000.0,200.0,SCT,200.0,OVC,11000.0,,,,
KRDR,01-04-2022,13:36,SPECI,Normal,10,11.0,,,9999.0,,-17.0,-19.0,29.78,1011.5,,,,,,,,,,,,,,,,12000.0,100.0,SCT,100.0,BKN,12000.0,,,,
KRDR,01-04-2022,13:30,SPECI,Normal,360,11.0,,,9999.0,,-17.0,-19.0,29.79,1011.9,,,,,,,,,,,,,,,,1400.0,100.0,SCT,100.0,BKN,1400.0,OVC,14000.0,,
KRDR,01-04-2022,13:06,SPECI,Normal,360,11.0,,,9999.0,,-17.0,-19.0,29.79,1011.9,,,,,,,,,,,,,,,,100.0,100.0,BKN,100.0,OVC,1200.0,,,,
KRDR,01-04-2022,12:56,METAR,Normal,360,10.0,,,9999.0,,-17.1,-19.3,29.79,1011.9,,,,,,,,,,,,,,,,14000.0,200.0,SCT,200.0,BKN,14000.0,,,,
KRDR,01-04-2022,11:56,METAR,Normal,10,6.0,,,9999.0,,-18.3,-20.5,29.78,1011.6,,,,,,,,,,,,,,,,14000.0,200.0,SCT,200.0,BKN,14000.0,,,,
KRDR,01-04-2022,11:36,SPECI,Normal,10,7.0,,,9999.0,,-18.0,-21.0,29.79,1011.9,,,,,,,,,,,,,,,,200.0,200.0,BKN,200.0,OVC,900.0,,,,
KRDR,01-04-2022,11:26,SPECI,Normal,20,7.0,,,9999.0,,-19.0,-21.0,29.79,1011.9,,,,,,,,,,,,,,,,900.0,200.0,SCT,200.0,BKN,900.0,OVC,16000.0,,
KRDR,01-04-2022,11:06,SPECI,Normal,360,5.0,,,9999.0,,-19.0,-21.0,29.80,1012.3,,,,,,,,,,,,,,,,16000.0,600.0,SCT,600.0,OVC,16000.0,,,,
KRDR,01-04-2022,10:56,METAR,Normal,360,5.0,,,9999.0,,-19.2,-21.3,29.80,1012.3,,,,,,,,,,,,,,,,600.0,600.0,BKN,600.0,OVC,17000.0,,,,
KRDR,01-04-2022,10:38,SPECI,Normal,30,4.0,,,9999.0,,-20.0,-22.0,29.81,1012.6,,,,,,,,,,,,,,,,500.0,500.0,BKN,500.0,,,,,,
KRDR,01-04-2022,10:28,SPECI,Normal,40,3.0,,,9999.0,,-20.0,-22.0,29.81,1012.6,,,,,,,,,,,,,,,,,500.0,FEW,500.0,,,,,,
KRDR,01-04-2022,09:56,METAR,Normal,10,6.0,,,9999.0,,-20.1,-22.3,29.84,1013.6,,,,,,,,,,,,,,,Clear,72000.0,,,,,,,,,
KRDR,01-04-2022,08:56,METAR,Normal,50,6.0,,,9999.0,,-17.8,-20.0,29.87,1014.5,,,,,,,,,,,,,,,,,600.0,FEW,600.0,,,,,,
KRDR,01-04-2022,08:16,SPECI,Normal,40,7.0,,,9999.0,,-17.0,-19.0,29.89,1015.1,,,,,,,,,,,,,,,,,800.0,SCT,800.0,,,,,,
KRDR,01-04-2022,07:56,METAR,Normal,60,9.0,,,9999.0,,-17.1,-19.3,29.90,1015.4,,,,,,,,,,,,,,,,800.0,800.0,OVC,800.0,,,,,,
KRDR,01-04-2022,07:16,SPECI,Normal,10,6.0,,,9999.0,,-17.0,-20.0,29.94,1016.8,,,,,,,,,,,,,,,,700.0,700.0,OVC,700.0,,,,,,
KRDR,01-04-2022,06:56,METAR,Normal,360,7.0,,,9999.0,,-17.6,-20.0,29.95,1017.2,,,,,,,,,,,,,,,,600.0,600.0,OVC,600.0,,,,,,
KRDR,01-04-2022,05:56,METAR,Normal,20,4.0,,,9999.0,,-17.9,-20.4,29.99,1018.6,,,,,,,,,,,,,,,,700.0,700.0,OVC,700.0,,,,,,
KRDR,01-04-2022,05:26,SPECI,Normal,30,4.0,,,9999.0,,-18.0,-21.0,30.01,1019.3,,,,,,,,,,,,,,,,600.0,600.0,OVC,600.0,,,,,,
KRDR,01-04-2022,05:06,SPECI,Normal,20,4.0,,,9999.0,,-18.0,-21.0,30.03,1020.0,,,,,,,,,,,,,,,,700.0,700.0,OVC,700.0,,,,,,
KRDR,01-04-2022,04:56,METAR,Normal,20,4.0,,,9999.0,,-18.4,-20.9,30.03,1020.0,,,,,,,,,,,,,,,,600.0,600.0,OVC,600.0,,,,,,
KRDR,01-04-2022,04:55,SPECI,Normal,20,4.0,,,9999.0,,-18.0,-21.0,30.03,1020.0,,,,,,,,,,,,,,,,600.0,600.0,OVC,600.0,,,,,,
KRDR,01-04-2022,04:48,SPECI,Normal,40,5.0,,,9999.0,,-18.0,-21.0,30.03,1020.0,,,,,,,,,,,,,,,,800.0,800.0,OVC,800.0,,,,,,
KRDR,01-04-2022,04:06,SPECI,Normal,20,6.0,,,9999.0,,-19.0,-21.0,30.04,1020.3,,,,,,,,,,,,,,,,900.0,900.0,OVC,900.0,,,,,,
KRDR,01-04-2022,03:56,METAR,Normal,20,6.0,,,9999.0,,-18.6,-21.3,30.05,1020.7,,,,,,,,,,,,,,,,1000.0,1000.0,OVC,1000.0,,,,,,
KRDR,01-04-2022,03:46,SPECI,Normal,20,6.0,,,9999.0,,-19.0,-21.0,30.04,1020.3,,,,,,,,,,,,,,,,1000.0,1000.0,OVC,1000.0,,,,,,
KRDR,01-04-2022,03:26,SPECI,Normal,20,7.0,,,9999.0,,-19.0,-21.0,30.04,1020.3,,,,,,,,,,,,,,,,900.0,900.0,OVC,900.0,,,,,,
KRDR,01-04-2022,03:06,SPECI,Normal,10,6.0,,,9999.0,,-19.0,-21.0,30.06,1020.9,,,,,,,,,,,,,,,,1000.0,400.0,SCT,400.0,OVC,1000.0,,,,
KRDR,01-04-2022,02:56,METAR,Normal,20,6.0,,,9999.0,,-18.8,-21.4,30.05,1020.6,,,,,,,,,,,,,,,,1200.0,400.0,SCT,400.0,OVC,1200.0,,,,
KRDR,01-04-2022,02:36,SPECI,Normal,30,6.0,,,9999.0,,-19.0,-22.0,30.06,1020.9,,,,,,,,,,,,,,,,500.0,500.0,SCT,500.0,OVC,1300.0,,,,
KRDR,01-04-2022,02:16,SPECI,Normal,30,6.0,,,9999.0,,-19.0,-22.0,30.06,1020.9,,,,,,,,,,,,,,,,500.0,500.0,OVC,500.0,,,,,,
KRDR,01-04-2022,01:56,METAR,Normal,30,7.0,,,9999.0,,-18.7,-21.5,30.07,1021.3,,,,,,,,,,,,,,,,900.0,900.0,BKN,900.0,,,,,,
KRDR,01-04-2022,00:56,METAR,Normal,20,7.0,,,9999.0,,-18.8,-21.6,30.10,1022.4,,,,,,,,,,,,,,,,800.0,800.0,OVC,800.0,,,,,,
KRDR,01-04-2022,00:37,SPECI,Normal,20,8.0,,,9999.0,,-19.0,-22.0,30.11,1022.7,,,,,,,,,,,,,,,,1000.0,1000.0,OVC,1000.0,,,,,,
KRDR,01-04-2022,00:26,SPECI,Normal,10,8.0,,,9999.0,,-19.0,-22.0,30.12,1023.0,,,,,,,,,,,,,,,,1200.0,1300.0,BKN,1300.0,,,,,,
KRDR,01-03-2022,23:56,METAR,Normal,10,6.0,,,9999.0,,-20.4,-23.0,30.14,1023.6,,,,,,,,,,,,,TRACE,,,,1300.0,SCT,1300.0,,,,,,
KRDR,01-03-2022,23:26,SPECI,Normal,10,4.0,,,9999.0,,-19.0,-22.0,30.14,1023.6,,,,,,,,,,,,,,,,1300.0,400.0,SCT,400.0,BKN,1300.0,,,,
KRDR,01-03-2022,23:23,SPECI,Normal,10,4.0,,,9999.0,,-19.0,-22.0,30.14,1023.6,,,,,,,,,,,,,,,,,400.0,SCT,400.0,,,,,,
KRDR,01-03-2022,22:56,METAR,Normal,20,7.0,,,9999.0,,-18.1,-20.9,30.14,1023.5,,,,,,,,,,,,,,,,,400.0,FEW,400.0,,,,,,
KRDR,01-03-2022,22:46,SPECI,Normal,20,8.0,,,9999.0,,-18.0,-21.0,30.14,1023.5,,,,,,,,,,,,,,,,,400.0,SCT,400.0,,,,,,
KRDR,01-03-2022,22:26,SPECI,Normal,20,8.0,,,9999.0,,-17.0,-20.0,30.14,1023.4,,,,,,,,,,,,,,,,400.0,400.0,OVC,400.0,,,,,,
KRDR,01-03-2022,22:16,SPECI,Normal,10,8.0,,,9999.0,,-17.0,-20.0,30.14,1023.5,,,,,,,,,,,,,,,,200.0,500.0,OVC,500.0,,,,,,
KRDR,01-03-2022,21:56,METAR,Normal,20,8.0,,,9999.0,,-16.8,-19.9,30.14,1023.4,,,,,,,,,,,TRACE,,,,,200.0,200.0,BKN,200.0,OVC,1400.0,,,,
KRDR,01-03-2022,20:56,METAR,Normal,20,11.0,,,8000.0,Light Snow Showers,-15.8,-19.1,30.13,1023.3,85,,,,,,,,,,TRACE,TRACE,,,,200.0,200.0,BKN,200.0,BKN,600.0,OVC,1300.0,,
KRDR,01-03-2022,20:39,SPECI,Normal,10,11.0,,,8000.0,Light Snow Showers,-15.0,-19.0,30.13,1023.2,85,,,,,,,,,,,,,,,200.0,200.0,BKN,200.0,BKN,800.0,OVC,1200.0,,
KRDR,01-03-2022,20:27,SPECI,Normal,10,10.0,,,8000.0,Light Snow Showers,-15.0,-19.0,30.12,1022.9,85,,,,,,,,,,,,,,,300.0,300.0,BKN,300.0,BKN,800.0,OVC,1200.0,,
KRDR,01-03-2022,20:14,SPECI,Normal,10,9.0,,,8000.0,Light Snow,-16.0,-19.0,30.12,1023.0,71,,,,,,,,,,,,,,,200.0,200.0,SCT,200.0,BKN,700.0,OVC,1200.0,,
KRDR,01-03-2022,19:56,METAR,Normal,10,8.0,,,8000.0,Light Snow,-15.7,-18.9,30.12,1022.9,71,,,,,,,,,,TRACE,,,,,200.0,200.0,BKN,200.0,OVC,700.0,,,,
KRDR,01-03-2022,19:53,SPECI,Normal,20,8.0,,,8000.0,Light Snow,-16.0,-19.0,30.12,1022.9,71,,,,,,,,,,,,,,,200.0,200.0,BKN,200.0,OVC,700.0,,,,
KRDR,01-03-2022,19:16,SPECI,Normal,20,11.0,,,9999.0,,-16.0,-19.0,30.11,1022.5,,,,,,,,,,,,,,,,300.0,300.0,BKN,300.0,OVC,1100.0,,,,
KRDR,01-03-2022,18:56,METAR,Normal,10,13.0,,,9999.0,,-15.6,-19.1,30.11,1022.5,,,,,,,,,,,,,,,,1100.0,700.0,FEW,700.0,BKN,1100.0,OVC,11000.0,,
KRDR,01-03-2022,18:50,SPECI,Normal,360,12.0,,,9999.0,,-16.0,-19.0,30.12,1022.9,,,,,,,,,,,,,,,,1100.0,1100.0,BKN,1100.0,OVC,11000.0,,,,
KRDR,01-03-2022,18:46,SPECI,Normal,10,12.0,,,9999.0,,-16.0,-19.0,30.11,1022.5,,,,,,,,,,,,,,,,11000.0,1200.0,SCT,1200.0,OVC,11000.0,,,,
KRDR,01-03-2022,18:36,SPECI,Normal,360,12.0,,,9999.0,,-16.0,-19.0,30.12,1022.9,,,,,,,,,,,,,,,,700.0,700.0,SCT,700.0,BKN,1300.0,OVC,11000.0,,
KRDR,01-03-2022,18:26,SPECI,Normal,10,10.0,,,9999.0,,-16.0,-19.0,30.12,1022.9,,,,,,,,,,,,,,,,500.0,700.0,BKN,700.0,OVC,11000.0,,,,
KRDR,01-03-2022,18:16,SPECI,Normal,10,13.0,,,9999.0,,-15.0,-19.0,30.12,1022.9,,,,,,,,,,,,,,,,500.0,500.0,OVC,500.0,,,,,,
KRDR,01-03-2022,18:06,SPECI,Normal,10,12.0,,,9999.0,,-16.0,-19.0,30.12,1023.0,,,,,,,,,,,,,,,,300.0,300.0,BKN,300.0,OVC,800.0,,,,
KRDR,01-03-2022,17:56,METAR,Normal,10,12.0,,,9999.0,,-15.4,-18.6,30.12,1023.0,,,,,,,,,,,TRACE,,TRACE,,,200.0,200.0,OVC,200.0,,,,,,
KRDR,01-03-2022,17:37,SPECI,Normal,10,7.0,,,9999.0,Light Snow,-15.0,-18.0,30.14,1023.6,71,,,,,,,,,,,,,,,200.0,200.0,OVC,200.0,,,,,,
KRDR,01-03-2022,16:56,METAR,Normal,20,10.0,,,9999.0,,-15.3,-18.3,30.14,1023.7,,,,,,,,,,,,,,,,200.0,200.0,BKN,200.0,OVC,700.0,,,,
KRDR,01-03-2022,16:36,SPECI,Normal,20,8.0,,,9999.0,,-15.0,-18.0,30.14,1023.7,,,,,,,,,,,,,,,,700.0,700.0,OVC,700.0,,,,,,
KRDR,01-03-2022,16:26,SPECI,Normal,30,11.0,,,9999.0,,-15.0,-18.0,30.13,1023.4,,,,,,,,,,,,,,,,600.0,600.0,OVC,600.0,,,,,,
KRDR,01-03-2022,16:16,SPECI,Normal,30,9.0,,,9999.0,,-15.0,-18.0,30.13,1023.4,,,,,,,,,,,,,,,,500.0,500.0,OVC,500.0,,,,,,
KRDR,01-03-2022,16:06,SPECI,Normal,30,8.0,,,9999.0,,-15.0,-18.0,30.13,1023.4,,,,,,,,,,,,,,,,600.0,600.0,OVC,600.0,,,,,,
KRDR,01-03-2022,15:56,METAR,Normal,20,8.0,,,9999.0,,-14.6,-17.9,30.12,1023.0,,,,,,,,,,,,,,,,700.0,700.0,OVC,700.0,,,,,,
KRDR,01-03-2022,15:23,SPECI,Normal,10,10.0,,,9999.0,,-14.0,-18.0,30.11,1022.7,,,,,,,,,,,,,,,,900.0,900.0,OVC,900.0,,,,,,
KRDR,01-03-2022,14:56,METAR,Normal,10,10.0,,,9999.0,,-13.8,-17.5,30.10,1022.4,,,,,,,,,,,,,,,,1100.0,1100.0,OVC,1100.0,,,,,,
KRDR,01-03-2022,13:56,METAR,Normal,340,8.0,,,9999.0,,-13.7,-17.2,30.07,1021.3,,,,,,,,,,,,,,,,1400.0,1400.0,BKN,1400.0,OVC,10000.0,,,,
KRDR,01-03-2022,12:56,METAR,Normal,340,6.0,,,9999.0,,-15.4,-18.4,30.04,1020.3,,,,,,,,,,,,,,,,11000.0,900.0,FEW,900.0,OVC,11000.0,,,,
KRDR,01-03-2022,12:06,SPECI,Normal,20,9.0,,,9999.0,,-13.0,-16.0,30.02,1019.6,,,,,,,,,,,,,,,,1000.0,1000.0,BKN,1000.0,,,,,,
KRDR,01-03-2022,11:56,METAR,Normal,300,7.0,,,9999.0,,-12.0,-14.9,30.01,1019.2,,,,,,,,,,,,,,,,,1100.0,FEW,1100.0,,,,,,
KRDR,01-03-2022,10:56,METAR,Normal,310,11.0,,,9999.0,,-10.0,-13.5,29.98,1018.1,,,,,,,,,,,,,,,,,16000.0,SCT,16000.0,,,,,,
KRDR,01-03-2022,09:56,METAR,Normal,310,10.0,,,9999.0,,-9.2,-12.7,29.95,1017.0,,,,,,,,,,,,,,,Clear,72000.0,,,,,,,,,
KRDR,01-03-2022,08:56,METAR,Normal,280,3.0,,,9999.0,,-15.6,-17.9,29.92,1016.3,,,,,,,,,,,,,,,Clear,72000.0,,,,,,,,,
KRDR,01-03-2022,07:56,METAR,Normal,210,8.0,,,9999.0,,-14.6,-17.6,29.89,1015.2,,,,,,,,,,,,,,,Clear,72000.0,,,,,,,,,
KRDR,01-03-2022,06:56,METAR,Normal,220,6.0,,,9999.0,,-14.0,-17.2,29.88,1014.9,,,,,,,,,,,,,,,Clear,72000.0,,,,,,,,,
KRDR,01-03-2022,05:56,METAR,Normal,200,9.0,,,9999.0,,-18.0,-21.0,29.88,1015.1,,,,,,,,,,,,,,,Clear,72000.0,,,,,,,,,
KRDR,01-03-2022,04:56,METAR,Normal,190,7.0,,,9999.0,,-19.8,-22.6,29.87,1015.0,,,,,,,,,,,,,,,Clear,72000.0,,,,,,,,,
KRDR,01-03-2022,03:56,METAR,Normal,180,12.0,,,9999.0,,-19.3,-22.2,29.89,1015.6,,,,,,,,,,,,,,,Clear,72000.0,,,,,,,,,
KRDR,01-03-2022,02:56,METAR,Normal,170,9.0,,,9999.0,,-19.7,-22.8,29.92,1016.9,,,,,,,,,,,,,,,Clear,72000.0,,,,,,,,,
KRDR,01-03-2022,01:56,METAR,Normal,180,9.0,,,9999.0,,-19.1,-22.3,29.93,1017.2,,,,,,,,,,,,,,,Clear,72000.0,,,,,,,,,
KRDR,01-03-2022,00:56,METAR,Normal,170,9.0,,,9999.0,,-18.8,-22.0,29.96,1018.3,,,,,,,,,,,,,,,,11000.0,11000.0,OVC,11000.0,,,,,,
KRDR,01-02-2022,23:56,METAR,Normal,170,9.0,,,9999.0,,-20.4,-23.9,29.97,1018.7,,,,,,,,,,,,,,,,,11000.0,FEW,11000.0,SCT,25000.0,,,,
KRDR,01-02-2022,22:56,METAR,Normal,160,9.0,,,9999.0,,-20.8,-24.1,29.99,1019.5,,,,,,,,,,,,,,,,16000.0,16000.0,BKN,16000.0,,,,,,
KRDR,01-02-2022,21:56,METAR,Normal,170,8.0,,,9999.0,,-19.9,-23.7,30.00,1019.7,,,,,,,,,,,,,,,,,17000.0,FEW,17000.0,,,,,,
KRDR,01-02-2022,20:56,METAR,Normal,170,11.0,,,9999.0,,-19.8,-24.1,30.00,1019.7,,,,,,,,,,,,,,,,,17000.0,FEW,17000.0,SCT,19000.0,,,,
KRDR,01-02-2022,19:56,METAR,Normal,180,8.0,,,9999.0,,-20.1,-24.5,30.01,1020.0,,,,,,,,,,,,,,,,,10000.0,FEW,10000.0,,,,,,
KRDR,01-02-2022,18:56,METAR,Normal,170,11.0,,,9999.0,,-21.1,-25.7,30.04,1021.2,,,,,,,,,,,,,,,,10000.0,10000.0,BKN,10000.0,,,,,,
KRDR,01-02-2022,17:56,METAR,Normal,190,10.0,,,9999.0,,-22.4,-26.6,30.05,1021.5,,,,,,,,,,,,,,,,10000.0,10000.0,OVC,10000.0,,,,,,
KRDR,01-02-2022,16:56,METAR,Normal,180,9.0,,,9999.0,,-24.5,-28.8,30.07,1022.3,,,,,,,,,,,,,,,,10000.0,10000.0,BKN,10000.0,,,,,,
KRDR,01-02-2022,15:56,METAR,Normal,180,8.0,,,9999.0,,-25.7,-30.0,30.09,1023.0,,,,,,,,,,,,,,,,12000.0,12000.0,BKN,12000.0,,,,,,
KRDR,01-02-2022,14:56,METAR,Normal,170,9.0,,,9999.0,,-27.5,-31.4,30.09,1023.1,,,,,,,,,,,,,,,,14000.0,11000.0,SCT,11000.0,BKN,14000.0,,,,
KRDR,01-02-2022,14:27,SPECI,Normal,180,8.0,,,9999.0,,-29.0,-33.0,30.10,1023.5,,,,,,,,,,,,,,,,15000.0,15000.0,BKN,15000.0,,,,,,
KRDR,01-02-2022,13:56,METAR,Normal,180,7.0,,,9999.0,,-29.5,-33.3,30.11,1024.0,,,,,,,,,,,,,,,,,16000.0,SCT,16000.0,,,,,,
KRDR,01-02-2022,12:56,METAR,Normal,180,9.0,,,9999.0,,-30.9,-34.6,30.13,1024.6,,,,,,,,,,,,,,,Clear,72000.0,,,,,,,,,
KRDR,01-02-2022,11:56,METAR,Normal,150,9.0,,,9999.0,,-30.8,-34.6,30.13,1024.6,,,,,,,,,,,,,,,Clear,72000.0,,,,,,,,,
KRDR,01-02-2022,10:56,METAR,Normal,170,7.0,,,9999.0,,-31.3,-35.0,30.15,1025.2,,,,,,,,,,,,,,,Clear,72000.0,,,,,,,,,
KRDR,01-02-2022,09:56,METAR,Normal,150,6.0,,,9999.0,,-31.0,-34.7,30.15,1025.1,,,,,,,,,,,,,,,Clear,72000.0,,,,,,,,,
KRDR,01-02-2022,08:56,METAR,Normal,140,6.0,,,9999.0,,-30.7,-33.9,30.15,1025.0,,,,,,,,,,,,,,,Clear,72000.0,,,,,,,,,
KRDR,01-02-2022,07:56,METAR,Normal,170,5.0,,,9999.0,,-30.6,-34.0,30.15,1025.0,,,,,,,,,,,,,,,Clear,72000.0,,,,,,,,,
KRDR,01-02-2022,06:56,METAR,Normal,160,7.0,,,9999.0,,-30.1,-33.5,30.15,1025.1,,,,,,,,,,,,,,,Clear,72000.0,,,,,,,,,
KRDR,01-02-2022,05:56,METAR,Normal,180,4.0,,,9999.0,,-29.9,-34.0,30.17,1025.8,,,,,,,,,,,,,,,Clear,72000.0,,,,,,,,,
KRDR,01-02-2022,04:56,METAR,Normal,240,7.0,,,9999.0,,-30.5,-34.3,30.18,1026.3,,,,,,,,,,,,,,,Clear,72000.0,,,,,,,,,
KRDR,01-02-2022,03:56,METAR,Normal,220,5.0,,,9999.0,,-28.8,-32.5,30.16,1025.6,,,,,,,,,,,,,,,Clear,72000.0,,,,,,,,,
KRDR,01-02-2022,02:56,METAR,Normal,210,4.0,,,9999.0,,-29.2,-33.2,30.18,1026.4,,,,,,,,,,,,,,,Clear,72000.0,,,,,,,,,
KRDR,01-02-2022,01:56,METAR,Normal,220,6.0,,,9999.0,,-30.4,-34.4,30.19,1026.8,,,,,,,,,,,,,,,Clear,72000.0,,,,,,,,,
KRDR,01-02-2022,00:56,METAR,Normal,220,4.0,,,9999.0,,-29.2,-33.1,30.20,1027.1,,,,,,,,,,,,,,,Clear,72000.0,,,,,,,,,
KRDR,01-01-2022,23:56,METAR,Normal,180,4.0,,,9999.0,,-29.4,-33.5,30.23,1028.1,,,,,,,,,,,,,,,Clear,72000.0,,,,,,,,,
KRDR,01-01-2022,22:56,METAR,Normal,240,4.0,,,9999.0,,-26.5,-30.9,30.23,1027.9,,,,,,,,,,,,,,,Clear,72000.0,,,,,,,,,
KRDR,01-01-2022,21:56,METAR,Normal,260,3.0,,,9999.0,,-24.3,-29.6,30.22,1027.6,,,,,,,,,,,,,,,Clear,72000.0,,,,,,,,,
KRDR,01-01-2022,20:56,METAR,Normal,260,5.0,,,9999.0,,-23.5,-28.8,30.21,1027.3,,,,,,,,,,,,,,,Clear,72000.0,,,,,,,,,
KRDR,01-01-2022,19:56,METAR,Normal,230,6.0,,,9999.0,,-23.2,-28.9,30.21,1027.2,,,,,,,,,,,,,,,Clear,72000.0,,,,,,,,,
KRDR,01-01-2022,18:56,METAR,Normal,160,7.0,,,9999.0,,-25.7,-30.6,30.22,1027.5,,,,,,,,,,,,,,,Clear,72000.0,,,,,,,,,
KRDR,01-01-2022,17:56,METAR,Calm,,0.0,,,9999.0,,-26.4,-31.3,30.22,1027.5,,,,,,,,,,,,,,,Clear,72000.0,,,,,,,,,
KRDR,01-01-2022,16:56,METAR,Normal,330,4.0,,,9999.0,,-27.4,-32.1,30.22,1027.6,,,,,,,,,,,,,,,Clear,72000.0,,,,,,,,,
KRDR,01-01-2022,15:56,METAR,Normal,300,6.0,,,9999.0,,-27.4,-32.1,30.22,1027.6,,,,,,,,,,,,,,,Clear,72000.0,,,,,,,,,
KRDR,01-01-2022,14:56,METAR,Normal,230,4.0,,,9999.0,,-31.0,-35.0,30.22,1027.7,,,,,,,,,,,,TRACE,,,Clear,72000.0,,,,,,,,,
KRDR,01-01-2022,13:56,METAR,Normal,260,3.0,,,9999.0,,-31.8,-35.4,30.21,1027.5,,,,,,,,,,,,,,,Clear,72000.0,,,,,,,,,
KRDR,01-01-2022,13:18,SPECI,Normal,280,6.0,,,9999.0,,-31.0,-35.0,30.20,1027.0,,,,,,,,,,,,,,,Clear,72000.0,,,,,,,,,
KRDR,01-01-2022,12:56,METAR,Normal,280,5.0,,,9999.0,,-32.1,-35.9,30.20,1027.1,,,,,,,,,,,,,,,Clear,72000.0,,,,,,,,,
KRDR,01-01-2022,11:56,METAR,Normal,310,6.0,,,9999.0,,-30.8,-35.1,30.20,1027.1,,,,,,,,,,,,,TRACE,,Clear,72000.0,,,,,,,,,
KRDR,01-01-2022,10:56,METAR,Normal,280,7.0,,,9999.0,,-30.9,-35.0,30.20,1027.0,,,,,,,,,,,,,,,Clear,72000.0,,,,,,,,,
KRDR,01-01-2022,09:56,METAR,Normal,260,7.0,,,9999.0,,-33.8,-37.7,30.21,1027.4,,,,,,,,,,,,,,,Clear,72000.0,,,,,,,,,
KRDR,01-01-2022,08:56,METAR,Normal,240,6.0,,,9999.0,,-34.6,-38.9,30.22,1027.8,,,,,,,,,,,,TRACE,,,Clear,72000.0,,,,,,,,,
KRDR,01-01-2022,07:56,METAR,Calm,,0.0,,,9999.0,,-33.2,-37.2,30.20,1027.0,,,,,,,,,,,,,,,Clear,72000.0,,,,,,,,,
KRDR,01-01-2022,07:04,SPECI,Normal,260,5.0,,,9999.0,,-30.0,-35.0,30.19,1026.5,,,,,,,,,,,,,,,Clear,72000.0,,,,,,,,,
KRDR,01-01-2022,06:56,METAR,Normal,260,3.0,,,9999.0,,-30.6,-35.0,30.19,1026.6,,,,,,,,,,,,,,,Clear,72000.0,,,,,,,,,
KRDR,01-01-2022,05:56,METAR,Normal,290,7.0,,,9999.0,,-30.5,-34.8,30.18,1026.2,,,,,,,,,,,,,,,Clear,72000.0,,,,,,,,,
KRDR,01-01-2022,04:56,METAR,Normal,300,6.0,,,9999.0,,-30.5,-35.1,30.17,1025.8,,,,,,,,,,,,,,,Clear,72000.0,,,,,,,,,
KRDR,01-01-2022,03:56,METAR,Normal,300,4.0,,,9999.0,,-29.8,-34.4,30.15,1025.2,,,,,,,,,,,,,,,Clear,72000.0,,,,,,,,,
KRDR,01-01-2022,02:56,METAR,Normal,310,12.0,,,9999.0,,-29.3,-33.9,30.13,1024.5,,,,,,,,,,,,,,,Clear,72000.0,,,,,,,,,
KRDR,01-01-2022,01:56,METAR,Normal,300,7.0,,,9999.0,,-29.7,-34.0,30.14,1024.9,,,,,,,,,,,,,,,Clear,72000.0,,,,,,,,,
KRDR,01-01-2022,00:56,METAR,Normal,310,7.0,,,9999.0,,-30.3,-34.6,30.13,1024.5,,,,,,,,,,,,,,,Clear,72000.0,,,,,,,,,
KRDR,12-31-2021,23:56,METAR,Normal,280,7.0,,,9999.0,,-30.7,-35.0,30.10,1023.5,,,,,,,,,,,,,,,Clear,72000.0,,,,,,,,,
KRDR,12-31-2021,22:56,METAR,Normal,310,6.0,,,9999.0,,-28.6,-33.4,30.09,1023.3,,,,,,,,,,,,,,,Clear,72000.0,,,,,,,,,
KRDR,12-31-2021,21:56,METAR,Normal,300,9.0,,,9999.0,,-27.0,-32.4,30.06,1022.1,,,,,,,,,,,,,,,Clear,72000.0,,,,,,,,,
KRDR,12-31-2021,20:56,METAR,Normal,300,10.0,,,9999.0,,-26.3,-31.9,30.04,1021.4,,,,,,,,,,,,,,,Clear,72000.0,,,,,,,,,
KRDR,12-31-2021,19:56,METAR,Normal,310,13.0,,,9999.0,,-26.2,-32.1,30.02,1020.4,,,,,,,,,,,,,,,Clear,72000.0,,,,,,,,,
KRDR,12-31-2021,18:56,METAR,Normal,300,11.0,,,9999.0,,-26.4,-32.1,30.02,1020.3,,,,,,,,,,,,,,,Clear,72000.0,,,,,,,,,
KRDR,12-31-2021,17:56,METAR,Normal,300,11.0,,,9999.0,,-26.4,-32.1,30.02,1020.2,,,,,,,,,,,,,,,Clear,72000.0,,,,,,,,,
KRDR,12-31-2021,16:56,METAR,Normal,310,12.0,,,9999.0,,-26.8,-32.3,30.01,1019.9,,,,,,,,,,,,,,,Clear,72000.0,,,,,,,,,
KRDR,12-31-2021,15:56,METAR,Normal,290,13.0,,,9999.0,,-27.5,-31.9,29.99,1019.3,,,,,,,,,,,,,,,Clear,72000.0,,,,,,,,,
KRDR,12-31-2021,14:56,METAR,Normal,290,11.0,,,9999.0,,-28.5,-32.1,29.96,1018.3,,,,,,,,,,,,,,,,,12000.0,FEW,12000.0,,,,,,
KRDR,12-31-2021,13:56,METAR,Normal,300,9.0,,,9999.0,,-28.1,-31.5,29.94,1017.8,,,,,,,,,,,,,,,,,2500.0,FEW,2500.0,,,,,,
KRDR,12-31-2021,12:56,METAR,Normal,300,9.0,,,9999.0,,-27.5,-30.8,29.91,1016.7,,,,,,,,,,,,,,,,,1900.0,SCT,1900.0,,,,,,
KRDR,12-31-2021,11:56,METAR,Normal,290,10.0,,,9999.0,,-27.4,-30.6,29.89,1015.9,,,,,,,,,,,,,TRACE,,Clear,72000.0,,,,,,,,,
KRDR,12-31-2021,10:56,METAR,Normal,300,5.0,,,9999.0,,-31.1,-34.3,29.86,,,,,,,,,,,,,,,,Clear,72000.0,,,,,,,,,
KRDR,12-31-2021,09:56,METAR,Normal,250,3.0,,,9999.0,,-31.4,-34.8,29.84,1014.2,,,,,,,,,,,,,,,Clear,72000.0,,,,,,,,,
KRDR,12-31-2021,08:56,METAR,Calm,,0.0,,,9999.0,,-29.8,-33.1,29.83,1013.9,,,,,,,,,,,,TRACE,,,Clear,72000.0,,,,,,,,,
KRDR,12-31-2021,07:56,METAR,Normal,340,3.0,,,9999.0,,-25.0,-27.4,29.80,1012.6,,,,,,,,,,,,,,,,,3000.0,FEW,3000.0,,,,,,
KRDR,12-31-2021,06:56,METAR,Normal,330,3.0,,,9999.0,,-22.1,-25.0,29.79,1012.1,,,,,,,,,,,,,,,,3000.0,2000.0,SCT,2000.0,OVC,3000.0,,,,
KRDR,12-31-2021,05:56,METAR,Calm,,0.0,,,9999.0,,-20.5,-23.4,29.78,1011.7,,,,,,,,,,,,,TRACE,,,2000.0,700.0,SCT,700.0,OVC,2000.0,,,,
KRDR,12-31-2021,05:47,SPECI,Calm,,0.0,,,9999.0,,-21.0,-24.0,29.77,1011.4,,,,,,,,,,,,,,,,2000.0,900.0,SCT,900.0,OVC,2000.0,,,,
KRDR,12-31-2021,05:26,SPECI,Calm,,0.0,,,9999.0,,-20.0,-23.0,29.77,1011.4,,,,,,,,,,,,,,,,900.0,900.0,OVC,900.0,,,,,,
KRDR,12-31-2021,04:56,METAR,Calm,,0.0,,,9999.0,,-20.6,-23.6,29.77,1011.4,,,,,,,,,,,,,,,,1100.0,1100.0,OVC,1100.0,,,,,,
KRDR,12-31-2021,04:53,SPECI,Calm,,0.0,,,9999.0,,-21.0,-24.0,29.77,1011.4,,,,,,,,,,,,,,,,1100.0,1100.0,OVC,1100.0,,,,,,
KRDR,12-31-2021,04:46,SPECI,Calm,,0.0,,,9999.0,,-21.0,-24.0,29.77,1011.4,,,,,,,,,,,,,,,,1300.0,1300.0,OVC,1300.0,,,,,,
KRDR,12-31-2021,04:36,SPECI,Calm,,0.0,,,9999.0,,-21.0,-23.0,29.76,1011.1,,,,,,,,,,,,,,,,1500.0,1500.0,OVC,1500.0,,,,,,
KRDR,12-31-2021,03:56,METAR,Normal,310,4.0,,,9999.0,,-20.8,-23.4,29.77,1011.4,,,,,,,,,,,TRACE,,,,,1900.0,200.0,FEW,200.0,SCT,1200.0,OVC,1900.0,,
KRDR,12-31-2021,03:50,SPECI,Normal,320,4.0,,,9999.0,,-21.0,-23.0,29.76,1011.1,,,,,,,,,,,,,,,,1900.0,200.0,SCT,200.0,SCT,1200.0,OVC,1900.0,,
KRDR,12-31-2021,03:00,SPECI,Calm,,0.0,,,9999.0,,-21.0,-24.0,29.74,1010.4,,,,,,,,,,,,,,,,2000.0,200.0,SCT,200.0,OVC,2000.0,,,,
KRDR,12-31-2021,02:56,METAR,Calm,,0.0,,,9999.0,Light Snow,-21.4,-24.0,29.74,1010.4,71,,,,,,,,,,TRACE,TRACE,,,,2200.0,200.0,SCT,200.0,SCT,900.0,OVC,2200.0,,
KRDR,12-31-2021,02:47,SPECI,Normal,320,3.0,,,9999.0,Light Snow,-22.0,-24.0,29.74,,,,,71,,,,,,,,,,,,2200.0,200.0,FEW,200.0,SCT,800.0,BKN,2200.0,,
KRDR,12-31-2021,02:17,SPECI,Calm,,0.0,,,9999.0,,-22.0,-25.0,29.74,1010.5,,,,,,,,,,,,,,,,2300.0,700.0,FEW,700.0,SCT,1500.0,OVC,2300.0,,
KRDR,12-31-2021,02:07,SPECI,Normal,320,3.0,,,9999.0,,-22.0,-25.0,29.73,1010.2,,,,,,,,,,,,,,,,1500.0,900.0,FEW,900.0,BKN,1500.0,OVC,2300.0,,
KRDR,12-31-2021,01:56,METAR,Normal,280,4.0,,,9999.0,,-23.3,-25.9,29.74,1010.5,,,,,,,,,,,,,,,,2300.0,2300.0,OVC,2300.0,,,,,,
KRDR,12-31-2021,00:56,METAR,Normal,350,5.0,,,9999.0,,-24.2,-26.9,29.72,1009.9,,,,,,,,,,,,,,,,2900.0,2900.0,BKN,2900.0,OVC,7500.0,,,,
KRDR,12-31-2021,00:46,SPECI,Normal,340,4.0,,,9999.0,,-24.0,-27.0,29.72,1009.9,,,,,,,,,,,,,,,,7500.0,400.0,FEW,400.0,SCT,2900.0,OVC,7500.0,,
KRDR,12-31-2021,00:36,SPECI,Normal,330,5.0,,,9999.0,,-24.0,-27.0,29.72,1009.9,,,,,,,,,,,,,,,,500.0,500.0,SCT,500.0,BKN,2900.0,OVC,7500.0,,
KRDR,12-30-2021,23:56,METAR,Normal,310,3.0,,,9999.0,,-22.1,-24.7,29.72,1009.8,,,,,,,,,,,,,,,,,500.0,FEW,500.0,SCT,20000.0,,,,
KRDR,12-30-2021,23:36,SPECI,Calm,,0.0,,,9999.0,,-21.0,-24.0,29.71,1009.4,,,,,,,,,,,,,,,,,600.0,SCT,600.0,SCT,12000.0,,,,
KRDR,12-30-2021,22:01,METAR,Normal,10,4.0,,,9999.0,,-19.4,-22.9,29.69,1008.7,,,,,,,,,,,,,,,,400.0,400.0,SCT,400.0,OVC,2800.0,,,,
KRDR,12-30-2021,21:56,METAR,Normal,10,4.0,,,9999.0,,-19.4,-22.9,29.69,1008.7,,,,,,,,,,,,,,,,400.0,400.0,SCT,400.0,OVC,2800.0,,,,
KRDR,12-30-2021,21:55,METAR,Normal,10,4.0,,,9999.0,,-19.4,-22.9,29.69,1008.7,,,,,,,,,,,,,,,,400.0,400.0,SCT,400.0,OVC,2800.0,,,,
KRDR,12-30-2021,21:01,SPECI,Calm,,0.0,,,9999.0,,-20.0,-23.0,29.68,1008.4,,,,,,,,,,,,,,,,1300.0,600.0,SCT,600.0,BKN,1300.0,OVC,2700.0,,
KRDR,12-30-2021,20:56,METAR,Normal,20,3.0,,,9999.0,,-19.6,-23.1,29.68,1008.4,,,,,,,,,,,,,,,,600.0,600.0,BKN,600.0,OVC,1300.0,,,,
KRDR,12-30-2021,20:45,SPECI,Normal,30,3.0,,,9999.0,,-20.0,-23.0,29.67,1008.0,,,,,,,,,,,,,,,,1300.0,600.0,FEW,600.0,OVC,1300.0,,,,
KRDR,12-30-2021,20:26,SPECI,Normal,10,4.0,,,9999.0,,-19.0,-23.0,29.68,1008.4,,,,,,,,,,,,,,,,1800.0,1800.0,BKN,1800.0,OVC,2300.0,,,,
KRDR,12-30-2021,19:56,METAR,Calm,,0.0,,,9999.0,,-19.6,-23.1,29.67,1008.0,,,,,,,,,,,,,,,,2300.0,600.0,FEW,600.0,OVC,2300.0,,,,
KRDR,12-30-2021,19:43,SPECI,Normal,50,3.0,,,9999.0,,-20.0,-23.0,29.67,1008.0,,,,,,,,,,,,,,,,2300.0,600.0,FEW,600.0,OVC,2300.0,,,,
KRDR,12-30-2021,18:56,METAR,Normal,110,3.0,,,9999.0,,-19.8,-23.5,29.68,1008.4,,,,,,,,,,,,,,,,2300.0,2300.0,OVC,2300.0,,,,,,
KRDR,12-30-2021,18:19,SPECI,Calm,,0.0,,,9999.0,,-20.0,-24.0,29.70,1009.2,,,,,,,,,,,,,,,,1600.0,800.0,FEW,800.0,BKN,2000.0,OVC,2600.0,,
KRDR,12-30-2021,17:56,METAR,Calm,,0.0,,,9999.0,,-20.2,-23.7,29.71,1009.5,,,,,,,,,,,TRACE,,.02 IN,,,800.0,800.0,SCT,800.0,OVC,3300.0,,,,
KRDR,12-30-2021,17:50,SPECI,Calm,,0.0,,,9999.0,,-20.0,-24.0,29.71,1009.5,,,,,,,,,,,,,,,,3300.0,3300.0,OVC,3300.0,,,,,,
KRDR,12-30-2021,17:09,SPECI,Normal,130,5.0,,,9999.0,Light Snow,-20.0,-24.0,29.71,1009.5,71,,,,,,,,,,,,,,,3300.0,3300.0,BKN,3300.0,BKN,5000.0,,,,
KRDR,12-30-2021,16:56,METAR,Normal,100,5.0,,,9999.0,Light Snow,-20.6,-23.9,29.71,1009.5,71,,,,,,,,,,TRACE,,,,,1200.0,1200.0,BKN,1200.0,BKN,5000.0,,,,
KRDR,12-30-2021,15:56,METAR,Normal,150,4.0,,,8000.0,Light Snow,-20.9,-23.9,29.75,1010.9,71,,,,,,,,,,TRACE,,,,,5000.0,1200.0,SCT,1200.0,BKN,5000.0,,,,
KRDR,12-30-2021,14:56,METAR,Normal,120,4.0,,,8000.0,Light Snow,-21.5,-24.4,29.75,1010.9,71,,,,,,,,,,.01 IN,.02 IN,,,,2000.0,200.0,FEW,200.0,SCT,1200.0,BKN,2000.0,BKN,6000.0
KRDR,12-30-2021,14:51,METAR,Normal,120,4.0,,,8000.0,Light Snow,-21.5,-24.4,29.75,1010.9,71,,,,,,,,,,.01 IN,.02 IN,,,,2000.0,200.0,FEW,200.0,SCT,1200.0,BKN,2000.0,BKN,6000.0
KRDR,12-30-2021,13:56,METAR,Normal,140,7.0,,,3200.0,Light Snow,-21.7,-24.6,29.77,1011.5,71,,,,,,,,,,TRACE,,,,,1200.0,100.0,SCT,100.0,BKN,1200.0,OVC,2000.0,,
KRDR,12-30-2021,12:56,METAR,Normal,110,3.0,,,3200.0,Light Snow,-21.9,-24.9,29.79,1012.2,71,,,,,,,,,,.01 IN,,,,,1200.0,1200.0,BKN,1200.0,OVC,2100.0,,,,
KRDR,12-30-2021,11:56,METAR,Normal,90,6.0,,,3200.0,Light Snow,-22.4,-25.4,29.80,1012.6,71,,,,,,,,,,.02 IN,,.02 IN,,,1300.0,1300.0,OVC,1300.0,,,,,,
KRDR,12-30-2021,11:19,SPECI,Normal,90,5.0,,,6400.0,Light Snow,-22.0,-25.0,29.81,1012.9,71,,,,,,,,,,,,,,,2000.0,1300.0,SCT,1300.0,BKN,2000.0,,,,
KRDR,12-30-2021,10:56,METAR,Normal,110,5.0,,,4800.0,Light Snow,-22.4,-25.8,29.83,1013.6,71,,,,,,,,,,TRACE,,,,,1300.0,1300.0,OVC,1300.0,,,,,,
KRDR,12-30-2021,10:24,SPECI,Normal,120,5.0,,,9999.0,Light Snow,-22.0,-27.0,29.84,1013.9,71,,,,,,,,,,,,,,,2400.0,300.0,SCT,300.0,BKN,2400.0,OVC,3400.0,,
KRDR,12-30-2021,10:14,SPECI,Normal,110,4.0,,,9999.0,Light Snow,-22.0,-27.0,29.85,1014.3,71,,,,,,,,,,,,,,,3400.0,300.0,FEW,300.0,SCT,2500.0,BKN,3400.0,,
KRDR,12-30-2021,10:13,SPECI,Normal,110,4.0,,,9999.0,Light Snow,-22.0,-27.0,29.85,1014.3,71,,,,,,,,,,,,,,,3400.0,2400.0,FEW,2400.0,BKN,3400.0,,,,
KRDR,12-30-2021,10:06,SPECI,Normal,100,6.0,,,9999.0,,-22.0,-27.0,29.84,1013.9,,,,,,,,,,,,,,,,3400.0,1900.0,FEW,1900.0,BKN,3400.0,,,,
KRDR,12-30-2021,09:56,METAR,Normal,100,5.0,,,9999.0,,-22.5,-26.7,29.85,1014.3,,,,,,,,,,,,,,,,2100.0,2100.0,BKN,2100.0,BKN,3600.0,,,,
KRDR,12-30-2021,09:36,SPECI,Normal,120,4.0,,,9999.0,,-23.0,-27.0,29.86,1014.6,,,,,,,,,,,,,,,,2300.0,2300.0,BKN,2300.0,OVC,3300.0,,,,
KRDR,12-30-2021,09:06,SPECI,Calm,,0.0,,,9999.0,,-23.0,-28.0,29.88,1015.3,,,,,,,,,,,,,,,,3300.0,3300.0,BKN,3300.0,,,,,,
KRDR,12-30-2021,08:56,METAR,Calm,,0.0,,,9999.0,,-22.8,-27.6,29.88,1015.3,,,,,,,,,,,,,,,,2900.0,2900.0,BKN,2900.0,BKN,3900.0,,,,
KRDR,12-30-2021,08:26,SPECI,Calm,,0.0,,,9999.0,,-23.0,-28.0,29.89,1015.6,,,,,,,,,,,,,,,,2900.0,2900.0,BKN,2900.0,OVC,3600.0,,,,
KRDR,12-30-2021,07:56,METAR,Calm,,0.0,,,9999.0,,-22.7,-28.1,29.90,1016.0,,,,,,,,,,,,,,,,4600.0,4600.0,OVC,4600.0,,,,,,
KRDR,12-30-2021,06:56,METAR,Normal,230,5.0,,,9999.0,,-22.7,-27.9,29.92,1016.8,,,,,,,,,,,,,,,,4800.0,4800.0,OVC,4800.0,,,,,,
KRDR,12-30-2021,05:56,METAR,Normal,270,4.0,,,9999.0,,-23.1,-28.8,29.94,1017.5,,,,,,,,,,,,,,,,5000.0,4200.0,FEW,4200.0,OVC,5000.0,,,,
KRDR,12-30-2021,04:56,METAR,Normal,260,6.0,,,9999.0,,-23.1,-28.8,29.96,1018.1,,,,,,,,,,,,,,,,6000.0,6000.0,OVC,6000.0,,,,,,
KRDR,12-30-2021,03:56,METAR,Normal,270,7.0,,,9999.0,,-22.7,-28.2,29.97,1018.8,,,,,,,,,,,,,,,,4800.0,4800.0,OVC,4800.0,,,,,,
KRDR,12-30-2021,02:56,METAR,Normal,320,4.0,,,9999.0,,-23.2,-28.4,29.99,1019.6,,,,,,,,,,,,TRACE,,,,4500.0,4500.0,BKN,4500.0,OVC,6000.0,,,,
KRDR,12-30-2021,01:56,METAR,Normal,290,8.0,,,9999.0,,-22.6,-28.3,30.00,1019.9,,,,,,,,,,,,,,,,4800.0,2500.0,FEW,2500.0,OVC,4800.0,,,,
KRDR,12-30-2021,01:46,SPECI,Normal,280,11.0,,,9999.0,,-22.0,-28.0,29.99,1019.5,,,,,,,,,,,,,,,,4600.0,2900.0,SCT,2900.0,OVC,4600.0,,,,
KRDR,12-30-2021,01:06,SPECI,Normal,280,8.0,,,9999.0,,-22.0,-27.0,29.99,1019.5,,,,,,,,,,,,,,,,2300.0,2300.0,BKN,2300.0,OVC,2900.0,,,,
KRDR,12-30-2021,00:56,METAR,Normal,290,6.0,,,9999.0,,-22.0,-26.9,29.99,1019.5,,,,,,,,,,,TRACE,,,,,1900.0,1900.0,BKN,1900.0,OVC,2800.0,,,,
KRDR,12-30-2021,00:31,SPECI,Normal,300,9.0,,,9999.0,,-22.0,-27.0,29.99,1019.7,,,,,,,,,,,,,,,,1500.0,1500.0,OVC,1500.0,,,,,,
KRDR,12-30-2021,00:11,SPECI,Normal,290,10.0,,,9999.0,,-22.0,-26.0,30.00,1019.9,,,,,,,,,,,,,,,,1400.0,1400.0,OVC,1400.0,,,,,,
KRDR,12-29-2021,23:56,METAR,Normal,290,8.0,,,9999.0,Light Snow,-21.5,-25.7,30.00,1019.8,71,,,,,,,,,,TRACE,,TRACE,,,1400.0,1400.0,OVC,1400.0,,,,,,
KRDR,12-29-2021,23:36,SPECI,Normal,290,9.0,,,9999.0,Light Snow,-21.0,-26.0,29.99,1019.5,71,,,,,,,,,,,,,,,300.0,400.0,SCT,400.0,OVC,1200.0,,,,
KRDR,12-29-2021,23:16,SPECI,Normal,280,7.0,,,9999.0,Light Snow,-21.0,-25.0,30.00,1019.7,71,,,,,,,,,,,,,,,300.0,300.0,BKN,300.0,OVC,1000.0,,,,
KRDR,12-29-2021,22:56,METAR,Normal,290,7.0,,,8000.0,Light Snow,-21.4,-25.5,29.99,1019.5,71,,,,,,,,,,TRACE,,,,,1300.0,300.0,FEW,300.0,OVC,1300.0,,,,
KRDR,12-29-2021,22:52,SPECI,Normal,280,8.0,,,8000.0,Light Snow,-21.0,-26.0,29.99,1019.5,71,,,,,,,,,,,,,,,1300.0,300.0,FEW,300.0,OVC,1300.0,,,,
KRDR,12-29-2021,22:31,SPECI,Normal,280,6.0,,,9999.0,Light Snow,-21.0,-26.0,30.00,1019.9,71,,,,,,,,,,,,,,,1300.0,1300.0,OVC,1300.0,,,,,,
KRDR,12-29-2021,22:21,SPECI,Normal,270,5.0,,,9999.0,Light Snow,-21.0,-26.0,30.00,1019.9,71,,,,,,,,,,,,,,,1500.0,1500.0,BKN,1500.0,OVC,2300.0,,,,
KRDR,12-29-2021,22:01,SPECI,Normal,280,9.0,,,9999.0,Light Snow,-21.0,-27.0,30.00,1019.9,71,,,,,,,,,,,,,,,2100.0,2100.0,BKN,2100.0,OVC,3200.0,,,,
KRDR,12-29-2021,21:56,METAR,Normal,270,6.0,,,9999.0,,-21.4,-26.6,30.00,1019.9,,,,,,,,,,,,,,,,2100.0,2100.0,BKN,2100.0,OVC,3200.0,,,,
KRDR,12-29-2021,20:56,METAR,Normal,280,8.0,,,9999.0,,-21.3,-26.7,29.99,1019.4,,,,,,,,,,,,,,,,4000.0,4000.0,OVC,4000.0,,,,,,
KRDR,12-29-2021,19:56,METAR,Normal,270,7.0,,,9999.0,,-21.1,-26.5,29.98,1019.0,,,,,,,,,,,,,,,,4900.0,4900.0,OVC,4900.0,,,,,,
KRDR,12-29-2021,18:56,METAR,Calm,,0.0,,,9999.0,,-22.2,-27.9,29.99,1019.5,,,,,,,,,,,,,,,,4600.0,4600.0,BKN,4600.0,BKN,6000.0,BKN,13000.0,,
KRDR,12-29-2021,17:56,METAR,Normal,270,9.0,,,9999.0,,-23.5,-28.7,30.01,1020.0,,,,,,,,,,,,,,,,,16000.0,FEW,16000.0,FEW,18000.0,FEW,20000.0,,
KRDR,12-29-2021,16:56,METAR,Normal,220,8.0,,,9999.0,,-23.6,-28.8,30.01,1020.1,,,,,,,,,,,,,,,,20000.0,16000.0,SCT,16000.0,BKN,20000.0,,,,
KRDR,12-29-2021,15:56,METAR,Normal,210,4.0,,,9999.0,,-29.0,-32.6,30.00,1020.0,,,,,,,,,,,,,,,,11000.0,11000.0,BKN,11000.0,,,,,,
KRDR,12-29-2021,14:56,METAR,Calm,,0.0,,,9999.0,,-31.0,-34.4,29.99,1019.8,,,,,,,,,,,,,,,Clear,72000.0,,,,,,,,,
KRDR,12-29-2021,13:56,METAR,Normal,270,3.0,,,9999.0,,-30.0,-33.4,29.98,1019.3,,,,,,,,,,,,,,,,,18000.0,FEW,18000.0,,,,,,
KRDR,12-29-2021,12:56,METAR,Calm,,0.0,,,9999.0,,-31.0,-34.4,29.96,1018.6,,,,,,,,,,,,,,,Clear,72000.0,,,,,,,,,
KRDR,12-29-2021,11:56,METAR,Normal,230,3.0,,,9999.0,,-31.4,-34.9,29.94,1017.8,,,,,,,,,,,,,,,Clear,72000.0,,,,,,,,,
KRDR,12-29-2021,10:56,METAR,Normal,240,6.0,,,9999.0,,-30.7,-33.8,29.94,1017.8,,,,,,,,,,,,,,,Clear,72000.0,,,,,,,,,
KRDR,12-29-2021,09:56,METAR,Calm,,0.0,,,9999.0,,-33.8,-37.3,29.93,1017.5,,,,,,,,,,,,,,,,,3100.0,SCT,3100.0,,,,,,
KRDR,12-29-2021,08:56,METAR,Normal,160,5.0,,,9999.0,,-30.1,-33.1,29.93,,,,,,,,,,,,,,,,,,3300.0,SCT,3300.0,,,,,,
KRDR,12-29-2021,07:56,METAR,Calm,,0.0,,,9999.0,,-29.3,-33.0,29.91,1016.6,,,,,,,,,,,,,,,Clear,72000.0,,,,,,,,,
KRDR,12-29-2021,06:56,METAR,Normal,270,5.0,,,9999.0,,-30.0,-33.8,29.90,1016.3,,,,,,,,,,,,,,,Clear,72000.0,,,,,,,,,
KRDR,12-29-2021,05:56,METAR,Normal,280,6.0,,,9999.0,,-28.1,-31.7,29.87,1015.2,,,,,,,,,,,,,,,Clear,72000.0,,,,,,,,,
KRDR,12-29-2021,04:56,METAR,Normal,280,7.0,,,9999.0,,-27.3,-31.1,29.86,,,,,,,,,,,,,,,,Clear,72000.0,,,,,,,,,
KRDR,12-29-2021,03:56,METAR,Normal,280,7.0,,,9999.0,,-27.3,-30.8,29.84,,,,,,,,,,,,,,,,Clear,72000.0,,,,,,,,,
KRDR,12-29-2021,02:56,METAR,Normal,290,7.0,,,9999.0,,-27.1,-30.7,29.83,,,,,,,,,,,,,,,,Clear,72000.0,,,,,,,,,
KRDR,12-29-2021,01:56,METAR,Normal,310,7.0,,,9999.0,,-25.4,-29.4,29.82,1013.4,,,,,,,,,,,,,,,Clear,72000.0,,,,,,,,,
KRDR,12-29-2021,00:56,METAR,Normal,310,8.0,,,9999.0,,-24.3,-28.1,29.81,1013.0,,,,,,,,,,,,,,,Clear,72000.0,,,,,,,,,
KRDR,12-28-2021,23:56,METAR,Normal,310,9.0,,,9999.0,,-22.6,-26.2,29.80,1012.6,,,,,,,,,,,TRACE,,.02 IN,,,,12000.0,SCT,12000.0,,,,,,
KRDR,12-28-2021,23:30,SPECI,Normal,300,7.0,,,9999.0,,-23.0,-25.0,29.80,1012.6,,,,,,,,,,,,,,,,11000.0,600.0,SCT,600.0,OVC,11000.0,,,,
KRDR,12-28-2021,23:20,SPECI,Normal,310,7.0,,,9999.0,,-23.0,-26.0,29.80,1012.6,,,,,,,,,,,,,,,,700.0,700.0,BKN,700.0,OVC,11000.0,,,,
KRDR,12-28-2021,23:08,SPECI,Normal,310,7.0,,,9999.0,Light Snow,-22.0,-25.0,29.80,1012.6,71,,,,,,,,,,,,,,,700.0,700.0,BKN,700.0,OVC,11000.0,,,,
KRDR,12-28-2021,22:56,METAR,Normal,320,6.0,,,9999.0,,-21.8,-24.8,29.79,1012.2,,,,,,,,,,,TRACE,,,,,700.0,700.0,BKN,700.0,OVC,11000.0,,,,
KRDR,12-28-2021,22:49,SPECI,Normal,310,6.0,,,9999.0,,-22.0,-25.0,29.79,1012.2,,,,,,,,,,,,,,,,1100.0,1100.0,BKN,1100.0,OVC,11000.0,,,,
KRDR,12-28-2021,22:48,SPECI,Normal,310,6.0,,,9999.0,,-22.0,-25.0,29.79,1012.2,,,,,,,,,,,,,,,,1300.0,1300.0,BKN,1300.0,OVC,11000.0,,,,
KRDR,12-28-2021,22:38,SPECI,Normal,320,6.0,,,9999.0,,-21.0,-25.0,29.79,1012.1,,,,,,,,,,,,,,,,10000.0,1600.0,SCT,1600.0,OVC,10000.0,,,,
KRDR,12-28-2021,22:28,SPECI,Normal,320,7.0,,,9999.0,,-21.0,-24.0,29.78,1011.8,,,,,,,,,,,,,,,,1800.0,400.0,FEW,400.0,BKN,1800.0,OVC,10000.0,,
KRDR,12-28-2021,22:18,SPECI,Normal,330,8.0,,,9999.0,,-21.0,-24.0,29.78,1011.8,,,,,,,,,,,,,,,,300.0,300.0,BKN,300.0,BKN,2400.0,OVC,10000.0,,
KRDR,12-28-2021,22:08,SPECI,Normal,330,6.0,,,9999.0,,-21.0,-24.0,29.78,1011.8,,,,,,,,,,,,,,,,200.0,200.0,OVC,200.0,,,,,,
KRDR,12-28-2021,22:06,SPECI,Normal,330,6.0,,,9999.0,Light Snow,-21.0,-24.0,29.78,1011.8,71,,,,,,,,,,,,,,,200.0,200.0,OVC,200.0,,,,,,
KRDR,12-28-2021,21:56,METAR,Normal,330,7.0,,,9999.0,Light Snow,-20.5,-23.7,29.78,1011.8,71,,,,,,,,,,TRACE,,,,,300.0,300.0,OVC,300.0,,,,,,
KRDR,12-28-2021,21:36,SPECI,Normal,340,8.0,,,9999.0,Light Snow,-20.0,-24.0,29.78,1011.8,71,,,,,,,,,,,,,,,400.0,400.0,BKN,400.0,OVC,900.0,,,,
KRDR,12-28-2021,21:26,SPECI,Normal,340,8.0,,,9999.0,Light Snow,-20.0,-24.0,29.77,1011.4,71,,,,,,,,,,,,,,,300.0,500.0,BKN,500.0,OVC,800.0,,,,
KRDR,12-28-2021,21:16,SPECI,Normal,350,7.0,,,9999.0,Light Snow,-20.0,-24.0,29.77,1011.4,71,,,,,,,,,,,,,,,300.0,300.0,SCT,300.0,OVC,800.0,,,,
KRDR,12-28-2021,20:56,METAR,Normal,350,8.0,,,9999.0,Light Snow,-20.4,-23.7,29.76,1011.1,71,,,,,,,,,,TRACE,.02 IN,,,,300.0,300.0,OVC,300.0,,,,,,
KRDR,12-28-2021,20:16,SPECI,Normal,350,10.0,,,6400.0,Light Snow,-21.0,-24.0,29.75,1010.9,71,,,,,,,,,,,,,,,200.0,200.0,OVC,200.0,,,,,,
KRDR,12-28-2021,20:06,SPECI,Normal,350,10.0,,,3200.0,Light Snow,-21.0,-24.0,29.75,1010.9,71,,,,,,,,,,,,,,,200.0,200.0,OVC,200.0,,,,,,
KRDR,12-28-2021,19:56,METAR,Normal,360,9.0,,,2400.0,Light Snow,-20.7,-24.0,29.75,1010.9,71,,,,,,,,,,.01 IN,,,,,200.0,200.0,OVC,200.0,,,,,,
KRDR,12-28-2021,19:47,SPECI,Normal,360,8.0,,,1800.0,Light Snow,-21.0,-24.0,29.75,1010.9,71,,,,,,,,,,,,,,,100.0,100.0,OVC,100.0,,,,,,
KRDR,12-28-2021,19:42,SPECI,Normal,360,8.0,,,1600.0,Light Snow,-21.0,-24.0,29.76,1011.2,71,,,,,,,,,,,,,,,100.0,100.0,OVC,100.0,,,,,,
KRDR,12-28-2021,19:14,SPECI,Normal,360,7.0,,,1400.0,Light Snow,-21.0,-24.0,29.77,1011.5,71,,,,,,,,,,,,,,,200.0,200.0,OVC,200.0,,,,,,
KRDR,12-28-2021,19:05,SPECI,Normal,10,8.0,,,1600.0,Light Snow,-21.0,-24.0,29.76,1011.2,71,,,,,,,,,,,,,,,200.0,200.0,OVC,200.0,,,,,,
KRDR,12-28-2021,18:56,METAR,Normal,360,7.0,,,2000.0,Light Snow,-20.8,-24.3,29.76,1011.2,71,,,,,,,,,,.01 IN,,,,,200.0,200.0,OVC,200.0,,,,,,
KRDR,12-28-2021,17:56,METAR,Normal,360,10.0,,,2400.0,Light Snow,-21.0,-24.0,29.77,,71,,,,,,,,,,.01 IN,,.05 IN,,,200.0,200.0,BKN,200.0,OVC,600.0,,,,
KRDR,12-28-2021,16:56,METAR,Normal,360,9.0,,,3000.0,Light Snow,-21.0,-24.0,29.77,,71,,,,,,,,,,TRACE,,,,,200.0,200.0,OVC,200.0,,,,,,
KRDR,12-28-2021,15:56,METAR,Normal,360,8.0,,,1600.0,Light Snow,-21.0,-24.0,29.77,,71,,,,,,,,,,.01 IN,,,,,200.0,200.0,OVC,200.0,,,,,,
KRDR,12-28-2021,15:54,METAR,Normal,360,8.0,,,1600.0,Light Snow,-21.0,-24.0,29.77,,,,,71,,,,,,,.01 IN,,,,,200.0,200.0,OVC,200.0,,,,,,
KRDR,12-28-2021,14:56,METAR,Normal,340,6.0,,,4800.0,Light Snow,-21.0,-25.0,29.78,,,,,71,,,,,,,.01 IN,.03 IN,,,,200.0,200.0,BKN,200.0,OVC,700.0,,,,
KRDR,12-28-2021,14:26,SPECI,Normal,340,5.0,,,6400.0,Light Snow,-21.0,-25.0,29.77,1011.4,71,,,,,,,,,,,,,,,300.0,300.0,BKN,300.0,OVC,800.0,,,,
KRDR,12-28-2021,13:56,METAR,Normal,350,8.0,,,8000.0,Light Snow,-21.5,-24.5,29.76,1011.1,71,,,,,,,,,,TRACE,,,,,200.0,200.0,BKN,200.0,OVC,700.0,,,,
KRDR,12-28-2021,12:56,METAR,Normal,350,6.0,,,8000.0,Light Snow,-21.6,-24.5,29.78,1011.8,71,,,,,,,,,,.02 IN,,,,,200.0,200.0,BKN,200.0,OVC,700.0,,,,
KRDR,12-28-2021,12:46,SPECI,Normal,360,6.0,,,6400.0,Light Snow,-22.0,-24.0,29.77,1011.4,71,,,,,,,,,,,,,,,200.0,200.0,BKN,200.0,OVC,700.0,,,,
KRDR,12-28-2021,12:36,SPECI,Normal,360,6.0,,,6400.0,Light Snow,-22.0,-24.0,29.77,1011.4,71,,,,,,,,,,,,,,,100.0,100.0,BKN,100.0,OVC,700.0,,,,
KRDR,12-28-2021,12:26,SPECI,Normal,350,3.0,,,3200.0,Light Snow,-22.0,-24.0,29.78,1011.8,71,,,,,,,,,,,,,,,100.0,100.0,BKN,100.0,OVC,700.0,,,,
KRDR,12-28-2021,12:16,SPECI,Normal,350,5.0,,,6400.0,Light Snow,-22.0,-24.0,29.78,1011.8,71,,,,,,,,,,,,,,,100.0,100.0,BKN,100.0,OVC,700.0,,,,
KRDR,12-28-2021,12:06,SPECI,Normal,330,4.0,,,6400.0,Light Snow,-22.0,-24.0,29.79,1012.1,71,,,,,,,,,,,,,,,200.0,200.0,BKN,200.0,,,,,,
KRDR,12-28-2021,11:56,METAR,Normal,340,3.0,,,2800.0,Light Snow,-21.8,-24.7,29.79,1012.0,71,,,,,,,,,,.02 IN,,.06 IN,.06 IN,,200.0,200.0,BKN,200.0,OVC,2000.0,,,,
KRDR,12-28-2021,11:36,SPECI,Normal,320,3.0,,,6400.0,Light Snow,-22.0,-25.0,29.79,1012.0,71,,,,,,,,,,,,,,,200.0,200.0,OVC,200.0,,,,,,
KRDR,12-28-2021,11:26,SPECI,Calm,,0.0,,,2600.0,Light Snow,-22.0,-25.0,29.78,1011.7,71,,,,,,,,,,,,,,,200.0,200.0,BKN,200.0,,,,,,
KRDR,12-28-2021,11:16,SPECI,Calm,,0.0,,,4400.0,Light Snow,-22.0,-25.0,29.78,1011.7,71,,,,,,,,,,,,,,,200.0,200.0,BKN,200.0,OVC,2600.0,,,,
KRDR,12-28-2021,10:56,METAR,Calm,,0.0,,,4400.0,Light Snow,-21.8,-25.1,29.79,1011.9,71,,,,,,,,,,.01 IN,,,,,200.0,200.0,SCT,200.0,OVC,2800.0,,,,
KRDR,12-28-2021,10:16,SPECI,Calm,,0.0,,,6400.0,Light Snow,-22.0,-25.0,29.79,1011.9,71,,,,,,,,,,,,,,,200.0,200.0,OVC,200.0,,,,,,
KRDR,12-28-2021,10:06,SPECI,Calm,,0.0,,,3200.0,Light Snow,-22.0,-25.0,29.78,1011.6,71,,,,,,,,,,,,,,,200.0,200.0,OVC,200.0,,,,,,
KRDR,12-28-2021,09:56,METAR,Normal,60,3.0,,,2000.0,Light Snow,-22.0,-25.0,29.78,1011.5,71,,,,,,,,,,.01 IN,,,,,200.0,200.0,OVC,200.0,,,,,,
KRDR,12-28-2021,09:52,SPECI,Normal,40,3.0,,,2200.0,Light Snow,-22.0,-25.0,29.78,1011.5,71,,,,,,,,,,,,,,,200.0,200.0,OVC,200.0,,,,,,
KRDR,12-28-2021,09:13,SPECI,Normal,360,3.0,,,6400.0,Light Snow,-22.0,-25.0,29.79,1011.9,71,,,,,,,,,,,,,,,200.0,200.0,BKN,200.0,,,,,,
KRDR,12-28-2021,08:56,METAR,Normal,340,3.0,,,3600.0,Light Snow,-22.1,-25.1,29.80,1012.2,71,,,,,,,,,,.02 IN,.02 IN,,,,800.0,200.0,SCT,200.0,BKN,800.0,OVC,2100.0,,
KRDR,12-28-2021,08:34,SPECI,Normal,350,5.0,,,3200.0,Light Snow,-22.0,-25.0,29.78,1011.5,71,,,,,,,,,,,,,,,2200.0,200.0,FEW,200.0,OVC,2200.0,,,,
KRDR,12-28-2021,08:23,SPECI,Normal,350,4.0,,,4800.0,Light Snow,-22.0,-26.0,29.78,1011.5,71,,,,,,,,,,,,,,,3500.0,200.0,FEW,200.0,OVC,3500.0,,,,
KRDR,12-28-2021,08:13,SPECI,Normal,350,4.0,,,9999.0,Light Snow,-22.0,-26.0,29.78,1011.5,71,,,,,,,,,,,,,,,3500.0,700.0,FEW,700.0,OVC,3500.0,,,,
KRDR,12-28-2021,07:58,SPECI,Normal,340,5.0,,,9999.0,Light Snow,-22.0,-26.0,29.78,1011.5,71,,,,,,,,,,,,,,,5000.0,3600.0,FEW,3600.0,BKN,5000.0,OVC,6000.0,,
KRDR,12-28-2021,07:56,METAR,Normal,340,7.0,,,9999.0,Light Snow,-22.1,-26.5,29.78,1011.5,71,,,,,,,,,,TRACE,,,,,5000.0,3800.0,FEW,3800.0,BKN,5000.0,OVC,6000.0,,
KRDR,12-28-2021,07:47,SPECI,Normal,330,6.0,,,9999.0,Light Snow,-22.0,-27.0,29.78,1011.5,71,,,,,,,,,,,,,,,6000.0,3600.0,SCT,3600.0,SCT,4300.0,OVC,6000.0,,
KRDR,12-28-2021,06:56,METAR,Normal,300,3.0,,,9999.0,,-22.6,-27.0,29.79,1011.9,,,,,,,,,,,,,,,,7000.0,7000.0,OVC,7000.0,,,,,,
KRDR,12-28-2021,05:57,METAR,Normal,240,4.0,,,9999.0,,-24.4,-28.1,29.83,1013.2,,,,,,,,,,,,,,,,8500.0,8500.0,BKN,8600.0,BKN,19000.0,,,,
KRDR,12-28-2021,04:56,METAR,Normal,300,5.0,,,9999.0,,-24.2,-28.2,29.80,1012.1,,,,,,,,,,,,,,,,,18000.0,FEW,18000.0,,,,,,
KRDR,12-28-2021,03:56,METAR,Normal,290,7.0,,,9999.0,,-23.6,-27.6,29.81,1012.3,,,,,,,,,,,,,,,Clear,72000.0,,,,,,,,,
KRDR,12-28-2021,02:56,METAR,Normal,290,9.0,,,9999.0,,-22.5,-26.7,29.79,1011.4,,,,,,,,,,,,,,,Clear,72000.0,,,,,,,,,
KRDR,12-28-2021,01:56,METAR,Normal,250,8.0,,,9999.0,,-21.0,-25.0,,,,,,,,,,,,,,,,,Clear,72000.0,,,,,,,,,
KRDR,12-28-2021,00:56,METAR,Normal,270,9.0,,,9999.0,,-19.9,-23.7,29.76,1010.3,,,,,,,,,,,,,,,Clear,72000.0,,,,,,,,,
KRDR,12-27-2021,23:56,METAR,Normal,280,8.0,,,9999.0,,-19.7,-22.3,29.71,1008.6,,,,,,,,,,,,,.01 IN,,Clear,72000.0,,,,,,,,,
KRDR,12-27-2021,22:59,SPECI,Normal,310,9.0,,,9999.0,,-17.0,-21.0,29.68,1007.5,,,,,,,,,,,,,,,,,1100.0,FEW,1100.0,,,,,,
KRDR,12-27-2021,22:56,METAR,Normal,310,10.0,,,9999.0,,-16.9,-20.8,29.68,1007.5,,,,,,,,,,,,,,,,,1300.0,FEW,1300.0,,,,,,
KRDR,12-27-2021,21:56,METAR,Normal,310,14.0,,290/27KTS,9999.0,,-15.4,-19.8,29.67,1007.1,,,,,,,,,,,,,,,,,1000.0,SCT,1000.0,,,,,,
KRDR,12-27-2021,21:47,SPECI,Normal,300,15.0,21.0,,9999.0,,-14.0,-18.0,29.65,1006.3,,,,,,,,,,,,,,,,18000.0,500.0,SCT,500.0,BKN,18000.0,BKN,20000.0,,
KRDR,12-27-2021,20:54,METAR,Normal,310,21.0,,280/30KTS,4800.0,Blowing or Drifting Snow or Sand,-13.8,-17.8,29.62,1005.4,27,,,,,,,,,,,.01 IN,,,,6000.0,1100.0,SCT,1100.0,BKN,6000.0,BKN,16000.0,BKN,19000.0
KRDR,12-27-2021,20:29,SPECI,Normal,310,18.0,27.0,,6400.0,Blowing or Drifting Snow or Sand,-14.0,-17.0,29.60,1004.7,27,,,,,,,,,,,,,,,1200.0,800.0,SCT,800.0,BKN,1200.0,OVC,5500.0,,
KRDR,12-27-2021,19:56,METAR,Normal,300,20.0,26.0,280/33KTS,3000.0,Blowing or Drifting Snow or Sand,-13.6,-16.8,29.58,1004.0,27,,,,,,,,,,,,,,,900.0,900.0,BKN,900.0,BKN,4600.0,OVC,6000.0,,
KRDR,12-27-2021,19:19,SPECI,Normal,300,25.0,33.0,,1600.0,Blowing or Drifting Snow or Sand,-13.0,-17.0,29.56,1003.2,27,,,,,,,,,,,,,,,900.0,900.0,BKN,900.0,OVC,7000.0,,,,
KRDR,12-27-2021,18:57,METAR,Normal,300,21.0,30.0,290/33KTS,4800.0,Blowing or Drifting Snow or Sand,-13.5,-16.9,29.55,1002.9,27,,,,,,,,,,TRACE,,,,,600.0,600.0,OVC,600.0,,,,,,
KRDR,12-27-2021,18:50,SPECI,Normal,300,21.0,30.0,,3600.0,Blowing or Drifting Snow or Sand,-13.0,-17.0,29.55,1002.9,27,,,,,,,,,,,,,,,600.0,600.0,OVC,600.0,,,,,,
KRDR,12-27-2021,17:56,METAR,Normal,300,17.0,29.0,300/31KTS,6400.0,Blowing or Drifting Snow or Sand,-12.4,-15.5,29.52,1001.9,27,,,,,,,,,,.01 IN,,.11 IN,,,700.0,1000.0,SCT,1000.0,OVC,1600.0,,,,
KRDR,12-27-2021,17:44,SPECI,Normal,310,21.0,27.0,,3200.0,Blowing or Drifting Snow or Sand,-12.0,-15.0,29.51,1001.5,27,,,,,,,,,,,,,,,700.0,700.0,BKN,700.0,OVC,1200.0,,,,
KRDR,12-27-2021,17:31,SPECI,Normal,300,18.0,26.0,,8000.0,Blowing or Drifting Snow or Sand,-12.0,-15.0,29.50,1001.2,27,,,,,,,,,,,,,,,700.0,700.0,OVC,700.0,,,,,,
KRDR,12-27-2021,16:55,METAR,Normal,290,24.0,32.0,290/32KTS,400.0,Blowing or Drifting Snow or Sand,-10.8,-13.1,29.47,1000.2,27,,,,,,,,,,.02 IN,,,,,200.0,200.0,OVC,200.0,,,,,,
KRDR,12-27-2021,16:30,SPECI,Normal,290,22.0,28.0,,400.0,Fog with Rime/Blowing Snow,-7.0,-9.0,29.46,999.7,,,,38,48,,,,,,,,,,,200.0,200.0,OVC,200.0,,,,,,
KRDR,12-27-2021,16:26,SPECI,Normal,290,20.0,25.0,,1000.0,Light Snow/Mist,-7.0,-9.0,29.46,999.7,71,10,,,,,,,,,,,,,,200.0,200.0,OVC,200.0,,,,,,
KRDR,12-27-2021,16:11,SPECI,Normal,300,15.0,,,1600.0,Light Snow/Mist,-6.0,-8.0,29.45,999.2,71,10,,,,,,,,,,,,,,200.0,200.0,OVC,200.0,,,,,,
KRDR,12-27-2021,16:06,SPECI,Normal,300,15.0,,,1800.0,Light Snow/Mist,-6.0,-8.0,29.45,999.3,71,10,,,,,,,,,,,,,,200.0,200.0,OVC,200.0,,,,,,
KRDR,12-27-2021,15:56,METAR,Normal,290,13.0,19.0,,3600.0,Light Snow/Mist,-5.8,-7.6,29.44,999.0,71,10,,,,,,,,,.01 IN,,,,,200.0,200.0,OVC,200.0,,,,,,
KRDR,12-27-2021,15:36,SPECI,Normal,320,6.0,,,9999.0,Light Snow,-5.0,-7.0,29.43,998.6,71,,,,,,,,,,,,,,,200.0,200.0,OVC,200.0,,,,,,
KRDR,12-27-2021,15:23,SPECI,Normal,320,4.0,,,6400.0,Light Snow,-5.0,-6.0,29.43,998.6,71,,,,,,,,,,,,,,,200.0,200.0,OVC,200.0,,,,,,
KRDR,12-27-2021,15:06,SPECI,Normal,350,5.0,,,3000.0,Light Snow/Mist,-5.0,-6.0,29.42,998.3,71,10,,,,,,,,,,,,,,200.0,200.0,OVC,200.0,,,,,,
KRDR,12-27-2021,14:56,METAR,Normal,20,4.0,,,2200.0,Light Snow/Mist,-5.0,-6.0,29.42,998.3,71,10,,,,,,,,,.01 IN,.07 IN,,,,200.0,200.0,OVC,200.0,,,,,,
KRDR,12-27-2021,14:37,SPECI,Normal,40,4.0,,,3200.0,Light Snow/Mist,-5.0,-6.0,29.42,998.3,71,10,,,,,,,,,,,,,,300.0,300.0,OVC,300.0,,,,,,
KRDR,12-27-2021,14:27,SPECI,Normal,50,4.0,,,1800.0,Light Snow/Mist,-5.0,-6.0,29.42,998.3,71,10,,,,,,,,,,,,,,300.0,300.0,BKN,300.0,,,,,,
KRDR,12-27-2021,14:21,SPECI,Normal,60,5.0,,,800.0,Snow/Mist,-5.0,-6.0,29.42,998.3,72,10,,,,,,,,,,,,,,300.0,300.0,BKN,300.0,OVC,2300.0,,,,
KRDR,12-27-2021,14:16,SPECI,Normal,60,6.0,,,4800.0,Light Snow/Mist,-5.0,-6.0,29.42,998.3,71,10,,,,,,,,,,,,,,300.0,300.0,BKN,300.0,OVC,2300.0,,,,
KRDR,12-27-2021,13:56,METAR,Normal,60,6.0,,,9999.0,Light Snow,-5.1,-6.1,29.42,998.3,71,,,,,,,,,,TRACE,,,,,400.0,400.0,BKN,400.0,BKN,1100.0,OVC,3300.0,,
KRDR,12-27-2021,13:45,SPECI,Normal,60,7.0,,,9999.0,Light Snow,-5.0,-6.0,29.43,998.6,,,,71,,,,,,,,,,,,400.0,400.0,BKN,400.0,BKN,1100.0,OVC,3000.0,,
KRDR,12-27-2021,13:34,SPECI,Normal,60,7.0,,,9999.0,Light Snow,-5.0,-6.0,29.43,998.6,,,,71,,,,,,,,,,,,3100.0,400.0,SCT,400.0,SCT,1100.0,OVC,3100.0,,
KRDR,12-27-2021,13:06,SPECI,Normal,60,7.0,,,8000.0,Light Snow/Mist,-5.0,-6.0,29.44,999.0,71,10,,,,,,,,,,,,,,300.0,300.0,OVC,300.0,,,,,,
KRDR,12-27-2021,12:56,METAR,Normal,60,6.0,,,3600.0,Light Snow/Mist,-5.0,-6.0,29.45,999.3,71,10,,,,,,,,,.06 IN,,,,,200.0,200.0,OVC,200.0,,,,,,
KRDR,12-27-2021,12:54,SPECI,Normal,60,7.0,,,3200.0,Light Snow/Mist,-5.0,-6.0,29.45,999.3,71,10,,,,,,,,,,,,,,200.0,200.0,OVC,200.0,,,,,,
KRDR,12-27-2021,12:24,SPECI,Normal,60,7.0,,,2600.0,Light Snow/Mist,-5.0,-6.0,29.46,999.7,71,10,,,,,,,,,,,,,,200.0,200.0,BKN,200.0,,,,,,
KRDR,12-27-2021,12:10,SPECI,Normal,60,6.0,,,2600.0,Light Snow/Mist,-5.0,-6.0,29.47,1000.1,71,10,,,,,,,,,,,,,,500.0,300.0,SCT,300.0,BKN,500.0,,,,
KRDR,12-27-2021,11:56,METAR,Normal,60,6.0,,,2800.0,Light Snow/Mist,-4.9,-5.9,29.47,1000.1,71,10,,,,,,,,,.04 IN,,.24 IN,.37 IN,,200.0,200.0,BKN,200.0,,,,,,
KRDR,12-27-2021,11:46,SPECI,Normal,60,6.0,,,3000.0,Light Snow/Mist,-5.0,-6.0,29.48,1000.4,71,10,,,,,,,,,,,,,,200.0,200.0,BKN,200.0,,,,,,
KRDR,12-27-2021,11:16,SPECI,Normal,60,7.0,,,3600.0,Light Snow/Mist,-5.0,-6.0,29.49,1000.8,71,10,,,,,,,,,,,,,,200.0,200.0,OVC,200.0,,,,,,
KRDR,12-27-2021,10:56,METAR,Normal,60,7.0,,,8000.0,Light Snow/Mist,-4.8,-5.8,29.50,1001.2,71,10,,,,,,,,,TRACE,,,,,300.0,300.0,BKN,300.0,OVC,600.0,,,,
KRDR,12-27-2021,10:43,SPECI,Normal,70,7.0,,,9999.0,Light Snow,-5.0,-6.0,29.51,1001.5,71,,,,,,,,,,,,,,,600.0,600.0,OVC,600.0,,,,,,
KRDR,12-27-2021,10:40,SPECI,Normal,60,7.0,,,9999.0,Light Snow,-5.0,-6.0,29.51,1001.5,71,,,,,,,,,,,,,,,600.0,800.0,OVC,800.0,,,,,,
KRDR,12-27-2021,10:07,SPECI,Normal,60,7.0,,,9999.0,,-5.0,-6.0,29.53,1002.2,,,,,,,,,,,,,,,,800.0,800.0,OVC,800.0,,,,,,
KRDR,12-27-2021,10:06,SPECI,Normal,60,7.0,,,9999.0,Light Snow,-5.0,-6.0,29.53,1002.2,71,,,,,,,,,,,,,,,800.0,800.0,OVC,800.0,,,,,,
KRDR,12-27-2021,09:56,METAR,Normal,60,7.0,,,9999.0,Light Snow,-5.0,-6.0,29.53,1002.2,71,,,,,,,,,,.01 IN,,,,,700.0,700.0,BKN,700.0,OVC,1300.0,,,,
KRDR,12-27-2021,09:46,SPECI,Normal,60,6.0,,,9999.0,Light Snow,-5.0,-6.0,29.54,1002.5,71,,,,,,,,,,,,,,,900.0,900.0,BKN,900.0,OVC,1500.0,,,,
KRDR,12-27-2021,09:36,SPECI,Normal,60,7.0,,,9999.0,Light Snow,-5.0,-6.0,29.54,1002.5,71,,,,,,,,,,,,,,,300.0,400.0,SCT,400.0,OVC,1200.0,,,,
KRDR,12-27-2021,09:16,SPECI,Normal,50,6.0,,,6400.0,Light Snow/Mist,-5.0,-6.0,29.55,1003.0,71,10,,,,,,,,,,,,,,300.0,300.0,BKN,300.0,BKN,1800.0,,,,
KRDR,12-27-2021,09:06,SPECI,Normal,60,5.0,,,4800.0,Light Snow/Mist,-5.0,-6.0,29.56,1003.2,71,10,,,,,,,,,,,,,,200.0,200.0,BKN,200.0,OVC,2200.0,,,,
KRDR,12-27-2021,08:56,METAR,Normal,70,5.0,,,3200.0,Light Snow/Mist,-5.1,-6.1,29.56,1003.2,71,10,,,,,,,,,.07 IN,.19 IN,,,,100.0,200.0,SCT,200.0,OVC,2000.0,,,,
KRDR,12-27-2021,08:47,SPECI,Normal,70,5.0,,,3000.0,Light Snow/Mist,-5.0,-6.0,29.56,1003.3,71,10,,,,,,,,,,,,,,100.0,100.0,BKN,100.0,BKN,1800.0,OVC,2900.0,,
KRDR,12-27-2021,08:37,SPECI,Normal,70,5.0,,,2000.0,Light Snow/Mist,-5.0,-6.0,29.57,1003.6,71,10,,,,,,,,,,,,,,100.0,100.0,OVC,100.0,,,,,,
KRDR,12-27-2021,08:27,SPECI,Normal,70,5.0,,,1000.0,Light Snow/Mist,-5.0,-6.0,29.57,1003.6,71,10,,,,,,,,,,,,,,100.0,100.0,OVC,100.0,,,,,,
KRDR,12-27-2021,08:12,SPECI,Normal,80,6.0,,,800.0,Light Snow/Fog with Rime,-5.0,-6.0,29.58,1004.0,71,35,,,,,,,,,,,,,,100.0,100.0,BKN,100.0,OVC,700.0,,,,
KRDR,12-27-2021,07:56,METAR,Normal,90,6.0,,,600.0,Snow/Fog with Rime,-5.3,-6.3,29.59,1004.3,72,35,,,,,,,,,.05 IN,,,,,100.0,100.0,BKN,100.0,OVC,800.0,,,,
KRDR,12-27-2021,07:52,SPECI,Normal,100,6.0,,,600.0,Snow/Fog with Rime,-5.0,-6.0,29.59,1004.3,72,35,,,,,,,,,,,,,,100.0,100.0,BKN,100.0,OVC,800.0,,,,
KRDR,12-27-2021,07:47,SPECI,Normal,110,6.0,,,800.0,Light Snow/Fog with Rime,-5.0,-6.0,29.60,1004.7,71,35,,,,,,,,,,,,,,100.0,100.0,BKN,100.0,OVC,800.0,,,,
KRDR,12-27-2021,07:37,SPECI,Normal,110,5.0,,,1200.0,Light Snow/Mist,-5.0,-7.0,29.61,1005.0,71,10,,,,,,,,,,,,,,100.0,100.0,OVC,100.0,,,,,,
KRDR,12-27-2021,07:27,SPECI,Normal,130,7.0,,,1000.0,Light Snow/Mist,-5.0,-7.0,29.61,1005.0,71,10,,,,,,,,,,,,,,100.0,100.0,OVC,100.0,,,,,,
KRDR,12-27-2021,07:20,SPECI,Normal,70,11.0,,,1600.0,Snow/Mist,-5.0,-7.0,29.60,1004.7,72,10,,,,,,,,,,,,,Sky Obscured (Unable to Estimate),200.0,1000.0,,1000.0,,,,,,
KRDR,12-27-2021,07:09,SPECI,Normal,60,10.0,,,2000.0,Blowing or Drifting Snow or Sand/Mist,-5.0,-7.0,29.60,1004.7,27,10,,,,,,,,,,,,,,1400.0,1400.0,OVC,1400.0,,,,,,
KRDR,12-27-2021,06:59,SPECI,Normal,60,12.0,,,3000.0,Blowing or Drifting Snow or Sand/Mist,-5.0,-7.0,29.59,1004.3,27,10,,,,,,,,,,,,,,1500.0,1500.0,OVC,1500.0,,,,,,
KRDR,12-27-2021,06:56,METAR,Normal,60,12.0,,,3600.0,Light Snow/Mist,-5.5,-6.9,29.59,1004.3,71,10,,,,,,,,,.07 IN,,,,,1500.0,1500.0,OVC,1500.0,,,,,,
KRDR,12-27-2021,06:50,SPECI,Normal,60,12.0,,,4000.0,Blowing or Drifting Snow or Sand/Mist,-5.0,-7.0,29.59,1004.4,27,10,,,,,,,,,,,,,,1500.0,1500.0,OVC,1500.0,,,,,,
KRDR,12-27-2021,06:40,SPECI,Normal,60,13.0,,,3600.0,Blowing or Drifting Snow or Sand/Mist,-6.0,-7.0,29.60,1004.8,27,10,,,,,,,,,,,,,,200.0,1300.0,OVC,1300.0,,,,,,
KRDR,12-27-2021,06:30,SPECI,Normal,60,11.0,,,2400.0,Blowing or Drifting Snow or Sand/Mist,-6.0,-7.0,29.61,1005.1,27,10,,,,,,,,,,,,,,200.0,1500.0,OVC,1500.0,,,,,,
KRDR,12-27-2021,06:20,SPECI,Normal,60,13.0,,,2200.0,Blowing or Drifting Snow or Sand/Mist,-6.0,-7.0,29.62,1005.4,27,10,,,,,,,,,,,,,,200.0,1700.0,OVC,1700.0,,,,,,
KRDR,12-27-2021,06:11,SPECI,Normal,60,14.0,,,2600.0,Light Snow/Mist,-6.0,-7.0,29.62,1005.4,71,10,,,,,,,,,,,,,,200.0,1900.0,OVC,1900.0,,,,,,
KRDR,12-27-2021,06:01,SPECI,Normal,60,13.0,,,3200.0,Light Snow/Mist,-6.0,-7.0,29.63,1005.8,71,10,,,,,,,,,,,,,,1500.0,1500.0,OVC,1500.0,,,,,,
KRDR,12-27-2021,05:55,METAR,Normal,60,14.0,,,3000.0,Light Snow/Mist,-5.9,-7.3,29.63,1005.8,71,10,,,,,,,,,.02 IN,,.13 IN,,,200.0,1500.0,OVC,1500.0,,,,,,
KRDR,12-27-2021,04:56,METAR,Normal,50,12.0,18.0,,1600.0,Light Snow/Mist,-6.5,-7.9,29.68,1007.6,71,10,,,,,,,,,.01 IN,,,,,1900.0,1900.0,OVC,1900.0,,,,,,
KRDR,12-27-2021,04:33,SPECI,Normal,50,14.0,,,1600.0,Light Snow/Mist,-7.0,-8.0,29.70,1008.3,71,10,,,,,,,,,,,,,,1200.0,1200.0,OVC,1200.0,,,,,,
KRDR,12-27-2021,03:55,METAR,Normal,50,12.0,,,800.0,Snow,-7.3,-8.7,29.72,1009.0,72,,,,,,,,,,.03 IN,,,,,1300.0,1300.0,OVC,1300.0,,,,,,
KRDR,12-27-2021,02:55,METAR,Normal,40,11.0,,,800.0,Snow/Mist,-8.2,-9.7,29.78,1011.2,72,10,,,,,,,,,.03 IN,.07 IN,,,,100.0,1100.0,OVC,1100.0,,,,,,
KRDR,12-27-2021,02:29,SPECI,Normal,50,10.0,,,1600.0,Light Snow/Mist,-9.0,-10.0,29.80,1011.9,71,10,,,,,,,,,,,,,,1100.0,1100.0,OVC,1100.0,,,,,,
KRDR,12-27-2021,02:04,SPECI,Normal,50,10.0,,,1600.0,Light Snow/Mist,-9.0,-11.0,29.81,1012.3,71,10,,,,,,,,,,,,,,1500.0,300.0,FEW,300.0,OVC,1500.0,,,,
KRDR,12-27-2021,01:55,METAR,Normal,50,10.0,,,1600.0,Light Snow/Mist,-9.1,-10.7,29.82,1012.6,71,10,,,,,,,,,TRACE,,,,,1700.0,400.0,SCT,400.0,OVC,1700.0,,,,
KRDR,12-27-2021,00:55,METAR,Normal,60,11.0,,,3200.0,Light Snow,-9.7,-12.1,29.85,1013.6,71,,,,,,,,,,TRACE,,,,,400.0,2000.0,SCT,2000.0,OVC,3000.0,,,,
KRDR,12-27-2021,00:40,SPECI,Normal,60,11.0,,,8000.0,Light Snow,-10.0,-12.0,29.86,1014.0,71,,,,,,,,,,,,,,,800.0,2800.0,OVC,2800.0,,,,,,
KRDR,12-27-2021,00:25,SPECI,Normal,50,9.0,,,9999.0,,-10.0,-13.0,29.86,1014.0,,,,,,,,,,,,,,,,2800.0,1100.0,SCT,1100.0,OVC,2800.0,,,,
KRDR,12-27-2021,00:16,SPECI,Normal,50,8.0,,,9999.0,,-10.0,-13.0,29.87,1014.2,,,,,,,,,,,,,,,,2800.0,2800.0,OVC,2800.0,,,,,,
KRDR,12-26-2021,23:56,METAR,Normal,60,7.0,,,9999.0,,-11.2,-13.7,29.87,1014.3,,,,,,,,,,,,,,,,13000.0,3000.0,FEW,3000.0,SCT,8000.0,OVC,13000.0,,
KRDR,12-26-2021,22:56,METAR,Normal,50,7.0,,,9999.0,,-12.2,-14.8,29.89,1014.9,,,,,,,,,,,,,,,,15000.0,15000.0,OVC,15000.0,,,,,,
KRDR,12-26-2021,21:56,METAR,Normal,50,8.0,,,9999.0,,-13.5,-16.1,29.90,1015.4,,,,,,,,,,,,,,,,15000.0,15000.0,BKN,15000.0,,,,,,
KRDR,12-26-2021,21:26,SPECI,Normal,50,9.0,,,9999.0,,-14.0,-17.0,29.92,1016.0,,,,,,,,,,,,,,,,16000.0,900.0,SCT,900.0,BKN,16000.0,,,,
KRDR,12-26-2021,21:12,SPECI,Normal,40,10.0,,,9999.0,,-14.0,-16.0,29.92,1016.0,,,,,,,,,,,,,,,,600.0,900.0,BKN,900.0,OVC,16000.0,,,,
KRDR,12-26-2021,21:11,SPECI,Normal,40,10.0,,,9999.0,,-14.0,-16.0,29.92,1016.0,,,,,,,,,,,,,,,,600.0,900.0,OVC,900.0,,,,,,
KRDR,12-26-2021,20:56,METAR,Normal,40,9.0,,,9999.0,,-14.0,-16.2,29.93,1016.5,,,,,,,,,,,,,,,,500.0,800.0,OVC,800.0,,,,,,
KRDR,12-26-2021,20:52,SPECI,Normal,40,9.0,,,9999.0,,-14.0,-16.0,29.94,1016.8,,,,,,,,,,,,,,,,500.0,800.0,OVC,800.0,,,,,,
KRDR,12-26-2021,20:11,SPECI,Normal,60,9.0,,,9999.0,,-15.0,-17.0,29.96,1017.5,,,,,,,,,,,,,,,,300.0,600.0,OVC,600.0,,,,,,
KRDR,12-26-2021,19:56,METAR,Normal,50,9.0,,,9999.0,,-14.8,-16.8,29.97,1017.8,,,,,,,,,,,,,,,,300.0,500.0,OVC,500.0,,,,,,
KRDR,12-26-2021,19:28,SPECI,Normal,40,11.0,,,9999.0,,-15.0,-17.0,29.99,1018.5,,,,,,,,,,,,,,,,400.0,500.0,OVC,500.0,,,,,,
KRDR,12-26-2021,19:13,SPECI,Normal,40,10.0,,,9999.0,,-16.0,-18.0,30.01,1019.3,,,,,,,,,,,,,,,,400.0,600.0,OVC,600.0,,,,,,
KRDR,12-26-2021,18:56,METAR,Normal,40,10.0,,,9999.0,,-16.0,-18.1,30.03,1020.0,,,,,,,,,,,,,,,,400.0,500.0,OVC,500.0,,,,,,
KRDR,12-26-2021,18:43,SPECI,Normal,30,8.0,,,9999.0,,-16.0,-18.0,30.04,1020.3,,,,,,,,,,,,,,,,200.0,500.0,OVC,500.0,,,,,,
KRDR,12-26-2021,18:37,SPECI,Normal,30,6.0,,,9999.0,,-16.0,-18.0,30.05,1020.7,,,,,,,,,,,,,,,,200.0,300.0,OVC,300.0,,,,,,
KRDR,12-26-2021,18:17,SPECI,Normal,50,5.0,,,9999.0,,-16.0,-18.0,30.06,1021.1,,,,,,,,,,,,,,,,400.0,400.0,OVC,400.0,,,,,,
KRDR,12-26-2021,17:56,METAR,Normal,50,6.0,,,9999.0,,-16.4,-18.5,30.07,1021.3,,,,,,,,,,,,,TRACE,,,500.0,500.0,OVC,500.0,,,,,,
KRDR,12-26-2021,17:36,SPECI,Normal,70,5.0,,,9999.0,,-17.0,-19.0,30.09,1022.2,,,,,,,,,,,,,,,,500.0,500.0,OVC,500.0,,,,,,
KRDR,12-26-2021,16:56,METAR,Normal,70,6.0,,,9999.0,,-17.4,-19.6,30.10,1022.5,,,,,,,,,,,,,,,,400.0,600.0,OVC,600.0,,,,,,
KRDR,12-26-2021,16:40,SPECI,Normal,60,5.0,,,9999.0,,-18.0,-20.0,30.10,1022.5,,,,,,,,,,,,,,,,600.0,600.0,BKN,600.0,OVC,1000.0,,,,
KRDR,12-26-2021,16:30,SPECI,Normal,40,7.0,,,9999.0,,-18.0,-20.0,30.10,1022.5,,,,,,,,,,,,,,,,600.0,800.0,BKN,800.0,OVC,1200.0,,,,
KRDR,12-26-2021,16:20,SPECI,Normal,20,5.0,,,9999.0,,-18.0,-21.0,30.10,1022.5,,,,,,,,,,,,,,,,600.0,1000.0,BKN,1000.0,OVC,2100.0,,,,
KRDR,12-26-2021,16:16,SPECI,Normal,30,6.0,,,9999.0,,-19.0,-21.0,30.10,1022.5,,,,,,,,,,,,,,,,600.0,1200.0,BKN,1200.0,OVC,2100.0,,,,
KRDR,12-26-2021,15:56,METAR,Normal,30,6.0,,,9999.0,,-18.5,-20.9,30.10,1022.5,,,,,,,,,,,,,,,,2100.0,2100.0,OVC,2100.0,,,,,,
KRDR,12-26-2021,15:12,SPECI,Normal,20,4.0,,,9999.0,,-19.0,-21.0,30.10,1022.5,,,,,,,,,,,,,,,,2000.0,2200.0,BKN,2200.0,,,,,,
KRDR,12-26-2021,14:55,METAR,Normal,20,5.0,,,9999.0,,-19.6,-21.7,30.10,1022.5,,,,,,,,,,,,,,,,,20000.0,SCT,20000.0,,,,,,
KRDR,12-26-2021,13:56,METAR,Calm,,0.0,,,9999.0,,-21.2,-23.9,30.13,1023.6,,,,,,,,,,,TRACE,,,,,,3200.0,FEW,3200.0,,,,,,
KRDR,12-26-2021,13:02,SPECI,Normal,10,4.0,,,9999.0,,-20.0,-23.0,30.12,1023.1,,,,,,,,,,,,,,,,,3200.0,SCT,3200.0,,,,,,
KRDR,12-26-2021,12:56,METAR,Normal,10,4.0,,,9999.0,Light Snow,-20.2,-22.5,30.12,1023.1,71,,,,,,,,,,TRACE,,,,,3200.0,3200.0,BKN,3200.0,,,,,,
KRDR,12-26-2021,12:49,SPECI,Normal,10,5.0,,,9999.0,Light Snow,-20.0,-22.0,30.12,1023.1,71,,,,,,,,,,,,,,,3200.0,3200.0,BKN,3200.0,,,,,,
KRDR,12-26-2021,11:56,METAR,Normal,10,4.0,,,9999.0,,-18.6,-20.8,30.12,1023.0,,,,,,,,,,,,,TRACE,,,3300.0,3300.0,OVC,3300.0,,,,,,
KRDR,12-26-2021,10:56,METAR,Normal,340,4.0,,,9999.0,,-16.8,-19.1,30.13,1023.3,,,,,,,,,,,TRACE,,,,,3300.0,3300.0,OVC,3300.0,,,,,,
KRDR,12-26-2021,10:32,SPECI,Normal,350,3.0,,,9999.0,,-17.0,-19.0,30.14,1023.6,,,,,,,,,,,,,,,,3300.0,3300.0,OVC,3300.0,,,,,,
KRDR,12-26-2021,10:09,SPECI,Normal,350,6.0,,,9999.0,Light Snow,-17.0,-19.0,30.13,1023.3,71,,,,,,,,,,,,,,,3300.0,3300.0,OVC,3300.0,,,,,,
KRDR,12-26-2021,09:56,METAR,Normal,340,5.0,,,9999.0,,-17.0,-19.3,30.14,1023.6,,,,,,,,,,,TRACE,,,,,3400.0,3400.0,OVC,3400.0,,,,,,
KRDR,12-26-2021,09:37,SPECI,Normal,330,5.0,,,9999.0,,-17.0,-19.0,30.14,1023.6,,,,,,,,,,,,,,,,3400.0,3400.0,OVC,3400.0,,,,,,
KRDR,12-26-2021,09:27,SPECI,Normal,350,5.0,,,9999.0,Light Snow,-17.0,-19.0,30.15,1024.0,71,,,,,,,,,,,,,,,3400.0,3400.0,OVC,3400.0,,,,,,
KRDR,12-26-2021,09:15,SPECI,Normal,340,4.0,,,9999.0,,-17.0,-19.0,30.15,1024.0,,,,,,,,,,,,,,,,3500.0,3500.0,OVC,3500.0,,,,,,
KRDR,12-26-2021,09:05,SPECI,Normal,340,5.0,,,9999.0,Light Snow,-17.0,-19.0,30.14,1023.6,71,,,,,,,,,,,,,,,3500.0,3500.0,OVC,3500.0,,,,,,
KRDR,12-26-2021,08:56,METAR,Normal,330,4.0,,,9999.0,,-17.2,-19.4,30.15,1024.0,,,,,,,,,,,TRACE,TRACE,,,,3500.0,3500.0,OVC,3500.0,,,,,,
KRDR,12-26-2021,08:53,SPECI,Normal,330,4.0,,,9999.0,,-17.0,-19.0,30.15,1024.0,,,,,,,,,,,,,,,,3600.0,3600.0,OVC,3600.0,,,,,,
KRDR,12-26-2021,08:42,SPECI,Normal,340,4.0,,,9999.0,Light Snow,-17.0,-20.0,30.15,1024.0,71,,,,,,,,,,,,,,,3600.0,3600.0,OVC,3600.0,,,,,,
KRDR,12-26-2021,08:13,SPECI,Normal,330,5.0,,,9999.0,,-17.0,-20.0,30.14,1023.6,,,,,,,,,,,,,,,,3700.0,3700.0,OVC,3700.0,,,,,,
KRDR,12-26-2021,07:56,METAR,Normal,340,6.0,,,9999.0,Light Snow,-17.4,-19.6,30.13,1023.3,71,,,,,,,,,,TRACE,,,,,3700.0,3700.0,OVC,3700.0,,,,,,
KRDR,12-26-2021,07:51,SPECI,Normal,340,6.0,,,9999.0,Light Snow,-17.0,-20.0,30.13,1023.3,71,,,,,,,,,,,,,,,3700.0,3700.0,OVC,3700.0,,,,,,
KRDR,12-26-2021,07:32,SPECI,Normal,350,4.0,,,9999.0,,-18.0,-20.0,30.13,1023.3,,,,,,,,,,,,,,,,3800.0,3800.0,OVC,3800.0,,,,,,
KRDR,12-26-2021,07:31,SPECI,Normal,360,4.0,,,9999.0,Light Snow,-18.0,-20.0,30.13,1023.3,71,,,,,,,,,,,,,,,3800.0,3800.0,OVC,3800.0,,,,,,
KRDR,12-26-2021,07:11,SPECI,Normal,330,4.0,,,9999.0,,-19.0,-21.0,30.13,1023.4,,,,,,,,,,,,,,,,3800.0,3800.0,OVC,3800.0,,,,,,
KRDR,12-26-2021,07:01,SPECI,Normal,330,4.0,,,9999.0,Light Snow,-18.0,-20.0,30.12,1023.0,71,,,,,,,,,,,,,,,3900.0,3900.0,OVC,3900.0,,,,,,
KRDR,12-26-2021,06:56,METAR,Normal,320,4.0,,,9999.0,,-18.3,-20.5,30.13,1023.4,,,,,,,,,,,,,,,,3900.0,3900.0,OVC,3900.0,,,,,,
KRDR,12-26-2021,05:56,METAR,Calm,,0.0,,,9999.0,,-18.9,-21.3,30.13,1023.4,,,,,,,,,,,,,,,,4100.0,1600.0,SCT,1600.0,OVC,4100.0,,,,
KRDR,12-26-2021,05:31,SPECI,Normal,360,4.0,,,9999.0,,-20.0,-22.0,30.12,1023.1,,,,,,,,,,,,,,,,4200.0,1400.0,SCT,1400.0,BKN,4200.0,,,,
KRDR,12-26-2021,05:22,SPECI,Normal,10,5.0,,,9999.0,,-20.0,-22.0,30.12,1023.1,,,,,,,,,,,,,,,,1500.0,1000.0,SCT,1000.0,BKN,1500.0,OVC,12000.0,,
KRDR,12-26-2021,05:10,SPECI,Normal,340,4.0,,,9999.0,,-20.0,-22.0,30.12,1023.1,,,,,,,,,,,,,,,,1600.0,1000.0,SCT,1000.0,BKN,1600.0,BKN,2200.0,BKN,4300.0
KRDR,12-26-2021,05:08,SPECI,Normal,340,5.0,,,9999.0,,-20.0,-22.0,30.12,1023.1,,,,,,,,,,,,,,,,1700.0,1300.0,SCT,1300.0,BKN,2000.0,BKN,4300.0,OVC,12000.0
KRDR,12-26-2021,04:57,METAR,Normal,330,4.0,,,9999.0,,-20.2,-22.5,30.13,1023.5,,,,,,,,,,,,,,,,1700.0,1700.0,BKN,1700.0,BKN,2200.0,OVC,4300.0,,
KRDR,12-26-2021,04:48,SPECI,Normal,340,5.0,,,9999.0,,-20.0,-22.0,30.12,1023.1,,,,,,,,,,,,,,,,2200.0,2200.0,BKN,2200.0,OVC,4300.0,,,,
KRDR,12-26-2021,04:32,SPECI,Normal,330,5.0,,,9999.0,,-20.0,-23.0,30.12,1023.1,,,,,,,,,,,,,,,,1700.0,1700.0,BKN,1700.0,BKN,5000.0,,,,
KRDR,12-26-2021,03:56,METAR,Normal,10,6.0,,,9999.0,,-19.2,-21.4,30.10,1022.4,,,,,,,,,,,TRACE,,,,,,2500.0,FEW,2500.0,SCT,4900.0,,,,
KRDR,12-26-2021,03:07,SPECI,Normal,350,5.0,,,9999.0,,-17.0,-19.0,30.10,1022.3,,,,,,,,,,,,,,,,2400.0,2400.0,BKN,2400.0,BKN,3300.0,OVC,4600.0,,
KRDR,12-26-2021,03:05,SPECI,Normal,350,4.0,,,9999.0,,-17.0,-19.0,30.09,1021.9,,,,,,,,,,,,,,,,2600.0,2600.0,BKN,2600.0,BKN,3300.0,OVC,4600.0,,
KRDR,12-26-2021,02:56,METAR,Normal,20,4.0,,,9999.0,,-17.8,-19.8,30.09,1022.0,,,,,,,,,,,TRACE,TRACE,,,,3400.0,3400.0,OVC,3400.0,,,,,,
KRDR,12-26-2021,02:41,SPECI,Normal,350,6.0,,,9999.0,,-19.0,-21.0,30.09,1022.0,,,,,,,,,,,,,,,,2100.0,2100.0,BKN,2100.0,,,,,,
KRDR,12-26-2021,02:27,SPECI,Normal,340,5.0,,,9999.0,Light Snow/Mist,-19.0,-21.0,30.09,1022.0,71,10,,,,,,,,,,,,,,2100.0,2100.0,BKN,2100.0,,,,,,
KRDR,12-26-2021,01:56,METAR,Normal,340,6.0,,,9999.0,Light Snow,-17.4,-19.5,30.08,1021.7,,,,71,,,,,,,TRACE,,,,,2300.0,2300.0,BKN,2300.0,OVC,6000.0,,,,
KRDR,12-26-2021,00:58,METAR,Calm,,0.0,,,8000.0,Light Snow/Mist,-15.9,-18.0,30.07,1021.3,71,10,,,,,,,,,TRACE,,,,,800.0,800.0,OVC,800.0,,,,,,
KRDR,12-25-2021,23:56,METAR,Normal,40,4.0,,,4800.0,Light Snow,-15.2,-17.8,30.05,1020.6,71,,,,,,,,,,TRACE,,TRACE,,,3300.0,3300.0,OVC,3300.0,,,,,,
KRDR,12-25-2021,23:44,SPECI,Normal,30,5.0,,,4800.0,Light Snow,-15.0,-18.0,30.04,1020.2,71,,,,,,,,,,,,,,,2900.0,2900.0,OVC,2900.0,,,,,,
KRDR,12-25-2021,23:10,SPECI,Normal,50,6.0,,,4400.0,Light Snow,-15.0,-18.0,30.03,1019.9,71,,,,,,,,,,,,,,,2500.0,2500.0,OVC,2500.0,,,,,,
KRDR,12-25-2021,22:56,METAR,Normal,50,6.0,,,2600.0,Light Snow,-15.1,-17.5,30.03,1019.9,71,,,,,,,,,,TRACE,,,,,1500.0,1500.0,OVC,1500.0,,,,,,
KRDR,12-25-2021,22:47,SPECI,Normal,30,6.0,,,2000.0,Light Snow,-15.0,-18.0,30.03,1019.9,71,,,,,,,,,,,,,,,2500.0,2500.0,OVC,2500.0,,,,,,
KRDR,12-25-2021,21:56,METAR,Normal,30,8.0,,,2400.0,Light Snow,-15.2,-18.1,30.01,1019.3,71,,,,,,,,,,TRACE,,,,,2500.0,2500.0,OVC,2500.0,,,,,,
KRDR,12-25-2021,21:44,SPECI,Normal,40,7.0,,,3000.0,Light Snow,-15.0,-18.0,30.01,1019.3,71,,,,,,,,,,,,,,,1000.0,1000.0,OVC,1000.0,,,,,,
KRDR,12-25-2021,21:41,SPECI,Normal,30,6.0,,,4000.0,Light Snow,-15.0,-18.0,30.00,1018.9,71,,,,,,,,,,,,,,,1000.0,1000.0,OVC,1000.0,,,,,,
KRDR,12-25-2021,21:10,SPECI,Normal,20,7.0,,,6400.0,Light Snow,-15.0,-18.0,29.99,1018.5,71,,,,,,,,,,,,,,,1000.0,1000.0,OVC,1000.0,,,,,,
KRDR,12-25-2021,21:02,SPECI,Normal,30,9.0,,,4800.0,Light Snow,-15.0,-18.0,29.99,1018.5,71,,,,,,,,,,,,,,,1000.0,1000.0,OVC,1000.0,,,,,,
KRDR,12-25-2021,20:55,METAR,Normal,20,8.0,,,4000.0,Light Snow,-15.0,-18.0,29.99,1018.5,,,,71,,,,,,,TRACE,TRACE,,,,1000.0,1000.0,OVC,1000.0,,,,,,
KRDR,12-25-2021,20:42,SPECI,Normal,10,9.0,,,2800.0,Light Snow,-15.0,-18.0,29.98,1018.2,71,,,,,,,,,,,,,,,1000.0,1000.0,BKN,1000.0,OVC,3000.0,,,,
KRDR,12-25-2021,20:10,SPECI,Normal,360,7.0,,,4000.0,Light Snow,-15.0,-18.0,29.98,1018.2,71,,,,,,,,,,,,,,,1000.0,1000.0,BKN,1000.0,OVC,3300.0,,,,
KRDR,12-25-2021,19:56,METAR,Normal,360,7.0,,,4800.0,Light Snow,-14.7,-18.0,29.98,1018.2,71,,,,,,,,,,TRACE,,,,,1000.0,1000.0,BKN,1000.0,OVC,3900.0,,,,
KRDR,12-25-2021,19:26,SPECI,Normal,360,4.0,,,9999.0,Light Snow,-15.0,-18.0,29.98,1018.1,71,,,,,,,,,,,,,,,1000.0,1000.0,BKN,1000.0,OVC,3000.0,,,,
KRDR,12-25-2021,19:15,SPECI,Normal,20,5.0,,,4800.0,Light Snow,-15.0,-18.0,29.97,1017.7,71,,,,,,,,,,,,,,,1000.0,1000.0,BKN,1000.0,OVC,3700.0,,,,
KRDR,12-25-2021,19:05,SPECI,Calm,,0.0,,,2600.0,Light Snow,-15.0,-18.0,29.98,1018.1,71,,,,,,,,,,,,,,,1000.0,1000.0,BKN,1000.0,OVC,4300.0,,,,
KRDR,12-25-2021,18:56,METAR,Normal,30,4.0,,,4800.0,Light Snow,-15.2,-18.7,29.97,1017.7,71,,,,,,,,,,TRACE,,,,,1000.0,1000.0,BKN,1000.0,OVC,4300.0,,,,
KRDR,12-25-2021,17:56,METAR,Normal,110,4.0,,,4800.0,Light Snow,-15.4,-18.9,29.98,1018.0,71,,,,,,,,,,TRACE,,TRACE,,,900.0,900.0,BKN,900.0,BKN,3900.0,OVC,4700.0,,
KRDR,12-25-2021,17:38,SPECI,Normal,100,4.0,,,3200.0,Light Snow,-15.0,-19.0,29.98,1018.0,71,,,,,,,,,,,,,,,4000.0,800.0,SCT,800.0,BKN,4000.0,BKN,4700.0,OVC,6000.0
KRDR,12-25-2021,17:28,SPECI,Normal,140,3.0,,,4000.0,Light Snow,-16.0,-19.0,29.99,1018.4,71,,,,,,,,,,,,,,,4900.0,800.0,FEW,800.0,OVC,4900.0,,,,
KRDR,12-25-2021,16:56,METAR,Normal,140,4.0,,,4800.0,Light Snow,-15.5,-19.3,29.99,1018.4,71,,,,,,,,,,TRACE,,,,,4300.0,4300.0,OVC,4300.0,,,,,,
KRDR,12-25-2021,16:42,SPECI,Normal,90,4.0,,,4800.0,Light Snow,-16.0,-20.0,29.98,1018.1,71,,,,,,,,,,,,,,,4400.0,4400.0,OVC,4400.0,,,,,,
KRDR,12-25-2021,16:13,SPECI,Normal,60,3.0,,,9999.0,Light Snow,-16.0,-21.0,29.98,1018.1,71,,,,,,,,,,,,,,,6000.0,4600.0,SCT,4600.0,OVC,6000.0,,,,
KRDR,12-25-2021,15:56,METAR,Normal,40,3.0,,,9999.0,Light Snow,-15.7,-20.8,29.98,1018.2,71,,,,,,,,,,TRACE,,,,,4600.0,2900.0,FEW,2900.0,OVC,4600.0,,,,
KRDR,12-25-2021,15:29,SPECI,Normal,10,4.0,,,9999.0,Light Snow,-16.0,-21.0,29.98,1018.2,71,,,,,,,,,,,,,,,4400.0,2900.0,FEW,2900.0,BKN,4400.0,,,,
KRDR,12-25-2021,14:56,METAR,Normal,290,3.0,,,9999.0,,-15.8,-21.1,29.98,1018.1,,,,,,,,,,,,,,,,6000.0,6000.0,BKN,6000.0,OVC,7500.0,,,,
KRDR,12-25-2021,13:56,METAR,Calm,,0.0,,,9999.0,,-16.1,-21.4,29.95,1017.1,,,,,,,,,,,,,,,,11000.0,11000.0,OVC,11000.0,,,,,,
KRDR,12-25-2021,12:56,METAR,Normal,330,7.0,,,9999.0,,-16.3,-21.6,29.92,1016.0,,,,,,,,,,,,,,,,12000.0,12000.0,OVC,12000.0,,,,,,
KRDR,12-25-2021,11:56,METAR,Normal,350,6.0,,,9999.0,,-16.6,-21.0,29.87,1014.3,,,,,,,,,,,,,,,,13000.0,13000.0,OVC,13000.0,,,,,,
KRDR,12-25-2021,10:56,METAR,Normal,350,5.0,,,9999.0,,-17.2,-21.4,29.84,1013.2,,,,,,,,,,,,,,,,15000.0,15000.0,OVC,15000.0,,,,,,
KRDR,12-25-2021,09:56,METAR,Normal,360,6.0,,,9999.0,,-18.7,-22.1,29.83,1012.9,,,,,,,,,,,,,,,,,20000.0,SCT,20000.0,,,,,,
KRDR,12-25-2021,08:56,METAR,Normal,340,5.0,,,9999.0,,-17.3,-21.4,29.83,1012.8,,,,,,,,,,,,,,,Clear,72000.0,,,,,,,,,
KRDR,12-25-2021,07:56,METAR,Normal,330,6.0,,,9999.0,,-16.4,-20.6,29.82,1012.4,,,,,,,,,,,,,,,Clear,72000.0,,,,,,,,,
KRDR,12-25-2021,06:56,METAR,Normal,330,9.0,,,9999.0,,-15.2,-20.0,29.81,1012.0,,,,,,,,,,,,,,,Clear,72000.0,,,,,,,,,
KRDR,12-25-2021,05:57,METAR,Normal,320,12.0,,,9999.0,,-13.9,-19.3,29.80,1011.6,,,,,,,,,,,,,,,,14000.0,14000.0,OVC,14000.0,,,,,,
KRDR,12-25-2021,04:57,METAR,Normal,300,8.0,,,9999.0,,-14.4,-19.2,29.78,1010.9,,,,,,,,,,,TRACE,,,,,14000.0,12000.0,FEW,12000.0,OVC,14000.0,,,,
KRDR,12-25-2021,04:27,SPECI,Normal,290,9.0,,,9999.0,,-15.0,-19.0,29.79,1011.2,,,,,,,,,,,,,,,,11000.0,11000.0,BKN,11000.0,OVC,14000.0,,,,
KRDR,12-25-2021,03:56,METAR,Normal,280,6.0,,,9999.0,,-15.3,-19.4,29.77,1010.5,,,,,,,,,,,,,,,,,15000.0,SCT,15000.0,,,,,,
KRDR,12-25-2021,03:37,SPECI,Normal,280,7.0,,,9999.0,,-15.0,-19.0,29.76,1010.1,,,,,,,,,,,,,,,Clear,72000.0,,,,,,,,,
KRDR,12-25-2021,02:56,METAR,Normal,260,5.0,,,9999.0,,-14.7,-18.8,29.74,1009.2,,,,,,,,,,,,,,,,,15000.0,FEW,15000.0,,,,,,
KRDR,12-25-2021,01:56,METAR,Normal,310,7.0,,,9999.0,,-13.8,-18.3,29.71,1008.4,,,,,,,,,,,,,,,,,15000.0,SCT,15000.0,,,,,,
KRDR,12-25-2021,00:56,METAR,Normal,310,6.0,,,9999.0,,-13.4,-17.7,29.68,1007.3,,,,,,,,,,,,,,,Clear,72000.0,,,,,,,,,
KRDR,12-24-2021,23:56,METAR,Normal,300,10.0,,,9999.0,,-12.4,-17.1,29.65,1006.4,,,,,,,,,,,,,,,,15000.0,15000.0,BKN,15000.0,,,,,,
KRDR,12-24-2021,22:56,METAR,Normal,280,7.0,,,9999.0,,-11.7,-16.3,29.61,1004.9,,,,,,,,,,,,,,,,15000.0,15000.0,BKN,15000.0,,,,,,
KRDR,12-24-2021,21:56,METAR,Normal,320,8.0,,,9999.0,,-10.0,-15.2,29.54,1002.3,,,,,,,,,,,,,,,,,15000.0,SCT,15000.0,,,,,,
KRDR,12-24-2021,20:56,METAR,Normal,330,14.0,,300/30KTS,9999.0,,-9.5,-14.7,29.49,1000.5,,,,,,,,,,,,,,,,,15000.0,FEW,15000.0,,,,,,
KRDR,12-24-2021,19:55,METAR,Normal,310,21.0,27.0,300/30KTS,8000.0,Blowing or Drifting Snow or Sand,-9.2,-14.0,29.44,998.9,27,,,,,,,,,,,,,,,,15000.0,FEW,15000.0,,,,,,
KRDR,12-24-2021,18:56,METAR,Normal,310,19.0,,280/35KTS,8000.0,Blowing or Drifting Snow or Sand,-8.5,-13.7,29.40,997.5,27,,,,,,,,,,,,,,,,12000.0,FEW,12000.0,,,,,,
KRDR,12-24-2021,17:58,SPECI,Normal,290,23.0,35.0,,9999.0,Blowing or Drifting Snow or Sand,-8.0,-13.0,29.33,995.2,27,,,,,,,,,,,,,,,,20000.0,FEW,20000.0,,,,,,
KRDR,12-24-2021,17:56,METAR,Normal,290,26.0,35.0,,4800.0,Blowing or Drifting Snow or Sand,-8.5,-12.8,29.33,995.2,27,,,,,,,,,,,,,,,,22000.0,FEW,22000.0,,,,,,
KRDR,12-24-2021,16:56,METAR,Normal,290,23.0,32.0,290/38KTS,4800.0,Blowing or Drifting Snow or Sand,-7.8,-11.3,29.30,994.3,27,,,,,,,,,,,,,,,,22000.0,FEW,22000.0,,,,,,
KRDR,12-24-2021,15:56,METAR,Normal,280,32.0,39.0,,3200.0,Blowing or Drifting Snow or Sand,-4.8,-8.4,29.24,992.1,27,,,,,,,,,,,,,,,,22000.0,FEW,22000.0,,,,,,
KRDR,12-24-2021,15:49,SPECI,Normal,280,27.0,36.0,,3200.0,,-4.0,-8.0,29.24,992.1,,,,,,,,,,,,,,,,,22000.0,FEW,22000.0,,,,,,
KRDR,12-24-2021,15:34,SPECI,Normal,290,29.0,35.0,,3200.0,,-2.0,-6.0,29.22,991.4,,,,,,,,,,,,,,,,,22000.0,FEW,22000.0,,,,,,
KRDR,12-24-2021,15:31,SPECI,Normal,290,25.0,33.0,,3200.0,,-2.0,-5.0,29.22,991.4,,,,,,,,,,,,,,,,,22000.0,FEW,22000.0,,,,,,
KRDR,12-24-2021,14:56,METAR,Normal,280,17.0,,280/33KTS,9999.0,,0.9,-2.5,29.18,989.9,,,,,,,,,,,,,,,,,22000.0,FEW,22000.0,,,,,,
KRDR,12-24-2021,13:56,METAR,Normal,290,6.0,,,9999.0,,-5.8,-6.9,29.14,988.7,,,,,,,,,,,,,,,,,4200.0,SCT,4200.0,,,,,,
KRDR,12-24-2021,12:56,METAR,Normal,310,7.0,,,9999.0,,-5.5,-6.9,29.11,987.7,,,,,,,,,,,,,,,,6000.0,6000.0,OVC,6000.0,,,,,,
KRDR,12-24-2021,11:56,METAR,Normal,290,8.0,,,9999.0,,-7.2,-8.4,29.09,987.1,,,,,,,,,,,,,,,,,10000.0,FEW,10000.0,,,,,,
KRDR,12-24-2021,10:56,METAR,Normal,320,5.0,,,9999.0,,-4.8,-6.2,29.07,986.3,,,,,,,,,,,,,,,,9500.0,9500.0,OVC,9600.0,,,,,,
KRDR,12-24-2021,09:56,METAR,Normal,180,5.0,,,9999.0,,-2.0,-4.2,29.07,986.2,,,,,,,,,,,,,,,,17000.0,13000.0,SCT,13000.0,BKN,17000.0,,,,
KRDR,12-24-2021,08:56,METAR,Normal,180,10.0,,,9999.0,,-0.8,-3.3,29.10,987.1,,,,,,,,,,,,,,,,11000.0,11000.0,OVC,11000.0,,,,,,
KRDR,12-24-2021,07:56,METAR,Normal,170,8.0,,,9999.0,,-2.6,-3.3,29.11,987.6,,,,,,,,,,,,,,,,12000.0,12000.0,OVC,12000.0,,,,,,
KRDR,12-24-2021,06:56,METAR,Normal,170,8.0,,,9999.0,,-3.4,-4.1,29.15,988.9,,,,,,,,,,,,,,,,14000.0,14000.0,BKN,14000.0,OVC,16000.0,,,,
KRDR,12-24-2021,05:54,METAR,Normal,160,6.0,,,9999.0,,-6.6,-7.7,29.21,991.1,,,,,,,,,,,,,,,,12000.0,12000.0,OVC,12000.0,,,,,,
KRDR,12-24-2021,04:57,METAR,Normal,150,6.0,,,9999.0,,-7.6,-8.7,29.25,992.6,,,,,,,,,,,,,,,,18000.0,18000.0,BKN,18000.0,,,,,,
KRDR,12-24-2021,03:55,METAR,Normal,130,5.0,,,9999.0,,-9.4,-10.8,29.29,994.0,,,,,,,,,,,,,,,,12000.0,12000.0,BKN,12000.0,,,,,,
KRDR,12-24-2021,02:55,METAR,Normal,150,6.0,,,9999.0,,-8.7,-10.1,29.35,996.1,,,,,,,,,,,,,,,,11000.0,11000.0,BKN,11000.0,,,,,,
KRDR,12-24-2021,01:55,METAR,Normal,140,5.0,,,9999.0,,-8.4,-9.6,29.39,997.4,,,,,,,,,,,,,,,,11000.0,200.0,SCT,200.0,OVC,11000.0,,,,
KRDR,12-24-2021,01:14,SPECI,Normal,150,6.0,,,9999.0,,-8.0,-10.0,29.41,998.2,,,,,,,,,,,,,,,,200.0,200.0,BKN,200.0,OVC,12000.0,,,,
KRDR,12-24-2021,00:55,METAR,Normal,150,8.0,,,3200.0,Mist,-8.4,-9.6,29.43,998.9,,,,10,,,,,,,,,,,Sky Obscured (Unable to Estimate),200.0,200.0,,200.0,,,,,,
KRDR,12-23-2021,23:54,METAR,Normal,150,7.0,,,1600.0,Mist,-8.4,-9.6,29.47,1000.2,,,,10,,,,,,,,,,,Sky Obscured (Unable to Estimate),100.0,200.0,,200.0,,,,,,
KRDR,12-23-2021,22:57,METAR,Normal,140,6.0,,,1600.0,Mist,-8.0,-9.2,29.50,1001.3,10,,,,,,,,,,,,,,,200.0,200.0,OVC,200.0,,,,,,
KRDR,12-23-2021,22:46,SPECI,Normal,130,4.0,,,800.0,Fog with Rime,-8.0,-9.0,29.50,1001.3,35,,,,,,,,,,,,,,,200.0,200.0,OVC,200.0,,,,,,
KRDR,12-23-2021,22:38,SPECI,Normal,160,6.0,,,1200.0,Fog with Rime,-8.0,-9.0,29.51,1001.6,35,,,,,,,,,,,,,,,200.0,200.0,OVC,200.0,,,,,,
KRDR,12-23-2021,22:28,SPECI,Normal,150,5.0,,,1600.0,Mist,-8.0,-9.0,29.52,1001.9,10,,,,,,,,,,,,,,,200.0,200.0,OVC,200.0,,,,,,
KRDR,12-23-2021,21:56,METAR,Normal,160,4.0,,,4000.0,Mist,-7.8,-9.0,29.53,1002.3,,,,10,,,,,,,,,,,,200.0,200.0,OVC,200.0,,,,,,
KRDR,12-23-2021,20:55,METAR,Calm,,0.0,,,8000.0,Mist,-7.4,-8.6,29.54,1002.5,,,,10,,,,,,,,,,,,200.0,200.0,OVC,200.0,,,,,,
KRDR,12-23-2021,19:56,METAR,Normal,320,4.0,,,6400.0,Mist,-7.5,-8.7,29.55,1002.8,10,,,,,,,,,,,,,,,200.0,200.0,OVC,200.0,,,,,,
KRDR,12-23-2021,18:56,METAR,Normal,300,4.0,,,4800.0,Mist,-7.4,-8.6,29.55,1002.7,10,,,,,,,,,,,,,,,200.0,200.0,OVC,200.0,,,,,,
KRDR,12-23-2021,17:56,METAR,Normal,280,3.0,,,4800.0,Mist,-7.7,-8.9,29.57,1003.5,10,,,,,,,,,,,,,,,200.0,200.0,OVC,200.0,,,,,,
KRDR,12-23-2021,16:56,METAR,Normal,310,6.0,,,4800.0,Mist,-7.9,-9.1,29.59,1004.2,10,,,,,,,,,,,,,,,200.0,200.0,OVC,200.0,,,,,,
KRDR,12-23-2021,16:46,SPECI,Normal,330,5.0,,,4400.0,Mist,-8.0,-9.0,29.59,1004.2,10,,,,,,,,,,,,,,,200.0,200.0,OVC,200.0,,,,,,
KRDR,12-23-2021,15:56,METAR,Calm,,0.0,,,4800.0,Mist,-8.6,-10.0,29.60,1004.6,10,,,,,,,,,,,,,,,200.0,200.0,OVC,200.0,,,,,,
KRDR,12-23-2021,15:40,SPECI,Calm,,0.0,,,4800.0,Mist,-9.0,-10.0,29.59,1004.2,10,,,,,,,,,,,,,,,200.0,200.0,OVC,200.0,,,,,,
KRDR,12-23-2021,14:56,METAR,Calm,,0.0,,,8000.0,Mist,-9.5,-10.9,29.58,1003.9,10,,,,,,,,,,,TRACE,,,,200.0,200.0,OVC,200.0,,,,,,
KRDR,12-23-2021,14:39,SPECI,Calm,,0.0,,,8000.0,Mist,-10.0,-11.0,29.58,1003.9,10,,,,,,,,,,,,,,,300.0,300.0,OVC,300.0,,,,,,
KRDR,12-23-2021,14:36,SPECI,Calm,,0.0,,,9999.0,,-10.0,-11.0,29.58,1003.9,,,,,,,,,,,,,,,,300.0,300.0,OVC,300.0,,,,,,
KRDR,12-23-2021,14:16,SPECI,Calm,,0.0,,,9999.0,,-10.0,-12.0,29.59,1004.3,,,,,,,,,,,,,,,,400.0,400.0,OVC,400.0,,,,,,
KRDR,12-23-2021,13:56,METAR,Calm,,0.0,,,9999.0,,-10.7,-12.2,29.58,1004.0,,,,,,,,,,,,,,,,500.0,500.0,OVC,500.0,,,,,,
KRDR,12-23-2021,13:49,SPECI,Calm,,0.0,,,9999.0,,-11.0,-12.0,29.58,1004.0,,,,,,,,,,,,,,,,500.0,500.0,OVC,500.0,,,,,,
KRDR,12-23-2021,13:37,SPECI,Calm,,0.0,,,9999.0,,-11.0,-12.0,29.58,1004.0,,,,,,,,,,,,,,,,700.0,700.0,OVC,700.0,,,,,,
KRDR,12-23-2021,13:26,SPECI,Calm,,0.0,,,9999.0,,-11.0,-13.0,29.57,1003.6,,,,,,,,,,,,,,,,900.0,900.0,OVC,900.0,,,,,,
KRDR,12-23-2021,12:56,METAR,Calm,,0.0,,,9999.0,,-12.1,-13.7,29.59,1004.4,,,,,,,,,,,,,,,,1100.0,1100.0,BKN,1100.0,,,,,,
KRDR,12-23-2021,12:54,SPECI,Calm,,0.0,,,9999.0,,-12.0,-14.0,29.60,1004.8,,,,,,,,,,,,,,,,1100.0,1100.0,BKN,1100.0,,,,,,
KRDR,12-23-2021,12:46,SPECI,Normal,330,4.0,,,9999.0,,-12.0,-14.0,29.60,1004.8,,,,,,,,,,,,,,,,1200.0,1200.0,BKN,1200.0,BKN,11000.0,BKN,15000.0,,
KRDR,12-23-2021,12:16,SPECI,Calm,,0.0,,,9999.0,,-12.0,-14.0,29.59,1004.4,,,,,,,,,,,,,,,,9500.0,1200.0,FEW,1200.0,BKN,9600.0,OVC,12000.0,,
KRDR,12-23-2021,11:56,METAR,Calm,,0.0,,,9999.0,,-11.8,-13.3,29.58,1004.1,,,,,,,,,,,,,TRACE,,,1200.0,1200.0,BKN,1200.0,OVC,9100.0,,,,
KRDR,12-23-2021,11:16,SPECI,Calm,,0.0,,,9999.0,,-13.0,-15.0,29.60,1004.8,,,,,,,,,,,,,,,,1300.0,1300.0,BKN,1300.0,,,,,,
KRDR,12-23-2021,10:56,METAR,Normal,150,3.0,,,9999.0,,-11.6,-13.2,29.60,1004.8,,,,,,,,,,,,,,,,,1200.0,SCT,1200.0,,,,,,
KRDR,12-23-2021,10:26,SPECI,Calm,,0.0,,,9999.0,,-11.0,-12.0,29.60,1004.6,,,,,,,,,,,,,,,,1100.0,1200.0,OVC,1200.0,,,,,,
KRDR,12-23-2021,09:56,METAR,Normal,360,3.0,,,9999.0,Mist,-12.1,-13.7,29.63,1005.6,10,,,,,,,,,,,,,,,1200.0,1200.0,BKN,1200.0,,,,,,
KRDR,12-23-2021,09:12,SPECI,Normal,10,5.0,,,8000.0,Mist,-11.0,-13.0,29.64,1005.9,10,,,,,,,,,,,,,,,,1100.0,FEW,1100.0,,,,,,
KRDR,12-23-2021,08:56,METAR,Calm,,0.0,,,9999.0,,-10.7,-12.2,29.65,1006.2,,,,,,,,,,,,TRACE,,,,9000.0,7500.0,FEW,7500.0,BKN,9100.0,,,,
KRDR,12-23-2021,07:56,METAR,Normal,40,3.0,,,9999.0,,-9.0,-10.2,29.66,1006.5,,,,,,,,,,,,,,,,,7500.0,SCT,7500.0,,,,,,
KRDR,12-23-2021,06:56,METAR,Normal,100,3.0,,,8000.0,,-8.1,-9.5,29.69,1007.5,,,,,,,,,,,,,,,,5500.0,5500.0,OVC,5500.0,,,,,,
KRDR,12-23-2021,05:57,SPECI,Normal,110,4.0,,,9999.0,,-9.0,-10.0,29.71,1008.3,,,,,,,,,,,,,,,,6000.0,2800.0,FEW,2800.0,SCT,4200.0,OVC,6000.0,,
KRDR,12-23-2021,05:56,METAR,Normal,110,5.0,,,9999.0,Light Snow,-8.6,-10.1,29.71,1008.3,71,,,,,,,,,,TRACE,,TRACE,,,6000.0,2800.0,FEW,2800.0,SCT,4200.0,OVC,6000.0,,
KRDR,12-23-2021,05:36,SPECI,Normal,80,4.0,,,9999.0,,-9.0,-10.0,29.71,1008.3,,,,,,,,,,,,,,,,3600.0,2800.0,SCT,2800.0,BKN,3600.0,OVC,4800.0,,
KRDR,12-23-2021,05:12,SPECI,Normal,90,5.0,,,9999.0,Light Snow,-9.0,-10.0,29.73,1009.0,71,,,,,,,,,,TRACE,,,,,3100.0,3100.0,OVC,3100.0,,,,,,
KRDR,12-23-2021,03:56,METAR,Normal,20,4.0,,,8000.0,Light Snow/Mist,-8.7,-10.5,29.77,1010.4,71,10,,,,,,,,,TRACE,,,,,3500.0,1200.0,SCT,1200.0,BKN,3500.0,,,,
KRDR,12-23-2021,03:37,SPECI,Normal,20,4.0,,,8000.0,Light Snow/Mist,-9.0,-11.0,29.77,1010.4,71,10,,,,,,,,,,,,,,3500.0,500.0,FEW,500.0,SCT,1300.0,OVC,3500.0,,
KRDR,12-23-2021,02:56,METAR,Normal,30,3.0,,,9999.0,Light Snow,-8.8,-11.0,29.77,1010.5,71,,,,,,,,,,TRACE,TRACE,,,,4900.0,3900.0,SCT,3900.0,BKN,4900.0,OVC,7000.0,,
KRDR,12-23-2021,02:21,SPECI,Calm,,0.0,,,9999.0,Light Snow,-9.0,-11.0,29.78,1010.8,71,,,,,,,,,,,,,,,4000.0,4000.0,BKN,4000.0,OVC,4800.0,,,,
KRDR,12-23-2021,01:56,METAR,Calm,,0.0,,,9999.0,,-9.2,-11.3,29.79,1011.2,,,,,,,,,,,,,,,,5000.0,5000.0,BKN,5000.0,OVC,6500.0,,,,
KRDR,12-23-2021,00:53,METAR,Normal,70,4.0,,,9999.0,,-9.4,-11.9,29.79,1011.2,,,,,,,,,,,,,,,,9000.0,9000.0,OVC,9100.0,,,,,,
KRDR,12-22-2021,23:56,METAR,Normal,50,5.0,,,9999.0,,-9.9,-12.4,29.81,1012.0,,,,,,,,,,,,,,,,18000.0,10000.0,SCT,10000.0,BKN,18000.0,,,,
KRDR,12-22-2021,22:56,METAR,Normal,40,5.0,,,9999.0,,-9.5,-12.8,29.80,1011.8,,,,,,,,,,,,,,,,12000.0,12000.0,BKN,12000.0,BKN,22000.0,,,,
KRDR,12-22-2021,21:56,METAR,Normal,60,3.0,,,9999.0,,-6.9,-11.5,29.77,1010.8,,,,,,,,,,,,,,,,10000.0,10000.0,BKN,10000.0,BKN,24000.0,,,,
KRDR,12-22-2021,20:56,METAR,Calm,,0.0,,,9999.0,,-6.1,-10.9,29.78,1011.0,,,,,,,,,,,,,,,,12000.0,12000.0,BKN,12000.0,,,,,,
KRDR,12-22-2021,19:56,METAR,Normal,230,3.0,,,9999.0,,-5.2,-11.0,29.80,1011.8,,,,,,,,,,,,,,,,7000.0,7000.0,BKN,7000.0,,,,,,
KRDR,12-22-2021,18:56,METAR,Normal,210,5.0,,,9999.0,,-6.2,-10.4,29.81,1012.0,,,,,,,,,,,,,,,,7000.0,7000.0,BKN,7000.0,,,,,,
KRDR,12-22-2021,17:56,METAR,Normal,190,5.0,,,9999.0,,-6.8,-10.8,29.81,1012.1,,,,,,,,,,,,,TRACE,,,7000.0,6000.0,SCT,6000.0,OVC,7000.0,,,,
KRDR,12-22-2021,16:56,METAR,Normal,220,6.0,,,9999.0,,-8.0,-11.8,29.82,1012.4,,,,,,,,,,,,,,,,5500.0,5500.0,OVC,5500.0,,,,,,
KRDR,12-22-2021,15:56,METAR,Normal,200,7.0,,,9999.0,,-9.2,-13.0,29.82,1012.4,,,,,,,,,,,,,,,,6000.0,6000.0,OVC,6000.0,,,,,,
KRDR,12-22-2021,14:56,METAR,Normal,200,6.0,,,9999.0,,-9.9,-13.5,29.81,1012.2,,,,,,,,,,,TRACE,,,,,6000.0,6000.0,OVC,6000.0,,,,,,
KRDR,12-22-2021,14:37,SPECI,Normal,200,5.0,,,9999.0,,-11.0,-14.0,29.81,1012.2,,,,,,,,,,,,,,,,6500.0,6500.0,OVC,6500.0,,,,,,
KRDR,12-22-2021,13:56,METAR,Normal,200,8.0,,,9999.0,,-11.2,-14.9,29.80,1011.8,,,,,,,,,,,,,,,,6500.0,6500.0,OVC,6500.0,,,,,,
KRDR,12-22-2021,12:56,METAR,Normal,180,10.0,,,9999.0,,-12.3,-15.7,29.80,1011.8,,,,,,,,,,,,,,,,7000.0,7000.0,OVC,7000.0,,,,,,
KRDR,12-22-2021,11:56,METAR,Normal,210,8.0,,,9999.0,,-13.6,-16.6,29.79,1011.6,,,,,,,,,,,,,,,,11000.0,9000.0,SCT,9100.0,OVC,11000.0,,,,
KRDR,12-22-2021,10:56,METAR,Normal,210,7.0,,,9999.0,,-17.1,-19.5,29.81,1012.5,,,,,,,,,,,,,,,,,5500.0,SCT,5500.0,,,,,,
KRDR,12-22-2021,09:56,METAR,Normal,180,4.0,,,9999.0,,-20.4,-22.9,29.84,1013.5,,,,,,,,,,,,,,,,,5500.0,FEW,5500.0,,,,,,
KRDR,12-22-2021,08:56,METAR,Normal,200,6.0,,,9999.0,,-18.6,-20.6,29.84,1013.4,,,,,,,,,,,,,,,,,6000.0,FEW,6000.0,,,,,,
KRDR,12-22-2021,07:56,METAR,Normal,170,4.0,,,9999.0,,-21.1,-23.6,29.85,1013.8,,,,,,,,,,,,,,,,6000.0,6000.0,BKN,6000.0,,,,,,
KRDR,12-22-2021,06:56,METAR,Normal,120,3.0,,,9999.0,,-18.6,-20.8,29.84,1013.4,,,,,,,,,,,,,,,,,13000.0,FEW,13000.0,SCT,19000.0,,,,
KRDR,12-22-2021,05:58,METAR,Normal,180,5.0,,,9999.0,,-18.4,-20.8,29.83,1013.1,,,,,,,,,,,,,,,,15000.0,15000.0,BKN,15000.0,OVC,18000.0,,,,
KRDR,12-22-2021,04:58,METAR,Normal,210,5.0,,,9999.0,,-16.2,-18.9,29.84,1013.3,,,,,,,,,,,,,,,,18000.0,15000.0,SCT,15000.0,BKN,18000.0,,,,
KRDR,12-22-2021,03:59,METAR,Normal,190,5.0,,,9999.0,,-18.1,-20.6,29.85,1013.8,,,,,,,,,,,,,,,,,20000.0,FEW,20000.0,,,,,,
KRDR,12-22-2021,02:56,METAR,Normal,210,5.0,,,9999.0,,-17.4,-19.9,29.85,1013.8,,,,,,,,,,,,,,,Clear,72000.0,,,,,,,,,
KRDR,12-22-2021,01:56,METAR,Normal,210,6.0,,,9999.0,,-16.1,-19.1,29.86,1014.0,,,,,,,,,,,,,,,,,3900.0,SCT,3900.0,,,,,,
KRDR,12-22-2021,01:38,SPECI,Normal,220,7.0,,,9999.0,,-16.0,-18.0,29.86,1014.0,,,,,,,,,,,,,,,,3900.0,3900.0,BKN,3900.0,,,,,,
KRDR,12-22-2021,01:34,SPECI,Normal,210,8.0,,,9999.0,Light Snow,-16.0,-19.0,29.86,1014.0,71,,,,,,,,,,,,,,,4000.0,4000.0,OVC,4000.0,,,,,,
KRDR,12-22-2021,00:56,METAR,Normal,210,6.0,,,9999.0,,-14.6,-17.6,29.87,1014.2,,,,,,,,,,,TRACE,,,,,4600.0,4600.0,OVC,4600.0,,,,,,
KRDR,12-21-2021,23:56,METAR,Normal,210,5.0,,,9999.0,,-15.5,-18.4,29.88,1014.6,,,,,,,,,,,,,,,,5000.0,5000.0,OVC,5000.0,,,,,,
KRDR,12-21-2021,22:56,METAR,Normal,230,6.0,,,9999.0,,-18.3,-20.8,29.90,1015.4,,,,,,,,,,,,,,,Clear,72000.0,,,,,,,,,
KRDR,12-21-2021,21:56,METAR,Normal,260,4.0,,,9999.0,,-14.3,-18.1,29.88,1014.5,,,,,,,,,,,,,,,Clear,72000.0,,,,,,,,,
KRDR,12-21-2021,20:56,METAR,Normal,280,8.0,,,9999.0,,-13.3,-17.6,29.88,1014.5,,,,,,,,,,,,,,,Clear,72000.0,,,,,,,,,
KRDR,12-21-2021,19:56,METAR,Normal,290,8.0,,,9999.0,,-13.3,-18.0,29.86,1013.8,,,,,,,,,,,,,,,Clear,72000.0,,,,,,,,,
KRDR,12-21-2021,18:56,METAR,Normal,290,9.0,,,9999.0,,-13.6,-18.1,29.87,1014.2,,,,,,,,,,,,,,,,,25000.0,FEW,25000.0,,,,,,
KRDR,12-21-2021,17:56,METAR,Normal,300,10.0,,,9999.0,,-14.0,-18.2,29.88,1014.6,,,,,,,,,,,,,TRACE,,,,25000.0,FEW,25000.0,,,,,,
KRDR,12-21-2021,16:56,METAR,Normal,310,8.0,,,9999.0,,-13.9,-17.6,29.88,1014.6,,,,,,,,,,,,,,,,,25000.0,FEW,25000.0,,,,,,
KRDR,12-21-2021,15:56,METAR,Normal,290,7.0,,,9999.0,,-15.0,-18.0,29.87,1014.3,,,,,,,,,,,,,,,,,10000.0,FEW,10000.0,,,,,,
KRDR,12-21-2021,15:41,SPECI,Normal,310,6.0,,,9999.0,,-15.0,-17.0,29.85,1013.6,,,,,,,,,,,,,,,,,2600.0,FEW,2600.0,FEW,10000.0,,,,
KRDR,12-21-2021,14:56,METAR,Normal,320,6.0,,,9999.0,,-16.1,-17.9,29.84,1013.4,,,,,,,,,,,TRACE,TRACE,,,,800.0,800.0,OVC,800.0,,,,,,
KRDR,12-21-2021,14:38,SPECI,Normal,330,6.0,,,6400.0,Light Snow,-15.0,-17.0,29.83,1013.0,71,,,,,,,,,,,,,,,800.0,800.0,OVC,800.0,,,,,,
KRDR,12-21-2021,13:58,METAR,Normal,340,6.0,,,4800.0,Light Snow/Mist,-13.6,-15.6,29.82,1012.6,71,10,,,,,,,,,TRACE,,,,,800.0,800.0,OVC,800.0,,,,,,
KRDR,12-21-2021,13:37,SPECI,Normal,340,5.0,,,4000.0,Light Snow/Mist,-13.0,-15.0,29.82,1012.6,71,10,,,,,,,,,,,,,,800.0,800.0,OVC,800.0,,,,,,
KRDR,12-21-2021,13:15,SPECI,Normal,350,5.0,,,3200.0,Light Snow/Mist,-13.0,-15.0,29.82,1012.6,71,10,,,,,,,,,,,,,,800.0,800.0,OVC,800.0,,,,,,
KRDR,12-21-2021,12:56,METAR,Normal,360,5.0,,,2400.0,Light Snow/Mist,-13.1,-15.1,29.82,1012.6,71,10,,,,,,,,,TRACE,,,,,800.0,800.0,OVC,800.0,,,,,,
KRDR,12-21-2021,11:56,METAR,Normal,40,7.0,,,2800.0,Light Snow/Mist,-13.0,-14.9,29.81,1012.3,71,10,,,,,,,,,.01 IN,,.06 IN,.06 IN,,800.0,800.0,BKN,800.0,OVC,2000.0,,,,
KRDR,12-21-2021,11:22,SPECI,Normal,30,6.0,,,2000.0,Light Snow/Mist,-13.0,-15.0,29.82,1012.6,71,10,,,,,,,,,,,,,,800.0,800.0,OVC,800.0,,,,,,
KRDR,12-21-2021,10:58,METAR,Normal,40,5.0,,,3200.0,Light Snow/Mist,-12.8,-14.7,29.82,1012.6,71,10,,,,,,,,,.01 IN,,,,,100.0,800.0,OVC,800.0,,,,,,
KRDR,12-21-2021,10:56,METAR,Normal,290,6.0,,,9999.0,,-15.4,-18.3,29.86,1014.0,,,,,,,,,,,,,,,,,10000.0,FEW,10000.0,,,,,,
KRDR,12-21-2021,09:56,METAR,Normal,110,3.0,,,3200.0,Light Snow/Mist,-12.8,-14.8,29.84,1013.2,71,10,,,,,,,,,.01 IN,,,,,2800.0,2800.0,OVC,2800.0,,,,,,
KRDR,12-21-2021,09:38,SPECI,Normal,130,4.0,,,3200.0,Light Snow/Mist,-13.0,-15.0,29.84,1013.2,71,10,,,,,,,,,,,,,,200.0,200.0,OVC,200.0,,,,,,
KRDR,12-21-2021,09:17,SPECI,Normal,150,4.0,,,1600.0,Light Snow/Mist,-13.0,-15.0,29.86,1013.9,71,10,,,,,,,,,,,,,,200.0,200.0,OVC,200.0,,,,,,
KRDR,12-21-2021,08:56,METAR,Normal,150,6.0,,,1200.0,Light Snow/Mist,-13.1,-15.1,29.86,1013.9,71,10,,,,,,,,,.02 IN,.03 IN,,,,200.0,200.0,OVC,200.0,,,,,,
KRDR,12-21-2021,07:56,METAR,Normal,140,7.0,,,1200.0,Light Snow/Mist,-13.2,-15.2,29.90,1015.2,,,,71,10,,,,,,.01 IN,,,,,200.0,200.0,BKN,200.0,OVC,1500.0,,,,
KRDR,12-21-2021,07:03,SPECI,Normal,130,5.0,,,1600.0,Light Snow/Mist,-13.0,-16.0,29.94,1016.5,71,10,,,,,,,,,,,,,,200.0,200.0,BKN,200.0,,,,,,
KRDR,12-21-2021,06:56,METAR,Normal,140,5.0,,,6400.0,Light Snow/Mist,-13.4,-15.6,29.96,1017.3,71,10,,,,,,,,,TRACE,,,,,,200.0,FEW,200.0,,,,,,
KRDR,12-21-2021,06:37,SPECI,Normal,170,7.0,,,4000.0,Light Snow,-13.0,-16.0,29.97,1017.6,71,,,,,,,,,,,,,,,1900.0,2600.0,OVC,2600.0,,,,,,
KRDR,12-21-2021,06:16,SPECI,Normal,170,7.0,,,4400.0,Light Snow,-13.0,-16.0,29.99,1018.3,71,,,,,,,,,,,,,,,3700.0,3100.0,FEW,3100.0,OVC,3700.0,,,,
KRDR,12-21-2021,06:07,SPECI,Normal,180,7.0,,,9999.0,Light Snow,-13.0,-17.0,30.01,1019.0,71,,,,,,,,,,,,,,,4100.0,3200.0,SCT,3200.0,OVC,4100.0,,,,
KRDR,12-21-2021,05:56,METAR,Normal,180,6.0,,,9999.0,,-13.5,-16.9,30.02,1019.4,,,,,,,,,,,,,TRACE,,,3400.0,3400.0,BKN,3400.0,OVC,4400.0,,,,
KRDR,12-21-2021,04:56,METAR,Normal,160,7.0,,,9999.0,,-14.0,-17.7,30.05,1020.4,,,,,,,,,,,,,,,,7500.0,7500.0,OVC,7500.0,,,,,,
KRDR,12-21-2021,03:56,METAR,Normal,160,6.0,,,9999.0,,-14.8,-18.8,30.10,1022.2,,,,,,,,,,,TRACE,,,,,9000.0,9000.0,OVC,9100.0,,,,,,
KRDR,12-21-2021,03:06,SPECI,Normal,190,5.0,,,9999.0,,-15.0,-19.0,30.14,1023.6,,,,,,,,,,,,,,,,12000.0,12000.0,OVC,12000.0,,,,,,
KRDR,12-21-2021,02:56,METAR,Normal,190,4.0,,,9999.0,Light Snow,-15.5,-19.6,30.13,1023.2,71,,,,,,,,,,TRACE,TRACE,,,,13000.0,13000.0,BKN,13000.0,OVC,15000.0,,,,
KRDR,12-21-2021,01:56,METAR,Normal,210,6.0,,,9999.0,,-16.1,-20.4,30.15,1024.0,,,,,,,,,,,,,,,,16000.0,16000.0,BKN,16000.0,,,,,,
KRDR,12-21-2021,00:56,METAR,Normal,170,4.0,,,9999.0,,-17.8,-21.7,30.17,1024.8,,,,,,,,,,,,,,,Clear,72000.0,,,,,,,,,
KRDR,12-20-2021,23:56,METAR,Normal,210,4.0,,,9999.0,,-17.6,-21.6,30.22,1026.5,,,,,,,,,,,,,,,Clear,72000.0,,,,,,,,,
KRDR,12-20-2021,22:56,METAR,Normal,310,5.0,,,9999.0,,-16.4,-21.3,30.23,1026.6,,,,,,,,,,,,,,,Clear,72000.0,,,,,,,,,
KRDR,12-20-2021,21:56,METAR,Normal,290,10.0,,,9999.0,,-14.9,-20.8,30.24,1027.0,,,,,,,,,,,,,,,Clear,72000.0,,,,,,,,,
KRDR,12-20-2021,20:56,METAR,Normal,310,11.0,,,9999.0,,-14.2,-20.3,30.24,1026.9,,,,,,,,,,,,,,,Clear,72000.0,,,,,,,,,
KRDR,12-20-2021,19:56,METAR,Normal,300,12.0,,,9999.0,,-13.9,-20.0,30.25,1027.1,,,,,,,,,,,,,,,Clear,72000.0,,,,,,,,,
KRDR,12-20-2021,18:56,METAR,Normal,310,13.0,,,9999.0,,-14.1,-20.6,30.26,1027.5,,,,,,,,,,,,,,,Clear,72000.0,,,,,,,,,
KRDR,12-20-2021,17:56,METAR,Normal,300,16.0,19.0,,9999.0,,-14.2,-20.5,30.26,1027.4,,,,,,,,,,,,,,,Clear,72000.0,,,,,,,,,
KRDR,12-20-2021,16:56,METAR,Normal,310,16.0,22.0,,9999.0,,-14.6,-20.3,30.26,1027.4,,,,,,,,,,,,,,,Clear,72000.0,,,,,,,,,
KRDR,12-20-2021,15:56,METAR,Normal,300,15.0,,,9999.0,,-15.2,-20.3,30.23,1026.3,,,,,,,,,,,,,,,Clear,72000.0,,,,,,,,,
KRDR,12-20-2021,14:56,METAR,Normal,290,15.0,21.0,,9999.0,,-15.9,-20.3,30.20,1025.2,,,,,,,,,,,,,,,,,25000.0,FEW,25000.0,,,,,,
KRDR,12-20-2021,13:56,METAR,Normal,310,13.0,,,9999.0,,-16.1,-20.9,30.19,1024.9,,,,,,,,,,,,,,,Clear,72000.0,,,,,,,,,
KRDR,12-20-2021,12:56,METAR,Normal,300,12.0,,,9999.0,,-15.8,-20.2,30.17,1024.1,,,,,,,,,,,,,,,Clear,72000.0,,,,,,,,,
KRDR,12-20-2021,11:56,METAR,Normal,300,11.0,18.0,,9999.0,,-15.1,-19.9,30.15,1023.2,,,,,,,,,,,,,,,Clear,72000.0,,,,,,,,,
KRDR,12-20-2021,10:56,METAR,Normal,290,12.0,,,9999.0,,-14.8,-19.4,30.12,1022.3,,,,,,,,,,,,,,,Clear,72000.0,,,,,,,,,
KRDR,12-20-2021,09:56,METAR,Normal,310,16.0,21.0,290/28KTS,9999.0,,-14.1,-19.7,30.11,1021.9,,,,,,,,,,,,,,,,14000.0,14000.0,BKN,14000.0,OVC,20000.0,,,,
KRDR,12-20-2021,09:06,SPECI,Normal,320,13.0,22.0,,9999.0,,-14.0,-19.0,30.10,1021.7,,,,,,,,,,,,,,,,14000.0,1300.0,SCT,1300.0,OVC,14000.0,,,,
KRDR,12-20-2021,08:56,METAR,Normal,310,19.0,27.0,320/27KTS,9999.0,,-13.4,-18.4,30.09,,,,,,,,,,,,,,,,,1400.0,1400.0,BKN,1400.0,OVC,14000.0,,,,
KRDR,12-20-2021,08:54,SPECI,Normal,310,22.0,27.0,,9999.0,,-13.0,-18.0,30.09,,,,,,,,,,,,,,,,,1200.0,1400.0,BKN,1400.0,OVC,14000.0,,,,
KRDR,12-20-2021,08:44,SPECI,Normal,320,15.0,22.0,,9999.0,,-13.0,-18.0,30.09,,,,,,,,,,,,,,,,,1300.0,1000.0,SCT,1000.0,BKN,1600.0,OVC,14000.0,,
KRDR,12-20-2021,08:43,SPECI,Normal,320,15.0,22.0,,9999.0,,-13.0,-18.0,30.09,,,,,,,,,,,,,,,,,1300.0,1300.0,BKN,1300.0,BKN,1800.0,OVC,14000.0,,
KRDR,12-20-2021,08:33,SPECI,Normal,320,12.0,18.0,,9999.0,,-13.0,-17.0,30.08,,,,,,,,,,,,,,,,,14000.0,1100.0,FEW,1100.0,SCT,1600.0,OVC,14000.0,,
KRDR,12-20-2021,08:06,SPECI,Normal,310,15.0,,,9999.0,,-13.0,-17.0,30.07,1020.6,,,,,,,,,,,,,,,,14000.0,1300.0,SCT,1300.0,OVC,14000.0,,,,
KRDR,12-20-2021,07:56,METAR,Normal,310,12.0,18.0,,9999.0,,-12.4,-16.9,30.06,1020.2,,,,,,,,,,,,,,,,1200.0,1200.0,BKN,1200.0,OVC,13000.0,,,,
KRDR,12-20-2021,07:46,SPECI,Normal,310,11.0,17.0,,9999.0,,-12.0,-17.0,30.06,1020.2,,,,,,,,,,,,,,,,1200.0,1200.0,BKN,1200.0,OVC,13000.0,,,,
KRDR,12-20-2021,06:56,METAR,Normal,300,13.0,,,9999.0,,-12.0,-16.2,30.03,1019.3,,,,,,,,,,,,,,,,13000.0,13000.0,BKN,13000.0,,,,,,
KRDR,12-20-2021,05:56,METAR,Normal,300,18.0,22.0,,9999.0,,-10.3,-14.7,29.99,1017.8,,,,,,,,,,,,,,,,12000.0,12000.0,OVC,12000.0,,,,,,
KRDR,12-20-2021,04:56,METAR,Normal,290,18.0,24.0,,9999.0,,-9.0,-13.1,29.97,1017.1,,,,,,,,,,,,,,,,10000.0,10000.0,OVC,10000.0,,,,,,
KRDR,12-20-2021,03:56,METAR,Normal,330,14.0,,,9999.0,,-7.9,-13.0,29.94,1016.1,,,,,,,,,,,,,,,,11000.0,11000.0,OVC,11000.0,,,,,,
KRDR,12-20-2021,02:56,METAR,Normal,300,17.0,,310/26KTS,9999.0,,-6.2,-11.2,29.90,1014.8,,,,,,,,,,,,,,,,10000.0,10000.0,OVC,10000.0,,,,,,
KRDR,12-20-2021,01:56,METAR,Normal,310,19.0,27.0,,9999.0,,-5.1,-9.9,29.86,1013.4,,,,,,,,,,,,,,,,9000.0,9000.0,OVC,9100.0,,,,,,
KRDR,12-20-2021,00:56,METAR,Normal,310,16.0,24.0,,9999.0,,-1.9,-7.2,29.83,1012.3,,,,,,,,,,,,,,,,8000.0,2000.0,FEW,2000.0,OVC,8000.0,,,,
KRDR,12-19-2021,23:56,METAR,Normal,300,11.0,,,9999.0,,0.1,-3.5,29.78,1010.5,,,,,,,,,,,,,,,,9000.0,9000.0,OVC,9100.0,,,,,,
KRDR,12-19-2021,22:56,METAR,Normal,230,5.0,,,9999.0,,-2.5,-5.5,29.75,1009.6,,,,,,,,,,,,,,,,7500.0,7500.0,BKN,7500.0,OVC,11000.0,,,,
KRDR,12-19-2021,21:56,METAR,Normal,210,8.0,,,9999.0,,-2.8,-6.3,29.70,1007.9,,,,,,,,,,,,,,,,10000.0,10000.0,OVC,10000.0,,,,,,
KRDR,12-19-2021,20:56,METAR,Normal,200,13.0,,,9999.0,,-3.5,-7.3,29.69,1007.6,,,,,,,,,,,,,,,,7500.0,7500.0,BKN,7500.0,OVC,10000.0,,,,
KRDR,12-19-2021,19:56,METAR,Normal,200,17.0,,,9999.0,,-4.6,-8.2,29.67,1007.1,,,,,,,,,,,,,,,,16000.0,10000.0,FEW,10000.0,SCT,12000.0,BKN,16000.0,,
KRDR,12-19-2021,18:56,METAR,Normal,200,17.0,22.0,170/27KTS,9999.0,,-5.2,-8.8,29.69,1007.7,,,,,,,,,,,,,,,,10000.0,8000.0,SCT,8000.0,OVC,10000.0,,,,
KRDR,12-19-2021,17:57,METAR,Normal,200,17.0,22.0,170/27KTS,9999.0,,-6.0,-9.1,29.72,1008.9,,,,,,,,,,,TRACE,,TRACE,,,6000.0,6000.0,OVC,6000.0,,,,,,
KRDR,12-19-2021,17:07,SPECI,Normal,190,20.0,26.0,,9999.0,,-7.0,-10.0,29.73,1009.3,,,,,,,,,,,,,,,,7500.0,7500.0,OVC,7500.0,,,,,,
KRDR,12-19-2021,16:56,METAR,Normal,190,18.0,23.0,160/28KTS,9999.0,Light Snow,-7.1,-10.3,29.73,1009.3,71,,,,,,,,,,TRACE,,,,,7500.0,7500.0,OVC,7500.0,,,,,,
KRDR,12-19-2021,16:49,SPECI,Normal,190,17.0,24.0,,9999.0,Light Snow,-7.0,-10.0,29.73,1009.3,71,,,,,,,,,,,,,,,7000.0,7000.0,OVC,7000.0,,,,,,
KRDR,12-19-2021,16:38,SPECI,Normal,180,17.0,22.0,,9999.0,,-8.0,-11.0,29.73,1009.3,,,,,,,,,,,,,,,,6500.0,5000.0,FEW,5000.0,OVC,6500.0,,,,
KRDR,12-19-2021,16:23,SPECI,Normal,180,17.0,25.0,,9999.0,,-8.0,-11.0,29.72,1008.9,,,,,,,,,,,,,,,,6000.0,6000.0,OVC,6000.0,,,,,,
KRDR,12-19-2021,15:56,METAR,Normal,180,19.0,,150/28KTS,9999.0,,-8.8,-11.6,29.74,1009.7,,,,,,,,,,,,,,,,6500.0,6500.0,OVC,6500.0,,,,,,
KRDR,12-19-2021,14:56,METAR,Normal,180,20.0,,150/28KTS,9999.0,,-10.1,-12.8,29.77,1010.8,,,,,,,,,,,,,,,,4300.0,4300.0,OVC,4300.0,,,,,,
KRDR,12-19-2021,14:46,SPECI,Normal,180,20.0,,,9999.0,,-10.0,-13.0,29.78,1011.2,,,,,,,,,,,,,,,,4300.0,700.0,FEW,700.0,OVC,4300.0,,,,
KRDR,12-19-2021,14:26,SPECI,Normal,180,19.0,,,9999.0,,-11.0,-13.0,29.79,1011.6,,,,,,,,,,,,,,,,700.0,700.0,OVC,700.0,,,,,,
KRDR,12-19-2021,13:56,METAR,Normal,180,17.0,,,9999.0,,-11.2,-13.7,29.82,1012.6,,,,,,,,,,,,,,,,600.0,600.0,OVC,600.0,,,,,,
KRDR,12-19-2021,13:46,SPECI,Normal,170,18.0,,,9999.0,,-11.0,-14.0,29.82,1012.6,,,,,,,,,,,,,,,,600.0,600.0,OVC,600.0,,,,,,
KRDR,12-19-2021,13:16,SPECI,Normal,180,15.0,,,9999.0,,-12.0,-14.0,29.84,1013.3,,,,,,,,,,,,,,,,700.0,700.0,OVC,700.0,,,,,,
KRDR,12-19-2021,12:56,METAR,Normal,170,17.0,,140/27KTS,9999.0,,-11.7,-14.3,29.86,1014.0,,,,,,,,,,,,,,,,600.0,600.0,OVC,600.0,,,,,,
KRDR,12-19-2021,11:56,METAR,Normal,170,17.0,23.0,140/26KTS,9999.0,,-12.2,-14.8,29.88,1014.7,,,,,,,,,,,,,,,,600.0,600.0,OVC,600.0,,,,,,
KRDR,12-19-2021,11:46,SPECI,Normal,170,18.0,,,9999.0,,-12.0,-15.0,29.88,1014.6,,,,,,,,,,,,,,,,500.0,500.0,OVC,500.0,,,,,,
KRDR,12-19-2021,11:34,SPECI,Normal,170,17.0,23.0,,9999.0,,-12.0,-14.0,29.89,1014.9,,,,,,,,,,,,,,,,400.0,400.0,OVC,400.0,,,,,,
KRDR,12-19-2021,10:56,METAR,Normal,170,16.0,,,9999.0,,-12.7,-15.2,29.91,1015.7,,,,,,,,,,,,,,,,300.0,300.0,OVC,300.0,,,,,,
KRDR,12-19-2021,09:56,METAR,Normal,170,14.0,,,9999.0,,-13.3,-15.9,29.99,1018.3,,,,,,,,,,,,,,,,300.0,300.0,OVC,300.0,,,,,,
KRDR,12-19-2021,09:36,SPECI,Normal,170,14.0,,,9999.0,,-13.0,-16.0,30.00,1018.6,,,,,,,,,,,,,,,,300.0,300.0,OVC,300.0,,,,,,
KRDR,12-19-2021,08:56,METAR,Normal,170,15.0,,,9999.0,,-13.9,-16.3,30.02,1019.3,,,,,,,,,,,,,,,,200.0,200.0,OVC,200.0,,,,,,
KRDR,12-19-2021,08:38,SPECI,Normal,170,13.0,,,9999.0,,-14.0,-17.0,30.03,1019.6,,,,,,,,,,,,,,,,200.0,200.0,OVC,200.0,,,,,,
KRDR,12-19-2021,07:56,METAR,Normal,160,13.0,,,9999.0,,-14.4,-17.1,30.05,1020.3,,,,,,,,,,,,,,,,12000.0,700.0,FEW,700.0,OVC,12000.0,,,,
KRDR,12-19-2021,07:53,SPECI,Normal,160,13.0,,,9999.0,,-14.0,-17.0,30.06,1020.6,,,,,,,,,,,,,,,,12000.0,700.0,FEW,700.0,OVC,12000.0,,,,
KRDR,12-19-2021,06:56,METAR,Normal,180,12.0,,,9999.0,,-15.1,-18.3,30.10,1022.1,,,,,,,,,,,,,,,,14000.0,14000.0,OVC,14000.0,,,,,,
KRDR,12-19-2021,05:56,METAR,Normal,180,13.0,,,9999.0,,-15.5,-19.0,30.14,1023.5,,,,,,,,,,,,,,,,14000.0,14000.0,OVC,14000.0,,,,,,
KRDR,12-19-2021,04:56,METAR,Normal,180,11.0,,,9999.0,,-16.3,-19.7,30.17,1024.6,,,,,,,,,,,,,,,,14000.0,14000.0,OVC,14000.0,,,,,,
KRDR,12-19-2021,03:56,METAR,Normal,180,7.0,,,9999.0,,-17.0,-20.1,30.21,1025.9,,,,,,,,,,,,,,,,14000.0,14000.0,OVC,14000.0,,,,,,
KRDR,12-19-2021,02:56,METAR,Normal,170,5.0,,,9999.0,,-18.9,-21.8,30.22,1026.5,,,,,,,,,,,,,,,Clear,72000.0,,,,,,,,,
KRDR,12-19-2021,01:56,METAR,Normal,190,6.0,,,9999.0,,-18.6,-21.7,30.25,1027.5,,,,,,,,,,,,,,,Clear,72000.0,,,,,,,,,
KRDR,12-19-2021,00:56,METAR,Normal,190,6.0,,,9999.0,,-18.2,-21.1,30.27,1028.1,,,,,,,,,,,,,,,Clear,72000.0,,,,,,,,,
KRDR,12-18-2021,23:56,METAR,Normal,180,5.0,,,9999.0,,-17.8,-20.9,30.29,1028.8,,,,,,,,,,,,,TRACE,,Clear,72000.0,,,,,,,,,
KRDR,12-18-2021,22:58,METAR,Normal,240,3.0,,,9999.0,,-16.3,-19.4,30.32,1029.8,,,,,,,,,,,,,,,Clear,72000.0,,,,,,,,,
KRDR,12-18-2021,21:57,METAR,Normal,230,4.0,,,9999.0,,-14.1,-18.3,30.30,1029.0,,,,,,,,,,,,,,,Clear,72000.0,,,,,,,,,
KRDR,12-18-2021,20:55,METAR,Normal,250,6.0,,,9999.0,,-12.9,-17.6,30.31,1029.3,,,,,,,,,,,,TRACE,,,Clear,72000.0,,,,,,,,,
KRDR,12-18-2021,19:57,METAR,Normal,220,4.0,,,9999.0,,-11.9,-16.8,30.32,1029.5,,,,,,,,,,,TRACE,,,,,,1000.0,FEW,1000.0,,,,,,
KRDR,12-18-2021,19:45,SPECI,Normal,200,4.0,,,9999.0,,-12.0,-17.0,30.33,1029.9,,,,,,,,,,,,,,,,,1000.0,SCT,1000.0,,,,,,
KRDR,12-18-2021,19:21,SPECI,Calm,,0.0,,,9999.0,Light Snow,-13.0,-17.0,30.34,1030.3,71,,,,,,,,,,,,,,,1700.0,900.0,SCT,900.0,BKN,1700.0,,,,
KRDR,12-18-2021,19:05,SPECI,Normal,220,3.0,,,9999.0,,-12.0,-17.0,30.34,1030.2,,,,,,,,,,,,,,,,1700.0,800.0,FEW,800.0,BKN,1700.0,,,,
KRDR,12-18-2021,18:56,METAR,Normal,220,3.0,,,9999.0,,-13.1,-17.3,30.35,1030.6,,,,,,,,,,,,,,,,,800.0,SCT,800.0,SCT,1400.0,,,,
KRDR,12-18-2021,18:47,SPECI,Calm,,0.0,,,9999.0,,-13.0,-18.0,30.34,1030.3,,,,,,,,,,,,,,,,,900.0,SCT,900.0,SCT,1200.0,,,,
KRDR,12-18-2021,17:57,METAR,Normal,300,3.0,,,9999.0,,-13.6,-17.6,30.37,1031.3,,,,,,,,,,,TRACE,,TRACE,,Clear,72000.0,,,,,,,,,
KRDR,12-18-2021,17:07,SPECI,Normal,310,5.0,,,9999.0,,-14.0,-18.0,30.40,1032.3,,,,,,,,,,,,,,,,,1400.0,SCT,1400.0,,,,,,
KRDR,12-18-2021,17:04,SPECI,Normal,300,4.0,,,9999.0,,-14.0,-18.0,30.40,1032.3,,,,,,,,,,,,,,,,1400.0,1400.0,BKN,1400.0,,,,,,
KRDR,12-18-2021,16:56,METAR,Normal,320,4.0,,,9999.0,,-14.0,-17.3,30.40,1032.3,,,,,,,,,,,,,,,,800.0,700.0,FEW,700.0,BKN,1500.0,,,,
KRDR,12-18-2021,15:56,METAR,Normal,330,4.0,,,9999.0,,-14.0,-17.0,30.39,1031.9,,,,,,,,,,,TRACE,,,,,400.0,300.0,SCT,300.0,BKN,900.0,OVC,6000.0,,
KRDR,12-18-2021,15:19,SPECI,Normal,320,4.0,,,9999.0,Light Snow,-15.0,-17.0,30.39,1031.9,71,,,,,,,,,,,,,,,300.0,300.0,FEW,300.0,SCT,1000.0,SCT,1300.0,BKN,2400.0
KRDR,12-18-2021,15:08,SPECI,Normal,330,4.0,,,9999.0,Light Snow,-14.0,-17.0,30.40,1032.3,71,,,,,,,,,,,,,,,300.0,300.0,BKN,300.0,BKN,2500.0,OVC,5000.0,,
KRDR,12-18-2021,14:56,METAR,Normal,330,5.0,,,9999.0,Light Snow,-14.5,-17.2,30.39,1031.9,71,,,,,,,,,,TRACE,TRACE,,,,300.0,300.0,BKN,300.0,OVC,900.0,,,,
KRDR,12-18-2021,13:56,METAR,Normal,330,6.0,,,9999.0,Light Snow,-14.6,-17.2,30.39,1031.9,71,,,,,,,,,,TRACE,,,,,300.0,300.0,OVC,300.0,,,,,,
KRDR,12-18-2021,13:23,SPECI,Normal,330,6.0,,,9999.0,Light Snow,-15.0,-17.0,30.39,1031.9,71,,,,,,,,,,,,,,,1200.0,400.0,FEW,400.0,OVC,1200.0,,,,
KRDR,12-18-2021,13:05,SPECI,Normal,330,5.0,,,9999.0,,-15.0,-17.0,30.39,1031.9,,,,,,,,,,,,,,,,700.0,800.0,SCT,800.0,OVC,1200.0,,,,
KRDR,12-18-2021,12:56,METAR,Normal,330,5.0,,,9999.0,,-14.6,-16.9,30.39,1031.9,,,,,,,,,,,,,,,,700.0,700.0,BKN,700.0,OVC,1200.0,,,,
KRDR,12-18-2021,11:56,METAR,Normal,340,8.0,,,9999.0,,-14.5,-16.8,30.38,1031.6,,,,,,,,,,,,,TRACE,,,1100.0,600.0,FEW,600.0,BKN,1100.0,BKN,2500.0,OVC,3000.0
KRDR,12-18-2021,11:51,SPECI,Normal,340,7.0,,,9999.0,,-15.0,-17.0,30.38,1031.6,,,,,,,,,,,,,,,,1100.0,600.0,SCT,600.0,BKN,1100.0,OVC,2500.0,,
KRDR,12-18-2021,10:58,SPECI,Normal,330,5.0,,,9999.0,,-15.0,-17.0,30.38,1031.6,,,,,,,,,,,,,,,,4800.0,700.0,FEW,700.0,BKN,4800.0,OVC,6000.0,,
KRDR,12-18-2021,10:56,METAR,Normal,330,6.0,,,9999.0,,-15.2,-17.3,30.38,1031.6,,,,,,,,,,,,,,,,6000.0,5000.0,SCT,5000.0,OVC,6000.0,,,,
KRDR,12-18-2021,10:36,SPECI,Normal,320,5.0,,,9999.0,,-16.0,-18.0,30.37,1031.3,,,,,,,,,,,,,,,,5000.0,500.0,FEW,500.0,SCT,900.0,BKN,5000.0,OVC,6000.0
KRDR,12-18-2021,09:56,METAR,Normal,310,5.0,,,9999.0,,-16.1,-18.2,30.37,1031.3,,,,,,,,,,,,,,,,400.0,400.0,OVC,400.0,,,,,,
KRDR,12-18-2021,08:56,METAR,Normal,320,6.0,,,9999.0,Light Snow,-15.0,-17.1,30.37,1031.2,71,,,,,,,,,,TRACE,TRACE,,,,300.0,300.0,OVC,300.0,,,,,,
KRDR,12-18-2021,08:07,SPECI,Normal,320,6.0,,,8000.0,Light Snow,-14.0,-17.0,30.37,1031.2,71,,,,,,,,,,,,,,,300.0,300.0,OVC,300.0,,,,,,
KRDR,12-18-2021,07:56,METAR,Normal,320,6.0,,,8000.0,Light Snow,-14.6,-16.7,30.37,1031.2,71,,,,,,,,,,TRACE,,,,,200.0,200.0,OVC,200.0,,,,,,
KRDR,12-18-2021,07:17,SPECI,Normal,330,6.0,,,9999.0,Light Snow,-15.0,-17.0,30.37,,71,,,,,,,,,,,,,,,200.0,200.0,OVC,200.0,,,,,,
KRDR,12-18-2021,06:57,SPECI,Normal,330,6.0,,,9999.0,Light Snow,-15.0,-17.0,30.37,,71,,,,,,,,,,,,,,,300.0,300.0,OVC,300.0,,,,,,
KRDR,12-18-2021,06:56,METAR,Normal,330,6.0,,,8000.0,Light Snow,-14.7,-16.7,30.37,,71,,,,,,,,,,TRACE,,,,,200.0,200.0,OVC,200.0,,,,,,
KRDR,12-18-2021,06:36,SPECI,Normal,330,6.0,,,9999.0,Light Snow,-14.0,-17.0,30.37,1031.2,71,,,,,,,,,,,,,,,200.0,200.0,OVC,200.0,,,,,,
KRDR,12-18-2021,06:20,SPECI,Normal,330,6.0,,,8000.0,Light Snow,-14.0,-16.0,30.37,1031.2,71,,,,,,,,,,,,,,,100.0,100.0,OVC,100.0,,,,,,
KRDR,12-18-2021,05:56,METAR,Normal,340,6.0,,,6400.0,Light Snow/Mist,-13.3,-15.5,30.37,1031.2,71,10,,,,,,,,,TRACE,,TRACE,,,200.0,200.0,OVC,200.0,,,,,,
KRDR,12-18-2021,05:21,SPECI,Normal,360,7.0,,,9999.0,Light Snow,-13.0,-15.0,30.37,1031.2,71,,,,,,,,,,,,,,,200.0,200.0,OVC,200.0,,,,,,
KRDR,12-18-2021,05:11,SPECI,Normal,350,7.0,,,9999.0,Light Snow,-13.0,-15.0,30.37,1031.2,71,,,,,,,,,,,,,,,300.0,300.0,BKN,300.0,OVC,700.0,,,,
KRDR,12-18-2021,05:05,SPECI,Normal,360,7.0,,,9999.0,,-13.0,-15.0,30.37,1031.2,,,,,,,,,,,,,,,,300.0,300.0,BKN,300.0,OVC,700.0,,,,
KRDR,12-18-2021,04:57,SPECI,Normal,360,6.0,,,9999.0,Light Snow,-12.0,-15.0,30.36,1030.9,71,,,,,,,,,,,,,,,500.0,500.0,BKN,500.0,BKN,800.0,OVC,1200.0,,
KRDR,12-18-2021,04:56,METAR,Normal,360,6.0,,,9999.0,,-12.4,-15.0,30.36,1030.9,,,,,,,,,,,TRACE,,,,,500.0,500.0,BKN,500.0,OVC,1200.0,,,,
KRDR,12-18-2021,04:38,SPECI,Normal,10,7.0,,,9999.0,,-12.0,-15.0,30.36,1030.9,,,,,,,,,,,,,,,,1200.0,300.0,SCT,300.0,OVC,1200.0,,,,
KRDR,12-18-2021,04:28,SPECI,Normal,360,7.0,,,9999.0,,-12.0,-15.0,30.36,1030.9,,,,,,,,,,,,,,,,300.0,300.0,BKN,300.0,OVC,1200.0,,,,
KRDR,12-18-2021,04:16,SPECI,Normal,10,7.0,,,9999.0,Light Snow,-12.0,-15.0,30.36,1030.9,71,,,,,,,,,,,,,,,300.0,300.0,OVC,300.0,,,,,,
KRDR,12-18-2021,04:14,SPECI,Normal,360,7.0,,,9999.0,,-12.0,-15.0,30.36,1030.9,,,,,,,,,,,,,,,,300.0,300.0,OVC,300.0,,,,,,
KRDR,12-18-2021,04:04,SPECI,Normal,360,8.0,,,9999.0,,-12.0,-15.0,30.36,1030.9,,,,,,,,,,,,,,,,500.0,500.0,OVC,500.0,,,,,,
KRDR,12-18-2021,03:56,METAR,Normal,10,8.0,,,9999.0,Light Snow,-12.0,-14.6,30.36,1030.9,71,,,,,,,,,,TRACE,,,,,500.0,500.0,OVC,500.0,,,,,,
KRDR,12-18-2021,03:50,SPECI,Normal,10,8.0,,,9999.0,Light Snow,-12.0,-15.0,30.36,1030.9,71,,,,,,,,,,,,,,,500.0,500.0,BKN,500.0,OVC,1100.0,,,,
KRDR,12-18-2021,03:46,SPECI,Normal,10,7.0,,,9999.0,,-12.0,-15.0,30.36,1030.9,,,,,,,,,,,,,,,,500.0,500.0,BKN,500.0,OVC,1100.0,,,,
KRDR,12-18-2021,03:26,SPECI,Normal,10,8.0,,,9999.0,,-12.0,-15.0,30.36,1030.9,,,,,,,,,,,,,,,,400.0,400.0,BKN,400.0,OVC,1200.0,,,,
KRDR,12-18-2021,03:16,SPECI,Normal,10,8.0,,,9999.0,,-12.0,-15.0,30.36,1030.9,,,,,,,,,,,,,,,,300.0,300.0,OVC,300.0,,,,,,
KRDR,12-18-2021,03:06,SPECI,Normal,10,8.0,,,9999.0,,-12.0,-15.0,30.36,1030.9,,,,,,,,,,,,,,,,400.0,400.0,OVC,400.0,,,,,,
KRDR,12-18-2021,02:56,METAR,Normal,10,8.0,,,9999.0,,-12.0,-14.6,30.36,1030.9,,,,,,,,,,,TRACE,TRACE,,,,300.0,300.0,BKN,300.0,OVC,1200.0,,,,
KRDR,12-18-2021,02:43,SPECI,Normal,20,8.0,,,9999.0,,-12.0,-15.0,30.36,1030.9,,,,,,,,,,,,,,,,300.0,300.0,BKN,300.0,OVC,1200.0,,,,
KRDR,12-18-2021,02:33,SPECI,Normal,20,9.0,,,9999.0,,-12.0,-15.0,30.36,1030.9,,,,,,,,,,,,,,,,500.0,500.0,BKN,500.0,OVC,1200.0,,,,
KRDR,12-18-2021,02:23,SPECI,Normal,20,7.0,,,9999.0,,-12.0,-15.0,30.36,1030.9,,,,,,,,,,,,,,,,200.0,500.0,SCT,500.0,OVC,1200.0,,,,
KRDR,12-18-2021,02:03,SPECI,Normal,20,8.0,,,9999.0,,-12.0,-14.0,30.36,1030.9,,,,,,,,,,,,,,,,200.0,200.0,BKN,200.0,OVC,600.0,,,,
KRDR,12-18-2021,01:56,METAR,Normal,20,10.0,,,9999.0,Light Snow,-11.9,-14.4,30.36,1030.9,71,,,,,,,,,,TRACE,,,,,300.0,300.0,OVC,300.0,,,,,,
KRDR,12-18-2021,01:45,SPECI,Normal,20,10.0,,,9999.0,Light Snow,-12.0,-14.0,30.36,1030.9,71,,,,,,,,,,,,,,,300.0,300.0,OVC,300.0,,,,,,
KRDR,12-18-2021,01:31,SPECI,Normal,10,10.0,,,9999.0,,-12.0,-14.0,30.36,1030.9,,,,,,,,,,,,,,,,300.0,300.0,OVC,300.0,,,,,,
KRDR,12-18-2021,01:01,SPECI,Normal,10,8.0,,,9999.0,,-12.0,-14.0,30.36,1031.0,,,,,,,,,,,,,,,,200.0,200.0,OVC,200.0,,,,,,
KRDR,12-18-2021,00:56,METAR,Normal,10,8.0,,,9999.0,Light Snow,-11.6,-14.1,30.35,1030.6,71,,,,,,,,,,TRACE,,,,,200.0,200.0,OVC,200.0,,,,,,
KRDR,12-18-2021,00:50,SPECI,Normal,10,10.0,,,9999.0,Light Snow,-11.0,-14.0,30.35,1030.5,71,,,,,,,,,,,,,,,200.0,200.0,OVC,200.0,,,,,,
KRDR,12-18-2021,00:30,SPECI,Normal,20,9.0,,,9999.0,Light Snow,-11.0,-14.0,30.35,1030.6,71,,,,,,,,,,,,,,,300.0,300.0,OVC,300.0,,,,,,
KRDR,12-18-2021,00:29,SPECI,Normal,20,8.0,,,9999.0,,-11.0,-14.0,30.35,1030.6,,,,,,,,,,,,,,,,300.0,300.0,OVC,300.0,,,,,,
KRDR,12-18-2021,00:18,SPECI,Normal,10,9.0,,,9999.0,Light Snow,-11.0,-14.0,30.35,1030.6,71,,,,,,,,,,,,,,,300.0,300.0,OVC,300.0,,,,,,
KRDR,12-17-2021,23:56,METAR,Normal,10,10.0,,,9999.0,,-11.6,-14.1,30.34,1030.3,,,,,,,,,,,,,TRACE,,,300.0,300.0,OVC,300.0,,,,,,
KRDR,12-17-2021,23:36,SPECI,Normal,10,8.0,,,9999.0,,-12.0,-14.0,30.33,1030.0,,,,,,,,,,,,,,,,300.0,300.0,OVC,300.0,,,,,,
KRDR,12-17-2021,23:26,SPECI,Normal,20,9.0,,,9999.0,,-12.0,-14.0,30.33,1030.0,,,,,,,,,,,,,,,,400.0,400.0,BKN,400.0,BKN,700.0,OVC,1800.0,,
KRDR,12-17-2021,23:16,SPECI,Normal,20,11.0,,,9999.0,,-12.0,-14.0,30.32,1029.7,,,,,,,,,,,,,,,,500.0,500.0,OVC,500.0,,,,,,
KRDR,12-17-2021,22:56,METAR,Normal,20,9.0,,,9999.0,,-11.7,-14.3,30.31,1029.4,,,,,,,,,,,,,,,,600.0,600.0,BKN,600.0,OVC,1700.0,,,,
KRDR,12-17-2021,22:46,SPECI,Normal,20,9.0,,,9999.0,,-12.0,-14.0,30.31,1029.4,,,,,,,,,,,,,,,,500.0,500.0,SCT,500.0,OVC,1800.0,,,,
KRDR,12-17-2021,22:36,SPECI,Normal,20,9.0,,,9999.0,,-12.0,-14.0,30.30,1029.0,,,,,,,,,,,,,,,,500.0,500.0,BKN,500.0,OVC,1800.0,,,,
KRDR,12-17-2021,22:26,SPECI,Normal,20,9.0,,,9999.0,,-12.0,-14.0,30.30,1029.0,,,,,,,,,,,,,,,,300.0,400.0,SCT,400.0,OVC,1700.0,,,,
KRDR,12-17-2021,21:56,METAR,Normal,30,9.0,,,9999.0,,-11.6,-14.2,30.30,1029.0,,,,,,,,,,,TRACE,,,,,300.0,300.0,BKN,300.0,OVC,1600.0,,,,
KRDR,12-17-2021,21:38,SPECI,Normal,20,7.0,,,9999.0,,-12.0,-14.0,30.30,1029.1,,,,,,,,,,,,,,,,300.0,300.0,OVC,300.0,,,,,,
KRDR,12-17-2021,21:18,SPECI,Normal,20,7.0,,,9999.0,,-12.0,-14.0,30.30,1029.1,,,,,,,,,,,,,,,,200.0,200.0,BKN,200.0,OVC,800.0,,,,
KRDR,12-17-2021,21:08,SPECI,Normal,20,8.0,,,9999.0,,-12.0,-14.0,30.30,1029.1,,,,,,,,,,,,,,,,300.0,300.0,OVC,300.0,,,,,,
KRDR,12-17-2021,20:59,SPECI,Normal,20,7.0,,,9999.0,Light Snow,-12.0,-14.0,30.29,1028.8,71,,,,,,,,,,,,,,,300.0,300.0,OVC,300.0,,,,,,
KRDR,12-17-2021,20:56,METAR,Normal,30,7.0,,,9999.0,Light Snow Showers,-11.6,-14.4,30.30,1029.1,85,,,,,,,,,,TRACE,TRACE,,,,300.0,300.0,OVC,300.0,,,,,,
KRDR,12-17-2021,20:07,SPECI,Normal,20,8.0,,,9999.0,Light Snow Showers,-12.0,-14.0,30.29,1028.7,85,,,,,,,,,,,,,,,300.0,300.0,BKN,300.0,OVC,900.0,,,,
KRDR,12-17-2021,19:56,METAR,Normal,20,8.0,,,9999.0,Light Snow Showers,-11.8,-14.7,30.28,1028.3,85,,,,,,,,,,TRACE,,,,,400.0,400.0,BKN,400.0,BKN,900.0,OVC,1900.0,,
KRDR,12-17-2021,19:50,SPECI,Normal,30,7.0,,,9999.0,Light Snow Showers,-12.0,-15.0,30.28,1028.3,85,,,,,,,,,,,,,,,400.0,400.0,BKN,400.0,BKN,900.0,OVC,1900.0,,
KRDR,12-17-2021,19:30,SPECI,Normal,30,11.0,,,9999.0,Light Snow Showers,-12.0,-15.0,30.28,1028.3,85,,,,,,,,,,,,,,,1800.0,1800.0,BKN,1800.0,,,,,,
KRDR,12-17-2021,19:29,SPECI,Normal,30,11.0,,,9999.0,Light Snow Showers,-12.0,-15.0,30.28,1028.3,85,,,,,,,,,,,,,,,1800.0,1800.0,BKN,1800.0,,,,,,
KRDR,12-17-2021,18:55,METAR,Normal,30,6.0,,,9999.0,,-12.0,-15.0,30.33,,,,,,,,,,,,,,,,,1900.0,1900.0,BKN,1900.0,,,,,,
KRDR,12-17-2021,18:07,SPECI,Normal,40,7.0,,,9999.0,,-13.0,-16.0,30.30,1029.0,,,,,,,,,,,,,,,,400.0,400.0,BKN,400.0,BKN,1000.0,OVC,1900.0,,
KRDR,12-17-2021,17:56,METAR,Normal,40,5.0,,,9999.0,Light Snow,-12.8,-15.9,30.31,1029.4,71,,,,,,,,,,TRACE,,TRACE,,,500.0,500.0,BKN,500.0,BKN,900.0,OVC,1800.0,,
KRDR,12-17-2021,17:33,SPECI,Normal,50,7.0,,,9999.0,Light Snow,-13.0,-16.0,30.31,1029.4,71,,,,,,,,,,,,,,,500.0,500.0,BKN,500.0,BKN,1000.0,OVC,1500.0,,
KRDR,12-17-2021,17:28,SPECI,Normal,50,6.0,,,9999.0,Light Snow,-13.0,-16.0,30.31,1029.4,71,,,,,,,,,,,,,,,1000.0,500.0,SCT,500.0,BKN,1000.0,OVC,1500.0,,
KRDR,12-17-2021,17:08,SPECI,Normal,60,6.0,,,9999.0,,-13.0,-16.0,30.30,1029.0,,,,,,,,,,,,,,,,1500.0,900.0,FEW,900.0,OVC,1500.0,,,,
KRDR,12-17-2021,17:06,SPECI,Normal,50,5.0,,,9999.0,,-13.0,-16.0,30.30,1029.0,,,,,,,,,,,,,,,,1500.0,1500.0,OVC,1500.0,,,,,,
KRDR,12-17-2021,16:56,METAR,Normal,40,6.0,,,9999.0,,-13.4,-16.3,30.31,1029.4,,,,,,,,,,,,,,,,1400.0,1400.0,OVC,1400.0,,,,,,
KRDR,12-17-2021,15:56,METAR,Normal,40,8.0,,,9999.0,,-14.0,-17.0,30.30,1029.0,,,,,,,,,,,,,,,,1300.0,1300.0,OVC,1300.0,,,,,,
KRDR,12-17-2021,14:56,METAR,Normal,60,7.0,,,9999.0,,-14.3,-17.3,30.28,1028.3,,,,,,,,,,,,,,,,1200.0,700.0,FEW,700.0,OVC,1200.0,,,,
KRDR,12-17-2021,14:45,SPECI,Normal,40,6.0,,,9999.0,,-14.0,-17.0,30.28,1028.3,,,,,,,,,,,,,,,,1200.0,700.0,SCT,700.0,OVC,1200.0,,,,
KRDR,12-17-2021,14:11,SPECI,Normal,10,6.0,,,9999.0,,-14.0,-17.0,30.28,1028.3,,,,,,,,,,,,,,,,1100.0,1100.0,OVC,1100.0,,,,,,
KRDR,12-17-2021,13:56,METAR,Normal,10,5.0,,,9999.0,,-14.5,-17.4,30.27,1028.0,,,,,,,,,,,,,,,,1100.0,1100.0,OVC,1100.0,,,,,,
KRDR,12-17-2021,12:56,METAR,Calm,,0.0,,,9999.0,,-15.6,-18.5,30.26,1027.7,,,,,,,,,,,,,,,,1100.0,1100.0,OVC,1100.0,,,,,,
KRDR,12-17-2021,12:53,SPECI,Calm,,0.0,,,9999.0,,-16.0,-18.0,30.26,1027.7,,,,,,,,,,,,,,,,1100.0,1100.0,OVC,1100.0,,,,,,
KRDR,12-17-2021,11:56,METAR,Calm,,0.0,,,9999.0,,-16.8,-19.9,30.23,1026.7,,,,,,,,,,,,,,,,1300.0,1300.0,OVC,1300.0,,,,,,
KRDR,12-17-2021,11:16,SPECI,Calm,,0.0,,,9999.0,,-18.0,-21.0,30.22,1026.4,,,,,,,,,,,,,,,,1400.0,1500.0,BKN,1500.0,,,,,,
KRDR,12-17-2021,10:56,METAR,Normal,340,3.0,,,9999.0,,-18.4,-21.2,30.20,1025.8,,,,,,,,,,,,,,,Clear,72000.0,,,,,,,,,
KRDR,12-17-2021,10:47,SPECI,Normal,310,5.0,,,9999.0,,-18.0,-21.0,30.20,1025.8,,,,,,,,,,,,,,,,,1400.0,FEW,1400.0,,,,,,
KRDR,12-17-2021,09:56,METAR,Normal,340,6.0,,,9999.0,,-18.4,-21.5,30.18,1025.1,,,,,,,,,,,,,,,,1200.0,1200.0,OVC,1200.0,,,,,,
KRDR,12-17-2021,09:37,SPECI,Normal,320,5.0,,,9999.0,,-19.0,-22.0,30.18,1025.1,,,,,,,,,,,,,,,,1100.0,1100.0,BKN,1100.0,,,,,,
KRDR,12-17-2021,09:27,SPECI,Normal,320,6.0,,,9999.0,,-19.0,-22.0,30.18,1025.1,,,,,,,,,,,,,,,,,1100.0,FEW,1100.0,,,,,,
KRDR,12-17-2021,09:26,SPECI,Normal,320,6.0,,,9999.0,,-20.0,-22.0,30.18,1025.2,,,,,,,,,,,,,,,,,1300.0,FEW,1300.0,,,,,,
KRDR,12-17-2021,09:24,SPECI,Normal,320,6.0,,,9999.0,Light Snow,-20.0,-23.0,30.18,1025.2,71,,,,,,,,,,,,,,Clear,72000.0,,,,,,,,,
KRDR,12-17-2021,08:56,METAR,Normal,280,3.0,,,9999.0,,-19.3,-22.4,30.17,1024.8,,,,,,,,,,,,,,,Clear,72000.0,,,,,,,,,
KRDR,12-17-2021,07:56,METAR,Normal,300,5.0,,,9999.0,,-18.5,-21.9,30.15,1024.0,,,,,,,,,,,,,,,Clear,72000.0,,,,,,,,,
KRDR,12-17-2021,06:56,METAR,Normal,300,6.0,,,9999.0,,-18.3,-21.8,30.14,1023.7,,,,,,,,,,,,,,,Clear,72000.0,,,,,,,,,
KRDR,12-17-2021,05:56,METAR,Normal,300,7.0,,,9999.0,,-17.5,-21.4,30.12,1023.0,,,,,,,,,,,,,,,Clear,72000.0,,,,,,,,,
KRDR,12-17-2021,04:56,METAR,Normal,280,6.0,,,9999.0,,-17.5,-21.2,30.10,1022.3,,,,,,,,,,,,,,,Clear,72000.0,,,,,,,,,
KRDR,12-17-2021,03:56,METAR,Normal,300,8.0,,,9999.0,,-16.9,-20.5,30.06,1020.9,,,,,,,,,,,,,,,Clear,72000.0,,,,,,,,,
KRDR,12-17-2021,02:56,METAR,Normal,310,9.0,,,9999.0,,-16.1,-20.0,30.03,1019.9,,,,,,,,,,,,,,,Clear,72000.0,,,,,,,,,
KRDR,12-17-2021,01:55,METAR,Normal,280,6.0,,,9999.0,,-16.0,-19.5,30.03,1019.8,,,,,,,,,,,,,,,,,20000.0,FEW,20000.0,,,,,,
KRDR,12-17-2021,00:54,METAR,Normal,290,7.0,,,9999.0,,-15.4,-19.2,29.99,1018.3,,,,,,,,,,,,,,,,,20000.0,FEW,20000.0,,,,,,
KRDR,12-16-2021,23:56,METAR,Normal,300,10.0,,,9999.0,,-15.0,-19.3,29.96,1017.3,,,,,,,,,,,,,,,,21000.0,21000.0,BKN,21000.0,,,,,,
KRDR,12-16-2021,22:56,METAR,Normal,300,10.0,,,9999.0,,-15.3,-19.6,29.94,1016.5,,,,,,,,,,,,,,,,25000.0,25000.0,BKN,25000.0,,,,,,
KRDR,12-16-2021,22:26,SPECI,Normal,300,10.0,,,9999.0,,-16.0,-20.0,29.92,1015.9,,,,,,,,,,,,,,,,1700.0,1700.0,SCT,1700.0,BKN,2800.0,,,,
KRDR,12-16-2021,22:16,SPECI,Normal,290,11.0,,,9999.0,,-16.0,-20.0,29.91,1015.6,,,,,,,,,,,,,,,,1700.0,1700.0,BKN,1700.0,BKN,3000.0,,,,
KRDR,12-16-2021,21:56,METAR,Normal,300,12.0,,,9999.0,,-15.9,-20.5,29.89,1014.9,,,,,,,,,,,,,,,,25000.0,25000.0,BKN,25000.0,,,,,,
KRDR,12-16-2021,20:57,METAR,Normal,290,15.0,20.0,,9999.0,,-15.0,-19.8,29.87,1014.2,,,,,,,,,,,,,,,,,25000.0,SCT,25000.0,,,,,,
KRDR,12-16-2021,20:45,SPECI,Normal,290,17.0,22.0,,9999.0,,-15.0,-20.0,29.86,1013.8,,,,,,,,,,,,,,,,,25000.0,SCT,25000.0,,,,,,
KRDR,12-16-2021,20:35,SPECI,Normal,290,17.0,22.0,,9999.0,,-15.0,-20.0,29.85,1013.5,,,,,,,,,,,,,,,,2600.0,2600.0,BKN,2600.0,,,,,,
KRDR,12-16-2021,20:05,SPECI,Normal,300,16.0,20.0,,9999.0,,-15.0,-19.0,29.84,1013.1,,,,,,,,,,,,,,,,2500.0,2500.0,BKN,2500.0,,,,,,
KRDR,12-16-2021,20:00,METAR,Normal,300,16.0,,,9999.0,,-14.8,-19.4,29.84,1013.1,,,,,,,,,,,,,,,,1200.0,1200.0,BKN,1200.0,BKN,2400.0,,,,
KRDR,12-16-2021,19:07,SPECI,Normal,310,14.0,22.0,,9999.0,,-15.0,-20.0,29.83,1012.7,,,,,,,,,,,,,,,,1000.0,1000.0,BKN,1000.0,OVC,1700.0,,,,
KRDR,12-16-2021,18:57,SPECI,Normal,300,15.0,22.0,,9999.0,,-15.0,-20.0,29.82,1012.4,,,,,,,,,,,,,,,,1400.0,1000.0,FEW,1000.0,OVC,1700.0,,,,
KRDR,12-16-2021,18:56,METAR,Normal,290,17.0,22.0,,9999.0,,-15.3,-20.3,29.82,1012.4,,,,,,,,,,,,,,,,1400.0,1600.0,BKN,1600.0,OVC,2000.0,,,,
KRDR,12-16-2021,18:47,SPECI,Normal,300,14.0,22.0,,9999.0,,-15.0,-20.0,29.83,1012.7,,,,,,,,,,,,,,,,1600.0,1600.0,BKN,1600.0,,,,,,
KRDR,12-16-2021,18:27,SPECI,Normal,300,19.0,25.0,,9999.0,,-15.0,-20.0,29.82,1012.4,,,,,,,,,,,,,,,,,1400.0,FEW,1400.0,SCT,2000.0,,,,
KRDR,12-16-2021,18:17,SPECI,Normal,300,20.0,25.0,,9999.0,,-15.0,-20.0,29.82,1012.4,,,,,,,,,,,,,,,,1300.0,600.0,FEW,600.0,SCT,1400.0,BKN,2100.0,,
KRDR,12-16-2021,18:07,SPECI,Normal,300,19.0,25.0,,9999.0,,-15.0,-20.0,29.81,1011.9,,,,,,,,,,,,,,,,1300.0,600.0,FEW,600.0,BKN,1300.0,,,,
KRDR,12-16-2021,17:56,METAR,Normal,290,17.0,23.0,,9999.0,,-14.9,-19.5,29.82,1012.2,,,,,,,,,,,,,,,,1300.0,1300.0,OVC,1300.0,,,,,,
KRDR,12-16-2021,17:51,SPECI,Normal,290,15.0,,,9999.0,,-15.0,-20.0,29.81,1011.8,,,,,,,,,,,,,,,,1200.0,1200.0,BKN,1200.0,OVC,1900.0,,,,
KRDR,12-16-2021,17:41,SPECI,Normal,310,16.0,25.0,,9999.0,,-14.0,-19.0,29.81,1011.8,,,,,,,,,,,,,,,,1000.0,1000.0,BKN,1000.0,OVC,1600.0,,,,
KRDR,12-16-2021,17:21,SPECI,Normal,300,18.0,23.0,,9999.0,,-15.0,-19.0,29.81,1011.8,,,,,,,,,,,,,,,,1700.0,900.0,FEW,900.0,BKN,1700.0,OVC,2700.0,,
KRDR,12-16-2021,17:06,SPECI,Normal,310,16.0,,,9999.0,,-15.0,-20.0,29.81,1011.8,,,,,,,,,,,,,,,,1700.0,1700.0,BKN,1700.0,OVC,2500.0,,,,
KRDR,12-16-2021,16:56,METAR,Normal,310,18.0,23.0,320/27KTS,9999.0,,-14.4,-19.6,29.80,1011.4,,,,,,,,,,,,,,,,2400.0,1800.0,SCT,1800.0,OVC,2400.0,,,,
KRDR,12-16-2021,16:36,SPECI,Normal,310,18.0,24.0,,9999.0,,-15.0,-20.0,29.80,1011.5,,,,,,,,,,,,,,,,1600.0,1700.0,SCT,1700.0,OVC,2300.0,,,,
KRDR,12-16-2021,15:56,METAR,Normal,320,19.0,26.0,290/29KTS,9999.0,,-14.9,-20.1,29.79,1011.1,,,,,,,,,,,,,,,,1400.0,700.0,FEW,700.0,OVC,1700.0,,,,
KRDR,12-16-2021,15:47,SPECI,Normal,310,17.0,25.0,,9999.0,,-15.0,-19.0,29.77,1010.4,,,,,,,,,,,,,,,,1600.0,700.0,FEW,700.0,SCT,1300.0,OVC,2000.0,,
KRDR,12-16-2021,15:17,SPECI,Normal,310,19.0,26.0,,9999.0,,-15.0,-20.0,29.76,1010.1,,,,,,,,,,,,,,,,1500.0,1000.0,FEW,1000.0,OVC,1500.0,,,,
KRDR,12-16-2021,15:16,SPECI,Normal,310,18.0,26.0,,9999.0,,-15.0,-20.0,29.76,1010.1,,,,,,,,,,,,,,,,1500.0,1500.0,OVC,1500.0,,,,,,
KRDR,12-16-2021,14:56,METAR,Normal,310,19.0,26.0,280/31KTS,9999.0,,-15.2,-19.7,29.75,1009.7,,,,,,,,,,,,TRACE,,,,1300.0,1400.0,OVC,1400.0,,,,,,
KRDR,12-16-2021,14:42,SPECI,Normal,310,19.0,27.0,,9999.0,,-15.0,-20.0,29.74,1009.4,,,,,,,,,,,,,,,,1400.0,1400.0,OVC,1400.0,,,,,,
KRDR,12-16-2021,14:30,SPECI,Normal,300,22.0,31.0,,9999.0,,-15.0,-20.0,29.72,1008.7,,,,,,,,,,,,,,,,1500.0,1500.0,OVC,1500.0,,,,,,
KRDR,12-16-2021,14:22,SPECI,Normal,310,23.0,29.0,,9999.0,,-15.0,-20.0,29.72,1008.7,,,,,,,,,,,,,,,,1300.0,1300.0,OVC,1300.0,,,,,,
KRDR,12-16-2021,14:12,SPECI,Normal,310,18.0,25.0,,9999.0,,-15.0,-19.0,29.72,1008.7,,,,,,,,,,,,,,,,1400.0,1000.0,SCT,1000.0,OVC,1500.0,,,,
KRDR,12-16-2021,14:06,SPECI,Normal,310,19.0,25.0,,9999.0,,-15.0,-19.0,29.72,1008.7,,,,,,,,,,,,,,,,1100.0,1200.0,OVC,1200.0,,,,,,
KRDR,12-16-2021,13:56,METAR,Normal,310,18.0,29.0,320/29KTS,9999.0,,-14.5,-18.6,29.71,1008.3,,,,,,,,,,,,,,,,1000.0,1000.0,BKN,1000.0,OVC,1500.0,,,,
KRDR,12-16-2021,13:51,SPECI,Normal,300,17.0,23.0,,9999.0,,-14.0,-19.0,29.70,1007.9,,,,,,,,,,,,,,,,1000.0,1000.0,BKN,1000.0,OVC,1500.0,,,,
KRDR,12-16-2021,12:56,METAR,Normal,310,22.0,33.0,300/33KTS,9999.0,,-13.3,-17.6,29.67,1006.9,,,,,,,,,,,,,,,,1300.0,1300.0,BKN,1300.0,OVC,1900.0,,,,
KRDR,12-16-2021,12:53,SPECI,Normal,310,23.0,33.0,,9999.0,,-13.0,-17.0,29.67,1006.9,,,,,,,,,,,,,,,,1300.0,1300.0,BKN,1300.0,OVC,1900.0,,,,
KRDR,12-16-2021,12:16,SPECI,Normal,310,19.0,28.0,,9999.0,,-13.0,-17.0,29.65,1006.2,,,,,,,,,,,,,,,,1200.0,1200.0,OVC,1200.0,,,,,,
KRDR,12-16-2021,11:56,METAR,Normal,300,17.0,26.0,280/31KTS,9999.0,,-12.2,-16.1,29.66,1006.5,,,,,,,,,,,,,TRACE,,,1300.0,1300.0,OVC,1300.0,,,,,,
KRDR,12-16-2021,11:53,SPECI,Normal,310,15.0,26.0,,9999.0,,-12.0,-16.0,29.66,1006.5,,,,,,,,,,,,,,,,1300.0,1300.0,OVC,1300.0,,,,,,
KRDR,12-16-2021,11:43,SPECI,Normal,310,19.0,26.0,,9999.0,,-12.0,-16.0,29.65,1006.1,,,,,,,,,,,,,,,,1000.0,1500.0,OVC,1500.0,,,,,,
KRDR,12-16-2021,11:23,SPECI,Normal,310,18.0,22.0,,9999.0,,-12.0,-16.0,29.64,1005.8,,,,,,,,,,,,,,,,800.0,1000.0,BKN,1000.0,OVC,1400.0,,,,
KRDR,12-16-2021,11:13,SPECI,Normal,300,15.0,25.0,,9999.0,,-12.0,-15.0,29.64,1005.8,,,,,,,,,,,,,,,,800.0,800.0,BKN,800.0,OVC,1200.0,,,,
KRDR,12-16-2021,11:03,SPECI,Normal,300,18.0,25.0,,9999.0,,-11.0,-15.0,29.64,1005.8,,,,,,,,,,,,,,,,1200.0,600.0,FEW,600.0,BKN,1200.0,OVC,1700.0,,
KRDR,12-16-2021,10:56,METAR,Normal,310,19.0,27.0,290/30KTS,9999.0,,-11.5,-15.4,29.63,1005.5,,,,,,,,,,,,,,,,1400.0,1400.0,OVC,1400.0,,,,,,
KRDR,12-16-2021,09:56,METAR,Normal,300,19.0,25.0,300/28KTS,9999.0,,-11.2,-15.1,29.58,1003.8,,,,,,,,,,,TRACE,,,,,1500.0,1600.0,OVC,1600.0,,,,,,
KRDR,12-16-2021,09:42,SPECI,Normal,310,18.0,25.0,,9999.0,,-11.0,-15.0,29.58,1003.8,,,,,,,,,,,,,,,,1700.0,1700.0,OVC,1700.0,,,,,,
KRDR,12-16-2021,09:14,SPECI,Normal,310,18.0,27.0,,9999.0,Blowing or Drifting Snow or Sand,-11.0,-15.0,29.56,1003.1,27,,,,,,,,,,,,,,,1400.0,1400.0,OVC,1400.0,,,,,,
KRDR,12-16-2021,08:56,METAR,Normal,310,18.0,25.0,290/28KTS,9999.0,Light Snow,-10.9,-14.0,29.55,1002.7,71,,,,,,,,,,TRACE,TRACE,,,,1200.0,1200.0,OVC,1200.0,,,,,,
KRDR,12-16-2021,08:41,SPECI,Normal,310,16.0,26.0,,8000.0,Light Snow,-11.0,-13.0,29.55,1002.7,71,,,,,,,,,,,,,,,1000.0,300.0,FEW,300.0,BKN,1000.0,OVC,2100.0,,
KRDR,12-16-2021,08:20,SPECI,Normal,310,20.0,25.0,,3200.0,Light Snow/Mist,-11.0,-13.0,29.53,1002.0,71,10,,,,,,,,,,,,,,800.0,200.0,SCT,200.0,BKN,800.0,OVC,2700.0,,
KRDR,12-16-2021,07:56,METAR,Normal,310,18.0,24.0,,1800.0,Light Snow/Mist,-10.5,-12.4,29.52,1001.6,71,10,,,,,,,,,TRACE,,,,,200.0,200.0,BKN,200.0,OVC,1900.0,,,,
KRDR,12-16-2021,07:48,SPECI,Normal,310,18.0,24.0,,1600.0,Light Snow/Mist,-10.0,-12.0,29.51,1001.3,71,10,,,,,,,,,,,,,,200.0,200.0,BKN,200.0,OVC,1900.0,,,,
KRDR,12-16-2021,07:43,SPECI,Normal,320,20.0,24.0,,2000.0,Light Snow/Mist,-10.0,-12.0,29.51,1001.3,71,10,,,,,,,,,,,,,,200.0,200.0,BKN,200.0,,,,,,
KRDR,12-16-2021,07:36,SPECI,Normal,310,17.0,26.0,,2000.0,Light Snow/Mist,-10.0,-12.0,29.50,1000.9,71,10,,,,,,,,,,,,,,200.0,200.0,OVC,200.0,,,,,,
KRDR,12-16-2021,07:26,SPECI,Normal,310,18.0,24.0,,2400.0,Light Snow/Mist,-10.0,-12.0,29.51,1001.3,71,10,,,,,,,,,,,,,,300.0,300.0,OVC,300.0,,,,,,
KRDR,12-16-2021,07:06,SPECI,Normal,320,19.0,25.0,,3600.0,Light Snow/Mist,-9.0,-12.0,29.50,1000.9,71,10,,,,,,,,,,,,,,300.0,300.0,OVC,300.0,,,,,,
KRDR,12-16-2021,06:56,METAR,Normal,320,18.0,,300/28KTS,6400.0,Light Snow,-9.2,-11.6,29.50,1000.9,71,,,,,,,,,,TRACE,,,,,300.0,300.0,BKN,300.0,OVC,800.0,,,,
KRDR,12-16-2021,06:43,SPECI,Normal,310,18.0,24.0,,6400.0,Light Snow,-9.0,-11.0,29.48,1000.2,71,,,,,,,,,,,,,,,300.0,300.0,BKN,300.0,OVC,800.0,,,,
KRDR,12-16-2021,06:23,SPECI,Normal,320,18.0,24.0,,8000.0,Light Snow,-8.0,-11.0,29.47,999.8,71,,,,,,,,,,,,,,,200.0,200.0,OVC,200.0,,,,,,
KRDR,12-16-2021,06:04,SPECI,Normal,310,16.0,25.0,,3200.0,Light Snow,-7.0,-10.0,29.47,999.8,71,,,,,,,,,,,,,,,200.0,200.0,BKN,200.0,OVC,1800.0,,,,
KRDR,12-16-2021,05:56,METAR,Normal,310,16.0,24.0,310/28KTS,9999.0,Light Snow,-5.6,-8.5,29.46,999.3,71,,,,,,,,,,TRACE,,TRACE,,,1700.0,200.0,FEW,200.0,OVC,1800.0,,,,
KRDR,12-16-2021,05:39,SPECI,Normal,340,18.0,25.0,,9999.0,Light Snow,-5.0,-8.0,29.45,999.0,71,,,,,,,,,,,,,,,1700.0,1700.0,OVC,1700.0,,,,,,
KRDR,12-16-2021,05:33,SPECI,Normal,330,19.0,24.0,,9999.0,Light Snow,-5.0,-8.0,29.44,998.7,71,,,,,,,,,,,,,,,1700.0,1700.0,OVC,1700.0,,,,,,
KRDR,12-16-2021,04:56,METAR,Normal,340,16.0,21.0,320/28KTS,9999.0,,-4.6,-7.2,29.40,997.3,,,,,,,,,,,TRACE,,,,,1500.0,1500.0,OVC,1500.0,,,,,,
KRDR,12-16-2021,04:55,SPECI,Normal,340,16.0,21.0,,9999.0,,-5.0,-7.0,29.40,997.3,,,,,,,,,,,,,,,,1500.0,1500.0,OVC,1500.0,,,,,,
KRDR,12-16-2021,04:25,SPECI,Normal,340,17.0,27.0,,9999.0,,-4.0,-7.0,29.39,997.0,,,,,,,,,,,,,,,,1300.0,1300.0,OVC,1300.0,,,,,,
KRDR,12-16-2021,04:05,SPECI,Normal,350,15.0,22.0,,9999.0,Mist,-4.0,-6.0,29.38,996.6,10,,,,,,,,,,,,,,,600.0,600.0,BKN,600.0,OVC,1200.0,,,,
KRDR,12-16-2021,03:56,METAR,Normal,350,18.0,,320/27KTS,9999.0,Mist,-3.6,-5.3,29.37,996.3,,10,,,,,,,,,TRACE,,,,,500.0,500.0,OVC,500.0,,,,,,
KRDR,12-16-2021,03:43,SPECI,Normal,350,18.0,25.0,,9999.0,Mist,-3.0,-5.0,29.35,995.6,,10,,,,,,,,,,,,,,500.0,500.0,OVC,500.0,,,,,,
KRDR,12-16-2021,02:56,METAR,Normal,340,17.0,22.0,,8000.0,Mist,-2.8,-3.9,29.38,996.6,,10,,,,,,,,,TRACE,TRACE,,,,300.0,300.0,OVC,300.0,,,,,,
KRDR,12-16-2021,02:09,SPECI,Normal,340,18.0,22.0,,9999.0,Mist,-3.0,-4.0,29.43,998.4,,10,,,,,,,,,,,,,,300.0,300.0,OVC,300.0,,,,,,
KRDR,12-16-2021,01:56,METAR,Normal,350,18.0,23.0,350/29KTS,9999.0,Mist,-2.8,-3.8,29.43,998.4,10,,,,,,,,,,,,,,,300.0,300.0,OVC,300.0,,,,,,
KRDR,12-16-2021,00:56,METAR,Normal,350,16.0,22.0,330/30KTS,9999.0,Mist,-2.5,-3.5,29.41,997.6,10,,,,,,,,,,,,,,,300.0,300.0,OVC,300.0,,,,,,
KRDR,12-16-2021,00:26,SPECI,Normal,350,15.0,22.0,,9999.0,,-2.0,-3.0,29.39,997.0,,,,,,,,,,,,,,,,300.0,300.0,OVC,300.0,,,,,,
KRDR,12-16-2021,00:06,SPECI,Normal,350,18.0,26.0,,9999.0,,-2.0,-3.0,29.39,997.0,,,,,,,,,,,,,,,,400.0,400.0,OVC,400.0,,,,,,
KRDR,12-15-2021,23:56,METAR,Normal,350,19.0,25.0,,9999.0,,-2.2,-3.0,29.39,997.0,,,,,,,,,,,,,,,,300.0,300.0,OVC,300.0,,,,,,
KRDR,12-15-2021,23:46,SPECI,Normal,350,19.0,24.0,,9999.0,Mist,-2.0,-3.0,29.39,996.9,10,,,,,,,,,,,,,,,300.0,300.0,OVC,300.0,,,,,,
KRDR,12-15-2021,22:56,METAR,Normal,340,13.0,,,6400.0,Mist,-2.4,-3.1,29.40,997.3,10,,,,,,,,,,,,,,,200.0,200.0,OVC,200.0,,,,,,
KRDR,12-15-2021,22:36,SPECI,Normal,350,15.0,20.0,,6400.0,Mist,-2.0,-3.0,29.40,997.3,10,,,,,,,,,,,,,,,200.0,200.0,OVC,200.0,,,,,,
KRDR,12-15-2021,21:56,METAR,Normal,350,12.0,,,6400.0,Mist,-2.2,-2.8,29.40,997.3,10,,,,,,,,,,,,,,,300.0,300.0,OVC,300.0,,,,,,
KRDR,12-15-2021,21:26,SPECI,Normal,350,14.0,,,9999.0,Mist,-2.0,-3.0,29.40,997.2,10,,,,,,,,,,,,,,,300.0,300.0,OVC,300.0,,,,,,
KRDR,12-15-2021,20:56,METAR,Normal,350,17.0,22.0,,9999.0,,-2.2,-2.9,29.37,996.2,,,,,,,,,,,,,,,,400.0,400.0,OVC,400.0,,,,,,
KRDR,12-15-2021,20:26,SPECI,Normal,360,12.0,20.0,,9999.0,,-2.0,-3.0,29.38,996.5,,,,,,,,,,,,,,,,300.0,300.0,OVC,300.0,,,,,,
KRDR,12-15-2021,20:16,SPECI,Normal,360,13.0,18.0,,8000.0,Mist,-2.0,-3.0,29.39,996.9,10,,,,,,,,,,,,,,,200.0,200.0,OVC,200.0,,,,,,
KRDR,12-15-2021,20:06,SPECI,Normal,350,10.0,,,8000.0,Mist,-2.0,-3.0,29.39,996.9,10,,,,,,,,,,,,,,,300.0,300.0,OVC,300.0,,,,,,
KRDR,12-15-2021,19:56,METAR,Normal,350,13.0,,,9999.0,Mist,-2.6,-3.2,29.39,996.9,10,,,,,,,,,,,,,,,300.0,400.0,OVC,400.0,,,,,,
KRDR,12-15-2021,19:06,SPECI,Normal,310,13.0,,,9999.0,,-2.0,-3.0,29.40,997.1,,,,,,,,,,,,,,,,300.0,500.0,OVC,500.0,,,,,,
KRDR,12-15-2021,18:56,METAR,Normal,320,10.0,,,9999.0,,-1.5,-2.1,29.39,996.7,,,,,,,,,,,,,,,,300.0,300.0,OVC,300.0,,,,,,
KRDR,12-15-2021,18:49,SPECI,Normal,300,7.0,,,9999.0,,-1.0,-2.0,29.39,996.8,,,,,,,,,,,,,,,,300.0,300.0,OVC,300.0,,,,,,
KRDR,12-15-2021,18:18,SPECI,Normal,260,7.0,,,6400.0,Mist,-1.0,-2.0,29.38,996.4,,,,10,,,,,,,,,,,,100.0,200.0,OVC,200.0,,,,,,
KRDR,12-15-2021,17:55,METAR,Normal,220,7.0,,,400.0,Fog with Rime,-0.7,-1.3,29.39,996.7,35,,,,,,,,,,,,,,Sky Obscured (Unable to Estimate),100.0,200.0,,200.0,,,,,,
KRDR,12-15-2021,17:14,SPECI,Normal,190,8.0,,,200.0,Fog with Rime,-1.0,-1.0,29.39,996.7,35,,,,,,,,,,,,,,Sky Obscured (Unable to Estimate),100.0,100.0,,100.0,,,,,,
KRDR,12-15-2021,16:56,METAR,Normal,180,4.0,,,200.0,Fog with Rime,-1.8,-2.4,29.40,997.1,35,,,,,,,,,,,,,,Sky Obscured (Unable to Estimate),100.0,200.0,,200.0,,,,,,
KRDR,12-15-2021,15:56,METAR,Normal,310,4.0,,,200.0,Fog with Rime,-2.4,-3.0,29.40,997.1,35,,,,,,,,,,,,,,Sky Obscured (Unable to Estimate),100.0,100.0,,100.0,,,,,,
KRDR,12-15-2021,15:40,SPECI,Calm,,0.0,,,200.0,Fog with Rime,-3.0,-3.0,29.39,996.8,35,,,,,,,,,,,,,,Sky Obscured (Unable to Estimate),100.0,200.0,,200.0,,,,,,
KRDR,12-15-2021,15:15,SPECI,Normal,260,3.0,,,200.0,Fog with Rime,-3.0,-3.0,29.40,997.1,35,,,,,,,,,,,,,,Sky Obscured (Unable to Estimate),100.0,100.0,,100.0,,,,,,
KRDR,12-15-2021,15:04,SPECI,Normal,180,5.0,,,400.0,Fog with Rime,-3.0,-4.0,29.40,997.1,35,,,,,,,,,,,,,,,200.0,200.0,OVC,200.0,,,,,,
KRDR,12-15-2021,15:01,SPECI,Normal,160,4.0,,,600.0,Mist,-4.0,-4.0,29.39,996.8,10,,,,,,,,,,,,,,,200.0,200.0,BKN,200.0,,,,,,
KRDR,12-15-2021,14:56,METAR,Calm,,0.0,,,1600.0,Mist,-4.1,-4.8,29.40,997.1,10,,,,,,,,,,,,,,,200.0,200.0,BKN,200.0,,,,,,
KRDR,12-15-2021,14:53,SPECI,Calm,,0.0,,,1600.0,Mist,-4.0,-5.0,29.40,997.1,10,,,,,,,,,,,,,,,200.0,200.0,BKN,200.0,,,,,,
KRDR,12-15-2021,14:43,SPECI,Normal,130,3.0,,,1600.0,Mist,-4.0,-5.0,29.40,997.1,10,,,,,,,,,,,,,,,100.0,300.0,BKN,300.0,,,,,,
KRDR,12-15-2021,14:37,SPECI,Normal,120,4.0,,,3600.0,Mist,-5.0,-5.0,29.39,996.9,10,,,,,,,,,,,,,,,100.0,700.0,BKN,700.0,,,,,,
KRDR,12-15-2021,14:33,SPECI,Normal,130,5.0,,,3000.0,Mist,-5.0,-6.0,29.39,996.9,10,,,,,,,,,,,,,,,,200.0,SCT,200.0,SCT,15000.0,,,,
KRDR,12-15-2021,14:28,SPECI,Normal,140,5.0,,,2800.0,Mist,-5.0,-6.0,29.39,996.9,10,,,,,,,,,,,,,,,,200.0,SCT,200.0,SCT,15000.0,,,,
KRDR,12-15-2021,14:25,SPECI,Normal,150,5.0,,,3600.0,Mist,-5.0,-6.0,29.39,996.9,10,,,,,,,,,,,,,,,,200.0,SCT,200.0,SCT,15000.0,,,,
KRDR,12-15-2021,14:21,SPECI,Normal,150,5.0,,,4000.0,Mist,-5.0,-6.0,29.40,997.2,10,,,,,,,,,,,,,,,,200.0,SCT,200.0,,,,,,
KRDR,12-15-2021,14:13,SPECI,Normal,140,5.0,,,3600.0,Mist,-4.0,-5.0,29.39,996.8,10,,,,,,,,,,,,,,,,200.0,FEW,200.0,,,,,,
KRDR,12-15-2021,14:10,SPECI,Normal,140,6.0,,,3600.0,Mist,-4.0,-5.0,29.39,996.8,10,,,,,,,,,,,,,,Clear,72000.0,,,,,,,,,
KRDR,12-15-2021,13:56,METAR,Normal,130,7.0,,,4400.0,Mist,-5.1,-5.9,29.40,997.2,10,,,,,,,,,,,,,,Clear,72000.0,,,,,,,,,
KRDR,12-15-2021,13:53,SPECI,Normal,130,7.0,,,3600.0,Mist,-5.0,-6.0,29.40,997.2,10,,,,,,,,,,,,,,Clear,72000.0,,,,,,,,,
KRDR,12-15-2021,13:49,SPECI,Normal,130,8.0,,,2200.0,Mist,-5.0,-6.0,29.40,997.2,10,,,,,,,,,,,,,,Clear,72000.0,,,,,,,,,
KRDR,12-15-2021,13:48,SPECI,Normal,130,8.0,,,1800.0,Mist,-5.0,-6.0,29.40,997.2,10,,,,,,,,,,,,,,Clear,72000.0,,,,,,,,,
KRDR,12-15-2021,13:46,SPECI,Normal,130,7.0,,,1200.0,Mist,-5.0,-6.0,29.40,997.2,10,,,,,,,,,,,,,,Clear,72000.0,,,,,,,,,
KRDR,12-15-2021,13:35,SPECI,Normal,140,6.0,,,800.0,Mist,-5.0,-6.0,29.42,997.9,10,,,,,,,,,,,,,,Clear,72000.0,,,,,,,,,
KRDR,12-15-2021,13:29,SPECI,Normal,140,5.0,,,1000.0,Mist,-6.0,-6.0,29.42,997.9,10,,,,,,,,,,,,,,Clear,72000.0,,,,,,,,,
KRDR,12-15-2021,13:27,SPECI,Normal,140,5.0,,,1200.0,Mist,-6.0,-6.0,29.42,997.9,10,,,,,,,,,,,,,,Clear,72000.0,,,,,,,,,
KRDR,12-15-2021,13:26,SPECI,Normal,140,5.0,,,1600.0,Mist,-6.0,-6.0,29.42,997.9,10,,,,,,,,,,,,,,Clear,72000.0,,,,,,,,,
KRDR,12-15-2021,13:25,SPECI,Normal,140,5.0,,,1600.0,Mist,-6.0,-6.0,29.42,997.9,10,,,,,,,,,,,,,,Clear,72000.0,,,,,,,,,
KRDR,12-15-2021,13:23,SPECI,Normal,140,4.0,,,2400.0,Mist,-6.0,-6.0,29.42,997.9,10,,,,,,,,,,,,,,Clear,72000.0,,,,,,,,,
KRDR,12-15-2021,13:21,SPECI,Normal,140,4.0,,,3200.0,Mist,-6.0,-6.0,29.42,997.9,10,,,,,,,,,,,,,,Clear,72000.0,,,,,,,,,
KRDR,12-15-2021,13:08,SPECI,Calm,,0.0,,,4800.0,Mist,-6.0,-7.0,29.44,998.6,10,,,,,,,,,,,,,,Clear,72000.0,,,,,,,,,
KRDR,12-15-2021,13:06,SPECI,Calm,,0.0,,,4400.0,Mist,-6.0,-6.0,29.44,998.6,10,,,,,,,,,,,,,,Clear,72000.0,,,,,,,,,
KRDR,12-15-2021,13:03,SPECI,Calm,,0.0,,,3600.0,Mist,-5.0,-6.0,29.44,998.6,10,,,,,,,,,,,,,,Clear,72000.0,,,,,,,,,
KRDR,12-15-2021,13:00,SPECI,Calm,,0.0,,,2400.0,Mist,-5.0,-6.0,29.44,998.6,10,,,,,,,,,,,,,,Clear,72000.0,,,,,,,,,
KRDR,12-15-2021,12:58,SPECI,Calm,,0.0,,,2000.0,Mist,-4.0,-5.0,29.44,998.5,10,,,,,,,,,,,,,,Clear,72000.0,,,,,,,,,
KRDR,12-15-2021,12:56,METAR,Normal,130,3.0,,,1400.0,Mist,-4.0,-4.6,29.43,998.2,10,,,,,,,,,,,,,,Clear,72000.0,,,,,,,,,
KRDR,12-15-2021,12:54,SPECI,Normal,130,3.0,,,1200.0,Mist,-4.0,-5.0,29.43,998.2,10,,,,,,,,,,,,,,Clear,72000.0,,,,,,,,,
KRDR,12-15-2021,12:51,SPECI,Normal,130,3.0,,,1400.0,Mist,-4.0,-4.0,29.44,998.5,10,,,,,,,,,,,,,,Clear,72000.0,,,,,,,,,
KRDR,12-15-2021,12:50,SPECI,Normal,130,3.0,,,1600.0,Mist,-4.0,-5.0,29.44,998.5,10,,,,,,,,,,,,,,Clear,72000.0,,,,,,,,,
KRDR,12-15-2021,12:46,SPECI,Calm,,0.0,,,3000.0,Mist,-5.0,-5.0,29.44,998.6,10,,,,,,,,,,,,,,Clear,72000.0,,,,,,,,,
KRDR,12-15-2021,12:43,SPECI,Calm,,0.0,,,4000.0,Mist,-5.0,-5.0,29.44,998.6,10,,,,,,,,,,,,,,Clear,72000.0,,,,,,,,,
KRDR,12-15-2021,12:38,SPECI,Calm,,0.0,,,4800.0,Mist,-5.0,-5.0,29.44,998.6,10,,,,,,,,,,,,,,Clear,72000.0,,,,,,,,,
KRDR,12-15-2021,12:18,SPECI,Normal,140,4.0,,,6400.0,Mist,-3.0,-4.0,29.43,998.2,10,,,,,,,,,,,,,,Clear,72000.0,,,,,,,,,
KRDR,12-15-2021,12:13,SPECI,Normal,140,6.0,,,4800.0,Mist,-4.0,-4.0,29.43,998.2,10,,,,,,,,,,,,,,Clear,72000.0,,,,,,,,,
KRDR,12-15-2021,12:07,SPECI,Normal,150,6.0,,,4400.0,Mist,-4.0,-4.0,29.44,998.5,10,,,,,,,,,,,,,,Clear,72000.0,,,,,,,,,
KRDR,12-15-2021,11:28,SPECI,Normal,160,9.0,,,8000.0,Mist,-3.0,-4.0,29.45,998.9,10,,,,,,,,,,,,,,Clear,72000.0,,,,,,,,,
KRDR,12-15-2021,11:05,SPECI,Normal,150,7.0,,,4800.0,Mist,-3.0,-4.0,29.46,999.2,10,,,,,,,,,,,,,,,,600.0,SCT,600.0,,,,,,
KRDR,12-15-2021,11:02,SPECI,Normal,150,7.0,,,4400.0,Mist,-3.0,-4.0,29.46,999.2,10,,,,,,,,,,,,,,,600.0,600.0,BKN,600.0,,,,,,
KRDR,12-15-2021,11:00,SPECI,Normal,160,7.0,,,3600.0,Mist,-4.0,-4.0,29.46,999.2,10,,,,,,,,,,,,,,,600.0,600.0,BKN,600.0,,,,,,
KRDR,12-15-2021,10:57,SPECI,Normal,150,7.0,,,3000.0,Mist,-4.0,-4.0,29.46,999.2,10,,,,,,,,,,,,,,,600.0,600.0,BKN,600.0,,,,,,
KRDR,12-15-2021,10:56,METAR,Normal,150,6.0,,,3600.0,Mist,-3.5,-4.1,29.46,999.2,10,,,,,,,,,,,,,,,,600.0,SCT,600.0,,,,,,
KRDR,12-15-2021,10:56,SPECI,Normal,150,7.0,,,3000.0,Mist,-3.0,-4.0,29.46,999.2,10,,,,,,,,,,,,,,,600.0,600.0,BKN,600.0,,,,,,
KRDR,12-15-2021,10:41,SPECI,Normal,170,5.0,,,4000.0,Mist,-3.0,-4.0,29.48,999.9,10,,,,,,,,,,,,,,,700.0,700.0,OVC,700.0,,,,,,
KRDR,12-15-2021,10:35,SPECI,Normal,170,4.0,,,4000.0,Mist,-3.0,-4.0,29.48,999.9,10,,,,,,,,,,,,,,,800.0,800.0,OVC,800.0,,,,,,
KRDR,12-15-2021,09:56,METAR,Normal,170,4.0,,,6400.0,Mist,-3.6,-4.3,29.50,1000.6,10,,,,,,,,,,,,,,,800.0,800.0,OVC,800.0,,,,,,
KRDR,12-15-2021,09:28,SPECI,Normal,150,3.0,,,9999.0,,-1.0,-2.0,29.51,1000.8,,,,,,,,,,,,,,,,,900.0,SCT,900.0,,,,,,
KRDR,12-15-2021,09:26,SPECI,Normal,150,3.0,,,9999.0,,-1.0,-2.0,29.52,1001.1,,,,,,,,,,,,,,,,900.0,900.0,BKN,900.0,,,,,,
KRDR,12-15-2021,08:56,METAR,Normal,180,3.0,,,9999.0,,-1.5,-2.6,29.53,1001.4,,,,,,,,,,,,,,,,,700.0,SCT,700.0,,,,,,
KRDR,12-15-2021,08:45,SPECI,Normal,190,4.0,,,9999.0,,-1.0,-2.0,29.53,,,,,,,,,,,,,,,,,,700.0,FEW,700.0,,,,,,
KRDR,12-15-2021,07:56,METAR,Normal,170,6.0,,,9999.0,,-1.0,-2.3,29.54,,,,,,,,,,,,,,,,Clear,72000.0,,,,,,,,,
KRDR,12-15-2021,06:56,METAR,Normal,170,11.0,,,9999.0,,0.0,-1.4,29.54,,,,,,,,,,,,,,,,,,22000.0,SCT,22000.0,,,,,,
KRDR,12-15-2021,05:56,METAR,Normal,170,12.0,,,9999.0,,0.4,-1.2,29.57,1002.8,,,,,,,,,,,,,,,,,22000.0,SCT,22000.0,,,,,,
KRDR,12-15-2021,04:56,METAR,Normal,180,15.0,,,9999.0,,0.6,-1.0,29.59,,,,,,,,,,,,,,,,,,1000.0,SCT,1000.0,,,,,,
KRDR,12-15-2021,03:56,METAR,Normal,180,13.0,,,9999.0,,0.9,-1.0,29.61,,,,,,,,,,,,,,,,,1100.0,1100.0,OVC,1100.0,,,,,,
KRDR,12-15-2021,03:34,SPECI,Normal,180,15.0,,,9999.0,,1.0,-1.0,29.61,,,,,,,,,,,,,,,,,1100.0,1100.0,BKN,1100.0,,,,,,
KRDR,12-15-2021,03:17,SPECI,Normal,180,16.0,,,9999.0,,1.0,-1.0,29.61,,,,,,,,,,,,,,,,,,1100.0,FEW,1100.0,,,,,,
KRDR,12-15-2021,02:56,METAR,Normal,170,21.0,27.0,170/28KTS,9999.0,,1.3,-0.8,29.61,1004.2,,,,,,,,,,,,,,,,20000.0,20000.0,BKN,20000.0,,,,,,
KRDR,12-15-2021,01:56,METAR,Normal,170,18.0,,,9999.0,,1.4,-0.8,29.65,1005.6,,,,,,,,,,,,,,,,,20000.0,SCT,20000.0,,,,,,
KRDR,12-15-2021,00:56,METAR,Normal,160,19.0,,,9999.0,,1.3,-0.9,29.66,1005.9,,,,,,,,,,,,,,,,,20000.0,SCT,20000.0,,,,,,
KRDR,12-14-2021,23:56,METAR,Normal,160,16.0,,,9999.0,,1.4,-1.2,29.69,1007.0,,,,,,,,,,,,,,,,,20000.0,SCT,20000.0,,,,,,
KRDR,12-14-2021,22:56,METAR,Normal,160,14.0,,,9999.0,,1.5,-1.1,29.72,1008.0,,,,,,,,,,,,,,,,,20000.0,SCT,20000.0,,,,,,
KRDR,12-14-2021,21:56,METAR,Normal,160,17.0,23.0,,9999.0,,1.9,-1.0,29.73,1008.3,,,,,,,,,,,,,,,,20000.0,20000.0,BKN,20000.0,,,,,,
KRDR,12-14-2021,20:56,METAR,Normal,150,17.0,,,9999.0,,2.5,-0.9,29.75,1009.0,,,,,,,,,,,,,,,,20000.0,20000.0,BKN,20000.0,,,,,,
KRDR,12-14-2021,17:56,METAR,Normal,160,15.0,,130/27KTS,9999.0,,2.3,-1.9,29.84,1012.1,,,,,,,,,,,,,,,Clear,72000.0,,,,,,,,,
KRDR,12-14-2021,16:56,METAR,Normal,160,19.0,,,9999.0,,2.0,-2.0,29.89,1013.8,,,,,,,,,,,,,,,Clear,72000.0,,,,,,,,,
KRDR,12-14-2021,15:56,METAR,Normal,160,19.0,,,9999.0,,1.0,-3.0,29.89,,,,,,,,,,,,,,,,Clear,72000.0,,,,,,,,,
KRDR,12-14-2021,14:56,METAR,Normal,140,14.0,,,9999.0,,0.0,-4.0,29.91,1014.5,,,,,,,,,,,,,,,Clear,72000.0,,,,,,,,,
KRDR,12-14-2021,13:56,METAR,Normal,140,11.0,,,9999.0,,-1.0,-4.0,29.94,1015.7,,,,,,,,,,,,,,,Clear,72000.0,,,,,,,,,
KRDR,12-14-2021,12:56,METAR,Normal,150,12.0,,,9999.0,,-0.6,-4.1,29.96,1016.4,,,,,,,,,,,,,,,Clear,72000.0,,,,,,,,,
KRDR,12-14-2021,11:56,METAR,Normal,140,14.0,,,9999.0,,-0.4,-4.3,29.96,1016.3,,,,,,,,,,,,,,,,21000.0,21000.0,OVC,21000.0,,,,,,
KRDR,12-14-2021,10:56,METAR,Normal,130,11.0,,,9999.0,,-1.1,-5.3,29.99,1017.4,,,,,,,,,,,,,,,,22000.0,22000.0,BKN,22000.0,,,,,,
KRDR,12-14-2021,09:56,METAR,Normal,130,10.0,,,9999.0,,-1.5,-5.5,30.03,1018.7,,,,,,,,,,,,,,,Clear,72000.0,,,,,,,,,
KRDR,12-14-2021,08:56,METAR,Normal,140,5.0,,,9999.0,,-2.3,-5.1,30.08,1020.4,,,,,,,,,,,,,,,Clear,72000.0,,,,,,,,,
KRDR,12-14-2021,07:56,METAR,Normal,90,6.0,,,9999.0,,-3.0,-5.2,30.10,1021.1,,,,,,,,,,,,,,,,14000.0,14000.0,BKN,14000.0,,,,,,
KRDR,12-14-2021,06:56,METAR,Calm,,0.0,,,9999.0,,-5.5,-6.7,30.12,1021.9,,,,,,,,,,,,,,,,12000.0,12000.0,BKN,12000.0,,,,,,
KRDR,12-14-2021,05:56,METAR,Normal,100,4.0,,,9999.0,,-2.7,-4.7,30.15,1022.8,,,,,,,,,,,,,,,,13000.0,13000.0,OVC,13000.0,,,,,,
KRDR,12-14-2021,04:56,METAR,Normal,40,3.0,,,9999.0,,-3.2,-4.9,30.16,1023.2,,,,,,,,,,,,,,,,13000.0,13000.0,OVC,13000.0,,,,,,
KRDR,12-14-2021,03:56,METAR,Normal,110,4.0,,,9999.0,,-2.8,-5.0,30.16,1023.2,,,,,,,,,,,,,,,,10000.0,10000.0,BKN,10000.0,OVC,14000.0,,,,
KRDR,12-14-2021,02:56,METAR,Normal,40,4.0,,,9999.0,,-3.8,-5.2,30.17,1023.7,,,,,,,,,,,,,,,,10000.0,10000.0,OVC,10000.0,,,,,,
KRDR,12-14-2021,01:56,METAR,Normal,340,3.0,,,9999.0,,-4.4,-5.8,30.18,1024.1,,,,,,,,,,,,,,,,9500.0,9500.0,BKN,9600.0,OVC,11000.0,,,,
KRDR,12-14-2021,00:56,METAR,Calm,,0.0,,,9999.0,,-5.5,-6.9,30.20,1024.8,,,,,,,,,,,,,,,,12000.0,12000.0,OVC,12000.0,,,,,,
KRDR,12-13-2021,23:56,METAR,Normal,50,4.0,,,9999.0,,-4.0,-5.9,30.18,1024.1,,,,,,,,,,,,,,,,14000.0,11000.0,SCT,11000.0,OVC,14000.0,,,,
KRDR,12-13-2021,22:56,METAR,Normal,80,4.0,,,9999.0,,-3.3,-5.5,30.19,1024.4,,,,,,,,,,,,,,,,11000.0,11000.0,BKN,11000.0,OVC,14000.0,,,,
KRDR,12-13-2021,21:56,METAR,Normal,50,3.0,,,9999.0,,-2.4,-4.9,30.18,1024.0,,,,,,,,,,,,,,,,12000.0,12000.0,OVC,12000.0,,,,,,
KRDR,12-13-2021,20:56,METAR,Normal,20,7.0,,,9999.0,,-1.4,-4.6,30.16,1023.2,,,,,,,,,,,,,,,,16000.0,12000.0,FEW,12000.0,OVC,16000.0,,,,
KRDR,12-13-2021,19:56,METAR,Normal,30,4.0,,,9999.0,,-1.0,-4.7,30.15,1022.8,,,,,,,,,,,,,,,,18000.0,12000.0,SCT,12000.0,BKN,18000.0,BKN,20000.0,,
KRDR,12-13-2021,18:56,METAR,Normal,10,6.0,,,9999.0,,-1.0,-5.1,30.14,1022.5,,,,,,,,,,,,,,,,21000.0,11000.0,SCT,11000.0,SCT,13000.0,BKN,21000.0,,
KRDR,12-13-2021,17:56,METAR,Normal,10,7.0,,,9999.0,,-1.6,-5.3,30.13,1022.1,,,,,,,,,,,,,,,,,25000.0,SCT,25000.0,,,,,,
KRDR,12-13-2021,16:56,METAR,Normal,20,4.0,,,9999.0,,-4.0,-6.6,30.11,1021.5,,,,,,,,,,,,,,,,,15000.0,FEW,15000.0,FEW,25000.0,,,,
KRDR,12-13-2021,15:56,METAR,Normal,330,4.0,,,9999.0,,-3.8,-6.4,30.09,1020.8,,,,,,,,,,,,,,,Clear,72000.0,,,,,,,,,
KRDR,12-13-2021,14:56,METAR,Calm,,0.0,,,9999.0,,-6.6,-8.6,30.06,1019.8,,,,,,,,,,,,,,,Clear,72000.0,,,,,,,,,
KRDR,12-13-2021,13:56,METAR,Normal,300,5.0,,,9999.0,,-6.8,-8.6,30.02,1018.5,,,,,,,,,,,,,,,Clear,72000.0,,,,,,,,,
KRDR,12-13-2021,12:56,METAR,Normal,280,4.0,,,9999.0,,-7.0,-8.1,30.00,1017.8,,,,,,,,,,,,,,,Clear,72000.0,,,,,,,,,
KRDR,12-13-2021,11:56,METAR,Normal,280,4.0,,,9999.0,,-6.5,-7.7,29.94,1015.7,,,,,,,,,,,,,,,Clear,72000.0,,,,,,,,,
KRDR,12-13-2021,10:56,METAR,Normal,260,6.0,,,9999.0,,-6.5,-8.0,29.90,1014.3,,,,,,,,,,,,,,,Clear,72000.0,,,,,,,,,
KRDR,12-13-2021,09:56,METAR,Normal,160,4.0,,,9999.0,,-6.6,-8.4,29.86,1012.9,,,,,,,,,,,,,,,Clear,72000.0,,,,,,,,,
KRDR,12-13-2021,08:56,METAR,Normal,20,4.0,,,9999.0,,-4.9,-6.9,29.81,1011.1,,,,,,,,,,,,,,,Clear,72000.0,,,,,,,,,
KRDR,12-13-2021,07:56,METAR,Calm,,0.0,,,9999.0,,-2.9,-5.7,29.77,1009.7,,,,,,,,,,,,,,,Clear,72000.0,,,,,,,,,
KRDR,12-13-2021,06:56,METAR,Normal,220,6.0,,,9999.0,,-2.6,-5.6,29.74,1008.7,,,,,,,,,,,,,,,Clear,72000.0,,,,,,,,,
KRDR,12-13-2021,05:54,METAR,Normal,270,5.0,,,9999.0,,-2.3,-5.3,29.72,1007.9,,,,,,,,,,,,,,,Clear,72000.0,,,,,,,,,
KRDR,12-13-2021,04:56,METAR,Normal,230,8.0,,,9999.0,,-2.2,-5.0,29.69,1006.9,,,,,,,,,,,,,,,Clear,72000.0,,,,,,,,,
KRDR,12-13-2021,03:56,METAR,Normal,220,7.0,,,9999.0,,-0.4,-3.9,29.66,1005.8,,,,,,,,,,,,,,,Clear,72000.0,,,,,,,,,
KRDR,12-13-2021,02:55,METAR,Normal,230,6.0,,,9999.0,,0.4,-3.3,29.64,1005.2,,,,,,,,,,,,,,,Clear,72000.0,,,,,,,,,
KRDR,12-13-2021,01:56,METAR,Normal,210,6.0,,,9999.0,,-0.7,-3.2,29.62,1004.6,,,,,,,,,,,,,,,Clear,72000.0,,,,,,,,,
KRDR,12-13-2021,00:56,METAR,Normal,230,5.0,,,9999.0,,1.0,-2.0,29.62,,,,,,,,,,,,,,,,Clear,72000.0,,,,,,,,,
KRDR,12-12-2021,23:56,METAR,Normal,180,6.0,,,9999.0,,0.8,-2.1,29.58,1003.1,,,,,,,,,,,,,,,,,20000.0,FEW,20000.0,,,,,,
KRDR,12-12-2021,22:55,METAR,Normal,160,5.0,,,9999.0,,2.1,-1.5,29.57,1002.8,,,,,,,,,,,,,,,,12000.0,12000.0,BKN,12000.0,,,,,,
KRDR,12-12-2021,21:57,METAR,Normal,210,3.0,,,9999.0,,3.6,-1.8,29.57,1002.7,,,,,,,,,,,,,,,,13000.0,13000.0,BKN,13000.0,BKN,24000.0,,,,
KRDR,12-12-2021,20:55,METAR,Normal,180,4.0,,,9999.0,,3.7,-2.3,29.58,1003.1,,,,,,,,,,,,,,,,11000.0,11000.0,BKN,11000.0,BKN,16000.0,,,,
KRDR,12-12-2021,19:57,METAR,Normal,190,6.0,,,9999.0,,3.7,-2.5,29.58,1003.1,,,,,,,,,,,,,,,,12000.0,12000.0,BKN,12000.0,BKN,16000.0,,,,
KRDR,12-12-2021,18:56,METAR,Normal,240,7.0,,,9999.0,,2.9,-3.2,29.57,1002.8,,,,,,,,,,,,,,,,16000.0,16000.0,BKN,16000.0,BKN,20000.0,,,,
KRDR,12-12-2021,17:56,METAR,Normal,220,5.0,,,9999.0,,5.2,-3.4,29.57,1002.7,,,,,,,,,,,,,,,,17000.0,17000.0,BKN,17000.0,,,,,,
KRDR,12-12-2021,16:56,METAR,Normal,250,8.0,,,9999.0,,4.9,-3.6,29.55,1002.1,,,,,,,,,,,,,,,,17000.0,17000.0,OVC,17000.0,,,,,,
KRDR,12-12-2021,15:57,METAR,Normal,260,15.0,,,9999.0,,3.4,-4.6,29.54,1001.8,,,,,,,,,,,,,,,,,27000.0,FEW,27000.0,,,,,,
KRDR,12-12-2021,14:57,METAR,Normal,250,12.0,,,9999.0,,2.2,-5.0,29.52,1001.1,,,,,,,,,,,,,,,,,30000.0,FEW,30000.0,,,,,,
KRDR,12-12-2021,13:56,METAR,Normal,250,12.0,,,9999.0,,1.1,-5.4,29.50,1000.5,,,,,,,,,,,,,,,Clear,72000.0,,,,,,,,,
KRDR,12-12-2021,13:04,SPECI,Normal,240,12.0,18.0,,9999.0,,1.0,-6.0,29.48,999.9,,,,,,,,,,,,,,,Clear,72000.0,,,,,,,,,
KRDR,12-12-2021,12:56,METAR,Normal,240,13.0,,,9999.0,,0.3,-5.9,29.48,999.9,,,,,,,,,,,,,,,Clear,72000.0,,,,,,,,,
KRDR,12-12-2021,11:56,METAR,Normal,240,14.0,,,9999.0,,0.3,-5.7,29.48,999.9,,,,,,,,,,,,,,,Clear,,,,,,,,,,
KRDR,12-12-2021,10:56,METAR,Normal,240,16.0,,,9999.0,,0.3,-5.9,29.47,999.6,,,,,,,,,,,,,,,Clear,72000.0,,,,,,,,,
KRDR,12-12-2021,10:34,SPECI,Normal,240,17.0,21.0,,9999.0,,0.0,-6.0,29.47,999.6,,,,,,,,,,,,,,,Clear,72000.0,,,,,,,,,
KRDR,12-12-2021,09:56,METAR,Normal,240,15.0,,,9999.0,,0.5,-5.7,29.47,999.5,,,,,,,,,,,,,,,Clear,72000.0,,,,,,,,,
KRDR,12-12-2021,08:56,METAR,Normal,240,13.0,,,9999.0,,0.1,-5.9,29.46,999.2,,,,,,,,,,,,,,,Clear,72000.0,,,,,,,,,
KRDR,12-12-2021,07:56,METAR,Normal,240,15.0,22.0,,9999.0,,0.0,-6.0,29.45,998.9,,,,,,,,,,,,,,,Clear,72000.0,,,,,,,,,
KRDR,12-12-2021,07:39,SPECI,Normal,240,17.0,21.0,,9999.0,,0.0,-6.0,29.45,998.9,,,,,,,,,,,,,,,Clear,72000.0,,,,,,,,,
KRDR,12-12-2021,06:56,METAR,Normal,220,10.0,,,9999.0,,-0.7,-6.7,29.46,999.3,,,,,,,,,,,,,,,Clear,72000.0,,,,,,,,,
KRDR,12-12-2021,05:56,METAR,Normal,230,14.0,,,9999.0,,-0.5,-6.5,29.46,999.3,,,,,,,,,,,,,,,Clear,72000.0,,,,,,,,,
KRDR,12-12-2021,04:54,METAR,Normal,230,12.0,,,9999.0,,-0.9,-6.5,29.46,999.3,,,,,,,,,,,,,,,Clear,72000.0,,,,,,,,,
KRDR,12-12-2021,03:56,METAR,Normal,240,16.0,22.0,,9999.0,,-0.3,-6.3,29.47,999.7,,,,,,,,,,,,,,,Clear,72000.0,,,,,,,,,
KRDR,12-12-2021,02:56,METAR,Normal,240,15.0,,,9999.0,,-0.7,-6.3,29.47,,,,,,,,,,,,,,,,Clear,72000.0,,,,,,,,,
KRDR,12-12-2021,01:55,METAR,Normal,240,16.0,,,9999.0,,-1.3,-6.5,29.49,1000.7,,,,,,,,,,,,,,,Clear,72000.0,,,,,,,,,
KRDR,12-12-2021,00:56,METAR,Normal,230,8.0,,,9999.0,,-2.3,-7.0,29.50,1000.9,,,,,,,,,,,,,,,Clear,72000.0,,,,,,,,,
KRDR,12-11-2021,23:56,METAR,Normal,230,9.0,,,9999.0,,-2.5,-7.2,29.52,1001.7,,,,,,,,,,,,,,,Clear,72000.0,,,,,,,,,
KRDR,12-11-2021,22:56,METAR,Normal,220,7.0,,,9999.0,,-3.2,-7.7,29.52,1001.7,,,,,,,,,,,,,,,,,15000.0,FEW,15000.0,,,,,,
KRDR,12-11-2021,21:56,METAR,Normal,230,7.0,,,9999.0,,-2.4,-7.7,29.53,1002.0,,,,,,,,,,,,,,,,,15000.0,SCT,15000.0,,,,,,
KRDR,12-11-2021,20:56,METAR,Normal,250,12.0,,,9999.0,,-1.9,-7.8,29.53,1002.0,,,,,,,,,,,,,,,,,15000.0,FEW,15000.0,,,,,,
KRDR,12-11-2021,20:33,SPECI,Normal,240,9.0,,,9999.0,,-2.0,-8.0,29.54,1002.3,,,,,,,,,,,,,,,,,15000.0,FEW,15000.0,,,,,,
KRDR,12-11-2021,19:56,METAR,Normal,230,6.0,,,9999.0,,-1.6,-8.4,29.54,1002.2,,,,,,,,,,,,,,,,,12000.0,FEW,12000.0,,,,,,
KRDR,12-11-2021,18:55,METAR,Normal,260,9.0,,,9999.0,,-2.6,-9.1,29.56,1002.9,,,,,,,,,,,,,,,,,10000.0,FEW,10000.0,,,,,,
KRDR,12-11-2021,17:56,METAR,Normal,250,10.0,,,9999.0,,-4.0,-9.6,29.58,1003.8,,,,,,,,,,,,,,,,,27000.0,FEW,27000.0,,,,,,
KRDR,12-11-2021,16:56,METAR,Normal,260,12.0,19.0,,9999.0,,-4.4,-10.2,29.59,1004.0,,,,,,,,,,,,,,,Clear,72000.0,,,,,,,,,
KRDR,12-11-2021,15:56,METAR,Normal,250,10.0,,,9999.0,,-6.0,-11.2,29.59,1004.0,,,,,,,,,,,,,,,Clear,72000.0,,,,,,,,,
KRDR,12-11-2021,14:57,METAR,Normal,250,6.0,,,9999.0,,-9.0,-13.0,29.60,,,,,,,,,,,,,,,,Clear,72000.0,,,,,,,,,
KRDR,12-11-2021,13:56,METAR,Normal,210,4.0,,,9999.0,,-12.1,-15.7,29.61,1005.1,,,,,,,,,,,,,,,Clear,72000.0,,,,,,,,,
KRDR,12-11-2021,12:56,METAR,Normal,260,7.0,,,9999.0,,-10.8,-14.9,29.62,1005.4,,,,,,,,,,,,,,,Clear,72000.0,,,,,,,,,
KRDR,12-11-2021,11:56,METAR,Normal,260,3.0,,,9999.0,,-12.2,-14.8,29.63,1005.7,,,,,,,,,,,,,,,Clear,72000.0,,,,,,,,,
KRDR,12-11-2021,10:56,METAR,Normal,280,6.0,,,9999.0,,-10.3,-13.6,29.64,1006.0,,,,,,,,,,,,,,,Clear,72000.0,,,,,,,,,
KRDR,12-11-2021,09:56,METAR,Normal,280,5.0,,,9999.0,,-12.0,-14.5,29.65,1006.3,,,,,,,,,,,,,,,Clear,72000.0,,,,,,,,,
KRDR,12-11-2021,08:56,METAR,Calm,,0.0,,,9999.0,,-10.8,-12.9,29.66,1006.6,,,,,,,,,,,,,,,Clear,72000.0,,,,,,,,,
KRDR,12-11-2021,07:56,METAR,Normal,290,6.0,,,9999.0,,-8.9,-12.2,29.66,1006.5,,,,,,,,,,,,,,,Clear,72000.0,,,,,,,,,
KRDR,12-11-2021,06:56,METAR,Normal,290,6.0,,,9999.0,,-6.9,-10.9,29.67,1006.8,,,,,,,,,,,,,,,Clear,72000.0,,,,,,,,,
KRDR,12-11-2021,05:56,METAR,Calm,,0.0,,,9999.0,,-9.3,-11.8,29.69,1007.6,,,,,,,,,,,,,,,Clear,72000.0,,,,,,,,,
KRDR,12-11-2021,04:56,METAR,Normal,310,4.0,,,9999.0,,-7.6,-10.5,29.70,1007.9,,,,,,,,,,,,,,,Clear,72000.0,,,,,,,,,
KRDR,12-11-2021,03:56,METAR,Normal,250,3.0,,,9999.0,,-7.0,-10.2,29.72,1008.7,,,,,,,,,,,,,,,Clear,72000.0,,,,,,,,,
KRDR,12-11-2021,02:56,METAR,Calm,,0.0,,,9999.0,,-7.0,-10.7,29.72,1008.8,,,,,,,,,,,,,,,Clear,72000.0,,,,,,,,,
KRDR,12-11-2021,01:56,METAR,Normal,290,3.0,,,9999.0,,-9.3,-12.1,29.73,1009.2,,,,,,,,,,,,,,,Clear,72000.0,,,,,,,,,
KRDR,12-11-2021,00:56,METAR,Normal,310,3.0,,,9999.0,,-10.2,-13.0,29.74,1009.6,,,,,,,,,,,,,,,,,18000.0,FEW,18000.0,,,,,,
KRDR,12-10-2021,23:56,METAR,Normal,220,5.0,,,9999.0,,-7.5,-11.4,29.75,1009.8,,,,,,,,,,,,,,,,,18000.0,SCT,18000.0,,,,,,
KRDR,12-10-2021,22:56,METAR,Normal,210,5.0,,,9999.0,,-7.5,-10.2,29.76,1010.1,,,,,,,,,,,,,,,Clear,72000.0,,,,,,,,,
KRDR,12-10-2021,21:56,METAR,Normal,150,7.0,,,9999.0,,-6.4,-9.8,29.75,1009.6,,,,,,,,,,,,,,,,,18000.0,SCT,18000.0,,,,,,
KRDR,12-10-2021,20:56,METAR,Normal,170,5.0,,,9999.0,,-5.7,-9.4,29.77,1010.2,,,,,,,,,,,,,,,,20000.0,20000.0,BKN,20000.0,,,,,,
KRDR,12-10-2021,19:56,METAR,Normal,170,8.0,,,9999.0,,-5.5,-9.2,29.78,1010.6,,,,,,,,,,,,,,,,19000.0,16000.0,SCT,16000.0,BKN,19000.0,,,,
KRDR,12-10-2021,18:56,METAR,Normal,180,6.0,,,9999.0,,-6.4,-10.1,29.80,1011.3,,,,,,,,,,,,,,,,18000.0,15000.0,SCT,15000.0,BKN,18000.0,,,,
KRDR,12-10-2021,17:56,METAR,Normal,170,9.0,,,9999.0,,-7.8,-11.3,29.81,1011.8,,,,,,,,,,,,,,,,19000.0,19000.0,BKN,19000.0,,,,,,
KRDR,12-10-2021,16:56,METAR,Normal,160,6.0,,,9999.0,,-8.5,-11.8,29.83,1012.4,,,,,,,,,,,,,,,,,17000.0,FEW,17000.0,,,,,,
KRDR,12-10-2021,15:56,METAR,Normal,150,7.0,,,9999.0,,-11.1,-13.7,29.83,1012.4,,,,,,,,,,,,,,,,,16000.0,FEW,16000.0,SCT,19000.0,,,,
KRDR,12-10-2021,14:56,METAR,Normal,160,5.0,,,9999.0,,-13.7,-15.9,29.81,1011.8,,,,,,,,,,,,,,,,15000.0,15000.0,BKN,15000.0,,,,,,
KRDR,12-10-2021,13:56,METAR,Normal,210,6.0,,,9999.0,,-13.2,-15.2,29.80,1011.4,,,,,,,,,,,,,,,,25000.0,25000.0,BKN,25000.0,,,,,,
KRDR,12-10-2021,12:56,METAR,Normal,170,6.0,,,9999.0,,-14.1,-16.4,29.80,1011.5,,,,,,,,,,,,,,,Clear,72000.0,,,,,,,,,
KRDR,12-10-2021,11:56,METAR,Calm,,0.0,,,9999.0,,-12.9,-15.2,29.79,1011.1,,,,,,,,,,,,,,,Clear,72000.0,,,,,,,,,
KRDR,12-10-2021,10:56,METAR,Normal,210,4.0,,,9999.0,,-11.6,-13.8,29.79,1011.0,,,,,,,,,,,,,,,Clear,72000.0,,,,,,,,,
KRDR,12-10-2021,09:56,METAR,Normal,270,4.0,,,9999.0,,-9.3,-12.0,29.78,1010.4,,,,,,,,,,,,,,,Clear,72000.0,,,,,,,,,
KRDR,12-10-2021,08:56,METAR,Normal,260,7.0,,,9999.0,,-6.9,-11.1,29.77,1010.0,,,,,,,,,,,,,,,Clear,72000.0,,,,,,,,,
KRDR,12-10-2021,07:56,METAR,Normal,210,6.0,,,9999.0,,-8.4,-12.1,29.76,1009.7,,,,,,,,,,,,,,,Clear,72000.0,,,,,,,,,
KRDR,12-10-2021,06:56,METAR,Normal,220,6.0,,,9999.0,,-7.5,-11.2,29.76,1009.6,,,,,,,,,,,,,,,Clear,72000.0,,,,,,,,,
KRDR,12-10-2021,05:56,METAR,Normal,190,7.0,,,9999.0,,-10.0,-13.0,29.76,1009.7,,,,,,,,,,,,,,,Clear,72000.0,,,,,,,,,
KRDR,12-10-2021,04:56,METAR,Normal,230,6.0,,,9999.0,,-7.5,-11.4,29.76,1009.7,,,,,,,,,,,,,,,Clear,72000.0,,,,,,,,,
KRDR,12-10-2021,03:56,METAR,Normal,240,9.0,,,9999.0,,-6.5,-10.6,29.75,1009.2,,,,,,,,,,,,,,,Clear,72000.0,,,,,,,,,
KRDR,12-10-2021,02:56,METAR,Normal,240,8.0,,,9999.0,,-7.0,-10.4,29.73,1008.6,,,,,,,,,,,,,,,Clear,72000.0,,,,,,,,,
KRDR,12-10-2021,01:56,METAR,Normal,260,12.0,,,9999.0,,-4.7,-8.6,29.73,1008.6,,,,,,,,,,,,,,,Clear,72000.0,,,,,,,,,
KRDR,12-10-2021,00:56,METAR,Normal,290,6.0,,,9999.0,,-5.6,-9.2,29.71,1008.0,,,,,,,,,,,,,,,Clear,72000.0,,,,,,,,,
KRDR,12-09-2021,23:56,METAR,Normal,300,8.0,,,9999.0,,-4.5,-7.9,29.70,1007.6,,,,,,,,,,,,,,,Clear,72000.0,,,,,,,,,
KRDR,12-09-2021,22:56,METAR,Normal,280,11.0,,,9999.0,,-3.5,-7.5,29.66,1006.3,,,,,,,,,,,,,,,Clear,72000.0,,,,,,,,,
KRDR,12-09-2021,21:56,METAR,Normal,290,12.0,,,9999.0,,-1.9,-6.3,29.62,1004.8,,,,,,,,,,,,,,,Clear,72000.0,,,,,,,,,
KRDR,12-09-2021,20:56,METAR,Normal,300,15.0,20.0,,9999.0,,-0.6,-5.2,29.59,1003.8,,,,,,,,,,,,,,,,,5000.0,FEW,5000.0,,,,,,
KRDR,12-09-2021,19:56,METAR,Normal,290,17.0,21.0,,9999.0,,0.3,-4.3,29.54,1002.1,,,,,,,,,,,,,,,,3500.0,3500.0,BKN,3500.0,,,,,,
KRDR,12-09-2021,18:56,METAR,Normal,280,14.0,,,9999.0,,0.7,-3.2,29.53,1001.7,,,,,,,,,,,,,,,,,4000.0,FEW,4000.0,SCT,13000.0,,,,
KRDR,12-09-2021,17:56,METAR,Normal,280,13.0,,,9999.0,,0.0,-4.4,29.51,1001.1,,,,,,,,,,,,,,,Clear,72000.0,,,,,,,,,
KRDR,12-09-2021,17:02,SPECI,Normal,310,15.0,21.0,,9999.0,,0.0,-5.0,29.49,1000.4,,,,,,,,,,,,,,,,4300.0,4300.0,BKN,4300.0,,,,,,
KRDR,12-09-2021,16:56,METAR,Normal,310,14.0,,,9999.0,,-0.5,-5.3,29.49,1000.4,,,,,,,,,,,,,,,,,4300.0,SCT,4300.0,,,,,,
KRDR,12-09-2021,16:21,SPECI,Normal,300,17.0,21.0,,9999.0,,0.0,-4.0,29.48,1000.0,,,,,,,,,,,,,,,,,2000.0,SCT,2000.0,SCT,2600.0,,,,
KRDR,12-09-2021,16:18,SPECI,Normal,300,14.0,21.0,,9999.0,,0.0,-4.0,29.47,999.7,,,,,,,,,,,,,,,,2000.0,2000.0,SCT,2000.0,BKN,2600.0,,,,
KRDR,12-09-2021,16:15,SPECI,Normal,290,15.0,20.0,,9999.0,,0.0,-3.0,29.47,999.7,,,,,,,,,,,,,,,,2000.0,2000.0,BKN,2000.0,BKN,2500.0,,,,
KRDR,12-09-2021,15:56,METAR,Normal,260,6.0,,,9999.0,,-0.2,-2.7,29.46,999.3,,,,,,,,,,,,,,,,2200.0,1600.0,FEW,1600.0,OVC,2200.0,,,,
KRDR,12-09-2021,15:54,SPECI,Normal,270,6.0,,,9999.0,,0.0,-3.0,29.46,999.3,,,,,,,,,,,,,,,,1600.0,1600.0,SCT,1600.0,OVC,2200.0,,,,
KRDR,12-09-2021,15:09,SPECI,Normal,270,6.0,,,9999.0,,-1.0,-4.0,29.44,998.7,,,,,,,,,,,,,,,,1600.0,1600.0,OVC,1600.0,,,,,,
KRDR,12-09-2021,14:56,METAR,Normal,260,8.0,,,9999.0,,-2.1,-4.4,29.43,998.4,,,,,,,,,,,,,,,,1300.0,1300.0,OVC,1300.0,,,,,,
KRDR,12-09-2021,14:36,SPECI,Normal,250,11.0,,,9999.0,,-3.0,-5.0,29.43,998.4,,,,,,,,,,,,,,,,1300.0,1300.0,OVC,1300.0,,,,,,
KRDR,12-09-2021,14:22,SPECI,Normal,250,9.0,,,9999.0,,-3.0,-6.0,29.42,998.1,,,,,,,,,,,,,,,,1500.0,1500.0,OVC,1500.0,,,,,,
KRDR,12-09-2021,13:56,METAR,Normal,230,8.0,,,9999.0,,-4.1,-6.7,29.42,998.1,,,,,,,,,,,,,,,,1800.0,1800.0,OVC,1800.0,,,,,,
KRDR,12-09-2021,13:46,SPECI,Normal,220,12.0,,,9999.0,,-4.0,-7.0,29.42,998.1,,,,,,,,,,,,,,,,1800.0,1800.0,OVC,1800.0,,,,,,
KRDR,12-09-2021,13:30,SPECI,Normal,210,11.0,,,9999.0,,-4.0,-7.0,29.41,997.8,,,,,,,,,,,,,,,,2000.0,2000.0,BKN,2000.0,OVC,9100.0,,,,
KRDR,12-09-2021,12:56,METAR,Normal,200,12.0,,,9999.0,,-4.4,-7.2,29.39,997.1,,,,,,,,,,,,,,,,9000.0,9000.0,BKN,9100.0,OVC,12000.0,,,,
KRDR,12-09-2021,11:56,METAR,Normal,190,13.0,,,9999.0,,-4.4,-7.3,29.38,996.8,,,,,,,,,,,,,TRACE,,,7000.0,7000.0,BKN,7000.0,OVC,10000.0,,,,
KRDR,12-09-2021,10:56,METAR,Normal,190,17.0,,,9999.0,,-4.4,-7.3,29.38,996.8,,,,,,,,,,,TRACE,,,,,6000.0,6000.0,BKN,6000.0,OVC,10000.0,,,,
KRDR,12-09-2021,10:20,SPECI,Normal,190,14.0,,,9999.0,,-4.0,-7.0,29.38,996.8,,,,,,,,,,,,,,,,10000.0,10000.0,OVC,10000.0,,,,,,
KRDR,12-09-2021,09:56,METAR,Normal,180,19.0,25.0,170/27KTS,,Light Freezing Drizzle,-4.5,-7.4,,996.5,54,,,,,,,,,,TRACE,,,,,,,,,,,,,,
KRDR,12-09-2021,09:53,SPECI,Normal,180,19.0,25.0,,,Light Freezing Drizzle,,,,996.5,54,,,,,,,,,,,,,,,,,,,,,,,,
KRDR,12-09-2021,09:40,SPECI,Normal,190,17.0,,,9999.0,,-5.0,-7.0,29.39,997.3,,,,,,,,,,,,,,,,6000.0,6000.0,BKN,6000.0,BKN,7500.0,BKN,10000.0,OVC,12000.0
KRDR,12-09-2021,08:56,METAR,Normal,180,15.0,,170/28KTS,9999.0,,-4.8,-7.6,29.39,997.3,,,,,,,,,,,,,,,,7500.0,7500.0,BKN,7500.0,OVC,9600.0,,,,
KRDR,12-09-2021,07:56,METAR,Normal,170,20.0,26.0,150/28KTS,9999.0,,-5.2,-8.0,29.38,997.0,,,,,,,,,,,,,,,,12000.0,10000.0,SCT,10000.0,BKN,12000.0,OVC,16000.0,,
KRDR,12-09-2021,06:56,METAR,Normal,170,21.0,,150/28KTS,9999.0,,-5.7,-8.3,29.41,998.2,,,,,,,,,,,,,,,,12000.0,9000.0,FEW,9100.0,OVC,12000.0,,,,
KRDR,12-09-2021,05:56,METAR,Normal,170,20.0,,140/28KTS,9999.0,,-5.9,-8.3,29.45,999.6,,,,,,,,,,,TRACE,,TRACE,,,11000.0,900.0,FEW,900.0,OVC,11000.0,,,,
KRDR,12-09-2021,04:56,METAR,Normal,170,23.0,29.0,150/34KTS,9999.0,,-5.8,-7.9,29.45,999.6,,,,,,,,,,,TRACE,,,,,700.0,700.0,BKN,700.0,OVC,11000.0,,,,
KRDR,12-09-2021,03:56,METAR,Normal,170,19.0,,170/31KTS,9999.0,,-5.7,-8.0,29.49,1001.1,,,,,,,,,,,TRACE,,,,,900.0,900.0,BKN,900.0,OVC,9600.0,,,,
KRDR,12-09-2021,02:58,METAR,Normal,170,21.0,28.0,,9999.0,Light Snow,-5.8,-8.4,29.52,1002.2,,,,71,,,,,,,TRACE,TRACE,,,,10000.0,10000.0,OVC,10000.0,,,,,,
KRDR,12-09-2021,01:59,METAR,Normal,160,18.0,,140/28KTS,9999.0,,-6.0,-8.7,29.55,1003.3,,,,,,,,,,,TRACE,,TRACE,,,10000.0,10000.0,OVC,10000.0,,,,,,
KRDR,12-09-2021,00:55,METAR,Normal,160,22.0,27.0,140/27KTS,9999.0,Light Snow,-6.3,-9.0,29.58,1004.3,,,,71,,,,,,,TRACE,,,,,8000.0,8000.0,BKN,8000.0,OVC,10000.0,,,,
KRDR,12-08-2021,23:59,METAR,Normal,160,19.0,26.0,170/26KTS,9999.0,,-6.6,-9.2,29.62,1005.7,,,,,,,,,,,,,,,,5500.0,5500.0,BKN,5500.0,OVC,6500.0,,,,
KRDR,12-08-2021,22:55,METAR,Normal,150,15.0,,,9999.0,,-7.5,-9.8,29.66,1007.1,,,,,,,,,,,,,,,,600.0,600.0,OVC,600.0,,,,,,
KRDR,12-08-2021,21:56,METAR,Normal,140,13.0,,,9999.0,,-8.9,-10.8,29.68,1007.8,,,,,,,,,,,,,,,,5500.0,5500.0,OVC,5500.0,,,,,,
KRDR,12-08-2021,21:40,SPECI,Normal,140,11.0,,,9999.0,,-9.0,-11.0,29.69,,,,,,,,,,,,,,,,,6000.0,6000.0,BKN,6000.0,OVC,7500.0,,,,
KRDR,12-08-2021,20:56,METAR,Normal,150,12.0,,,6400.0,Light Snow/Mist,-10.5,-12.4,29.73,1009.5,71,10,,,,,,,,,TRACE,TRACE,,,,5000.0,300.0,SCT,300.0,OVC,5000.0,,,,
KRDR,12-08-2021,20:35,SPECI,Normal,140,12.0,,,8000.0,Light Snow,-11.0,-13.0,29.74,1009.8,,,,71,,,,,,,,,,,,5000.0,700.0,SCT,700.0,SCT,2200.0,OVC,5000.0,,
KRDR,12-08-2021,19:54,METAR,Normal,150,8.0,,,4000.0,Light Snow/Mist,-12.0,-13.8,29.78,1011.2,,,,71,10,,,,,,TRACE,,,,,300.0,300.0,BKN,300.0,OVC,3200.0,,,,
KRDR,12-08-2021,18:59,METAR,Normal,160,7.0,,,9999.0,Light Snow,-13.9,-15.8,29.83,1012.9,,,,71,,,,,,,,,,,,4000.0,300.0,FEW,300.0,FEW,2200.0,OVC,4000.0,,
KRDR,12-08-2021,17:57,METAR,Normal,170,6.0,,,9999.0,Mist,-15.3,-17.3,29.86,1013.8,10,,,,,,,,,,,,,,,12000.0,200.0,SCT,200.0,BKN,12000.0,OVC,16000.0,,
KRDR,12-08-2021,16:56,METAR,Normal,120,3.0,,,9999.0,Mist,-16.1,-18.2,29.86,1013.7,10,,,,,,,,,,,,,,,14000.0,300.0,SCT,300.0,BKN,14000.0,BKN,18000.0,,
KRDR,12-08-2021,16:48,SPECI,Normal,140,4.0,,,9999.0,Mist,-16.0,-18.0,29.87,1014.1,10,,,,,,,,,,,,,,,300.0,300.0,SCT,300.0,BKN,16000.0,BKN,18000.0,,
KRDR,12-08-2021,15:55,METAR,Normal,220,3.0,,,9999.0,,-17.5,-19.7,29.91,1015.4,,,,,,,,,,,,,,,,16000.0,400.0,SCT,400.0,OVC,16000.0,,,,
KRDR,12-08-2021,15:42,SPECI,Calm,,0.0,,,9999.0,,-18.0,-20.0,29.90,1015.2,,,,,,,,,,,,,,,,21000.0,400.0,SCT,400.0,OVC,21000.0,,,,
KRDR,12-08-2021,14:56,METAR,Calm,,0.0,,,9999.0,,-20.9,-23.2,29.92,1016.0,,,,,,,,,,,,,,,,400.0,400.0,BKN,400.0,,,,,,
KRDR,12-08-2021,14:49,SPECI,Normal,240,3.0,,,9999.0,,-21.0,-24.0,29.92,1016.0,,,,,,,,,,,,,,,,400.0,400.0,BKN,400.0,,,,,,
KRDR,12-08-2021,13:56,METAR,Calm,,0.0,,,9999.0,,-21.8,-24.5,29.91,1015.7,,,,,,,,,,,,,,,Clear,72000.0,,,,,,,,,
KRDR,12-08-2021,12:56,METAR,Calm,,0.0,,,9999.0,,-21.8,-24.3,29.93,1016.5,,,,,,,,,,,,,,,Clear,72000.0,,,,,,,,,
KRDR,12-08-2021,11:56,METAR,Normal,340,4.0,,,9999.0,,-20.9,-23.2,29.91,1015.8,,,,,,,,,,,,,,TRACE,Clear,72000.0,,,,,,,,,
KRDR,12-08-2021,10:56,METAR,Normal,320,4.0,,,9999.0,,-20.2,-22.7,29.92,1016.1,,,,,,,,,,,,,,,Clear,72000.0,,,,,,,,,
KRDR,12-08-2021,09:56,METAR,Normal,310,4.0,,,9999.0,,-19.5,-21.6,29.91,1015.7,,,,,,,,,,,,,,,Clear,72000.0,,,,,,,,,
KRDR,12-08-2021,09:17,SPECI,Normal,330,4.0,,,9999.0,,-18.0,-20.0,29.91,1015.6,,,,,,,,,,,,,,,,,600.0,FEW,600.0,,,,,,
KRDR,12-08-2021,08:59,SPECI,Normal,330,4.0,,,9999.0,,-18.0,-20.0,29.91,1015.6,,,,,,,,,,,,,,,,600.0,600.0,BKN,600.0,,,,,,
KRDR,12-08-2021,08:56,METAR,Normal,320,5.0,,,9999.0,,-17.9,-20.0,29.91,1015.6,,,,,,,,,,,,,,,,700.0,700.0,OVC,700.0,,,,,,
KRDR,12-08-2021,08:49,SPECI,Normal,330,5.0,,,9999.0,,-17.0,-19.0,29.91,1015.6,,,,,,,,,,,,,,,,700.0,700.0,OVC,700.0,,,,,,
KRDR,12-08-2021,08:37,SPECI,Normal,330,4.0,,,9999.0,,-17.0,-19.0,29.90,1015.3,,,,,,,,,,,,,,,,800.0,800.0,BKN,800.0,,,,,,
KRDR,12-08-2021,08:22,SPECI,Normal,320,4.0,,,9999.0,,-16.0,-18.0,29.90,1015.2,,,,,,,,,,,,,,,,,900.0,FEW,900.0,,,,,,
KRDR,12-08-2021,07:56,METAR,Normal,320,6.0,,,9999.0,,-15.2,-17.2,29.89,1014.8,,,,,,,,,,,,,,,Clear,72000.0,,,,,,,,,
KRDR,12-08-2021,06:56,METAR,Normal,310,7.0,,,9999.0,,-13.3,-15.6,29.88,1014.5,,,,,,,,,,,,,,,,,2300.0,FEW,2300.0,,,,,,
KRDR,12-08-2021,06:24,SPECI,Normal,300,7.0,,,9999.0,,-12.0,-15.0,29.88,1014.4,,,,,,,,,,,,,,,,,2100.0,SCT,2100.0,,,,,,
KRDR,12-08-2021,05:56,METAR,Normal,310,6.0,,,9999.0,,-11.4,-14.2,29.88,1014.4,,,,,,,,,,,TRACE,,TRACE,,,1800.0,1800.0,BKN,1800.0,,,,,,
KRDR,12-08-2021,04:57,METAR,Normal,310,7.0,,,9999.0,,-8.0,-11.3,29.87,1014.2,,,,,,,,,,,TRACE,,,,,1700.0,900.0,FEW,900.0,BKN,1700.0,OVC,2200.0,,
KRDR,12-08-2021,03:54,METAR,Normal,250,5.0,,,9999.0,Light Snow,-8.0,-10.5,29.86,1013.9,,,,71,,,,,,,TRACE,,,,,1700.0,1700.0,BKN,1700.0,OVC,2300.0,,,,
KRDR,12-08-2021,02:57,METAR,Normal,220,8.0,,,9999.0,Light Snow,-8.5,-11.0,29.86,1014.0,,,,71,,,,,,,,TRACE,,,,2700.0,1600.0,FEW,1600.0,OVC,2700.0,,,,
KRDR,12-08-2021,01:58,METAR,Normal,220,9.0,,,9999.0,Light Snow,-8.9,-11.4,29.86,1014.1,,,,71,,,,,,,TRACE,,,,,1800.0,1700.0,SCT,1700.0,OVC,2400.0,,,,
KRDR,12-08-2021,01:34,SPECI,Normal,210,9.0,,,9999.0,Light Snow,-9.0,-11.0,29.86,1014.1,,,,71,,,,,,,,,,,,2200.0,2200.0,BKN,2200.0,OVC,2900.0,,,,
KRDR,12-08-2021,00:56,METAR,Normal,210,7.0,,,9999.0,,-9.3,-11.8,29.87,1014.4,,,,,,,,,,,TRACE,,,,,2000.0,2300.0,BKN,2300.0,OVC,3000.0,,,,
KRDR,12-08-2021,00:47,SPECI,Normal,210,7.0,,,9999.0,,-9.0,-12.0,29.87,1014.4,,,,,,,,,,,,,,,,2000.0,2000.0,BKN,2000.0,OVC,2800.0,,,,
KRDR,12-08-2021,00:34,SPECI,Normal,210,7.0,,,9999.0,Light Snow,-10.0,-12.0,29.86,1014.2,71,,,,,,,,,,,,,,,2400.0,1700.0,FEW,1700.0,BKN,2400.0,OVC,3000.0,,
KRDR,12-08-2021,00:23,SPECI,Normal,210,8.0,,,9999.0,,-10.0,-12.0,29.87,1014.5,,,,,,,,,,,,,,,,2400.0,1500.0,FEW,1500.0,BKN,2400.0,OVC,3100.0,,
KRDR,12-08-2021,00:14,SPECI,Normal,210,9.0,,,9999.0,Light Snow,-10.0,-13.0,29.87,1014.4,71,,,,,,,,,,,,,,,2400.0,1700.0,FEW,1700.0,BKN,2400.0,OVC,3100.0,,
KRDR,12-07-2021,23:56,METAR,Normal,220,8.0,,,9999.0,Light Snow,-10.3,-12.8,29.87,1014.4,71,,,,,,,,,,TRACE,,TRACE,,,1300.0,700.0,FEW,700.0,SCT,1300.0,OVC,2300.0,,
KRDR,12-07-2021,23:32,SPECI,Normal,220,8.0,,,9999.0,Light Snow,-11.0,-13.0,29.88,1014.8,71,,,,,,,,,,,,,,,1200.0,1200.0,BKN,1200.0,OVC,2400.0,,,,
KRDR,12-07-2021,23:22,SPECI,Normal,210,8.0,,,9999.0,,-11.0,-13.0,29.88,1014.8,,,,,,,,,,,,,,,,2100.0,1100.0,FEW,1100.0,BKN,2100.0,OVC,2600.0,,
KRDR,12-07-2021,22:54,METAR,Normal,190,8.0,,,9999.0,,-11.3,-13.8,29.88,1014.8,,,,,,,,,,,,,,,,2400.0,1500.0,SCT,1500.0,BKN,2400.0,OVC,2900.0,,
KRDR,12-07-2021,22:26,SPECI,Normal,190,7.0,,,9999.0,,-11.0,-14.0,29.88,1014.8,,,,,,,,,,,,,,,,1700.0,1700.0,SCT,1700.0,OVC,2400.0,,,,
KRDR,12-07-2021,22:06,SPECI,Normal,190,6.0,,,9999.0,,-11.0,-14.0,29.88,1014.8,,,,,,,,,,,,,,,,1700.0,1700.0,BKN,1700.0,OVC,2200.0,,,,
KRDR,12-07-2021,21:56,METAR,Normal,180,6.0,,,9999.0,,-11.3,-13.9,29.88,1014.8,,,,,,,,,,,,,,,,2100.0,2100.0,BKN,2100.0,OVC,3100.0,,,,
KRDR,12-07-2021,20:56,METAR,Normal,170,5.0,,,9999.0,,-10.5,-13.5,29.89,1015.0,,,,,,,,,,,,,,,,5500.0,4200.0,SCT,4200.0,OVC,5500.0,,,,
KRDR,12-07-2021,19:57,METAR,Normal,170,7.0,,,9999.0,,-11.8,-14.7,29.90,1015.4,,,,,,,,,,,.8 IN,,,,,4300.0,4300.0,BKN,4300.0,OVC,5000.0,,,,
KRDR,12-07-2021,18:59,METAR,Normal,160,7.0,,,9999.0,,-12.5,-15.4,29.94,1016.8,,,,,,,,,,,,,,,,5500.0,4800.0,SCT,4800.0,OVC,5500.0,,,,
KRDR,12-07-2021,17:56,METAR,Normal,170,5.0,,,9999.0,,-15.0,-17.1,29.97,1017.9,,,,,,,,,,,,,,,,6000.0,6000.0,BKN,6000.0,,,,,,
KRDR,12-07-2021,16:55,METAR,Normal,170,3.0,,,9999.0,,-17.2,-19.4,30.00,1019.0,,,,,,,,,,,,,,,Clear,72000.0,,,,,,,,,
KRDR,12-07-2021,15:55,METAR,Normal,200,4.0,,,9999.0,,-20.1,-22.6,30.01,1019.5,,,,,,,,,,,,,,,Clear,72000.0,,,,,,,,,
KRDR,12-07-2021,14:56,METAR,Normal,210,3.0,,,9999.0,,-21.5,-24.1,30.01,1019.6,,,,,,,,,,,,,,,Clear,72000.0,,,,,,,,,
KRDR,12-07-2021,13:55,METAR,Normal,220,3.0,,,9999.0,,-23.2,-25.9,30.01,1019.7,,,,,,,,,,,,,,,Clear,72000.0,,,,,,,,,
KRDR,12-07-2021,12:56,METAR,Normal,220,5.0,,,9999.0,,-23.8,-26.5,30.02,1020.2,,,,,,,,,,,,,,,Clear,72000.0,,,,,,,,,
KRDR,12-07-2021,11:56,METAR,Normal,170,3.0,,,9999.0,,-22.3,-24.9,30.04,1020.8,,,,,,,,,,,,,,,Clear,72000.0,,,,,,,,,
KRDR,12-07-2021,10:56,METAR,Calm,,0.0,,,9999.0,,-21.3,-23.6,30.04,1020.7,,,,,,,,,,,,,,,Clear,72000.0,,,,,,,,,
KRDR,12-07-2021,09:56,METAR,Normal,210,5.0,,,9999.0,,-21.3,-23.8,30.05,1020.8,,,,,,,,,,,,,,,Clear,72000.0,,,,,,,,,
KRDR,12-07-2021,08:56,METAR,Normal,160,6.0,,,9999.0,,-19.8,-22.4,30.08,1021.9,,,,,,,,,,,,,,,,,15000.0,FEW,15000.0,,,,,,
KRDR,12-07-2021,07:56,METAR,Normal,150,6.0,,,9999.0,,-19.0,-21.6,30.08,1021.8,,,,,,,,,,,,,,,,16000.0,14000.0,FEW,14000.0,BKN,16000.0,,,,
KRDR,12-07-2021,06:56,METAR,Normal,210,4.0,,,9999.0,,-18.9,-21.8,30.08,1021.9,,,,,,,,,,,,,,,,18000.0,11000.0,FEW,11000.0,BKN,18000.0,BKN,20000.0,,
KRDR,12-07-2021,05:56,METAR,Normal,180,6.0,,,9999.0,,-18.5,-21.6,30.10,1022.5,,,,,,,,,,,,,,,,16000.0,13000.0,SCT,13000.0,BKN,16000.0,,,,
KRDR,12-07-2021,04:56,METAR,Normal,170,7.0,,,9999.0,,-18.4,-21.6,30.11,1022.9,,,,,,,,,,,,,,,,11000.0,11000.0,OVC,11000.0,,,,,,
KRDR,12-07-2021,03:56,METAR,Normal,170,7.0,,,9999.0,,-18.9,-22.3,30.11,1023.0,,,,,,,,,,,,,,,,11000.0,11000.0,BKN,11000.0,BKN,14000.0,,,,
KRDR,12-07-2021,02:55,METAR,Normal,180,4.0,,,9999.0,,-19.4,-22.9,30.11,1023.1,,,,,,,,,,,,,,,,15000.0,15000.0,OVC,15000.0,,,,,,
KRDR,12-07-2021,01:56,METAR,Normal,190,7.0,,,9999.0,,-19.9,-23.6,30.13,1023.8,,,,,,,,,,,,,,,,16000.0,16000.0,BKN,16000.0,,,,,,
KRDR,12-07-2021,00:56,METAR,Normal,160,5.0,,,9999.0,,-21.2,-24.5,30.15,1024.4,,,,,,,,,,,,,,,,18000.0,18000.0,BKN,18000.0,,,,,,
KRDR,12-06-2021,23:56,METAR,Normal,190,6.0,,,9999.0,,-21.3,-24.8,30.16,1024.9,,,,,,,,,,,,,,,,12000.0,12000.0,BKN,12000.0,,,,,,
KRDR,12-06-2021,22:57,METAR,Normal,210,5.0,,,9999.0,,-20.1,-23.9,30.17,1025.1,,,,,,,,,,,,,,,,12000.0,12000.0,BKN,12000.0,,,,,,
KRDR,12-06-2021,21:56,METAR,Normal,250,6.0,,,9999.0,,-17.9,-22.6,30.19,1025.6,,,,,,,,,,,,,,,,,12000.0,SCT,12000.0,,,,,,
KRDR,12-06-2021,20:56,METAR,Normal,280,9.0,,,9999.0,,-17.2,-22.4,30.19,1025.5,,,,,,,,,,,,,,,,,10000.0,SCT,10000.0,,,,,,
KRDR,12-06-2021,20:06,SPECI,Normal,300,9.0,,,9999.0,,-17.4,-22.6,30.19,1025.5,,,,,,,,,,,,,,,,,10000.0,FEW,10000.0,,,,,,
KRDR,12-06-2021,19:56,METAR,Normal,300,9.0,,,9999.0,,-17.4,-22.6,30.19,1025.5,,,,,,,,,,,,,,,,,10000.0,FEW,10000.0,,,,,,
KRDR,12-06-2021,18:56,METAR,Normal,260,12.0,,,9999.0,,-18.1,-23.5,30.24,1027.1,,,,,,,,,,,,,,,,,10000.0,FEW,10000.0,,,,,,
KRDR,12-06-2021,17:56,METAR,Normal,250,7.0,,,9999.0,,-19.2,-25.1,30.28,1028.5,,,,,,,,,,,,,,,Clear,72000.0,,,,,,,,,
KRDR,12-06-2021,16:56,METAR,Normal,260,9.0,,,9999.0,,-20.0,-25.3,30.30,1029.2,,,,,,,,,,,,,,,Clear,72000.0,,,,,,,,,
KRDR,12-06-2021,15:56,METAR,Normal,270,7.0,,,9999.0,,-21.1,-26.0,30.30,1029.2,,,,,,,,,,,,,,,Clear,72000.0,,,,,,,,,
KRDR,12-06-2021,14:56,METAR,Normal,280,8.0,,,9999.0,,-22.2,-26.4,30.30,1029.2,,,,,,,,,,,,,,,Clear,72000.0,,,,,,,,,
KRDR,12-06-2021,14:01,SPECI,Normal,290,7.0,,,4800.0,Mist,-23.0,-27.0,30.31,1029.5,10,,,,,,,,,,,,,,,,1500.0,SCT,1500.0,,,,,,
KRDR,12-06-2021,13:56,METAR,Normal,290,8.0,,,2200.0,Mist,-22.7,-26.4,30.31,1029.5,10,,,,,,,,,,,,,,,,1300.0,SCT,1300.0,,,,,,
KRDR,12-06-2021,13:46,SPECI,Normal,300,8.0,,,2400.0,Mist,-23.0,-26.0,30.31,1029.5,10,,,,,,,,,,,,,,,,1300.0,SCT,1300.0,,,,,,
KRDR,12-06-2021,13:17,SPECI,Normal,300,9.0,,,2400.0,Mist,-22.0,-26.0,30.31,1029.5,10,,,,,,,,,,,,,,,,900.0,SCT,900.0,,,,,,
KRDR,12-06-2021,12:56,METAR,Normal,300,10.0,,,2400.0,Mist,-21.3,-25.2,30.31,1029.4,10,,,,,,,,,,,,,,,800.0,800.0,BKN,800.0,OVC,1600.0,,,,
KRDR,12-06-2021,12:54,SPECI,Normal,300,10.0,,,2400.0,Mist,-21.0,-25.0,30.31,1029.4,10,,,,,,,,,,,,,,,800.0,800.0,BKN,800.0,OVC,1600.0,,,,
KRDR,12-06-2021,12:44,SPECI,Normal,290,10.0,,,2400.0,Mist,-21.0,-25.0,30.31,1029.4,10,,,,,,,,,,,,,,,1700.0,900.0,FEW,900.0,BKN,1700.0,OVC,2500.0,,
KRDR,12-06-2021,12:36,SPECI,Normal,280,9.0,,,2400.0,Mist,-21.0,-25.0,30.31,1029.4,10,,,,,,,,,,,,,,,1700.0,1700.0,BKN,1700.0,OVC,2500.0,,,,
KRDR,12-06-2021,12:16,SPECI,Normal,290,8.0,,,2400.0,Mist,-21.0,-25.0,30.30,1029.0,10,,,,,,,,,,,,,,,2700.0,2700.0,BKN,2700.0,,,,,,
KRDR,12-06-2021,11:56,METAR,Normal,290,9.0,,,2400.0,Mist,-22.2,-26.0,30.30,1029.0,10,,,,,,,,,,,,TRACE,.14 IN,Clear,72000.0,,,,,,,,,
KRDR,12-06-2021,11:16,SPECI,Normal,310,8.0,,,2400.0,Mist,-22.0,-26.0,30.29,1028.7,10,,,,,,,,,,,,,,Clear,72000.0,,,,,,,,,
KRDR,12-06-2021,11:06,SPECI,Normal,320,9.0,,,2200.0,Mist,-22.0,-26.0,30.29,1028.6,10,,,,,,,,,,,,,,Clear,72000.0,,,,,,,,,
KRDR,12-06-2021,10:56,METAR,Normal,320,9.0,,,2400.0,Mist,-21.4,-25.6,30.29,1028.6,10,,,,,,,,,,,,,,Clear,72000.0,,,,,,,,,
KRDR,12-06-2021,09:56,METAR,Normal,320,13.0,,,2400.0,Mist,-20.4,-24.7,30.29,1028.4,10,,,,,,,,,,,,,,Clear,72000.0,,,,,,,,,
KRDR,12-06-2021,09:46,SPECI,Normal,320,12.0,,,2200.0,Mist,-20.0,-25.0,30.29,1028.4,10,,,,,,,,,,,,,,Clear,72000.0,,,,,,,,,
KRDR,12-06-2021,08:56,METAR,Normal,330,15.0,,,2200.0,Mist,-20.0,-24.5,30.27,1027.7,10,,,,,,,,,,TRACE,TRACE,,,Clear,72000.0,,,,,,,,,
KRDR,12-06-2021,08:34,SPECI,Normal,320,17.0,21.0,,2000.0,Mist,-20.0,-24.0,30.26,1027.4,10,,,,,,,,,,,,,,Clear,72000.0,,,,,,,,,
KRDR,12-06-2021,08:24,SPECI,Normal,310,17.0,22.0,,9999.0,,-19.0,-24.0,30.26,1027.3,,,,,,,,,,,,,,,Clear,72000.0,,,,,,,,,
KRDR,12-06-2021,07:56,METAR,Normal,320,18.0,23.0,330/28KTS,2200.0,Mist,-18.7,-22.9,30.24,1026.6,10,,,,,,,,,,,,,,,1000.0,1000.0,BKN,1000.0,OVC,1300.0,,,,
KRDR,12-06-2021,07:11,SPECI,Normal,330,19.0,,,2400.0,Mist,-17.0,-21.0,30.22,1025.8,10,,,,,,,,,,,,,,,1100.0,1100.0,OVC,1100.0,,,,,,
KRDR,12-06-2021,07:05,SPECI,Normal,330,21.0,24.0,,2400.0,Blowing or Drifting Snow or Sand,-17.0,-21.0,30.21,1025.5,27,,,,,,,,,,,,,,,900.0,900.0,BKN,900.0,OVC,1400.0,,,,
KRDR,12-06-2021,06:56,METAR,Normal,330,17.0,,350/32KTS,2200.0,,-16.9,-20.6,30.21,1025.5,,,,,,,,,,,TRACE,,,,,1200.0,800.0,SCT,800.0,BKN,1200.0,OVC,6000.0,,
KRDR,12-06-2021,06:51,SPECI,Normal,340,18.0,28.0,,2200.0,,-17.0,-21.0,30.20,1025.2,,,,,,,,,,,,,,,,1200.0,1200.0,BKN,1200.0,BKN,6000.0,OVC,8000.0,,
KRDR,12-06-2021,06:34,SPECI,Normal,330,16.0,25.0,,2400.0,Blowing or Drifting Snow or Sand,-16.0,-20.0,30.20,1025.2,27,,,,,,,,,,,,,,,6000.0,1400.0,SCT,1400.0,OVC,6000.0,,,,
KRDR,12-06-2021,06:30,SPECI,Normal,340,19.0,31.0,,2200.0,Blowing or Drifting Snow or Sand,-16.0,-20.0,30.20,1025.2,27,,,,,,,,,,,,,,,6000.0,1400.0,SCT,1400.0,OVC,6000.0,,,,
KRDR,12-06-2021,06:26,SPECI,Normal,340,20.0,31.0,,2000.0,Blowing or Drifting Snow or Sand,-16.0,-20.0,30.20,1025.2,27,,,,,,,,,,,,,,,1200.0,1200.0,BKN,1200.0,OVC,6000.0,,,,
KRDR,12-06-2021,06:11,SPECI,Normal,330,23.0,32.0,,1600.0,Blowing or Drifting Snow or Sand,-16.0,-20.0,30.20,1025.2,27,,,,,,,,,,,,,,,900.0,1100.0,OVC,1100.0,,,,,,
KRDR,12-06-2021,06:06,SPECI,Normal,330,24.0,32.0,,1800.0,Blowing or Drifting Snow or Sand,-16.0,-19.0,30.19,1024.8,27,,,,,,,,,,,,,,,700.0,800.0,SCT,800.0,OVC,1300.0,,,,
KRDR,12-06-2021,05:56,METAR,Normal,340,24.0,32.0,320/34KTS,1600.0,Blowing or Drifting Snow or Sand,-16.0,-19.1,30.19,1024.8,27,,,,,,,,,,TRACE,,TRACE,,,700.0,700.0,BKN,700.0,OVC,1800.0,,,,
KRDR,12-06-2021,04:56,METAR,Normal,340,25.0,35.0,340/35KTS,800.0,Blowing or Drifting Snow or Sand,-14.9,-17.3,30.15,1023.4,27,,,,,,,,,,TRACE,,,,,800.0,800.0,OVC,800.0,,,,,,
KRDR,12-06-2021,04:46,SPECI,Normal,340,22.0,31.0,,1600.0,Blowing or Drifting Snow or Sand,-15.0,-18.0,30.14,1023.0,27,,,,,,,,,,,,,,,1100.0,1100.0,OVC,1100.0,,,,,,
KRDR,12-06-2021,04:15,SPECI,Normal,340,28.0,33.0,,800.0,Blowing or Drifting Snow or Sand,-14.0,-17.0,30.12,1022.3,27,,,,,,,,,,,,,,,1000.0,1000.0,OVC,1000.0,,,,,,
KRDR,12-06-2021,03:56,METAR,Normal,340,28.0,32.0,330/36KTS,400.0,Blowing or Drifting Snow or Sand,-13.9,-16.2,30.10,1021.7,27,,,,,,,,,,TRACE,,,,,1000.0,1000.0,OVC,1000.0,,,,,,
KRDR,12-06-2021,02:56,METAR,Normal,340,24.0,33.0,340/36KTS,400.0,Blowing or Drifting Snow or Sand,-12.1,-14.4,30.07,1020.5,27,,,,,,,,,,TRACE,TRACE,,,,800.0,800.0,BKN,800.0,OVC,1100.0,,,,
KRDR,12-06-2021,01:56,METAR,Normal,340,23.0,32.0,340/35KTS,400.0,Light Snow/Blowing or Drifting Snow or Sand,-10.7,-12.9,30.01,1018.4,71,27,,,,,,,,,TRACE,,,,,800.0,800.0,OVC,800.0,,,,,,
KRDR,12-06-2021,01:28,SPECI,Normal,340,25.0,35.0,,400.0,Light Snow/Blowing or Drifting Snow or Sand,-10.0,-12.0,29.99,1017.7,71,27,,,,,,,,,,,,,,800.0,800.0,OVC,800.0,,,,,,
KRDR,12-06-2021,00:56,METAR,Normal,350,27.0,34.0,330/41KTS,400.0,Blowing or Drifting Snow or Sand,-9.3,-11.2,29.95,1016.3,27,,,,,,,,,,TRACE,,,,,800.0,800.0,OVC,800.0,,,,,,
KRDR,12-06-2021,00:19,SPECI,Normal,350,28.0,36.0,,400.0,Blowing or Drifting Snow or Sand,-9.0,-11.0,29.92,1015.3,27,,,,,,,,,,,,,,,800.0,800.0,OVC,800.0,,,,,,
KRDR,12-05-2021,23:56,METAR,Normal,360,26.0,36.0,350/40KTS,400.0,Light Snow/Blowing or Drifting Snow or Sand,-8.9,-10.7,29.89,1014.3,71,27,,,,,,,,,TRACE,,.05 IN,,,800.0,800.0,OVC,800.0,,,,,,
KRDR,12-05-2021,23:10,SPECI,Normal,360,27.0,36.0,,400.0,Light Snow/Blowing or Drifting Snow or Sand,-7.0,-9.0,29.84,1012.5,71,27,,,,,,,,,,,,,,800.0,800.0,OVC,800.0,,,,,,
KRDR,12-05-2021,22:56,METAR,Normal,360,28.0,36.0,340/39KTS,400.0,Heavy Snow/Blowing or Drifting Snow or Sand,-6.3,-8.0,29.82,1011.7,73,27,,,,,,,,,TRACE,,,,,800.0,800.0,OVC,800.0,,,,,,
KRDR,12-05-2021,22:33,SPECI,Normal,360,28.0,35.0,,200.0,Heavy Snow/Blowing or Drifting Snow or Sand,-3.0,-5.0,29.78,1010.3,73,27,,,,,,,,,,,,,,800.0,800.0,OVC,800.0,,,,,,
KRDR,12-05-2021,22:17,SPECI,Normal,360,21.0,27.0,,400.0,Heavy Snow/Blowing or Drifting Snow or Sand,-3.0,-4.0,29.77,1009.9,73,27,,,,,,,,,,,,,,800.0,800.0,OVC,800.0,,,,,,
KRDR,12-05-2021,22:12,SPECI,Normal,350,18.0,23.0,,400.0,Light Snow/Blowing or Drifting Snow or Sand,,,,1009.9,71,27,,,,,,,,,,,,,,100.0,100.0,BKN,100.0,,,,,,
KRDR,12-05-2021,21:56,METAR,Normal,360,18.0,,010/30KTS,600.0,Light Snow/Blowing or Drifting Snow or Sand,-3.6,-4.9,29.75,1009.2,71,27,,,,,,,,,TRACE,,,,,800.0,800.0,BKN,800.0,,,,,,
KRDR,12-05-2021,21:30,SPECI,Normal,10,22.0,,,800.0,Light Snow/Blowing Snow,-4.0,-5.0,29.72,1008.2,,,,71,38,,,,,,,,,,,800.0,300.0,FEW,300.0,OVC,800.0,,,,
KRDR,12-05-2021,21:25,SPECI,Normal,10,22.0,,,1200.0,Light Snow/Blowing Snow,-4.0,-5.0,29.71,1007.9,,,,71,38,,,,,,,,,,,800.0,300.0,FEW,300.0,OVC,800.0,,,,
KRDR,12-05-2021,20:56,METAR,Normal,10,20.0,,360/32KTS,800.0,Light Snow/Blowing or Drifting Snow or Sand,-3.6,-5.0,29.69,1007.2,71,27,,,,,,,,,.01 IN,.05 IN,,,,3100.0,300.0,SCT,300.0,OVC,3100.0,,,,
KRDR,12-05-2021,20:34,SPECI,Normal,20,25.0,31.0,,800.0,Light Snow/Blowing or Drifting Snow or Sand,-4.0,-5.0,29.67,1006.5,71,27,,,,,,,,,,,,,,2100.0,300.0,SCT,300.0,OVC,2100.0,,,,
KRDR,12-05-2021,20:01,SPECI,Normal,20,22.0,,,400.0,Snow,-4.0,-5.0,29.64,1005.5,72,,,,,,,,,,,,,,,800.0,300.0,SCT,300.0,OVC,800.0,,,,
KRDR,12-05-2021,19:56,METAR,Normal,20,21.0,27.0,010/27KTS,1200.0,Light Snow,-3.9,-5.5,29.64,1005.5,71,,,,,,,,,,TRACE,,,,,800.0,300.0,SCT,300.0,OVC,800.0,,,,
KRDR,12-05-2021,19:40,SPECI,Normal,20,22.0,,,1000.0,Light Snow,-4.0,-5.0,29.64,1005.5,,,,71,,,,,,,,,,,,700.0,300.0,SCT,300.0,OVC,700.0,,,,
KRDR,12-05-2021,18:56,METAR,Normal,30,17.0,,,1600.0,Light Snow,-3.4,-4.8,29.61,1004.5,71,,,,,,,,,,.04 IN,,,,,1200.0,300.0,SCT,300.0,OVC,1200.0,,,,
KRDR,12-05-2021,17:58,METAR,Normal,50,14.0,,,2000.0,Light Snow/Mist,-3.1,-4.7,29.59,1003.8,71,10,,,,,,,,,TRACE,,.09 IN,,,900.0,900.0,BKN,900.0,OVC,3500.0,,,,
KRDR,12-05-2021,17:39,SPECI,Normal,60,16.0,22.0,,3000.0,Light Snow/Mist,-3.0,-5.0,29.59,1003.8,71,10,,,,,,,,,,,,,,900.0,900.0,BKN,900.0,OVC,1300.0,,,,
KRDR,12-05-2021,17:33,SPECI,Normal,60,15.0,,,2600.0,Light Snow/Mist,-3.0,-5.0,29.59,1003.8,71,10,,,,,,,,,,,,,,900.0,900.0,BKN,900.0,OVC,1200.0,,,,
KRDR,12-05-2021,17:29,SPECI,Normal,60,15.0,,,2400.0,Light Snow/Mist,-3.0,-5.0,29.59,1003.8,71,10,,,,,,,,,,,,,,900.0,900.0,BKN,900.0,OVC,1300.0,,,,
KRDR,12-05-2021,17:24,SPECI,Normal,70,14.0,,,2000.0,Light Snow/Mist,-3.0,-4.0,29.59,1003.8,71,10,,,,,,,,,,,,,,900.0,900.0,BKN,900.0,OVC,1300.0,,,,
KRDR,12-05-2021,17:02,SPECI,Normal,70,14.0,,,2000.0,Light Snow/Mist,-3.0,-4.0,29.59,1003.8,71,10,,,,,,,,,,,,,,700.0,700.0,BKN,700.0,BKN,1200.0,OVC,2200.0,,
KRDR,12-05-2021,16:59,SPECI,Normal,70,15.0,22.0,,1600.0,Light Snow/Mist,-3.0,-4.0,29.59,1003.8,71,10,,,,,,,,,,,,,,800.0,800.0,BKN,800.0,BKN,1200.0,OVC,2000.0,,
KRDR,12-05-2021,16:56,METAR,Normal,70,15.0,22.0,,1400.0,Light Snow/Mist,-3.1,-4.5,29.59,1003.8,71,10,,,,,,,,,TRACE,,,,,800.0,800.0,BKN,800.0,OVC,2000.0,,,,
KRDR,12-05-2021,16:27,SPECI,Normal,80,16.0,,,800.0,Light Snow/Mist,-3.0,-4.0,29.59,1003.8,,,,71,10,,,,,,,,,,,200.0,800.0,BKN,800.0,OVC,1500.0,,,,
KRDR,12-05-2021,15:56,METAR,Normal,80,18.0,,,800.0,Light Snow/Mist,-3.2,-4.5,29.58,1003.4,71,10,,,,,,,,,.02 IN,,,,,800.0,800.0,BKN,800.0,OVC,1300.0,,,,
KRDR,12-05-2021,15:45,SPECI,Normal,90,16.0,,,800.0,Light Snow/Mist,-3.0,-4.0,29.59,1003.7,71,10,,,,,,,,,,,,,,800.0,800.0,BKN,800.0,OVC,1300.0,,,,
KRDR,12-05-2021,15:20,SPECI,Normal,100,16.0,,,1000.0,Light Snow/Mist,-3.0,-4.0,29.59,1003.7,71,10,,,,,,,,,,,,,,700.0,700.0,BKN,700.0,OVC,1300.0,,,,
KRDR,12-05-2021,15:11,SPECI,Normal,90,15.0,,,1200.0,Light Snow/Mist,-3.0,-4.0,29.59,1003.8,71,10,,,,,,,,,,,,,,700.0,700.0,BKN,700.0,OVC,1500.0,,,,
KRDR,12-05-2021,14:59,SPECI,Normal,100,14.0,,,1400.0,Light Snow/Mist,-3.0,-4.0,29.59,1003.8,71,10,,,,,,,,,,,,,,700.0,700.0,BKN,700.0,OVC,1500.0,,,,
KRDR,12-05-2021,14:56,METAR,Normal,100,14.0,,,1600.0,Light Snow/Mist,-3.0,-4.3,29.59,1003.8,71,10,,,,,,,,,.01 IN,.07 IN,,,,700.0,700.0,BKN,700.0,OVC,1500.0,,,,
KRDR,12-05-2021,14:37,SPECI,Normal,100,15.0,,,1600.0,Light Snow/Mist,-3.0,-4.0,29.59,1003.8,71,10,,,,,,,,,,,,,,800.0,800.0,BKN,800.0,OVC,1700.0,,,,
KRDR,12-05-2021,14:27,SPECI,Normal,100,14.0,,,1800.0,Light Snow/Mist,-3.0,-4.0,29.60,1004.1,71,10,,,,,,,,,,,,,,200.0,800.0,BKN,800.0,OVC,1600.0,,,,
KRDR,12-05-2021,14:19,SPECI,Normal,90,16.0,,,1600.0,Light Snow/Mist,-3.0,-4.0,29.60,1004.1,71,10,,,,,,,,,,,,,,200.0,800.0,BKN,800.0,OVC,1500.0,,,,
KRDR,12-05-2021,14:07,SPECI,Normal,100,15.0,,,1400.0,Light Snow/Mist,-3.0,-4.0,29.60,1004.1,71,10,,,,,,,,,,,,,,800.0,800.0,BKN,800.0,OVC,1500.0,,,,
KRDR,12-05-2021,13:57,SPECI,Normal,100,17.0,,,1200.0,Light Snow/Mist,-3.0,-4.0,29.61,1004.5,71,10,,,,,,,,,,,,,,1200.0,,BKN,,OVC,1200.0,,,,
KRDR,12-05-2021,13:56,METAR,Normal,100,18.0,,100/28KTS,1400.0,Light Snow/Mist,-2.8,-3.9,29.61,1004.5,,,,71,10,,,,,,.02 IN,,,,,800.0,800.0,BKN,800.0,OVC,1200.0,,,,
KRDR,12-05-2021,13:53,SPECI,Normal,100,16.0,,,1400.0,Light Snow/Mist,-3.0,-4.0,29.61,1004.5,71,10,,,,,,,,,,,,,,800.0,800.0,BKN,800.0,OVC,1200.0,,,,
KRDR,12-05-2021,13:49,SPECI,Normal,100,20.0,24.0,,1600.0,Light Snow/Mist,-3.0,-4.0,29.61,1004.5,71,10,,,,,,,,,,,,,,800.0,800.0,BKN,800.0,OVC,1200.0,,,,
KRDR,12-05-2021,13:36,SPECI,Normal,110,18.0,25.0,,1800.0,Light Snow/Mist,-3.0,-4.0,29.62,1004.8,71,10,,,,,,,,,,,,,,800.0,800.0,BKN,800.0,OVC,1500.0,,,,
KRDR,12-05-2021,13:30,SPECI,Normal,110,19.0,,,2000.0,Light Snow/Mist,-3.0,-4.0,29.62,1004.8,71,10,,,,,,,,,,,,,,800.0,800.0,BKN,800.0,OVC,1500.0,,,,
KRDR,12-05-2021,13:26,SPECI,Normal,110,21.0,25.0,,2400.0,Light Snow/Mist,-3.0,-4.0,29.62,1004.8,71,10,,,,,,,,,,,,,,800.0,800.0,BKN,800.0,OVC,1400.0,,,,
KRDR,12-05-2021,13:11,SPECI,Normal,110,21.0,27.0,,2600.0,Light Snow/Mist,-3.0,-4.0,29.63,1005.1,71,10,,,,,,,,,,,,,,800.0,800.0,BKN,800.0,OVC,1400.0,,,,
KRDR,12-05-2021,13:06,SPECI,Normal,110,20.0,27.0,,2400.0,Light Snow/Mist,-3.0,-4.0,29.64,1005.5,71,10,,,,,,,,,,,,,,800.0,800.0,BKN,800.0,OVC,1200.0,,,,
KRDR,12-05-2021,12:59,SPECI,Normal,110,20.0,26.0,,2200.0,Light Snow/Mist,-3.0,-4.0,29.64,1005.5,71,10,,,,,,,,,,,,,,200.0,800.0,BKN,800.0,OVC,1100.0,,,,
KRDR,12-05-2021,12:56,METAR,Normal,110,19.0,26.0,130/27KTS,2000.0,Light Snow/Mist,-2.6,-3.7,29.64,1005.5,71,10,,,,,,,,,.04 IN,,,,,200.0,800.0,BKN,800.0,OVC,1200.0,,,,
KRDR,12-05-2021,12:52,SPECI,Normal,110,21.0,26.0,,1800.0,Light Snow/Mist,-3.0,-4.0,29.64,1005.5,71,10,,,,,,,,,,,,,,800.0,800.0,BKN,800.0,OVC,1200.0,,,,
KRDR,12-05-2021,12:44,SPECI,Normal,110,20.0,27.0,,1600.0,Light Snow/Mist,-3.0,-4.0,29.65,1005.8,71,10,,,,,,,,,,,,,,800.0,800.0,BKN,800.0,OVC,1200.0,,,,
KRDR,12-05-2021,12:27,SPECI,Normal,120,17.0,24.0,,2000.0,Light Snow/Mist,-3.0,-4.0,29.66,1006.2,71,10,,,,,,,,,,,,,,800.0,800.0,BKN,800.0,OVC,1000.0,,,,
KRDR,12-05-2021,12:19,SPECI,Normal,120,18.0,,,1800.0,Light Snow/Mist,-3.0,-4.0,29.67,1006.5,71,10,,,,,,,,,,,,,,800.0,800.0,BKN,800.0,OVC,1000.0,,,,
KRDR,12-05-2021,12:12,SPECI,Normal,120,17.0,27.0,,1200.0,Light Snow/Mist,-3.0,-4.0,29.67,1006.5,71,10,,,,,,,,,,,,,,800.0,800.0,OVC,800.0,,,,,,
KRDR,12-05-2021,12:06,SPECI,Normal,120,20.0,27.0,,1400.0,Light Snow/Mist,-2.0,-3.0,29.68,1006.9,71,10,,,,,,,,,,,,,,800.0,800.0,OVC,800.0,,,,,,
KRDR,12-05-2021,11:56,METAR,Normal,110,19.0,26.0,130/27KTS,1200.0,Light Snow/Mist,-2.5,-3.5,29.69,1007.2,,,,71,10,,,,,,.06 IN,,.27 IN,.29 IN,,900.0,900.0,OVC,900.0,,,,,,
KRDR,12-05-2021,11:26,SPECI,Normal,120,21.0,27.0,,1200.0,Light Snow/Mist,-2.0,-3.0,29.71,1007.9,71,10,,,,,,,,,,,,,,800.0,800.0,BKN,800.0,,,,,,
KRDR,12-05-2021,11:15,SPECI,Normal,130,20.0,26.0,,1400.0,Light Snow/Mist,-2.0,-4.0,29.72,1008.2,71,10,,,,,,,,,,,,,,800.0,800.0,BKN,800.0,OVC,1800.0,,,,
KRDR,12-05-2021,10:56,METAR,Normal,140,21.0,26.0,140/27KTS,1600.0,Light Snow/Mist,-2.2,-3.5,29.73,1008.6,71,10,,,,,,,,,.03 IN,,,,,800.0,800.0,BKN,800.0,OVC,2000.0,,,,
KRDR,12-05-2021,10:48,SPECI,Normal,140,20.0,26.0,,2800.0,Light Snow/Mist,-2.0,-3.0,29.74,1008.9,71,10,,,,,,,,,,,,,,800.0,800.0,BKN,800.0,OVC,2000.0,,,,
KRDR,12-05-2021,10:34,SPECI,Normal,140,16.0,23.0,,4000.0,Light Snow/Mist,-2.0,-3.0,29.76,1009.6,71,10,,,,,,,,,,,,,,800.0,800.0,BKN,800.0,OVC,1900.0,,,,
KRDR,12-05-2021,10:23,SPECI,Normal,140,14.0,,,3200.0,Light Snow/Mist,-2.0,-3.0,29.77,1009.9,71,10,,,,,,,,,,,,,,800.0,800.0,BKN,800.0,OVC,1400.0,,,,
KRDR,12-05-2021,10:19,SPECI,Normal,140,13.0,,,3000.0,Light Snow/Mist,-2.0,-3.0,29.77,1009.9,71,10,,,,,,,,,,,,,,800.0,800.0,BKN,800.0,OVC,1400.0,,,,
KRDR,12-05-2021,10:16,SPECI,Normal,140,12.0,,,2200.0,Light Snow/Mist,-2.0,-3.0,29.78,1010.3,71,10,,,,,,,,,,,,,,800.0,800.0,BKN,800.0,OVC,1400.0,,,,
KRDR,12-05-2021,10:06,SPECI,Normal,140,12.0,,,1600.0,Light Snow/Mist,-2.0,-3.0,29.77,1009.9,71,10,,,,,,,,,,,,,,800.0,200.0,SCT,200.0,BKN,800.0,OVC,1200.0,,
KRDR,12-05-2021,09:56,METAR,Normal,140,14.0,,,1400.0,Light Snow/Mist,-2.4,-3.4,29.77,1009.9,71,10,,,,,,,,,.05 IN,,,,,800.0,200.0,SCT,200.0,BKN,800.0,OVC,1200.0,,
KRDR,12-05-2021,09:47,SPECI,Normal,130,16.0,21.0,,1400.0,Light Snow/Mist,-2.0,-3.0,29.77,1009.9,71,10,,,,,,,,,,,,,,800.0,200.0,SCT,200.0,BKN,800.0,OVC,1200.0,,
KRDR,12-05-2021,09:41,SPECI,Normal,140,16.0,21.0,,1600.0,Light Snow/Mist,-2.0,-3.0,29.78,1010.3,,,,71,10,,,,,,,,,,,800.0,200.0,SCT,200.0,BKN,800.0,OVC,1200.0,,
KRDR,12-05-2021,09:33,SPECI,Normal,130,14.0,20.0,,1800.0,Light Snow/Mist,-3.0,-4.0,29.79,1010.6,71,10,,,,,,,,,,,,,,800.0,200.0,SCT,200.0,BKN,800.0,OVC,1200.0,,
KRDR,12-05-2021,09:20,SPECI,Normal,140,15.0,,,1400.0,Light Snow/Mist,-3.0,-4.0,29.80,1011.0,71,10,,,,,,,,,,,,,,800.0,200.0,SCT,200.0,BKN,800.0,OVC,1200.0,,
KRDR,12-05-2021,09:13,SPECI,Normal,130,13.0,,,1800.0,Light Snow/Mist,,,,1011.3,71,10,,,,,,,,,,,,,,100.0,200.0,SCT,200.0,BKN,800.0,OVC,100.0,,
KRDR,12-05-2021,08:56,METAR,Normal,130,12.0,,,2400.0,Light Snow/Mist,-2.9,-3.9,29.82,1011.6,71,10,,,,,,,,,.04 IN,.13 IN,,,,1100.0,200.0,SCT,200.0,BKN,1100.0,OVC,1800.0,,
KRDR,12-05-2021,08:28,SPECI,Normal,130,14.0,,,2400.0,Light Snow/Mist,-3.0,-4.0,29.85,1012.7,71,10,,,,,,,,,,,,,,1000.0,200.0,SCT,200.0,BKN,1000.0,OVC,2000.0,,
KRDR,12-05-2021,07:56,METAR,Normal,120,12.0,,,2400.0,Light Snow/Mist,-2.7,-3.7,29.87,1013.3,71,10,,,,,,,,,.04 IN,,,,,200.0,800.0,BKN,800.0,OVC,1500.0,,,,
KRDR,12-05-2021,07:43,SPECI,Normal,120,14.0,,,2400.0,Light Snow/Mist,-3.0,-4.0,29.88,1013.7,71,10,,,,,,,,,,,,,,800.0,800.0,BKN,800.0,OVC,1900.0,,,,
KRDR,12-05-2021,07:30,SPECI,Normal,120,12.0,,,2400.0,Light Snow/Mist,-3.0,-4.0,29.90,1014.4,71,10,,,,,,,,,,,,,,800.0,800.0,BKN,800.0,OVC,1900.0,OVC,1900.0,,
KRDR,12-05-2021,07:17,SPECI,Normal,120,11.0,,,2400.0,Light Snow/Mist,-3.0,-4.0,29.92,1015.0,71,10,,,,,,,,,,,,,,1000.0,1000.0,BKN,1000.0,OVC,1200.0,,,,
KRDR,12-05-2021,07:09,SPECI,Normal,120,12.0,,,2000.0,Light Snow/Mist,-3.0,-4.0,29.92,1015.0,71,10,,,,,,,,,,,,,,1000.0,1000.0,BKN,1000.0,,,,,,
KRDR,12-05-2021,07:03,SPECI,Normal,120,12.0,,,2000.0,Light Snow/Mist,-3.0,-4.0,29.92,1015.0,71,10,,,,,,,,,,,,,,800.0,800.0,BKN,800.0,,,,,,
KRDR,12-05-2021,06:57,SPECI,Normal,120,10.0,,,1600.0,Light Snow/Mist,-3.0,-4.0,29.93,1015.4,71,10,,,,,,,,,,,,,,800.0,800.0,BKN,800.0,OVC,1200.0,,,,
KRDR,12-05-2021,06:55,METAR,Normal,130,10.0,,,1600.0,Light Snow/Mist,-2.6,-3.6,29.94,1015.7,,,,71,10,,,,,,.05 IN,,,,,700.0,700.0,BKN,700.0,OVC,1200.0,,,,
KRDR,12-05-2021,06:46,SPECI,Normal,130,10.0,,,1600.0,Light Snow/Mist,-2.0,-3.0,29.95,1016.1,71,10,,,,,,,,,,,,,,600.0,600.0,BKN,600.0,OVC,1200.0,,,,
KRDR,12-05-2021,06:35,SPECI,Normal,140,8.0,,,1400.0,Light Snow/Mist,-2.0,-3.0,29.97,1016.8,71,10,,,,,,,,,,,,,,700.0,700.0,BKN,700.0,OVC,1200.0,,,,
KRDR,12-05-2021,06:32,SPECI,Normal,140,7.0,,,1400.0,Light Snow/Mist,-2.0,-3.0,29.97,1016.8,71,10,,,,,,,,,,,,,,800.0,800.0,BKN,800.0,OVC,1200.0,,,,
KRDR,12-05-2021,06:30,SPECI,Normal,140,8.0,,,3600.0,,,,,1016.8,,,,,,,,,,,,,,,,,,,,,,,,,
KRDR,12-05-2021,06:24,SPECI,Normal,140,7.0,,,4000.0,Light Snow/Mist,-2.0,-3.0,29.98,1017.1,71,10,,,,,,,,,,,,,,700.0,700.0,BKN,700.0,OVC,1200.0,,,,
KRDR,12-05-2021,06:09,SPECI,Normal,150,8.0,,,4400.0,Light Snow/Mist,-2.0,-3.0,29.99,1017.4,71,10,,,,,,,,,,,,,,1200.0,200.0,FEW,200.0,BKN,1200.0,,,,
KRDR,12-05-2021,05:56,METAR,Normal,150,10.0,,,3200.0,Light Snow/Mist,-2.4,-3.5,29.99,1017.4,71,10,,,,,,,,,.02 IN,,.02 IN,,,1200.0,800.0,FEW,800.0,OVC,1200.0,,,,
KRDR,12-05-2021,04:56,METAR,Normal,170,11.0,,,3000.0,Light Snow/Mist,-2.3,-3.6,29.99,1017.4,71,10,,,,,,,,,TRACE,,,,,1400.0,6000.0,BKN,6000.0,OVC,1400.0,,,,
KRDR,12-05-2021,04:29,SPECI,Normal,180,10.0,,,8000.0,Light Snow,-2.0,-4.0,30.01,1018.1,71,,,,,,,,,,,,,,,4600.0,4600.0,OVC,4600.0,,,,,,
KRDR,12-05-2021,04:05,SPECI,Normal,190,12.0,,,9999.0,Light Snow,-2.0,-4.0,30.01,1018.1,71,,,,,,,,,,,,,,,6000.0,4800.0,FEW,4800.0,OVC,6000.0,,,,
KRDR,12-05-2021,03:56,METAR,Normal,190,11.0,19.0,,9999.0,,-2.0,-4.0,30.02,1018.5,,,,,,,,,,,,,,,,6500.0,4800.0,FEW,4800.0,OVC,6500.0,,,,
KRDR,12-05-2021,02:56,METAR,Normal,190,11.0,,,9999.0,,-2.4,-4.7,30.04,1019.3,,,,,,,,,,,,,,,,9000.0,7000.0,FEW,7000.0,OVC,9100.0,,,,
KRDR,12-05-2021,01:56,METAR,Normal,150,8.0,,,9999.0,,-3.6,-6.1,30.07,1020.4,,,,,,,,,,,,,,,,9500.0,9500.0,OVC,9600.0,,,,,,
KRDR,12-05-2021,00:56,METAR,Normal,170,10.0,,,9999.0,,-3.7,-6.3,30.11,1021.8,,,,,,,,,,,,,,,,11000.0,11000.0,OVC,11000.0,,,,,,
KRDR,12-04-2021,23:56,METAR,Normal,170,8.0,,,9999.0,,-3.9,-6.7,30.14,1022.7,,,,,,,,,,,,,,,,10000.0,10000.0,OVC,10000.0,,,,,,
KRDR,12-04-2021,22:56,METAR,Normal,150,7.0,,,9999.0,,-3.9,-6.9,30.17,1023.8,,,,,,,,,,,,,,,,11000.0,11000.0,OVC,11000.0,,,,,,
KRDR,12-04-2021,21:56,METAR,Normal,150,6.0,,,9999.0,,-3.5,-7.0,30.19,1024.4,,,,,,,,,,,,,,,,12000.0,12000.0,OVC,12000.0,,,,,,
KRDR,12-04-2021,20:56,METAR,Normal,150,6.0,,,9999.0,,-3.3,-7.3,30.21,1025.0,,,,,,,,,,,,,,,,13000.0,13000.0,BKN,13000.0,OVC,15000.0,,,,
KRDR,12-04-2021,19:56,METAR,Normal,170,5.0,,,9999.0,,-3.3,-8.0,30.24,1026.0,,,,,,,,,,,,,,,,14000.0,14000.0,BKN,14000.0,,,,,,
KRDR,12-04-2021,18:56,METAR,Normal,210,4.0,,,9999.0,,-3.3,-8.2,30.27,1027.1,,,,,,,,,,,,,,,,15000.0,12000.0,SCT,12000.0,BKN,15000.0,,,,
KRDR,12-04-2021,17:56,METAR,Normal,230,4.0,,,9999.0,,-3.4,-8.5,30.30,1028.0,,,,,,,,,,,,,,,,14000.0,14000.0,BKN,14000.0,BKN,17000.0,,,,
KRDR,12-04-2021,16:56,METAR,Normal,260,5.0,,,9999.0,,-4.2,-9.4,30.32,1028.7,,,,,,,,,,,,,,,,14000.0,14000.0,BKN,14000.0,BKN,17000.0,,,,
KRDR,12-04-2021,15:56,METAR,Normal,270,5.0,,,9999.0,,-5.2,-9.8,30.31,1028.4,,,,,,,,,,,,,,,,,14000.0,FEW,14000.0,SCT,18000.0,,,,
KRDR,12-04-2021,14:56,METAR,Normal,250,6.0,,,9999.0,,-7.7,-11.0,30.31,1028.5,,,,,,,,,,,,,,,,,19000.0,SCT,19000.0,,,,,,
KRDR,12-04-2021,13:56,METAR,Normal,260,4.0,,,9999.0,,-7.4,-10.9,30.29,1027.8,,,,,,,,,,,,,,,,19000.0,19000.0,OVC,19000.0,,,,,,
KRDR,12-04-2021,12:56,METAR,Normal,290,7.0,,,9999.0,,-7.7,-11.0,30.30,1028.2,,,,,,,,,,,,,,,,19000.0,19000.0,BKN,19000.0,,,,,,
KRDR,12-04-2021,11:56,METAR,Normal,300,8.0,,,9999.0,,-6.5,-10.6,30.29,1027.8,,,,,,,,,,,,,,,,,20000.0,SCT,20000.0,,,,,,
KRDR,12-04-2021,10:56,METAR,Normal,290,8.0,,,9999.0,,-7.8,-11.5,30.29,1027.8,,,,,,,,,,,,,,,,,23000.0,SCT,23000.0,,,,,,
KRDR,12-04-2021,09:56,METAR,Normal,300,8.0,,,9999.0,,-6.5,-10.9,30.28,1027.3,,,,,,,,,,,,,,,,,23000.0,SCT,23000.0,,,,,,
KRDR,12-04-2021,08:56,METAR,Normal,300,7.0,,,9999.0,,-6.0,-10.4,30.27,1027.0,,,,,,,,,,,,,,,,,23000.0,SCT,23000.0,,,,,,
KRDR,12-04-2021,07:56,METAR,Normal,300,8.0,,,9999.0,,-5.1,-10.1,30.26,1026.6,,,,,,,,,,,,,,,,,23000.0,SCT,23000.0,,,,,,
KRDR,12-04-2021,06:56,METAR,Normal,280,9.0,,,9999.0,,-4.4,-9.8,30.24,1025.9,,,,,,,,,,,,,,,Clear,72000.0,,,,,,,,,
KRDR,12-04-2021,05:56,METAR,Normal,290,13.0,,,9999.0,,-3.4,-9.2,30.23,1025.5,,,,,,,,,,,,,,,Clear,72000.0,,,,,,,,,
KRDR,12-04-2021,04:56,METAR,Normal,290,14.0,,,9999.0,,-2.4,-8.7,30.21,1024.8,,,,,,,,,,,,,,,Clear,72000.0,,,,,,,,,
KRDR,12-04-2021,03:56,METAR,Normal,290,14.0,,,9999.0,,-2.4,-8.3,30.20,1024.4,,,,,,,,,,,,,,,Clear,72000.0,,,,,,,,,
KRDR,12-04-2021,02:56,METAR,Normal,290,14.0,,,9999.0,,-2.5,-8.0,30.18,1023.8,,,,,,,,,,,,,,,,,20000.0,FEW,20000.0,,,,,,
KRDR,12-04-2021,01:56,METAR,Normal,280,14.0,,,9999.0,,-2.3,-8.2,30.17,1023.5,,,,,,,,,,,,,,,Clear,72000.0,,,,,,,,,
KRDR,12-04-2021,00:56,METAR,Normal,280,13.0,,,9999.0,,-2.2,-8.1,30.15,1022.8,,,,,,,,,,,,,,,Clear,72000.0,,,,,,,,,
KRDR,12-03-2021,23:56,METAR,Normal,280,12.0,,,9999.0,,-2.4,-8.1,30.15,1022.8,,,,,,,,,,,,,,,Clear,72000.0,,,,,,,,,
KRDR,12-03-2021,22:56,METAR,Normal,290,16.0,,,9999.0,,-1.9,-7.8,30.14,1022.5,,,,,,,,,,,,,,,Clear,72000.0,,,,,,,,,
KRDR,12-03-2021,21:56,METAR,Normal,290,14.0,,,9999.0,,-0.7,-7.7,30.13,1022.1,,,,,,,,,,,,,,,,,16000.0,FEW,16000.0,,,,,,
KRDR,12-03-2021,20:56,METAR,Normal,290,14.0,,,9999.0,,-0.2,-7.0,30.12,1021.7,,,,,,,,,,,,,,,,,17000.0,SCT,17000.0,,,,,,
KRDR,12-03-2021,19:56,METAR,Normal,290,15.0,20.0,,9999.0,,0.1,-6.5,30.10,1021.0,,,,,,,,,,,,,,,,,17000.0,SCT,17000.0,,,,,,
KRDR,12-03-2021,18:56,METAR,Normal,290,17.0,22.0,,9999.0,,0.8,-6.1,30.10,1021.0,,,,,,,,,,,,,,,Clear,72000.0,,,,,,,,,
KRDR,12-03-2021,17:56,METAR,Normal,270,7.0,,,9999.0,,0.7,-6.2,30.11,1021.3,,,,,,,,,,,,,,,Clear,72000.0,,,,,,,,,
KRDR,12-03-2021,17:04,METAR,Normal,310,10.0,16.0,,9999.0,,0.3,-6.1,30.12,1021.7,,,,,,,,,,,,,,,,9500.0,9500.0,OVC,9600.0,,,,,,
KRDR,12-03-2021,15:57,METAR,Normal,280,7.0,,,9999.0,,-0.6,-2.2,30.11,1021.4,,,,,,,,,,,,,,,,,10000.0,SCT,10000.0,,,,,,
KRDR,12-03-2021,14:54,METAR,Normal,280,7.0,,,9999.0,,-1.8,-2.6,30.09,1020.8,,,,,,,,,,,,,,,,12000.0,700.0,SCT,700.0,SCT,7000.0,BKN,12000.0,,
KRDR,12-03-2021,14:51,SPECI,Normal,280,5.0,,,9999.0,Mist,-2.0,-2.0,30.08,1020.4,,,,10,,,,,,,,,,,,12000.0,700.0,SCT,700.0,SCT,7000.0,BKN,12000.0,,
KRDR,12-03-2021,14:20,SPECI,Calm,,0.0,,,6400.0,Mist,-2.0,-2.0,30.07,1020.1,,,,10,,,,,,,,,,,,800.0,800.0,OVC,800.0,,,,,,
KRDR,12-03-2021,13:54,METAR,Calm,,0.0,,,3200.0,Mist,-2.3,-2.9,30.06,1019.7,,,,10,,,,,,,,,,,,100.0,100.0,BKN,100.0,OVC,1000.0,,,,
KRDR,12-03-2021,13:45,SPECI,Normal,240,3.0,,,1000.0,Mist,-3.0,-3.0,30.07,1020.1,,,,10,,,,,,,,,,,,100.0,100.0,OVC,100.0,,,,,,
KRDR,12-03-2021,13:20,SPECI,Normal,260,3.0,,,9999.0,Mist,-3.0,-4.0,30.07,1020.1,,,,10,,,,,,,,,,,,200.0,200.0,BKN,200.0,BKN,1600.0,OVC,5500.0,,
KRDR,12-03-2021,12:46,SPECI,Normal,290,4.0,,,1000.0,Mist,-2.0,-3.0,30.06,1019.7,,,,10,,,,,,,,,,,,200.0,200.0,OVC,200.0,,,,,,
KRDR,12-03-2021,11:55,METAR,Calm,,0.0,,,400.0,Fog or Ice Fog,-1.9,-2.5,30.05,1019.3,,,,44,,,,,,,,,,.07 IN,,100.0,100.0,SCT,100.0,OVC,700.0,,,,
KRDR,12-03-2021,11:36,SPECI,Calm,,0.0,,,4400.0,Mist,-2.0,-2.0,30.04,1019.0,10,,,,,,,,,,,,,,,100.0,100.0,OVC,100.0,,,,,,
KRDR,12-03-2021,10:56,METAR,Calm,,0.0,,,9999.0,,-1.9,-2.6,30.03,1018.6,,,,,,,,,,,,,,,,200.0,200.0,OVC,200.0,,,,,,
KRDR,12-03-2021,10:46,SPECI,Calm,,0.0,,,9999.0,,-2.0,-3.0,30.03,1018.6,,,,,,,,,,,,,,,,200.0,200.0,OVC,200.0,,,,,,
KRDR,12-03-2021,09:56,METAR,Calm,,0.0,,,9999.0,,-1.9,-2.6,30.02,1018.3,,,,,,,,,,,TRACE,,,,,300.0,300.0,OVC,300.0,,,,,,
KRDR,12-03-2021,09:02,SPECI,Calm,,0.0,,,9999.0,,-2.0,-3.0,30.02,1018.3,,,,,,,,,,,,,,,,300.0,300.0,OVC,300.0,,,,,,
KRDR,12-03-2021,08:56,METAR,Calm,,0.0,,,9999.0,,-1.9,-2.6,30.01,1018.0,,,,,,,,,,,TRACE,TRACE,,,,300.0,300.0,OVC,300.0,,,,,,
KRDR,12-03-2021,08:55,SPECI,Calm,,0.0,,,9999.0,,-2.0,-3.0,30.01,1018.0,,,,,,,,,,,,,,,,300.0,300.0,OVC,300.0,,,,,,
KRDR,12-03-2021,08:45,SPECI,Normal,70,3.0,,,9999.0,,-2.0,-3.0,30.00,1017.6,,,,,,,,,,,,,,,,200.0,200.0,OVC,200.0,,,,,,
KRDR,12-03-2021,07:56,METAR,Normal,70,4.0,,,9999.0,,-2.0,-2.7,30.00,1017.6,,,,,,,,,,,,,,,,200.0,200.0,OVC,200.0,,,,,,
KRDR,12-03-2021,07:46,SPECI,Normal,70,5.0,,,9999.0,,-2.0,-3.0,30.00,1017.6,,,,,,,,,,,,,,,,200.0,200.0,OVC,200.0,,,,,,
KRDR,12-03-2021,07:26,SPECI,Normal,40,4.0,,,9999.0,,-2.0,-3.0,30.00,1017.5,,,,,,,,,,,,,,,,300.0,300.0,OVC,300.0,,,,,,
KRDR,12-03-2021,06:56,METAR,Normal,60,4.0,,,9999.0,,-2.1,-2.8,29.99,1017.2,,,,,,,,,,,,,,,,200.0,200.0,OVC,200.0,,,,,,
KRDR,12-03-2021,05:56,METAR,Normal,90,4.0,,,9999.0,,-2.1,-2.8,29.98,1016.9,,,,,,,,,,,TRACE,,.05 IN,,,200.0,200.0,BKN,200.0,BKN,600.0,OVC,1300.0,,
KRDR,12-03-2021,05:44,SPECI,Normal,90,4.0,,,9999.0,,-2.0,-3.0,29.98,1016.9,,,,,,,,,,,,,,,,300.0,400.0,BKN,400.0,OVC,1300.0,,,,
KRDR,12-03-2021,05:32,SPECI,Normal,110,3.0,,,9999.0,,-2.0,-3.0,29.99,1017.3,,,,,,,,,,,,,,,,1300.0,1300.0,BKN,1300.0,OVC,6500.0,,,,
KRDR,12-03-2021,04:56,METAR,Normal,120,3.0,,,9999.0,Light Snow,-2.2,-2.9,29.99,1017.3,71,,,,,,,,,,.02 IN,,,,,6500.0,4000.0,FEW,4000.0,SCT,5000.0,OVC,6500.0,,
KRDR,12-03-2021,04:19,SPECI,Normal,140,4.0,,,8000.0,Light Snow/Mist,-2.0,-3.0,29.98,1016.9,71,10,,,,,,,,,,,,,,2000.0,200.0,FEW,200.0,BKN,2000.0,OVC,7000.0,,
KRDR,12-03-2021,04:15,SPECI,Normal,120,4.0,,,4800.0,Light Snow/Mist,-2.0,-3.0,29.98,1016.9,71,10,,,,,,,,,,,,,,1400.0,200.0,FEW,200.0,BKN,2000.0,OVC,7000.0,,
KRDR,12-03-2021,03:56,METAR,Normal,160,5.0,,,4000.0,Light Snow/Mist,-2.0,-2.7,29.99,1017.3,71,10,,,,,,,,,.02 IN,,,,,2300.0,2300.0,OVC,2300.0,,,,,,
KRDR,12-03-2021,03:42,SPECI,Normal,140,3.0,,,4000.0,Light Snow/Mist,-2.0,-3.0,29.99,1017.3,71,10,,,,,,,,,,,,,,1900.0,2300.0,OVC,2300.0,,,,,,
KRDR,12-03-2021,03:12,SPECI,Normal,140,4.0,,,4800.0,Light Snow/Mist,-2.0,-3.0,29.98,1016.9,71,10,,,,,,,,,,,,,,1400.0,200.0,SCT,200.0,OVC,1400.0,,,,
KRDR,12-03-2021,03:05,SPECI,Normal,130,3.0,,,3600.0,Light Snow/Mist,-2.0,-3.0,29.98,1016.9,71,10,,,,,,,,,,,,,,200.0,200.0,BKN,200.0,OVC,1400.0,,,,
KRDR,12-03-2021,03:01,SPECI,Normal,130,3.0,,,3200.0,Light Snow/Mist,-2.0,-3.0,29.98,1016.9,71,10,,,,,,,,,,,,,,1400.0,200.0,SCT,200.0,OVC,1400.0,,,,
KRDR,12-03-2021,02:56,METAR,Normal,110,3.0,,,3600.0,Light Snow/Mist,-2.0,-2.7,29.98,1017.0,71,10,,,,,,,,,.02 IN,.03 IN,,,,1400.0,200.0,SCT,200.0,OVC,1400.0,,,,
KRDR,12-03-2021,02:35,SPECI,Normal,90,3.0,,,2600.0,Light Snow/Mist,-2.0,-3.0,29.99,1017.3,,,,71,10,,,,,,,,,,,200.0,200.0,BKN,200.0,OVC,1400.0,,,,
KRDR,12-03-2021,02:27,SPECI,Normal,100,4.0,,,2400.0,Light Snow/Mist,-2.0,-3.0,29.98,1016.9,71,10,,,,,,,,,,,,,,200.0,200.0,BKN,200.0,OVC,1400.0,,,,
KRDR,12-03-2021,02:23,SPECI,Normal,100,4.0,,,2200.0,Light Snow/Mist,-2.0,-3.0,29.99,1017.4,,,,71,10,,,,,,,,,,,200.0,200.0,BKN,200.0,OVC,1400.0,,,,
KRDR,12-03-2021,02:20,SPECI,Normal,100,4.0,,,2200.0,Light Snow/Mist,-2.0,-3.0,29.99,1017.4,71,10,,,,,,,,,,,,,,200.0,200.0,BKN,200.0,,,,,,
KRDR,12-03-2021,02:17,SPECI,Normal,100,3.0,,,2200.0,Light Snow/Mist,-2.0,-3.0,29.99,1017.4,71,10,,,,,,,,,,,,,,1400.0,200.0,SCT,200.0,OVC,1400.0,,,,
KRDR,12-03-2021,02:07,SPECI,Normal,120,4.0,,,2800.0,Light Snow/Mist,-2.0,-3.0,29.98,1017.0,71,10,,,,,,,,,,,,,,1400.0,200.0,FEW,200.0,OVC,1400.0,,,,
KRDR,12-03-2021,01:56,METAR,Normal,130,4.0,,,3000.0,Light Snow/Mist,-1.7,-2.8,29.99,1017.4,71,10,,,,,,,,,.01 IN,,,,,1200.0,1400.0,OVC,1400.0,,,,,,
KRDR,12-03-2021,01:54,SPECI,Normal,140,3.0,,,3000.0,Light Snow/Mist,-2.0,-3.0,29.99,1017.4,71,10,,,,,,,,,,,,,,1200.0,1400.0,OVC,1400.0,,,,,,
KRDR,12-03-2021,01:46,SPECI,Normal,140,3.0,,,3200.0,Light Snow/Mist,-1.0,-3.0,29.99,1017.4,71,10,,,,,,,,,,,,,,1600.0,1800.0,OVC,1800.0,,,,,,
KRDR,12-03-2021,01:45,SPECI,Normal,140,3.0,,,3200.0,Light Snow/Mist,-1.0,-3.0,29.99,1017.4,71,10,,,,,,,,,,,,,,1600.0,2000.0,OVC,2000.0,,,,,,
KRDR,12-03-2021,01:35,SPECI,Normal,100,4.0,,,3000.0,Light Snow/Mist,-1.0,-3.0,29.98,1017.0,71,10,,,,,,,,,,,,,,1800.0,2600.0,OVC,2600.0,,,,,,
KRDR,12-03-2021,01:28,SPECI,Normal,90,4.0,,,4800.0,Light Snow/Mist,-1.0,-3.0,29.97,1016.7,71,10,,,,,,,,,,,,,,1800.0,2800.0,OVC,2800.0,,,,,,
KRDR,12-03-2021,01:25,SPECI,Normal,100,5.0,,,6400.0,Light Snow/Mist,-1.0,-3.0,29.97,1016.7,71,10,,,,,,,,,,,,,,2000.0,2800.0,OVC,2800.0,,,,,,
KRDR,12-03-2021,01:16,SPECI,Normal,110,5.0,,,9999.0,Light Snow,-1.0,-3.0,29.98,1017.0,71,,,,,,,,,,,,,,,3000.0,3000.0,OVC,3000.0,,,,,,
KRDR,12-03-2021,01:06,SPECI,Normal,110,4.0,,,9999.0,Light Snow/Mist,-1.0,-3.0,29.98,1017.0,71,10,,,,,,,,,,,,,,1600.0,1600.0,BKN,1600.0,,,,,,
KRDR,12-03-2021,00:56,METAR,Normal,120,4.0,,,9999.0,Light Snow,-1.0,-3.4,29.98,1016.9,71,,,,,,,,,,TRACE,,,,,1500.0,1600.0,BKN,1600.0,OVC,2400.0,,,,
KRDR,12-03-2021,00:45,SPECI,Normal,110,5.0,,,9999.0,Light Snow,-1.0,-3.0,29.98,1016.9,71,,,,,,,,,,,,,,,1500.0,1500.0,OVC,1500.0,,,,,,
KRDR,12-03-2021,00:35,SPECI,Normal,100,5.0,,,9999.0,,-1.0,-4.0,29.98,1016.9,,,,,,,,,,,,,,,,1500.0,1500.0,OVC,1500.0,,,,,,
KRDR,12-02-2021,23:56,METAR,Normal,90,6.0,,,9999.0,,-0.7,-3.6,29.97,1016.5,,,,,,,,,,,,,,,,1400.0,1400.0,OVC,1400.0,,,,,,
KRDR,12-02-2021,23:52,SPECI,Normal,90,6.0,,,9999.0,,-1.0,-4.0,29.97,1016.5,,,,,,,,,,,,,,,,1400.0,1400.0,OVC,1400.0,,,,,,
KRDR,12-02-2021,23:44,SPECI,Normal,80,7.0,,,9999.0,,-1.0,-3.0,29.97,1016.5,,,,,,,,,,,,,,,,1500.0,1500.0,OVC,1500.0,,,,,,
KRDR,12-02-2021,22:56,METAR,Normal,70,3.0,,,9999.0,,-0.4,-3.1,29.97,1016.4,,,,,,,,,,,,,,,,1700.0,1700.0,OVC,1700.0,,,,,,
KRDR,12-02-2021,21:56,METAR,Normal,70,5.0,,,9999.0,,-0.1,-3.1,29.96,1016.1,,,,,,,,,,,,,,,,1600.0,1600.0,OVC,1600.0,,,,,,
KRDR,12-02-2021,20:56,METAR,Normal,70,5.0,,,9999.0,,0.5,-2.9,29.96,1016.0,,,,,,,,,,,,,,,,1700.0,1700.0,OVC,1700.0,,,,,,
KRDR,12-02-2021,19:56,METAR,Normal,40,4.0,,,9999.0,,0.9,-3.0,29.97,1016.4,,,,,,,,,,,,,,,,1800.0,1800.0,OVC,1800.0,,,,,,
KRDR,12-02-2021,19:36,SPECI,Normal,50,5.0,,,9999.0,,1.0,-3.0,29.96,1016.0,,,,,,,,,,,,,,,,2000.0,2000.0,OVC,2000.0,,,,,,
KRDR,12-02-2021,18:56,METAR,Normal,40,5.0,,,9999.0,,1.1,-2.3,29.96,1016.0,,,,,,,,,,,,,,,,1600.0,1600.0,OVC,1600.0,,,,,,
KRDR,12-02-2021,18:41,SPECI,Normal,20,4.0,,,9999.0,,1.0,-3.0,29.97,1016.4,,,,,,,,,,,,,,,,1600.0,1600.0,OVC,1600.0,,,,,,
KRDR,12-02-2021,18:38,SPECI,Normal,20,5.0,,,9999.0,,1.0,-3.0,29.97,1016.4,,,,,,,,,,,,,,,,1500.0,1500.0,BKN,1500.0,OVC,2000.0,,,,
KRDR,12-02-2021,18:16,SPECI,Calm,,0.0,,,9999.0,,1.0,-2.0,29.98,1016.7,,,,,,,,,,,,,,,,1300.0,1300.0,SCT,1300.0,OVC,1900.0,,,,
KRDR,12-02-2021,17:56,METAR,Normal,50,3.0,,,9999.0,,0.9,-2.2,29.98,1016.7,,,,,,,,,,,,,,,,1300.0,1300.0,OVC,1300.0,,,,,,
KRDR,12-02-2021,17:16,SPECI,Normal,30,4.0,,,9999.0,,1.0,-2.0,29.96,1016.0,,,,,,,,,,,,,,,,1200.0,1200.0,BKN,1200.0,BKN,12000.0,,,,
KRDR,12-02-2021,16:56,METAR,Calm,,0.0,,,9999.0,,0.7,-1.7,29.95,1015.6,,,,,,,,,,,,,,,,13000.0,1100.0,SCT,1100.0,OVC,13000.0,,,,
KRDR,12-02-2021,16:47,SPECI,Calm,,0.0,,,9999.0,,1.0,-1.0,29.96,1016.0,,,,,,,,,,,,,,,,13000.0,1000.0,FEW,1000.0,OVC,13000.0,,,,
KRDR,12-02-2021,15:56,METAR,Normal,40,3.0,,,9999.0,,-0.2,-1.5,29.94,1015.3,,,,,,,,,,,,,,,,14000.0,14000.0,OVC,14000.0,,,,,,
KRDR,12-02-2021,15:26,SPECI,Calm,,0.0,,,9999.0,,-1.0,-2.0,29.93,1015.0,,,,,,,,,,,,,,,,15000.0,3100.0,FEW,3100.0,BKN,15000.0,OVC,17000.0,,
KRDR,12-02-2021,14:56,METAR,Calm,,0.0,,,9999.0,,-1.1,-2.2,29.93,1015.0,,,,,,,,,,,,,,,,2700.0,2700.0,OVC,2700.0,,,,,,
KRDR,12-02-2021,13:56,METAR,Normal,360,4.0,,,9999.0,,-3.1,-3.9,29.90,1014.1,,,,,,,,,,,,,,,,2500.0,2500.0,BKN,2500.0,BKN,14000.0,BKN,16000.0,,
KRDR,12-02-2021,12:56,METAR,Normal,360,5.0,,,9999.0,,-1.6,-3.0,29.86,1012.6,,,,,,,,,,,,,,,Clear,72000.0,,,,,,,,,
KRDR,12-02-2021,11:56,METAR,Normal,300,9.0,,,9999.0,,1.5,-1.6,29.83,1011.4,,,,,,,,,,,,,,,,,3500.0,SCT,3500.0,,,,,,
KRDR,12-02-2021,10:56,METAR,Normal,310,10.0,,,9999.0,,2.3,-1.3,29.81,1010.7,,,,,,,,,,,,,,,,,4900.0,FEW,4900.0,,,,,,
KRDR,12-02-2021,09:56,METAR,Normal,290,13.0,,,9999.0,,2.8,-1.2,29.78,1009.7,,,,,,,,,,,,,,,,15000.0,15000.0,BKN,15000.0,,,,,,
KRDR,12-02-2021,08:56,METAR,Normal,300,12.0,,,9999.0,,3.0,-1.2,29.76,1008.9,,,,,,,,,,,,,,,,14000.0,14000.0,BKN,14000.0,,,,,,
KRDR,12-02-2021,07:56,METAR,Normal,290,10.0,,,9999.0,,2.5,-1.3,29.72,1007.6,,,,,,,,,,,,,,,Clear,72000.0,,,,,,,,,
KRDR,12-02-2021,06:56,METAR,Normal,300,11.0,,,9999.0,,3.6,-1.0,29.69,1006.5,,,,,,,,,,,,,,,,12000.0,12000.0,BKN,12000.0,,,,,,
KRDR,12-02-2021,05:56,METAR,Normal,300,13.0,,,9999.0,,3.6,-1.0,29.67,1005.9,,,,,,,,,,,,,,,,12000.0,12000.0,BKN,12000.0,,,,,,
KRDR,12-02-2021,04:56,METAR,Normal,310,13.0,,,9999.0,,4.5,-0.9,29.62,1004.3,,,,,,,,,,,,,,,,12000.0,12000.0,OVC,12000.0,,,,,,
KRDR,12-02-2021,03:56,METAR,Normal,300,18.0,24.0,,9999.0,,5.2,0.2,29.60,1003.6,,,,,,,,,,,,,,,,13000.0,13000.0,OVC,13000.0,,,,,,
KRDR,12-02-2021,02:56,METAR,Normal,300,13.0,20.0,,9999.0,,5.4,-0.2,29.58,1003.0,,,,,,,,,,,,,,,,13000.0,13000.0,OVC,13000.0,,,,,,
KRDR,12-02-2021,01:56,METAR,Normal,290,17.0,,,9999.0,,5.7,0.9,29.55,1002.0,,,,,,,,,,,,,,,,13000.0,13000.0,OVC,13000.0,,,,,,
KRDR,12-02-2021,00:56,METAR,Normal,300,13.0,,,9999.0,,6.7,1.8,29.53,1001.2,,,,,,,,,,,,,,,,10000.0,10000.0,OVC,10000.0,,,,,,
KRDR,12-01-2021,23:56,METAR,Normal,270,14.0,18.0,,9999.0,,7.2,2.1,29.51,1000.7,,,,,,,,,,,,,,,,8000.0,8000.0,BKN,8000.0,OVC,10000.0,,,,
KRDR,12-01-2021,22:56,METAR,Normal,280,11.0,,,9999.0,,7.0,2.5,29.49,999.9,,,,,,,,,,,,,,,,8500.0,8500.0,BKN,8600.0,OVC,11000.0,,,,
KRDR,12-01-2021,21:56,METAR,Normal,280,13.0,,,9999.0,,7.3,3.2,29.48,999.6,,,,,,,,,,,,,,,,12000.0,12000.0,BKN,12000.0,,,,,,
KRDR,12-01-2021,20:56,METAR,Normal,290,15.0,21.0,,9999.0,,8.6,3.4,29.45,998.6,,,,,,,,,,,,,,,,14000.0,14000.0,BKN,14000.0,BKN,20000.0,,,,
KRDR,12-01-2021,19:56,METAR,Normal,280,16.0,22.0,,9999.0,,7.4,2.5,29.43,998.0,,,,,,,,,,,,,,,,10000.0,10000.0,BKN,10000.0,BKN,14000.0,BKN,25000.0,,
KRDR,12-01-2021,18:56,METAR,Normal,270,11.0,,,9999.0,,7.5,2.2,29.41,997.2,,,,,,,,,,,,,,,,14000.0,14000.0,BKN,14000.0,BKN,19000.0,BKN,22000.0,,
KRDR,12-01-2021,17:56,METAR,Normal,260,10.0,,,9999.0,,5.5,0.9,29.45,998.6,,,,,,,,,,,,,TRACE,,,13000.0,13000.0,BKN,13000.0,OVC,16000.0,,,,
KRDR,12-01-2021,16:56,METAR,Normal,190,8.0,,,9999.0,,3.3,0.2,29.47,999.3,,,,,,,,,,,,,,,,15000.0,15000.0,BKN,15000.0,,,,,,
KRDR,12-01-2021,15:55,METAR,Normal,190,8.0,,,9999.0,,2.0,-0.3,29.50,1000.4,,,,,,,,,,,,,,,,12000.0,12000.0,BKN,12000.0,BKN,16000.0,,,,
KRDR,12-01-2021,15:26,SPECI,Normal,180,8.0,,,9999.0,,2.0,0.0,29.50,1000.4,,,,,,,,,,,,,,,,12000.0,7000.0,FEW,7000.0,SCT,9100.0,OVC,12000.0,,
KRDR,12-01-2021,14:56,METAR,Normal,180,8.0,,,9999.0,,1.1,-0.5,29.52,1001.1,,,,,,,,,,,TRACE,TRACE,,,,7000.0,7000.0,BKN,7000.0,OVC,8600.0,,,,
KRDR,12-01-2021,14:36,SPECI,Normal,170,11.0,,,9999.0,,1.0,-1.0,29.52,1001.1,,,,,,,,,,,,,,,,6500.0,6500.0,BKN,6500.0,OVC,8000.0,,,,
KRDR,12-01-2021,14:03,SPECI,Normal,180,7.0,,,9999.0,Light Drizzle,1.0,-1.0,29.56,1002.5,51,,,,,,,,,,,,,,,7000.0,7000.0,BKN,7000.0,OVC,9600.0,,,,
KRDR,12-01-2021,13:56,METAR,Normal,180,6.0,,,9999.0,,0.5,-1.0,29.57,1002.8,,,,,,,,,,,,,,,,9000.0,6500.0,SCT,6500.0,OVC,9100.0,,,,
KRDR,12-01-2021,12:56,METAR,Normal,210,8.0,,,9999.0,,0.3,-1.3,29.60,1003.9,,,,,,,,,,,,,,,,13000.0,10000.0,SCT,10000.0,OVC,13000.0,,,,
KRDR,12-01-2021,11:56,METAR,Normal,180,3.0,,,9999.0,,-2.3,-3.1,29.61,1004.3,,,,,,,,,,,,,,.02 IN,,15000.0,15000.0,OVC,15000.0,,,,,,
KRDR,12-01-2021,10:56,METAR,Calm,,0.0,,,9999.0,,-1.6,-3.0,29.63,1005.0,,,,,,,,,,,,,,,,19000.0,19000.0,OVC,19000.0,,,,,,
KRDR,12-01-2021,09:56,METAR,Normal,260,7.0,,,9999.0,,-0.8,-2.1,29.65,1005.6,,,,,,,,,,,,,,,,,12000.0,SCT,12000.0,SCT,24000.0,,,,
KRDR,12-01-2021,08:56,METAR,Normal,230,4.0,,,9999.0,,-4.9,-5.6,29.67,1006.4,,,,,,,,,,,,,,,Clear,72000.0,,,,,,,,,
KRDR,12-01-2021,07:56,METAR,Normal,200,5.0,,,9999.0,,-3.4,-4.1,29.67,1006.4,,,,,,,,,,,,,,,Clear,72000.0,,,,,,,,,
KRDR,12-01-2021,06:56,METAR,Normal,200,5.0,,,9999.0,,-2.7,-3.4,29.68,1006.8,,,,,,,,,,,,,,,Clear,72000.0,,,,,,,,,
KRDR,12-01-2021,05:56,METAR,Normal,180,6.0,,,9999.0,,-1.5,-2.2,29.69,1007.0,,,,,,,,,,,,,.02 IN,,,4000.0,4000.0,BKN,4000.0,,,,,,
KRDR,12-01-2021,04:56,METAR,Normal,180,6.0,,,9999.0,,0.3,-0.7,29.70,1007.3,,,,,,,,,,,,,,,,3900.0,3900.0,BKN,3900.0,,,,,,
KRDR,12-01-2021,04:26,SPECI,Normal,180,12.0,,,9999.0,,1.0,0.0,29.71,1007.6,,,,,,,,,,,,,,,,700.0,700.0,OVC,700.0,,,,,,
KRDR,12-01-2021,03:56,METAR,Normal,180,12.0,,,9999.0,,0.8,-0.1,29.73,1008.3,,,,,,,,,,,TRACE,,,,,600.0,600.0,OVC,600.0,,,,,,
KRDR,12-01-2021,03:23,SPECI,Normal,180,10.0,,,9999.0,,1.0,0.0,29.75,1009.0,,,,,,,,,,,,,,,,600.0,600.0,OVC,600.0,,,,,,
KRDR,12-01-2021,03:10,SPECI,Normal,180,12.0,,,9999.0,Drizzle,1.0,0.0,29.76,1009.4,,,,51,,,,,,,,,,,,600.0,600.0,OVC,600.0,,,,,,
KRDR,12-01-2021,02:56,METAR,Normal,170,13.0,,,9999.0,,0.7,-0.2,29.76,1009.4,,,,,,,,,,,TRACE,.02 IN,,,,500.0,500.0,OVC,500.0,,,,,,
KRDR,12-01-2021,02:39,SPECI,Normal,170,12.0,,,9999.0,,1.0,0.0,29.77,1009.8,,,,,,,,,,,,,,,,400.0,400.0,OVC,400.0,,,,,,
KRDR,12-01-2021,02:26,SPECI,Normal,160,13.0,,,9999.0,Light Rain,0.0,0.0,29.78,1010.2,61,,,,,,,,,,,,,,,300.0,300.0,OVC,300.0,,,,,,
KRDR,12-01-2021,02:06,SPECI,Normal,160,13.0,,,9999.0,Light Snow,0.0,0.0,29.79,1010.5,71,,,,,,,,,,,,,,,300.0,300.0,OVC,300.0,,,,,,
KRDR,12-01-2021,01:56,METAR,Normal,160,14.0,,,4400.0,Light Snow/Mist,0.1,-0.6,29.80,1010.9,71,10,,,,,,,,,.01 IN,,,,,300.0,300.0,OVC,300.0,,,,,,
KRDR,12-01-2021,00:56,METAR,Normal,150,10.0,,,4800.0,Light Snow/Mist,-0.5,-1.5,29.85,1012.5,71,10,,,,,,,,,.01 IN,,,,,200.0,200.0,OVC,200.0,,,,,,
KRDR,12-01-2021,00:45,SPECI,Normal,160,11.0,,,4800.0,Light Snow/Mist,-1.0,-2.0,29.85,1012.6,71,10,,,,,,,,,,,,,,200.0,200.0,OVC,200.0,,,,,,
KRDR,12-01-2021,00:15,SPECI,Normal,160,10.0,,,4800.0,Light Snow,0.0,-2.0,29.88,1013.5,71,,,,,,,,,,,,,,,1900.0,2400.0,BKN,2400.0,OVC,4000.0,,,,
KRDR,11-30-2021,23:58,SPECI,Normal,150,12.0,,,9999.0,Light Snow,0.0,-3.0,29.88,1013.5,71,,,,,,,,,,,,,,,5500.0,2800.0,SCT,2800.0,SCT,4200.0,BKN,5500.0,OVC,7000.0
KRDR,11-30-2021,23:56,METAR,Normal,150,11.0,,,9999.0,,0.2,-3.5,29.88,1013.5,,,,,,,,,,,,,,,,7000.0,2800.0,FEW,2800.0,SCT,4100.0,SCT,6000.0,BKN,7000.0
KRDR,11-30-2021,22:56,METAR,Normal,130,9.0,,,9999.0,,-0.1,-3.1,29.91,1014.5,,,,,,,,,,,,,,,,7000.0,5000.0,FEW,5000.0,BKN,7000.0,OVC,11000.0,,
KRDR,11-30-2021,21:56,METAR,Normal,130,8.0,,,9999.0,,0.1,-4.2,29.96,1016.2,,,,,,,,,,,,,,,,9000.0,9000.0,OVC,9100.0,,,,,,
KRDR,11-30-2021,20:56,METAR,Normal,160,7.0,,,9999.0,,0.2,-5.6,29.98,1016.9,,,,,,,,,,,,,,,,12000.0,12000.0,BKN,12000.0,BKN,15000.0,,,,
KRDR,11-30-2021,19:56,METAR,Normal,150,7.0,,,9999.0,,0.2,-7.3,30.02,1018.2,,,,,,,,,,,,,,,,16000.0,16000.0,BKN,16000.0,BKN,19000.0,,,,
KRDR,11-30-2021,18:56,METAR,Normal,130,6.0,,,9999.0,,-0.3,-4.7,30.06,1019.5,,,,,,,,,,,,,,,,17000.0,17000.0,OVC,17000.0,,,,,,
KRDR,11-30-2021,17:56,METAR,Normal,80,5.0,,,9999.0,,0.2,-4.4,30.09,1020.5,,,,,,,,,,,,,,,,19000.0,19000.0,BKN,19000.0,,,,,,
KRDR,11-30-2021,16:56,METAR,Normal,30,5.0,,,9999.0,,0.0,-4.3,30.13,1021.9,,,,,,,,,,,,,,,,21000.0,18000.0,SCT,18000.0,BKN,21000.0,,,,
KRDR,11-30-2021,15:56,METAR,Normal,330,4.0,,,9999.0,,-0.6,-4.0,30.14,1022.2,,,,,,,,,,,,,,,,25000.0,20000.0,SCT,20000.0,BKN,25000.0,,,,
KRDR,11-30-2021,14:56,METAR,Normal,310,5.0,,,9999.0,,-2.0,-4.7,30.13,1021.9,,,,,,,,,,,,,,,,,20000.0,FEW,20000.0,SCT,25000.0,,,,
KRDR,11-30-2021,13:56,METAR,Normal,290,7.0,,,9999.0,,-3.2,-5.4,30.11,1021.3,,,,,,,,,,,,,,,,,20000.0,FEW,20000.0,,,,,,
KRDR,11-30-2021,12:56,METAR,Normal,290,8.0,,,9999.0,,-2.7,-4.7,30.10,1021.0,,,,,,,,,,,,,,,,,20000.0,FEW,20000.0,,,,,,
KRDR,11-30-2021,11:56,METAR,Normal,290,6.0,,,9999.0,,-2.6,-4.8,30.09,1020.7,,,,,,,,,,,,,,,Clear,72000.0,,,,,,,,,
KRDR,11-30-2021,10:56,METAR,Normal,310,7.0,,,9999.0,,-0.6,-3.6,30.07,1019.9,,,,,,,,,,,,,,,,,21000.0,FEW,21000.0,,,,,,
KRDR,11-30-2021,09:56,METAR,Normal,320,10.0,,,9999.0,,0.2,-2.8,30.07,1019.8,,,,,,,,,,,,,,,,,23000.0,SCT,23000.0,,,,,,
KRDR,11-30-2021,08:56,METAR,Normal,310,9.0,,,9999.0,,0.9,-2.5,30.05,1019.0,,,,,,,,,,,,,,,,,24000.0,FEW,24000.0,,,,,,
KRDR,11-30-2021,07:56,METAR,Normal,310,8.0,,,9999.0,,1.3,-2.3,30.02,1018.1,,,,,,,,,,,,,,,Clear,72000.0,,,,,,,,,
KRDR,11-30-2021,06:57,METAR,Normal,300,11.0,,,9999.0,,2.4,-1.8,30.00,1017.4,,,,,,,,,,,,,,,Clear,72000.0,,,,,,,,,
KRDR,11-30-2021,06:56,METAR,Normal,300,11.0,,,9999.0,,2.4,-1.8,30.00,1017.4,,,,,,,,,,,,,,,Clear,72000.0,,,,,,,,,
KRDR,11-30-2021,05:56,METAR,Normal,300,10.0,,,9999.0,,2.5,-1.5,29.97,1016.3,,,,,,,,,,,,,,,Clear,72000.0,,,,,,,,,
KRDR,11-30-2021,04:56,METAR,Normal,300,7.0,,,9999.0,,2.2,-1.4,29.94,1015.4,,,,,,,,,,,,,,,Clear,72000.0,,,,,,,,,
KRDR,11-30-2021,03:56,METAR,Normal,290,8.0,,,9999.0,,4.0,-0.6,29.92,1014.7,,,,,,,,,,,,,,,,,9500.0,SCT,9600.0,SCT,12000.0,,,,
KRDR,11-30-2021,02:56,METAR,Normal,300,11.0,,,9999.0,,4.3,-0.1,29.91,1014.4,,,,,,,,,,,,,,,,10000.0,7500.0,FEW,7500.0,BKN,10000.0,,,,
KRDR,11-30-2021,01:56,METAR,Normal,290,11.0,,,9999.0,,3.9,0.4,29.89,1013.7,,,,,,,,,,,,,,,,,15000.0,FEW,15000.0,SCT,22000.0,,,,
KRDR,11-30-2021,00:56,METAR,Normal,300,9.0,,,9999.0,,3.5,0.5,29.87,1013.1,,,,,,,,,,,,,,,,15000.0,11000.0,FEW,11000.0,BKN,15000.0,,,,
KRDR,11-29-2021,23:56,METAR,Normal,330,5.0,,,9999.0,,1.5,-0.7,29.85,1012.5,,,,,,,,,,,,,,,,,21000.0,FEW,21000.0,,,,,,
KRDR,11-29-2021,22:56,METAR,Normal,320,6.0,,,9999.0,,2.1,-0.5,29.84,1012.1,,,,,,,,,,,,,,,,,11000.0,FEW,11000.0,,,,,,
KRDR,11-29-2021,21:56,METAR,Normal,300,9.0,,,9999.0,,4.2,0.0,29.82,1011.3,,,,,,,,,,,,,,,,,11000.0,FEW,11000.0,SCT,22000.0,,,,
KRDR,11-29-2021,20:56,METAR,Normal,320,7.0,,,9999.0,,4.5,-0.3,29.81,1011.0,,,,,,,,,,,,,,,,,11000.0,FEW,11000.0,SCT,22000.0,,,,
KRDR,11-29-2021,19:56,METAR,Normal,310,9.0,,,9999.0,,3.5,-1.3,29.80,1010.6,,,,,,,,,,,,,,,,,11000.0,SCT,11000.0,,,,,,
KRDR,11-29-2021,18:56,METAR,Normal,320,12.0,,,9999.0,,2.9,-1.7,29.79,1010.3,,,,,,,,,,,,,,,,,11000.0,SCT,11000.0,,,,,,
KRDR,11-29-2021,17:56,METAR,Normal,320,13.0,,,9999.0,,3.0,-1.7,29.77,1009.6,,,,,,,,,,,,,TRACE,,,,11000.0,SCT,11000.0,,,,,,
KRDR,11-29-2021,16:56,METAR,Normal,330,14.0,,,9999.0,,2.1,-1.5,29.76,1009.3,,,,,,,,,,,,,,,,9000.0,9000.0,OVC,9100.0,,,,,,
KRDR,11-29-2021,15:56,METAR,Normal,320,5.0,,,9999.0,,0.8,-1.6,29.71,1007.6,,,,,,,,,,,TRACE,,,,,8500.0,8500.0,BKN,8600.0,BKN,12000.0,OVC,17000.0,,
KRDR,11-29-2021,15:40,SPECI,Normal,310,4.0,,,9999.0,,0.0,-2.0,29.72,1008.0,,,,,,,,,,,,,,,,9000.0,6000.0,FEW,6000.0,BKN,9100.0,BKN,12000.0,OVC,17000.0
KRDR,11-29-2021,15:18,SPECI,Normal,310,5.0,,,9999.0,Light Rain,-1.0,-3.0,29.71,1007.7,61,,,,,,,,,,,,,,,10000.0,10000.0,BKN,10000.0,OVC,13000.0,,,,
KRDR,11-29-2021,14:56,METAR,Normal,320,8.0,,,9999.0,,-1.3,-3.7,29.72,1008.1,,,,,,,,,,,,,,,,11000.0,8500.0,FEW,8600.0,BKN,11000.0,BKN,13000.0,OVC,15000.0
KRDR,11-29-2021,13:56,METAR,Normal,320,8.0,,,9999.0,,-2.2,-4.5,29.69,1007.0,,,,,,,,,,,,,,,,11000.0,9000.0,FEW,9100.0,OVC,11000.0,,,,
KRDR,11-29-2021,12:56,METAR,Normal,240,4.0,,,9999.0,,-4.1,-6.1,29.67,1006.4,,,,,,,,,,,,,,,,12000.0,12000.0,BKN,12000.0,OVC,19000.0,,,,
KRDR,11-29-2021,11:56,METAR,Normal,190,4.0,,,9999.0,,-3.0,-5.6,29.67,1006.4,,,,,,,,,,,,,,,,13000.0,13000.0,OVC,13000.0,,,,,,
KRDR,11-29-2021,10:56,METAR,Normal,150,4.0,,,9999.0,,-2.7,-5.7,29.67,1006.4,,,,,,,,,,,,,,,,18000.0,16000.0,FEW,16000.0,OVC,18000.0,,,,
KRDR,11-29-2021,09:56,METAR,Normal,150,6.0,,,9999.0,,-2.7,-5.8,29.68,1006.8,,,,,,,,,,,,,,,,20000.0,20000.0,OVC,20000.0,,,,,,
KRDR,11-29-2021,08:56,METAR,Normal,150,6.0,,,9999.0,,-3.1,-6.2,29.70,1007.5,,,,,,,,,,,,,,,Clear,72000.0,,,,,,,,,
KRDR,11-29-2021,07:56,METAR,Normal,160,8.0,,,9999.0,,-1.6,-5.5,29.70,1007.4,,,,,,,,,,,,,,,Clear,72000.0,,,,,,,,,
KRDR,11-29-2021,06:56,METAR,Normal,160,11.0,,,9999.0,,-0.5,-5.1,29.72,1008.0,,,,,,,,,,,,,,,Clear,72000.0,,,,,,,,,
KRDR,11-29-2021,05:56,METAR,Normal,160,14.0,,,9999.0,,0.4,-4.4,29.76,1009.4,,,,,,,,,,,,,,,,3700.0,3700.0,OVC,3700.0,,,,,,
KRDR,11-29-2021,04:56,METAR,Normal,160,10.0,,,9999.0,,0.1,-4.5,29.81,1011.1,,,,,,,,,,,,,,,,5000.0,5000.0,OVC,5000.0,,,,,,
KRDR,11-29-2021,03:56,METAR,Normal,160,12.0,18.0,,9999.0,,0.1,-4.7,29.84,1012.2,,,,,,,,,,,,,,,,5000.0,5000.0,BKN,5000.0,OVC,7000.0,,,,
KRDR,11-29-2021,02:56,METAR,Normal,150,12.0,,,9999.0,,-0.1,-4.9,29.88,1013.6,,,,,,,,,,,,,,,,7000.0,7000.0,OVC,7000.0,,,,,,
KRDR,11-29-2021,01:56,METAR,Normal,160,11.0,,,9999.0,,-0.5,-4.6,29.91,1014.6,,,,,,,,,,,,,,,,5500.0,3900.0,SCT,3900.0,BKN,5500.0,OVC,8600.0,,
KRDR,11-29-2021,00:56,METAR,Normal,150,9.0,,,9999.0,,-0.8,-4.7,29.94,1015.7,,,,,,,,,,,,,,,,8500.0,8500.0,OVC,8600.0,,,,,,
KRDR,11-28-2021,23:56,METAR,Normal,140,8.0,,,9999.0,,-0.8,-4.9,29.96,1016.4,,,,,,,,,,,,,,,,8500.0,8500.0,OVC,8600.0,,,,,,
KRDR,11-28-2021,22:56,METAR,Normal,140,10.0,,,9999.0,,-0.9,-5.3,29.96,1016.4,,,,,,,,,,,,,,,,10000.0,10000.0,OVC,10000.0,,,,,,
KRDR,11-28-2021,21:56,METAR,Normal,150,8.0,,,9999.0,,-0.5,-5.7,29.99,1017.4,,,,,,,,,,,,,,,,10000.0,10000.0,OVC,10000.0,,,,,,
KRDR,11-28-2021,20:56,METAR,Normal,160,9.0,,,9999.0,,-0.5,-6.1,30.02,1018.4,,,,,,,,,,,,,,,,10000.0,4200.0,SCT,4200.0,OVC,10000.0,,,,
KRDR,11-28-2021,19:56,METAR,Normal,180,7.0,,,9999.0,,-0.2,-7.5,30.04,1019.1,,,,,,,,,,,,,,,,10000.0,10000.0,BKN,10000.0,BKN,17000.0,,,,
KRDR,11-28-2021,18:56,METAR,Normal,170,8.0,,,9999.0,,-0.1,-7.8,30.06,1019.7,,,,,,,,,,,,,,,,18000.0,18000.0,BKN,18000.0,,,,,,
KRDR,11-28-2021,17:56,METAR,Normal,170,5.0,,,9999.0,,-0.4,-7.4,30.08,1020.4,,,,,,,,,,,,,,,,14000.0,14000.0,BKN,14000.0,,,,,,
KRDR,11-28-2021,16:56,METAR,Normal,170,3.0,,,9999.0,,-2.1,-8.4,30.11,1021.5,,,,,,,,,,,,,,,,12000.0,12000.0,OVC,12000.0,,,,,,
KRDR,11-28-2021,15:56,METAR,Calm,,0.0,,,9999.0,,-3.0,-7.9,30.12,1021.9,,,,,,,,,,,,,,,,14000.0,14000.0,OVC,14000.0,,,,,,
KRDR,11-28-2021,14:56,METAR,Calm,,0.0,,,9999.0,,-4.3,-7.7,30.12,1021.9,,,,,,,,,,,,,,,,14000.0,14000.0,OVC,14000.0,,,,,,
KRDR,11-28-2021,13:56,METAR,Normal,270,4.0,,,9999.0,,-4.7,-8.5,30.12,1021.9,,,,,,,,,,,,,,,,15000.0,15000.0,OVC,15000.0,,,,,,
KRDR,11-28-2021,12:56,METAR,Normal,290,4.0,,,9999.0,,-4.8,-8.4,30.13,1022.2,,,,,,,,,,,,,,,,11000.0,11000.0,OVC,11000.0,,,,,,
KRDR,11-28-2021,11:56,METAR,Normal,290,5.0,,,9999.0,,-4.8,-8.6,30.14,1022.5,,,,,,,,,,,,,,,,11000.0,11000.0,BKN,11000.0,OVC,13000.0,,,,
KRDR,11-28-2021,10:56,METAR,Normal,290,6.0,,,9999.0,,-5.2,-9.3,30.12,1021.8,,,,,,,,,,,,,,,,18000.0,18000.0,OVC,18000.0,,,,,,
KRDR,11-28-2021,09:56,METAR,Normal,300,8.0,,,9999.0,,-4.8,-9.4,30.13,1022.1,,,,,,,,,,,,,,,,18000.0,18000.0,BKN,18000.0,BKN,21000.0,,,,
KRDR,11-28-2021,08:56,METAR,Normal,310,9.0,,,9999.0,,-4.2,-9.2,30.14,1022.3,,,,,,,,,,,,,,,,,20000.0,FEW,20000.0,,,,,,
KRDR,11-28-2021,07:56,METAR,Normal,300,10.0,,,9999.0,,-3.3,-9.3,30.12,1021.6,,,,,,,,,,,,,,,Clear,72000.0,,,,,,,,,
KRDR,11-28-2021,06:56,METAR,Normal,280,11.0,,,9999.0,,-3.5,-9.7,30.12,1021.6,,,,,,,,,,,,,,,Clear,72000.0,,,,,,,,,
KRDR,11-28-2021,05:56,METAR,Normal,280,11.0,,,9999.0,,-3.1,-10.9,30.12,1021.6,,,,,,,,,,,,,,,Clear,72000.0,,,,,,,,,
KRDR,11-28-2021,04:56,METAR,Normal,290,8.0,,,9999.0,,-3.5,-10.2,30.12,1021.6,,,,,,,,,,,,,,,Clear,72000.0,,,,,,,,,
KRDR,11-28-2021,03:56,METAR,Normal,300,12.0,,,9999.0,,-2.6,-9.5,30.13,1022.1,,,,,,,,,,,,,,,Clear,72000.0,,,,,,,,,
KRDR,11-28-2021,02:56,METAR,Normal,300,13.0,,,9999.0,,-2.3,-8.8,30.13,1022.1,,,,,,,,,,,,,,,Clear,72000.0,,,,,,,,,
KRDR,11-28-2021,01:56,METAR,Normal,300,13.0,,,9999.0,,-1.7,-7.2,30.13,1022.1,,,,,,,,,,,,,,,Clear,72000.0,,,,,,,,,
KRDR,11-28-2021,00:56,METAR,Normal,310,15.0,,,9999.0,,-0.8,-6.4,30.11,1021.5,,,,,,,,,,,,,,,Clear,72000.0,,,,,,,,,
KRDR,11-27-2021,23:56,METAR,Normal,300,14.0,19.0,,9999.0,,0.0,-5.4,30.10,1021.1,,,,,,,,,,,,,,,Clear,72000.0,,,,,,,,,
KRDR,11-27-2021,22:56,METAR,Normal,300,15.0,21.0,,9999.0,,0.9,-4.7,30.07,1020.0,,,,,,,,,,,,,,,Clear,72000.0,,,,,,,,,
KRDR,11-27-2021,21:56,METAR,Normal,310,15.0,21.0,,9999.0,,2.2,-4.1,30.06,1019.7,,,,,,,,,,,,,,,Clear,72000.0,,,,,,,,,
KRDR,11-27-2021,20:56,METAR,Normal,310,16.0,23.0,310/26KTS,9999.0,,3.3,-3.3,30.05,1019.3,,,,,,,,,,,,,,,Clear,72000.0,,,,,,,,,
KRDR,11-27-2021,19:56,METAR,Normal,300,21.0,28.0,,9999.0,,4.1,-2.3,30.01,1018.0,,,,,,,,,,,,,,,Clear,72000.0,,,,,,,,,
KRDR,11-27-2021,18:56,METAR,Normal,310,13.0,,,9999.0,,4.6,-1.8,29.99,1017.2,,,,,,,,,,,,,,,Clear,72000.0,,,,,,,,,
KRDR,11-27-2021,17:56,METAR,Normal,320,12.0,,,9999.0,,4.5,-1.9,29.98,1016.9,,,,,,,,,,,,,,,,9500.0,9500.0,OVC,9600.0,,,,,,
KRDR,11-27-2021,16:56,METAR,Normal,310,7.0,,,9999.0,,3.2,-1.7,29.97,1016.5,,,,,,,,,,,,,,,,9000.0,9000.0,OVC,9100.0,,,,,,
KRDR,11-27-2021,15:56,METAR,Normal,290,5.0,,,9999.0,,0.9,-2.2,29.94,1015.6,,,,,,,,,,,,,,,,9000.0,9000.0,OVC,9100.0,,,,,,
KRDR,11-27-2021,14:56,METAR,Normal,320,4.0,,,9999.0,,-1.0,-3.2,29.91,1014.5,,,,,,,,,,,,,,,,9000.0,9000.0,OVC,9100.0,,,,,,
KRDR,11-27-2021,13:56,METAR,Normal,340,6.0,,,9999.0,,-2.9,-4.6,29.88,1013.6,,,,,,,,,,,,,,,,12000.0,12000.0,BKN,12000.0,,,,,,
KRDR,11-27-2021,12:56,METAR,Normal,350,9.0,,,9999.0,,-2.5,-4.2,29.85,1012.6,,,,,,,,,,,,,,,,11000.0,11000.0,OVC,11000.0,,,,,,
KRDR,11-27-2021,11:56,METAR,Normal,340,7.0,,,9999.0,,-3.1,-4.8,29.82,1011.6,,,,,,,,,,,,,,,,,15000.0,FEW,15000.0,,,,,,
KRDR,11-27-2021,10:56,METAR,Normal,310,4.0,,,9999.0,,-3.4,-5.4,29.79,1010.5,,,,,,,,,,,,,,,,10000.0,10000.0,BKN,10000.0,BKN,12000.0,,,,
KRDR,11-27-2021,09:56,METAR,Normal,310,3.0,,,9999.0,,-4.5,-6.2,29.76,1009.5,,,,,,,,,,,,,,,,10000.0,10000.0,OVC,10000.0,,,,,,
KRDR,11-27-2021,08:56,METAR,Normal,310,3.0,,,9999.0,,-5.1,-6.6,29.74,1008.9,,,,,,,,,,,,,,,,10000.0,10000.0,OVC,10000.0,,,,,,
KRDR,11-27-2021,07:56,METAR,Calm,,0.0,,,9999.0,,-6.0,-7.5,29.72,1008.2,,,,,,,,,,,,,,,,14000.0,11000.0,SCT,11000.0,BKN,14000.0,,,,
KRDR,11-27-2021,06:56,METAR,Calm,,0.0,,,9999.0,,-4.8,-6.9,29.71,1007.9,,,,,,,,,,,,,,,,,12000.0,SCT,12000.0,,,,,,
KRDR,11-27-2021,05:56,METAR,Calm,,0.0,,,9999.0,,-5.2,-7.0,29.71,1008.0,,,,,,,,,,,,,,,,11000.0,11000.0,BKN,11000.0,BKN,17000.0,,,,
KRDR,11-27-2021,04:56,METAR,Normal,130,4.0,,,9999.0,,-3.1,-6.1,29.71,1007.9,,,,,,,,,,,,,,,,15000.0,11000.0,SCT,11000.0,OVC,15000.0,,,,
KRDR,11-27-2021,03:56,METAR,Normal,150,5.0,,,9999.0,,-2.9,-5.9,29.69,1007.3,,,,,,,,,,,,,,,,13000.0,13000.0,BKN,13000.0,BKN,20000.0,,,,
KRDR,11-27-2021,02:56,METAR,Normal,150,7.0,,,9999.0,,-1.6,-5.3,29.70,,,,,,,,,,,,,,,,,10000.0,10000.0,OVC,10000.0,,,,,,
KRDR,11-27-2021,01:56,METAR,Normal,170,8.0,,,9999.0,,-1.1,-5.0,29.70,,,,,,,,,,,,,,,,,10000.0,10000.0,OVC,10000.0,,,,,,
KRDR,11-27-2021,00:56,METAR,Normal,170,7.0,,,9999.0,,-1.7,-5.2,29.70,,,,,,,,,,,,,,,,,12000.0,12000.0,BKN,12000.0,BKN,15000.0,,,,
KRDR,11-26-2021,23:56,METAR,Normal,140,6.0,,,9999.0,,-1.3,-5.2,29.72,,,,,,,,,,,,,,,,,14000.0,14000.0,OVC,14000.0,,,,,,
KRDR,11-26-2021,22:56,METAR,Normal,140,6.0,,,9999.0,,-0.8,-5.4,29.72,,,,,,,,,,,,,,,,,14000.0,14000.0,OVC,14000.0,,,,,,
KRDR,11-26-2021,21:56,METAR,Normal,150,9.0,,,9999.0,,-0.2,-5.0,29.73,,,,,,,,,,,,,,,,,10000.0,10000.0,OVC,10000.0,,,,,,
KRDR,11-26-2021,20:56,METAR,Normal,160,9.0,,,9999.0,,-0.2,-5.2,29.72,,,,,,,,,,,,,,,,,12000.0,12000.0,OVC,12000.0,,,,,,
KRDR,11-26-2021,19:56,METAR,Normal,170,9.0,,,9999.0,,-0.7,-6.1,29.73,,,,,,,,,,,,,,,,,12000.0,12000.0,BKN,12000.0,OVC,14000.0,,,,
KRDR,11-26-2021,18:56,METAR,Normal,170,10.0,,,9999.0,,-1.6,-7.1,29.74,,,,,,,,,,,,,,,,,14000.0,14000.0,BKN,14000.0,OVC,17000.0,,,,
KRDR,11-26-2021,17:56,METAR,Normal,170,9.0,,,9999.0,,-2.8,-7.7,29.77,,,,,,,,,,,,,,,,,14000.0,14000.0,BKN,14000.0,BKN,16000.0,BKN,18000.0,,
KRDR,11-26-2021,16:56,METAR,Normal,180,10.0,,,9999.0,,-3.9,-8.6,29.79,,,,,,,,,,,,,,,,,18000.0,15000.0,FEW,15000.0,BKN,18000.0,BKN,20000.0,,
KRDR,11-26-2021,15:56,METAR,Normal,170,11.0,,,9999.0,,-4.8,-9.8,29.78,1010.5,,,,,,,,,,,,,,,Clear,72000.0,,,,,,,,,
KRDR,11-25-2021,11:56,METAR,Calm,,0.0,,,9999.0,,-18.7,-21.8,30.49,1035.6,,,,,,,,,,,,,,,Clear,72000.0,,,,,,,,,
KRDR,11-25-2021,10:56,METAR,Calm,,0.0,,,9999.0,,-17.3,-21.4,30.49,1035.4,,,,,,,,,,,,,,,Clear,72000.0,,,,,,,,,
KRDR,11-25-2021,09:56,METAR,Normal,300,6.0,,,9999.0,,-17.6,-21.5,30.49,1035.5,,,,,,,,,,,,,,,Clear,72000.0,,,,,,,,,
KRDR,11-25-2021,08:56,METAR,Normal,300,7.0,,,9999.0,,-17.0,-20.9,30.50,1035.7,,,,,,,,,,,,,,,Clear,72000.0,,,,,,,,,
KRDR,11-25-2021,07:56,METAR,Normal,300,4.0,,,9999.0,,-16.9,-20.6,30.49,1035.3,,,,,,,,,,,,,,,Clear,72000.0,,,,,,,,,
KRDR,11-25-2021,06:56,METAR,Normal,310,7.0,,,9999.0,,-15.7,-20.0,30.48,1035.0,,,,,,,,,,,,,,,Clear,72000.0,,,,,,,,,
KRDR,11-25-2021,05:56,METAR,Normal,310,7.0,,,9999.0,,-15.6,-19.4,30.49,1035.2,,,,,,,,,,,,,,,Clear,72000.0,,,,,,,,,
KRDR,11-25-2021,04:56,METAR,Normal,320,8.0,,,9999.0,,-15.0,-18.6,30.47,1034.5,,,,,,,,,,,,,,,Clear,72000.0,,,,,,,,,
KRDR,11-25-2021,03:56,METAR,Normal,320,8.0,,,9999.0,,-14.4,-18.1,30.46,1034.0,,,,,,,,,,,,,,,Clear,72000.0,,,,,,,,,
KRDR,11-25-2021,02:56,METAR,Normal,320,8.0,,,9999.0,,-14.1,-17.6,30.45,1033.7,,,,,,,,,,,,,,,Clear,72000.0,,,,,,,,,
KRDR,11-25-2021,01:56,METAR,Normal,330,12.0,,,9999.0,,-13.1,-17.0,30.44,1033.3,,,,,,,,,,,,,,,,,13000.0,FEW,13000.0,,,,,,
KRDR,11-25-2021,00:56,METAR,Normal,330,14.0,,,9999.0,,-13.0,-16.9,30.41,1032.2,,,,,,,,,,,,,,,,,14000.0,FEW,14000.0,,,,,,
KRDR,11-24-2021,23:56,METAR,Normal,340,14.0,,,9999.0,,-12.4,-16.3,30.38,1031.1,,,,,,,,,,,,,TRACE,,,,1100.0,SCT,1100.0,SCT,1600.0,,,,
KRDR,11-24-2021,22:56,METAR,Normal,340,17.0,,,9999.0,,-11.9,-16.1,30.34,,,,,,,,,,,,,,,,,,1400.0,SCT,1400.0,SCT,2000.0,,,,
KRDR,11-24-2021,22:26,SPECI,Normal,340,17.0,21.0,,9999.0,,-11.0,-16.0,30.33,1029.4,,,,,,,,,,,,,,,,700.0,700.0,FEW,700.0,BKN,1400.0,BKN,2100.0,,
KRDR,11-24-2021,22:06,SPECI,Normal,340,17.0,23.0,,9999.0,,-11.0,-15.0,30.32,1029.0,,,,,,,,,,,,,,,,700.0,700.0,BKN,700.0,BKN,1300.0,BKN,2200.0,,
KRDR,11-24-2021,21:56,METAR,Normal,340,17.0,25.0,330/26KTS,9999.0,,-11.1,-15.3,30.31,1028.7,,,,,,,,,,,TRACE,,,,,900.0,900.0,SCT,900.0,BKN,1600.0,BKN,2200.0,,
KRDR,11-24-2021,21:35,SPECI,Normal,350,19.0,22.0,,9999.0,Light Snow,-10.0,-15.0,30.29,1027.9,71,,,,,,,,,,,,,,,500.0,500.0,BKN,500.0,BKN,1000.0,BKN,1700.0,,
KRDR,11-24-2021,21:23,SPECI,Normal,340,21.0,26.0,,9999.0,Light Snow,-10.0,-14.0,30.28,1027.7,71,,,,,,,,,,,,,,,500.0,500.0,BKN,500.0,,,,,,
KRDR,11-24-2021,21:19,SPECI,Normal,340,19.0,26.0,,9999.0,Light Snow,-10.0,-14.0,30.28,1027.7,71,,,,,,,,,,,,,,,700.0,700.0,BKN,700.0,,,,,,
KRDR,11-24-2021,21:14,SPECI,Normal,350,19.0,24.0,,4800.0,Light Snow,-10.0,-13.0,30.27,1027.3,71,,,,,,,,,,,,,,,500.0,500.0,BKN,500.0,BKN,1000.0,,,,
KRDR,11-24-2021,21:11,SPECI,Normal,350,20.0,24.0,,1600.0,Snow,-10.0,-14.0,30.27,1027.3,,,,73,,,,,,,,,,,,500.0,500.0,BKN,500.0,,,,,,
KRDR,11-24-2021,20:58,SPECI,Normal,350,17.0,24.0,,4800.0,Light Snow,-10.0,-14.0,30.25,1026.6,,,,71,,,,,,,,,,,,500.0,500.0,BKN,500.0,BKN,900.0,,,,
KRDR,11-24-2021,20:56,METAR,Normal,350,19.0,24.0,,8000.0,Light Snow,-10.0,-13.6,30.25,1026.6,71,,,,,,,,,,TRACE,TRACE,,,,500.0,500.0,BKN,500.0,BKN,900.0,,,,
KRDR,11-24-2021,20:13,SPECI,Normal,350,17.0,23.0,,9999.0,Light Snow,-10.0,-13.0,30.23,1025.9,,,,71,,,,,,,,,,,,700.0,700.0,BKN,700.0,BKN,1200.0,OVC,2200.0,,
KRDR,11-24-2021,19:56,METAR,Normal,350,18.0,24.0,350/25KTS,8000.0,,-9.0,-14.0,30.22,,,,,,,,,,,,,,,,,600.0,600.0,BKN,600.0,BKN,1100.0,BKN,1700.0,OVC,2200.0
KRDR,11-24-2021,18:56,METAR,Normal,360,19.0,26.0,340/29KTS,9999.0,,-9.2,-13.0,30.19,1024.5,,,,,,,,,,,,,,,,800.0,800.0,BKN,800.0,BKN,1000.0,OVC,1600.0,,
KRDR,11-24-2021,18:40,SPECI,Normal,360,21.0,26.0,,9999.0,,-9.0,-13.0,30.18,1024.2,,,,,,,,,,,,,,,,700.0,700.0,BKN,700.0,BKN,1300.0,OVC,1900.0,,
KRDR,11-24-2021,18:20,SPECI,Normal,360,20.0,24.0,,9999.0,,-9.0,-13.0,30.17,1023.8,,,,,,,,,,,,,,,,800.0,800.0,BKN,800.0,BKN,1400.0,BKN,2000.0,OVC,4200.0
KRDR,11-24-2021,17:56,METAR,Normal,350,21.0,,320/32KTS,9999.0,,-8.2,-12.4,30.17,1023.7,,,,,,,,,,,,,TRACE,,,700.0,700.0,BKN,700.0,OVC,1700.0,,,,
KRDR,11-24-2021,16:56,METAR,Normal,360,23.0,29.0,330/31KTS,9999.0,,-7.7,-11.4,30.13,1022.3,,,,,,,,,,,TRACE,,,,,1700.0,1700.0,BKN,1700.0,OVC,4500.0,,,,
KRDR,11-24-2021,16:19,SPECI,Normal,350,21.0,30.0,,9999.0,,-7.0,-10.0,30.10,1021.3,,,,,,,,,,,,,,,,1400.0,1400.0,BKN,1400.0,BKN,1900.0,OVC,8000.0,,
KRDR,11-24-2021,16:05,SPECI,Normal,360,22.0,30.0,,9999.0,,-7.0,-10.0,30.08,1020.6,,,,,,,,,,,,,,,,1100.0,1100.0,BKN,1100.0,OVC,1900.0,,,,
KRDR,11-24-2021,15:55,SPECI,Normal,360,21.0,28.0,,9999.0,,-6.0,-9.0,30.07,1020.2,,,,,,,,,,,,,,,,1300.0,1300.0,BKN,1300.0,OVC,2100.0,,,,
KRDR,11-24-2021,15:54,METAR,Normal,360,20.0,30.0,360/31KTS,9999.0,,-6.0,-9.0,30.07,1020.2,,,,,,,,,,,TRACE,,,,,1300.0,1300.0,BKN,1300.0,OVC,2100.0,,,,
KRDR,11-24-2021,15:28,SPECI,Normal,360,20.0,27.0,,3200.0,Light Snow,-6.0,-9.0,30.05,1019.5,,,,71,,,,,,,,,,,,1400.0,1400.0,OVC,1400.0,,,,,,
KRDR,11-24-2021,14:56,METAR,Normal,360,21.0,31.0,360/31KTS,9999.0,,-5.6,-8.8,30.02,1018.5,,,,,,,,,,,,,,,,1400.0,1400.0,BKN,1400.0,OVC,8000.0,,,,
KRDR,11-24-2021,14:46,SPECI,Normal,360,17.0,26.0,,9999.0,,-5.0,-8.0,30.01,1018.0,,,,,,,,,,,,,,,,1400.0,800.0,SCT,800.0,BKN,1400.0,OVC,8000.0,,
KRDR,11-24-2021,13:56,METAR,Normal,360,22.0,28.0,340/29KTS,9999.0,,-4.0,-6.2,29.95,1016.0,,,,,,,,,,,,,,,,800.0,800.0,BKN,800.0,OVC,1300.0,,,,
KRDR,11-24-2021,13:27,SPECI,Normal,360,20.0,28.0,,9999.0,,-3.0,-5.0,29.92,1015.0,,,,,,,,,,,,,,,,800.0,800.0,BKN,800.0,,,,,,
KRDR,11-24-2021,12:56,METAR,Normal,10,17.0,28.0,020/29KTS,9999.0,,-2.8,-4.8,29.89,1013.9,,,,,,,,,,,,,,,,1100.0,1100.0,BKN,1100.0,,,,,,
KRDR,11-24-2021,12:46,SPECI,Normal,10,17.0,23.0,,9999.0,,-3.0,-5.0,29.88,1013.6,,,,,,,,,,,,,,,,1200.0,1200.0,BKN,1200.0,BKN,13000.0,,,,
KRDR,11-24-2021,12:40,SPECI,Normal,10,18.0,29.0,,9999.0,,-3.0,-5.0,29.87,1013.3,,,,,,,,,,,,,,,,13000.0,1200.0,SCT,1200.0,BKN,13000.0,,,,
KRDR,11-24-2021,11:56,METAR,Normal,360,15.0,20.0,,9999.0,,-2.8,-4.7,29.83,1011.9,,,,,,,,,,,,,,,,1200.0,1200.0,BKN,1200.0,BKN,11000.0,,,,
KRDR,11-24-2021,11:46,SPECI,Normal,360,14.0,20.0,,9999.0,,-3.0,-5.0,29.83,1011.9,,,,,,,,,,,,,,,,1000.0,1000.0,BKN,1000.0,BKN,11000.0,,,,
KRDR,11-24-2021,10:56,METAR,Normal,10,16.0,22.0,,9999.0,,-3.0,-4.0,29.75,,,,,,,,,,,,,,,,,800.0,800.0,BKN,800.0,BKN,11000.0,,,,
KRDR,11-24-2021,09:56,METAR,Normal,10,16.0,22.0,,9999.0,,-2.7,-4.4,29.75,1009.0,,,,,,,,,,,,,,,,800.0,800.0,BKN,800.0,OVC,11000.0,,,,
KRDR,11-24-2021,09:32,SPECI,Normal,360,14.0,,,9999.0,,-3.0,-4.0,29.73,1008.3,,,,,,,,,,,,,,,,900.0,900.0,BKN,900.0,BKN,11000.0,,,,
KRDR,11-24-2021,08:56,METAR,Normal,10,17.0,,,9999.0,,-3.2,-4.8,29.71,1007.6,,,,,,,,,,,,,,,,,900.0,FEW,900.0,SCT,11000.0,,,,
KRDR,11-24-2021,08:32,SPECI,Normal,10,18.0,,,9999.0,,-3.0,-5.0,29.68,,,,,,,,,,,,,,,,,,1100.0,FEW,1100.0,,,,,,
KRDR,11-24-2021,07:56,METAR,Normal,360,16.0,21.0,,9999.0,,-2.6,-4.9,29.65,,,,,,,,,,,,,,,,,,11000.0,SCT,11000.0,,,,,,
KRDR,11-24-2021,07:55,METAR,Normal,360,16.0,21.0,,9999.0,,-3.0,-5.0,29.65,1005.5,,,,,,,,,,,,,,,,,11000.0,SCT,11000.0,,,,,,
KRDR,11-24-2021,06:56,METAR,Normal,360,12.0,19.0,,9999.0,,-2.5,-4.8,29.63,,,,,,,,,,,,,,,,Clear,72000.0,,,,,,,,,
KRDR,11-24-2021,05:56,METAR,Normal,350,12.0,,,9999.0,,-2.0,-4.5,29.61,,,,,,,,,,,,,,,,Clear,72000.0,,,,,,,,,
KRDR,11-24-2021,04:56,METAR,Normal,360,12.0,,,9999.0,,-1.0,-4.0,29.59,,,,,,,,,,,,,,,,,21000.0,21000.0,BKN,21000.0,,,,,,
KRDR,11-24-2021,03:56,METAR,Normal,350,9.0,,,9999.0,,-0.4,-3.1,29.56,,,,,,,,,,,,,,,,,21000.0,21000.0,BKN,21000.0,,,,,,
KRDR,11-24-2021,02:56,METAR,Normal,330,8.0,,,9999.0,,-0.3,-2.8,29.54,1001.8,,,,,,,,,,,,,,,,20000.0,18000.0,SCT,18000.0,BKN,20000.0,,,,
KRDR,11-24-2021,01:56,METAR,Normal,350,6.0,,,9999.0,,-0.7,-2.9,29.53,1001.6,,,,,,,,,,,,,,,,19000.0,19000.0,BKN,19000.0,BKN,22000.0,,,,
KRDR,11-24-2021,00:56,METAR,Normal,330,3.0,,,9999.0,,-1.9,-3.3,29.54,1002.0,,,,,,,,,,,,,,,,25000.0,25000.0,BKN,25000.0,,,,,,
KRDR,11-23-2021,23:56,METAR,Normal,340,5.0,,,9999.0,,-0.4,-2.8,29.53,1001.6,,,,,,,,,,,,,,,,20000.0,20000.0,BKN,20000.0,,,,,,
KRDR,11-23-2021,23:55,METAR,Normal,340,5.0,,,9999.0,,0.0,-3.0,29.52,,,,,,,,,,,,,,,,,20000.0,20000.0,BKN,20000.0,,,,,,
KRDR,11-23-2021,22:56,METAR,Normal,280,3.0,,,9999.0,,1.1,-2.3,29.53,1001.6,,,,,,,,,,,,,,,Clear,72000.0,,,,,,,,,
KRDR,11-23-2021,21:56,METAR,Normal,330,4.0,,,9999.0,,3.3,-0.7,29.52,1001.2,,,,,,,,,,,,,,,,20000.0,20000.0,BKN,20000.0,,,,,,
KRDR,11-23-2021,20:58,METAR,Normal,170,4.0,,,9999.0,,4.0,-1.0,29.52,,,,,,,,,,,,,,,,Clear,72000.0,,,,,,,,,
KRDR,11-23-2021,19:59,METAR,Calm,,0.0,,,9999.0,,5.0,-1.0,29.52,,,,,,,,,,,,,,,,,,16000.0,FEW,16000.0,FEW,19000.0,,,,
KRDR,11-23-2021,18:58,METAR,Normal,140,5.0,,,9999.0,,4.0,-1.0,29.52,,,,,,,,,,,,,,,,,,20000.0,FEW,20000.0,,,,,,
KRDR,11-23-2021,17:56,METAR,Normal,200,3.0,,,9999.0,,3.1,-1.8,29.53,1001.6,,,,,,,,,,,,,,,,,19000.0,FEW,19000.0,FEW,21000.0,,,,
KRDR,11-23-2021,16:56,METAR,Normal,190,8.0,,,9999.0,,1.0,-2.8,29.55,1002.3,,,,,,,,,,,,,,,,,14000.0,FEW,14000.0,FEW,19000.0,,,,
KRDR,11-23-2021,15:56,METAR,Normal,180,8.0,,,9999.0,,-0.6,-4.3,29.57,1003.2,,,,,,,,,,,,,,,Clear,72000.0,,,,,,,,,
KRDR,11-23-2021,14:56,METAR,Normal,200,12.0,,,9999.0,,-0.7,-4.4,29.57,1003.1,,,,,,,,,,,,,,,,,19000.0,FEW,19000.0,,,,,,
KRDR,11-23-2021,13:56,METAR,Normal,190,13.0,,,9999.0,,-1.9,-5.1,29.59,1003.8,,,,,,,,,,,,,,,Clear,72000.0,,,,,,,,,
KRDR,11-23-2021,12:56,METAR,Normal,180,14.0,,,9999.0,,-2.4,-5.7,29.61,1004.5,,,,,,,,,,,,,,,Clear,72000.0,,,,,,,,,
KRDR,11-23-2021,11:56,METAR,Normal,180,13.0,,,9999.0,,-2.2,-5.4,29.64,1005.5,,,,,,,,,,,,,,,Clear,72000.0,,,,,,,,,
KRDR,11-23-2021,10:56,METAR,Normal,170,15.0,,,9999.0,,-3.3,-6.3,29.68,1006.9,,,,,,,,,,,,,,,Clear,72000.0,,,,,,,,,
KRDR,11-23-2021,09:56,METAR,Normal,170,13.0,,,9999.0,,-3.8,-6.6,29.74,1008.9,,,,,,,,,,,,,,,Clear,72000.0,,,,,,,,,
KRDR,11-23-2021,08:56,METAR,Normal,160,9.0,,,9999.0,,-5.0,-7.3,29.79,1010.7,,,,,,,,,,,,,,,Clear,72000.0,,,,,,,,,
KRDR,11-23-2021,07:56,METAR,Normal,140,7.0,,,9999.0,,-4.7,-7.3,29.82,1011.7,,,,,,,,,,,,,,,Clear,72000.0,,,,,,,,,
KRDR,11-23-2021,06:56,METAR,Normal,160,7.0,,,9999.0,,-5.2,-7.8,29.87,1013.4,,,,,,,,,,,,,,,Clear,72000.0,,,,,,,,,
KRDR,11-23-2021,05:56,METAR,Normal,170,6.0,,,9999.0,,-5.6,-8.0,29.90,1014.5,,,,,,,,,,,,,,,,25000.0,25000.0,BKN,25000.0,,,,,,
KRDR,11-23-2021,04:56,METAR,Normal,170,6.0,,,9999.0,,-5.9,-8.2,29.92,1015.2,,,,,,,,,,,,,,,,25000.0,25000.0,BKN,25000.0,,,,,,
KRDR,11-23-2021,03:56,METAR,Normal,170,6.0,,,9999.0,,-6.1,-8.4,29.95,1016.2,,,,,,,,,,,,,,,,25000.0,25000.0,BKN,25000.0,,,,,,
KRDR,11-23-2021,02:56,METAR,Normal,160,5.0,,,9999.0,,-5.8,-8.2,29.98,1017.3,,,,,,,,,,,,,,,,8000.0,8000.0,OVC,8000.0,,,,,,
KRDR,11-23-2021,01:56,METAR,Normal,150,5.0,,,9999.0,,-4.9,-7.8,30.00,1017.9,,,,,,,,,,,,,,,,8000.0,8000.0,OVC,8000.0,,,,,,
KRDR,11-23-2021,00:56,METAR,Normal,150,3.0,,,9999.0,,-4.6,-7.4,30.04,1019.4,,,,,,,,,,,,,,,,14000.0,10000.0,FEW,10000.0,OVC,14000.0,,,,
KRDR,11-22-2021,14:56,METAR,Normal,140,6.0,,,9999.0,,-5.6,-9.2,30.11,1021.9,,,,,,,,,,,,,,,,8000.0,8000.0,OVC,8000.0,,,,,,
KRDR,11-22-2021,13:56,METAR,Normal,150,4.0,,,9999.0,,-6.0,-9.4,30.13,1022.6,,,,,,,,,,,,,,,,8000.0,8000.0,OVC,8000.0,,,,,,
KRDR,11-22-2021,12:56,METAR,Normal,170,4.0,,,9999.0,,-7.1,-9.5,30.13,1022.7,,,,,,,,,,,,,,,,8000.0,8000.0,OVC,8000.0,,,,,,
KRDR,11-22-2021,11:56,METAR,Normal,140,5.0,,,9999.0,,-7.6,-10.2,30.13,1022.7,,,,,,,,,,,,,,,,7000.0,7000.0,BKN,7000.0,OVC,8600.0,,,,
KRDR,11-22-2021,10:56,METAR,Normal,170,4.0,,,9999.0,,-8.1,-10.6,30.15,1023.3,,,,,,,,,,,,,,,,4600.0,4600.0,BKN,4600.0,OVC,6500.0,,,,
KRDR,11-22-2021,09:56,METAR,Normal,180,4.0,,,9999.0,,-7.8,-10.7,30.16,1023.6,,,,,,,,,,,,,,,,4000.0,4000.0,BKN,4000.0,OVC,9100.0,,,,
KRDR,11-22-2021,08:56,METAR,Normal,210,3.0,,,9999.0,,-8.5,-11.2,30.19,1024.7,,,,,,,,,,,,TRACE,,,,5500.0,5500.0,OVC,5500.0,,,,,,
KRDR,11-22-2021,07:56,METAR,Normal,160,4.0,,,9999.0,,-9.7,-12.2,30.19,1024.7,,,,,,,,,,,,,,,,7500.0,7500.0,OVC,7500.0,,,,,,
KRDR,11-22-2021,06:56,METAR,Calm,,0.0,,,9999.0,,-10.6,-13.1,30.22,1025.8,,,,,,,,,,,,,,,,6500.0,6500.0,BKN,6500.0,OVC,8000.0,,,,
KRDR,11-22-2021,05:56,METAR,Normal,150,4.0,,,9999.0,,-12.7,-15.2,30.23,1026.3,,,,,,,,,,,,,,,Clear,72000.0,,,,,,,,,
KRDR,11-22-2021,04:56,METAR,Normal,200,4.0,,,9999.0,,-11.8,-14.9,30.25,1026.9,,,,,,,,,,,,,,,,20000.0,20000.0,BKN,20000.0,,,,,,
KRDR,11-22-2021,03:56,METAR,Calm,,0.0,,,9999.0,,-10.8,-14.1,30.27,1027.5,,,,,,,,,,,,,,,,18000.0,18000.0,BKN,18000.0,,,,,,
KRDR,11-22-2021,02:56,METAR,Normal,310,3.0,,,9999.0,,-10.7,-14.5,30.28,1027.9,,,,,,,,,,,,,,,,18000.0,18000.0,BKN,18000.0,,,,,,
KRDR,11-22-2021,01:56,METAR,Normal,290,6.0,,,9999.0,,-11.0,-14.9,30.28,1027.8,,,,,,,,,,,,,,,,22000.0,22000.0,BKN,22000.0,,,,,,
KRDR,11-22-2021,00:56,METAR,Normal,290,6.0,,,9999.0,,-11.0,-14.9,30.29,1028.2,,,,,,,,,,,,,,,,,24000.0,FEW,24000.0,,,,,,
KRDR,11-21-2021,23:56,METAR,Normal,310,9.0,,,9999.0,,-9.9,-14.2,30.30,1028.3,,,,,,,,,,,,,,,,,17000.0,FEW,17000.0,,,,,,
KRDR,11-21-2021,22:56,METAR,Normal,300,10.0,,,9999.0,,-8.9,-14.1,30.30,1028.3,,,,,,,,,,,,,,,,,20000.0,FEW,20000.0,,,,,,
KRDR,11-21-2021,21:56,METAR,Normal,300,11.0,,,9999.0,,-7.9,-13.5,30.30,1028.2,,,,,,,,,,,,,,,,,20000.0,FEW,20000.0,,,,,,
KRDR,11-21-2021,20:56,METAR,Normal,300,13.0,20.0,,9999.0,,-7.8,-14.0,30.30,1028.0,,,,,,,,,,,,,,,,,20000.0,FEW,20000.0,,,,,,
KRDR,11-21-2021,19:56,METAR,Normal,300,15.0,,,9999.0,,-7.9,-14.1,30.30,1028.0,,,,,,,,,,,,,,,,,20000.0,FEW,20000.0,,,,,,
KRDR,11-21-2021,18:56,METAR,Normal,300,17.0,,,9999.0,,-7.9,-14.3,30.30,1028.0,,,,,,,,,,,,,,,,,20000.0,FEW,20000.0,,,,,,
KRDR,11-21-2021,17:56,METAR,Normal,310,20.0,24.0,,9999.0,,-8.6,-14.8,30.31,1028.4,,,,,,,,,,,,,TRACE,,,,25000.0,FEW,25000.0,,,,,,
KRDR,11-21-2021,16:56,METAR,Normal,320,18.0,22.0,330/30KTS,9999.0,,-8.7,-14.3,30.31,1028.4,,,,,,,,,,,,,,,Clear,72000.0,,,,,,,,,
KRDR,11-21-2021,15:56,METAR,Normal,330,18.0,26.0,310/29KTS,9999.0,,-8.8,-14.0,30.29,1027.8,,,,,,,,,,,,,,,Clear,72000.0,,,,,,,,,
KRDR,11-21-2021,14:56,METAR,Normal,320,21.0,25.0,330/29KTS,9999.0,,-8.6,-13.8,30.27,1027.2,,,,,,,,,,,,TRACE,,,Clear,72000.0,,,,,,,,,
KRDR,11-21-2021,13:56,METAR,Normal,310,16.0,22.0,310/32KTS,9999.0,,-7.9,-12.4,30.23,1025.7,,,,,,,,,,,,,,,,,1300.0,FEW,1300.0,,,,,,
KRDR,11-21-2021,13:26,SPECI,Normal,320,20.0,29.0,,9999.0,,-7.0,-12.0,30.22,1025.3,,,,,,,,,,,,,,,,3600.0,2700.0,SCT,2700.0,BKN,3600.0,,,,
KRDR,11-21-2021,13:06,SPECI,Normal,320,22.0,30.0,,9999.0,,-6.0,-12.0,30.21,1024.9,,,,,,,,,,,,,,,,2500.0,2500.0,BKN,2500.0,BKN,2900.0,OVC,3700.0,,
KRDR,11-21-2021,12:56,METAR,Normal,310,22.0,27.0,320/36KTS,9999.0,,-6.1,-11.4,30.20,1024.6,,,,,,,,,,,TRACE,,,,,3500.0,2400.0,SCT,2400.0,BKN,3500.0,,,,
KRDR,11-21-2021,12:51,SPECI,Normal,320,20.0,27.0,,9999.0,,-6.0,-11.0,30.20,1024.6,,,,,,,,,,,,,,,,2900.0,2100.0,SCT,2100.0,BKN,2900.0,OVC,3800.0,,
KRDR,11-21-2021,12:48,SPECI,Normal,320,20.0,27.0,,9999.0,Light Snow,-6.0,-11.0,30.19,1024.3,71,,,,,,,,,,,,,,,2900.0,2100.0,SCT,2100.0,BKN,2900.0,OVC,3800.0,,
KRDR,11-21-2021,12:38,SPECI,Normal,320,20.0,27.0,,9999.0,Light Snow,-6.0,-11.0,30.19,1024.3,71,,,,,,,,,,,,,,,3600.0,2900.0,SCT,2900.0,OVC,3600.0,,,,
KRDR,11-21-2021,11:56,METAR,Normal,320,19.0,29.0,320/33KTS,9999.0,,-5.1,-9.9,30.16,1023.2,,,,,,,,,,,TRACE,,,,,2000.0,1900.0,SCT,1900.0,BKN,2400.0,BKN,2900.0,OVC,3500.0
KRDR,11-21-2021,11:25,SPECI,Normal,320,21.0,27.0,,9999.0,Light Snow,-4.0,-8.0,30.14,1022.5,71,,,,,,,,,,,,,,,700.0,1700.0,BKN,1700.0,BKN,2200.0,,,,
KRDR,11-21-2021,10:59,METAR,Normal,330,19.0,31.0,340/31KTS,4800.0,Light Snow/Blowing or Drifting Snow or Sand,-3.6,-6.2,30.12,1021.8,71,27,,,,,,,,,TRACE,,,,,300.0,300.0,BKN,300.0,BKN,900.0,OVC,1500.0,,
KRDR,11-21-2021,10:37,SPECI,Normal,330,13.0,20.0,,9999.0,Light Snow,-3.0,-6.0,30.10,1021.0,71,,,,,,,,,,,,,,,1900.0,300.0,SCT,300.0,OVC,1900.0,,,,
KRDR,11-21-2021,10:31,SPECI,Normal,340,16.0,22.0,,3200.0,Light Snow,-3.0,-7.0,30.09,1020.7,71,,,,,,,,,,,,,,,1900.0,200.0,FEW,200.0,OVC,1900.0,,,,
KRDR,11-21-2021,09:56,METAR,Normal,330,13.0,22.0,320/36KTS,9999.0,Light Snow/Mist,-2.6,-5.6,30.08,1020.3,71,10,,,,,,,,,TRACE,,,,,1900.0,400.0,FEW,400.0,OVC,1900.0,,,,
KRDR,11-21-2021,09:46,SPECI,Normal,340,18.0,28.0,,9999.0,Light Snow,-1.0,-6.0,30.06,1019.6,71,,,,,,,,,,,,,,,2300.0,2300.0,OVC,2300.0,,,,,,
KRDR,11-21-2021,09:16,SPECI,Normal,320,19.0,35.0,,9999.0,,0.0,-5.0,30.02,1018.2,,,,,,,,,,,,,,,,2400.0,2600.0,BKN,2600.0,OVC,12000.0,,,,
KRDR,11-21-2021,08:56,METAR,Normal,330,26.0,32.0,,9999.0,,2.0,-2.7,29.98,1016.7,,,,,,,,,,,,,,,,2400.0,2600.0,BKN,2600.0,OVC,11000.0,,,,
KRDR,11-21-2021,08:46,SPECI,Normal,320,19.0,28.0,,9999.0,,2.0,-2.0,29.97,1016.4,,,,,,,,,,,,,,,,2700.0,2700.0,BKN,2700.0,OVC,11000.0,,,,
KRDR,11-21-2021,07:56,METAR,Normal,280,16.0,,,9999.0,,2.7,-3.0,29.91,1014.3,,,,,,,,,,,,,,,,,17000.0,SCT,17000.0,,,,,,
KRDR,11-21-2021,06:56,METAR,Normal,230,11.0,,,9999.0,,1.6,-3.3,29.90,1014.0,,,,,,,,,,,,,,,,9500.0,9500.0,OVC,9600.0,,,,,,
KRDR,11-21-2021,05:56,METAR,Normal,220,9.0,,,9999.0,,0.6,-4.2,29.94,1015.4,,,,,,,,,,,,,,,,16000.0,16000.0,BKN,16000.0,,,,,,
KRDR,11-21-2021,04:56,METAR,Normal,200,11.0,,,9999.0,,0.8,-4.8,29.96,1016.1,,,,,,,,,,,,,,,,8000.0,8000.0,BKN,8000.0,,,,,,
KRDR,11-21-2021,03:56,METAR,Normal,200,12.0,,,9999.0,,0.4,-5.2,29.99,1017.3,,,,,,,,,,,,,,,,,19000.0,FEW,19000.0,,,,,,
KRDR,11-21-2021,02:56,METAR,Normal,200,11.0,,,9999.0,,-0.7,-5.1,30.03,1018.8,,,,,,,,,,,,,,,Clear,72000.0,,,,,,,,,
KRDR,11-21-2021,01:56,METAR,Normal,190,11.0,,,9999.0,,-0.7,-4.9,30.04,1019.2,,,,,,,,,,,,,,,Clear,72000.0,,,,,,,,,
KRDR,11-21-2021,00:56,METAR,Normal,210,9.0,,,9999.0,,-0.4,-4.7,30.07,1020.2,,,,,,,,,,,,,,,Clear,72000.0,,,,,,,,,
KRDR,11-20-2021,23:56,METAR,Normal,210,7.0,,,9999.0,,-0.5,-4.0,30.07,1020.2,,,,,,,,,,,,,,,Clear,72000.0,,,,,,,,,
KRDR,11-20-2021,22:56,METAR,Normal,210,7.0,,,9999.0,,-0.4,-3.8,30.08,1020.4,,,,,,,,,,,,,,,Clear,72000.0,,,,,,,,,
KRDR,11-20-2021,21:56,METAR,Normal,210,6.0,,,9999.0,,1.6,-2.7,30.09,1020.8,,,,,,,,,,,,,,,Clear,72000.0,,,,,,,,,
KRDR,11-20-2021,20:56,METAR,Normal,200,7.0,,,9999.0,,2.7,-2.4,30.11,1021.4,,,,,,,,,,,,,,,Clear,72000.0,,,,,,,,,
KRDR,11-20-2021,19:56,METAR,Normal,240,6.0,,,9999.0,,3.6,-3.2,30.11,1021.2,,,,,,,,,,,,,,,Clear,72000.0,,,,,,,,,
KRDR,11-20-2021,18:56,METAR,Normal,240,5.0,,,9999.0,,2.3,-4.2,30.12,1021.6,,,,,,,,,,,,,,,Clear,72000.0,,,,,,,,,
KRDR,11-20-2021,17:56,METAR,Normal,230,6.0,,,9999.0,,1.4,-5.1,30.13,1022.0,,,,,,,,,,,,,,,Clear,72000.0,,,,,,,,,
KRDR,11-20-2021,16:56,METAR,Normal,250,3.0,,,9999.0,,0.0,-6.0,30.14,1022.3,,,,,,,,,,,,,,,Clear,72000.0,,,,,,,,,
KRDR,11-20-2021,15:56,METAR,Normal,270,4.0,,,9999.0,,-2.3,-7.0,30.13,1022.1,,,,,,,,,,,,,,,Clear,72000.0,,,,,,,,,
KRDR,11-20-2021,14:56,METAR,Normal,290,4.0,,,9999.0,,-5.6,-8.8,30.11,1021.6,,,,,,,,,,,,,,,Clear,72000.0,,,,,,,,,
KRDR,11-20-2021,13:56,METAR,Normal,280,7.0,,,9999.0,,-7.6,-9.6,30.08,1020.7,,,,,,,,,,,,,,,Clear,72000.0,,,,,,,,,
KRDR,11-20-2021,12:56,METAR,Normal,310,6.0,,,9999.0,,-7.1,-9.4,30.06,1020.0,,,,,,,,,,,,,,,Clear,72000.0,,,,,,,,,
KRDR,11-20-2021,11:56,METAR,Normal,310,7.0,,,9999.0,,-5.3,-8.4,30.04,,,,,,,,,,,,,,,,Clear,72000.0,,,,,,,,,
KRDR,11-20-2021,10:56,METAR,Normal,310,9.0,,,9999.0,,-5.0,-8.4,30.01,1018.1,,,,,,,,,,,,,,,Clear,72000.0,,,,,,,,,
KRDR,11-20-2021,09:56,METAR,Normal,310,7.0,,,9999.0,,-5.1,-8.5,29.98,1017.0,,,,,,,,,,,,,,,,,18000.0,FEW,18000.0,,,,,,
KRDR,11-20-2021,08:56,METAR,Normal,310,7.0,,,9999.0,,-4.0,-7.6,29.96,1016.3,,,,,,,,,,,,,,,Clear,72000.0,,,,,,,,,
KRDR,11-20-2021,07:56,METAR,Normal,320,12.0,,,9999.0,,-2.7,-7.1,29.94,1015.6,,,,,,,,,,,,,,,,18000.0,18000.0,BKN,18000.0,,,,,,
KRDR,11-20-2021,06:56,METAR,Normal,320,10.0,,,9999.0,,-1.8,-6.2,29.91,1014.5,,,,,,,,,,,,,,,,18000.0,18000.0,BKN,18000.0,,,,,,
KRDR,11-20-2021,05:56,METAR,Normal,310,8.0,,,9999.0,,-1.2,-5.2,29.90,1014.1,,,,,,,,,,,,,,,,14000.0,11000.0,FEW,11000.0,BKN,14000.0,BKN,17000.0,,
KRDR,11-20-2021,04:56,METAR,Normal,290,8.0,,,9999.0,,-0.8,-5.0,29.88,1013.5,,,,,,,,,,,,,,,,15000.0,15000.0,BKN,15000.0,OVC,19000.0,,,,
KRDR,11-20-2021,03:56,METAR,Normal,300,11.0,,,9999.0,,-1.2,-5.4,29.86,1012.8,,,,,,,,,,,,,,,Clear,72000.0,,,,,,,,,
KRDR,11-20-2021,02:56,METAR,Normal,260,5.0,,,9999.0,,-2.0,-5.3,29.84,1012.2,,,,,,,,,,,,,,,,,17000.0,SCT,17000.0,,,,,,
KRDR,11-20-2021,01:56,METAR,Normal,230,6.0,,,9999.0,,-3.8,-6.0,29.83,1012.1,,,,,,,,,,,,,,,Clear,72000.0,,,,,,,,,
KRDR,11-20-2021,00:56,METAR,Normal,220,3.0,,,9999.0,,-3.3,-5.5,29.84,1012.4,,,,,,,,,,,,,,,Clear,72000.0,,,,,,,,,
KRDR,11-19-2021,22:56,METAR,Normal,190,5.0,,,9999.0,,-0.8,-4.0,29.83,1012.0,,,,,,,,,,,,,,,,22000.0,15000.0,SCT,15000.0,BKN,22000.0,,,,
KRDR,11-19-2021,21:56,METAR,Normal,190,7.0,,,9999.0,,1.6,-3.3,29.82,1011.6,,,,,,,,,,,,,,,,15000.0,15000.0,BKN,15000.0,,,,,,
KRDR,11-19-2021,20:56,METAR,Normal,180,7.0,,,9999.0,,2.4,-3.3,29.82,1011.6,,,,,,,,,,,,,,,,14000.0,14000.0,BKN,14000.0,,,,,,
KRDR,11-19-2021,19:56,METAR,Normal,180,10.0,,,9999.0,,1.8,-3.5,29.84,1012.3,,,,,,,,,,,,,,,,15000.0,15000.0,BKN,15000.0,,,,,,
KRDR,11-19-2021,18:56,METAR,Normal,190,11.0,,,9999.0,,1.1,-3.8,29.86,1013.0,,,,,,,,,,,,,,,,11000.0,11000.0,BKN,11000.0,,,,,,
KRDR,11-19-2021,17:56,METAR,Normal,190,10.0,,,9999.0,,0.6,-4.1,29.88,1013.7,,,,,,,,,,,,,,,,,11000.0,SCT,11000.0,,,,,,
KRDR,11-19-2021,16:56,METAR,Normal,190,14.0,,,9999.0,,-0.7,-5.1,29.91,1014.8,,,,,,,,,,,,,,,,19000.0,11000.0,SCT,11000.0,BKN,19000.0,,,,
KRDR,11-19-2021,15:56,METAR,Normal,170,15.0,,170/27KTS,9999.0,,-1.7,-5.7,29.91,1014.9,,,,,,,,,,,,,,,,13000.0,13000.0,BKN,13000.0,,,,,,
KRDR,11-19-2021,14:56,METAR,Normal,170,13.0,,,9999.0,,-2.9,-6.5,29.95,1016.4,,,,,,,,,,,,,,,,13000.0,13000.0,BKN,13000.0,,,,,,
KRDR,11-19-2021,13:56,METAR,Normal,160,11.0,,,9999.0,,-3.7,-6.7,29.97,1017.1,,,,,,,,,,,,,,,,12000.0,12000.0,BKN,12000.0,,,,,,
KRDR,11-19-2021,12:56,METAR,Normal,150,12.0,,,9999.0,,-4.1,-6.9,30.00,1018.1,,,,,,,,,,,,,,,,12000.0,12000.0,BKN,12000.0,,,,,,
KRDR,11-19-2021,11:56,METAR,Normal,150,11.0,,,9999.0,,-4.5,-7.4,30.04,1019.3,,,,,,,,,,,,,,,,12000.0,12000.0,OVC,12000.0,,,,,,
KRDR,11-19-2021,10:56,METAR,Normal,160,13.0,,,9999.0,,-4.9,-7.5,30.06,1020.0,,,,,,,,,,,,,,,,13000.0,13000.0,OVC,13000.0,,,,,,
KRDR,11-19-2021,09:56,METAR,Normal,150,11.0,,,9999.0,,-6.2,-8.2,30.10,1021.3,,,,,,,,,,,,,,,,14000.0,14000.0,OVC,14000.0,,,,,,
KRDR,11-19-2021,08:56,METAR,Normal,150,12.0,,,9999.0,,-7.1,-9.1,30.14,1022.8,,,,,,,,,,,,,,,,15000.0,15000.0,OVC,15000.0,,,,,,
KRDR,11-19-2021,07:56,METAR,Normal,150,10.0,,,9999.0,,-7.1,-9.2,30.17,1023.8,,,,,,,,,,,,,,,,15000.0,15000.0,BKN,15000.0,,,,,,
KRDR,11-19-2021,06:56,METAR,Normal,160,10.0,,,9999.0,,-7.2,-9.3,30.21,1025.2,,,,,,,,,,,,,,,,13000.0,13000.0,OVC,13000.0,,,,,,
KRDR,11-19-2021,05:56,METAR,Normal,150,7.0,,,9999.0,,-7.7,-9.8,30.23,1025.9,,,,,,,,,,,,,,,,12000.0,12000.0,BKN,12000.0,OVC,16000.0,,,,
KRDR,11-19-2021,04:56,METAR,Normal,150,8.0,,,9999.0,,-7.5,-9.8,30.25,1026.5,,,,,,,,,,,,,,,,15000.0,15000.0,OVC,15000.0,,,,,,
KRDR,11-19-2021,03:56,METAR,Normal,170,6.0,,,9999.0,,-8.6,-10.7,30.27,1027.3,,,,,,,,,,,,,,,,14000.0,14000.0,OVC,14000.0,,,,,,
KRDR,11-19-2021,03:25,SPECI,Normal,170,6.0,,,9999.0,,-10.0,-12.0,30.28,1027.7,,,,,,,,,,,,,,,,15000.0,15000.0,BKN,15000.0,OVC,19000.0,,,,
KRDR,11-19-2021,02:56,METAR,Normal,150,4.0,,,9999.0,,-10.2,-11.8,30.29,1028.1,,,,,,,,,,,,,,,,,15000.0,FEW,15000.0,,,,,,
KRDR,11-19-2021,01:56,METAR,Normal,150,4.0,,,9999.0,,-10.5,-12.3,30.30,1028.3,,,,,,,,,,,,,,,,16000.0,16000.0,BKN,16000.0,,,,,,
KRDR,11-19-2021,00:56,METAR,Calm,,0.0,,,9999.0,,-9.3,-11.1,30.31,1028.6,,,,,,,,,,,,,,,,21000.0,21000.0,BKN,21000.0,,,,,,
KRDR,11-18-2021,23:56,METAR,Normal,60,4.0,,,9999.0,,-6.9,-9.9,30.31,1028.5,,,,,,,,,,,,,,,Clear,72000.0,,,,,,,,,
KRDR,11-18-2021,23:06,SPECI,Normal,30,4.0,,,9999.0,,-6.0,-9.0,30.32,1028.9,,,,,,,,,,,,,,,,,1800.0,SCT,1800.0,,,,,,
KRDR,11-18-2021,22:56,METAR,Normal,20,6.0,,,9999.0,,-5.9,-9.1,30.31,1028.5,,,,,,,,,,,,,,,,1800.0,1800.0,BKN,1800.0,,,,,,
KRDR,11-18-2021,21:56,METAR,Normal,330,7.0,,,9999.0,,-4.6,-8.4,30.32,1028.8,,,,,,,,,,,,,,,,1800.0,1800.0,OVC,1800.0,,,,,,
KRDR,11-18-2021,20:56,METAR,Normal,330,9.0,,,9999.0,,-4.4,-8.3,30.30,1028.1,,,,,,,,,,,,,,,,1800.0,1800.0,OVC,1800.0,,,,,,
KRDR,11-18-2021,19:56,METAR,Normal,320,9.0,,,9999.0,,-4.5,-8.4,30.30,1028.1,,,,,,,,,,,,,,,,1800.0,1800.0,OVC,1800.0,,,,,,
KRDR,11-18-2021,18:56,METAR,Normal,330,13.0,,,9999.0,,-4.4,-8.5,30.30,1028.1,,,,,,,,,,,,,,,,1800.0,1800.0,OVC,1800.0,,,,,,
KRDR,11-18-2021,17:56,METAR,Normal,310,11.0,18.0,,9999.0,,-4.2,-8.3,30.30,1028.1,,,,,,,,,,,,,,,,1900.0,1900.0,OVC,1900.0,,,,,,
KRDR,11-18-2021,17:06,SPECI,Normal,310,16.0,,,9999.0,,-5.0,-9.0,30.29,1027.8,,,,,,,,,,,,,,,,1900.0,1900.0,OVC,1900.0,,,,,,
KRDR,11-18-2021,16:56,METAR,Normal,310,15.0,21.0,,9999.0,,-4.6,-8.7,30.29,1027.8,,,,,,,,,,,,,,,,2000.0,2000.0,BKN,2000.0,,,,,,
KRDR,11-18-2021,16:36,SPECI,Normal,310,14.0,,,9999.0,,-5.0,-9.0,30.29,1027.8,,,,,,,,,,,,,,,,2000.0,2000.0,BKN,2000.0,,,,,,
KRDR,11-18-2021,15:56,METAR,Normal,310,13.0,,,9999.0,,-5.2,-9.3,30.27,1027.1,,,,,,,,,,,,,,,,,3000.0,FEW,3000.0,,,,,,
KRDR,11-18-2021,14:56,METAR,Normal,310,18.0,23.0,,9999.0,,-5.4,-9.5,30.24,1026.0,,,,,,,,,,,,,,,,,3000.0,FEW,3000.0,,,,,,
KRDR,11-18-2021,13:56,METAR,Normal,300,17.0,22.0,,9999.0,,-4.9,-9.0,30.20,1024.7,,,,,,,,,,,,,,,,,3000.0,FEW,3000.0,,,,,,
KRDR,11-18-2021,13:38,SPECI,Normal,310,16.0,,,9999.0,,-4.0,-9.0,30.20,1024.6,,,,,,,,,,,,,,,,,2800.0,SCT,2800.0,,,,,,
KRDR,11-18-2021,12:56,METAR,Normal,310,19.0,24.0,,9999.0,,-4.0,-8.0,30.18,1023.9,,,,,,,,,,,,,,,,2700.0,2700.0,BKN,2700.0,,,,,,
KRDR,11-18-2021,12:36,SPECI,Normal,310,17.0,24.0,,9999.0,,-4.0,-8.0,30.17,1023.6,,,,,,,,,,,,,,,,2900.0,2900.0,BKN,2900.0,,,,,,
KRDR,11-18-2021,11:56,METAR,Normal,310,17.0,,290/28KTS,9999.0,,-3.8,-8.1,30.14,1022.6,,,,,,,,,,,,,TRACE,,,,3500.0,SCT,3500.0,,,,,,
KRDR,11-18-2021,10:56,METAR,Normal,310,19.0,22.0,310/27KTS,9999.0,,-3.6,-8.3,30.14,1022.6,,,,,,,,,,,,,,,,3800.0,2700.0,FEW,2700.0,BKN,3800.0,,,,
KRDR,11-18-2021,09:56,METAR,Normal,310,14.0,22.0,,9999.0,,-3.7,-7.5,30.10,1021.2,,,,,,,,,,,,,,,,3300.0,3300.0,OVC,3300.0,,,,,,
KRDR,11-18-2021,08:56,METAR,Normal,310,22.0,29.0,300/31KTS,9999.0,,-3.4,-7.6,30.07,1020.1,,,,,,,,,,,,TRACE,,,,3400.0,2800.0,FEW,2800.0,OVC,3400.0,,,,
KRDR,11-18-2021,08:36,SPECI,Normal,310,20.0,28.0,,9999.0,,-3.0,-8.0,30.06,1019.7,,,,,,,,,,,,,,,,3400.0,2800.0,SCT,2800.0,OVC,3400.0,,,,
KRDR,11-18-2021,08:26,SPECI,Normal,310,19.0,29.0,,9999.0,,-3.0,-8.0,30.06,1019.7,,,,,,,,,,,,,,,,2900.0,2900.0,BKN,2900.0,BKN,3900.0,OVC,4600.0,,
KRDR,11-18-2021,07:56,METAR,Normal,310,18.0,25.0,,9999.0,,-3.3,-7.3,30.04,1019.1,,,,,,,,,,,TRACE,,,,,3300.0,2500.0,SCT,2500.0,BKN,3300.0,OVC,4500.0,,
KRDR,11-18-2021,07:43,SPECI,Normal,310,16.0,25.0,,9999.0,Light Snow,-3.0,-7.0,30.04,1019.1,71,,,,,,,,,,,,,,,2500.0,2500.0,BKN,2500.0,BKN,3100.0,OVC,4300.0,,
KRDR,11-18-2021,07:20,SPECI,Normal,320,15.0,22.0,,8000.0,Light Snow,-3.0,-6.0,30.03,1018.7,71,,,,,,,,,,,,,,,2600.0,2600.0,BKN,2600.0,OVC,3700.0,,,,
KRDR,11-18-2021,07:12,SPECI,Normal,310,14.0,,,2000.0,Light Snow,-3.0,-6.0,30.03,1018.7,71,,,,,,,,,,,,,,,2400.0,2400.0,BKN,2400.0,OVC,3900.0,,,,
KRDR,11-18-2021,07:06,SPECI,Normal,310,16.0,,,3200.0,Light Snow,-3.0,-6.0,30.02,1018.4,71,,,,,,,,,,,,,,,1900.0,1900.0,BKN,1900.0,BKN,2600.0,OVC,3700.0,,
KRDR,11-18-2021,06:56,METAR,Normal,310,16.0,23.0,300/31KTS,3200.0,Light Snow,-3.3,-6.4,30.02,1018.4,71,,,,,,,,,,TRACE,,,,,2400.0,2400.0,BKN,2400.0,BKN,2900.0,OVC,3700.0,,
KRDR,11-18-2021,06:10,SPECI,Normal,310,19.0,27.0,,9999.0,Light Snow,-3.0,-7.0,30.00,1017.7,71,,,,,,,,,,,,,,,3500.0,3500.0,OVC,3500.0,,,,,,
KRDR,11-18-2021,05:56,METAR,Normal,310,18.0,,290/27KTS,9999.0,,-3.8,-7.9,29.99,1017.4,,,,,,,,,,,,,TRACE,,,3900.0,3000.0,SCT,3000.0,BKN,3900.0,,,,
KRDR,11-18-2021,04:56,METAR,Normal,300,22.0,28.0,,9999.0,,-3.9,-7.9,29.97,1016.7,,,,,,,,,,,,,,,,3600.0,3600.0,BKN,3600.0,OVC,5000.0,,,,
KRDR,11-18-2021,03:56,METAR,Normal,300,19.0,24.0,300/29KTS,9999.0,,-3.7,-8.2,29.96,1016.3,,,,,,,,,,,,,,,,4100.0,4100.0,BKN,4100.0,OVC,5000.0,,,,
KRDR,11-18-2021,02:56,METAR,Normal,310,17.0,27.0,300/30KTS,9999.0,,-3.5,-8.2,29.95,1016.0,,,,,,,,,,,,TRACE,,,,3000.0,3000.0,BKN,3000.0,OVC,4000.0,,,,
KRDR,11-18-2021,01:56,METAR,Normal,300,21.0,31.0,300/33KTS,9999.0,,-3.0,-7.9,29.92,1015.0,,,,,,,,,,,,,,,,3500.0,3500.0,OVC,3500.0,,,,,,
KRDR,11-18-2021,01:16,SPECI,Normal,310,19.0,30.0,,9999.0,,-3.0,-7.0,29.90,1014.2,,,,,,,,,,,,,,,,3100.0,2100.0,FEW,2100.0,BKN,3100.0,OVC,4200.0,,
KRDR,11-18-2021,00:56,METAR,Normal,300,16.0,22.0,310/31KTS,9999.0,,-2.4,-6.2,29.89,1013.9,,,,,,,,,,,TRACE,,,,,2700.0,2100.0,SCT,2100.0,BKN,2700.0,BKN,3700.0,OVC,4800.0
KRDR,11-18-2021,00:39,SPECI,Normal,310,20.0,30.0,,9999.0,Light Snow Showers,-2.0,-7.0,29.89,1013.9,85,,,,,,,,,,,,,,,4100.0,4100.0,BKN,4100.0,OVC,5000.0,,,,
KRDR,11-17-2021,23:56,METAR,Normal,310,18.0,29.0,300/30KTS,9999.0,,-2.2,-7.3,29.87,1013.2,,,,,,,,,,,,,TRACE,,,4600.0,2800.0,FEW,2800.0,FEW,3500.0,BKN,4600.0,OVC,6500.0
KRDR,11-17-2021,23:29,SPECI,Normal,300,15.0,25.0,,9999.0,,-2.0,-7.0,29.86,1012.8,,,,,,,,,,,,,,,,4600.0,3000.0,SCT,3000.0,OVC,4600.0,,,,
KRDR,11-17-2021,23:09,SPECI,Normal,310,23.0,30.0,,9999.0,,-2.0,-7.0,29.85,1012.4,,,,,,,,,,,,,,,,2900.0,2900.0,BKN,2900.0,OVC,3600.0,,,,
KRDR,11-17-2021,22:59,SPECI,Normal,300,14.0,23.0,,9999.0,,-2.0,-6.0,29.85,1012.4,,,,,,,,,,,,,,,,3200.0,2600.0,SCT,2600.0,OVC,3200.0,,,,
KRDR,11-17-2021,22:56,METAR,Normal,300,15.0,30.0,290/35KTS,9999.0,Light Snow Showers,-1.8,-6.0,29.84,1012.1,85,,,,,,,,,,TRACE,,,,,2700.0,1000.0,FEW,1000.0,BKN,2700.0,OVC,3600.0,,
KRDR,11-17-2021,22:47,SPECI,Normal,300,17.0,34.0,,8000.0,Light Snow Showers,-2.0,-6.0,29.84,1012.1,85,,,,,,,,,,,,,,,2700.0,1000.0,FEW,1000.0,BKN,2700.0,OVC,3500.0,,
KRDR,11-17-2021,22:32,SPECI,Normal,300,18.0,24.0,,6400.0,Light Snow,-2.0,-6.0,29.83,1011.7,71,,,,,,,,,,,,,,,2500.0,800.0,FEW,800.0,FEW,1200.0,BKN,2500.0,OVC,3300.0
KRDR,11-17-2021,22:30,SPECI,Normal,300,18.0,24.0,,6400.0,Light Snow Showers,-2.0,-6.0,29.83,1011.7,85,,,,,,,,,,,,,,,2700.0,2700.0,BKN,2700.0,OVC,3500.0,,,,
KRDR,11-17-2021,21:56,METAR,Normal,300,16.0,31.0,300/35KTS,9999.0,Light Snow Showers,-1.4,-7.3,29.81,1011.1,85,,,,,,,,,,TRACE,,,,,3300.0,3300.0,BKN,3300.0,BKN,4500.0,OVC,5500.0,,
KRDR,11-17-2021,21:14,SPECI,Normal,300,26.0,35.0,,9999.0,Light Snow Showers,-1.0,-7.0,29.78,1010.0,85,,,,,,,,,,,,,,,3600.0,2900.0,FEW,2900.0,OVC,3600.0,,,,
KRDR,11-17-2021,20:56,METAR,Normal,310,24.0,33.0,290/36KTS,9999.0,,-1.2,-7.4,29.77,1009.7,,,,,,,,,,,TRACE,TRACE,,,,3400.0,3400.0,OVC,3400.0,,,,,,
KRDR,11-17-2021,19:56,METAR,Normal,300,18.0,28.0,290/33KTS,9999.0,Light Snow Showers,-0.9,-5.7,29.74,1008.7,85,,,,,,,,,,TRACE,,,,,2700.0,2700.0,BKN,2700.0,OVC,3400.0,,,,
KRDR,11-17-2021,19:52,SPECI,Normal,300,24.0,28.0,,9999.0,Light Snow,-1.0,-6.0,29.73,1008.3,71,,,,,,,,,,,,,,,2700.0,2700.0,BKN,2700.0,OVC,3400.0,,,,
KRDR,11-17-2021,19:32,SPECI,Normal,290,19.0,28.0,,9999.0,Light Snow,-1.0,-5.0,29.72,1008.0,71,,,,,,,,,,,,,,,3600.0,2300.0,SCT,2300.0,SCT,2800.0,OVC,3600.0,,
KRDR,11-17-2021,18:56,METAR,Normal,300,21.0,32.0,280/34KTS,9999.0,,-0.6,-6.4,29.71,1007.6,,,,,,,,,,,,,,,,3700.0,3700.0,BKN,3700.0,OVC,8600.0,,,,
KRDR,11-17-2021,17:56,METAR,Normal,300,21.0,27.0,270/38KTS,9999.0,,-0.7,-6.7,29.70,1007.2,,,,,,,,,,,,,,,,3100.0,3100.0,BKN,3100.0,OVC,3900.0,,,,
KRDR,11-17-2021,16:56,METAR,Normal,290,21.0,33.0,280/36KTS,9999.0,,-0.5,-6.3,29.67,1006.2,,,,,,,,,,,,,,,,3300.0,3300.0,OVC,3300.0,BKN,12000.0,,,,
KRDR,11-17-2021,15:56,METAR,Normal,290,20.0,33.0,290/35KTS,9999.0,,-0.5,-6.3,29.64,1005.2,,,,,,,,,,,,,,,,3400.0,3400.0,BKN,3400.0,,,,,,
KRDR,11-17-2021,14:56,METAR,Normal,290,22.0,28.0,280/32KTS,9999.0,,-0.3,-5.5,29.61,1004.1,,,,,,,,,,,,,,,,3400.0,3400.0,OVC,3400.0,,,,,,
KRDR,11-17-2021,13:58,METAR,Normal,280,17.0,26.0,280/38KTS,9999.0,,-0.2,-4.6,29.58,1003.2,,,,,,,,,,,,,,,,3600.0,2500.0,FEW,2500.0,OVC,3600.0,,,,
KRDR,11-17-2021,12:56,METAR,Normal,280,25.0,33.0,280/35KTS,9999.0,,0.6,-4.8,29.53,1001.4,,,,,,,,,,,,,,,,3500.0,3500.0,OVC,3500.0,,,,,,
KRDR,11-17-2021,11:56,METAR,Normal,280,23.0,30.0,260/33KTS,9999.0,,0.9,-5.4,29.54,1001.8,,,,,,,,,,,,,,,,3300.0,3300.0,OVC,3300.0,,,,,,
KRDR,11-17-2021,10:56,METAR,Normal,270,20.0,30.0,250/32KTS,9999.0,,1.2,-4.5,29.52,1001.1,,,,,,,,,,,,,,,,3300.0,3300.0,BKN,3300.0,OVC,6000.0,,,,
KRDR,11-17-2021,09:56,METAR,Normal,250,20.0,27.0,230/32KTS,9999.0,,1.1,-4.5,29.53,1001.4,,,,,,,,,,,,,,,,3200.0,3200.0,OVC,3200.0,,,,,,
KRDR,11-17-2021,08:56,METAR,Normal,250,22.0,29.0,260/32KTS,9999.0,,1.2,-5.3,29.54,1001.8,,,,,,,,,,,,,,,,3900.0,3900.0,OVC,3900.0,,,,,,
KRDR,11-17-2021,07:56,METAR,Normal,240,17.0,25.0,280/31KTS,9999.0,,0.9,-5.6,29.55,1002.1,,,,,,,,,,,,,,,,4100.0,4100.0,BKN,4100.0,,,,,,
KRDR,11-17-2021,06:56,METAR,Normal,250,17.0,21.0,240/27KTS,9999.0,,1.5,-5.2,29.54,1001.7,,,,,,,,,,,,,,,Clear,72000.0,,,,,,,,,
KRDR,11-17-2021,05:56,METAR,Normal,260,17.0,26.0,250/27KTS,9999.0,,2.5,-4.9,29.54,1001.6,,,,,,,,,,,,,,,Clear,72000.0,,,,,,,,,
KRDR,11-17-2021,05:20,SPECI,Normal,260,15.0,23.0,,9999.0,,3.0,-4.0,29.54,1001.7,,,,,,,,,,,,,,,Clear,72000.0,,,,,,,,,
KRDR,11-17-2021,04:56,METAR,Normal,230,8.0,,,9999.0,,2.0,-3.3,29.54,1001.7,,,,,,,,,,,,,,,Clear,72000.0,,,,,,,,,
KRDR,11-17-2021,03:56,METAR,Normal,220,10.0,,,9999.0,,2.3,-3.0,29.56,1002.4,,,,,,,,,,,,,,,Clear,72000.0,,,,,,,,,
KRDR,11-17-2021,02:56,METAR,Normal,250,10.0,,,9999.0,,3.3,-2.7,29.55,1002.1,,,,,,,,,,,,,,,Clear,72000.0,,,,,,,,,
KRDR,11-17-2021,01:56,METAR,Normal,190,8.0,,,9999.0,,0.7,-1.4,29.54,1001.8,,,,,,,,,,,,,,,Clear,72000.0,,,,,,,,,
KRDR,11-17-2021,00:56,METAR,Normal,190,6.0,,,9999.0,,1.0,-0.5,29.53,1001.4,,,,,,,,,,,,,,,,17000.0,14000.0,FEW,14000.0,BKN,17000.0,,,,
KRDR,11-16-2021,23:56,METAR,Normal,190,5.0,,,9999.0,,1.7,0.2,29.53,1001.4,,,,,,,,,,,,,,,,14000.0,12000.0,SCT,12000.0,OVC,14000.0,,,,
KRDR,11-16-2021,22:56,METAR,Normal,190,8.0,,,9999.0,,1.7,0.2,29.50,1000.4,,,,,,,,,,,,,,,,11000.0,11000.0,BKN,11000.0,OVC,14000.0,,,,
KRDR,11-16-2021,21:56,METAR,Normal,170,7.0,,,9999.0,,1.7,0.1,29.47,999.4,,,,,,,,,,,,,,,,11000.0,11000.0,OVC,11000.0,,,,,,
KRDR,11-16-2021,20:56,METAR,Normal,180,6.0,,,9999.0,,2.0,0.1,29.46,999.0,,,,,,,,,,,,,,,,13000.0,9000.0,SCT,9100.0,OVC,13000.0,,,,
KRDR,11-16-2021,19:56,METAR,Normal,190,9.0,,,9999.0,,2.1,0.0,29.46,999.0,,,,,,,,,,,,,,,,11000.0,1000.0,SCT,1000.0,BKN,11000.0,OVC,13000.0,,
KRDR,11-16-2021,19:46,SPECI,Normal,190,10.0,,,9999.0,,2.0,0.0,29.45,998.7,,,,,,,,,,,,,,,,12000.0,900.0,SCT,900.0,SCT,9600.0,OVC,12000.0,,
KRDR,11-16-2021,18:56,METAR,Normal,190,12.0,,,9999.0,,1.8,-0.1,29.45,998.7,,,,,,,,,,,,,,,,900.0,900.0,OVC,900.0,,,,,,
KRDR,11-16-2021,18:46,SPECI,Normal,180,15.0,,,9999.0,,2.0,0.0,29.44,998.4,,,,,,,,,,,,,,,,900.0,900.0,OVC,900.0,,,,,,
KRDR,11-16-2021,17:56,METAR,Normal,180,16.0,24.0,180/27KTS,9999.0,,2.1,-0.3,29.43,998.0,,,,,,,,,,,,,,,,1100.0,1100.0,OVC,1100.0,,,,,,
KRDR,11-16-2021,17:38,SPECI,Normal,180,17.0,27.0,,9999.0,,2.0,0.0,29.44,998.4,,,,,,,,,,,,,,,,1100.0,1100.0,OVC,1100.0,,,,,,
KRDR,11-16-2021,16:56,METAR,Normal,180,19.0,24.0,170/28KTS,9999.0,,1.9,-0.4,29.42,997.7,,,,,,,,,,,,,,,,1200.0,1200.0,OVC,1200.0,,,,,,
KRDR,11-16-2021,16:49,SPECI,Normal,170,19.0,26.0,,9999.0,,2.0,0.0,29.42,997.7,,,,,,,,,,,,,,,,1200.0,1200.0,OVC,1200.0,,,,,,
KRDR,11-16-2021,15:56,METAR,Normal,170,19.0,24.0,140/27KTS,9999.0,,1.9,-0.5,29.42,997.7,,,,,,,,,,,,,,,,1400.0,1400.0,OVC,1400.0,,,,,,
KRDR,11-16-2021,15:16,SPECI,Normal,170,19.0,,,9999.0,,2.0,-1.0,29.43,998.0,,,,,,,,,,,,,,,,1400.0,1400.0,OVC,1400.0,,,,,,
KRDR,11-16-2021,15:06,SPECI,Normal,160,18.0,22.0,,9999.0,,2.0,0.0,29.42,997.7,,,,,,,,,,,,,,,,1500.0,1500.0,OVC,1500.0,,,,,,
KRDR,11-16-2021,14:56,METAR,Normal,160,18.0,26.0,150/26KTS,9999.0,,1.7,-0.6,29.42,997.7,,,,,,,,,,,,,,,,1400.0,1400.0,OVC,1400.0,,,,,,
KRDR,11-16-2021,13:56,METAR,Normal,160,10.0,,,9999.0,,0.8,-1.1,29.47,999.5,,,,,,,,,,,,,,,,1300.0,1300.0,BKN,1300.0,OVC,14000.0,,,,
KRDR,11-16-2021,13:17,SPECI,Normal,140,17.0,,,9999.0,,1.0,-1.0,29.46,999.1,,,,,,,,,,,,,,,,1300.0,1300.0,OVC,1300.0,,,,,,
KRDR,11-16-2021,12:56,METAR,Normal,150,14.0,,,9999.0,,0.6,-1.2,29.48,999.8,,,,,,,,,,,,,,,,1200.0,1200.0,OVC,1200.0,,,,,,
KRDR,11-16-2021,12:38,SPECI,Normal,150,11.0,,,9999.0,,1.0,-1.0,29.50,1000.5,,,,,,,,,,,,,,,,1200.0,1200.0,OVC,1200.0,,,,,,
KRDR,11-16-2021,11:56,METAR,Normal,150,16.0,,,9999.0,,0.6,-1.3,29.51,1000.8,,,,,,,,,,,,,,,,1300.0,1300.0,BKN,1300.0,OVC,16000.0,,,,
KRDR,11-16-2021,11:46,SPECI,Normal,140,15.0,20.0,,9999.0,,1.0,-1.0,29.52,1001.2,,,,,,,,,,,,,,,,1300.0,1300.0,BKN,1300.0,BKN,16000.0,,,,
KRDR,11-16-2021,10:56,METAR,Normal,150,18.0,24.0,,9999.0,,0.6,-1.3,29.56,1002.5,,,,,,,,,,,,,,,,16000.0,16000.0,OVC,16000.0,,,,,,
KRDR,11-16-2021,09:56,METAR,Normal,150,19.0,,,9999.0,,0.4,-1.5,29.61,1004.2,,,,,,,,,,,,,,,,18000.0,18000.0,OVC,18000.0,,,,,,
KRDR,11-16-2021,08:56,METAR,Normal,150,15.0,,,9999.0,,0.2,-1.7,29.67,1006.4,,,,,,,,,,,,,,,,20000.0,20000.0,BKN,20000.0,,,,,,
KRDR,11-16-2021,07:56,METAR,Normal,150,17.0,,,9999.0,,0.1,-1.7,29.70,1007.4,,,,,,,,,,,,,,,,1500.0,1500.0,BKN,1500.0,BKN,14000.0,OVC,18000.0,,
KRDR,11-16-2021,06:56,METAR,Normal,150,12.0,,,9999.0,,-0.1,-1.9,29.75,1009.1,,,,,,,,,,,,,,,,1300.0,1300.0,OVC,1300.0,,,,,,
KRDR,11-16-2021,05:56,METAR,Normal,150,12.0,,,9999.0,,-0.2,-2.1,29.79,1010.5,,,,,,,,,,,TRACE,,TRACE,,,1300.0,1300.0,OVC,1300.0,,,,,,
KRDR,11-16-2021,05:34,SPECI,Normal,150,14.0,,,9999.0,,0.0,-2.0,29.79,1010.5,,,,,,,,,,,,,,,,1200.0,1200.0,OVC,1200.0,,,,,,
KRDR,11-16-2021,05:24,SPECI,Normal,150,13.0,,,9999.0,Light Freezing Drizzle,0.0,-2.0,29.79,1010.5,54,,,,,,,,,,,,,,,1200.0,1200.0,OVC,1200.0,,,,,,
KRDR,11-16-2021,04:56,METAR,Normal,150,15.0,,,9999.0,Light Freezing Drizzle,-0.4,-2.1,29.80,1010.8,54,,,,,,,,,,TRACE,,,,,1100.0,1100.0,OVC,1100.0,,,,,,
KRDR,11-16-2021,04:49,SPECI,Normal,140,12.0,,,9999.0,Light Freezing Drizzle,0.0,-2.0,29.81,1011.1,54,,,,,,,,,,,,,,,1100.0,1100.0,OVC,1100.0,,,,,,
KRDR,11-16-2021,04:34,SPECI,Normal,150,11.0,,,9999.0,Light Freezing Drizzle,-1.0,-2.0,29.82,1011.6,54,,,,,,,,,,,,,,,1200.0,1200.0,OVC,1200.0,,,,,,
KRDR,11-16-2021,03:56,METAR,Normal,140,12.0,,,9999.0,,-0.6,-2.3,29.84,1012.2,,,,,,,,,,,,,,,,1400.0,1400.0,OVC,1400.0,,,,,,
KRDR,11-16-2021,02:56,METAR,Normal,140,12.0,,,9999.0,,-0.6,-2.5,29.87,1013.3,,,,,,,,,,,,,,,,1400.0,1400.0,OVC,1400.0,,,,,,
KRDR,11-16-2021,02:06,SPECI,Normal,140,11.0,,,9999.0,,-1.0,-3.0,29.90,1014.3,,,,,,,,,,,,,,,,1400.0,1400.0,OVC,1400.0,,,,,,
KRDR,11-16-2021,01:56,METAR,Normal,140,11.0,,,9999.0,,-0.7,-2.6,29.90,1014.3,,,,,,,,,,,,,,,,1600.0,1600.0,OVC,1600.0,,,,,,
KRDR,11-16-2021,01:16,SPECI,Normal,130,12.0,,,9999.0,,-1.0,-2.0,29.90,1014.3,,,,,,,,,,,,,,,,1700.0,1700.0,BKN,1700.0,OVC,3600.0,,,,
KRDR,11-16-2021,00:56,METAR,Normal,140,11.0,,,9999.0,,-0.8,-2.5,29.91,1014.6,,,,,,,,,,,,,,,,3700.0,1700.0,FEW,1700.0,OVC,3700.0,,,,
KRDR,11-16-2021,00:36,SPECI,Normal,130,9.0,,,9999.0,,-1.0,-2.0,29.91,1014.6,,,,,,,,,,,,,,,,1700.0,1700.0,BKN,1700.0,OVC,3900.0,,,,
KRDR,11-15-2021,23:56,METAR,Normal,140,11.0,,,9999.0,,-0.9,-2.6,29.92,1015.0,,,,,,,,,,,,,,,,3800.0,3800.0,OVC,3800.0,,,,,,
KRDR,11-15-2021,23:06,SPECI,Normal,140,10.0,,,9999.0,,-1.0,-3.0,29.92,1015.0,,,,,,,,,,,,,,,,3700.0,1000.0,SCT,1000.0,OVC,3700.0,,,,
KRDR,11-15-2021,22:56,METAR,Normal,140,9.0,,,9999.0,,-1.0,-2.6,29.93,1015.3,,,,,,,,,,,,,,,,1100.0,1100.0,BKN,1100.0,OVC,4100.0,,,,
KRDR,11-15-2021,22:46,SPECI,Normal,140,7.0,,,9999.0,,-1.0,-3.0,29.93,1015.3,,,,,,,,,,,,,,,,1100.0,1100.0,BKN,1100.0,OVC,4300.0,,,,
KRDR,11-15-2021,21:56,METAR,Normal,130,9.0,,,9999.0,,-1.0,-2.6,29.94,1015.7,,,,,,,,,,,,,,,,4300.0,800.0,FEW,800.0,OVC,4300.0,,,,
KRDR,11-15-2021,21:46,SPECI,Normal,130,7.0,,,9999.0,,-1.0,-3.0,29.94,1015.7,,,,,,,,,,,,,,,,4300.0,800.0,SCT,800.0,OVC,4300.0,,,,
KRDR,11-15-2021,21:16,SPECI,Normal,130,9.0,,,9999.0,,-1.0,-3.0,29.94,1015.7,,,,,,,,,,,,,,,,800.0,800.0,BKN,800.0,OVC,3800.0,,,,
KRDR,11-15-2021,20:56,METAR,Normal,140,9.0,,,9999.0,,-1.3,-2.9,29.94,1015.7,,,,,,,,,,,,,,,,700.0,700.0,BKN,700.0,OVC,3800.0,,,,
KRDR,11-15-2021,20:32,SPECI,Normal,130,10.0,,,9999.0,,-1.0,-3.0,29.94,1015.7,,,,,,,,,,,,,,,,700.0,700.0,OVC,700.0,,,,,,
KRDR,11-15-2021,20:16,SPECI,Normal,130,8.0,,,9999.0,,-1.0,-3.0,29.94,1015.7,,,,,,,,,,,,,,,,700.0,700.0,BKN,700.0,OVC,3500.0,,,,
KRDR,11-15-2021,20:06,SPECI,Normal,130,9.0,,,9999.0,,-1.0,-3.0,29.95,1016.1,,,,,,,,,,,,,,,,700.0,800.0,BKN,800.0,OVC,3500.0,,,,
KRDR,11-15-2021,19:56,METAR,Normal,130,9.0,,,9999.0,,-1.6,-3.0,29.95,1016.1,,,,,,,,,,,,,,,,700.0,700.0,BKN,700.0,OVC,3300.0,,,,
KRDR,11-15-2021,19:26,SPECI,Normal,130,7.0,,,9999.0,Mist,-2.0,-3.0,29.96,1016.4,10,,,,,,,,,,,,,,,600.0,700.0,OVC,700.0,,,,,,
KRDR,11-15-2021,18:56,METAR,Normal,140,7.0,,,9999.0,Mist,-1.7,-3.1,29.96,1016.4,10,,,,,,,,,,,,,,,600.0,600.0,OVC,600.0,,,,,,
KRDR,11-15-2021,18:36,SPECI,Normal,140,8.0,,,9999.0,Mist,-2.0,-3.0,29.96,1016.4,10,,,,,,,,,,,,,,,600.0,600.0,OVC,600.0,,,,,,
KRDR,11-15-2021,17:56,METAR,Normal,140,8.0,,,9999.0,Mist,-2.1,-3.4,29.96,1016.4,10,,,,,,,,,,,,TRACE,,,500.0,500.0,OVC,500.0,,,,,,
KRDR,11-15-2021,17:45,SPECI,Normal,130,8.0,,,9999.0,Mist,-2.0,-3.0,29.98,1017.1,10,,,,,,,,,,,,,,,500.0,500.0,OVC,500.0,,,,,,
KRDR,11-15-2021,17:27,SPECI,Normal,140,7.0,,,8000.0,Light Freezing Drizzle/Mist,-2.0,-3.0,29.98,1017.1,54,10,,,,,,,,,,,,,,500.0,500.0,OVC,500.0,,,,,,
KRDR,11-15-2021,16:56,METAR,Normal,140,8.0,,,8000.0,Light Freezing Drizzle/Mist,-2.4,-3.5,29.98,1017.1,54,10,,,,,,,,,TRACE,,,,,400.0,400.0,OVC,400.0,,,,,,
KRDR,11-15-2021,16:38,SPECI,Normal,140,7.0,,,8000.0,Light Freezing Drizzle/Mist,-2.0,-3.0,29.98,1017.1,54,10,,,,,,,,,,,,,,400.0,400.0,OVC,400.0,,,,,,
KRDR,11-15-2021,16:17,SPECI,Normal,140,8.0,,,9999.0,Freezing Drizzle/Mist,-2.0,-4.0,29.97,1016.8,55,10,,,,,,,,,,,,,,400.0,400.0,OVC,400.0,,,,,,
KRDR,11-15-2021,16:00,SPECI,Normal,140,8.0,,,9999.0,Freezing Drizzle/Mist,-3.0,-4.0,29.97,1016.8,55,10,,,,,,,,,,,,,,500.0,500.0,OVC,500.0,,,,,,
KRDR,11-15-2021,15:56,METAR,Normal,140,7.0,,,9999.0,Light Freezing Drizzle/Mist,-2.7,-3.8,29.97,1016.8,54,10,,,,,,,,,TRACE,,,,,500.0,500.0,OVC,500.0,,,,,,
KRDR,11-15-2021,15:44,SPECI,Normal,140,7.0,,,9999.0,Light Freezing Drizzle/Mist,-3.0,-4.0,29.97,1016.8,54,10,,,,,,,,,,,,,,500.0,500.0,OVC,500.0,,,,,,
KRDR,11-15-2021,15:08,SPECI,Normal,130,8.0,,,9999.0,Light Freezing Drizzle/Mist,-3.0,-4.0,29.96,1016.5,54,10,,,,,,,,,,,,,,500.0,600.0,OVC,600.0,,,,,,
KRDR,11-15-2021,15:00,SPECI,Normal,140,7.0,,,9999.0,,-3.0,-4.0,29.97,1016.8,,,,,,,,,,,,,,,,500.0,600.0,OVC,600.0,,,,,,
KRDR,11-15-2021,14:56,METAR,Normal,140,7.0,,,9999.0,Mist,-3.1,-4.2,29.97,1016.8,10,,,,,,,,,,TRACE,TRACE,,,,500.0,500.0,OVC,500.0,,,,,,
KRDR,11-15-2021,14:39,SPECI,Normal,140,8.0,,,8000.0,Mist,-3.0,-4.0,29.96,1016.5,10,,,,,,,,,,,,,,,500.0,500.0,OVC,500.0,,,,,,
KRDR,11-15-2021,14:27,SPECI,Normal,140,8.0,,,8000.0,,-3.0,-4.0,29.95,1016.1,,,,,,,,,,,,,,,,500.0,500.0,OVC,500.0,,,,,,
KRDR,11-15-2021,14:04,SPECI,Normal,140,7.0,,,8000.0,Light Freezing Drizzle,-3.0,-4.0,29.95,1016.1,54,,,,,,,,,,,,,,,500.0,500.0,OVC,500.0,,,,,,
KRDR,11-15-2021,13:56,METAR,Normal,140,9.0,,,8000.0,Freezing Drizzle,-3.3,-4.4,29.95,1016.1,55,,,,,,,,,,TRACE,,,,,500.0,500.0,OVC,500.0,,,,,,
KRDR,11-15-2021,13:48,SPECI,Normal,140,8.0,,,8000.0,Freezing Drizzle,-3.0,-4.0,29.95,1016.1,55,,,,,,,,,,,,,,,500.0,500.0,OVC,500.0,,,,,,
KRDR,11-15-2021,13:33,SPECI,Normal,130,8.0,,,9999.0,Light Snow,-3.0,-4.0,29.94,1015.8,71,,,,,,,,,,,,,,,3400.0,3400.0,BKN,3400.0,OVC,4500.0,,,,
KRDR,11-15-2021,13:20,SPECI,Normal,130,8.0,,,9999.0,Light Snow,-3.0,-4.0,29.94,1015.8,71,,,,,,,,,,,,,,,1200.0,1200.0,OVC,1200.0,,,,,,
KRDR,11-15-2021,12:56,METAR,Normal,130,7.0,,,9999.0,Light Snow,-3.4,-4.7,29.94,1015.8,71,,,,,,,,,,TRACE,,,,,4400.0,4400.0,OVC,4400.0,,,,,,
KRDR,11-15-2021,12:45,SPECI,Normal,120,8.0,,,9999.0,Light Snow,-3.0,-5.0,29.94,1015.8,71,,,,,,,,,,,,,,,4600.0,700.0,SCT,700.0,OVC,4600.0,,,,
KRDR,11-15-2021,12:01,SPECI,Normal,140,7.0,,,9999.0,Light Snow,-4.0,-5.0,29.93,1015.5,71,,,,,,,,,,,,,,,2800.0,600.0,FEW,600.0,OVC,2800.0,,,,
KRDR,11-15-2021,11:56,METAR,Normal,130,7.0,,,4800.0,Light Snow,-3.7,-4.8,29.94,1015.8,71,,,,,,,,,,TRACE,,TRACE,,,2800.0,600.0,FEW,600.0,OVC,2800.0,,,,
KRDR,11-15-2021,11:30,SPECI,Normal,130,7.0,,,4800.0,Light Snow,-4.0,-5.0,29.94,1015.8,71,,,,,,,,,,,,,,,2800.0,2800.0,BKN,2800.0,OVC,4500.0,,,,
KRDR,11-15-2021,11:16,SPECI,Normal,110,7.0,,,4800.0,Light Snow,-4.0,-5.0,29.93,1015.5,71,,,,,,,,,,,,,,,4500.0,500.0,FEW,500.0,FEW,2800.0,BKN,4500.0,OVC,5500.0
KRDR,11-15-2021,10:56,METAR,Normal,120,7.0,,,4800.0,Light Snow,-4.0,-5.1,29.92,,71,,,,,,,,,,.01 IN,,,,,6000.0,5000.0,FEW,5000.0,BKN,6000.0,OVC,7500.0,,
KRDR,11-15-2021,10:11,SPECI,Normal,120,8.0,,,4800.0,Light Snow/Mist,-4.0,-5.0,29.92,1015.1,71,10,,,,,,,,,,,,,,4000.0,4000.0,OVC,4000.0,,,,,,
KRDR,11-15-2021,09:56,METAR,Normal,130,7.0,,,4800.0,Light Snow/Mist,-4.1,-5.2,29.92,1015.1,71,10,,,,,,,,,TRACE,,,,,1800.0,200.0,SCT,200.0,BKN,1800.0,,,,
KRDR,11-15-2021,09:44,SPECI,Normal,120,7.0,,,4800.0,Light Snow/Mist,-4.0,-5.0,29.93,1015.5,71,10,,,,,,,,,,,,,,200.0,200.0,BKN,200.0,,,,,,
KRDR,11-15-2021,09:32,SPECI,Normal,130,6.0,,,4800.0,Light Snow,-4.0,-5.0,29.94,1015.8,71,,,,,,,,,,,,,,,300.0,300.0,OVC,300.0,,,,,,
KRDR,11-15-2021,09:18,SPECI,Normal,140,6.0,,,4800.0,Light Snow/Mist,-4.0,-5.0,29.94,1015.8,71,10,,,,,,,,,,,,,,200.0,200.0,BKN,200.0,OVC,2900.0,,,,
KRDR,11-15-2021,08:56,METAR,Normal,150,6.0,,,4800.0,Light Snow/Mist,-4.2,-5.5,29.94,1015.8,71,10,,,,,,,,,TRACE,.01 IN,,,,300.0,300.0,OVC,300.0,,,,,,
KRDR,11-15-2021,08:39,SPECI,Normal,150,7.0,,,4800.0,Light Snow/Mist,-4.0,-6.0,29.94,1015.8,71,10,,,,,,,,,,,,,,300.0,300.0,BKN,300.0,BKN,700.0,BKN,1100.0,OVC,2200.0
KRDR,11-15-2021,08:30,SPECI,Normal,150,7.0,,,4800.0,Light Snow/Mist,-4.0,-6.0,29.94,1015.8,71,10,,,,,,,,,,,,,,700.0,300.0,SCT,300.0,BKN,700.0,BKN,1100.0,OVC,2200.0
KRDR,11-15-2021,08:20,SPECI,Normal,150,10.0,,,4800.0,Light Snow,-4.0,-6.0,29.93,1015.5,71,,,,,,,,,,,,,,,1100.0,700.0,SCT,700.0,BKN,1100.0,OVC,3700.0,,
KRDR,11-15-2021,07:56,METAR,Normal,140,8.0,,,9999.0,Light Snow,-4.3,-5.7,29.92,1015.1,71,,,,,,,,,,TRACE,,,,,3900.0,700.0,FEW,700.0,FEW,2100.0,OVC,3900.0,,
KRDR,11-15-2021,07:09,SPECI,Normal,140,9.0,,,9999.0,Light Snow,-4.0,-6.0,29.92,1015.1,71,,,,,,,,,,,,,,,4400.0,1800.0,SCT,1800.0,BKN,4400.0,OVC,6000.0,,
KRDR,11-15-2021,07:05,SPECI,Normal,140,9.0,,,9999.0,Light Snow,-4.0,-6.0,29.92,1015.1,71,,,,,,,,,,,,,,,1800.0,1200.0,FEW,1200.0,BKN,1800.0,BKN,4500.0,OVC,6000.0
KRDR,11-15-2021,06:56,METAR,Normal,140,9.0,,,9999.0,,-4.4,-5.9,29.92,1015.1,,,,,,,,,,,,,,,,1200.0,700.0,FEW,700.0,SCT,1200.0,OVC,1800.0,,
KRDR,11-15-2021,05:56,METAR,Normal,140,8.0,,,9999.0,,-4.3,-5.9,29.95,1016.1,,,,,,,,,,,TRACE,,TRACE,,,700.0,700.0,BKN,700.0,OVC,1700.0,,,,
KRDR,11-15-2021,05:36,SPECI,Normal,150,8.0,,,9999.0,,-4.0,-6.0,29.94,1015.8,,,,,,,,,,,,,,,,700.0,700.0,BKN,700.0,OVC,1500.0,,,,
KRDR,11-15-2021,04:56,METAR,Normal,140,9.0,,,9999.0,,-4.3,-5.9,29.94,1015.8,,,,,,,,,,,,,,,,800.0,800.0,BKN,800.0,OVC,1700.0,,,,
KRDR,11-15-2021,04:46,SPECI,Normal,150,9.0,,,9999.0,,-4.0,-6.0,29.93,1015.5,,,,,,,,,,,,,,,,1700.0,900.0,SCT,900.0,OVC,1700.0,,,,
KRDR,11-15-2021,04:26,SPECI,Normal,140,8.0,,,9999.0,,-4.0,-6.0,29.94,1015.8,,,,,,,,,,,,,,,,800.0,1000.0,OVC,1000.0,,,,,,
KRDR,11-15-2021,03:56,METAR,Normal,130,8.0,,,9999.0,,-4.3,-5.7,29.94,1015.8,,,,,,,,,,,,,,,,800.0,800.0,OVC,800.0,,,,,,
KRDR,11-15-2021,02:56,METAR,Normal,140,7.0,,,9999.0,,-4.4,-5.8,29.95,1016.1,,,,,,,,,,,,,,,,700.0,700.0,BKN,700.0,OVC,1100.0,,,,
KRDR,11-15-2021,02:46,SPECI,Normal,140,7.0,,,9999.0,,-4.0,-6.0,29.95,1016.1,,,,,,,,,,,,,,,,700.0,700.0,BKN,700.0,OVC,1000.0,,,,
KRDR,11-15-2021,02:36,SPECI,Normal,140,7.0,,,9999.0,,-4.0,-6.0,29.95,1016.1,,,,,,,,,,,,,,,,1000.0,1000.0,OVC,1000.0,,,,,,
KRDR,11-15-2021,01:56,METAR,Normal,140,7.0,,,9999.0,,-4.4,-5.8,29.95,1016.1,,,,,,,,,,,,,,,,800.0,800.0,OVC,800.0,,,,,,
KRDR,11-15-2021,00:56,METAR,Normal,150,9.0,,,9999.0,,-4.3,-5.7,29.97,1016.8,,,,,,,,,,,,,,,,700.0,700.0,BKN,700.0,OVC,5000.0,,,,
KRDR,11-15-2021,00:06,SPECI,Normal,140,9.0,,,9999.0,,-4.0,-6.0,29.96,1016.5,,,,,,,,,,,,,,,,700.0,700.0,OVC,700.0,,,,,,
KRDR,11-14-2021,23:56,METAR,Normal,150,8.0,,,9999.0,,-4.1,-5.5,29.96,1016.5,,,,,,,,,,,,,,,,700.0,800.0,OVC,800.0,,,,,,
KRDR,11-14-2021,22:56,METAR,Normal,150,8.0,,,9999.0,,-3.9,-5.6,29.97,1016.8,,,,,,,,,,,,,,,,900.0,900.0,OVC,900.0,,,,,,
KRDR,11-14-2021,21:56,METAR,Normal,150,8.0,,,9999.0,,-3.5,-5.7,29.98,1017.1,,,,,,,,,,,,,,,,1000.0,1000.0,OVC,1000.0,,,,,,
KRDR,11-14-2021,20:56,METAR,Normal,150,7.0,,,9999.0,,-3.3,-5.6,29.98,1017.2,,,,,,,,,,,,,,,,1100.0,1100.0,OVC,1100.0,,,,,,
KRDR,11-14-2021,19:56,METAR,Normal,160,6.0,,,9999.0,,-3.4,-5.7,29.99,1017.5,,,,,,,,,,,,,,,,1100.0,1100.0,OVC,1100.0,,,,,,
KRDR,11-14-2021,18:56,METAR,Normal,150,4.0,,,9999.0,,-3.4,-5.9,30.01,1018.2,,,,,,,,,,,,,,,,1100.0,1100.0,OVC,1100.0,,,,,,
KRDR,11-14-2021,17:56,METAR,Normal,170,5.0,,,9999.0,,-3.6,-6.1,30.02,1018.5,,,,,,,,,,,,,,,,1100.0,1100.0,OVC,1100.0,,,,,,
KRDR,11-14-2021,16:56,METAR,Normal,150,3.0,,,9999.0,,-3.7,-6.3,30.04,1019.2,,,,,,,,,,,,,,,,1100.0,1100.0,OVC,1100.0,,,,,,
KRDR,11-14-2021,15:56,METAR,Normal,130,3.0,,,9999.0,,-3.8,-6.4,30.03,1018.9,,,,,,,,,,,,,,,,1100.0,1100.0,OVC,1100.0,,,,,,
KRDR,11-14-2021,14:56,METAR,Calm,,0.0,,,9999.0,,-3.9,-6.4,30.03,1018.9,,,,,,,,,,,,,,,,1100.0,1100.0,OVC,1100.0,,,,,,
KRDR,11-14-2021,14:39,SPECI,Normal,360,5.0,,,9999.0,,-4.0,-6.0,30.03,1018.9,,,,,,,,,,,,,,,,1100.0,1100.0,OVC,1100.0,,,,,,
KRDR,11-14-2021,13:56,METAR,Normal,10,5.0,,,9999.0,,-3.9,-6.4,30.03,1018.9,,,,,,,,,,,,,,,,1200.0,1200.0,OVC,1200.0,,,,,,
KRDR,11-14-2021,12:56,METAR,Normal,360,4.0,,,9999.0,,-3.8,-6.3,30.03,1018.9,,,,,,,,,,,,,,,,1200.0,1200.0,OVC,1200.0,,,,,,
KRDR,11-14-2021,12:46,SPECI,Normal,360,6.0,,,9999.0,,-4.0,-6.0,30.03,1018.9,,,,,,,,,,,,,,,,1200.0,1200.0,OVC,1200.0,,,,,,
KRDR,11-14-2021,11:56,METAR,Normal,350,5.0,,,9999.0,,-3.8,-5.5,30.03,1018.8,,,,,,,,,,,,,TRACE,.21 IN,,1100.0,1100.0,OVC,1100.0,,,,,,
KRDR,11-14-2021,11:06,SPECI,Normal,360,6.0,,,9999.0,,-4.0,-6.0,30.02,1018.5,,,,,,,,,,,,,,,,1000.0,1000.0,OVC,1000.0,,,,,,
KRDR,11-14-2021,10:56,METAR,Normal,350,5.0,,,9999.0,,-3.9,-5.6,30.02,1018.5,,,,,,,,,,,,,,,,900.0,900.0,OVC,900.0,,,,,,
KRDR,11-14-2021,09:56,METAR,Normal,350,10.0,,,9999.0,,-4.0,-5.7,30.01,1018.2,,,,,,,,,,,,,,,,900.0,900.0,OVC,900.0,,,,,,
KRDR,11-14-2021,08:56,METAR,Normal,320,6.0,,,9999.0,,-4.4,-6.2,30.00,1017.9,,,,,,,,,,,,TRACE,,,,1000.0,1000.0,OVC,1000.0,,,,,,
KRDR,11-14-2021,08:32,SPECI,Normal,310,8.0,,,9999.0,,-4.0,-6.0,30.00,1017.9,,,,,,,,,,,,,,,,1000.0,1000.0,OVC,1000.0,,,,,,
KRDR,11-14-2021,07:56,METAR,Normal,310,7.0,,,9999.0,,-4.6,-6.4,29.99,1017.5,,,,,,,,,,,TRACE,,,,,900.0,900.0,OVC,900.0,,,,,,
KRDR,11-14-2021,07:49,SPECI,Normal,310,7.0,,,9999.0,,-5.0,-6.0,29.99,1017.5,,,,,,,,,,,,,,,,800.0,800.0,OVC,800.0,,,,,,
KRDR,11-14-2021,06:56,METAR,Normal,310,5.0,,,9999.0,Light Snow,-5.8,-7.2,29.98,1017.3,71,,,,,,,,,,,,,,,800.0,800.0,BKN,800.0,,,,,,
KRDR,11-14-2021,06:06,SPECI,Normal,330,10.0,,,9999.0,,-4.0,-6.0,29.98,1017.2,,,,,,,,,,,,,,,,600.0,600.0,OVC,600.0,,,,,,
KRDR,11-14-2021,05:56,METAR,Normal,340,11.0,,,9999.0,,-4.2,-5.6,29.98,1017.2,,,,,,,,,,,,,TRACE,,,600.0,600.0,OVC,600.0,,,,,,
KRDR,11-14-2021,05:16,SPECI,Normal,340,12.0,,,9999.0,,-4.0,-5.0,29.95,1016.1,,,,,,,,,,,,,,,,1500.0,800.0,FEW,800.0,OVC,1500.0,,,,
KRDR,11-14-2021,04:56,METAR,Normal,330,11.0,,,9999.0,,-3.7,-5.1,29.94,1015.8,,,,,,,,,,,,,,,,1000.0,1000.0,OVC,1000.0,,,,,,
KRDR,11-14-2021,04:36,SPECI,Normal,340,13.0,,,9999.0,,-4.0,-5.0,29.94,1015.8,,,,,,,,,,,,,,,,700.0,700.0,OVC,700.0,,,,,,
KRDR,11-14-2021,04:06,SPECI,Normal,330,13.0,,,4400.0,Mist,-4.0,-5.0,29.93,1015.5,10,,,,,,,,,,,,,,,600.0,600.0,OVC,600.0,,,,,,
KRDR,11-14-2021,03:56,METAR,Normal,340,13.0,,,9999.0,,-3.8,-4.9,29.92,1015.0,,,,,,,,,,,,,,,,500.0,500.0,OVC,500.0,,,,,,
KRDR,11-14-2021,03:06,SPECI,Normal,350,15.0,,,4400.0,Mist,-4.0,-5.0,29.90,1014.4,10,,,,,,,,,,,,,,,500.0,500.0,OVC,500.0,,,,,,
KRDR,11-14-2021,02:56,METAR,Normal,350,14.0,,,9999.0,,-3.8,-4.9,29.90,1014.4,,,,,,,,,,,TRACE,TRACE,,,,500.0,500.0,OVC,500.0,,,,,,
KRDR,11-14-2021,01:56,METAR,Normal,350,12.0,,,9999.0,,-4.3,-5.4,29.85,1012.7,,,,,,,,,,,TRACE,,,,,600.0,600.0,OVC,600.0,,,,,,
KRDR,11-14-2021,01:37,SPECI,Normal,350,12.0,,,3200.0,Mist,-4.0,-5.0,29.83,1012.0,,,,10,,,,,,,,,,,,600.0,600.0,BKN,600.0,BKN,1800.0,OVC,3300.0,,
KRDR,11-14-2021,01:09,SPECI,Normal,350,14.0,,,3200.0,Light Snow/Mist,-3.0,-4.0,29.81,1011.3,71,10,,,,,,,,,,,,,,600.0,200.0,SCT,200.0,BKN,600.0,OVC,2600.0,,
KRDR,11-14-2021,00:56,METAR,Normal,360,15.0,,,1600.0,Light Snow,-3.2,-4.3,29.80,1011.0,71,,,,,,,,,,TRACE,,,,,600.0,600.0,BKN,600.0,OVC,2600.0,,,,
KRDR,11-13-2021,23:56,METAR,Normal,40,10.0,,,800.0,Snow,-3.0,-4.0,29.75,1009.2,72,,,,,,,,,,TRACE,,.11 IN,,,600.0,600.0,OVC,600.0,,,,,,
KRDR,11-13-2021,22:56,METAR,Normal,70,9.0,,,1000.0,Snow,-3.1,-4.2,29.70,1007.5,72,,,,,,,,,,.05 IN,,,,,600.0,600.0,OVC,600.0,,,,,,
KRDR,11-13-2021,22:29,SPECI,Normal,80,10.0,,,400.0,Heavy Snow,-3.0,-4.0,29.68,1006.9,,,,75,,,,,,,,,,,,600.0,600.0,OVC,600.0,,,,,,
KRDR,11-13-2021,21:56,METAR,Normal,100,10.0,,,1200.0,Light Snow/Mist,-3.2,-4.3,29.67,1006.5,71,10,,,,,,,,,.03 IN,,,,,600.0,600.0,OVC,600.0,,,,,,
KRDR,11-13-2021,21:48,SPECI,Normal,100,10.0,,,800.0,Light Snow/Blowing Snow,-3.0,-4.0,29.67,1006.5,,,,71,38,,,,,,,,,,,600.0,600.0,OVC,600.0,,,,,,
KRDR,11-13-2021,20:57,METAR,Normal,140,10.0,,,1600.0,Light Snow,-3.3,-4.7,29.67,1006.5,71,,,,,,,,,,.02 IN,.03 IN,,,,600.0,600.0,OVC,600.0,,,,,,
KRDR,11-13-2021,20:12,SPECI,Normal,150,14.0,,,600.0,Snow,-3.0,-5.0,29.66,1006.2,,,,73,,,,,,,,,,,,600.0,600.0,OVC,600.0,,,,,,
KRDR,11-13-2021,20:04,SPECI,Normal,160,15.0,,,1400.0,Snow,-3.0,-5.0,29.67,,72,,,,,,,,,,,,,,,600.0,600.0,OVC,600.0,,,,,,
KRDR,11-13-2021,19:56,METAR,Normal,150,13.0,,,1600.0,Snow,-3.3,-4.6,29.69,1007.2,72,,,,,,,,,,TRACE,,,,,600.0,600.0,BKN,600.0,OVC,800.0,,,,
KRDR,11-13-2021,18:57,METAR,Normal,150,10.0,,,1600.0,Light Snow,-3.2,-4.6,29.73,1008.6,71,,,,,,,,,,TRACE,,,,,600.0,600.0,OVC,600.0,,,,,,
KRDR,11-13-2021,18:48,SPECI,Normal,160,13.0,,,1600.0,Light Snow/Blowing Snow,-3.0,-5.0,29.73,1008.6,,,,71,38,,,,,,,,,,,600.0,600.0,BKN,600.0,OVC,2300.0,,,,
KRDR,11-13-2021,18:13,SPECI,Normal,160,15.0,19.0,,2400.0,Light Snow,-3.0,-5.0,29.78,1010.3,71,,,,,,,,,,,,,,,600.0,600.0,BKN,600.0,OVC,2100.0,,,,
KRDR,11-13-2021,17:55,METAR,Normal,180,10.0,,,1400.0,Light Snow,-3.1,-4.2,29.80,1011.0,71,,,,,,,,,,.06 IN,,.1 IN,,,800.0,800.0,OVC,800.0,,,,,,
KRDR,11-13-2021,16:55,METAR,Normal,160,9.0,,,600.0,Snow,-3.2,-4.3,29.85,1012.7,72,,,,,,,,,,.04 IN,,,,,700.0,700.0,OVC,700.0,,,,,,
KRDR,11-13-2021,16:43,SPECI,Normal,170,10.0,,,600.0,Snow,-3.0,-4.0,29.86,1013.0,72,,,,,,,,,,,,,,,900.0,900.0,OVC,900.0,,,,,,
KRDR,11-13-2021,16:01,SPECI,Normal,190,9.0,,,800.0,Snow,-3.0,-5.0,29.89,1014.0,72,,,,,,,,,,,,,,,1100.0,1100.0,BKN,1100.0,OVC,1600.0,,,,
KRDR,11-13-2021,15:55,METAR,Normal,180,11.0,,,1400.0,Light Snow,-2.8,-5.0,29.89,1014.0,71,,,,,,,,,,TRACE,,,,,1100.0,1100.0,BKN,1100.0,OVC,1900.0,,,,
KRDR,11-13-2021,15:46,SPECI,Normal,190,11.0,,,9999.0,Light Snow,-3.0,-5.0,29.90,1014.4,71,,,,,,,,,,,,,,,1200.0,1200.0,OVC,1200.0,,,,,,
KRDR,11-13-2021,15:36,SPECI,Normal,190,9.0,,,9999.0,,-3.0,-5.0,29.90,1014.4,,,,,,,,,,,,,,,,1300.0,1300.0,OVC,1300.0,,,,,,
KRDR,11-13-2021,14:56,METAR,Normal,190,11.0,,,9999.0,,-2.7,-5.4,29.91,1014.7,,,,,,,,,,,,,,,,1900.0,1900.0,OVC,1900.0,,,,,,
KRDR,11-13-2021,13:56,METAR,Normal,170,6.0,,,9999.0,,-3.0,-4.9,29.95,1016.1,,,,,,,,,,,,,,,,2300.0,2300.0,BKN,2300.0,BKN,9100.0,,,,
KRDR,11-13-2021,12:56,METAR,Normal,160,5.0,,,9999.0,,-3.2,-5.1,29.97,1016.7,,,,,,,,,,,,,,,,2700.0,2700.0,BKN,2700.0,OVC,9100.0,,,,
KRDR,11-13-2021,11:56,METAR,Normal,150,3.0,,,9999.0,,-3.7,-5.6,29.98,1017.1,,,,,,,,,,,,,,TRACE,,2500.0,2500.0,BKN,2500.0,,,,,,
KRDR,11-13-2021,10:56,METAR,Calm,,0.0,,,9999.0,,-3.0,-5.0,30.01,1018.0,,,,,,,,,,,,,,,,2500.0,2500.0,OVC,2500.0,,,,,,
KRDR,11-13-2021,09:56,METAR,Calm,,0.0,,,9999.0,,-3.0,-5.2,30.03,1018.7,,,,,,,,,,,,,,,,2500.0,2500.0,OVC,2500.0,,,,,,
KRDR,11-13-2021,08:56,METAR,Calm,,0.0,,,9999.0,,-2.8,-5.1,30.07,1020.1,,,,,,,,,,,,,,,,2500.0,2500.0,OVC,2500.0,,,,,,
KRDR,11-13-2021,07:56,METAR,Normal,340,4.0,,,9999.0,,-2.9,-5.1,30.08,1020.4,,,,,,,,,,,,,,,,2500.0,2500.0,OVC,2500.0,,,,,,
KRDR,11-13-2021,06:56,METAR,Normal,310,4.0,,,9999.0,,-2.6,-4.9,30.10,1021.1,,,,,,,,,,,,,,,,2600.0,2600.0,OVC,2600.0,,,,,,
KRDR,11-13-2021,05:56,METAR,Normal,310,6.0,,,9999.0,,-2.5,-4.7,30.11,1021.5,,,,,,,,,,,,,,,,2300.0,2300.0,OVC,2300.0,,,,,,
KRDR,11-13-2021,04:56,METAR,Normal,330,7.0,,,9999.0,,-2.4,-4.9,30.13,1022.1,,,,,,,,,,,,,,,,2200.0,2200.0,OVC,2200.0,,,,,,
KRDR,11-13-2021,03:56,METAR,Normal,350,9.0,,,9999.0,,-2.2,-4.9,30.14,1022.5,,,,,,,,,,,,,,,,2100.0,2100.0,OVC,2100.0,,,,,,
KRDR,11-13-2021,02:56,METAR,Normal,340,12.0,,,9999.0,,-2.2,-4.9,30.15,1022.9,,,,,,,,,,,,,,,,2000.0,2000.0,OVC,2000.0,,,,,,
KRDR,11-13-2021,01:56,METAR,Normal,350,11.0,17.0,,9999.0,,-2.1,-4.6,30.16,1023.2,,,,,,,,,,,,,,,,2000.0,2000.0,OVC,2000.0,,,,,,
KRDR,11-13-2021,01:46,SPECI,Normal,350,11.0,,,9999.0,,-2.0,-5.0,30.16,1023.2,,,,,,,,,,,,,,,,1900.0,1900.0,OVC,1900.0,,,,,,
KRDR,11-13-2021,01:16,SPECI,Normal,340,12.0,,,9999.0,,-2.0,-4.0,30.16,1023.2,,,,,,,,,,,,,,,,2000.0,2000.0,OVC,2000.0,,,,,,
KRDR,11-13-2021,00:56,METAR,Normal,340,13.0,,,9999.0,,-2.0,-4.5,30.17,1023.6,,,,,,,,,,,,,,,,1900.0,1900.0,OVC,1900.0,,,,,,
KRDR,11-12-2021,23:56,METAR,Normal,340,13.0,21.0,,9999.0,,-1.9,-4.4,30.17,1023.6,,,,,,,,,,,,,TRACE,,,1900.0,1900.0,OVC,1900.0,,,,,,
KRDR,11-12-2021,22:56,METAR,Normal,350,16.0,23.0,,9999.0,,-1.7,-4.4,30.16,1023.2,,,,,,,,,,,,,,,,2000.0,2000.0,OVC,2000.0,,,,,,
KRDR,11-12-2021,22:46,SPECI,Normal,350,16.0,23.0,,9999.0,,-2.0,-4.0,30.15,1022.9,,,,,,,,,,,,,,,,1600.0,2000.0,OVC,2000.0,,,,,,
KRDR,11-12-2021,21:56,METAR,Normal,340,17.0,23.0,330/27KTS,9999.0,,-1.6,-4.3,30.13,1022.2,,,,,,,,,,,,,,,,1500.0,1500.0,BKN,1500.0,OVC,2100.0,,,,
KRDR,11-12-2021,20:56,METAR,Normal,340,22.0,26.0,340/27KTS,9999.0,,-1.4,-4.1,30.10,1021.1,,,,,,,,,,,,TRACE,,,,1500.0,1500.0,OVC,1500.0,,,,,,
KRDR,11-12-2021,19:56,METAR,Normal,350,19.0,25.0,340/29KTS,9999.0,,-1.6,-4.0,30.09,1020.8,,,,,,,,,,,,,,,,1300.0,1300.0,OVC,1300.0,,,,,,
KRDR,11-12-2021,18:56,METAR,Normal,350,21.0,28.0,350/32KTS,9999.0,Blowing or Drifting Snow or Sand,-1.0,-4.0,30.06,1019.7,27,,,,,,,,,,,,,,,1300.0,1300.0,OVC,1300.0,,,,,,
KRDR,11-12-2021,17:56,METAR,Normal,350,24.0,32.0,330/35KTS,9999.0,Blowing or Drifting Snow or Sand,-1.9,-4.4,30.05,1019.4,27,,,,,,,,,,,,TRACE,,,1200.0,1200.0,BKN,1200.0,OVC,1800.0,,,,
KRDR,11-12-2021,16:56,METAR,Normal,350,25.0,34.0,350/36KTS,6400.0,Blowing or Drifting Snow or Sand,-2.5,-4.7,30.04,1019.1,27,,,,,,,,,,TRACE,,,,,1200.0,1200.0,BKN,1200.0,OVC,1800.0,,,,
KRDR,11-12-2021,15:56,METAR,Normal,350,25.0,35.0,330/39KTS,3200.0,Light Snow/Blowing or Drifting Snow or Sand,-3.0,-5.0,30.02,1018.4,71,27,,,,,,,,,TRACE,,,,,1200.0,1200.0,BKN,1200.0,OVC,1800.0,,,,
KRDR,11-12-2021,15:20,SPECI,Normal,350,24.0,33.0,,3200.0,Light Snow/Blowing or Drifting Snow or Sand,-3.0,-5.0,30.00,1017.7,71,27,,,,,,,,,,,,,,1000.0,1000.0,BKN,1000.0,OVC,1500.0,,,,
KRDR,11-12-2021,15:16,SPECI,Normal,350,26.0,33.0,,3200.0,Light Snow/Blowing or Drifting Snow or Sand,-3.0,-5.0,30.00,1017.7,71,27,,,,,,,,,,,,,,1000.0,1000.0,BKN,1000.0,OVC,1500.0,,,,
KRDR,11-12-2021,14:56,METAR,Normal,350,25.0,36.0,330/37KTS,3200.0,Light Snow/Blowing or Drifting Snow or Sand,-3.5,-5.4,29.99,1017.4,71,27,,,,,,,,,TRACE,TRACE,,,,1000.0,1000.0,BKN,1000.0,OVC,1500.0,,,,
KRDR,11-12-2021,14:42,SPECI,Normal,350,26.0,35.0,,2400.0,Light Snow/Blowing or Drifting Snow or Sand,-4.0,-5.0,29.98,1017.0,71,27,,,,,,,,,,,,,,1100.0,1100.0,BKN,1100.0,OVC,1400.0,,,,
KRDR,11-12-2021,13:56,METAR,Normal,350,25.0,35.0,340/38KTS,1400.0,Light Snow/Blowing or Drifting Snow or Sand,-3.8,-5.4,29.96,1016.3,71,27,,,,,,,,,TRACE,,,,,900.0,900.0,BKN,900.0,BKN,1200.0,OVC,1800.0,,
KRDR,11-12-2021,13:06,SPECI,Normal,350,27.0,37.0,,1400.0,Light Snow/Blowing or Drifting Snow or Sand,-4.0,-5.0,29.91,1014.6,71,27,,,,,,,,,,,,,,900.0,900.0,BKN,900.0,BKN,1400.0,OVC,2900.0,,
KRDR,11-12-2021,12:56,METAR,Normal,350,24.0,37.0,330/39KTS,2400.0,Light Snow/Blowing or Drifting Snow or Sand,-3.5,-5.1,29.90,1014.3,71,27,,,,,,,,,TRACE,,,,,900.0,900.0,BKN,900.0,OVC,1400.0,,,,
KRDR,11-12-2021,12:38,SPECI,Normal,350,27.0,35.0,,2400.0,Light Snow/Blowing or Drifting Snow or Sand,-3.0,-5.0,29.89,1013.9,71,27,,,,,,,,,,,,,,1100.0,1100.0,BKN,1100.0,BKN,1700.0,OVC,3000.0,,
KRDR,11-12-2021,11:56,METAR,Normal,350,23.0,35.0,360/41KTS,2400.0,Blowing or Drifting Snow or Sand,-3.3,-5.0,29.87,1013.2,27,,,,,,,,,,,,TRACE,.33 IN,,1000.0,1000.0,BKN,1000.0,OVC,1500.0,,,,
KRDR,11-12-2021,10:56,METAR,Normal,350,29.0,37.0,330/45KTS,2400.0,Blowing or Drifting Snow or Sand,-3.3,-5.0,29.83,1011.8,27,,,,,,,,,,TRACE,,,,,1300.0,1300.0,BKN,1300.0,OVC,1600.0,,,,
KRDR,11-12-2021,10:45,SPECI,Normal,350,29.0,41.0,,1600.0,Blowing or Drifting Snow or Sand,-3.0,-5.0,29.82,1011.5,27,,,,,,,,,,,,,,,1100.0,1100.0,OVC,1100.0,,,,,,
KRDR,11-12-2021,10:26,SPECI,Normal,350,28.0,37.0,,2400.0,Blowing or Drifting Snow or Sand,-3.0,-5.0,29.80,1010.8,27,,,,,,,,,,,,,,,1200.0,1200.0,OVC,1200.0,,,,,,
KRDR,11-12-2021,09:56,METAR,Normal,350,30.0,43.0,350/44KTS,1200.0,Light Snow/Blowing or Drifting Snow or Sand/Mist,-3.1,-4.7,29.79,1010.5,71,27,10,,,,,,,,TRACE,,,,,1200.0,1200.0,OVC,1200.0,,,,,,
KRDR,11-12-2021,08:56,METAR,Normal,350,28.0,40.0,330/43KTS,1600.0,Light Snow/Blowing or Drifting Snow or Sand/Mist,-2.9,-4.3,29.76,1009.4,71,27,10,,,,,,,,TRACE,TRACE,,,,1000.0,1000.0,BKN,1000.0,OVC,1400.0,,,,
KRDR,11-12-2021,08:29,SPECI,Normal,350,28.0,43.0,,1600.0,Light Snow/Blowing or Drifting Snow or Sand/Mist,-3.0,-4.0,29.74,1008.7,71,27,10,,,,,,,,,,,,,1000.0,1000.0,BKN,1000.0,OVC,1800.0,,,,
KRDR,11-12-2021,07:56,METAR,Normal,350,31.0,44.0,340/44KTS,1200.0,Light Snow/Blowing or Drifting Snow or Sand/Mist,-2.8,-4.1,29.72,1008.0,71,27,10,,,,,,,,TRACE,,,,,1300.0,1300.0,OVC,1300.0,,,,,,
KRDR,11-12-2021,07:06,SPECI,Normal,350,31.0,37.0,,1200.0,Light Snow/Blowing or Drifting Snow or Sand/Mist,-2.0,-4.0,29.68,1006.6,71,27,10,,,,,,,,,,,,,1400.0,1400.0,OVC,1400.0,,,,,,
KRDR,11-12-2021,06:56,METAR,Normal,350,28.0,40.0,340/41KTS,1600.0,Light Snow/Blowing or Drifting Snow or Sand/Mist,-2.3,-3.6,29.68,1006.6,71,27,10,,,,,,,,TRACE,,,,,1000.0,1000.0,OVC,1000.0,,,,,,
KRDR,11-12-2021,05:56,METAR,Normal,360,30.0,39.0,340/39KTS,4000.0,Light Snow/Blowing or Drifting Snow or Sand/Mist,-1.7,-3.0,29.65,1005.6,71,27,10,,,,,,,,.06 IN,,.32 IN,,,800.0,800.0,OVC,800.0,,,,,,
KRDR,11-12-2021,05:52,SPECI,Normal,350,29.0,39.0,,4400.0,Light Snow/Mist,-2.0,-3.0,29.65,1005.6,71,10,,,,,,,,,,,,,,800.0,800.0,OVC,800.0,,,,,,
KRDR,11-12-2021,05:42,SPECI,Normal,350,26.0,37.0,,4800.0,Light Snow/Mist,-2.0,-3.0,29.65,1005.6,71,10,,,,,,,,,,,,,,200.0,200.0,SCT,200.0,OVC,800.0,,,,
KRDR,11-12-2021,05:32,SPECI,Normal,350,24.0,35.0,,4800.0,Light Snow/Mist,-2.0,-3.0,29.65,1005.6,71,10,,,,,,,,,,,,,,200.0,200.0,BKN,200.0,OVC,800.0,,,,
KRDR,11-12-2021,05:22,SPECI,Normal,350,27.0,35.0,,1800.0,Light Snow/Mist,-2.0,-3.0,29.64,1005.3,71,10,,,,,,,,,,,,,,200.0,200.0,OVC,200.0,,,,,,
KRDR,11-12-2021,05:12,SPECI,Normal,360,28.0,38.0,,1400.0,Light Snow/Mist,-2.0,-3.0,29.64,1005.3,71,10,,,,,,,,,,,,,,200.0,200.0,BKN,200.0,,,,,,
KRDR,11-12-2021,05:02,SPECI,Normal,350,27.0,35.0,,2200.0,Light Snow/Mist,-1.0,-2.0,29.63,1004.8,71,10,,,,,,,,,,,,,,200.0,200.0,BKN,200.0,,,,,,
KRDR,11-12-2021,04:56,METAR,Normal,350,25.0,36.0,330/43KTS,2400.0,Light Snow/Mist,-1.5,-2.5,29.63,1004.8,71,10,,,,,,,,,.1 IN,,,,,200.0,200.0,BKN,200.0,,,,,,
KRDR,11-12-2021,04:54,SPECI,Normal,350,25.0,36.0,,2400.0,Light Snow/Mist,-1.0,-2.0,29.63,1004.8,71,10,,,,,,,,,,,,,,200.0,200.0,BKN,200.0,,,,,,
KRDR,11-12-2021,04:50,SPECI,Normal,350,28.0,35.0,,2000.0,Light Snow/Mist,-1.0,-2.0,29.63,1004.8,71,10,,,,,,,,,,,,,,200.0,200.0,BKN,200.0,,,,,,
KRDR,11-12-2021,04:33,SPECI,Normal,350,27.0,37.0,,2200.0,Light Snow/Mist,-1.0,-2.0,29.63,1004.8,71,10,,,,,,,,,,,,,,,200.0,SCT,200.0,,,,,,
KRDR,11-12-2021,04:23,SPECI,Normal,360,31.0,38.0,,2400.0,Light Snow/Mist,-1.0,-2.0,29.62,1004.5,71,10,,,,,,,,,,,,,,1200.0,200.0,SCT,200.0,OVC,1400.0,,,,
KRDR,11-12-2021,04:10,SPECI,Normal,360,26.0,39.0,,2800.0,Light Snow/Mist,-1.0,-2.0,29.62,1004.5,71,10,,,,,,,,,,,,,,200.0,200.0,SCT,200.0,OVC,1500.0,,,,
KRDR,11-12-2021,03:56,METAR,Normal,350,30.0,38.0,340/40KTS,2400.0,Light Snow/Mist,-1.3,-2.3,29.61,1004.2,71,10,,,,,,,,,.09 IN,,,,,200.0,200.0,BKN,200.0,OVC,1500.0,,,,
KRDR,11-12-2021,03:19,SPECI,Normal,350,29.0,37.0,,3000.0,Light Snow/Mist,-1.0,-2.0,29.59,1003.5,71,10,,,,,,,,,,,,,,200.0,200.0,BKN,200.0,OVC,1600.0,,,,
KRDR,11-12-2021,02:56,METAR,Normal,360,27.0,33.0,360/40KTS,3600.0,Light Snow/Mist,-1.0,-2.1,29.58,1003.1,71,10,,,,,,,,,.04 IN,.07 IN,,,,200.0,200.0,BKN,200.0,OVC,1600.0,,,,
KRDR,11-12-2021,02:43,SPECI,Normal,360,26.0,34.0,,4400.0,Light Snow/Mist,-1.0,-2.0,29.58,1003.1,71,10,,,,,,,,,,,,,,300.0,300.0,BKN,300.0,,,,,,
KRDR,11-12-2021,02:31,SPECI,Normal,350,26.0,33.0,,4000.0,Light Snow/Mist,-1.0,-2.0,29.58,1003.1,71,10,,,,,,,,,,,,,,,300.0,SCT,300.0,,,,,,
KRDR,11-12-2021,02:22,SPECI,Normal,350,22.0,40.0,,4400.0,Light Snow/Mist,-1.0,-2.0,29.58,1003.1,71,10,,,,,,,,,,,,,,300.0,300.0,BKN,300.0,,,,,,
KRDR,11-12-2021,02:16,SPECI,Normal,350,30.0,40.0,,4800.0,Light Snow/Mist,-1.0,-2.0,29.57,1002.8,71,10,,,,,,,,,,,,,,300.0,300.0,BKN,300.0,,,,,,
KRDR,11-12-2021,02:10,SPECI,Normal,350,28.0,36.0,,4400.0,Light Snow/Mist,-1.0,-2.0,29.57,1002.8,71,10,,,,,,,,,,,,,,300.0,300.0,BKN,300.0,BKN,700.0,OVC,1800.0,,
KRDR,11-12-2021,02:04,SPECI,Normal,360,27.0,36.0,,4800.0,Light Snow/Mist,-1.0,-2.0,29.57,1002.8,71,10,,,,,,,,,,,,,,300.0,300.0,BKN,300.0,BKN,700.0,OVC,1800.0,,
KRDR,11-12-2021,01:56,METAR,Normal,350,25.0,33.0,330/35KTS,4400.0,Light Snow/Mist,-0.7,-1.8,29.57,1002.8,71,10,,,,,,,,,.02 IN,,,,,300.0,300.0,BKN,300.0,BKN,700.0,OVC,1700.0,,
KRDR,11-12-2021,01:37,SPECI,Normal,350,23.0,32.0,,4800.0,Light Snow/Mist,-1.0,-2.0,29.56,1002.5,71,10,,,,,,,,,,,,,,300.0,300.0,BKN,300.0,OVC,1600.0,,,,
KRDR,11-12-2021,00:57,METAR,Normal,350,20.0,33.0,360/33KTS,3600.0,Light Snow/Mist,-0.3,-1.3,29.55,1002.1,71,10,,,,,,,,,.01 IN,,,,,200.0,200.0,BKN,200.0,OVC,1600.0,,,,
KRDR,11-12-2021,00:29,SPECI,Normal,350,25.0,30.0,,3600.0,Light Snow/Mist,0.0,-1.0,29.55,1002.1,71,10,,,,,,,,,,,,,,200.0,200.0,BKN,200.0,OVC,1600.0,,,,
KRDR,11-12-2021,00:07,SPECI,Normal,350,21.0,27.0,,4000.0,Light Snow/Mist,0.0,-1.0,29.54,1001.8,71,10,,,,,,,,,,,,,,300.0,300.0,BKN,300.0,OVC,1700.0,,,,
KRDR,11-11-2021,23:57,SPECI,Normal,350,21.0,27.0,,4800.0,Light Snow/Mist,0.0,-1.0,29.54,1001.8,71,10,,,,,,,,,,,,,,400.0,400.0,OVC,400.0,,,,,,
KRDR,11-11-2021,23:56,METAR,Normal,350,21.0,27.0,330/30KTS,4800.0,Mist,0.2,-0.7,29.54,1001.8,,10,,,,,,,,,.02 IN,,.08 IN,,,400.0,400.0,OVC,400.0,,,,,,
KRDR,11-11-2021,23:31,SPECI,Normal,350,20.0,27.0,,9999.0,,0.0,0.0,29.54,1001.8,,,,,,,,,,,,,,,,400.0,400.0,OVC,400.0,,,,,,
KRDR,11-11-2021,23:21,SPECI,Normal,350,20.0,26.0,,9999.0,,0.0,0.0,29.53,1001.4,,,,,,,,,,,,,,,,200.0,200.0,OVC,200.0,,,,,,
KRDR,11-11-2021,23:17,SPECI,Normal,350,20.0,26.0,,6400.0,Light Snow/Mist,0.0,0.0,29.53,1001.4,71,10,,,,,,,,,,,,,,200.0,200.0,OVC,200.0,,,,,,
KRDR,11-11-2021,23:05,SPECI,Normal,350,18.0,26.0,,3600.0,Light Snow/Mist,0.0,0.0,29.53,1001.4,71,10,,,,,,,,,,,,,,200.0,200.0,OVC,200.0,,,,,,
KRDR,11-11-2021,23:01,SPECI,Normal,350,19.0,26.0,,3200.0,Light Snow/Mist,0.0,0.0,29.53,1001.4,71,10,,,,,,,,,,,,,,200.0,200.0,OVC,200.0,,,,,,
KRDR,11-11-2021,22:56,METAR,Normal,350,17.0,24.0,,2600.0,Light Snow/Mist,0.4,-0.2,29.53,1001.4,71,10,,,,,,,,,.03 IN,,,,,200.0,200.0,OVC,200.0,,,,,,
KRDR,11-11-2021,22:36,SPECI,Normal,350,15.0,22.0,,3000.0,Light Snow/Mist,1.0,0.0,29.52,1001.0,71,10,,,,,,,,,,,,,,200.0,200.0,OVC,200.0,,,,,,
KRDR,11-11-2021,22:26,SPECI,Normal,350,14.0,23.0,,3000.0,Light Snow/Mist,1.0,0.0,29.52,1001.0,71,10,,,,,,,,,,,,,,300.0,300.0,OVC,300.0,,,,,,
KRDR,11-11-2021,22:16,SPECI,Normal,350,17.0,23.0,,3600.0,Light Snow/Mist,1.0,0.0,29.51,1000.7,71,10,,,,,,,,,,,,,,300.0,300.0,OVC,300.0,,,,,,
KRDR,11-11-2021,22:06,SPECI,Normal,360,16.0,,,6400.0,Light Snow/Mist,1.0,1.0,29.50,1000.3,71,10,,,,,,,,,,,,,,300.0,300.0,OVC,300.0,,,,,,
KRDR,11-11-2021,21:56,METAR,Normal,360,14.0,21.0,,9999.0,Light Snow/Mist,1.3,0.6,29.50,1000.3,71,10,,,,,,,,,.03 IN,,,,,400.0,400.0,OVC,400.0,,,,,,
KRDR,11-11-2021,21:27,SPECI,Normal,360,16.0,22.0,,9999.0,Light Snow,2.0,1.0,29.49,1000.0,71,,,,,,,,,,,,,,,500.0,500.0,OVC,500.0,,,,,,
KRDR,11-11-2021,21:26,SPECI,Normal,360,15.0,22.0,,9999.0,,2.0,1.0,29.49,1000.0,,,,,,,,,,,,,,,,500.0,500.0,OVC,500.0,,,,,,
KRDR,11-11-2021,21:16,SPECI,Normal,360,14.0,21.0,,9999.0,Light Rain,2.0,1.0,29.48,999.7,61,,,,,,,,,,,,,,,400.0,600.0,OVC,600.0,,,,,,
KRDR,11-11-2021,20:56,METAR,Normal,360,14.0,,,9999.0,Light Rain,1.6,0.9,29.47,999.3,61,,,,,,,,,,.02 IN,.02 IN,,,,400.0,400.0,OVC,400.0,,,,,,
KRDR,11-11-2021,20:53,SPECI,Normal,360,14.0,,,9999.0,Light Rain,2.0,1.0,29.47,999.3,61,,,,,,,,,,,,,,,400.0,400.0,OVC,400.0,,,,,,
KRDR,11-11-2021,20:50,SPECI,Normal,360,13.0,,,9999.0,Light Snow,2.0,1.0,29.47,999.3,71,,,,,,,,,,,,,,,400.0,400.0,OVC,400.0,,,,,,
KRDR,11-11-2021,20:30,SPECI,Normal,360,15.0,,,9999.0,Light Snow,2.0,1.0,29.47,999.2,71,,,,,,,,,,,,,,,500.0,500.0,OVC,500.0,,,,,,
KRDR,11-11-2021,20:24,SPECI,Normal,360,13.0,,,9999.0,Light Rain or Drizzle and Snow,2.0,1.0,29.46,998.9,67,,,,,,,,,,,,,,,500.0,500.0,OVC,500.0,,,,,,
KRDR,11-11-2021,20:17,SPECI,Normal,350,11.0,,,9999.0,Light Rain,2.0,1.0,29.46,998.9,61,,,,,,,,,,,,,,,500.0,500.0,OVC,500.0,,,,,,
KRDR,11-11-2021,19:57,SPECI,Normal,360,16.0,,,9999.0,Light Rain,2.0,1.0,29.46,998.9,61,,,,,,,,,,,,,,,400.0,400.0,OVC,400.0,,,,,,
KRDR,11-11-2021,19:56,METAR,Normal,360,13.0,,,9999.0,,2.1,1.4,29.45,998.6,,,,,,,,,,,TRACE,,,,,400.0,400.0,OVC,400.0,,,,,,
KRDR,11-11-2021,19:30,SPECI,Normal,350,13.0,,,9999.0,,2.0,1.0,29.45,998.6,,,,,,,,,,,,,,,,400.0,400.0,OVC,400.0,,,,,,
KRDR,11-11-2021,19:26,SPECI,Normal,360,13.0,,,9999.0,Light Drizzle,2.0,1.0,29.45,998.6,51,,,,,,,,,,,,,,,400.0,400.0,OVC,400.0,,,,,,
KRDR,11-11-2021,18:56,METAR,Normal,350,12.0,,,9999.0,Light Drizzle,1.9,1.0,29.46,998.9,51,,,,,,,,,,TRACE,,,,,400.0,500.0,OVC,500.0,,,,,,
KRDR,11-11-2021,18:41,SPECI,Normal,330,12.0,,,9999.0,Light Drizzle,2.0,1.0,29.46,998.9,51,,,,,,,,,,,,,,,500.0,500.0,OVC,500.0,,,,,,
KRDR,11-11-2021,18:37,SPECI,Normal,340,12.0,,,9999.0,,2.0,1.0,29.46,998.9,,,,,,,,,,,,,,,,500.0,500.0,OVC,500.0,,,,,,
KRDR,11-11-2021,18:27,SPECI,Normal,330,10.0,,,9999.0,,2.0,1.0,29.46,998.9,,,,,,,,,,,,,,,,500.0,600.0,OVC,600.0,,,,,,
KRDR,11-11-2021,17:55,METAR,Normal,320,10.0,,,9999.0,,1.8,0.8,29.46,998.9,,,,,,,,,,,TRACE,,,,,500.0,500.0,OVC,500.0,,,,,,
KRDR,11-11-2021,17:41,SPECI,Normal,330,12.0,,,9999.0,Light Drizzle,2.0,1.0,29.48,999.6,51,,,,,,,,,,,,,,,500.0,500.0,OVC,500.0,,,,,,
KRDR,11-11-2021,17:35,SPECI,Normal,330,13.0,,,9999.0,Light Drizzle,2.0,1.0,29.48,999.6,51,,,,,,,,,,,,,,,700.0,700.0,OVC,700.0,,,,,,
KRDR,11-11-2021,17:15,SPECI,Normal,330,12.0,,,9999.0,Light Rain,2.0,1.0,29.49,999.9,61,,,,,,,,,,,,,,,700.0,800.0,OVC,800.0,,,,,,
KRDR,11-11-2021,16:56,METAR,Normal,320,12.0,,,9999.0,,2.1,0.6,29.49,999.9,,,,,,,,,,,,,,,,800.0,800.0,OVC,800.0,,,,,,
KRDR,11-11-2021,16:43,SPECI,Normal,330,9.0,,,9999.0,,2.0,1.0,29.49,999.9,,,,,,,,,,,,,,,,900.0,900.0,OVC,900.0,,,,,,
KRDR,11-11-2021,16:30,SPECI,Normal,320,10.0,,,9999.0,,2.0,0.0,29.49,999.9,,,,,,,,,,,,,,,,1000.0,1000.0,OVC,1000.0,,,,,,
KRDR,11-11-2021,16:26,SPECI,Normal,330,11.0,,,9999.0,Mist,2.0,0.0,29.49,999.9,10,,,,,,,,,,,,,,,1000.0,1000.0,OVC,1000.0,,,,,,
KRDR,11-11-2021,16:11,SPECI,Normal,320,9.0,,,9999.0,Mist,3.0,1.0,29.49,999.9,10,,,,,,,,,,,,,,,900.0,900.0,OVC,900.0,,,,,,
KRDR,11-11-2021,15:56,METAR,Normal,330,10.0,,,9999.0,,2.4,0.8,29.49,999.9,,,,,,,,,,,,,,,,900.0,900.0,OVC,900.0,,,,,,
KRDR,11-11-2021,15:38,SPECI,Normal,330,10.0,15.0,,9999.0,,3.0,1.0,29.50,1000.2,,,,,,,,,,,,,,,,900.0,900.0,OVC,900.0,,,,,,
KRDR,11-11-2021,15:22,SPECI,Normal,300,9.0,,,9999.0,,3.0,1.0,29.50,1000.2,,,,,,,,,,,,,,,,1000.0,1000.0,OVC,1000.0,,,,,,
KRDR,11-11-2021,15:12,SPECI,Normal,300,7.0,,,9999.0,,3.0,1.0,29.51,1000.5,,,,,,,,,,,,,,,,900.0,900.0,OVC,900.0,,,,,,
KRDR,11-11-2021,14:56,METAR,Normal,300,8.0,,,9999.0,,2.5,1.0,29.51,1000.5,,,,,,,,,,,,,,,,800.0,800.0,OVC,800.0,,,,,,
KRDR,11-11-2021,14:55,SPECI,Normal,300,9.0,,,9999.0,,3.0,1.0,29.51,1000.5,,,,,,,,,,,,,,,,800.0,800.0,OVC,800.0,,,,,,
KRDR,11-11-2021,14:08,SPECI,Normal,300,10.0,,,9999.0,,3.0,1.0,29.52,1000.9,,,,,,,,,,,,,,,,900.0,900.0,OVC,900.0,,,,,,
KRDR,11-11-2021,13:56,METAR,Normal,300,9.0,,,9999.0,,2.5,0.9,29.52,1000.9,,,,,,,,,,,,,,,,1000.0,1000.0,OVC,1000.0,,,,,,
KRDR,11-11-2021,13:45,SPECI,Normal,300,9.0,,,9999.0,,3.0,1.0,29.52,1000.9,,,,,,,,,,,,,,,,1000.0,1000.0,OVC,1000.0,,,,,,
KRDR,11-11-2021,13:04,SPECI,Normal,300,9.0,,,9999.0,,2.0,1.0,29.53,1001.3,,,,,,,,,,,,,,,,1000.0,1100.0,OVC,1100.0,,,,,,
KRDR,11-11-2021,12:56,METAR,Normal,300,11.0,,,9999.0,Mist,2.4,0.6,29.53,1001.3,10,,,,,,,,,,,,,,,1000.0,1000.0,OVC,1000.0,,,,,,
KRDR,11-11-2021,12:40,SPECI,Normal,300,12.0,,,9999.0,Mist,2.0,1.0,29.54,1001.6,10,,,,,,,,,,,,,,,1000.0,1000.0,OVC,1000.0,,,,,,
KRDR,11-11-2021,12:15,SPECI,Normal,300,10.0,,,9999.0,Mist,2.0,1.0,29.55,1002.0,,,,10,,,,,,,,,,,,1000.0,1100.0,OVC,1100.0,,,,,,
KRDR,11-11-2021,11:56,METAR,Normal,290,10.0,,,9999.0,,2.4,0.8,29.56,1002.3,,,,,,,,,,,,,,.52 IN,,1100.0,1100.0,OVC,1100.0,,,,,,
KRDR,11-11-2021,11:35,SPECI,Normal,300,12.0,,,9999.0,,2.0,1.0,29.56,1002.2,,,,,,,,,,,,,,,,1100.0,1100.0,OVC,1100.0,,,,,,
KRDR,11-11-2021,11:19,SPECI,Normal,290,11.0,,,9999.0,,3.0,1.0,29.57,1002.6,,,,,,,,,,,,,,,,1200.0,1200.0,OVC,1200.0,,,,,,
KRDR,11-11-2021,10:56,METAR,Normal,290,12.0,,,9999.0,,2.6,0.7,29.58,1002.9,,,,,,,,,,,,,,,,1300.0,1300.0,OVC,1300.0,,,,,,
KRDR,11-11-2021,10:16,SPECI,Normal,300,13.0,19.0,,9999.0,,3.0,1.0,29.58,1002.9,,,,,,,,,,,,,,,,1300.0,1400.0,OVC,1400.0,,,,,,
KRDR,11-11-2021,09:56,METAR,Normal,300,10.0,,,9999.0,,2.3,0.4,29.59,1003.3,,,,,,,,,,,,,,,,1700.0,1700.0,BKN,1700.0,OVC,15000.0,,,,
KRDR,11-11-2021,09:46,SPECI,Normal,290,10.0,,,9999.0,,2.0,0.0,29.59,1003.3,,,,,,,,,,,,,,,,1800.0,1900.0,BKN,1900.0,OVC,15000.0,,,,
KRDR,11-11-2021,09:33,SPECI,Normal,290,11.0,,,9999.0,,2.0,0.0,29.60,1003.6,,,,,,,,,,,,,,,,15000.0,1900.0,SCT,1900.0,OVC,15000.0,,,,
KRDR,11-11-2021,09:25,SPECI,Normal,290,12.0,,,9999.0,,3.0,1.0,29.60,1003.6,,,,,,,,,,,,,,,,1800.0,1900.0,BKN,1900.0,OVC,15000.0,,,,
KRDR,11-11-2021,08:56,METAR,Normal,290,9.0,,,9999.0,,2.6,0.7,29.61,1004.0,,,,,,,,,,,,,,,,,2000.0,SCT,2000.0,SCT,3500.0,,,,
KRDR,11-11-2021,07:56,METAR,Normal,270,12.0,,,9999.0,,3.4,1.8,29.62,1004.3,,,,,,,,,,,,,,,,4600.0,4600.0,BKN,4600.0,,,,,,
KRDR,11-11-2021,06:56,METAR,Normal,270,6.0,,,9999.0,,3.8,2.9,29.64,1004.9,,,,,,,,,,,,,,,,3700.0,3700.0,BKN,3700.0,OVC,13000.0,,,,
KRDR,11-11-2021,05:56,METAR,Normal,290,6.0,,,9999.0,,4.2,3.3,29.66,1005.7,,,,,,,,,,,,,.05 IN,,,13000.0,13000.0,OVC,13000.0,,,,,,
KRDR,11-11-2021,05:06,SPECI,Normal,290,5.0,,,9999.0,,5.0,4.0,29.67,1005.9,,,,,,,,,,,,,,,,13000.0,2000.0,SCT,2000.0,OVC,13000.0,,,,
KRDR,11-11-2021,04:56,METAR,Normal,290,5.0,,,9999.0,,4.7,3.8,29.68,1006.3,,,,,,,,,,,,,,,,2000.0,2000.0,BKN,2000.0,OVC,13000.0,,,,
KRDR,11-11-2021,04:46,SPECI,Normal,280,5.0,,,9999.0,,5.0,4.0,29.68,1006.3,,,,,,,,,,,,,,,,2100.0,2100.0,BKN,2100.0,OVC,12000.0,,,,
KRDR,11-11-2021,03:56,METAR,Normal,310,5.0,,,9999.0,,5.1,4.1,29.68,1006.3,,,,,,,,,,,,,,,,3500.0,3500.0,OVC,3500.0,,,,,,
KRDR,11-11-2021,03:26,SPECI,Normal,290,8.0,,,9999.0,,5.0,4.0,29.69,1006.7,,,,,,,,,,,,,,,,3000.0,2500.0,SCT,2500.0,BKN,3000.0,OVC,3500.0,,
KRDR,11-11-2021,02:56,METAR,Normal,290,6.0,,,9999.0,,5.0,4.1,29.70,1007.0,,,,,,,,,,,.01 IN,.09 IN,,,,2400.0,2400.0,OVC,2400.0,,,,,,
KRDR,11-11-2021,02:50,SPECI,Normal,290,7.0,,,9999.0,Light Drizzle,5.0,4.0,29.70,1007.0,51,,,,,,,,,,,,,,,2400.0,2400.0,OVC,2400.0,,,,,,
KRDR,11-11-2021,01:57,METAR,Normal,240,5.0,,,9999.0,Light Rain,4.5,3.9,29.71,1007.4,61,,,,,,,,,,.04 IN,,,,,2800.0,2800.0,OVC,2800.0,,,,,,
KRDR,11-11-2021,01:46,SPECI,Normal,240,4.0,,,9999.0,Light Rain,5.0,4.0,29.71,1007.4,61,,,,,,,,,,,,,,,2200.0,1500.0,FEW,1500.0,SCT,2100.0,OVC,2800.0,,
KRDR,11-11-2021,00:56,METAR,Normal,250,3.0,,,9999.0,Light Rain,4.5,3.9,29.72,1007.6,61,,,,,,,,,,.05 IN,,,,,1900.0,1900.0,BKN,1900.0,,,,,,
KRDR,11-11-2021,00:47,SPECI,Normal,250,3.0,,,9999.0,Light Rain,5.0,4.0,29.72,1007.6,61,,,,,,,,,,,,,,,,1800.0,SCT,1800.0,,,,,,
KRDR,11-11-2021,00:17,SPECI,Normal,220,3.0,,,9999.0,Light Rain,5.0,4.0,29.72,1007.7,61,,,,,,,,,,,,,,,1800.0,300.0,FEW,300.0,BKN,1800.0,BKN,2600.0,,
KRDR,11-11-2021,00:07,SPECI,Normal,230,3.0,,,9999.0,Light Rain,5.0,4.0,29.72,1007.7,61,,,,,,,,,,,,,,,,300.0,FEW,300.0,SCT,2200.0,,,,
KRDR,11-10-2021,23:56,METAR,Normal,220,3.0,,,8000.0,Light Rain/Mist,4.9,4.3,29.72,1007.7,61,10,,,,,,,,,.05 IN,,.32 IN,,,2100.0,300.0,FEW,300.0,BKN,2100.0,BKN,2800.0,,
KRDR,11-10-2021,22:56,METAR,Normal,200,4.0,,,9999.0,Light Rain,5.3,4.7,29.72,1007.7,61,,,,,,,,,,.05 IN,,,,,2200.0,600.0,SCT,600.0,OVC,2200.0,,,,
KRDR,11-10-2021,22:26,SPECI,Normal,180,4.0,,,9999.0,Light Rain,5.0,5.0,29.72,1007.7,61,,,,,,,,,,,,,,,600.0,600.0,OVC,600.0,,,,,,
KRDR,11-10-2021,22:06,SPECI,Normal,160,4.0,,,9999.0,Light Rain,5.0,5.0,29.72,1007.7,61,,,,,,,,,,,,,,,400.0,500.0,OVC,500.0,,,,,,
KRDR,11-10-2021,21:56,METAR,Normal,160,4.0,,,9999.0,Light Rain/Mist,5.4,4.8,29.72,1007.7,61,10,,,,,,,,,.09 IN,,,,,300.0,300.0,BKN,300.0,OVC,800.0,,,,
KRDR,11-10-2021,16:56,METAR,Normal,110,13.0,,,9999.0,Light Rain,3.9,3.0,29.83,1011.7,61,,,,,,,,,,.06 IN,,,,,4300.0,600.0,SCT,600.0,OVC,4300.0,,,,
KRDR,11-10-2021,15:56,METAR,Normal,100,15.0,,,9999.0,Light Rain,3.9,2.7,29.84,1011.9,61,,,,,,,,,,.01 IN,,,,,3700.0,300.0,FEW,300.0,BKN,3700.0,OVC,4500.0,,
KRDR,11-10-2021,15:06,SPECI,Normal,90,12.0,,,9999.0,Light Rain,4.0,3.0,29.87,1012.9,61,,,,,,,,,,,,,,,3700.0,300.0,SCT,300.0,BKN,3700.0,OVC,4900.0,,
KRDR,11-10-2021,14:56,METAR,Normal,90,11.0,,,9999.0,Light Rain/Mist,3.8,2.5,29.87,1012.9,61,10,,,,,,,,,.09 IN,.12 IN,,,,300.0,300.0,BKN,300.0,OVC,3500.0,,,,
KRDR,11-10-2021,14:23,SPECI,Normal,100,8.0,,,9999.0,Light Rain/Mist,4.0,2.0,29.89,1013.6,61,10,,,,,,,,,,,,,,300.0,300.0,BKN,300.0,BKN,2900.0,OVC,4400.0,,
KRDR,11-10-2021,14:19,SPECI,Normal,100,7.0,,,9999.0,Light Rain/Mist,4.0,2.0,29.89,1013.6,61,10,,,,,,,,,,,,,,2900.0,300.0,SCT,300.0,BKN,2900.0,BKN,3800.0,OVC,4600.0
KRDR,11-10-2021,14:14,SPECI,Normal,90,7.0,,,9999.0,Light Rain,4.0,2.0,29.89,1013.6,61,,,,,,,,,,,,,,,4000.0,300.0,FEW,300.0,FEW,2900.0,OVC,4000.0,,
KRDR,11-10-2021,13:56,METAR,Normal,80,6.0,,,9999.0,Light Rain,3.6,2.1,29.90,1013.9,61,,,,,,,,,,.03 IN,,,,,4000.0,1200.0,FEW,1200.0,OVC,4000.0,,,,
KRDR,11-10-2021,12:59,SPECI,Normal,110,7.0,,,9999.0,Light Rain,4.0,2.0,29.90,1013.8,61,,,,,,,,,,,,,,,5000.0,5000.0,BKN,5000.0,OVC,6000.0,,,,
KRDR,11-10-2021,12:56,METAR,Normal,110,7.0,,,9999.0,,4.0,1.4,29.90,1013.8,,,,,,,,,,,TRACE,,,,,5000.0,5000.0,BKN,5000.0,OVC,6000.0,,,,
KRDR,11-10-2021,12:22,SPECI,Normal,100,8.0,,,9999.0,,4.0,1.0,29.90,1013.8,,,,,,,,,,,,,,,,5000.0,5000.0,OVC,5000.0,,,,,,
KRDR,11-10-2021,12:19,SPECI,Normal,100,7.0,,,9999.0,Light Drizzle,4.0,2.0,29.90,1013.8,51,,,,,,,,,,,,,,,5500.0,4500.0,FEW,4500.0,OVC,5500.0,,,,
KRDR,11-10-2021,11:56,METAR,Normal,100,5.0,,,9999.0,Light Rain,3.6,1.1,29.92,1014.5,61,,,,,,,,,,TRACE,,TRACE,,,4000.0,4000.0,BKN,4000.0,OVC,6000.0,,,,
KRDR,11-10-2021,11:28,SPECI,Normal,170,5.0,,,9999.0,Light Rain,4.0,0.0,29.93,1014.8,61,,,,,,,,,,,,,,,5500.0,4100.0,SCT,4100.0,BKN,5500.0,OVC,6500.0,,
KRDR,11-10-2021,10:56,METAR,Normal,130,7.0,,,9999.0,,3.8,-0.2,29.93,1014.7,,,,,,,,,,,,,,,,6000.0,6000.0,OVC,6000.0,,,,,,
KRDR,11-10-2021,09:56,METAR,Normal,120,9.0,,,9999.0,,3.0,-1.4,29.95,,,,,,,,,,,,,,,,,7500.0,7500.0,OVC,7500.0,,,,,,
KRDR,11-10-2021,08:56,METAR,Normal,130,6.0,,,9999.0,,1.9,-2.6,29.98,,,,,,,,,,,,,,,,,7000.0,7000.0,OVC,7000.0,,,,,,
KRDR,11-10-2021,07:56,METAR,Normal,120,4.0,,,9999.0,,1.5,-3.4,30.01,,,,,,,,,,,,,,,,,7500.0,7500.0,OVC,7500.0,,,,,,
KRDR,11-10-2021,06:56,METAR,Normal,140,5.0,,,9999.0,,0.9,-3.8,30.02,,,,,,,,,,,,,,,,,18000.0,18000.0,BKN,18000.0,BKN,20000.0,,,,
KRDR,11-10-2021,05:56,METAR,Normal,160,5.0,,,9999.0,,-0.5,-4.4,30.04,,,,,,,,,,,,,,,,,20000.0,20000.0,BKN,20000.0,,,,,,
KRDR,11-10-2021,04:56,METAR,Normal,110,5.0,,,9999.0,,-1.3,-4.8,30.06,,,,,,,,,,,,,,,,,21000.0,5500.0,SCT,5500.0,SCT,7500.0,BKN,21000.0,,
KRDR,11-10-2021,03:56,METAR,Normal,150,4.0,,,9999.0,,-0.1,-4.7,30.06,,,,,,,,,,,,,,,,,22000.0,10000.0,SCT,10000.0,BKN,22000.0,,,,
KRDR,11-10-2021,02:56,METAR,Normal,150,6.0,,,9999.0,,1.2,-4.5,30.07,,,,,,,,,,,,,,,,,25000.0,10000.0,SCT,10000.0,BKN,25000.0,,,,
KRDR,11-10-2021,01:56,METAR,Normal,130,5.0,,,9999.0,,1.8,-4.5,30.08,1020.2,,,,,,,,,,,,,,,,,10000.0,FEW,10000.0,,,,,,
KRDR,11-10-2021,00:56,METAR,Normal,110,7.0,,,9999.0,,3.1,-4.6,30.09,1020.5,,,,,,,,,,,,,,,,,10000.0,FEW,10000.0,,,,,,
KRDR,11-09-2021,23:56,METAR,Normal,110,5.0,,,9999.0,,5.1,-4.7,30.12,1021.5,,,,,,,,,,,,,,,,,10000.0,FEW,10000.0,,,,,,
KRDR,11-09-2021,22:53,METAR,Normal,100,5.0,,,9999.0,,8.0,-6.0,30.13,,,,,,,,,,,,,,,,,,10000.0,FEW,10000.0,,,,,,
KRDR,11-09-2021,21:55,METAR,Normal,360,3.0,,,9999.0,,11.0,-8.0,30.14,,,,,,,,,,,,,,,,,,10000.0,FEW,10000.0,,,,,,
KRDR,11-09-2021,20:56,METAR,Normal,290,7.0,,,9999.0,,12.0,-9.0,30.16,,,,,,,,,,,,,,,,,,10000.0,FEW,10000.0,,,,,,
KRDR,11-09-2021,20:54,METAR,Normal,290,7.0,,,9999.0,,12.0,-9.0,30.16,,,,,,,,,,,,,,,,,,10000.0,FEW,10000.0,,,,,,
KRDR,11-09-2021,19:53,METAR,Normal,330,5.0,,,9999.0,,13.0,-7.0,30.17,,,,,,,,,,,,,,,,,,10000.0,FEW,10000.0,,,,,,
KRDR,11-09-2021,18:54,METAR,Normal,330,6.0,,,9999.0,,11.0,-6.0,30.17,,,,,,,,,,,,,,,,,,10000.0,FEW,10000.0,,,,,,
KRDR,11-09-2021,17:59,METAR,Normal,310,8.0,,,9999.0,,11.0,-4.0,30.19,,,,,,,,,,,,,,,,Clear,72000.0,,,,,,,,,
KRDR,11-09-2021,16:56,METAR,Normal,310,6.0,,,9999.0,,9.0,-4.0,30.21,,,,,,,,,,,,,,,,Clear,72000.0,,,,,,,,,
KRDR,11-09-2021,15:56,METAR,Normal,260,7.0,,,9999.0,,6.0,-3.0,30.21,,,,,,,,,,,,,,,,Clear,72000.0,,,,,,,,,
KRDR,11-09-2021,15:14,SPECI,Normal,280,8.0,,,9999.0,,2.7,-3.2,30.21,1024.6,,,,,,,,,,,,,,,Clear,72000.0,,,,,,,,,
KRDR,11-09-2021,13:56,METAR,Normal,270,5.0,,,9999.0,,-0.6,-4.1,30.21,1024.7,,,,,,,,,,,,,,,Clear,72000.0,,,,,,,,,
KRDR,11-09-2021,12:56,METAR,Normal,230,8.0,,,9999.0,,-1.9,-4.4,30.19,1024.0,,,,,,,,,,,,,,,Clear,72000.0,,,,,,,,,
KRDR,11-09-2021,11:56,METAR,Normal,250,8.0,,,9999.0,,-1.7,-4.2,30.20,1024.4,,,,,,,,,,,,,,,Clear,72000.0,,,,,,,,,
KRDR,11-09-2021,10:56,METAR,Normal,250,8.0,,,9999.0,,1.3,-2.8,30.20,1024.1,,,,,,,,,,,,,,,Clear,72000.0,,,,,,,,,
KRDR,11-09-2021,09:56,METAR,Normal,250,9.0,,,9999.0,,2.9,-2.0,30.19,1023.5,,,,,,,,,,,,,,,Clear,72000.0,,,,,,,,,
KRDR,11-09-2021,08:56,METAR,Normal,240,10.0,,,9999.0,,3.3,-2.2,30.18,1023.2,,,,,,,,,,,,,,,Clear,72000.0,,,,,,,,,
KRDR,11-09-2021,07:56,METAR,Normal,230,9.0,,,9999.0,,2.5,-3.8,30.18,1023.2,,,,,,,,,,,,,,,Clear,72000.0,,,,,,,,,
KRDR,11-09-2021,06:56,METAR,Normal,230,7.0,,,9999.0,,1.4,-5.1,30.18,1023.3,,,,,,,,,,,,,,,Clear,72000.0,,,,,,,,,
KRDR,11-09-2021,05:56,METAR,Normal,220,6.0,,,9999.0,,0.5,-6.4,30.19,1023.7,,,,,,,,,,,,,,,Clear,72000.0,,,,,,,,,
KRDR,11-09-2021,04:56,METAR,Normal,240,9.0,,,9999.0,,1.2,-5.9,30.19,1023.7,,,,,,,,,,,,,,,Clear,72000.0,,,,,,,,,
KRDR,11-09-2021,03:56,METAR,Normal,210,9.0,,,9999.0,,1.2,-5.7,30.19,1023.8,,,,,,,,,,,,,,,Clear,72000.0,,,,,,,,,
KRDR,11-09-2021,02:56,METAR,Normal,210,7.0,,,9999.0,,0.2,-6.0,30.20,1024.2,,,,,,,,,,,,,,,Clear,72000.0,,,,,,,,,
KRDR,11-09-2021,01:56,METAR,Normal,220,7.0,,,9999.0,,0.4,-5.6,30.20,1024.2,,,,,,,,,,,,,,,Clear,72000.0,,,,,,,,,
KRDR,11-09-2021,00:56,METAR,Normal,230,6.0,,,9999.0,,1.5,-5.4,30.19,1023.8,,,,,,,,,,,,,,,Clear,72000.0,,,,,,,,,
KRDR,11-08-2021,23:56,METAR,Normal,230,4.0,,,9999.0,,2.8,-5.1,30.19,1023.8,,,,,,,,,,,,,,,Clear,72000.0,,,,,,,,,
KRDR,11-08-2021,22:56,METAR,Normal,260,3.0,,,9999.0,,7.1,-5.9,30.18,1023.3,,,,,,,,,,,,,,,Clear,72000.0,,,,,,,,,
KRDR,11-08-2021,21:56,METAR,Normal,280,7.0,,,9999.0,,10.4,-6.0,30.18,1023.2,,,,,,,,,,,,,,,Clear,72000.0,,,,,,,,,
KRDR,11-08-2021,20:56,METAR,Normal,300,13.0,,,9999.0,,11.4,-6.5,30.18,1023.1,,,,,,,,,,,,,,,Clear,72000.0,,,,,,,,,
KRDR,11-08-2021,19:56,METAR,Normal,280,14.0,22.0,,9999.0,,11.8,-5.2,30.18,1023.0,,,,,,,,,,,,,,,,,15000.0,FEW,15000.0,,,,,,
KRDR,11-08-2021,18:56,METAR,Normal,300,10.0,,,9999.0,,10.4,-3.3,30.18,1023.1,,,,,,,,,,,,,,,,,15000.0,FEW,15000.0,SCT,20000.0,,,,
KRDR,11-08-2021,17:56,METAR,Normal,280,11.0,,,9999.0,,8.7,-2.9,30.18,1023.2,,,,,,,,,,,,,,,,,19000.0,SCT,19000.0,,,,,,
KRDR,11-08-2021,16:56,METAR,Normal,280,11.0,,,9999.0,,7.4,-2.6,30.17,1022.8,,,,,,,,,,,,,,,,17000.0,17000.0,BKN,17000.0,,,,,,
KRDR,11-08-2021,15:56,METAR,Normal,280,11.0,,,9999.0,,5.6,-3.2,30.16,1022.4,,,,,,,,,,,,,,,,19000.0,19000.0,BKN,19000.0,,,,,,
KRDR,11-08-2021,14:56,METAR,Normal,270,12.0,19.0,,9999.0,,4.7,-3.1,30.14,1022.0,,,,,,,,,,,,,,,,22000.0,22000.0,BKN,22000.0,,,,,,
KRDR,11-08-2021,13:56,METAR,Normal,270,12.0,,,9999.0,,4.0,-3.3,30.11,1021.0,,,,,,,,,,,,,,,,20000.0,20000.0,BKN,20000.0,,,,,,
KRDR,11-08-2021,12:56,METAR,Normal,270,11.0,,,9999.0,,4.3,-3.2,30.08,1019.8,,,,,,,,,,,,,,,,,20000.0,SCT,20000.0,,,,,,
KRDR,11-08-2021,11:56,METAR,Normal,270,8.0,,,9999.0,,3.9,-2.5,30.07,1019.5,,,,,,,,,,,,,,,,,20000.0,SCT,20000.0,,,,,,
KRDR,11-08-2021,10:56,METAR,Normal,270,9.0,,,9999.0,,4.2,-1.8,30.07,1019.4,,,,,,,,,,,,,,,,,21000.0,SCT,21000.0,,,,,,
KRDR,11-08-2021,09:56,METAR,Normal,270,9.0,,,9999.0,,4.6,-1.6,30.05,1018.6,,,,,,,,,,,,,,,,,20000.0,SCT,20000.0,,,,,,
KRDR,11-08-2021,08:56,METAR,Normal,280,9.0,,,9999.0,,5.1,-0.9,30.03,1017.9,,,,,,,,,,,,,,,Clear,72000.0,,,,,,,,,
KRDR,11-08-2021,07:56,METAR,Normal,280,10.0,,,9999.0,,5.8,-0.1,30.02,1017.5,,,,,,,,,,,,,,,Clear,72000.0,,,,,,,,,
KRDR,11-08-2021,06:56,METAR,Normal,290,10.0,,,9999.0,,6.2,1.1,30.00,1016.8,,,,,,,,,,,,,,,Clear,72000.0,,,,,,,,,
KRDR,11-08-2021,05:56,METAR,Normal,280,8.0,,,9999.0,,5.4,1.3,29.99,1016.6,,,,,,,,,,,,,,,Clear,72000.0,,,,,,,,,
KRDR,11-08-2021,04:56,METAR,Normal,300,11.0,,,9999.0,,8.7,2.3,29.97,1015.8,,,,,,,,,,,,,,,,10000.0,10000.0,BKN,10000.0,,,,,,
KRDR,11-08-2021,03:56,METAR,Normal,290,10.0,,,9999.0,,9.3,2.4,29.95,1015.2,,,,,,,,,,,,,,,,11000.0,11000.0,BKN,11000.0,,,,,,
KRDR,11-08-2021,02:56,METAR,Normal,240,4.0,,,9999.0,,5.4,1.9,29.92,1014.4,,,,,,,,,,,,,,,,11000.0,11000.0,BKN,11000.0,,,,,,
KRDR,11-08-2021,01:56,METAR,Normal,260,5.0,,,9999.0,,4.1,1.3,29.91,1014.2,,,,,,,,,,,,,,,,,12000.0,FEW,12000.0,,,,,,
KRDR,11-08-2021,00:56,METAR,Normal,230,3.0,,,9999.0,,7.5,2.8,29.90,1013.6,,,,,,,,,,,,,,,,12000.0,12000.0,OVC,12000.0,,,,,,
KRDR,11-07-2021,23:56,METAR,Normal,350,5.0,,,9999.0,,8.2,3.5,29.88,1012.9,,,,,,,,,,,,,,,,12000.0,12000.0,OVC,12000.0,,,,,,
KRDR,11-07-2021,22:56,METAR,Normal,360,5.0,,,9999.0,,10.1,3.8,29.87,1012.6,,,,,,,,,,,,,,,,14000.0,14000.0,BKN,14000.0,,,,,,
KRDR,11-07-2021,21:56,METAR,Normal,20,5.0,,,9999.0,,13.5,3.8,29.85,1011.8,,,,,,,,,,,,,,,,,16000.0,FEW,16000.0,,,,,,
KRDR,11-07-2021,20:56,METAR,Normal,350,7.0,,,9999.0,,14.4,2.9,29.83,1011.1,,,,,,,,,,,,,,,,,21000.0,SCT,21000.0,,,,,,
KRDR,11-07-2021,19:56,METAR,Normal,350,6.0,,,9999.0,,14.0,2.6,29.82,1010.8,,,,,,,,,,,,,,,,14000.0,14000.0,BKN,14000.0,BKN,20000.0,,,,
KRDR,11-07-2021,18:56,METAR,Normal,10,6.0,,,9999.0,,13.6,2.8,29.82,1010.8,,,,,,,,,,,,,,,,,14000.0,FEW,14000.0,SCT,21000.0,,,,
KRDR,11-07-2021,17:56,METAR,Normal,360,7.0,,,9999.0,,11.6,2.6,29.83,1011.2,,,,,,,,,,,,,,,Clear,72000.0,,,,,,,,,
KRDR,11-07-2021,16:56,METAR,Normal,360,9.0,,,9999.0,,10.3,2.4,29.84,1011.6,,,,,,,,,,,,,,,Clear,72000.0,,,,,,,,,
KRDR,11-07-2021,15:56,METAR,Normal,360,7.0,,,9999.0,,9.0,1.9,29.84,1011.6,,,,,,,,,,,,,,,,14000.0,14000.0,BKN,14000.0,,,,,,
KRDR,11-07-2021,14:56,METAR,Normal,330,8.0,,,9999.0,,6.9,1.4,29.85,1012.0,,,,,,,,,,,,,,,Clear,72000.0,,,,,,,,,
KRDR,11-07-2021,13:56,METAR,Normal,330,7.0,,,9999.0,,4.3,0.8,29.83,1011.5,,,,,,,,,,,,,,,Clear,72000.0,,,,,,,,,
KRDR,11-07-2021,12:56,METAR,Normal,310,7.0,,,9999.0,,5.7,2.2,29.82,1011.0,,,,,,,,,,,,,,,,12000.0,12000.0,OVC,12000.0,,,,,,
KRDR,11-07-2021,11:56,METAR,Normal,320,8.0,,,9999.0,,5.7,2.7,29.80,1010.2,,,,,,,,,,,,,,,,,12000.0,FEW,12000.0,,,,,,
KRDR,11-07-2021,10:56,METAR,Calm,,0.0,,,9999.0,,3.9,2.3,29.79,1009.9,,,,,,,,,,,,,,,,12000.0,12000.0,BKN,12000.0,,,,,,
KRDR,11-07-2021,09:56,METAR,Calm,,0.0,,,9999.0,,3.9,1.8,29.78,1009.3,,,,,,,,,,,,,,,,13000.0,13000.0,OVC,13000.0,,,,,,
KRDR,11-07-2021,08:56,METAR,Calm,,0.0,,,9999.0,,4.2,1.7,29.77,1009.0,,,,,,,,,,,,,,,,,15000.0,SCT,15000.0,,,,,,
KRDR,11-07-2021,07:56,METAR,Normal,160,4.0,,,9999.0,,3.8,1.3,29.77,1009.0,,,,,,,,,,,,,,,,16000.0,16000.0,BKN,16000.0,BKN,19000.0,,,,
KRDR,11-07-2021,06:56,METAR,Normal,160,7.0,,,9999.0,,2.7,0.1,29.79,1009.7,,,,,,,,,,,,,,,Clear,72000.0,,,,,,,,,
KRDR,11-07-2021,05:56,METAR,Normal,180,4.0,,,9999.0,,4.9,0.7,29.80,1010.0,,,,,,,,,,,,,,,Clear,72000.0,,,,,,,,,
KRDR,11-07-2021,04:56,METAR,Normal,180,4.0,,,9999.0,,3.4,-0.1,29.81,1010.5,,,,,,,,,,,,,,,Clear,72000.0,,,,,,,,,
KRDR,11-07-2021,03:56,METAR,Normal,190,6.0,,,9999.0,,5.1,0.8,29.81,1010.5,,,,,,,,,,,,,,,Clear,72000.0,,,,,,,,,
KRDR,11-07-2021,02:56,METAR,Normal,170,8.0,,,9999.0,,5.5,0.9,29.81,1010.6,,,,,,,,,,,,,,,Clear,72000.0,,,,,,,,,
KRDR,11-07-2021,01:56,METAR,Normal,170,5.0,,,9999.0,,4.1,0.6,29.83,1011.4,,,,,,,,,,,,,,,Clear,72000.0,,,,,,,,,
KRDR,11-07-2021,00:56,METAR,Normal,180,8.0,,,9999.0,,6.8,2.1,29.83,1011.2,,,,,,,,,,,,,,,Clear,72000.0,,,,,,,,,
KRDR,11-06-2021,23:56,METAR,Normal,150,7.0,,,9999.0,,7.9,0.8,29.84,1011.5,,,,,,,,,,,,,,,Clear,72000.0,,,,,,,,,
KRDR,11-06-2021,22:56,METAR,Normal,150,6.0,,,9999.0,,11.0,1.5,29.84,1011.4,,,,,,,,,,,,,,,,,13000.0,SCT,13000.0,,,,,,
KRDR,11-06-2021,21:56,METAR,Normal,190,3.0,,,9999.0,,16.3,0.0,29.85,1011.6,,,,,,,,,,,,,,,,14000.0,14000.0,BKN,14000.0,,,,,,
KRDR,11-06-2021,20:56,METAR,Normal,230,8.0,,,9999.0,,16.4,0.1,29.86,1011.9,,,,,,,,,,,,,,,,12000.0,12000.0,OVC,12000.0,,,,,,
KRDR,11-06-2021,19:56,METAR,Calm,,0.0,,,9999.0,,16.5,0.2,29.83,1010.9,,,,,,,,,,,,,,,,16000.0,16000.0,BKN,16000.0,,,,,,
KRDR,11-06-2021,18:56,METAR,Normal,250,8.0,,,9999.0,,16.4,1.3,29.85,1011.5,,,,,,,,,,,,,,,,20000.0,20000.0,BKN,20000.0,,,,,,
KRDR,11-06-2021,17:56,METAR,Normal,240,5.0,,,9999.0,,16.2,1.9,29.86,1011.9,,,,,,,,,,,,,,,,18000.0,18000.0,BKN,18000.0,BKN,21000.0,,,,
KRDR,11-06-2021,16:56,METAR,Normal,270,6.0,,,9999.0,,13.6,1.9,29.85,1011.5,,,,,,,,,,,,,,,,,19000.0,FEW,19000.0,,,,,,
KRDR,11-06-2021,15:56,METAR,Normal,280,11.0,,,9999.0,,11.7,1.9,29.85,1011.6,,,,,,,,,,,,,,,Clear,72000.0,,,,,,,,,
KRDR,11-06-2021,14:56,METAR,Normal,320,3.0,,,9999.0,,8.6,1.7,29.85,1011.7,,,,,,,,,,,,,,,Clear,72000.0,,,,,,,,,
KRDR,11-06-2021,13:56,METAR,Normal,310,6.0,,,9999.0,,6.2,1.1,29.84,1011.5,,,,,,,,,,,,,,,Clear,72000.0,,,,,,,,,
KRDR,11-06-2021,12:56,METAR,Normal,270,12.0,,,9999.0,,7.4,1.7,29.80,1010.2,,,,,,,,,,,,,,,Clear,72000.0,,,,,,,,,
KRDR,11-06-2021,11:56,METAR,Normal,270,13.0,,,9999.0,,7.7,2.2,29.79,1009.9,,,,,,,,,,,,,,,Clear,72000.0,,,,,,,,,
KRDR,11-06-2021,10:56,METAR,Normal,270,10.0,,,9999.0,,8.5,2.7,29.79,1009.8,,,,,,,,,,,,,,,Clear,72000.0,,,,,,,,,
KRDR,11-06-2021,09:56,METAR,Normal,280,9.0,,,9999.0,,8.3,3.1,29.76,1008.7,,,,,,,,,,,,,,,Clear,72000.0,,,,,,,,,
KRDR,11-06-2021,08:56,METAR,Normal,270,7.0,,,9999.0,,9.0,3.8,29.76,1008.7,,,,,,,,,,,,,,,Clear,72000.0,,,,,,,,,
KRDR,11-06-2021,07:56,METAR,Normal,270,11.0,,,9999.0,,9.8,4.2,29.75,1008.4,,,,,,,,,,,,,,,Clear,72000.0,,,,,,,,,
KRDR,11-06-2021,07:06,SPECI,Normal,280,14.0,18.0,,9999.0,,11.0,4.0,29.73,1007.6,,,,,,,,,,,,,,,Clear,72000.0,,,,,,,,,
KRDR,11-06-2021,06:56,METAR,Normal,280,9.0,,,9999.0,,9.9,4.5,29.73,1007.7,,,,,,,,,,,,,,,Clear,72000.0,,,,,,,,,
KRDR,11-06-2021,05:56,METAR,Normal,280,11.0,,,9999.0,,10.5,4.8,29.71,1007.0,,,,,,,,,,,,,TRACE,,Clear,72000.0,,,,,,,,,
KRDR,11-06-2021,04:56,METAR,Normal,280,12.0,,,9999.0,,11.8,5.7,29.68,1006.0,,,,,,,,,,,TRACE,,,,,13000.0,13000.0,BKN,13000.0,OVC,17000.0,,,,
KRDR,11-06-2021,04:23,SPECI,Normal,270,10.0,,,9999.0,,11.0,7.0,29.67,1005.7,,,,,,,,,,,,,,,,9000.0,7000.0,SCT,7000.0,BKN,9100.0,OVC,11000.0,,
KRDR,11-06-2021,04:05,SPECI,Normal,280,8.0,16.0,,9999.0,Light Rain,12.0,6.0,29.67,1005.7,61,,,,,,,,,,,,,,,9000.0,9000.0,OVC,9100.0,,,,,,
KRDR,11-06-2021,03:56,METAR,Normal,280,10.0,,,9999.0,,11.8,6.1,29.67,1005.7,,,,,,,,,,,,,,,,8500.0,8500.0,OVC,8600.0,,,,,,
KRDR,11-06-2021,02:56,METAR,Normal,280,11.0,,,9999.0,,12.0,5.8,29.65,1005.0,,,,,,,,,,,,TRACE,,,,7500.0,7500.0,OVC,7500.0,,,,,,
KRDR,11-06-2021,01:56,METAR,Normal,290,6.0,,,9999.0,,10.7,6.8,29.64,1004.8,,,,,,,,,,,,,,,,7500.0,7500.0,BKN,7500.0,BKN,9600.0,OVC,12000.0,,
KRDR,11-06-2021,00:56,METAR,Normal,220,5.0,,,9999.0,,7.1,5.2,29.64,1004.9,,,,,,,,,,,TRACE,,,,,9500.0,9500.0,BKN,9600.0,OVC,13000.0,,,,
KRDR,11-06-2021,00:29,SPECI,Normal,220,4.0,,,9999.0,,6.0,5.0,29.64,1005.0,,,,,,,,,,,,,,,,8500.0,4800.0,FEW,4800.0,BKN,8600.0,OVC,10000.0,,
KRDR,11-06-2021,00:04,SPECI,Normal,180,5.0,,,9999.0,Light Rain,6.0,4.0,29.64,1005.0,61,,,,,,,,,,,,,,,15000.0,4700.0,FEW,4700.0,SCT,11000.0,BKN,15000.0,,
KRDR,11-05-2021,23:56,METAR,Normal,180,5.0,,,9999.0,,6.3,4.3,29.64,1005.0,,,,,,,,,,,,,,,,,15000.0,FEW,15000.0,,,,,,
KRDR,11-05-2021,22:56,METAR,Normal,180,5.0,,,9999.0,,7.9,5.0,29.63,1004.6,,,,,,,,,,,,,,,,,12000.0,SCT,12000.0,,,,,,
KRDR,11-05-2021,21:56,METAR,Normal,170,8.0,,,9999.0,,9.3,5.5,29.64,1004.9,,,,,,,,,,,,,,,,12000.0,12000.0,OVC,12000.0,,,,,,
KRDR,11-05-2021,21:26,SPECI,Normal,180,9.0,,,9999.0,,9.0,5.0,29.64,1004.8,,,,,,,,,,,,,,,,12000.0,1600.0,SCT,1600.0,BKN,12000.0,,,,
KRDR,11-05-2021,20:56,METAR,Normal,200,13.0,,,9999.0,,9.2,5.2,29.64,1004.8,,,,,,,,,,,,,,,,1600.0,1600.0,OVC,1600.0,,,,,,
KRDR,11-05-2021,20:26,SPECI,Normal,190,10.0,,,9999.0,,9.0,5.0,29.64,1004.8,,,,,,,,,,,,,,,,1500.0,1500.0,OVC,1500.0,,,,,,
KRDR,11-05-2021,19:56,METAR,Normal,190,11.0,,,9999.0,,8.6,5.0,29.64,1004.8,,,,,,,,,,,,,,,,1200.0,1200.0,OVC,1200.0,,,,,,
KRDR,11-05-2021,19:06,SPECI,Normal,190,13.0,18.0,,9999.0,,8.0,5.0,29.65,1005.2,,,,,,,,,,,,,,,,1200.0,1200.0,OVC,1200.0,,,,,,
KRDR,11-05-2021,18:56,METAR,Normal,200,15.0,,,9999.0,,8.3,5.1,29.65,1005.2,,,,,,,,,,,,,,,,1100.0,1100.0,OVC,1100.0,,,,,,
KRDR,11-05-2021,18:26,SPECI,Normal,180,15.0,,,9999.0,,8.0,5.0,29.64,1004.8,,,,,,,,,,,,,,,,1000.0,1000.0,OVC,1000.0,,,,,,
KRDR,11-05-2021,17:56,METAR,Normal,190,16.0,21.0,,9999.0,,7.6,4.9,29.66,1005.5,,,,,,,,,,,,,,,,800.0,800.0,OVC,800.0,,,,,,
KRDR,11-05-2021,17:36,SPECI,Normal,190,10.0,,,9999.0,,7.0,5.0,29.67,1005.9,,,,,,,,,,,,,,,,800.0,800.0,OVC,800.0,,,,,,
KRDR,11-05-2021,17:16,SPECI,Normal,180,14.0,,,9999.0,,7.0,5.0,29.66,1005.5,,,,,,,,,,,,,,,,700.0,700.0,OVC,700.0,,,,,,
KRDR,11-05-2021,16:56,METAR,Normal,180,12.0,,,9999.0,,6.2,4.4,29.67,1005.9,,,,,,,,,,,,,,,,600.0,600.0,OVC,600.0,,,,,,
KRDR,11-05-2021,16:36,SPECI,Normal,180,12.0,,,9999.0,,6.0,4.0,29.67,1005.9,,,,,,,,,,,,,,,,600.0,600.0,OVC,600.0,,,,,,
KRDR,11-05-2021,16:06,SPECI,Normal,170,12.0,,,9999.0,,5.0,4.0,29.68,1006.3,,,,,,,,,,,,,,,,500.0,500.0,OVC,500.0,,,,,,
KRDR,11-05-2021,15:56,METAR,Normal,170,13.0,,,9999.0,,4.8,3.5,29.68,1006.3,,,,,,,,,,,,,,,,400.0,400.0,OVC,400.0,,,,,,
KRDR,11-05-2021,15:26,SPECI,Normal,180,12.0,,,9999.0,,4.0,3.0,29.70,1007.0,,,,,,,,,,,,,,,,400.0,400.0,OVC,400.0,,,,,,
KRDR,11-05-2021,15:06,SPECI,Normal,180,11.0,,,9999.0,Mist,4.0,3.0,29.70,1007.0,10,,,,,,,,,,,,,,,300.0,300.0,OVC,300.0,,,,,,
KRDR,11-05-2021,14:56,METAR,Normal,170,10.0,,,8000.0,Mist,3.3,2.6,29.70,1007.0,10,,,,,,,,,,,,,,,200.0,200.0,OVC,200.0,,,,,,
KRDR,11-05-2021,13:56,METAR,Normal,170,11.0,,,4800.0,Mist,2.5,1.9,29.72,1007.6,10,,,,,,,,,,,,,,,200.0,200.0,OVC,200.0,,,,,,
KRDR,11-05-2021,13:46,SPECI,Normal,170,9.0,,,4800.0,Mist,2.0,2.0,29.72,1007.7,10,,,,,,,,,,,,,,,200.0,200.0,OVC,200.0,,,,,,
KRDR,11-05-2021,13:06,SPECI,Normal,170,11.0,,,8000.0,Mist,2.0,2.0,29.73,1008.0,10,,,,,,,,,,,,,,,300.0,300.0,OVC,300.0,,,,,,
KRDR,11-05-2021,12:56,METAR,Normal,160,11.0,,,9999.0,Mist,2.0,1.4,29.72,1007.7,10,,,,,,,,,,,,,,,400.0,500.0,OVC,500.0,,,,,,
KRDR,11-05-2021,12:06,SPECI,Normal,160,9.0,,,9999.0,,1.0,0.0,29.74,1008.4,,,,,,,,,,,,,,,,600.0,600.0,BKN,600.0,BKN,19000.0,BKN,21000.0,,
KRDR,11-05-2021,11:56,METAR,Normal,160,8.0,,,9999.0,,1.2,0.5,29.74,1008.4,,,,,,,,,,,,,,,,20000.0,500.0,SCT,500.0,BKN,20000.0,,,,
KRDR,11-05-2021,11:48,SPECI,Normal,160,8.0,,,9999.0,,1.0,1.0,29.74,1008.4,,,,,,,,,,,,,,,,21000.0,500.0,FEW,500.0,SCT,19000.0,BKN,21000.0,,
KRDR,11-05-2021,10:56,METAR,Normal,160,8.0,,,9999.0,,1.4,0.7,29.76,1009.0,,,,,,,,,,,,,,,,21000.0,21000.0,OVC,21000.0,,,,,,
KRDR,11-05-2021,09:56,METAR,Normal,170,7.0,,,9999.0,,1.6,0.7,29.77,1009.2,,,,,,,,,,,,,,,,,20000.0,FEW,20000.0,,,,,,
KRDR,11-05-2021,08:56,METAR,Normal,170,10.0,,,9999.0,,2.3,1.1,29.78,1009.5,,,,,,,,,,,,,,,Clear,72000.0,,,,,,,,,
KRDR,11-05-2021,07:56,METAR,Normal,180,10.0,,,9999.0,,2.9,1.6,29.79,1009.9,,,,,,,,,,,,,,,Clear,72000.0,,,,,,,,,
KRDR,11-05-2021,06:56,METAR,Normal,180,9.0,,,9999.0,,3.1,1.6,29.81,1010.6,,,,,,,,,,,,,,,Clear,72000.0,,,,,,,,,
KRDR,11-05-2021,05:56,METAR,Normal,180,10.0,,,9999.0,,3.9,2.1,29.83,1011.2,,,,,,,,,,,,,,,Clear,72000.0,,,,,,,,,
KRDR,11-05-2021,04:56,METAR,Normal,180,9.0,,,9999.0,,4.2,2.4,29.85,1012.1,,,,,,,,,,,,,,,,,22000.0,FEW,22000.0,,,,,,
KRDR,11-05-2021,03:56,METAR,Normal,180,11.0,,,9999.0,,5.0,2.9,29.86,1012.5,,,,,,,,,,,,,,,Clear,72000.0,,,,,,,,,
KRDR,11-05-2021,02:56,METAR,Normal,180,10.0,,,9999.0,,5.4,2.9,29.87,1013.0,,,,,,,,,,,,,,,,,25000.0,SCT,25000.0,,,,,,
KRDR,11-05-2021,01:56,METAR,Normal,170,12.0,,,9999.0,,6.0,2.6,29.89,1013.8,,,,,,,,,,,,,,,Clear,72000.0,,,,,,,,,
KRDR,11-05-2021,00:56,METAR,Normal,160,9.0,,,9999.0,,6.0,2.1,29.91,1014.5,,,,,,,,,,,,,,,,,25000.0,FEW,25000.0,,,,,,
KRDR,11-04-2021,23:56,METAR,Normal,160,8.0,,,9999.0,,6.6,2.1,29.91,1014.4,,,,,,,,,,,,,,,Clear,72000.0,,,,,,,,,
KRDR,11-04-2021,22:56,METAR,Normal,170,8.0,,,9999.0,,9.1,2.6,29.91,1014.3,,,,,,,,,,,,,,,,,23000.0,SCT,23000.0,,,,,,
KRDR,11-04-2021,21:56,METAR,Normal,180,12.0,,,9999.0,Haze Smoke or Dust,11.7,2.7,29.93,1014.9,05,,,,,,,,,,,,,,,,23000.0,SCT,23000.0,,,,,,
KRDR,11-04-2021,20:56,METAR,Normal,180,13.0,,,9999.0,,12.1,2.5,29.94,1015.1,,,,,,,,,,,,,,,Clear,72000.0,,,,,,,,,
KRDR,11-04-2021,19:56,METAR,Normal,180,10.0,,,9999.0,,11.7,2.7,29.95,1015.5,,,,,,,,,,,,,,,Clear,72000.0,,,,,,,,,
KRDR,11-04-2021,18:56,METAR,Normal,200,11.0,,,9999.0,,10.6,1.9,29.98,1016.5,,,,,,,,,,,,,,,Clear,72000.0,,,,,,,,,
KRDR,11-04-2021,17:56,METAR,Normal,170,10.0,,,9999.0,,9.0,1.9,30.00,1017.3,,,,,,,,,,,,,,,Clear,72000.0,,,,,,,,,
KRDR,11-04-2021,16:56,METAR,Normal,180,8.0,,,9999.0,,6.8,1.1,30.02,1018.0,,,,,,,,,,,,,,,Clear,72000.0,,,,,,,,,
KRDR,11-04-2021,15:56,METAR,Normal,190,6.0,,,9999.0,,3.1,-0.2,30.03,1018.5,,,,,,,,,,,,,,,Clear,72000.0,,,,,,,,,
KRDR,11-04-2021,14:56,METAR,Normal,180,5.0,,,9999.0,,-0.4,-2.5,30.04,1019.0,,,,,,,,,,,,,,,Clear,72000.0,,,,,,,,,
KRDR,11-04-2021,13:56,METAR,Normal,150,5.0,,,9999.0,,-5.2,-6.6,30.04,1019.1,,,,,,,,,,,,,,,Clear,72000.0,,,,,,,,,
KRDR,11-04-2021,12:56,METAR,Normal,150,4.0,,,9999.0,,-5.7,-7.2,30.05,1019.5,,,,,,,,,,,,,,,Clear,72000.0,,,,,,,,,
KRDR,11-04-2021,11:56,METAR,Normal,180,5.0,,,9999.0,,-5.0,-6.4,30.05,1019.4,,,,,,,,,,,,,,,Clear,72000.0,,,,,,,,,
KRDR,11-04-2021,10:56,METAR,Normal,160,5.0,,,9999.0,,-4.1,-5.4,30.06,1019.6,,,,,,,,,,,,,,,Clear,72000.0,,,,,,,,,
KRDR,11-04-2021,09:56,METAR,Normal,160,6.0,,,9999.0,,-3.8,-5.2,30.06,1019.5,,,,,,,,,,,,,,,Clear,72000.0,,,,,,,,,
KRDR,11-04-2021,08:56,METAR,Normal,180,5.0,,,9999.0,,-2.5,-4.5,30.08,1020.1,,,,,,,,,,,,,,,Clear,72000.0,,,,,,,,,
KRDR,11-04-2021,07:56,METAR,Normal,210,6.0,,,9999.0,,-1.6,-3.8,30.09,1020.4,,,,,,,,,,,,,,,Clear,72000.0,,,,,,,,,
KRDR,11-04-2021,06:56,METAR,Normal,200,6.0,,,9999.0,,-1.3,-3.7,30.10,1020.7,,,,,,,,,,,,,,,Clear,72000.0,,,,,,,,,
KRDR,11-04-2021,05:56,METAR,Normal,200,6.0,,,9999.0,,-1.4,-4.1,30.11,1021.1,,,,,,,,,,,,,,,Clear,72000.0,,,,,,,,,
KRDR,11-04-2021,04:56,METAR,Normal,200,6.0,,,9999.0,,-1.5,-4.3,30.12,1021.5,,,,,,,,,,,,,,,Clear,72000.0,,,,,,,,,
KRDR,11-04-2021,03:56,METAR,Normal,190,7.0,,,9999.0,,-1.7,-4.7,30.13,1022.0,,,,,,,,,,,,,,,Clear,72000.0,,,,,,,,,
KRDR,11-04-2021,02:56,METAR,Normal,190,7.0,,,9999.0,,-1.5,-4.7,30.13,1022.1,,,,,,,,,,,,,,,Clear,72000.0,,,,,,,,,
KRDR,11-04-2021,01:56,METAR,Normal,180,8.0,,,9999.0,,-1.2,-4.4,30.14,1022.6,,,,,,,,,,,,,,,Clear,72000.0,,,,,,,,,
KRDR,11-04-2021,00:56,METAR,Normal,180,7.0,,,9999.0,,-0.5,-4.4,30.14,1022.6,,,,,,,,,,,,,,,Clear,72000.0,,,,,,,,,
KRDR,11-03-2021,23:56,METAR,Normal,170,7.0,,,9999.0,,1.3,-3.8,30.14,1022.5,,,,,,,,,,,,,,,Clear,72000.0,,,,,,,,,
KRDR,11-03-2021,22:56,METAR,Normal,170,7.0,,,9999.0,,4.9,-3.1,30.15,1022.7,,,,,,,,,,,,,,,Clear,72000.0,,,,,,,,,
KRDR,11-03-2021,21:56,METAR,Normal,190,10.0,,,9999.0,,8.0,-3.2,30.15,1022.6,,,,,,,,,,,,,,,Clear,72000.0,,,,,,,,,
KRDR,11-03-2021,20:56,METAR,Normal,200,12.0,,,9999.0,,8.7,-3.2,30.16,1022.9,,,,,,,,,,,,,,,Clear,72000.0,,,,,,,,,
KRDR,11-03-2021,19:56,METAR,Normal,200,8.0,,,9999.0,,8.7,-3.2,30.17,1023.2,,,,,,,,,,,,,,,Clear,72000.0,,,,,,,,,
KRDR,11-03-2021,18:56,METAR,Normal,200,8.0,,,9999.0,,7.9,-3.3,30.19,1023.9,,,,,,,,,,,,,,,Clear,72000.0,,,,,,,,,
KRDR,11-03-2021,17:56,METAR,Normal,200,9.0,,,9999.0,,6.5,-3.2,30.22,1024.9,,,,,,,,,,,,,,,Clear,72000.0,,,,,,,,,
KRDR,11-03-2021,16:56,METAR,Normal,200,8.0,,,9999.0,,5.5,-3.1,30.24,1025.7,,,,,,,,,,,,,,,Clear,72000.0,,,,,,,,,
KRDR,11-03-2021,15:56,METAR,Normal,210,5.0,,,9999.0,,2.5,-3.4,30.26,1026.4,,,,,,,,,,,,,,,Clear,72000.0,,,,,,,,,
KRDR,11-03-2021,14:56,METAR,Normal,200,7.0,,,9999.0,,-0.7,-4.4,30.26,1026.6,,,,,,,,,,,,,,,Clear,72000.0,,,,,,,,,
KRDR,11-03-2021,13:56,METAR,Normal,200,5.0,,,9999.0,,-4.7,-7.2,30.26,1026.7,,,,,,,,,,,,,,,Clear,72000.0,,,,,,,,,
KRDR,11-03-2021,12:56,METAR,Normal,210,6.0,,,9999.0,,-5.5,-7.9,30.25,1026.4,,,,,,,,,,,,,,,Clear,72000.0,,,,,,,,,
KRDR,11-03-2021,11:56,METAR,Normal,210,5.0,,,9999.0,,-5.6,-8.0,30.26,1026.7,,,,,,,,,,,,,,,Clear,72000.0,,,,,,,,,
KRDR,11-03-2021,10:56,METAR,Normal,210,4.0,,,9999.0,,-5.8,-8.1,30.27,1026.8,,,,,,,,,,,,,,,Clear,72000.0,,,,,,,,,
KRDR,11-03-2021,09:56,METAR,Normal,220,5.0,,,9999.0,,-5.4,-7.5,30.28,1027.1,,,,,,,,,,,,,,,Clear,72000.0,,,,,,,,,
KRDR,11-03-2021,08:56,METAR,Normal,210,5.0,,,9999.0,,-4.8,-7.4,30.29,1027.4,,,,,,,,,,,,,,,Clear,72000.0,,,,,,,,,
KRDR,11-03-2021,07:56,METAR,Normal,200,5.0,,,9999.0,,-5.0,-7.6,30.30,1027.8,,,,,,,,,,,,,,,Clear,72000.0,,,,,,,,,
KRDR,11-03-2021,06:56,METAR,Normal,210,6.0,,,9999.0,,-3.4,-6.7,30.31,1028.0,,,,,,,,,,,,,,,,16000.0,12000.0,FEW,12000.0,BKN,16000.0,,,,
KRDR,11-03-2021,05:56,METAR,Normal,220,5.0,,,9999.0,,-2.7,-6.0,30.31,1028.0,,,,,,,,,,,,,,,,12000.0,12000.0,OVC,12000.0,,,,,,
KRDR,11-03-2021,04:56,METAR,Normal,220,4.0,,,9999.0,,-3.9,-6.2,30.31,1028.1,,,,,,,,,,,,,,,,14000.0,14000.0,BKN,14000.0,,,,,,
KRDR,11-03-2021,03:56,METAR,Normal,210,4.0,,,9999.0,,-3.9,-6.5,30.32,1028.5,,,,,,,,,,,,,,,,14000.0,14000.0,BKN,14000.0,,,,,,
KRDR,11-03-2021,02:56,METAR,Normal,230,3.0,,,9999.0,,-3.2,-5.7,30.32,1028.5,,,,,,,,,,,,,,,,15000.0,15000.0,BKN,15000.0,,,,,,
KRDR,11-03-2021,01:56,METAR,Normal,230,3.0,,,9999.0,,-2.6,-6.1,30.31,1028.2,,,,,,,,,,,,,,,Clear,72000.0,,,,,,,,,
KRDR,11-03-2021,00:56,METAR,Normal,240,4.0,,,9999.0,,-2.6,-5.7,30.32,1028.6,,,,,,,,,,,,,,,Clear,72000.0,,,,,,,,,
KRDR,11-02-2021,23:56,METAR,Normal,260,3.0,,,9999.0,,-0.4,-5.4,30.32,1028.5,,,,,,,,,,,,,,,Clear,72000.0,,,,,,,,,
KRDR,11-02-2021,22:56,METAR,Normal,260,6.0,,,9999.0,,3.9,-5.6,30.32,1028.4,,,,,,,,,,,,,,,,4800.0,4800.0,BKN,4800.0,,,,,,
KRDR,11-02-2021,21:56,METAR,Normal,280,4.0,,,9999.0,,4.4,-5.7,30.31,1028.0,,,,,,,,,,,,,,,,5000.0,5000.0,BKN,5000.0,,,,,,
KRDR,11-02-2021,20:56,METAR,Normal,260,7.0,,,9999.0,,5.3,-5.4,30.32,1028.4,,,,,,,,,,,,,,,,5000.0,5000.0,OVC,5000.0,,,,,,
KRDR,11-02-2021,19:56,METAR,Normal,320,10.0,,,9999.0,,5.1,-5.9,30.33,1028.8,,,,,,,,,,,,,,,,4600.0,4600.0,OVC,4600.0,,,,,,
KRDR,11-02-2021,18:56,METAR,Normal,310,7.0,,,9999.0,,4.6,-5.5,30.35,1029.5,,,,,,,,,,,,,,,,4900.0,4900.0,OVC,4900.0,,,,,,
KRDR,11-02-2021,17:56,METAR,Normal,20,3.0,,,9999.0,,4.3,-3.0,30.36,1029.8,,,,,,,,,,,,,,,,4900.0,4100.0,SCT,4100.0,BKN,4900.0,,,,
KRDR,11-02-2021,16:56,METAR,Normal,340,8.0,,,9999.0,,3.9,-3.6,30.38,1030.4,,,,,,,,,,,,,,,,,5000.0,FEW,5000.0,FEW,18000.0,,,,
KRDR,11-02-2021,15:56,METAR,Normal,310,7.0,,,9999.0,,2.7,-2.8,30.38,1030.4,,,,,,,,,,,,,,,,,5000.0,SCT,5000.0,,,,,,
KRDR,11-02-2021,14:56,METAR,Normal,290,6.0,,,9999.0,,0.8,-1.9,30.38,1030.5,,,,,,,,,,,,,,,,5000.0,5000.0,BKN,5000.0,,,,,,
KRDR,11-02-2021,13:56,METAR,Normal,280,3.0,,,9999.0,,0.1,-2.1,30.37,1030.1,,,,,,,,,,,,,,,,5500.0,5500.0,BKN,5500.0,,,,,,
KRDR,11-02-2021,12:56,METAR,Normal,250,4.0,,,9999.0,,-0.3,-2.2,30.36,1029.8,,,,,,,,,,,,,,,,5500.0,5500.0,BKN,5500.0,,,,,,
KRDR,11-02-2021,11:56,METAR,Normal,230,4.0,,,9999.0,,-0.8,-2.4,30.37,1030.1,,,,,,,,,,,TRACE,,TRACE,,,5000.0,4000.0,FEW,4000.0,OVC,5000.0,,,,
KRDR,11-02-2021,11:11,SPECI,Calm,,0.0,,,9999.0,,-1.0,-3.0,30.37,1030.1,,,,,,,,,,,,,,,,3400.0,3400.0,BKN,3400.0,OVC,5000.0,,,,
KRDR,11-02-2021,10:56,METAR,Calm,,0.0,,,9999.0,Light Snow,-1.1,-2.5,30.37,1030.0,71,,,,,,,,,,TRACE,,,,,3700.0,3700.0,BKN,3700.0,OVC,5000.0,,,,
KRDR,11-02-2021,09:56,METAR,Calm,,0.0,,,9999.0,,-1.1,-3.1,30.37,1030.0,,,,,,,,,,,,,,,,5500.0,5500.0,OVC,5500.0,,,,,,
KRDR,11-02-2021,08:56,METAR,Calm,,0.0,,,9999.0,,-2.6,-4.0,30.38,1030.4,,,,,,,,,,,,,,,,5500.0,5500.0,OVC,5500.0,,,,,,
KRDR,11-02-2021,07:56,METAR,Normal,280,5.0,,,9999.0,,-4.7,-6.1,30.38,1030.5,,,,,,,,,,,,,,,,5500.0,5500.0,BKN,5500.0,,,,,,
KRDR,11-02-2021,06:56,METAR,Normal,270,4.0,,,9999.0,,-4.3,-5.9,30.38,1030.5,,,,,,,,,,,,,,,,,5500.0,SCT,5500.0,,,,,,
KRDR,11-02-2021,05:56,METAR,Normal,310,4.0,,,9999.0,,-3.6,-5.6,30.37,1030.1,,,,,,,,,,,,,,,,5500.0,5500.0,BKN,5500.0,,,,,,
KRDR,11-02-2021,04:56,METAR,Normal,300,5.0,,,9999.0,,-1.9,-4.6,30.37,1030.1,,,,,,,,,,,,,,,,5500.0,5500.0,OVC,5500.0,,,,,,
KRDR,11-02-2021,03:56,METAR,Normal,320,5.0,,,9999.0,,-1.4,-4.4,30.37,1030.1,,,,,,,,,,,,,,,,5000.0,5000.0,OVC,5000.0,,,,,,
KRDR,11-02-2021,02:56,METAR,Normal,340,5.0,,,9999.0,,-1.1,-4.3,30.36,1029.8,,,,,,,,,,,,,,,,5500.0,5500.0,BKN,5500.0,,,,,,
KRDR,11-02-2021,01:56,METAR,Normal,340,6.0,,,9999.0,,1.9,-3.0,30.35,1029.4,,,,,,,,,,,,,,,,3800.0,3800.0,BKN,3800.0,OVC,5000.0,,,,
KRDR,11-02-2021,00:56,METAR,Normal,360,5.0,,,9999.0,,2.6,-3.3,30.34,1029.1,,,,,,,,,,,,,,,,5000.0,4200.0,SCT,4200.0,OVC,5000.0,,,,
KRDR,11-01-2021,23:56,METAR,Normal,320,7.0,,,9999.0,,3.5,-5.2,30.33,1028.7,,,,,,,,,,,,,,,,4900.0,4900.0,OVC,4900.0,,,,,,
KRDR,11-01-2021,22:56,METAR,Normal,310,8.0,,,9999.0,,4.0,-5.0,30.31,1028.0,,,,,,,,,,,,,,,,5000.0,5000.0,OVC,5000.0,,,,,,
KRDR,11-01-2021,21:56,METAR,Normal,320,10.0,,,9999.0,,4.5,-4.8,30.31,1027.9,,,,,,,,,,,,,,,,5500.0,5500.0,OVC,5500.0,,,,,,
KRDR,11-01-2021,20:56,METAR,Normal,340,11.0,,,9999.0,,5.0,-3.8,30.30,1027.6,,,,,,,,,,,,,,,,5500.0,5500.0,OVC,5500.0,,,,,,
KRDR,11-01-2021,19:56,METAR,Normal,340,11.0,,,9999.0,,5.2,-3.6,30.31,1028.0,,,,,,,,,,,,,,,,5500.0,5500.0,OVC,5500.0,,,,,,
KRDR,11-01-2021,18:56,METAR,Normal,350,10.0,,,9999.0,,4.6,-3.2,30.31,1027.9,,,,,,,,,,,,,,,,5500.0,5500.0,OVC,5500.0,,,,,,
KRDR,11-01-2021,17:56,METAR,Normal,340,15.0,,,9999.0,,5.8,-3.6,30.32,1028.2,,,,,,,,,,,,,,,,6000.0,6000.0,BKN,6000.0,,,,,,
KRDR,11-01-2021,16:56,METAR,Normal,320,10.0,,,9999.0,,4.2,-3.1,30.32,1028.2,,,,,,,,,,,,,,,,,5000.0,SCT,5000.0,,,,,,
KRDR,11-01-2021,15:56,METAR,Normal,300,8.0,,,9999.0,,2.6,-2.9,30.32,1028.2,,,,,,,,,,,,,,,,,4000.0,SCT,4000.0,,,,,,
KRDR,11-01-2021,14:56,METAR,Normal,300,8.0,,,9999.0,,1.0,-3.7,30.31,1028.0,,,,,,,,,,,,,,,,3900.0,3900.0,BKN,3900.0,,,,,,
KRDR,11-01-2021,13:56,METAR,Normal,290,8.0,,,9999.0,,-0.9,-4.3,30.29,1027.4,,,,,,,,,,,,,,,,6500.0,6500.0,BKN,6500.0,,,,,,
KRDR,11-01-2021,12:56,METAR,Normal,300,8.0,,,9999.0,,-0.4,-4.1,30.28,1027.0,,,,,,,,,,,,,,,,6000.0,6000.0,OVC,6000.0,,,,,,
KRDR,11-01-2021,11:56,METAR,Normal,290,9.0,,,9999.0,,-0.9,-4.3,30.27,1026.7,,,,,,,,,,,,,,,,6500.0,6500.0,OVC,6500.0,,,,,,
KRDR,11-01-2021,10:56,METAR,Normal,300,6.0,,,9999.0,,-0.6,-4.0,30.26,1026.3,,,,,,,,,,,,,,,,6000.0,6000.0,OVC,6000.0,,,,,,
KRDR,11-01-2021,10:36,SPECI,Normal,310,8.0,,,9999.0,,0.0,-4.0,30.26,1026.3,,,,,,,,,,,,,,,,5500.0,2400.0,SCT,2400.0,OVC,5500.0,,,,
KRDR,11-01-2021,09:56,METAR,Normal,310,7.0,,,9999.0,,0.6,-3.7,30.26,1026.2,,,,,,,,,,,,,,,,2200.0,2200.0,BKN,2200.0,OVC,5000.0,,,,
KRDR,11-01-2021,08:56,METAR,Normal,300,8.0,,,9999.0,,0.3,-4.0,30.25,1025.9,,,,,,,,,,,,,,,,5500.0,5500.0,OVC,5500.0,,,,,,
KRDR,11-01-2021,07:56,METAR,Normal,300,8.0,,,9999.0,,-0.5,-4.4,30.23,1025.2,,,,,,,,,,,,,,,,,6500.0,FEW,6500.0,,,,,,
KRDR,11-01-2021,06:56,METAR,Normal,300,7.0,,,9999.0,,1.1,-3.8,30.22,1024.8,,,,,,,,,,,,,,,,6000.0,6000.0,OVC,6000.0,,,,,,
KRDR,11-01-2021,05:56,METAR,Normal,310,9.0,,,9999.0,,1.7,-3.6,30.21,1024.4,,,,,,,,,,,,,,,,6000.0,6000.0,OVC,6000.0,,,,,,
KRDR,11-01-2021,04:56,METAR,Normal,300,7.0,,,9999.0,,1.8,-3.7,30.21,1024.4,,,,,,,,,,,,,,,,6500.0,6500.0,OVC,6500.0,,,,,,
KRDR,11-01-2021,03:56,METAR,Normal,310,9.0,,,9999.0,,2.0,-3.7,30.20,1024.1,,,,,,,,,,,,,,,,6500.0,6500.0,OVC,6500.0,,,,,,
KRDR,11-01-2021,02:56,METAR,Normal,300,9.0,,,9999.0,,2.2,-4.1,30.19,1023.9,,,,,,,,,,,,,,,,6500.0,6500.0,OVC,6500.0,,,,,,
KRDR,11-01-2021,01:56,METAR,Normal,310,11.0,,,9999.0,,2.6,-5.1,30.18,1023.5,,,,,,,,,,,,,,,,6500.0,6500.0,OVC,6500.0,,,,,,
KRDR,11-01-2021,00:56,METAR,Normal,310,10.0,,,9999.0,,3.1,-4.8,30.18,1023.5,,,,,,,,,,,,,,,,6000.0,6000.0,OVC,6000.0,,,,,,
KRDR,10-31-2021,23:56,METAR,Normal,310,13.0,,,9999.0,,3.4,-4.6,30.17,1023.3,,,,,,,,,,,,,TRACE,,,5500.0,5500.0,BKN,5500.0,OVC,7000.0,,,,
KRDR,10-31-2021,22:56,METAR,Normal,310,13.0,,,9999.0,,3.9,-4.8,30.16,1022.9,,,,,,,,,,,,,,,,6500.0,6500.0,OVC,6500.0,,,,,,
KRDR,10-31-2021,21:56,METAR,Normal,300,15.0,22.0,,9999.0,,4.5,-3.8,30.15,1022.4,,,,,,,,,,,TRACE,,,,,6000.0,6000.0,OVC,6000.0,,,,,,
KRDR,10-31-2021,21:27,SPECI,Normal,300,17.0,20.0,,9999.0,,5.0,-4.0,30.15,1022.4,,,,,,,,,,,,,,,,6000.0,4200.0,SCT,4200.0,OVC,6000.0,,,,
KRDR,10-31-2021,21:22,SPECI,Normal,300,15.0,21.0,,9999.0,Light Snow,5.0,-4.0,30.15,1022.4,71,,,,,,,,,,,,,,,6000.0,4200.0,SCT,4200.0,OVC,6000.0,,,,
KRDR,10-31-2021,21:07,SPECI,Normal,300,14.0,21.0,,9999.0,Light Ice Pellets,5.0,-3.0,30.15,1022.4,74,,,,,,,,,,,,,,,6500.0,3900.0,FEW,3900.0,BKN,6500.0,OVC,8000.0,,
KRDR,10-31-2021,20:56,METAR,Normal,300,13.0,24.0,,9999.0,,5.2,-3.4,30.15,1022.4,,,,,,,,,,,,,,,,7500.0,4000.0,SCT,4000.0,OVC,7500.0,,,,
KRDR,10-31-2021,19:56,METAR,Normal,300,15.0,25.0,,9999.0,,5.5,-3.3,30.14,1022.1,,,,,,,,,,,,,,,,7500.0,7500.0,OVC,7500.0,,,,,,
KRDR,10-31-2021,18:56,METAR,Normal,310,18.0,22.0,,9999.0,,5.1,-3.7,30.15,1022.4,,,,,,,,,,,,,,,,6000.0,6000.0,OVC,6000.0,,,,,,
KRDR,10-31-2021,17:56,METAR,Normal,290,14.0,21.0,,9999.0,,5.1,-3.2,30.15,1022.4,,,,,,,,,,,,,,,,8000.0,8000.0,OVC,8000.0,,,,,,
KRDR,10-31-2021,16:56,METAR,Normal,300,14.0,20.0,,9999.0,,5.2,-2.6,30.15,1022.4,,,,,,,,,,,,,,,,8000.0,6500.0,SCT,6500.0,BKN,8000.0,,,,
KRDR,10-31-2021,15:56,METAR,Normal,310,13.0,,,9999.0,,4.6,-2.5,30.15,1022.4,,,,,,,,,,,,,,,,,7500.0,SCT,7500.0,,,,,,
KRDR,10-31-2021,14:56,METAR,Normal,300,11.0,,,9999.0,,2.5,-2.4,30.14,1022.1,,,,,,,,,,,,,,,,6500.0,6500.0,BKN,6500.0,,,,,,
KRDR,10-31-2021,13:56,METAR,Normal,300,12.0,18.0,,9999.0,,1.7,-2.8,30.13,1021.8,,,,,,,,,,,,,,,,6500.0,4900.0,SCT,4900.0,BKN,6500.0,,,,
KRDR,10-31-2021,12:56,METAR,Normal,310,8.0,,,9999.0,,0.8,-3.3,30.12,1021.4,,,,,,,,,,,,,,,,5500.0,5500.0,BKN,5500.0,,,,,,
KRDR,10-31-2021,11:56,METAR,Normal,280,10.0,,,9999.0,,-0.2,-3.1,30.11,1021.1,,,,,,,,,,,,,,,,,5500.0,SCT,5500.0,,,,,,
KRDR,10-31-2021,10:56,METAR,Normal,300,12.0,,,9999.0,,0.2,-3.2,30.10,1020.7,,,,,,,,,,,,,,,Clear,72000.0,,,,,,,,,
KRDR,10-31-2021,09:56,METAR,Normal,300,10.0,,,9999.0,,-0.1,-3.1,30.10,1020.6,,,,,,,,,,,,,,,Clear,72000.0,,,,,,,,,
KRDR,10-31-2021,08:56,METAR,Normal,300,10.0,,,9999.0,,0.6,-2.8,30.09,1020.2,,,,,,,,,,,,,,,,,13000.0,FEW,13000.0,,,,,,
KRDR,10-31-2021,07:56,METAR,Normal,300,9.0,,,9999.0,,0.9,-2.7,30.08,1019.8,,,,,,,,,,,,,,,,,13000.0,FEW,13000.0,,,,,,
KRDR,10-31-2021,06:56,METAR,Normal,300,10.0,,,9999.0,,2.0,-2.5,30.08,1019.8,,,,,,,,,,,,,,,,6500.0,6500.0,BKN,6500.0,,,,,,
KRDR,10-31-2021,05:56,METAR,Normal,300,10.0,,,9999.0,,2.4,-3.1,30.08,1019.9,,,,,,,,,,,,,,,,12000.0,7000.0,FEW,7000.0,BKN,12000.0,,,,
KRDR,10-31-2021,04:56,METAR,Normal,300,9.0,,,9999.0,,3.1,-3.5,30.07,1019.6,,,,,,,,,,,,,,,,10000.0,10000.0,BKN,10000.0,OVC,13000.0,,,,
KRDR,10-31-2021,03:56,METAR,Normal,300,8.0,,,9999.0,,2.3,-3.4,30.06,1019.3,,,,,,,,,,,,,,,,,14000.0,FEW,14000.0,,,,,,
KRDR,10-31-2021,02:56,METAR,Normal,300,7.0,,,9999.0,,2.7,-3.2,30.05,1018.9,,,,,,,,,,,,,,,,,14000.0,FEW,14000.0,,,,,,
KRDR,10-31-2021,01:56,METAR,Normal,320,11.0,,,9999.0,,4.6,-2.1,30.03,1018.1,,,,,,,,,,,,,,,,,15000.0,SCT,15000.0,,,,,,
KRDR,10-31-2021,00:56,METAR,Normal,320,7.0,,,9999.0,,4.1,-0.1,30.01,1017.5,,,,,,,,,,,,,,,,5500.0,5500.0,BKN,5500.0,,,,,,
KRDR,10-30-2021,23:56,METAR,Normal,320,5.0,,,9999.0,,5.3,0.5,29.99,1016.8,,,,,,,,,,,,,,,,6000.0,6000.0,OVC,6000.0,,,,,,
KRDR,10-30-2021,22:56,METAR,Normal,360,7.0,,,9999.0,,7.5,0.2,29.97,1015.9,,,,,,,,,,,,,,,Clear,72000.0,,,,,,,,,
KRDR,10-30-2021,21:56,METAR,Normal,360,10.0,18.0,,9999.0,,10.1,0.7,29.95,1015.3,,,,,,,,,,,,,,,Clear,72000.0,,,,,,,,,
KRDR,10-30-2021,20:56,METAR,Normal,350,16.0,,,9999.0,,10.7,2.0,29.93,1014.5,,,,,,,,,,,,,,,,,3600.0,FEW,3600.0,,,,,,
KRDR,10-30-2021,19:56,METAR,Normal,360,13.0,21.0,,9999.0,,10.4,3.0,29.92,1014.2,,,,,,,,,,,,,,,,,2900.0,SCT,2900.0,SCT,3800.0,,,,
KRDR,10-30-2021,19:26,SPECI,Normal,360,17.0,,,9999.0,,10.0,3.0,29.91,1013.8,,,,,,,,,,,,,,,,3000.0,3000.0,BKN,3000.0,OVC,4000.0,,,,
KRDR,10-30-2021,19:06,SPECI,Normal,350,19.0,24.0,,9999.0,,10.0,3.0,29.90,1013.5,,,,,,,,,,,,,,,,2600.0,2600.0,BKN,2600.0,BKN,3200.0,,,,
KRDR,10-30-2021,18:56,METAR,Normal,350,15.0,25.0,,9999.0,,9.4,3.2,29.90,1013.6,,,,,,,,,,,,,,,,3000.0,2400.0,SCT,2400.0,OVC,3000.0,,,,
KRDR,10-30-2021,17:56,METAR,Normal,360,17.0,25.0,360/29KTS,9999.0,,7.7,3.4,29.89,1013.3,,,,,,,,,,,,,TRACE,,,2100.0,2100.0,OVC,2100.0,,,,,,
KRDR,10-30-2021,17:46,SPECI,Normal,360,19.0,25.0,,9999.0,,8.0,3.0,29.88,1012.9,,,,,,,,,,,,,,,,2100.0,2100.0,OVC,2100.0,,,,,,
KRDR,10-30-2021,16:56,METAR,Normal,350,16.0,25.0,330/26KTS,9999.0,,7.1,3.7,29.86,1012.3,,,,,,,,,,,,,,,,1500.0,1500.0,OVC,1500.0,,,,,,
KRDR,10-30-2021,15:56,METAR,Normal,340,16.0,22.0,340/30KTS,9999.0,,6.4,4.2,29.83,1011.2,,,,,,,,,,,TRACE,,,,,1200.0,1200.0,OVC,1200.0,,,,,,
KRDR,10-30-2021,15:15,SPECI,Normal,350,16.0,22.0,,9999.0,,6.0,5.0,29.79,1009.9,,,,,,,,,,,,,,,,1000.0,1000.0,BKN,1000.0,OVC,1500.0,,,,
KRDR,10-30-2021,15:13,SPECI,Normal,350,17.0,27.0,,9999.0,Light Rain,6.0,5.0,29.79,1009.9,61,,,,,,,,,,,,,,,1000.0,1000.0,BKN,1000.0,OVC,1500.0,,,,
KRDR,10-30-2021,15:06,SPECI,Normal,350,22.0,30.0,,9999.0,Light Rain,6.0,5.0,29.80,1010.2,61,,,,,,,,,,,,,,,1200.0,1200.0,OVC,1200.0,,,,,,
KRDR,10-30-2021,14:59,SPECI,Normal,350,19.0,26.0,,9999.0,,6.0,5.0,29.78,1009.5,,,,,,,,,,,,,,,,1200.0,1200.0,OVC,1200.0,,,,,,
KRDR,10-30-2021,14:56,METAR,Normal,350,19.0,26.0,340/26KTS,9999.0,Light Rain,6.4,4.7,29.78,1009.5,61,,,,,,,,,,TRACE,TRACE,,,,1200.0,1200.0,OVC,1200.0,,,,,,
KRDR,10-30-2021,14:27,SPECI,Normal,340,16.0,21.0,,9999.0,Light Rain,7.0,5.0,29.76,1008.8,61,,,,,,,,,,,,,,,1400.0,1400.0,BKN,1400.0,OVC,12000.0,,,,
KRDR,10-30-2021,14:26,SPECI,Normal,340,15.0,21.0,,9999.0,,7.0,5.0,29.76,1008.8,,,,,,,,,,,,,,,,1400.0,1400.0,BKN,1400.0,BKN,11000.0,OVC,13000.0,,
KRDR,10-30-2021,13:56,METAR,Normal,350,13.0,18.0,,9999.0,,7.8,4.0,29.73,1007.8,,,,,,,,,,,,,,,,12000.0,12000.0,OVC,12000.0,,,,,,
KRDR,10-30-2021,12:56,METAR,Normal,220,4.0,,,9999.0,,5.9,2.7,29.70,1006.8,,,,,,,,,,,,,,,,13000.0,13000.0,BKN,13000.0,OVC,15000.0,,,,
KRDR,10-30-2021,11:56,METAR,Normal,200,9.0,,,9999.0,,7.1,2.2,29.67,1005.7,,,,,,,,,,,,,,,,14000.0,14000.0,OVC,14000.0,,,,,,
KRDR,10-30-2021,10:56,METAR,Normal,200,11.0,,,9999.0,,7.1,2.2,29.67,1005.6,,,,,,,,,,,,,,,,15000.0,15000.0,OVC,15000.0,,,,,,
KRDR,10-30-2021,09:56,METAR,Normal,180,10.0,,,9999.0,,6.4,2.1,29.66,1005.2,,,,,,,,,,,,,,,,15000.0,15000.0,BKN,15000.0,,,,,,
KRDR,10-30-2021,08:56,METAR,Normal,180,12.0,,,9999.0,,7.3,2.4,29.66,1005.2,,,,,,,,,,,,,,,,15000.0,15000.0,OVC,15000.0,,,,,,
KRDR,10-30-2021,07:56,METAR,Normal,180,11.0,,,9999.0,,7.2,2.7,29.68,1005.9,,,,,,,,,,,,,,,,14000.0,14000.0,OVC,14000.0,,,,,,
KRDR,10-30-2021,06:56,METAR,Normal,180,12.0,19.0,,9999.0,,7.5,2.8,29.70,1006.5,,,,,,,,,,,,,,,,15000.0,12000.0,SCT,12000.0,BKN,15000.0,BKN,21000.0,,
KRDR,10-30-2021,05:56,METAR,Normal,180,10.0,,,9999.0,,6.8,3.1,29.72,1007.3,,,,,,,,,,,,,,,,,20000.0,SCT,20000.0,,,,,,
KRDR,10-30-2021,04:56,METAR,Normal,180,10.0,,,9999.0,,7.1,3.2,29.73,1007.7,,,,,,,,,,,,,,,,,10000.0,FEW,10000.0,,,,,,
KRDR,10-30-2021,03:56,METAR,Normal,180,13.0,,,9999.0,,8.0,3.5,29.75,1008.4,,,,,,,,,,,,,,,Clear,72000.0,,,,,,,,,
KRDR,10-30-2021,02:56,METAR,Normal,170,12.0,,,9999.0,,8.5,3.3,29.78,1009.5,,,,,,,,,,,,,,,Clear,72000.0,,,,,,,,,
KRDR,10-30-2021,01:56,METAR,Normal,170,11.0,,,9999.0,,8.8,3.6,29.79,1010.1,,,,,,,,,,,,,,,Clear,72000.0,,,,,,,,,
KRDR,10-30-2021,00:56,METAR,Normal,160,10.0,,,9999.0,,8.8,4.0,29.81,1010.8,,,,,,,,,,,,,,,Clear,72000.0,,,,,,,,,
KRDR,10-29-2021,23:56,METAR,Normal,160,11.0,,,9999.0,,9.8,4.0,29.82,1011.1,,,,,,,,,,,,,,,,,11000.0,FEW,11000.0,,,,,,
KRDR,10-29-2021,22:56,METAR,Normal,160,10.0,,,9999.0,,11.6,4.8,29.84,1011.7,,,,,,,,,,,,,,,,,11000.0,FEW,11000.0,,,,,,
KRDR,10-29-2021,21:56,METAR,Normal,170,11.0,,,9999.0,,13.9,3.4,29.86,1012.3,,,,,,,,,,,,,,,,,11000.0,FEW,11000.0,,,,,,
KRDR,10-29-2021,20:56,METAR,Normal,180,13.0,,,9999.0,,14.6,2.2,29.87,1012.5,,,,,,,,,,,,,,,,,12000.0,SCT,12000.0,,,,,,
KRDR,10-29-2021,19:56,METAR,Normal,190,14.0,,,9999.0,,14.7,1.2,29.91,1013.8,,,,,,,,,,,,,,,,,11000.0,FEW,11000.0,,,,,,
KRDR,10-29-2021,18:56,METAR,Normal,180,13.0,,,9999.0,,13.7,2.0,29.94,1014.9,,,,,,,,,,,,,,,,,11000.0,FEW,11000.0,,,,,,
KRDR,10-29-2021,17:56,METAR,Normal,170,10.0,,,9999.0,,12.2,2.4,29.97,1016.1,,,,,,,,,,,,,,,,,10000.0,FEW,10000.0,,,,,,
KRDR,10-29-2021,16:56,METAR,Normal,180,7.0,,,9999.0,,10.7,2.5,30.00,1017.2,,,,,,,,,,,,,,,,,10000.0,FEW,10000.0,,,,,,
KRDR,10-29-2021,15:56,METAR,Normal,190,6.0,,,9999.0,,7.7,1.3,30.00,1017.3,,,,,,,,,,,,,,,Clear,72000.0,,,,,,,,,
KRDR,10-29-2021,14:56,METAR,Normal,200,4.0,,,9999.0,,4.0,0.9,30.00,1017.4,,,,,,,,,,,,,,,Clear,72000.0,,,,,,,,,
KRDR,10-29-2021,13:56,METAR,Normal,210,3.0,,,9999.0,,-0.7,-2.6,30.03,1018.6,,,,,,,,,,,,,,,Clear,72000.0,,,,,,,,,
KRDR,10-29-2021,12:56,METAR,Normal,220,4.0,,,9999.0,,-1.8,-3.7,30.02,1018.2,,,,,,,,,,,,,,,Clear,72000.0,,,,,,,,,
KRDR,10-29-2021,11:56,METAR,Normal,260,3.0,,,9999.0,,-2.1,-3.4,30.03,1018.5,,,,,,,,,,,,,,,Clear,72000.0,,,,,,,,,
KRDR,10-29-2021,10:56,METAR,Calm,,0.0,,,9999.0,,-0.8,-2.7,30.02,1018.0,,,,,,,,,,,,,,,Clear,72000.0,,,,,,,,,
KRDR,10-29-2021,09:56,METAR,Calm,,0.0,,,9999.0,,-1.3,-3.0,30.03,1018.3,,,,,,,,,,,,,,,Clear,72000.0,,,,,,,,,
KRDR,10-29-2021,08:56,METAR,Normal,280,3.0,,,9999.0,,0.0,-2.1,30.03,1018.3,,,,,,,,,,,,,,,Clear,72000.0,,,,,,,,,
KRDR,10-29-2021,07:56,METAR,Normal,300,3.0,,,9999.0,,2.1,-0.8,30.03,1018.1,,,,,,,,,,,,,,,Clear,72000.0,,,,,,,,,
KRDR,10-29-2021,06:56,METAR,Normal,290,4.0,,,9999.0,,1.6,-0.7,30.02,1017.8,,,,,,,,,,,,,,,Clear,72000.0,,,,,,,,,
KRDR,10-29-2021,05:56,METAR,Normal,280,4.0,,,9999.0,,-0.3,-1.3,30.02,1017.9,,,,,,,,,,,,,,,Clear,72000.0,,,,,,,,,
KRDR,10-29-2021,04:56,METAR,Normal,200,4.0,,,9999.0,,-0.8,-1.6,30.01,1017.6,,,,,,,,,,,,,,,Clear,72000.0,,,,,,,,,
KRDR,10-29-2021,03:56,METAR,Normal,210,3.0,,,9999.0,,0.2,-0.4,30.00,1017.3,,,,,,,,,,,,,,,Clear,72000.0,,,,,,,,,
KRDR,10-29-2021,02:56,METAR,Normal,200,5.0,,,9999.0,,0.5,-0.1,30.01,1017.7,,,,,,,,,,,,,,,Clear,72000.0,,,,,,,,,
KRDR,10-29-2021,01:56,METAR,Normal,210,4.0,,,9999.0,,0.4,-0.2,30.00,1017.4,,,,,,,,,,,,,,,Clear,72000.0,,,,,,,,,
KRDR,10-29-2021,00:56,METAR,Calm,,0.0,,,9999.0,,2.1,1.5,30.00,1017.3,,,,,,,,,,,,,,,Clear,72000.0,,,,,,,,,
KRDR,10-28-2021,23:56,METAR,Normal,320,5.0,,,9999.0,,3.2,2.0,30.00,1017.3,,,,,,,,,,,,,,,Clear,72000.0,,,,,,,,,
KRDR,10-28-2021,22:56,METAR,Normal,340,6.0,,,9999.0,,6.2,3.9,29.98,1016.5,,,,,,,,,,,,,,,Clear,72000.0,,,,,,,,,
KRDR,10-28-2021,22:26,SPECI,Normal,330,10.0,,,9999.0,,7.0,4.0,29.97,1016.2,,,,,,,,,,,,,,,,,1400.0,SCT,1400.0,,,,,,
KRDR,10-28-2021,21:56,METAR,Normal,310,11.0,,,9999.0,,7.2,4.2,29.98,1016.5,,,,,,,,,,,,,,,,1300.0,1300.0,OVC,1300.0,,,,,,
KRDR,10-28-2021,20:56,METAR,Normal,310,11.0,,,9999.0,,8.5,4.5,29.95,1015.3,,,,,,,,,,,,,,,,1400.0,1400.0,OVC,1400.0,,,,,,
KRDR,10-28-2021,19:56,METAR,Normal,310,11.0,,,9999.0,,10.1,6.1,29.91,1013.9,,,,,,,,,,,,,,,,1900.0,1900.0,OVC,1900.0,,,,,,
KRDR,10-28-2021,18:56,METAR,Normal,320,14.0,,,9999.0,,10.6,6.4,29.90,1013.6,,,,,,,,,,,,,,,,1700.0,1700.0,OVC,1700.0,,,,,,
KRDR,10-28-2021,18:26,SPECI,Normal,340,11.0,,,9999.0,,11.0,7.0,29.89,1013.2,,,,,,,,,,,,,,,,1600.0,1600.0,BKN,1600.0,,,,,,
KRDR,10-28-2021,17:56,METAR,Normal,340,11.0,,,9999.0,,9.8,6.1,29.89,1013.2,,,,,,,,,,,,,,,,,19000.0,FEW,19000.0,,,,,,
KRDR,10-28-2021,16:56,METAR,Normal,320,11.0,,,9999.0,,8.8,5.5,29.88,1012.9,,,,,,,,,,,,,,,,,19000.0,SCT,19000.0,,,,,,
KRDR,10-28-2021,15:56,METAR,Normal,310,9.0,,,9999.0,,5.9,3.7,29.85,1011.9,,,,,,,,,,,,,,,,17000.0,14000.0,FEW,14000.0,OVC,17000.0,,,,
KRDR,10-28-2021,14:56,METAR,Normal,300,7.0,,,9999.0,,5.4,3.6,29.82,1010.9,,,,,,,,,,,,,,,,17000.0,17000.0,OVC,17000.0,,,,,,
KRDR,10-28-2021,13:56,METAR,Normal,300,5.0,,,9999.0,,4.5,3.0,29.80,1010.2,,,,,,,,,,,,,,,,16000.0,16000.0,BKN,16000.0,,,,,,
KRDR,10-28-2021,12:56,METAR,Normal,300,6.0,,,9999.0,,4.0,2.8,29.78,1009.6,,,,,,,,,,,,,,,,17000.0,17000.0,OVC,17000.0,,,,,,
KRDR,10-28-2021,11:56,METAR,Normal,290,4.0,,,9999.0,,2.7,2.1,29.77,1009.3,,,,,,,,,,,,,,.57 IN,,17000.0,17000.0,BKN,17000.0,,,,,,
KRDR,10-28-2021,10:56,METAR,Normal,210,3.0,,,9999.0,,3.9,3.3,29.75,1008.5,,,,,,,,,,,,,,,,17000.0,17000.0,BKN,17000.0,,,,,,
KRDR,10-28-2021,09:56,METAR,Normal,200,3.0,,,8000.0,Mist,3.7,3.1,29.74,1008.2,10,,,,,,,,,,,,,,,15000.0,15000.0,BKN,15000.0,,,,,,
KRDR,10-28-2021,09:54,SPECI,Normal,200,3.0,,,3600.0,Mist,4.0,3.0,29.74,1008.2,10,,,,,,,,,,,,,,,15000.0,15000.0,BKN,15000.0,,,,,,
KRDR,10-28-2021,09:46,SPECI,Normal,210,4.0,,,2600.0,Mist,4.0,3.0,29.74,1008.2,10,,,,,,,,,,,,,,,15000.0,15000.0,OVC,15000.0,,,,,,
KRDR,10-28-2021,09:36,SPECI,Normal,210,3.0,,,2200.0,Mist,4.0,3.0,29.73,1007.8,10,,,,,,,,,,,,,,,15000.0,15000.0,OVC,15000.0,,,,,,
KRDR,10-28-2021,09:35,SPECI,Normal,210,3.0,,,2400.0,Mist,4.0,3.0,29.73,1007.8,10,,,,,,,,,,,,,,,15000.0,15000.0,OVC,15000.0,,,,,,
KRDR,10-28-2021,09:33,SPECI,Normal,200,3.0,,,4000.0,Mist,4.0,3.0,29.73,1007.8,10,,,,,,,,,,,,,,,15000.0,15000.0,OVC,15000.0,,,,,,
KRDR,10-28-2021,09:31,SPECI,Normal,200,3.0,,,4800.0,Mist,4.0,3.0,29.73,1007.8,10,,,,,,,,,,,,,,,15000.0,15000.0,OVC,15000.0,,,,,,
KRDR,10-28-2021,08:56,METAR,Normal,200,4.0,,,9999.0,,5.7,5.1,29.73,1007.8,,,,,,,,,,,,,,,,14000.0,14000.0,OVC,14000.0,,,,,,
KRDR,10-28-2021,07:56,METAR,Normal,190,5.0,,,9999.0,,6.5,5.9,29.72,1007.4,,,,,,,,,,,,,,,,13000.0,13000.0,OVC,13000.0,,,,,,
KRDR,10-28-2021,06:56,METAR,Normal,180,6.0,,,9999.0,,5.0,4.4,29.71,1007.1,,,,,,,,,,,,,,,,13000.0,13000.0,OVC,13000.0,,,,,,
KRDR,10-28-2021,06:26,SPECI,Normal,190,5.0,,,6400.0,Mist,5.0,5.0,29.72,1007.5,10,,,,,,,,,,,,,,,13000.0,13000.0,OVC,13000.0,,,,,,
KRDR,10-28-2021,06:24,SPECI,Normal,190,5.0,,,4400.0,Mist,5.0,5.0,29.72,1007.5,10,,,,,,,,,,,,,,,12000.0,12000.0,OVC,12000.0,,,,,,
KRDR,10-28-2021,06:16,SPECI,Normal,200,5.0,,,2200.0,Mist,5.0,5.0,29.72,1007.5,10,,,,,,,,,,,,,,,12000.0,12000.0,OVC,12000.0,,,,,,
KRDR,10-28-2021,06:03,SPECI,Normal,180,4.0,,,2000.0,Mist,5.0,5.0,29.71,1007.1,10,,,,,,,,,,,,,,,12000.0,12000.0,OVC,12000.0,,,,,,
KRDR,10-28-2021,05:56,METAR,Normal,170,4.0,,,6400.0,Mist,5.3,4.7,29.71,1007.1,10,,,,,,,,,,,,.01 IN,,,11000.0,11000.0,OVC,11000.0,,,,,,
KRDR,10-28-2021,04:56,METAR,Normal,190,4.0,,,9999.0,,7.0,6.4,29.72,1007.4,,,,,,,,,,,,,,,,11000.0,11000.0,OVC,11000.0,,,,,,
KRDR,10-28-2021,03:56,METAR,Normal,160,4.0,,,9999.0,,7.7,7.1,29.72,1007.4,,,,,,,,,,,,,,,,10000.0,10000.0,OVC,10000.0,,,,,,
KRDR,10-28-2021,02:56,METAR,Normal,200,4.0,,,9999.0,,8.0,7.4,29.72,1007.4,,,,,,,,,,,,.01 IN,,,,10000.0,10000.0,BKN,10000.0,,,,,,
KRDR,10-28-2021,01:56,METAR,Normal,240,5.0,,,9999.0,,8.0,7.4,29.71,1007.1,,,,,,,,,,,,,,,,7500.0,7500.0,BKN,7500.0,OVC,9100.0,,,,
KRDR,10-28-2021,00:56,METAR,Normal,220,4.0,,,9999.0,,8.4,7.8,29.70,1006.7,,,,,,,,,,,.01 IN,,,,,7500.0,7500.0,BKN,7500.0,,,,,,
KRDR,10-28-2021,00:10,SPECI,Normal,170,5.0,,,9999.0,,8.0,8.0,29.71,1007.1,,,,,,,,,,,,,,,,6000.0,6000.0,BKN,6000.0,,,,,,
KRDR,10-27-2021,23:56,METAR,Normal,180,3.0,,,9999.0,Light Drizzle,8.6,8.0,29.70,1006.7,51,,,,,,,,,,.04 IN,,.42 IN,,,7000.0,7000.0,OVC,7000.0,,,,,,
KRDR,10-27-2021,23:26,SPECI,Normal,190,3.0,,,8000.0,Light Rain/Mist,9.0,8.0,29.71,1007.0,61,10,,,,,,,,,,,,,,4700.0,1700.0,FEW,1700.0,BKN,4700.0,OVC,6000.0,,
KRDR,10-27-2021,23:16,SPECI,Normal,200,4.0,,,8000.0,Light Rain/Mist,9.0,9.0,29.71,1007.0,61,10,,,,,,,,,,,,,,1700.0,1600.0,SCT,1600.0,BKN,2500.0,BKN,4700.0,OVC,6000.0
KRDR,10-27-2021,22:56,METAR,Normal,200,4.0,,,6400.0,Light Rain/Mist,9.2,8.6,29.70,1006.7,61,10,,,,,,,,,.07 IN,,,,,1600.0,1700.0,BKN,1700.0,OVC,2400.0,,,,
KRDR,10-27-2021,22:46,SPECI,Normal,200,3.0,,,8000.0,Light Rain/Mist,9.0,9.0,29.70,1006.7,61,10,,,,,,,,,,,,,,1600.0,1700.0,BKN,1700.0,OVC,2100.0,,,,
KRDR,10-27-2021,22:36,SPECI,Normal,190,4.0,,,8000.0,Light Rain/Mist,9.0,9.0,29.70,1006.7,61,10,,,,,,,,,,,,,,1400.0,1300.0,SCT,1300.0,OVC,2100.0,,,,
KRDR,10-27-2021,22:26,SPECI,Normal,180,5.0,,,8000.0,Light Rain/Mist,9.0,9.0,29.69,1006.3,61,10,,,,,,,,,,,,,,1400.0,1400.0,OVC,1400.0,,,,,,
KRDR,10-27-2021,22:06,SPECI,Normal,190,5.0,,,4800.0,Light Rain/Mist,9.0,9.0,29.69,1006.3,61,10,,,,,,,,,,,,,,400.0,400.0,SCT,400.0,OVC,1500.0,,,,
KRDR,10-27-2021,21:56,METAR,Normal,180,5.0,,,4800.0,Light Rain/Mist,9.3,8.7,29.69,1006.3,61,10,,,,,,,,,.08 IN,,,,,400.0,400.0,BKN,400.0,OVC,1500.0,,,,
KRDR,10-27-2021,20:56,METAR,Normal,160,6.0,,,4800.0,Light Rain/Mist,9.3,8.7,29.66,1005.3,61,10,,,,,,,,,.09 IN,.23 IN,,,,300.0,300.0,OVC,300.0,,,,,,
KRDR,10-27-2021,20:36,SPECI,Normal,150,5.0,,,4800.0,Light Rain/Mist,9.0,9.0,29.66,1005.3,61,10,,,,,,,,,,,,,,300.0,300.0,OVC,300.0,,,,,,
KRDR,10-27-2021,20:26,SPECI,Normal,150,4.0,,,4800.0,Light Rain/Mist,9.0,9.0,29.66,1005.2,61,10,,,,,,,,,,,,,,400.0,400.0,OVC,400.0,,,,,,
KRDR,10-27-2021,20:06,SPECI,Normal,170,5.0,,,4800.0,Light Rain/Mist,9.0,9.0,29.67,1005.6,61,10,,,,,,,,,,,,,,300.0,300.0,BKN,300.0,OVC,800.0,,,,
KRDR,10-27-2021,19:56,METAR,Normal,180,4.0,,,4800.0,Light Rain/Mist,9.5,8.7,29.67,1005.6,61,10,,,,,,,,,.08 IN,,,,,300.0,400.0,BKN,400.0,OVC,800.0,,,,
KRDR,10-27-2021,19:46,SPECI,Normal,180,4.0,,,4800.0,Light Rain/Mist,10.0,9.0,29.66,1005.2,61,10,,,,,,,,,,,,,,300.0,500.0,OVC,500.0,,,,,,
KRDR,10-27-2021,18:56,METAR,Normal,180,6.0,,,6400.0,Light Rain/Mist,9.3,8.5,29.67,1005.6,61,10,,,,,,,,,.06 IN,,,,,600.0,600.0,OVC,600.0,,,,,,
KRDR,10-27-2021,17:56,METAR,Normal,170,8.0,,,6400.0,Light Rain/Mist,9.2,8.4,29.70,1006.6,61,10,,,,,,,,,.05 IN,,.2 IN,,,600.0,600.0,OVC,600.0,,,,,,
KRDR,10-27-2021,17:36,SPECI,Normal,170,10.0,,,6400.0,Light Rain/Mist,9.0,8.0,29.71,1006.9,61,10,,,,,,,,,,,,,,400.0,600.0,OVC,600.0,,,,,,
KRDR,10-27-2021,17:06,SPECI,Normal,170,9.0,,,4800.0,Light Rain/Mist,9.0,8.0,29.71,1006.9,61,10,,,,,,,,,,,,,,400.0,400.0,OVC,400.0,,,,,,
KRDR,10-27-2021,16:56,METAR,Normal,170,7.0,,,4800.0,Light Rain/Mist,8.8,8.2,29.71,1006.9,61,10,,,,,,,,,.04 IN,,,,,500.0,500.0,OVC,500.0,,,,,,
KRDR,10-27-2021,16:50,SPECI,Normal,170,10.0,,,4800.0,Light Rain/Mist,9.0,8.0,29.71,1006.9,61,10,,,,,,,,,,,,,,500.0,500.0,OVC,500.0,,,,,,
KRDR,10-27-2021,16:40,SPECI,Normal,170,8.0,,,4800.0,Light Rain/Mist,9.0,8.0,29.70,1006.6,61,10,,,,,,,,,,,,,,400.0,400.0,OVC,400.0,,,,,,
KRDR,10-27-2021,16:26,SPECI,Normal,150,10.0,,,3200.0,Light Rain/Mist,9.0,8.0,29.70,1006.6,61,10,,,,,,,,,,,,,,400.0,400.0,OVC,400.0,,,,,,
KRDR,10-27-2021,16:19,SPECI,Normal,160,8.0,,,4000.0,Light Rain,9.0,8.0,29.71,1006.9,61,,,,,,,,,,,,,,,300.0,300.0,OVC,300.0,,,,,,
KRDR,10-27-2021,16:14,SPECI,Normal,160,10.0,,,4800.0,Light Rain/Mist,9.0,8.0,29.70,1006.6,61,10,,,,,,,,,,,,,,300.0,300.0,OVC,300.0,,,,,,
KRDR,10-27-2021,15:56,METAR,Normal,150,9.0,,,4800.0,Light Rain/Mist,8.5,7.9,29.70,1006.6,61,10,,,,,,,,,.02 IN,,,,,400.0,400.0,OVC,400.0,,,,,,
KRDR,10-27-2021,15:49,SPECI,Normal,160,10.0,,,4800.0,Drizzle/Mist,9.0,8.0,29.70,1006.6,,,,51,10,,,,,,,,,,,400.0,400.0,OVC,400.0,,,,,,
KRDR,10-27-2021,15:48,SPECI,Normal,160,10.0,,,9999.0,Light Drizzle,9.0,8.0,29.70,1006.6,51,,,,,,,,,,,,,,,400.0,400.0,OVC,400.0,,,,,,
KRDR,10-27-2021,15:36,SPECI,Normal,160,9.0,,,9999.0,,9.0,8.0,29.70,1006.6,,,,,,,,,,,,,,,,400.0,400.0,OVC,400.0,,,,,,
KRDR,10-27-2021,14:56,METAR,Normal,150,7.0,,,8000.0,Mist,8.3,7.7,29.70,1006.7,10,,,,,,,,,,.02 IN,.08 IN,,,,300.0,300.0,OVC,300.0,,,,,,
KRDR,10-27-2021,14:55,SPECI,Normal,150,7.0,,,8000.0,Mist,8.0,8.0,29.70,1006.7,10,,,,,,,,,,,,,,,300.0,300.0,OVC,300.0,,,,,,
KRDR,10-27-2021,14:46,SPECI,Normal,150,9.0,,,8000.0,Light Drizzle/Mist,8.0,8.0,29.70,1006.6,51,10,,,,,,,,,,,,,,400.0,400.0,OVC,400.0,,,,,,
KRDR,10-27-2021,14:26,SPECI,Normal,150,9.0,,,8000.0,Light Rain/Mist,8.0,7.0,29.71,1006.9,61,10,,,,,,,,,,,,,,500.0,500.0,OVC,500.0,,,,,,
KRDR,10-27-2021,13:56,METAR,Normal,140,8.0,,,8000.0,Light Rain/Mist,8.0,7.2,29.71,1006.9,61,10,,,,,,,,,.01 IN,,,,,900.0,900.0,OVC,900.0,,,,,,
KRDR,10-27-2021,13:52,SPECI,Normal,150,9.0,,,8000.0,Light Rain/Mist,8.0,7.0,29.71,1006.9,61,10,,,,,,,,,,,,,,900.0,900.0,OVC,900.0,,,,,,
KRDR,10-27-2021,13:49,SPECI,Normal,140,9.0,,,8000.0,Rain/Mist,8.0,7.0,29.71,1006.9,,,,61,10,,,,,,,,,,,900.0,900.0,OVC,900.0,,,,,,
KRDR,10-27-2021,13:30,SPECI,Normal,140,7.0,,,8000.0,Mist,8.0,7.0,29.70,1006.6,10,,,,,,,,,,,,,,,900.0,900.0,OVC,900.0,,,,,,
KRDR,10-27-2021,13:15,SPECI,Normal,150,7.0,,,8000.0,Light Rain/Mist,8.0,7.0,29.70,1006.6,61,10,,,,,,,,,,,,,,900.0,900.0,BKN,900.0,OVC,1300.0,,,,
KRDR,10-27-2021,13:05,SPECI,Normal,150,7.0,,,9999.0,,8.0,7.0,29.69,1006.3,,,,,,,,,,,,,,,,900.0,900.0,BKN,900.0,OVC,1300.0,,,,
KRDR,10-27-2021,13:04,SPECI,Normal,150,8.0,,,9999.0,,8.0,7.0,29.69,1006.3,,,,,,,,,,,,,,,,1300.0,1300.0,OVC,1300.0,,,,,,
KRDR,10-27-2021,12:56,METAR,Normal,150,8.0,,,9999.0,Light Rain,8.1,7.2,29.69,1006.3,61,,,,,,,,,,.06 IN,,,,,900.0,900.0,BKN,900.0,OVC,1300.0,,,,
KRDR,10-27-2021,12:46,SPECI,Normal,160,10.0,,,9999.0,Light Rain,8.0,7.0,29.70,1006.6,61,,,,,,,,,,,,,,,1000.0,1000.0,BKN,1000.0,OVC,1500.0,,,,
KRDR,10-27-2021,12:16,SPECI,Normal,160,11.0,,,9999.0,Light Rain,8.0,7.0,29.70,1006.6,61,,,,,,,,,,,,,,,1200.0,300.0,FEW,300.0,OVC,1200.0,,,,
KRDR,10-27-2021,11:56,METAR,Normal,170,11.0,,,9999.0,Light Rain,8.6,7.1,29.71,1006.9,61,,,,,,,,,,TRACE,,TRACE,,,1300.0,1300.0,OVC,1300.0,,,,,,
KRDR,10-27-2021,11:33,SPECI,Normal,160,11.0,,,9999.0,Light Rain,9.0,7.0,29.70,1006.5,61,,,,,,,,,,,,,,,1400.0,1400.0,OVC,1400.0,,,,,,
KRDR,10-27-2021,11:25,SPECI,Normal,160,12.0,,,9999.0,Light Drizzle,9.0,7.0,29.69,1006.2,51,,,,,,,,,,,,,,,1400.0,1400.0,OVC,1400.0,,,,,,
KRDR,10-27-2021,10:56,METAR,Normal,150,10.0,,,9999.0,,8.9,6.7,29.68,1005.9,,,,,,,,,,,,,,,,1300.0,1300.0,OVC,1300.0,,,,,,
KRDR,10-27-2021,10:52,SPECI,Normal,150,9.0,,,9999.0,,9.0,7.0,29.68,1005.9,,,,,,,,,,,,,,,,1300.0,1300.0,OVC,1300.0,,,,,,
KRDR,10-27-2021,10:22,SPECI,Normal,160,15.0,,,9999.0,,9.0,7.0,29.68,1005.9,,,,,,,,,,,,,,,,1100.0,1100.0,OVC,1100.0,,,,,,
KRDR,10-27-2021,09:56,METAR,Normal,160,16.0,,,9999.0,,9.3,6.7,29.69,1006.2,,,,,,,,,,,,,,,,1400.0,1400.0,OVC,1400.0,,,,,,
KRDR,10-27-2021,09:51,SPECI,Normal,160,14.0,,,9999.0,,9.0,7.0,29.69,1006.2,,,,,,,,,,,,,,,,1400.0,1400.0,BKN,1400.0,OVC,1900.0,,,,
KRDR,10-27-2021,09:31,SPECI,Normal,160,15.0,,,9999.0,,10.0,7.0,29.70,1006.5,,,,,,,,,,,,,,,,1700.0,1700.0,BKN,1700.0,OVC,2200.0,,,,
KRDR,10-27-2021,09:21,SPECI,Normal,160,14.0,,,9999.0,,10.0,6.0,29.71,1006.8,,,,,,,,,,,,,,,,2200.0,600.0,FEW,600.0,SCT,1400.0,OVC,2200.0,,
KRDR,10-27-2021,08:56,METAR,Normal,160,14.0,,,9999.0,,9.5,6.0,29.72,,,,,,,,,,,,,,,,,2300.0,2300.0,OVC,2300.0,,,,,,
KRDR,10-27-2021,08:36,SPECI,Normal,160,13.0,,,9999.0,,10.0,5.0,29.72,,,,,,,,,,,,,,,,,1900.0,1800.0,SCT,1800.0,OVC,2500.0,,,,
KRDR,10-27-2021,08:26,SPECI,Normal,170,13.0,19.0,,9999.0,,10.0,5.0,29.73,,,,,,,,,,,,,,,,,1900.0,1900.0,BKN,1900.0,OVC,2900.0,,,,
KRDR,10-27-2021,08:06,SPECI,Normal,170,12.0,,,9999.0,,10.0,3.0,29.72,,,,,,,,,,,,,,,,,2800.0,1900.0,FEW,1900.0,BKN,2800.0,OVC,3400.0,,
KRDR,10-27-2021,07:56,METAR,Normal,150,12.0,,,9999.0,,10.1,2.2,29.72,,,,,,,,,,,,,,,,,3200.0,2300.0,FEW,2300.0,OVC,3200.0,,,,
KRDR,10-27-2021,06:56,METAR,Normal,140,14.0,,,9999.0,,10.0,1.6,29.70,1006.5,,,,,,,,,,,,,,,,3500.0,3500.0,OVC,3500.0,,,,,,
KRDR,10-27-2021,05:56,METAR,Normal,140,10.0,,,9999.0,,10.6,1.9,29.71,1006.8,,,,,,,,,,,,,,,,3800.0,3800.0,OVC,3800.0,,,,,,
KRDR,10-27-2021,04:56,METAR,Normal,130,12.0,,,9999.0,,10.5,0.8,29.71,,,,,,,,,,,,,,,,,4300.0,4300.0,OVC,4300.0,,,,,,
KRDR,10-27-2021,03:56,METAR,Normal,150,11.0,,170/27KTS,9999.0,,11.3,1.2,29.72,,,,,,,,,,,,,,,,,4300.0,4300.0,OVC,4300.0,,,,,,
KRDR,10-27-2021,02:56,METAR,Normal,140,10.0,,,9999.0,,10.9,0.0,29.73,,,,,,,,,,,,,,,,,5000.0,5000.0,OVC,5000.0,,,,,,
KRDR,10-27-2021,01:56,METAR,Normal,140,9.0,,,9999.0,,11.4,-0.4,29.73,,,,,,,,,,,,,,,,,5500.0,5500.0,OVC,5500.0,,,,,,
KRDR,10-27-2021,00:56,METAR,Normal,140,11.0,,,9999.0,,12.0,-0.9,29.73,1007.7,,,,,,,,,,,,,,,,4800.0,4800.0,OVC,4800.0,,,,,,
KRDR,10-26-2021,23:56,METAR,Normal,150,15.0,,,9999.0,,12.3,-0.9,29.72,1007.4,,,,,,,,,,,,,,,,5500.0,5500.0,OVC,5500.0,,,,,,
KRDR,10-26-2021,22:56,METAR,Normal,150,18.0,23.0,,9999.0,,12.9,-1.1,29.70,1006.7,,,,,,,,,,,,,,,,5000.0,5000.0,OVC,5000.0,,,,,,
KRDR,10-26-2021,21:56,METAR,Normal,140,15.0,20.0,,9999.0,,13.0,-0.3,29.70,1006.6,,,,,,,,,,,,,,,,4900.0,4900.0,OVC,4900.0,,,,,,
KRDR,10-26-2021,20:56,METAR,Normal,150,20.0,27.0,140/29KTS,9999.0,,13.0,-1.0,29.71,,,,,,,,,,,,,,,,,5500.0,5500.0,OVC,5500.0,,,,,,
KRDR,10-26-2021,19:56,METAR,Normal,150,16.0,28.0,,9999.0,,13.0,0.0,29.72,,,,,,,,,,,,,,,,,6000.0,6000.0,BKN,6000.0,OVC,6500.0,,,,
KRDR,10-26-2021,19:53,METAR,Normal,150,18.0,28.0,150/28KTS,9999.0,,13.0,0.0,29.72,,,,,,,,,,,,,,,,,6000.0,6000.0,BKN,6000.0,OVC,6500.0,,,,
KRDR,10-26-2021,18:56,METAR,Normal,160,22.0,31.0,160/33KTS,9999.0,,12.4,-0.2,29.73,1007.7,,,,,,,,,,,,,,,,6000.0,6000.0,BKN,6000.0,OVC,15000.0,,,,
KRDR,10-26-2021,17:56,METAR,Normal,160,23.0,32.0,170/33KTS,9999.0,,12.0,2.0,29.76,,,,,,,,,,,,,,,,,15000.0,15000.0,BKN,15000.0,BKN,19000.0,,,,
KRDR,10-26-2021,16:56,METAR,Normal,160,24.0,34.0,150/34KTS,9999.0,,11.0,3.0,29.78,,,,,,,,,,,,,,,,,20000.0,17000.0,SCT,17000.0,BKN,20000.0,,,,
KRDR,10-26-2021,15:56,METAR,Normal,160,21.0,30.0,160/30KTS,9999.0,,9.0,2.0,29.79,,,,,,,,,,,,,,,,,17000.0,17000.0,BKN,17000.0,OVC,20000.0,,,,
KRDR,10-26-2021,14:54,METAR,Normal,150,14.0,,,9999.0,,7.0,2.0,29.80,,,,,,,,,,,,,,,,,15000.0,15000.0,BKN,15000.0,OVC,24000.0,,,,
KRDR,10-26-2021,13:56,METAR,Normal,140,14.0,,,9999.0,,6.0,1.0,29.81,,,,,,,,,,,,,,,,,15000.0,10000.0,FEW,10000.0,BKN,15000.0,BKN,24000.0,,
KRDR,10-26-2021,12:56,METAR,Normal,140,16.0,,,9999.0,,5.5,0.5,29.81,1010.6,,,,,,,,,,,,,,,,15000.0,15000.0,BKN,15000.0,BKN,24000.0,,,,
KRDR,10-26-2021,11:56,METAR,Normal,140,17.0,22.0,,9999.0,,5.5,0.3,29.83,1011.2,,,,,,,,,,,,,,,Clear,72000.0,,,,,,,,,
KRDR,10-26-2021,10:56,METAR,Normal,140,15.0,23.0,,9999.0,,5.8,-0.3,29.85,1011.9,,,,,,,,,,,,,,,Clear,72000.0,,,,,,,,,
KRDR,10-26-2021,09:56,METAR,Normal,150,15.0,,,9999.0,,6.0,-0.1,29.87,1012.5,,,,,,,,,,,,,,,Clear,72000.0,,,,,,,,,
KRDR,10-26-2021,08:56,METAR,Normal,140,15.0,,,9999.0,,5.6,0.6,29.88,1012.8,,,,,,,,,,,,,,,,,23000.0,FEW,23000.0,,,,,,
KRDR,10-26-2021,07:56,METAR,Normal,140,13.0,,,9999.0,,5.8,0.9,29.92,1014.2,,,,,,,,,,,,,,,,21000.0,12000.0,SCT,12000.0,OVC,21000.0,,,,
KRDR,10-26-2021,06:56,METAR,Normal,140,14.0,,,9999.0,,5.9,1.0,29.94,1014.9,,,,,,,,,,,,,,,,,12000.0,FEW,12000.0,,,,,,
KRDR,10-26-2021,05:56,METAR,Normal,140,14.0,,,9999.0,,5.5,0.9,29.95,1015.3,,,,,,,,,,,,,,,,15000.0,15000.0,OVC,15000.0,,,,,,
KRDR,10-26-2021,04:56,METAR,Normal,140,12.0,,,9999.0,,5.4,0.6,29.98,1016.4,,,,,,,,,,,,,,,,19000.0,12000.0,SCT,12000.0,BKN,19000.0,,,,
KRDR,10-26-2021,03:56,METAR,Normal,130,12.0,,,9999.0,,5.1,0.3,30.00,1017.2,,,,,,,,,,,,,,,,11000.0,11000.0,BKN,11000.0,OVC,21000.0,,,,
KRDR,10-26-2021,02:56,METAR,Normal,140,11.0,,,9999.0,,4.9,-0.3,30.01,1017.6,,,,,,,,,,,,,,,,22000.0,22000.0,BKN,22000.0,,,,,,
KRDR,10-26-2021,01:56,METAR,Normal,140,10.0,,,9999.0,,5.9,-0.8,30.00,1017.4,,,,,,,,,,,,,,,,20000.0,20000.0,BKN,20000.0,,,,,,
KRDR,10-26-2021,00:56,METAR,Normal,140,9.0,,,9999.0,,5.4,-1.1,30.00,1017.5,,,,,,,,,,,,,,,Clear,72000.0,,,,,,,,,
KRDR,10-25-2021,23:56,METAR,Normal,140,10.0,,,9999.0,,7.2,-1.2,30.02,1018.1,,,,,,,,,,,,,,,,,15000.0,FEW,15000.0,FEW,25000.0,,,,
KRDR,10-25-2021,22:56,METAR,Normal,140,12.0,,,9999.0,,9.4,-1.6,30.03,1018.4,,,,,,,,,,,,,,,,,15000.0,SCT,15000.0,SCT,25000.0,,,,
KRDR,10-25-2021,21:56,METAR,Normal,140,14.0,22.0,,9999.0,,10.8,-0.1,30.02,1017.9,,,,,,,,,,,,,,,,,15000.0,FEW,15000.0,SCT,25000.0,,,,
KRDR,10-25-2021,20:56,METAR,Normal,150,13.0,19.0,,9999.0,,11.2,0.3,30.05,1019.0,,,,,,,,,,,,,,,,,6000.0,FEW,6000.0,FEW,15000.0,FEW,25000.0,,
KRDR,10-25-2021,19:56,METAR,Normal,140,17.0,21.0,,9999.0,,10.6,0.6,30.05,1018.9,,,,,,,,,,,,,,,,,6000.0,FEW,6000.0,FEW,15000.0,FEW,25000.0,,
KRDR,10-25-2021,18:56,METAR,Normal,150,11.0,20.0,,9999.0,,9.9,1.0,30.09,1020.3,,,,,,,,,,,,,,,,,6000.0,FEW,6000.0,SCT,15000.0,SCT,25000.0,,
KRDR,10-25-2021,17:56,METAR,Normal,150,12.0,18.0,,9999.0,,9.0,1.2,30.11,1020.9,,,,,,,,,,,,,,,,,6000.0,FEW,6000.0,FEW,15000.0,SCT,25000.0,,
KRDR,10-25-2021,16:56,METAR,Normal,160,12.0,,,9999.0,,7.7,1.3,30.13,1021.6,,,,,,,,,,,,,,,,,6000.0,FEW,6000.0,SCT,20000.0,,,,
KRDR,10-25-2021,15:56,METAR,Normal,150,8.0,,,9999.0,,5.4,1.1,30.14,1022.0,,,,,,,,,,,,,,,,,8000.0,FEW,8000.0,SCT,18000.0,,,,
KRDR,10-25-2021,14:56,METAR,Normal,150,11.0,,,9999.0,,1.9,-0.4,30.15,1022.4,,,,,,,,,,,,,,,Clear,72000.0,,,,,,,,,
KRDR,10-25-2021,13:56,METAR,Normal,160,4.0,,,9999.0,,-1.4,-2.5,30.16,1022.9,,,,,,,,,,,,,,,Clear,72000.0,,,,,,,,,
KRDR,10-25-2021,12:56,METAR,Normal,190,3.0,,,9999.0,,-3.0,-4.1,30.15,1022.6,,,,,,,,,,,,,,,Clear,72000.0,,,,,,,,,
KRDR,10-25-2021,11:56,METAR,Normal,110,5.0,,,9999.0,,-2.4,-3.5,30.14,1022.2,,,,,,,,,,,,,,,Clear,72000.0,,,,,,,,,
KRDR,10-25-2021,10:56,METAR,Normal,120,3.0,,,9999.0,,-4.7,-5.8,30.14,1022.2,,,,,,,,,,,,,,,Clear,72000.0,,,,,,,,,
KRDR,10-25-2021,09:56,METAR,Normal,100,3.0,,,9999.0,,-2.7,-4.1,30.13,1021.8,,,,,,,,,,,,,,,,,4000.0,FEW,4000.0,,,,,,
KRDR,10-25-2021,08:56,METAR,Calm,,0.0,,,9999.0,,-2.6,-4.2,30.14,1022.2,,,,,,,,,,,,,,,,,4100.0,SCT,4100.0,,,,,,
KRDR,10-25-2021,07:56,METAR,Normal,120,3.0,,,9999.0,,-0.7,-2.4,30.14,1022.0,,,,,,,,,,,,,,,Clear,72000.0,,,,,,,,,
KRDR,10-25-2021,06:56,METAR,Calm,,0.0,,,9999.0,,-0.6,-2.3,30.14,1022.1,,,,,,,,,,,,,,,,13000.0,9000.0,FEW,9100.0,BKN,13000.0,,,,
KRDR,10-25-2021,05:56,METAR,Normal,110,4.0,,,9999.0,,2.2,-0.9,30.13,1021.7,,,,,,,,,,,,,,,,9000.0,9000.0,BKN,9100.0,,,,,,
KRDR,10-25-2021,04:56,METAR,Normal,80,5.0,,,9999.0,,3.7,-0.1,30.12,1021.3,,,,,,,,,,,,,,,,8000.0,8000.0,OVC,8000.0,,,,,,
KRDR,10-25-2021,03:56,METAR,Normal,70,6.0,,,9999.0,,4.1,0.1,30.10,1020.7,,,,,,,,,,,,,,,,7500.0,7500.0,BKN,7500.0,OVC,9100.0,,,,
KRDR,10-25-2021,02:56,METAR,Normal,60,6.0,,,9999.0,,4.8,0.6,30.10,1020.7,,,,,,,,,,,,,,,,9000.0,9000.0,OVC,9100.0,,,,,,
KRDR,10-25-2021,01:56,METAR,Normal,70,5.0,,,9999.0,,5.1,0.7,30.09,1020.5,,,,,,,,,,,,,,,,8000.0,8000.0,OVC,8000.0,,,,,,
KRDR,10-25-2021,00:56,METAR,Normal,70,6.0,,,9999.0,,5.7,0.5,30.07,1019.8,,,,,,,,,,,,,,,,8500.0,8500.0,OVC,8600.0,,,,,,
KRDR,10-24-2021,23:56,METAR,Normal,60,8.0,,,9999.0,,6.4,0.5,30.05,1019.2,,,,,,,,,,,,,,,,8000.0,8000.0,BKN,8000.0,,,,,,
KRDR,10-24-2021,22:56,METAR,Normal,60,6.0,,,9999.0,,7.3,0.7,30.05,1019.1,,,,,,,,,,,,,,,,10000.0,10000.0,BKN,10000.0,BKN,13000.0,,,,
KRDR,10-24-2021,21:56,METAR,Normal,60,6.0,,,9999.0,,7.7,1.3,30.05,1019.1,,,,,,,,,,,,,,,,11000.0,11000.0,BKN,11000.0,BKN,14000.0,,,,
KRDR,10-24-2021,20:56,METAR,Normal,70,5.0,,,9999.0,,7.9,1.5,30.06,1019.5,,,,,,,,,,,,,,,,10000.0,6000.0,FEW,6000.0,BKN,10000.0,BKN,13000.0,,
KRDR,10-24-2021,19:56,METAR,Normal,100,5.0,,,9999.0,,8.0,1.2,30.04,1018.8,,,,,,,,,,,,,,,,10000.0,6000.0,FEW,6000.0,BKN,10000.0,BKN,12000.0,,
KRDR,10-24-2021,18:56,METAR,Normal,140,6.0,,,9999.0,,7.3,0.7,30.05,1019.2,,,,,,,,,,,,,,,,10000.0,10000.0,BKN,10000.0,,,,,,
KRDR,10-24-2021,17:56,METAR,Normal,110,4.0,,,9999.0,,6.1,1.2,30.05,1019.2,,,,,,,,,,,,,,,,10000.0,5000.0,FEW,5000.0,BKN,10000.0,BKN,11000.0,,
KRDR,10-24-2021,16:56,METAR,Calm,,0.0,,,9999.0,,3.9,1.9,30.06,1019.5,,,,,,,,,,,,,,,,9500.0,8000.0,FEW,8000.0,BKN,9600.0,,,,
KRDR,10-24-2021,15:56,METAR,Normal,50,5.0,,,9999.0,,1.9,0.6,30.05,1019.1,,,,,,,,,,,,,,,,9000.0,9000.0,BKN,9100.0,BKN,12000.0,,,,
KRDR,10-24-2021,14:56,METAR,Calm,,0.0,,,9999.0,,0.6,-0.4,30.05,1019.3,,,,,,,,,,,,,,,,11000.0,3000.0,FEW,3000.0,BKN,11000.0,BKN,13000.0,,
KRDR,10-24-2021,13:56,METAR,Calm,,0.0,,,9999.0,,-1.4,-2.4,30.03,1018.7,,,,,,,,,,,,,,,,12000.0,12000.0,BKN,12000.0,BKN,13000.0,,,,
KRDR,10-24-2021,12:56,METAR,Normal,10,3.0,,,9999.0,,-2.7,-3.7,30.00,1017.7,,,,,,,,,,,,,,,,13000.0,13000.0,OVC,13000.0,,,,,,
KRDR,10-24-2021,11:56,METAR,Normal,360,4.0,,,9999.0,,-3.3,-4.3,29.98,1016.9,,,,,,,,,,,,,,,,15000.0,15000.0,BKN,15000.0,,,,,,
KRDR,10-24-2021,10:56,METAR,Normal,10,4.0,,,9999.0,,-3.6,-4.6,29.98,1016.8,,,,,,,,,,,,,,,,,20000.0,FEW,20000.0,,,,,,
KRDR,10-24-2021,09:56,METAR,Normal,360,4.0,,,9999.0,,-4.1,-5.1,29.98,1016.8,,,,,,,,,,,,,,,,22000.0,3500.0,SCT,3500.0,BKN,22000.0,,,,
KRDR,10-24-2021,08:56,METAR,Calm,,0.0,,,9999.0,,-4.2,-5.3,30.00,1017.4,,,,,,,,,,,,,,,,,3500.0,SCT,3500.0,,,,,,
KRDR,10-24-2021,07:56,METAR,Calm,,0.0,,,9999.0,,-4.3,-5.4,30.01,1017.7,,,,,,,,,,,,,,,,,3500.0,SCT,3500.0,,,,,,
KRDR,10-24-2021,06:56,METAR,Normal,30,4.0,,,9999.0,,-4.4,-5.2,30.01,1017.7,,,,,,,,,,,,,,,,,3500.0,SCT,3500.0,,,,,,
KRDR,10-24-2021,05:56,METAR,Normal,20,4.0,,,9999.0,,-4.4,-5.4,30.02,1018.2,,,,,,,,,,,,,,,,,3500.0,FEW,3500.0,,,,,,
KRDR,10-24-2021,04:56,METAR,Calm,,0.0,,,9999.0,,-3.0,-4.1,30.03,1018.5,,,,,,,,,,,,,,,,,3500.0,FEW,3500.0,SCT,12000.0,,,,
KRDR,10-24-2021,03:56,METAR,Normal,60,8.0,,,9999.0,,1.0,-1.1,30.02,1018.1,,,,,,,,,,,,,,,Clear,72000.0,,,,,,,,,
KRDR,10-24-2021,02:56,METAR,Normal,70,3.0,,,9999.0,,-2.5,-4.1,30.02,1018.3,,,,,,,,,,,,,,,Clear,72000.0,,,,,,,,,
KRDR,10-24-2021,01:56,METAR,Normal,350,3.0,,,9999.0,,-2.2,-3.3,30.01,1018.1,,,,,,,,,,,,,,,Clear,72000.0,,,,,,,,,
KRDR,10-24-2021,00:56,METAR,Calm,,0.0,,,9999.0,,-1.4,-2.7,30.02,1018.5,,,,,,,,,,,,,,,Clear,72000.0,,,,,,,,,
KRDR,10-23-2021,23:56,METAR,Normal,60,4.0,,,9999.0,,3.6,-0.4,30.01,1018.0,,,,,,,,,,,,,,,,,25000.0,FEW,25000.0,,,,,,
KRDR,10-23-2021,23:06,SPECI,Normal,90,7.0,,,9999.0,,5.0,0.0,30.02,1018.2,,,,,,,,,,,,,,,,,2600.0,SCT,2600.0,,,,,,
KRDR,10-23-2021,22:56,METAR,Normal,100,9.0,,,9999.0,,6.2,0.5,30.02,1018.2,,,,,,,,,,,,,,,,,2700.0,SCT,2700.0,,,,,,
KRDR,10-23-2021,21:56,METAR,Normal,100,10.0,,,9999.0,,6.7,0.2,30.03,1018.5,,,,,,,,,,,,,,,,2700.0,2700.0,BKN,2700.0,,,,,,
KRDR,10-23-2021,20:56,METAR,Normal,90,8.0,,,9999.0,,7.3,0.3,30.04,1018.8,,,,,,,,,,,,,,,,2800.0,2800.0,BKN,2800.0,,,,,,
KRDR,10-23-2021,19:56,METAR,Normal,110,9.0,,,9999.0,,8.8,1.0,30.05,1019.0,,,,,,,,,,,,,,,,2900.0,2900.0,BKN,2900.0,,,,,,
KRDR,10-23-2021,18:56,METAR,Normal,100,10.0,,,9999.0,,7.4,0.6,30.06,1019.5,,,,,,,,,,,,,,,,2700.0,2700.0,BKN,2700.0,,,,,,
KRDR,10-23-2021,17:56,METAR,Normal,160,7.0,,,9999.0,,6.6,0.9,30.08,1020.1,,,,,,,,,,,,,,,,2100.0,2100.0,BKN,2100.0,,,,,,
KRDR,10-23-2021,17:46,SPECI,Normal,160,3.0,,,9999.0,,6.0,1.0,30.09,1020.5,,,,,,,,,,,,,,,,2100.0,2100.0,BKN,2100.0,BKN,2800.0,,,,
KRDR,10-23-2021,16:56,METAR,Normal,130,4.0,,,9999.0,,5.3,1.8,30.10,1020.8,,,,,,,,,,,,,,,,,3500.0,FEW,3500.0,,,,,,
KRDR,10-23-2021,15:56,METAR,Normal,90,3.0,,,9999.0,,2.5,1.2,30.11,1021.2,,,,,,,,,,,,,,,,,3500.0,FEW,3500.0,,,,,,
KRDR,10-23-2021,14:56,METAR,Normal,20,3.0,,,9999.0,,-0.6,-1.2,30.12,1021.7,,,,,,,,,,,,,,,Clear,72000.0,,,,,,,,,
KRDR,10-23-2021,14:47,SPECI,Calm,,0.0,,,9999.0,,-1.0,-1.0,30.12,1021.7,,,,,,,,,,,,,,,Clear,72000.0,,,,,,,,,
KRDR,10-23-2021,13:56,METAR,Calm,,0.0,,,4800.0,Mist,-4.7,-5.5,30.12,1021.8,10,,,,,,,,,,,,,,Clear,72000.0,,,,,,,,,
KRDR,10-23-2021,13:50,SPECI,Calm,,0.0,,,4800.0,Mist,-5.0,-6.0,30.12,1021.8,10,,,,,,,,,,,,,,Clear,72000.0,,,,,,,,,
KRDR,10-23-2021,13:45,SPECI,Normal,320,3.0,,,1600.0,Mist,-6.0,-7.0,30.12,1021.8,10,,,,,,,,,,,,,,Clear,72000.0,,,,,,,,,
KRDR,10-23-2021,13:30,SPECI,Normal,290,3.0,,,400.0,Fog with Rime,-6.0,-7.0,30.11,1021.5,35,,,,,,,,,,,,,,Clear,72000.0,,,,,,,,,
KRDR,10-23-2021,13:28,SPECI,Normal,290,3.0,,,1000.0,Fog with Rime,-6.0,-7.0,30.11,1021.5,,,,48,,,,,,,,,,,Clear,72000.0,,,,,,,,,
KRDR,10-23-2021,13:20,SPECI,Calm,,0.0,,,3200.0,Mist,-6.0,-7.0,30.11,1021.5,10,,,,,,,,,,,,,,Clear,72000.0,,,,,,,,,
KRDR,10-23-2021,12:56,METAR,Normal,360,3.0,,,4800.0,Mist,-5.4,-6.2,30.11,1021.5,,,,10,,,,,,,,,,,Clear,72000.0,,,,,,,,,
KRDR,10-23-2021,11:56,METAR,Normal,340,3.0,,,9999.0,,-5.4,-6.2,30.11,1021.5,,,,,,,,,,,,,,,Clear,72000.0,,,,,,,,,
KRDR,10-23-2021,10:56,METAR,Normal,360,3.0,,,9999.0,,-4.8,-5.6,30.11,1021.3,,,,,,,,,,,,,,,Clear,72000.0,,,,,,,,,
KRDR,10-23-2021,09:56,METAR,Normal,300,5.0,,,9999.0,,-4.7,-5.4,30.11,1021.2,,,,,,,,,,,,,,,Clear,72000.0,,,,,,,,,
KRDR,10-23-2021,08:56,METAR,Normal,360,5.0,,,9999.0,,-4.2,-4.8,30.11,1021.2,,,,,,,,,,,,,,,Clear,72000.0,,,,,,,,,
KRDR,10-23-2021,07:56,METAR,Normal,340,4.0,,,9999.0,,-3.9,-4.5,30.11,1021.2,,,,,,,,,,,,,,,Clear,72000.0,,,,,,,,,
KRDR,10-23-2021,06:56,METAR,Normal,340,4.0,,,9999.0,,-2.9,-3.9,30.11,1021.2,,,,,,,,,,,,,,,Clear,72000.0,,,,,,,,,
KRDR,10-23-2021,05:56,METAR,Normal,350,4.0,,,9999.0,,-2.2,-3.2,30.11,1021.2,,,,,,,,,,,,,,,Clear,72000.0,,,,,,,,,
KRDR,10-23-2021,04:56,METAR,Normal,340,4.0,,,9999.0,,-1.7,-2.7,30.11,1021.2,,,,,,,,,,,,,,,Clear,72000.0,,,,,,,,,
KRDR,10-23-2021,03:56,METAR,Normal,340,6.0,,,9999.0,,-1.3,-2.4,30.12,1021.6,,,,,,,,,,,,,,,Clear,72000.0,,,,,,,,,
KRDR,10-23-2021,02:56,METAR,Normal,340,6.0,,,9999.0,,-1.0,-2.3,30.13,1022.1,,,,,,,,,,,,,,,Clear,72000.0,,,,,,,,,
KRDR,10-23-2021,01:56,METAR,Normal,360,6.0,,,9999.0,,0.8,-0.8,30.12,1021.7,,,,,,,,,,,,,,,,9500.0,9500.0,BKN,9600.0,,,,,,
KRDR,10-23-2021,00:56,METAR,Normal,330,4.0,,,9999.0,,-0.1,-2.6,30.13,1022.2,,,,,,,,,,,,,,,,3300.0,3300.0,OVC,3300.0,,,,,,
KRDR,10-22-2021,23:56,METAR,Normal,10,3.0,,,9999.0,,2.2,-2.0,30.12,1021.7,,,,,,,,,,,,,,,,,18000.0,FEW,18000.0,,,,,,
KRDR,10-22-2021,22:56,METAR,Normal,360,6.0,,,9999.0,,4.7,-1.5,30.12,1021.6,,,,,,,,,,,,,,,Clear,72000.0,,,,,,,,,
KRDR,10-22-2021,21:56,METAR,Normal,20,9.0,,,9999.0,,6.1,-0.9,30.12,1021.6,,,,,,,,,,,,,,,,,9000.0,SCT,9100.0,,,,,,
KRDR,10-22-2021,20:56,METAR,Normal,10,7.0,,,9999.0,,7.5,-0.7,30.11,1021.1,,,,,,,,,,,,,,,,9000.0,3000.0,FEW,3000.0,BKN,9100.0,,,,
KRDR,10-22-2021,19:56,METAR,Normal,20,7.0,,,9999.0,,6.7,-0.7,30.12,1021.5,,,,,,,,,,,,,,,,22000.0,2900.0,SCT,2900.0,BKN,22000.0,,,,
KRDR,10-22-2021,18:56,METAR,Normal,30,5.0,,,9999.0,,6.9,-1.0,30.13,1021.8,,,,,,,,,,,,,,,,,2800.0,FEW,2800.0,SCT,10000.0,SCT,25000.0,,
KRDR,10-22-2021,17:56,METAR,Normal,20,8.0,,,9999.0,,5.9,-1.0,30.15,1022.6,,,,,,,,,,,,,,,,,3000.0,FEW,3000.0,SCT,10000.0,,,,
KRDR,10-22-2021,16:56,METAR,Normal,360,8.0,,,9999.0,,4.8,-0.2,30.16,1023.0,,,,,,,,,,,,,,,,,5000.0,FEW,5000.0,SCT,10000.0,,,,
KRDR,10-22-2021,15:56,METAR,Normal,360,5.0,,,9999.0,,2.5,-1.3,30.17,1023.3,,,,,,,,,,,,,,,,,10000.0,FEW,10000.0,SCT,18000.0,,,,
KRDR,10-22-2021,14:56,METAR,Normal,340,5.0,,,9999.0,,-0.2,-2.3,30.17,1023.5,,,,,,,,,,,,,,,,,15000.0,FEW,15000.0,SCT,20000.0,,,,
KRDR,10-22-2021,13:56,METAR,Normal,350,4.0,,,9999.0,,-3.0,-4.1,30.16,1023.2,,,,,,,,,,,,,,,,,15000.0,FEW,15000.0,,,,,,
KRDR,10-22-2021,12:56,METAR,Normal,320,3.0,,,9999.0,,-5.6,-6.7,30.15,1023.0,,,,,,,,,,,,,,,Clear,72000.0,,,,,,,,,
KRDR,10-22-2021,11:56,METAR,Normal,320,4.0,,,9999.0,,-4.6,-6.0,30.15,1022.8,,,,,,,,,,,,,,,Clear,72000.0,,,,,,,,,
KRDR,10-22-2021,10:56,METAR,Normal,340,4.0,,,9999.0,,-3.1,-5.0,30.15,1022.6,,,,,,,,,,,,,,,,,17000.0,FEW,17000.0,,,,,,
KRDR,10-22-2021,09:56,METAR,Normal,320,3.0,,,9999.0,,-3.2,-5.1,30.15,1022.5,,,,,,,,,,,,,,,,12000.0,12000.0,BKN,12000.0,BKN,17000.0,,,,
KRDR,10-22-2021,08:56,METAR,Normal,320,3.0,,,9999.0,,-2.3,-4.5,30.15,1022.5,,,,,,,,,,,,,,,,11000.0,11000.0,BKN,11000.0,,,,,,
KRDR,10-22-2021,07:56,METAR,Normal,290,4.0,,,9999.0,,-2.3,-4.2,30.16,1022.9,,,,,,,,,,,,,,,,13000.0,13000.0,BKN,13000.0,OVC,17000.0,,,,
KRDR,10-22-2021,06:56,METAR,Calm,,0.0,,,9999.0,,-1.5,-4.2,30.16,1022.8,,,,,,,,,,,,,,,,12000.0,12000.0,OVC,12000.0,,,,,,
KRDR,10-22-2021,05:56,METAR,Normal,280,4.0,,,9999.0,,-4.3,-5.7,30.16,1022.9,,,,,,,,,,,,,,,,14000.0,14000.0,OVC,14000.0,,,,,,
KRDR,10-22-2021,04:56,METAR,Calm,,0.0,,,9999.0,,-4.4,-5.5,30.16,1023.0,,,,,,,,,,,,,,,,,18000.0,SCT,18000.0,,,,,,
KRDR,10-22-2021,03:56,METAR,Calm,,0.0,,,9999.0,,-3.0,-5.0,30.17,1023.4,,,,,,,,,,,,,,,,17000.0,17000.0,BKN,17000.0,OVC,19000.0,,,,
KRDR,10-22-2021,02:56,METAR,Calm,,0.0,,,9999.0,,-3.1,-5.1,30.17,1023.4,,,,,,,,,,,,,,,,19000.0,19000.0,OVC,19000.0,,,,,,
KRDR,10-22-2021,01:56,METAR,Calm,,0.0,,,9999.0,,-2.7,-4.9,30.17,1023.5,,,,,,,,,,,,,,,,19000.0,19000.0,BKN,19000.0,,,,,,
KRDR,10-22-2021,00:56,METAR,Calm,,0.0,,,9999.0,,-1.6,-4.6,30.19,1024.3,,,,,,,,,,,,,,,Clear,72000.0,,,,,,,,,
KRDR,10-21-2021,23:56,METAR,Calm,,0.0,,,9999.0,,1.3,-4.0,30.19,1024.1,,,,,,,,,,,,,,,,21000.0,21000.0,BKN,21000.0,,,,,,
KRDR,10-21-2021,22:56,METAR,Normal,360,5.0,,,9999.0,,4.9,-3.6,30.20,1024.3,,,,,,,,,,,,,,,,21000.0,21000.0,BKN,21000.0,,,,,,
KRDR,10-21-2021,21:56,METAR,Normal,10,5.0,,,9999.0,,6.4,-4.4,30.20,1024.2,,,,,,,,,,,,,,,Clear,72000.0,,,,,,,,,
KRDR,10-21-2021,20:56,METAR,Normal,360,7.0,,,9999.0,,6.7,-3.5,30.20,1024.1,,,,,,,,,,,,,,,Clear,72000.0,,,,,,,,,
KRDR,10-21-2021,19:56,METAR,Normal,30,8.0,,,9999.0,,6.6,-3.6,30.21,1024.5,,,,,,,,,,,,,,,,,18000.0,FEW,18000.0,SCT,20000.0,,,,
KRDR,10-21-2021,18:56,METAR,Normal,30,7.0,,,9999.0,,5.9,-3.7,30.23,1025.3,,,,,,,,,,,,,,,,,22000.0,SCT,22000.0,,,,,,
KRDR,10-21-2021,17:56,METAR,Normal,10,7.0,,,9999.0,,5.2,-3.6,30.24,1025.6,,,,,,,,,,,,,,,,,22000.0,SCT,22000.0,,,,,,
KRDR,10-21-2021,16:56,METAR,Normal,10,6.0,,,9999.0,,3.8,-2.8,30.26,1026.3,,,,,,,,,,,,,,,,,21000.0,SCT,21000.0,,,,,,
KRDR,10-21-2021,15:56,METAR,Normal,360,8.0,,,9999.0,,1.2,-2.0,30.26,1026.3,,,,,,,,,,,,,,,,,21000.0,SCT,21000.0,,,,,,
KRDR,10-21-2021,14:56,METAR,Normal,340,7.0,,,9999.0,,0.1,-2.0,30.26,1026.3,,,,,,,,,,,,,,,,,20000.0,SCT,20000.0,,,,,,
KRDR,10-21-2021,13:56,METAR,Normal,330,6.0,,,9999.0,,-1.9,-3.2,30.24,1025.7,,,,,,,,,,,,,,,,,20000.0,SCT,20000.0,,,,,,
KRDR,10-21-2021,12:56,METAR,Normal,330,5.0,,,9999.0,,-3.7,-4.7,30.23,1025.4,,,,,,,,,,,,,,,Clear,72000.0,,,,,,,,,
KRDR,10-21-2021,11:56,METAR,Normal,320,6.0,,,9999.0,,-3.4,-4.5,30.22,1025.0,,,,,,,,,,,,,,,Clear,72000.0,,,,,,,,,
KRDR,10-21-2021,10:56,METAR,Normal,330,6.0,,,9999.0,,-2.9,-4.0,30.22,1025.0,,,,,,,,,,,,,,,Clear,72000.0,,,,,,,,,
KRDR,10-21-2021,09:56,METAR,Normal,340,6.0,,,9999.0,,-2.5,-3.6,30.20,1024.2,,,,,,,,,,,,,,,Clear,72000.0,,,,,,,,,
KRDR,10-21-2021,08:56,METAR,Normal,340,7.0,,,9999.0,,-2.0,-3.3,30.19,1023.9,,,,,,,,,,,,,,,Clear,72000.0,,,,,,,,,
KRDR,10-21-2021,07:56,METAR,Normal,350,6.0,,,9999.0,,-1.8,-3.1,30.19,1023.9,,,,,,,,,,,,,,,Clear,72000.0,,,,,,,,,
KRDR,10-21-2021,06:56,METAR,Normal,360,8.0,,,9999.0,,-1.3,-2.7,30.19,1023.8,,,,,,,,,,,,,,,Clear,72000.0,,,,,,,,,
KRDR,10-21-2021,05:56,METAR,Normal,360,9.0,,,9999.0,,-0.8,-2.5,30.19,1023.9,,,,,,,,,,,,,,,Clear,72000.0,,,,,,,,,
KRDR,10-21-2021,04:56,METAR,Normal,360,8.0,,,9999.0,,-0.6,-2.7,30.19,1024.0,,,,,,,,,,,,,,,Clear,72000.0,,,,,,,,,
KRDR,10-21-2021,03:56,METAR,Normal,360,9.0,,,9999.0,,0.2,-2.7,30.20,1024.3,,,,,,,,,,,,,,,,,20000.0,FEW,20000.0,,,,,,
KRDR,10-21-2021,02:56,METAR,Normal,360,11.0,,,9999.0,,1.4,-2.5,30.18,1023.6,,,,,,,,,,,,,,,,,20000.0,FEW,20000.0,,,,,,
KRDR,10-21-2021,01:56,METAR,Normal,360,14.0,,,9999.0,,2.4,-2.5,30.16,1022.9,,,,,,,,,,,,,,,,,20000.0,FEW,20000.0,,,,,,
KRDR,10-21-2021,00:56,METAR,Normal,360,17.0,21.0,,9999.0,,3.0,-2.3,30.14,1022.2,,,,,,,,,,,,,,,Clear,72000.0,,,,,,,,,
KRDR,10-20-2021,23:56,METAR,Normal,360,16.0,,,9999.0,,3.7,-2.3,30.13,1021.8,,,,,,,,,,,,,,,,,3000.0,FEW,3000.0,SCT,15000.0,,,,
KRDR,10-20-2021,22:56,METAR,Normal,10,14.0,,,9999.0,,4.9,-2.0,30.13,1021.8,,,,,,,,,,,,,,,,19000.0,16000.0,SCT,16000.0,BKN,19000.0,,,,
KRDR,10-20-2021,21:56,METAR,Normal,10,17.0,21.0,350/28KTS,9999.0,,5.7,-1.5,30.13,1021.7,,,,,,,,,,,,,,,,22000.0,14000.0,SCT,14000.0,SCT,17000.0,BKN,22000.0,,
KRDR,10-20-2021,20:56,METAR,Normal,360,22.0,27.0,010/29KTS,9999.0,,6.3,-1.8,30.12,1021.3,,,,,,,,,,,,,,,,19000.0,3000.0,FEW,3000.0,SCT,14000.0,SCT,17000.0,BKN,19000.0
KRDR,10-20-2021,19:56,METAR,Normal,10,20.0,28.0,360/28KTS,9999.0,,5.7,-1.7,30.14,1022.0,,,,,,,,,,,,,,,,19000.0,3000.0,FEW,3000.0,SCT,14000.0,SCT,17000.0,BKN,19000.0
KRDR,10-20-2021,18:56,METAR,Normal,10,18.0,25.0,,9999.0,,6.1,-1.8,30.16,1022.6,,,,,,,,,,,,,,,,18000.0,2000.0,FEW,2000.0,BKN,18000.0,,,,
KRDR,10-20-2021,17:56,METAR,Normal,10,18.0,21.0,,9999.0,,4.8,-0.6,30.18,1023.3,,,,,,,,,,,,,,,,20000.0,2000.0,FEW,2000.0,SCT,17000.0,BKN,20000.0,,
KRDR,10-20-2021,16:56,METAR,Normal,20,18.0,22.0,,9999.0,,3.8,-0.8,30.19,1023.7,,,,,,,,,,,,,,,,20000.0,2000.0,FEW,2000.0,SCT,14000.0,BKN,20000.0,,
KRDR,10-20-2021,15:56,METAR,Normal,20,16.0,21.0,,9999.0,,2.9,-1.1,30.22,1024.7,,,,,,,,,,,,,,,,19000.0,2000.0,FEW,2000.0,BKN,19000.0,,,,
KRDR,10-20-2021,14:56,METAR,Normal,10,14.0,,,9999.0,,0.9,-1.5,30.22,1024.8,,,,,,,,,,,,,,,,15000.0,4000.0,FEW,4000.0,BKN,15000.0,,,,
KRDR,10-20-2021,13:56,METAR,Normal,10,12.0,,,9999.0,,-0.5,-2.1,30.21,1024.4,,,,,,,,,,,,,,,,15000.0,4000.0,FEW,4000.0,BKN,15000.0,,,,
KRDR,10-20-2021,12:56,METAR,Normal,10,12.0,,,9999.0,,-0.3,-2.2,30.20,1024.1,,,,,,,,,,,,,,,,3700.0,3700.0,BKN,3700.0,,,,,,
KRDR,10-20-2021,11:56,METAR,Normal,10,13.0,,,9999.0,,0.3,-1.9,30.19,1023.7,,,,,,,,,,,,,,,,3700.0,3700.0,OVC,3700.0,,,,,,
KRDR,10-20-2021,10:56,METAR,Normal,10,13.0,,,9999.0,,0.7,-1.7,30.20,1024.1,,,,,,,,,,,,,,,,3700.0,3700.0,BKN,3700.0,,,,,,
KRDR,10-20-2021,09:56,METAR,Normal,20,13.0,,,9999.0,,2.2,-1.1,30.19,1023.7,,,,,,,,,,,,,,,,3600.0,3600.0,OVC,3600.0,,,,,,
KRDR,10-20-2021,08:56,METAR,Normal,20,16.0,19.0,,9999.0,,3.2,-0.8,30.19,1023.7,,,,,,,,,,,,,,,,3300.0,3300.0,OVC,3300.0,,,,,,
KRDR,10-20-2021,07:56,METAR,Normal,10,13.0,,,9999.0,,3.9,-0.5,30.21,1024.3,,,,,,,,,,,,,,,,3100.0,3100.0,OVC,3100.0,,,,,,
KRDR,10-20-2021,06:56,METAR,Normal,20,15.0,,,9999.0,,4.3,-0.3,30.19,1023.6,,,,,,,,,,,,,,,,3000.0,3000.0,OVC,3000.0,,,,,,
KRDR,10-20-2021,05:56,METAR,Normal,20,16.0,21.0,,9999.0,,5.0,0.2,30.18,1023.3,,,,,,,,,,,,,,,,3300.0,3300.0,OVC,3300.0,,,,,,
KRDR,10-20-2021,04:56,METAR,Normal,10,16.0,21.0,,9999.0,,5.6,0.4,30.18,1023.2,,,,,,,,,,,,,,,,3400.0,3400.0,OVC,3400.0,,,,,,
KRDR,10-20-2021,03:56,METAR,Normal,10,13.0,22.0,,9999.0,,6.3,0.8,30.18,1023.2,,,,,,,,,,,,,,,,3300.0,3300.0,OVC,3300.0,,,,,,
KRDR,10-20-2021,02:56,METAR,Normal,10,15.0,23.0,,9999.0,,6.6,1.3,30.17,1022.8,,,,,,,,,,,,,,,,3200.0,3200.0,OVC,3200.0,,,,,,
KRDR,10-20-2021,02:16,SPECI,Normal,10,18.0,24.0,,9999.0,,7.0,1.0,30.17,1022.8,,,,,,,,,,,,,,,,3000.0,3000.0,OVC,3000.0,,,,,,
KRDR,10-20-2021,01:56,METAR,Normal,10,19.0,24.0,,9999.0,,7.0,1.5,30.16,1022.4,,,,,,,,,,,,,,,,2900.0,2900.0,OVC,2900.0,,,,,,
KRDR,10-20-2021,00:56,METAR,Normal,10,18.0,24.0,,9999.0,,7.3,2.0,30.14,1021.7,,,,,,,,,,,,,,,,2500.0,2500.0,OVC,2500.0,,,,,,
KRDR,10-19-2021,23:56,METAR,Normal,10,17.0,21.0,,9999.0,,7.6,2.7,30.14,1021.7,,,,,,,,,,,,,TRACE,,,2300.0,2300.0,OVC,2300.0,,,,,,
KRDR,10-19-2021,22:56,METAR,Normal,10,15.0,22.0,,9999.0,,7.7,3.2,30.11,1020.7,,,,,,,,,,,,,,,,2100.0,2100.0,OVC,2100.0,,,,,,
KRDR,10-19-2021,22:26,SPECI,Normal,10,18.0,23.0,,9999.0,,8.0,4.0,30.10,1020.3,,,,,,,,,,,,,,,,2000.0,2000.0,OVC,2000.0,,,,,,
KRDR,10-19-2021,21:56,METAR,Normal,360,17.0,23.0,360/28KTS,9999.0,,7.7,3.5,30.09,1020.0,,,,,,,,,,,TRACE,,,,,1900.0,1900.0,OVC,1900.0,,,,,,
KRDR,10-19-2021,21:38,SPECI,Normal,360,15.0,24.0,,9999.0,,8.0,3.0,30.09,1020.0,,,,,,,,,,,,,,,,1800.0,1800.0,OVC,1800.0,,,,,,
KRDR,10-19-2021,21:36,SPECI,Normal,10,18.0,24.0,,9999.0,Light Rain,8.0,3.0,30.08,1019.6,61,,,,,,,,,,,,,,,1800.0,1800.0,OVC,1800.0,,,,,,
KRDR,10-19-2021,20:56,METAR,Normal,360,21.0,27.0,010/28KTS,9999.0,,7.6,3.3,30.07,1019.3,,,,,,,,,,,,,,,,1700.0,1700.0,OVC,1700.0,,,,,,
KRDR,10-19-2021,19:56,METAR,Normal,360,19.0,25.0,360/28KTS,9999.0,,7.5,3.7,30.06,1019.0,,,,,,,,,,,,,,,,1500.0,1500.0,OVC,1500.0,,,,,,
KRDR,10-19-2021,18:56,METAR,Normal,360,16.0,25.0,360/27KTS,9999.0,,7.4,4.2,30.04,1018.3,,,,,,,,,,,,,,,,1300.0,1300.0,OVC,1300.0,,,,,,
KRDR,10-19-2021,17:56,METAR,Normal,360,18.0,28.0,360/29KTS,9999.0,,7.7,4.5,30.04,1018.2,,,,,,,,,,,,,,,,1300.0,1300.0,OVC,1300.0,,,,,,
KRDR,10-19-2021,16:56,METAR,Normal,360,19.0,28.0,360/30KTS,9999.0,,8.0,4.8,30.02,1017.5,,,,,,,,,,,,,,,,1200.0,1200.0,OVC,1200.0,,,,,,
KRDR,10-19-2021,16:16,SPECI,Normal,10,19.0,26.0,,9999.0,,8.0,5.0,30.00,1016.8,,,,,,,,,,,,,,,,1200.0,1200.0,OVC,1200.0,,,,,,
KRDR,10-19-2021,15:56,METAR,Normal,360,18.0,25.0,360/27KTS,9999.0,,8.1,5.2,30.00,1016.8,,,,,,,,,,,,,,,,1100.0,1100.0,OVC,1100.0,,,,,,
KRDR,10-19-2021,15:30,SPECI,Normal,360,20.0,27.0,,9999.0,,8.0,5.0,29.99,1016.5,,,,,,,,,,,,,,,,1000.0,1000.0,OVC,1000.0,,,,,,
KRDR,10-19-2021,14:56,METAR,Normal,360,19.0,25.0,010/27KTS,9999.0,,7.8,5.6,29.97,1015.8,,,,,,,,,,,,,,,,900.0,900.0,OVC,900.0,,,,,,
KRDR,10-19-2021,14:54,SPECI,Normal,360,17.0,25.0,,9999.0,,8.0,6.0,29.97,1015.8,,,,,,,,,,,,,,,,900.0,900.0,OVC,900.0,,,,,,
KRDR,10-19-2021,14:50,SPECI,Normal,350,21.0,25.0,,9999.0,,8.0,6.0,29.97,1015.8,,,,,,,,,,,,,,,,900.0,900.0,OVC,900.0,,,,,,
KRDR,10-19-2021,13:56,METAR,Normal,360,21.0,27.0,360/29KTS,9999.0,,8.3,5.9,29.95,1015.1,,,,,,,,,,,,,,,,900.0,900.0,OVC,900.0,,,,,,
KRDR,10-19-2021,13:26,SPECI,Normal,360,24.0,29.0,,9999.0,,9.0,7.0,29.93,1014.3,,,,,,,,,,,,,,,,800.0,800.0,OVC,800.0,,,,,,
KRDR,10-19-2021,13:16,SPECI,Normal,360,17.0,21.0,,9999.0,,9.0,7.0,29.93,1014.3,,,,,,,,,,,,,,,,900.0,900.0,OVC,900.0,,,,,,
KRDR,10-19-2021,13:15,SPECI,Normal,360,17.0,22.0,,9999.0,,9.0,7.0,29.93,1014.3,,,,,,,,,,,,,,,,900.0,900.0,OVC,900.0,,,,,,
KRDR,10-19-2021,13:00,SPECI,Normal,350,17.0,22.0,,9999.0,,9.0,7.0,29.91,1013.5,,,,,,,,,,,,,,,,1000.0,1000.0,OVC,1000.0,,,,,,
KRDR,10-19-2021,12:56,METAR,Normal,350,16.0,24.0,360/28KTS,9999.0,,8.6,6.6,29.91,1013.5,,,,,,,,,,,,,,,,1100.0,1100.0,OVC,1100.0,,,,,,
KRDR,10-19-2021,12:47,SPECI,Normal,350,15.0,23.0,,9999.0,,9.0,7.0,29.91,1013.6,,,,,,,,,,,,,,,,1100.0,1100.0,OVC,1100.0,,,,,,
KRDR,10-19-2021,12:24,SPECI,Normal,360,15.0,24.0,,9999.0,,9.0,7.0,29.89,1013.0,,,,,,,,,,,,,,,,1200.0,1200.0,OVC,1200.0,,,,,,
KRDR,10-19-2021,11:56,METAR,Normal,10,18.0,26.0,340/28KTS,9999.0,,9.8,7.4,29.88,1012.5,,,,,,,,,,,,,,,,1100.0,1100.0,OVC,1100.0,,,,,,
KRDR,10-19-2021,11:05,SPECI,Normal,360,18.0,28.0,,9999.0,,10.0,7.0,29.85,1011.3,,,,,,,,,,,,,,,,1100.0,1100.0,OVC,1100.0,,,,,,
KRDR,10-19-2021,10:56,METAR,Normal,360,20.0,28.0,360/28KTS,9999.0,,9.7,7.3,29.84,1011.0,,,,,,,,,,,,,,,,1200.0,1200.0,OVC,1200.0,,,,,,
KRDR,10-19-2021,10:48,SPECI,Normal,360,18.0,25.0,,9999.0,,10.0,7.0,29.84,1011.0,,,,,,,,,,,,,,,,1200.0,1200.0,OVC,1200.0,,,,,,
KRDR,10-19-2021,10:36,SPECI,Normal,350,16.0,24.0,,9999.0,,10.0,7.0,29.84,1011.0,,,,,,,,,,,,,,,,1300.0,1300.0,OVC,1300.0,,,,,,
KRDR,10-19-2021,10:21,SPECI,Normal,350,14.0,23.0,,9999.0,,10.0,7.0,29.83,1010.7,,,,,,,,,,,,,,,,1500.0,1500.0,BKN,1500.0,BKN,25000.0,,,,
KRDR,10-19-2021,09:56,METAR,Normal,350,15.0,20.0,,9999.0,,9.6,7.2,29.81,1010.0,,,,,,,,,,,,,,,,25000.0,25000.0,BKN,25000.0,,,,,,
KRDR,10-19-2021,08:56,METAR,Normal,350,10.0,,,9999.0,,10.3,7.5,29.79,1009.2,,,,,,,,,,,,,,,,25000.0,25000.0,BKN,25000.0,,,,,,
KRDR,10-19-2021,07:56,METAR,Normal,250,4.0,,,9999.0,,7.6,5.2,29.75,1008.0,,,,,,,,,,,,,,,,,25000.0,FEW,25000.0,,,,,,
KRDR,10-19-2021,06:56,METAR,Normal,210,5.0,,,9999.0,,10.1,5.9,29.73,1007.3,,,,,,,,,,,,,,,,,25000.0,SCT,25000.0,,,,,,
KRDR,10-19-2021,05:56,METAR,Normal,210,7.0,,,9999.0,,11.5,6.2,29.72,1006.9,,,,,,,,,,,,,,,,,25000.0,FEW,25000.0,,,,,,
KRDR,10-19-2021,04:56,METAR,Normal,200,9.0,,,9999.0,,14.4,6.0,29.71,1006.6,,,,,,,,,,,,,,,,,25000.0,FEW,25000.0,,,,,,
KRDR,10-19-2021,03:56,METAR,Normal,190,9.0,,,9999.0,,13.4,6.7,29.70,1006.4,,,,,,,,,,,,,,,,,25000.0,FEW,25000.0,,,,,,
KRDR,10-19-2021,02:56,METAR,Normal,190,7.0,,,9999.0,,12.0,6.7,29.69,1006.1,,,,,,,,,,,,,,,,,25000.0,SCT,25000.0,,,,,,
KRDR,10-19-2021,01:56,METAR,Normal,170,6.0,,,9999.0,,14.1,6.7,29.68,1005.9,,,,,,,,,,,,,,,,,25000.0,SCT,25000.0,,,,,,
KRDR,10-19-2021,00:56,METAR,Normal,170,9.0,,,9999.0,,18.1,6.6,29.66,1005.1,,,,,,,,,,,,,,,,25000.0,25000.0,BKN,25000.0,,,,,,
KRDR,10-18-2021,23:56,METAR,Normal,170,8.0,,,9999.0,,18.3,6.5,29.66,1005.1,,,,,,,,,,,,,,,,18000.0,18000.0,BKN,18000.0,,,,,,
KRDR,10-18-2021,22:56,METAR,Normal,170,9.0,,,9999.0,,22.1,6.7,29.66,1005.0,,,,,,,,,,,,,,,,18000.0,18000.0,BKN,18000.0,,,,,,
KRDR,10-18-2021,21:56,METAR,Normal,160,8.0,,,9999.0,,22.4,8.8,29.66,1005.0,,,,,,,,,,,,,,,,18000.0,18000.0,BKN,18000.0,,,,,,
KRDR,10-18-2021,20:56,METAR,Normal,180,11.0,,,9999.0,,23.7,7.7,29.68,1005.6,,,,,,,,,,,,,,,,25000.0,25000.0,BKN,25000.0,,,,,,
KRDR,10-18-2021,19:56,METAR,Normal,170,13.0,20.0,,9999.0,,23.0,7.5,29.69,1006.0,,,,,,,,,,,,,,,,,25000.0,SCT,25000.0,,,,,,
KRDR,10-18-2021,18:56,METAR,Normal,170,12.0,,,9999.0,,21.6,8.5,29.70,1006.3,,,,,,,,,,,,,,,,,25000.0,FEW,25000.0,,,,,,
KRDR,10-18-2021,17:56,METAR,Normal,170,14.0,,,9999.0,,18.9,7.9,29.72,1007.1,,,,,,,,,,,,,,,,,25000.0,FEW,25000.0,,,,,,
KRDR,10-18-2021,16:56,METAR,Normal,180,13.0,,,9999.0,,16.0,7.5,29.74,1007.8,,,,,,,,,,,,,,,,,25000.0,FEW,25000.0,,,,,,
KRDR,10-18-2021,15:56,METAR,Normal,180,13.0,20.0,,9999.0,,13.8,6.4,29.75,1008.2,,,,,,,,,,,,,,,,,25000.0,FEW,25000.0,,,,,,
KRDR,10-18-2021,14:56,METAR,Normal,170,12.0,,,9999.0,,10.9,6.2,29.76,1008.6,,,,,,,,,,,,,,,Clear,72000.0,,,,,,,,,
KRDR,10-18-2021,13:56,METAR,Normal,160,7.0,,,9999.0,,8.0,5.5,29.77,1009.0,,,,,,,,,,,,,,,Clear,72000.0,,,,,,,,,
KRDR,10-18-2021,12:56,METAR,Normal,160,8.0,,,9999.0,,6.6,4.6,29.77,1009.0,,,,,,,,,,,,,,,Clear,72000.0,,,,,,,,,
KRDR,10-18-2021,11:56,METAR,Normal,160,8.0,,,9999.0,,6.6,4.6,29.78,1009.3,,,,,,,,,,,,,,,Clear,72000.0,,,,,,,,,
KRDR,10-18-2021,10:56,METAR,Normal,150,7.0,,,9999.0,,5.0,3.8,29.80,1009.9,,,,,,,,,,,,,,,Clear,72000.0,,,,,,,,,
KRDR,10-18-2021,09:56,METAR,Normal,160,6.0,,,9999.0,,5.4,3.9,29.82,1010.5,,,,,,,,,,,,,,,Clear,72000.0,,,,,,,,,
KRDR,10-18-2021,08:56,METAR,Normal,160,6.0,,,9999.0,,5.7,4.2,29.84,1011.2,,,,,,,,,,,,,,,Clear,72000.0,,,,,,,,,
KRDR,10-18-2021,07:56,METAR,Normal,150,6.0,,,9999.0,,6.5,4.3,29.85,1011.5,,,,,,,,,,,,,,,Clear,72000.0,,,,,,,,,
KRDR,10-18-2021,06:56,METAR,Normal,160,8.0,,,9999.0,,7.4,4.5,29.86,1011.9,,,,,,,,,,,,,,,Clear,72000.0,,,,,,,,,
KRDR,10-18-2021,05:56,METAR,Normal,160,9.0,,,9999.0,,7.6,4.9,29.87,1012.2,,,,,,,,,,,,,,,Clear,72000.0,,,,,,,,,
KRDR,10-18-2021,04:56,METAR,Normal,180,7.0,,,9999.0,,8.1,4.9,29.88,1012.7,,,,,,,,,,,,,,,Clear,72000.0,,,,,,,,,
KRDR,10-18-2021,03:56,METAR,Normal,170,6.0,,,9999.0,,9.0,5.4,29.88,1012.7,,,,,,,,,,,,,,,Clear,72000.0,,,,,,,,,
KRDR,10-18-2021,02:56,METAR,Normal,180,7.0,,,9999.0,,9.9,6.1,29.88,1012.8,,,,,,,,,,,,,,,Clear,72000.0,,,,,,,,,
KRDR,10-18-2021,01:56,METAR,Normal,170,8.0,,,9999.0,,11.7,7.2,29.88,1012.9,,,,,,,,,,,,,,,Clear,72000.0,,,,,,,,,
KRDR,10-18-2021,00:56,METAR,Normal,150,9.0,,,9999.0,,13.7,7.7,29.89,1013.2,,,,,,,,,,,,,,,Clear,72000.0,,,,,,,,,
KRDR,10-17-2021,23:56,METAR,Normal,150,8.0,,,9999.0,,15.2,7.7,29.89,1013.2,,,,,,,,,,,,,,,Clear,72000.0,,,,,,,,,
KRDR,10-17-2021,22:56,METAR,Normal,160,8.0,,,9999.0,,18.2,7.9,29.91,1013.7,,,,,,,,,,,,,,,Clear,72000.0,,,,,,,,,
KRDR,10-17-2021,21:56,METAR,Normal,170,9.0,,,9999.0,,20.2,7.9,29.91,1013.6,,,,,,,,,,,,,,,Clear,72000.0,,,,,,,,,
KRDR,10-17-2021,20:56,METAR,Normal,160,12.0,,,9999.0,,20.4,7.7,29.93,1014.3,,,,,,,,,,,,,,,Clear,72000.0,,,,,,,,,
KRDR,10-17-2021,19:56,METAR,Normal,190,11.0,,,9999.0,,20.1,7.5,29.95,1015.0,,,,,,,,,,,,,,,Clear,72000.0,,,,,,,,,
KRDR,10-17-2021,18:56,METAR,Normal,160,14.0,,,9999.0,,18.5,7.6,29.97,1015.7,,,,,,,,,,,,,,,Clear,72000.0,,,,,,,,,
KRDR,10-17-2021,17:56,METAR,Normal,160,9.0,,,9999.0,,17.5,7.5,30.00,1016.8,,,,,,,,,,,,,,,Clear,72000.0,,,,,,,,,
KRDR,10-17-2021,16:56,METAR,Normal,150,7.0,,,9999.0,,14.3,6.9,30.01,1017.2,,,,,,,,,,,,,,,Clear,72000.0,,,,,,,,,
KRDR,10-17-2021,15:56,METAR,Normal,130,7.0,,,9999.0,,10.7,5.9,30.02,1017.7,,,,,,,,,,,,,,,Clear,72000.0,,,,,,,,,
KRDR,10-17-2021,14:56,METAR,Normal,120,5.0,,,9999.0,,7.2,3.8,30.03,1018.1,,,,,,,,,,,,,,,Clear,72000.0,,,,,,,,,
KRDR,10-17-2021,13:56,METAR,Normal,170,3.0,,,9999.0,,4.7,2.4,30.03,1018.1,,,,,,,,,,,,,,,Clear,72000.0,,,,,,,,,
KRDR,10-17-2021,12:56,METAR,Calm,,0.0,,,9999.0,,3.0,0.7,30.02,1017.9,,,,,,,,,,,,,,,Clear,72000.0,,,,,,,,,
KRDR,10-17-2021,11:56,METAR,Normal,210,6.0,,,9999.0,,2.9,0.5,30.02,1017.7,,,,,,,,,,,,,,,Clear,72000.0,,,,,,,,,
KRDR,10-17-2021,10:56,METAR,Normal,220,5.0,,,9999.0,,3.4,0.6,30.03,1017.9,,,,,,,,,,,,,,,Clear,72000.0,,,,,,,,,
KRDR,10-17-2021,09:56,METAR,Normal,220,4.0,,,9999.0,,3.4,0.6,30.03,1017.9,,,,,,,,,,,,,,,Clear,72000.0,,,,,,,,,
KRDR,10-17-2021,08:56,METAR,Normal,240,5.0,,,9999.0,,3.2,0.4,30.04,1018.2,,,,,,,,,,,,,,,Clear,72000.0,,,,,,,,,
KRDR,10-17-2021,07:56,METAR,Normal,240,5.0,,,9999.0,,2.9,0.5,30.05,1018.5,,,,,,,,,,,,,,,Clear,72000.0,,,,,,,,,
KRDR,10-17-2021,06:56,METAR,Normal,230,4.0,,,9999.0,,5.1,1.0,30.05,1018.5,,,,,,,,,,,,,,,Clear,72000.0,,,,,,,,,
KRDR,10-17-2021,05:56,METAR,Normal,250,3.0,,,9999.0,,4.1,0.6,30.04,1018.2,,,,,,,,,,,,,,,Clear,72000.0,,,,,,,,,
KRDR,10-17-2021,04:56,METAR,Normal,270,5.0,,,9999.0,,5.2,0.9,30.03,1017.9,,,,,,,,,,,,,,,Clear,72000.0,,,,,,,,,
KRDR,10-17-2021,03:56,METAR,Normal,260,5.0,,,9999.0,,5.0,1.3,30.04,1018.3,,,,,,,,,,,,,,,Clear,72000.0,,,,,,,,,
KRDR,10-17-2021,02:56,METAR,Normal,260,6.0,,,9999.0,,7.4,1.5,30.04,1018.3,,,,,,,,,,,,,,,Clear,72000.0,,,,,,,,,
KRDR,10-17-2021,01:56,METAR,Normal,250,5.0,,,9999.0,,6.0,2.1,30.03,1018.1,,,,,,,,,,,,,,,Clear,72000.0,,,,,,,,,
KRDR,10-17-2021,00:56,METAR,Normal,250,6.0,,,9999.0,,7.3,2.0,30.03,1018.2,,,,,,,,,,,,,,,Clear,72000.0,,,,,,,,,
KRDR,10-16-2021,23:56,METAR,Normal,270,6.0,,,9999.0,,10.7,1.5,30.02,1017.7,,,,,,,,,,,,,,,Clear,72000.0,,,,,,,,,
KRDR,10-16-2021,22:56,METAR,Normal,280,6.0,,,9999.0,,14.5,2.1,30.01,1017.2,,,,,,,,,,,,,,,Clear,72000.0,,,,,,,,,
KRDR,10-16-2021,21:56,METAR,Normal,310,8.0,,,9999.0,,16.2,-0.1,30.00,1016.8,,,,,,,,,,,,,,,Clear,72000.0,,,,,,,,,
KRDR,10-16-2021,20:56,METAR,Normal,300,9.0,,,9999.0,,16.7,-1.0,30.00,1016.8,,,,,,,,,,,,,,,Clear,72000.0,,,,,,,,,
KRDR,10-16-2021,19:56,METAR,Normal,300,13.0,17.0,,9999.0,,16.9,-1.7,29.99,1016.4,,,,,,,,,,,,,,,Clear,72000.0,,,,,,,,,
KRDR,10-16-2021,18:56,METAR,Normal,300,10.0,,,9999.0,,16.4,2.8,29.99,1016.4,,,,,,,,,,,,,,,Clear,72000.0,,,,,,,,,
KRDR,10-16-2021,17:56,METAR,Normal,290,9.0,,,9999.0,,15.0,2.8,29.99,1016.4,,,,,,,,,,,,,,,Clear,72000.0,,,,,,,,,
KRDR,10-16-2021,16:56,METAR,Normal,270,6.0,,,9999.0,,13.5,3.3,29.99,1016.5,,,,,,,,,,,,,,,Clear,72000.0,,,,,,,,,
KRDR,10-16-2021,15:56,METAR,Normal,280,10.0,,,9999.0,,10.4,2.5,29.98,1016.3,,,,,,,,,,,,,,,Clear,72000.0,,,,,,,,,
KRDR,10-16-2021,14:56,METAR,Normal,310,7.0,,,9999.0,,8.1,1.9,29.99,1016.7,,,,,,,,,,,,,,,Clear,72000.0,,,,,,,,,
KRDR,10-16-2021,13:56,METAR,Normal,260,8.0,,,9999.0,,5.9,0.4,29.97,1016.1,,,,,,,,,,,,,,,Clear,72000.0,,,,,,,,,
KRDR,10-16-2021,12:56,METAR,Normal,250,8.0,,,9999.0,,3.1,-0.4,29.96,1015.8,,,,,,,,,,,,,,,Clear,72000.0,,,,,,,,,
KRDR,10-16-2021,11:56,METAR,Normal,250,6.0,,,9999.0,,3.0,-0.5,29.95,1015.5,,,,,,,,,,,,,,,Clear,72000.0,,,,,,,,,
KRDR,10-16-2021,10:56,METAR,Normal,260,8.0,,,9999.0,,4.4,0.5,29.95,1015.3,,,,,,,,,,,,,,,Clear,72000.0,,,,,,,,,
KRDR,10-16-2021,09:56,METAR,Normal,270,9.0,,,9999.0,,5.1,1.0,29.94,1014.9,,,,,,,,,,,,,,,Clear,72000.0,,,,,,,,,
KRDR,10-16-2021,08:56,METAR,Normal,270,11.0,,,9999.0,,5.6,0.4,29.94,1014.9,,,,,,,,,,,,,,,Clear,72000.0,,,,,,,,,
KRDR,10-16-2021,07:56,METAR,Normal,280,8.0,,,9999.0,,5.8,0.3,29.93,1014.6,,,,,,,,,,,,,,,Clear,72000.0,,,,,,,,,
KRDR,10-16-2021,06:56,METAR,Normal,280,10.0,,,9999.0,,6.5,0.4,29.92,1014.2,,,,,,,,,,,,,,,Clear,72000.0,,,,,,,,,
KRDR,10-16-2021,05:56,METAR,Normal,280,9.0,,,9999.0,,6.4,0.5,29.91,1014.0,,,,,,,,,,,,,,,Clear,72000.0,,,,,,,,,
KRDR,10-16-2021,04:56,METAR,Normal,270,9.0,,,9999.0,,6.0,1.1,29.91,1014.0,,,,,,,,,,,,,,,Clear,72000.0,,,,,,,,,
KRDR,10-16-2021,03:56,METAR,Normal,260,7.0,,,9999.0,,5.7,1.0,29.91,1014.0,,,,,,,,,,,,,,,Clear,72000.0,,,,,,,,,
KRDR,10-16-2021,02:56,METAR,Normal,270,7.0,,,9999.0,,6.3,1.4,29.91,1014.0,,,,,,,,,,,,,,,Clear,72000.0,,,,,,,,,
KRDR,10-16-2021,01:56,METAR,Normal,280,7.0,,,9999.0,,6.6,1.7,29.91,1014.0,,,,,,,,,,,,,,,Clear,72000.0,,,,,,,,,
KRDR,10-16-2021,00:56,METAR,Normal,280,7.0,,,9999.0,,6.8,1.9,29.90,1013.7,,,,,,,,,,,,,,,Clear,72000.0,,,,,,,,,
KRDR,10-15-2021,23:56,METAR,Normal,280,7.0,,,9999.0,,7.8,1.8,29.89,1013.3,,,,,,,,,,,,,TRACE,,,,15000.0,FEW,15000.0,,,,,,
KRDR,10-15-2021,22:56,METAR,Normal,280,11.0,,,9999.0,,9.6,2.2,29.88,1012.9,,,,,,,,,,,,,,,,,15000.0,SCT,15000.0,,,,,,
KRDR,10-15-2021,21:56,METAR,Normal,280,9.0,16.0,,9999.0,,10.3,1.9,29.88,1012.9,,,,,,,,,,,,,,,,,10000.0,SCT,10000.0,,,,,,
KRDR,10-15-2021,20:56,METAR,Normal,290,16.0,20.0,,9999.0,,10.0,1.4,29.87,1012.5,,,,,,,,,,,,,,,,9000.0,9000.0,OVC,9100.0,,,,,,
KRDR,10-15-2021,19:56,METAR,Normal,280,14.0,,,9999.0,,9.8,2.2,29.87,1012.5,,,,,,,,,,,,,,,,3500.0,3500.0,BKN,3500.0,OVC,6500.0,,,,
KRDR,10-15-2021,19:26,SPECI,Normal,270,13.0,,,9999.0,,10.0,2.0,29.87,1012.5,,,,,,,,,,,,,,,,6000.0,2800.0,SCT,2800.0,SCT,3400.0,OVC,6000.0,,
KRDR,10-15-2021,18:56,METAR,Normal,280,12.0,,,9999.0,,8.8,3.6,29.87,1012.5,,,,,,,,,,,TRACE,,,,,2300.0,2300.0,BKN,2300.0,BKN,3000.0,OVC,5000.0,,
KRDR,10-15-2021,18:55,SPECI,Normal,290,12.0,,,9999.0,,9.0,4.0,29.87,1012.5,,,,,,,,,,,,,,,,2300.0,2300.0,BKN,2300.0,BKN,3000.0,OVC,5000.0,,
KRDR,10-15-2021,18:16,SPECI,Normal,290,13.0,18.0,,9999.0,Drizzle,8.0,4.0,29.88,1012.9,,,,51,,,,,,,,,,,,2100.0,2100.0,BKN,2100.0,BKN,2700.0,OVC,3600.0,,
KRDR,10-15-2021,17:56,METAR,Normal,280,11.0,17.0,,9999.0,,7.8,3.6,29.88,1012.9,,,,,,,,,,,TRACE,,TRACE,,,2800.0,2000.0,SCT,2000.0,BKN,2800.0,BKN,4000.0,BKN,5500.0
KRDR,10-15-2021,17:21,SPECI,Normal,270,10.0,,,9999.0,,8.0,4.0,29.88,1012.9,,,,,,,,,,,,,,,,2200.0,2200.0,BKN,2200.0,OVC,3200.0,,,,
KRDR,10-15-2021,17:16,SPECI,Normal,290,11.0,,,9999.0,Light Drizzle,8.0,4.0,29.88,1012.9,51,,,,,,,,,,,,,,,1900.0,1900.0,BKN,1900.0,BKN,2400.0,OVC,3200.0,,
KRDR,10-15-2021,17:06,SPECI,Normal,300,10.0,,,9999.0,Light Drizzle,8.0,3.0,29.88,1012.9,51,,,,,,,,,,,,,,,2000.0,2000.0,BKN,2000.0,BKN,4000.0,OVC,6000.0,,
KRDR,10-15-2021,16:56,METAR,Normal,290,14.0,,,9999.0,,7.7,3.7,29.88,1012.9,,,,,,,,,,,TRACE,,,,,2000.0,2000.0,BKN,2000.0,OVC,5500.0,,,,
KRDR,10-15-2021,16:47,SPECI,Normal,290,13.0,18.0,,9999.0,,7.0,3.0,29.88,1012.9,,,,,,,,,,,,,,,,2300.0,1700.0,SCT,1700.0,BKN,2300.0,BKN,3000.0,OVC,4200.0
KRDR,10-15-2021,15:56,METAR,Normal,290,13.0,19.0,,9999.0,Light Drizzle,6.7,3.3,29.87,1012.6,51,,,,,,,,,,TRACE,,,,,1700.0,1700.0,BKN,1700.0,OVC,3900.0,,,,
KRDR,10-15-2021,15:31,SPECI,Normal,300,13.0,,,9999.0,Light Rain,7.0,3.0,29.87,1012.6,61,,,,,,,,,,,,,,,1700.0,1700.0,BKN,1700.0,BKN,4000.0,OVC,6000.0,,
KRDR,10-15-2021,14:56,METAR,Normal,290,8.0,,,9999.0,,6.6,3.0,29.86,1012.3,,,,,,,,,,,,TRACE,,,,1700.0,1700.0,BKN,1700.0,OVC,6000.0,,,,
KRDR,10-15-2021,13:56,METAR,Normal,290,9.0,,,9999.0,,5.6,3.1,29.85,1011.9,,,,,,,,,,,TRACE,,,,,1800.0,1800.0,OVC,1800.0,,,,,,
KRDR,10-15-2021,13:37,SPECI,Normal,290,9.0,,,9999.0,Light Rain Showers,5.0,3.0,29.85,1012.0,81,,,,,,,,,,,,,,,1800.0,1800.0,OVC,1800.0,,,,,,
KRDR,10-15-2021,13:24,SPECI,Normal,290,10.0,,,9999.0,Light Rain Showers,5.0,3.0,29.84,1011.7,81,,,,,,,,,,,,,,,2100.0,2100.0,OVC,2100.0,,,,,,
KRDR,10-15-2021,13:10,SPECI,Normal,290,9.0,,,9999.0,Light Rain,5.0,3.0,29.84,1011.7,61,,,,,,,,,,,,,,,2200.0,2200.0,OVC,2200.0,,,,,,
KRDR,10-15-2021,12:56,METAR,Normal,270,9.0,,,9999.0,,5.4,3.2,29.84,1011.7,,,,,,,,,,,TRACE,,,,,1600.0,1600.0,FEW,1600.0,OVC,2200.0,,,,
KRDR,10-15-2021,12:16,SPECI,Normal,280,6.0,,,9999.0,Light Rain,6.0,4.0,29.83,1011.2,61,,,,,,,,,,,,,,,1700.0,1700.0,OVC,1700.0,,,,,,
KRDR,10-15-2021,11:56,METAR,Normal,280,7.0,,,9999.0,Light Rain,5.7,3.4,29.83,1011.2,61,,,,,,,,,,.01 IN,,.01 IN,,,2000.0,2000.0,OVC,2000.0,,,,,,
KRDR,10-15-2021,10:56,METAR,Normal,270,6.0,,,9999.0,Light Rain,5.7,3.2,29.81,1010.6,61,,,,,,,,,,TRACE,,,,,8000.0,4100.0,SCT,4100.0,OVC,8000.0,,,,
KRDR,10-15-2021,09:56,METAR,Normal,270,8.0,,,9999.0,Light Drizzle,5.7,3.2,29.80,1010.2,51,,,,,,,,,,TRACE,,,,,9000.0,3800.0,FEW,3800.0,OVC,9100.0,,,,
KRDR,10-15-2021,09:06,SPECI,Normal,290,11.0,,,9999.0,Light Rain,6.0,3.0,29.80,1010.2,61,,,,,,,,,,,,,,,7000.0,7000.0,BKN,7000.0,OVC,9100.0,,,,
KRDR,10-15-2021,08:56,METAR,Normal,290,9.0,,,9999.0,Light Drizzle,5.8,3.1,29.80,1010.2,51,,,,,,,,,,,,,,,7000.0,7000.0,OVC,7000.0,,,,,,
KRDR,10-15-2021,07:56,METAR,Normal,270,9.0,,,9999.0,,6.0,3.0,29.81,1010.6,,,,,,,,,,,,,,,,5000.0,1600.0,FEW,1600.0,BKN,5000.0,OVC,8000.0,,
KRDR,10-15-2021,06:56,METAR,Normal,280,9.0,,,9999.0,,6.1,3.1,29.80,1010.2,,,,,,,,,,,,,,,,7000.0,3500.0,FEW,3500.0,BKN,7000.0,OVC,9600.0,,
KRDR,10-15-2021,05:56,METAR,Normal,280,7.0,,,9999.0,,6.4,3.4,29.78,1009.5,,,,,,,,,,,,,,,,6500.0,6500.0,BKN,6500.0,OVC,9100.0,,,,
KRDR,10-15-2021,05:16,SPECI,Normal,290,9.0,,,9999.0,,7.0,4.0,29.78,1009.5,,,,,,,,,,,,,,,,3000.0,3000.0,BKN,3000.0,OVC,4100.0,,,,
KRDR,10-15-2021,04:56,METAR,Normal,280,9.0,,,9999.0,,7.0,3.6,29.78,1009.5,,,,,,,,,,,,,,,,2900.0,2900.0,BKN,2900.0,OVC,5500.0,,,,
KRDR,10-15-2021,04:36,SPECI,Normal,270,10.0,,,9999.0,,7.0,4.0,29.78,1009.5,,,,,,,,,,,,,,,,3100.0,3100.0,OVC,3100.0,,,,,,
KRDR,10-15-2021,04:06,SPECI,Normal,270,13.0,,,9999.0,,7.0,4.0,29.78,1009.5,,,,,,,,,,,,,,,,2800.0,2800.0,BKN,2800.0,OVC,3300.0,,,,
KRDR,10-15-2021,03:56,METAR,Normal,270,11.0,17.0,,9999.0,,7.3,3.7,29.78,1009.5,,,,,,,,,,,,,,,,3100.0,3100.0,BKN,3100.0,OVC,4000.0,,,,
KRDR,10-15-2021,03:26,SPECI,Normal,270,10.0,16.0,,9999.0,,7.0,4.0,29.77,1009.1,,,,,,,,,,,,,,,,2800.0,2800.0,OVC,2800.0,,,,,,
KRDR,10-15-2021,02:56,METAR,Normal,270,9.0,,,9999.0,,7.4,4.0,29.77,1009.2,,,,,,,,,,,,,,,,3100.0,3100.0,BKN,3100.0,OVC,6500.0,,,,
KRDR,10-15-2021,02:26,SPECI,Normal,270,11.0,,,9999.0,,8.0,4.0,29.76,1008.8,,,,,,,,,,,,,,,,2600.0,2600.0,BKN,2600.0,OVC,6000.0,,,,
KRDR,10-15-2021,01:56,METAR,Normal,280,11.0,,,9999.0,,7.5,3.7,29.75,1008.4,,,,,,,,,,,,,,,,3400.0,3400.0,BKN,3400.0,OVC,8600.0,,,,
KRDR,10-15-2021,01:36,SPECI,Normal,280,10.0,,,9999.0,,8.0,4.0,29.75,1008.4,,,,,,,,,,,,,,,,3400.0,2600.0,SCT,2600.0,OVC,3400.0,,,,
KRDR,10-15-2021,00:56,METAR,Normal,270,10.0,,,9999.0,,7.9,3.7,29.74,1008.1,,,,,,,,,,,,,,,,2600.0,2600.0,OVC,2600.0,,,,,,
KRDR,10-14-2021,23:56,METAR,Normal,260,10.0,18.0,,9999.0,,8.1,3.9,29.72,1007.4,,,,,,,,,,,,,,,,2400.0,2400.0,OVC,2400.0,,,,,,
KRDR,10-14-2021,22:56,METAR,Normal,260,17.0,25.0,,9999.0,,8.6,3.8,29.69,1006.3,,,,,,,,,,,,,,,,2400.0,2400.0,OVC,2400.0,,,,,,
KRDR,10-14-2021,21:56,METAR,Normal,260,15.0,,,9999.0,,9.1,4.3,29.67,1005.6,,,,,,,,,,,,,,,,2300.0,2300.0,BKN,2300.0,BKN,3000.0,OVC,8000.0,,
KRDR,10-14-2021,20:56,METAR,Normal,260,15.0,21.0,,9999.0,,8.7,4.3,29.66,1005.2,,,,,,,,,,,,,,,,2200.0,2200.0,OVC,2200.0,,,,,,
KRDR,10-14-2021,19:56,METAR,Normal,250,16.0,27.0,250/27KTS,9999.0,,8.3,4.1,29.65,1005.0,,,,,,,,,,,,,,,,2000.0,2000.0,OVC,2000.0,,,,,,
KRDR,10-14-2021,18:56,METAR,Normal,260,19.0,23.0,260/28KTS,9999.0,,9.2,4.8,29.63,1004.3,,,,,,,,,,,,,,,,2000.0,2000.0,OVC,2000.0,,,,,,
KRDR,10-14-2021,17:56,METAR,Normal,270,18.0,25.0,280/26KTS,9999.0,,9.0,4.8,29.61,1003.6,,,,,,,,,,,,,,,,1600.0,1600.0,BKN,1600.0,,,,,,
KRDR,10-14-2021,17:36,SPECI,Normal,270,18.0,24.0,,9999.0,,8.0,5.0,29.61,1003.6,,,,,,,,,,,,,,,,1500.0,1500.0,OVC,1500.0,,,,,,
KRDR,10-14-2021,16:56,METAR,Normal,270,15.0,25.0,,9999.0,,7.7,5.0,29.60,1003.3,,,,,,,,,,,,,,,,1200.0,1200.0,OVC,1200.0,,,,,,
KRDR,10-14-2021,16:26,SPECI,Normal,260,16.0,23.0,,9999.0,,8.0,5.0,29.58,1002.6,,,,,,,,,,,,,,,,1200.0,1200.0,OVC,1200.0,,,,,,
KRDR,10-14-2021,15:56,METAR,Normal,260,16.0,,270/27KTS,9999.0,,7.7,5.2,29.57,1002.2,,,,,,,,,,,,,,,,1100.0,1100.0,OVC,1100.0,,,,,,
KRDR,10-14-2021,15:44,SPECI,Normal,260,13.0,21.0,,9999.0,,8.0,5.0,29.57,1002.2,,,,,,,,,,,,,,,,1100.0,1100.0,OVC,1100.0,,,,,,
KRDR,10-14-2021,14:56,METAR,Normal,270,18.0,25.0,,9999.0,,7.8,5.3,29.55,1001.6,,,,,,,,,,,,,,,,1300.0,1300.0,OVC,1300.0,,,,,,
KRDR,10-14-2021,13:56,METAR,Normal,270,17.0,24.0,280/27KTS,9999.0,,8.0,5.3,29.51,1000.2,,,,,,,,,,,,,,,,1300.0,1300.0,OVC,1300.0,,,,,,
KRDR,10-14-2021,12:56,METAR,Normal,280,13.0,23.0,,9999.0,,8.8,6.4,29.47,998.8,,,,,,,,,,,,,,,,1400.0,1400.0,OVC,1400.0,,,,,,
KRDR,10-14-2021,11:56,METAR,Normal,280,17.0,22.0,,9999.0,,9.0,7.3,29.44,997.7,,,,,,,,,,,,,,1.51 IN,,1300.0,1300.0,OVC,1300.0,,,,,,
KRDR,10-14-2021,11:16,SPECI,Normal,290,15.0,21.0,,9999.0,,9.0,8.0,29.42,997.0,,,,,,,,,,,,,,,,1200.0,1200.0,OVC,1200.0,,,,,,
KRDR,10-14-2021,11:06,SPECI,Normal,280,14.0,21.0,,9999.0,,9.0,8.0,29.41,996.7,,,,,,,,,,,,,,,,1000.0,1000.0,OVC,1000.0,,,,,,
KRDR,10-14-2021,10:56,METAR,Normal,280,13.0,22.0,,9999.0,,9.4,8.0,29.40,996.3,,,,,,,,,,,,,,,,900.0,900.0,OVC,900.0,,,,,,
KRDR,10-14-2021,10:16,SPECI,Normal,270,12.0,22.0,,9999.0,,10.0,9.0,29.39,995.9,,,,,,,,,,,,,,,,700.0,800.0,BKN,800.0,OVC,1200.0,,,,
KRDR,10-14-2021,10:06,SPECI,Normal,270,13.0,,,9999.0,,10.0,9.0,29.38,995.6,,,,,,,,,,,,,,,,700.0,700.0,BKN,700.0,BKN,1300.0,OVC,4100.0,,
KRDR,10-14-2021,09:56,METAR,Normal,270,12.0,,,9999.0,,10.1,8.9,29.37,995.2,,,,,,,,,,,,,,,,600.0,600.0,OVC,600.0,,,,,,
KRDR,10-14-2021,09:26,SPECI,Normal,260,11.0,17.0,,9999.0,,11.0,10.0,29.35,994.5,,,,,,,,,,,,,,,,600.0,600.0,OVC,600.0,,,,,,
KRDR,10-14-2021,08:56,METAR,Normal,220,8.0,,,9999.0,,10.5,9.9,29.34,994.2,,,,,,,,,,,,,,,,500.0,500.0,OVC,500.0,,,,,,
KRDR,10-14-2021,08:46,SPECI,Normal,210,10.0,,,9999.0,,10.0,10.0,29.34,994.3,,,,,,,,,,,,,,,,500.0,500.0,OVC,500.0,,,,,,
KRDR,10-14-2021,08:36,SPECI,Normal,210,8.0,,,9999.0,,10.0,10.0,29.34,994.3,,,,,,,,,,,,,,,,600.0,600.0,OVC,600.0,,,,,,
KRDR,10-14-2021,08:16,SPECI,Normal,200,7.0,,,9999.0,,10.0,9.0,29.33,993.9,,,,,,,,,,,,,,,,700.0,700.0,OVC,700.0,,,,,,
KRDR,10-14-2021,08:06,SPECI,Normal,190,6.0,,,9999.0,,10.0,9.0,29.33,993.9,,,,,,,,,,,,,,,,900.0,900.0,OVC,900.0,,,,,,
KRDR,10-14-2021,07:56,METAR,Normal,180,6.0,,,9999.0,,9.7,8.9,29.32,993.6,,,,,,,,,,,,,,,,1100.0,1100.0,OVC,1100.0,,,,,,
KRDR,10-14-2021,07:32,SPECI,Normal,180,7.0,,,9999.0,,9.0,9.0,29.32,993.6,,,,,,,,,,,,,,,,1100.0,1100.0,BKN,1100.0,BKN,1800.0,BKN,2900.0,OVC,6000.0
KRDR,10-14-2021,07:22,SPECI,Normal,180,7.0,,,9999.0,,9.0,8.0,29.32,993.6,,,,,,,,,,,,,,,,3100.0,1100.0,FEW,1100.0,SCT,1800.0,BKN,3100.0,OVC,6000.0
KRDR,10-14-2021,06:56,METAR,Normal,190,6.0,,,9999.0,,9.2,8.3,29.31,993.2,,,,,,,,,,,,,,,,6000.0,6000.0,BKN,6000.0,BKN,10000.0,,,,
KRDR,10-14-2021,05:56,METAR,Normal,190,7.0,,,9999.0,,9.7,8.5,29.30,992.9,,,,,,,,,,,,,.18 IN,,,6500.0,1900.0,SCT,1900.0,OVC,6500.0,,,,
KRDR,10-14-2021,05:46,SPECI,Normal,180,8.0,,,9999.0,,10.0,9.0,29.30,992.9,,,,,,,,,,,,,,,,7000.0,1900.0,SCT,1900.0,OVC,7000.0,,,,
KRDR,10-14-2021,05:16,SPECI,Normal,190,7.0,,,9999.0,,10.0,9.0,29.30,992.9,,,,,,,,,,,,,,,,1900.0,1900.0,OVC,1900.0,,,,,,
KRDR,10-14-2021,04:56,METAR,Normal,190,7.0,,,9999.0,,9.9,8.8,29.30,992.9,,,,,,,,,,,,,,,,2000.0,1300.0,FEW,1300.0,OVC,2000.0,,,,
KRDR,10-14-2021,04:48,SPECI,Normal,190,7.0,,,9999.0,,10.0,9.0,29.30,992.9,,,,,,,,,,,,,,,,1100.0,1200.0,SCT,1200.0,OVC,2000.0,,,,
KRDR,10-14-2021,04:28,SPECI,Normal,190,9.0,,,9999.0,,10.0,9.0,29.29,992.6,,,,,,,,,,,,,,,,1100.0,1100.0,BKN,1100.0,OVC,9100.0,,,,
KRDR,10-14-2021,04:08,SPECI,Normal,180,10.0,,,9999.0,,11.0,10.0,29.29,992.6,,,,,,,,,,,,,,,,900.0,900.0,BKN,900.0,OVC,2000.0,,,,
KRDR,10-14-2021,03:58,SPECI,Normal,170,8.0,,,9999.0,,11.0,10.0,29.28,992.2,,,,,,,,,,,,,,,,2000.0,1100.0,SCT,1100.0,OVC,2000.0,,,,
KRDR,10-14-2021,03:57,SPECI,Normal,170,8.0,,,9999.0,,11.0,10.0,29.28,992.2,,,,,,,,,,,,,,,,2000.0,1300.0,FEW,1300.0,OVC,2000.0,,,,
KRDR,10-14-2021,03:56,METAR,Normal,170,8.0,,,9999.0,Light Rain Showers,10.5,9.6,29.28,992.2,81,,,,,,,,,,.03 IN,,,,,2000.0,1300.0,FEW,1300.0,OVC,2000.0,,,,
KRDR,10-14-2021,03:05,SPECI,Normal,170,7.0,,,9999.0,Light Rain Showers,11.0,10.0,29.28,992.3,81,,,,,,,,,,,,,,,1000.0,1000.0,SCT,1000.0,OVC,1700.0,,,,
KRDR,10-14-2021,03:04,SPECI,Normal,160,7.0,,,9999.0,Light Rain Showers,11.0,10.0,29.28,992.3,81,,,,,,,,,,,,,,,1000.0,1400.0,OVC,1400.0,,,,,,
KRDR,10-14-2021,02:56,METAR,Normal,160,6.0,,,9999.0,Light Rain Showers,10.8,10.0,29.28,992.3,81,,,,,,,,,,.03 IN,.15 IN,,,,1000.0,1000.0,BKN,1000.0,OVC,1600.0,,,,
KRDR,10-14-2021,02:53,SPECI,Normal,170,6.0,,,9999.0,Light Rain Showers,11.0,10.0,29.28,992.3,81,,,,,,,,,,,,,,,1000.0,1000.0,BKN,1000.0,BKN,1600.0,OVC,6000.0,,
KRDR,10-14-2021,02:42,SPECI,Normal,180,3.0,,,9999.0,Light Rain Showers,11.0,10.0,29.28,992.3,81,,,,,,,,,,,,,,,1600.0,900.0,FEW,900.0,BKN,1600.0,BKN,3300.0,BKN,6000.0
KRDR,10-14-2021,01:56,METAR,Calm,,0.0,,,9999.0,Light Rain Showers,10.6,9.8,29.28,992.3,81,,,,,,,,,,.02 IN,,,,,6000.0,6000.0,OVC,6000.0,,,,,,
KRDR,10-14-2021,01:32,SPECI,Normal,180,4.0,,,9999.0,Light Rain,11.0,10.0,29.28,992.3,61,,,,,,,,,,,,,,,7000.0,4900.0,FEW,4900.0,OVC,7000.0,,,,
KRDR,10-14-2021,01:14,SPECI,Normal,140,5.0,,,9999.0,Light Rain,11.0,10.0,29.28,992.3,61,,,,,,,,,,,,,,,6000.0,6000.0,OVC,6000.0,,,,,,
KRDR,10-14-2021,00:56,METAR,Normal,180,11.0,,,8000.0,Rain/Mist,11.0,9.9,29.28,992.3,62,10,,,,,,,,,.1 IN,,,,,,200.0,FEW,200.0,SCT,1100.0,SCT,3000.0,SCT,3900.0
KRDR,10-14-2021,00:49,SPECI,Normal,180,10.0,,,4800.0,Heavy Rain/Mist,11.0,10.0,29.29,992.6,63,10,,,,,,,,,,,,,,1400.0,200.0,FEW,200.0,SCT,1400.0,BKN,2900.0,BKN,3900.0
KRDR,10-14-2021,00:42,SPECI,Normal,180,12.0,23.0,,9999.0,Light Rain,12.0,9.0,29.29,992.6,61,,,,,,,,,,,,,,,1600.0,200.0,FEW,200.0,SCT,1100.0,BKN,1600.0,BKN,3000.0
KRDR,10-14-2021,00:36,SPECI,Normal,170,16.0,23.0,,9999.0,Light Rain,14.0,11.0,29.29,992.6,61,,,,,,,,,,,,,,,1600.0,1100.0,SCT,1100.0,BKN,1600.0,OVC,2900.0,,
KRDR,10-14-2021,00:34,SPECI,Normal,170,18.0,23.0,,9999.0,Light Rain,14.0,12.0,29.29,992.6,61,,,,,,,,,,,,,,,1400.0,1400.0,BKN,1400.0,OVC,2700.0,,,,
KRDR,10-14-2021,00:31,SPECI,Normal,140,16.0,,,9999.0,,14.0,13.0,29.29,992.6,,,,,,,,,,,,,,,,1400.0,1400.0,OVC,1400.0,,,,,,
KRDR,10-14-2021,00:06,SPECI,Normal,100,12.0,18.0,,9999.0,,14.0,13.0,29.27,991.9,,,,,,,,,,,,,,,,1700.0,1100.0,FEW,1100.0,OVC,1700.0,,,,
KRDR,10-13-2021,23:56,METAR,Normal,100,10.0,,,9999.0,,13.8,12.7,29.28,992.2,,,,,,,,,,,TRACE,,.77 IN,,,1200.0,1300.0,SCT,1300.0,OVC,1900.0,,,,
KRDR,10-13-2021,23:30,SPECI,Normal,110,13.0,,,9999.0,,14.0,13.0,29.28,992.2,,,,,,,,,,,,,,,,1200.0,1200.0,OVC,1200.0,,,,,,
KRDR,10-13-2021,23:15,SPECI,Normal,120,13.0,20.0,,9999.0,,14.0,13.0,29.29,992.6,,,,,,,,,,,,,,,,1400.0,1400.0,OVC,1400.0,,,,,,
KRDR,10-13-2021,23:04,SPECI,Normal,110,12.0,,,9999.0,Light Rain,14.0,13.0,29.29,992.6,61,,,,,,,,,,,,,,,1500.0,200.0,FEW,200.0,BKN,1500.0,OVC,2300.0,,
KRDR,10-13-2021,22:56,METAR,Normal,110,17.0,22.0,,9999.0,Light Rain,13.7,12.6,29.29,992.6,61,,,,,,,,,,.11 IN,,,,,800.0,200.0,FEW,200.0,BKN,900.0,BKN,1500.0,OVC,2300.0
KRDR,10-13-2021,22:46,SPECI,Normal,110,15.0,23.0,,9999.0,Light Rain/Mist,14.0,13.0,29.30,993.0,61,10,,,,,,,,,,,,,,800.0,200.0,SCT,200.0,BKN,800.0,BKN,1400.0,OVC,2600.0
KRDR,10-13-2021,22:36,SPECI,Normal,100,15.0,22.0,,8000.0,Light Rain/Mist,13.0,13.0,29.30,993.0,61,10,,,,,,,,,,,,,,600.0,200.0,FEW,200.0,BKN,800.0,OVC,1600.0,,
KRDR,10-13-2021,22:26,SPECI,Normal,90,16.0,24.0,,8000.0,Light Rain,13.0,13.0,29.30,993.0,61,,,,,,,,,,,,,,,600.0,600.0,BKN,600.0,OVC,1100.0,,,,
KRDR,10-13-2021,22:06,SPECI,Normal,80,15.0,,,8000.0,Light Rain,13.0,13.0,29.31,993.3,61,,,,,,,,,,,,,,,500.0,500.0,OVC,500.0,,,,,,
KRDR,10-13-2021,21:56,METAR,Normal,90,14.0,21.0,090/26KTS,6400.0,Light Rain/Mist,13.2,12.4,29.32,993.6,61,10,,,,,,,,,.12 IN,,,,,400.0,400.0,OVC,400.0,,,,,,
KRDR,10-13-2021,21:46,SPECI,Normal,80,16.0,26.0,,6400.0,Light Rain,13.0,12.0,29.32,993.6,61,,,,,,,,,,,,,,,400.0,400.0,OVC,400.0,,,,,,
KRDR,10-13-2021,21:26,SPECI,Normal,80,16.0,24.0,,6400.0,Light Rain/Mist,13.0,12.0,29.33,994.0,61,10,,,,,,,,,,,,,,200.0,200.0,OVC,200.0,,,,,,
KRDR,10-13-2021,21:06,SPECI,Normal,70,14.0,22.0,,3200.0,Rain/Mist,13.0,12.0,29.35,994.7,62,10,,,,,,,,,,,,,,300.0,300.0,OVC,300.0,,,,,,
KRDR,10-13-2021,20:56,METAR,Normal,60,15.0,21.0,,4800.0,Rain/Mist,12.5,11.9,29.36,995.0,62,10,,,,,,,,,.26 IN,.65 IN,,,,200.0,200.0,OVC,200.0,,,,,,
KRDR,10-13-2021,20:46,SPECI,Normal,60,15.0,22.0,,6400.0,Rain/Mist,13.0,12.0,29.37,995.4,62,10,,,,,,,,,,,,,,200.0,200.0,OVC,200.0,,,,,,
KRDR,10-13-2021,20:06,SPECI,Normal,70,16.0,22.0,,3600.0,Heavy Rain/Mist,12.0,12.0,29.40,996.4,63,10,,,,,,,,,,,,,,200.0,200.0,OVC,200.0,,,,,,
KRDR,10-13-2021,19:56,METAR,Normal,60,16.0,22.0,,4800.0,Rain/Mist,12.2,11.6,29.42,997.1,62,10,,,,,,,,,.19 IN,,,,,200.0,200.0,OVC,200.0,,,,,,
KRDR,10-13-2021,19:46,SPECI,Normal,60,14.0,,,4400.0,Rain/Mist,12.0,12.0,29.43,997.5,62,10,,,,,,,,,,,,,,200.0,200.0,OVC,200.0,,,,,,
KRDR,10-13-2021,19:36,SPECI,Normal,60,16.0,,,4800.0,Rain/Mist,12.0,12.0,29.43,997.5,62,10,,,,,,,,,,,,,,200.0,200.0,OVC,200.0,,,,,,
KRDR,10-13-2021,19:26,SPECI,Normal,70,16.0,21.0,,4400.0,Light Rain/Mist,12.0,12.0,29.44,997.8,61,10,,,,,,,,,,,,,,200.0,200.0,OVC,200.0,,,,,,
KRDR,10-13-2021,19:06,SPECI,Normal,60,13.0,,,4400.0,Rain/Mist,12.0,12.0,29.47,998.8,62,10,,,,,,,,,,,,,,200.0,200.0,OVC,200.0,,,,,,
KRDR,10-13-2021,18:56,METAR,Normal,60,14.0,,,4800.0,Rain/Mist,12.1,11.5,29.48,999.2,62,10,,,,,,,,,.2 IN,,,,,200.0,200.0,OVC,200.0,,,,,,
KRDR,10-13-2021,18:46,SPECI,Normal,70,12.0,,,3600.0,Rain/Mist,12.0,11.0,29.49,999.5,62,10,,,,,,,,,,,,,,200.0,200.0,OVC,200.0,,,,,,
KRDR,10-13-2021,18:36,SPECI,Normal,70,14.0,20.0,,4000.0,Rain/Mist,12.0,12.0,29.49,999.5,62,10,,,,,,,,,,,,,,300.0,300.0,OVC,300.0,,,,,,
KRDR,10-13-2021,18:06,SPECI,Normal,70,11.0,,,4800.0,Light Rain/Mist,12.0,11.0,29.52,1000.5,61,10,,,,,,,,,,,,,,300.0,300.0,OVC,300.0,,,,,,
KRDR,10-13-2021,17:56,METAR,Normal,80,12.0,,,6400.0,Rain/Mist,11.9,11.3,29.53,1000.9,62,10,,,,,,,,,.14 IN,,.45 IN,,,300.0,300.0,OVC,300.0,,,,,,
KRDR,10-13-2021,16:56,METAR,Normal,70,16.0,20.0,,8000.0,Light Rain/Mist,11.1,10.5,29.57,1002.2,61,10,,,,,,,,,.13 IN,,,,,300.0,300.0,OVC,300.0,,,,,,
KRDR,10-13-2021,16:26,SPECI,Normal,70,11.0,,,8000.0,Rain/Mist,11.0,10.0,29.59,1002.9,62,10,,,,,,,,,,,,,,300.0,300.0,OVC,300.0,,,,,,
KRDR,10-13-2021,15:56,METAR,Normal,70,11.0,,,9999.0,Light Rain/Mist,10.4,9.8,29.63,1004.3,61,10,,,,,,,,,.04 IN,,,,,400.0,400.0,BKN,400.0,BKN,3700.0,OVC,6000.0,,
KRDR,10-13-2021,15:26,SPECI,Normal,60,12.0,,,9999.0,Light Rain/Mist,10.0,9.0,29.65,1005.0,61,10,,,,,,,,,,,,,,500.0,500.0,BKN,500.0,OVC,4300.0,,,,
KRDR,10-13-2021,15:06,SPECI,Normal,70,10.0,,,9999.0,Light Rain/Mist,10.0,9.0,29.68,1006.0,61,10,,,,,,,,,,,,,,600.0,600.0,BKN,600.0,BKN,2100.0,OVC,4200.0,,
KRDR,10-13-2021,14:56,METAR,Normal,60,10.0,,,9999.0,Light Rain/Mist,9.5,8.9,29.68,1006.0,61,10,,,,,,,,,.03 IN,.13 IN,,,,700.0,700.0,BKN,700.0,BKN,1900.0,OVC,3500.0,,
KRDR,10-13-2021,14:36,SPECI,Normal,50,11.0,,,,,,,,1006.7,,,,,,,,,,,,,,,,500.0,,,,,,,,,
KRDR,10-13-2021,14:26,SPECI,Normal,50,11.0,,,9999.0,Light Rain/Mist,9.0,9.0,29.71,1007.1,61,10,,,,,,,,,,,,,,500.0,500.0,BKN,500.0,BKN,1700.0,BKN,3300.0,OVC,6500.0
KRDR,10-13-2021,14:06,SPECI,Normal,50,10.0,,,9999.0,Light Rain/Mist,9.0,8.0,29.74,1008.1,61,10,,,,,,,,,,,,,,500.0,500.0,SCT,500.0,BKN,1600.0,BKN,3400.0,OVC,6000.0
KRDR,10-13-2021,13:56,METAR,Normal,50,11.0,,,9999.0,Light Rain/Mist,8.7,8.1,29.75,1008.4,61,10,,,,,,,,,.05 IN,,,,,300.0,500.0,BKN,500.0,BKN,1700.0,OVC,3300.0,,
KRDR,10-13-2021,13:41,SPECI,Normal,40,8.0,,,9999.0,Light Rain/Mist,9.0,8.0,29.76,1008.8,61,10,,,,,,,,,,,,,,300.0,300.0,BKN,300.0,BKN,800.0,OVC,3500.0,,
KRDR,10-13-2021,13:31,SPECI,Normal,50,4.0,,,9999.0,Rain/Mist,9.0,8.0,29.77,1009.1,62,10,,,,,,,,,,,,,,800.0,300.0,SCT,300.0,BKN,800.0,OVC,3500.0,,
KRDR,10-13-2021,13:01,SPECI,Normal,40,6.0,,,9999.0,Light Rain,8.0,8.0,29.78,1009.5,61,,,,,,,,,,,,,,,3300.0,1000.0,FEW,1000.0,FEW,2200.0,OVC,3300.0,,
KRDR,10-13-2021,12:57,SPECI,Normal,30,6.0,,,9999.0,Light Rain,8.0,8.0,29.77,1009.2,61,,,,,,,,,,,,,,,3200.0,2100.0,FEW,2100.0,OVC,3200.0,,,,
KRDR,10-13-2021,12:56,METAR,Normal,40,6.0,,,9999.0,,8.2,7.6,29.77,1009.2,,,,,,,,,,,.06 IN,,,,,3200.0,2100.0,FEW,2100.0,OVC,3200.0,,,,
KRDR,10-13-2021,12:55,SPECI,Normal,40,6.0,,,9999.0,,8.0,8.0,29.77,1009.2,,,,,,,,,,,,,,,,3200.0,900.0,FEW,900.0,SCT,2100.0,OVC,3200.0,,
KRDR,10-13-2021,12:45,SPECI,Normal,30,7.0,,,9999.0,,8.0,8.0,29.77,1009.2,,,,,,,,,,,,,,,,2100.0,300.0,FEW,300.0,FEW,900.0,BKN,2100.0,OVC,3000.0
KRDR,10-13-2021,12:31,SPECI,Normal,30,6.0,,,9999.0,Light Rain,8.0,7.0,29.78,1009.5,61,,,,,,,,,,,,,,,2100.0,300.0,FEW,300.0,FEW,900.0,BKN,2100.0,OVC,3000.0
KRDR,10-13-2021,12:11,SPECI,Normal,30,7.0,,,9999.0,Light Rain,8.0,7.0,29.78,1009.5,61,,,,,,,,,,,,,,,3100.0,300.0,FEW,300.0,BKN,3100.0,BKN,3700.0,,
KRDR,10-13-2021,11:56,METAR,Normal,30,7.0,,,9999.0,Light Rain,7.7,6.9,29.79,1009.8,61,,,,,,,,,,.01 IN,,.04 IN,.04 IN,,3700.0,3700.0,BKN,3700.0,,,,,,
KRDR,10-13-2021,11:26,SPECI,Normal,30,8.0,,,9999.0,Light Rain,8.0,7.0,29.80,1010.2,61,,,,,,,,,,,,,,,9000.0,4000.0,SCT,4000.0,BKN,9100.0,,,,
KRDR,10-13-2021,10:56,METAR,Normal,20,10.0,,,9999.0,,6.8,6.1,29.81,1010.5,,,,,,,,,,,TRACE,,,,,,4000.0,FEW,4000.0,SCT,9100.0,,,,
KRDR,10-13-2021,10:13,SPECI,Normal,10,8.0,,,9999.0,,6.0,6.0,29.86,1012.2,,,,,,,,,,,,,,,,8000.0,8000.0,OVC,8000.0,,,,,,
KRDR,10-13-2021,09:56,METAR,Normal,360,7.0,,,9999.0,Light Rain,6.3,5.4,29.89,1013.2,61,,,,,,,,,,.03 IN,,,,,9000.0,9000.0,OVC,9100.0,,,,,,
KRDR,10-13-2021,09:06,SPECI,Normal,10,8.0,,,9999.0,Light Rain,6.0,5.0,29.91,1013.8,61,,,,,,,,,,,,,,,9500.0,9500.0,BKN,9600.0,OVC,15000.0,,,,
KRDR,10-13-2021,08:56,METAR,Normal,360,8.0,,,9999.0,,6.2,4.8,29.91,1013.8,,,,,,,,,,,,,,,,10000.0,10000.0,BKN,10000.0,BKN,15000.0,,,,
KRDR,10-13-2021,07:56,METAR,Normal,360,7.0,,,9999.0,,6.0,4.6,29.94,1014.9,,,,,,,,,,,,,,,,15000.0,15000.0,OVC,15000.0,,,,,,
KRDR,10-13-2021,06:56,METAR,Normal,360,8.0,,,9999.0,,6.3,4.8,29.96,1015.5,,,,,,,,,,,,,,,Clear,72000.0,,,,,,,,,
KRDR,10-13-2021,05:56,METAR,Normal,360,4.0,,,9999.0,,6.6,4.8,30.00,1016.9,,,,,,,,,,,,,,,,16000.0,13000.0,SCT,13000.0,OVC,16000.0,,,,
KRDR,10-13-2021,04:56,METAR,Normal,10,9.0,,,9999.0,,7.0,4.7,30.01,1017.3,,,,,,,,,,,,,,,,15000.0,15000.0,OVC,15000.0,,,,,,
KRDR,10-13-2021,03:56,METAR,Normal,360,8.0,,,9999.0,,7.6,4.9,30.05,1018.6,,,,,,,,,,,,,,,,8000.0,8000.0,OVC,8000.0,,,,,,
KRDR,10-13-2021,02:56,METAR,Normal,350,9.0,,,9999.0,,7.5,4.5,30.05,,,,,,,,,,,,,,,,,8500.0,8500.0,OVC,8600.0,,,,,,
KRDR,10-13-2021,01:56,METAR,Normal,350,10.0,,,9999.0,,7.5,4.5,30.04,,,,,,,,,,,,,,,,,10000.0,10000.0,BKN,10000.0,OVC,16000.0,,,,
KRDR,10-13-2021,00:56,METAR,Normal,360,7.0,,,9999.0,,6.8,4.3,30.03,1018.2,,,,,,,,,,,,,,,,,12000.0,FEW,12000.0,SCT,22000.0,,,,
KRDR,10-12-2021,23:56,METAR,Normal,,,,,9999.0,,7.5,5.1,30.02,1017.8,,,,,,,,,,,,,,,,,12000.0,SCT,12000.0,,,,,,
KRDR,10-12-2021,22:56,METAR,Normal,360,10.0,,,9999.0,,9.7,4.9,30.03,1018.1,,,,,,,,,,,,,,,,,15000.0,FEW,15000.0,SCT,19000.0,,,,
KRDR,10-12-2021,21:56,METAR,Normal,20,13.0,,,9999.0,,10.4,4.5,30.03,1018.1,,,,,,,,,,,,,,,,,15000.0,FEW,15000.0,SCT,19000.0,,,,
KRDR,10-12-2021,20:56,METAR,Normal,360,11.0,,,9999.0,,12.2,4.7,30.05,1018.6,,,,,,,,,,,,,,,,,15000.0,FEW,15000.0,SCT,19000.0,,,,
KRDR,10-12-2021,19:56,METAR,Normal,20,13.0,,,9999.0,,12.4,4.8,30.05,1018.6,,,,,,,,,,,,,,,,,15000.0,FEW,15000.0,SCT,19000.0,,,,
KRDR,10-12-2021,18:56,METAR,Normal,10,13.0,,,9999.0,,11.4,4.4,30.06,1019.0,,,,,,,,,,,,,,,,19000.0,10000.0,FEW,10000.0,FEW,15000.0,BKN,19000.0,,
KRDR,10-12-2021,17:56,METAR,Normal,360,10.0,,,9999.0,,11.0,4.0,30.11,,,,,,,,,,,,,,,,,,19000.0,FEW,19000.0,FEW,21000.0,,,,
KRDR,10-12-2021,16:56,METAR,Normal,350,10.0,,,9999.0,,10.0,4.0,30.11,,,,,,,,,,,,,,,,,,15000.0,FEW,15000.0,FEW,19000.0,,,,
KRDR,10-12-2021,15:56,METAR,Normal,350,10.0,,,9999.0,,9.0,3.0,30.11,,,,,,,,,,,,,,,,,,17000.0,FEW,17000.0,FEW,21000.0,,,,
KRDR,10-12-2021,14:56,METAR,Normal,350,9.0,,,9999.0,,7.0,2.0,30.11,,,,,,,,,,,,,,,,,,18000.0,FEW,18000.0,FEW,21000.0,,,,
KRDR,10-12-2021,13:56,METAR,Normal,330,7.0,,,9999.0,,6.0,2.0,30.11,,,,,,,,,,,,,,,,,,21000.0,FEW,21000.0,,,,,,
KRDR,10-12-2021,12:56,METAR,Normal,310,8.0,,,9999.0,,3.1,0.5,30.10,1020.5,,,,,,,,,,,,,,,Clear,72000.0,,,,,,,,,
KRDR,10-12-2021,11:56,METAR,Normal,310,7.0,,,9999.0,,3.0,0.6,30.09,1020.0,,,,,,,,,,,,,,,Clear,72000.0,,,,,,,,,
KRDR,10-12-2021,10:56,METAR,Normal,320,6.0,,,9999.0,,2.9,0.5,30.07,1019.3,,,,,,,,,,,,,,,Clear,72000.0,,,,,,,,,
KRDR,10-12-2021,09:56,METAR,Normal,330,6.0,,,9999.0,,4.3,1.0,30.06,1018.8,,,,,,,,,,,,,,,Clear,72000.0,,,,,,,,,
KRDR,10-12-2021,08:56,METAR,Normal,330,7.0,,,9999.0,,5.1,1.0,30.04,1018.1,,,,,,,,,,,,,,,Clear,72000.0,,,,,,,,,
KRDR,10-12-2021,07:56,METAR,Normal,330,7.0,,,9999.0,,5.0,0.8,30.03,1017.7,,,,,,,,,,,,,,,Clear,72000.0,,,,,,,,,
KRDR,10-12-2021,06:56,METAR,Normal,330,5.0,,,9999.0,,4.6,0.9,30.00,1016.7,,,,,,,,,,,,,,,Clear,72000.0,,,,,,,,,
KRDR,10-12-2021,05:56,METAR,Normal,330,7.0,,,9999.0,,6.0,1.7,29.97,1015.8,,,,,,,,,,,,,,,Clear,72000.0,,,,,,,,,
KRDR,10-12-2021,04:56,METAR,Normal,320,9.0,,,9999.0,,7.6,2.9,29.95,1015.0,,,,,,,,,,,,,,,Clear,72000.0,,,,,,,,,
KRDR,10-12-2021,03:56,METAR,Normal,320,7.0,,,9999.0,,7.7,3.5,29.93,1014.4,,,,,,,,,,,,,,,Clear,72000.0,,,,,,,,,
KRDR,10-12-2021,02:56,METAR,Normal,320,7.0,,,9999.0,,7.7,3.5,29.93,1014.4,,,,,,,,,,,,,,,Clear,72000.0,,,,,,,,,
KRDR,10-12-2021,01:56,METAR,Normal,320,6.0,,,9999.0,,9.0,4.4,29.91,1013.8,,,,,,,,,,,,,,,Clear,72000.0,,,,,,,,,
KRDR,10-12-2021,00:56,METAR,Normal,310,6.0,,,9999.0,,10.5,4.4,29.89,1013.2,,,,,,,,,,,,,,,Clear,72000.0,,,,,,,,,
KRDR,10-11-2021,23:56,METAR,Normal,310,7.0,,,9999.0,,13.0,4.7,29.85,1011.8,,,,,,,,,,,,,,,Clear,72000.0,,,,,,,,,
KRDR,10-11-2021,22:56,METAR,Normal,320,10.0,,,9999.0,,15.7,4.1,29.81,1010.3,,,,,,,,,,,,,,,Clear,72000.0,,,,,,,,,
KRDR,10-11-2021,21:56,METAR,Normal,320,12.0,,,9999.0,,17.0,4.0,29.80,1010.0,,,,,,,,,,,,,,,Clear,72000.0,,,,,,,,,
KRDR,10-11-2021,20:56,METAR,Normal,310,12.0,,,9999.0,,17.7,6.2,29.78,1009.1,,,,,,,,,,,,,,,Clear,72000.0,,,,,,,,,
KRDR,10-11-2021,19:56,METAR,Normal,320,11.0,,,9999.0,,18.3,7.1,29.76,1008.5,,,,,,,,,,,,,,,Clear,72000.0,,,,,,,,,
KRDR,10-11-2021,18:56,METAR,Normal,330,12.0,15.0,,9999.0,,18.0,8.3,29.74,1007.8,,,,,,,,,,,,,,,Clear,72000.0,,,,,,,,,
KRDR,10-11-2021,17:56,METAR,Normal,310,14.0,,,9999.0,,16.2,7.1,29.73,1007.4,,,,,,,,,,,,,,,Clear,72000.0,,,,,,,,,
KRDR,10-11-2021,16:56,METAR,Normal,310,17.0,21.0,,9999.0,,15.5,6.8,29.71,1006.8,,,,,,,,,,,,,,,Clear,72000.0,,,,,,,,,
KRDR,10-11-2021,15:56,METAR,Normal,320,10.0,,,9999.0,,13.6,6.9,29.69,1006.1,,,,,,,,,,,,,,,Clear,72000.0,,,,,,,,,
KRDR,10-11-2021,14:56,METAR,Normal,310,6.0,,,9999.0,,11.2,6.3,29.68,1005.9,,,,,,,,,,,,,,,Clear,72000.0,,,,,,,,,
KRDR,10-11-2021,13:56,METAR,Normal,280,6.0,,,9999.0,,8.4,5.9,29.68,1006.0,,,,,,,,,,,,,,,Clear,72000.0,,,,,,,,,
KRDR,10-11-2021,12:56,METAR,Normal,200,3.0,,,9999.0,,5.3,4.4,29.66,1005.4,,,,,,,,,,,,,,,Clear,72000.0,,,,,,,,,
KRDR,10-11-2021,11:56,METAR,Normal,200,4.0,,,9999.0,,5.3,4.7,29.63,1004.4,,,,,,,,,,,,,,.09 IN,Clear,72000.0,,,,,,,,,
KRDR,10-11-2021,10:56,METAR,Normal,210,4.0,,,9999.0,,5.3,4.6,29.62,1004.0,,,,,,,,,,,,,,,Clear,72000.0,,,,,,,,,
KRDR,10-11-2021,09:56,METAR,Normal,260,7.0,,,9999.0,,5.4,4.4,29.58,1002.6,,,,,,,,,,,,,,,Clear,72000.0,,,,,,,,,
KRDR,10-11-2021,08:56,METAR,Normal,270,5.0,,,9999.0,,7.5,5.6,29.55,1001.5,,,,,,,,,,,,,,,Clear,72000.0,,,,,,,,,
KRDR,10-11-2021,07:56,METAR,Normal,250,6.0,,,9999.0,,7.5,6.0,29.55,1001.5,,,,,,,,,,,,,,,Clear,72000.0,,,,,,,,,
KRDR,10-11-2021,06:56,METAR,Normal,250,6.0,,,9999.0,,8.8,6.9,29.54,1001.1,,,,,,,,,,,,,,,,,15000.0,SCT,15000.0,,,,,,
KRDR,10-11-2021,05:56,METAR,Normal,260,6.0,,,9999.0,,10.5,7.7,29.54,1001.0,,,,,,,,,,,,,TRACE,,,10000.0,10000.0,OVC,10000.0,,,,,,
KRDR,10-11-2021,04:56,METAR,Normal,270,8.0,,,9999.0,,10.5,8.4,29.54,1001.0,,,,,,,,,,,TRACE,,,,,9000.0,6500.0,SCT,6500.0,OVC,9100.0,,,,
KRDR,10-11-2021,04:25,SPECI,Normal,270,9.0,,,9999.0,,11.0,8.0,29.54,1001.0,,,,,,,,,,,,,,,,9000.0,5000.0,FEW,5000.0,SCT,7500.0,OVC,9100.0,,
KRDR,10-11-2021,03:56,METAR,Normal,280,8.0,,,9999.0,Light Rain,10.3,8.2,29.53,1000.7,61,,,,,,,,,,TRACE,,,,,9000.0,7000.0,FEW,7000.0,OVC,9100.0,,,,
KRDR,10-11-2021,03:44,SPECI,Normal,290,9.0,,,9999.0,Light Drizzle,11.0,8.0,29.53,1000.6,51,,,,,,,,,,,,,,,8500.0,6500.0,FEW,6500.0,OVC,8600.0,,,,
KRDR,10-11-2021,03:40,SPECI,Normal,290,9.0,,,9999.0,,11.0,8.0,29.53,1000.6,,,,,,,,,,,,,,,,8500.0,6500.0,FEW,6500.0,OVC,8600.0,,,,
KRDR,10-11-2021,03:19,SPECI,Normal,300,8.0,,,9999.0,Light Rain,11.0,9.0,29.52,1000.3,61,,,,,,,,,,,,,,,8000.0,3400.0,SCT,3400.0,OVC,8000.0,,,,
KRDR,10-11-2021,02:58,SPECI,Normal,290,5.0,,,9999.0,,11.0,9.0,29.52,1000.3,,,,,,,,,,,,,,,,3100.0,3100.0,OVC,3100.0,,,,,,
KRDR,10-11-2021,02:56,METAR,Normal,300,5.0,,,9999.0,Light Drizzle,10.6,9.2,29.52,1000.3,51,,,,,,,,,,TRACE,TRACE,,,,3100.0,3100.0,OVC,3100.0,,,,,,
KRDR,10-11-2021,02:51,SPECI,Normal,290,6.0,,,9999.0,Light Rain,11.0,9.0,29.52,1000.3,61,,,,,,,,,,,,,,,2900.0,2200.0,FEW,2200.0,OVC,2900.0,,,,
KRDR,10-11-2021,02:41,SPECI,Normal,290,6.0,,,9999.0,Light Rain,11.0,9.0,29.52,1000.3,61,,,,,,,,,,,,,,,3000.0,2200.0,FEW,2200.0,BKN,3000.0,OVC,3500.0,,
KRDR,10-11-2021,01:56,METAR,Normal,300,10.0,,,9999.0,,10.4,8.8,29.51,1000.0,,,,,,,,,,,,,,,,4700.0,1300.0,FEW,1300.0,SCT,3700.0,BKN,4700.0,OVC,10000.0
KRDR,10-11-2021,01:46,SPECI,Normal,310,8.0,,,9999.0,,11.0,9.0,29.51,999.9,,,,,,,,,,,,,,,,4700.0,1300.0,SCT,1300.0,BKN,4700.0,OVC,10000.0,,
KRDR,10-11-2021,00:56,METAR,Normal,310,10.0,,,9999.0,,10.7,9.0,29.51,999.9,,,,,,,,,,,,,,,,1200.0,1200.0,OVC,1200.0,,,,,,
KRDR,10-11-2021,00:06,SPECI,Normal,310,11.0,,,9999.0,,11.0,9.0,29.49,999.3,,,,,,,,,,,,,,,,1200.0,1200.0,OVC,1200.0,,,,,,
KRDR,10-10-2021,23:56,METAR,Normal,310,12.0,,,9999.0,,10.9,9.2,29.50,999.6,,,,,,,,,,,,,TRACE,,,1100.0,1100.0,OVC,1100.0,,,,,,
KRDR,10-10-2021,23:06,SPECI,Normal,310,12.0,,,9999.0,,11.0,10.0,29.48,998.9,,,,,,,,,,,,,,,,1000.0,1000.0,OVC,1000.0,,,,,,
KRDR,10-10-2021,22:56,METAR,Normal,320,11.0,,,9999.0,,11.4,10.1,29.48,998.9,,,,,,,,,,,TRACE,,,,,900.0,900.0,OVC,900.0,,,,,,
KRDR,10-10-2021,22:44,SPECI,Normal,320,14.0,,,9999.0,,11.0,10.0,29.47,998.6,,,,,,,,,,,,,,,,800.0,800.0,OVC,800.0,,,,,,
KRDR,10-10-2021,22:11,SPECI,Normal,320,12.0,18.0,,9999.0,Light Rain,12.0,11.0,29.46,998.2,61,,,,,,,,,,,,,,,700.0,700.0,OVC,700.0,,,,,,
KRDR,10-10-2021,22:01,SPECI,Normal,320,11.0,,,9999.0,Light Drizzle,12.0,11.0,29.46,998.2,51,,,,,,,,,,,,,,,600.0,600.0,OVC,600.0,,,,,,
KRDR,10-10-2021,21:56,METAR,Normal,330,14.0,,,9999.0,,12.0,10.9,29.45,997.9,,,,,,,,,,,,,,,,600.0,600.0,OVC,600.0,,,,,,
KRDR,10-10-2021,21:46,SPECI,Normal,320,12.0,,,9999.0,,12.0,11.0,29.45,997.9,,,,,,,,,,,,,,,,600.0,600.0,OVC,600.0,,,,,,
KRDR,10-10-2021,21:26,SPECI,Normal,330,14.0,19.0,,9999.0,,12.0,11.0,29.44,997.6,,,,,,,,,,,,,,,,500.0,500.0,OVC,500.0,,,,,,
KRDR,10-10-2021,21:06,SPECI,Normal,320,15.0,20.0,,9999.0,,12.0,11.0,29.44,997.6,,,,,,,,,,,,,,,,400.0,400.0,OVC,400.0,,,,,,
KRDR,10-10-2021,20:56,METAR,Normal,320,14.0,,,9999.0,,12.1,11.3,29.44,997.5,,,,,,,,,,,,TRACE,,,,500.0,500.0,OVC,500.0,,,,,,
KRDR,10-10-2021,20:16,SPECI,Normal,330,12.0,,,9999.0,,13.0,12.0,29.43,997.2,,,,,,,,,,,,,,,,500.0,500.0,OVC,500.0,,,,,,
KRDR,10-10-2021,19:56,METAR,Normal,330,13.0,,,9999.0,,12.9,12.1,29.42,996.8,,,,,,,,,,,TRACE,,,,,400.0,400.0,OVC,400.0,,,,,,
KRDR,10-10-2021,19:29,SPECI,Normal,340,13.0,,,9999.0,,13.0,12.0,29.42,996.8,,,,,,,,,,,,,,,,400.0,400.0,OVC,400.0,,,,,,
KRDR,10-10-2021,19:06,SPECI,Normal,350,12.0,18.0,,9999.0,Light Rain,13.0,12.0,29.43,997.2,61,,,,,,,,,,,,,,,400.0,400.0,OVC,400.0,,,,,,
KRDR,10-10-2021,18:56,METAR,Normal,350,10.0,,,9999.0,Light Rain,12.9,12.3,29.43,997.2,61,,,,,,,,,,TRACE,,,,,500.0,500.0,OVC,500.0,,,,,,
KRDR,10-10-2021,18:52,SPECI,Normal,350,14.0,,,9999.0,Light Rain,13.0,12.0,29.43,997.2,61,,,,,,,,,,,,,,,500.0,500.0,OVC,500.0,,,,,,
KRDR,10-10-2021,18:33,SPECI,Normal,340,15.0,20.0,,9999.0,,12.0,12.0,29.42,996.8,,,,,,,,,,,,,,,,400.0,400.0,OVC,400.0,,,,,,
KRDR,10-10-2021,18:08,SPECI,Normal,340,12.0,,,9999.0,Light Rain,12.0,12.0,29.43,997.2,61,,,,,,,,,,,,,,,400.0,400.0,OVC,400.0,,,,,,
KRDR,10-10-2021,17:56,METAR,Normal,350,11.0,,,9999.0,,12.6,12.0,29.43,997.2,,,,,,,,,,,.01 IN,,.09 IN,,,400.0,400.0,OVC,400.0,,,,,,
KRDR,10-10-2021,17:54,SPECI,Normal,350,10.0,,,9999.0,,13.0,12.0,29.43,997.2,,,,,,,,,,,,,,,,400.0,400.0,OVC,400.0,,,,,,
KRDR,10-10-2021,17:46,SPECI,Normal,350,14.0,,,9999.0,Light Rain,13.0,12.0,29.43,997.2,61,,,,,,,,,,,,,,,400.0,400.0,OVC,400.0,,,,,,
KRDR,10-10-2021,17:16,SPECI,Normal,340,12.0,,,9999.0,Light Rain,13.0,13.0,29.43,997.2,61,,,,,,,,,,,,,,,300.0,300.0,OVC,300.0,,,,,,
KRDR,10-10-2021,16:56,METAR,Normal,350,13.0,,,9999.0,Light Rain,13.2,12.7,29.43,997.2,61,,,,,,,,,,.02 IN,,,,,200.0,200.0,OVC,200.0,,,,,,
KRDR,10-10-2021,16:31,SPECI,Normal,340,10.0,,,9999.0,Light Rain,13.0,13.0,29.42,996.8,61,,,,,,,,,,,,,,,200.0,200.0,OVC,200.0,,,,,,
KRDR,10-10-2021,16:06,SPECI,Normal,340,10.0,,,9999.0,,14.0,13.0,29.41,996.4,,,,,,,,,,,,,,,,200.0,200.0,OVC,200.0,,,,,,
KRDR,10-10-2021,15:56,METAR,Normal,340,6.0,,,9999.0,,13.9,13.3,29.41,996.4,,,,,,,,,,,,,,,,300.0,300.0,BKN,300.0,OVC,800.0,,,,
KRDR,10-10-2021,15:36,SPECI,Normal,50,5.0,,,9999.0,,15.0,14.0,29.41,996.4,,,,,,,,,,,,,,,,400.0,400.0,BKN,400.0,OVC,900.0,,,,
KRDR,10-10-2021,15:16,SPECI,Normal,40,6.0,,,9999.0,,15.0,14.0,29.41,996.4,,,,,,,,,,,,,,,,300.0,500.0,OVC,500.0,,,,,,
KRDR,10-10-2021,14:56,METAR,Normal,50,5.0,,,9999.0,,14.6,14.1,29.41,996.4,,,,,,,,,,,TRACE,.06 IN,,,,300.0,300.0,OVC,300.0,,,,,,
KRDR,10-10-2021,14:21,SPECI,Normal,30,6.0,,,9999.0,,15.0,14.0,29.41,996.4,,,,,,,,,,,,,,,,300.0,300.0,OVC,300.0,,,,,,
KRDR,10-10-2021,13:56,METAR,Normal,30,7.0,,,6400.0,Light Rain/Mist,14.5,14.0,29.41,996.4,61,10,,,,,,,,,.06 IN,,,,,200.0,200.0,OVC,200.0,,,,,,
KRDR,10-10-2021,13:29,SPECI,Normal,10,7.0,,,3200.0,Light Rain/Mist,14.0,14.0,29.41,996.4,61,10,,,,,,,,,,,,,,200.0,200.0,OVC,200.0,,,,,,
KRDR,10-10-2021,13:19,SPECI,Normal,20,7.0,,,3600.0,Light Rain/Mist,14.0,14.0,29.41,996.4,61,10,,,,,,,,,,,,,,200.0,200.0,BKN,200.0,OVC,700.0,,,,
KRDR,10-10-2021,12:58,METAR,Normal,20,6.0,,,9999.0,Light Drizzle/Mist,14.5,13.9,29.41,996.4,51,10,,,,,,,,,TRACE,,,,,600.0,600.0,BKN,600.0,OVC,1000.0,,,,
KRDR,10-10-2021,12:39,SPECI,Normal,30,6.0,,,9999.0,Drizzle,15.0,14.0,29.40,996.1,,,,51,,,,,,,,,,,,1100.0,1100.0,OVC,1100.0,,,,,,
KRDR,10-10-2021,12:34,SPECI,Normal,50,6.0,,,9999.0,,15.0,14.0,29.40,996.1,,,,,,,,,,,,,,,,1100.0,1100.0,OVC,1100.0,,,,,,
KRDR,10-10-2021,12:08,SPECI,Normal,50,6.0,,,9999.0,,15.0,14.0,29.39,995.7,,,,,,,,,,,,,,,,1300.0,1300.0,OVC,1300.0,,,,,,
KRDR,10-10-2021,11:58,SPECI,Normal,60,7.0,,,9999.0,,15.0,14.0,29.39,995.7,,,,,,,,,,,,,,,,1100.0,1100.0,BKN,1100.0,OVC,1800.0,,,,
KRDR,10-10-2021,11:56,METAR,Normal,60,7.0,,,9999.0,,14.6,13.8,29.39,995.7,,,,,,,,,,,,,.41 IN,1.64 IN,,1300.0,1300.0,BKN,1300.0,OVC,2000.0,,,,
KRDR,10-10-2021,11:30,SPECI,Normal,60,7.0,,,9999.0,,15.0,14.0,29.39,995.7,,,,,,,,,,,,,,,,1500.0,1500.0,BKN,1500.0,OVC,2100.0,,,,
KRDR,10-10-2021,11:04,SPECI,Normal,80,8.0,,,9999.0,,15.0,14.0,29.38,995.4,,,,,,,,,,,,,,,,1000.0,1000.0,BKN,1000.0,OVC,2300.0,,,,
KRDR,10-10-2021,10:56,METAR,Normal,80,7.0,,,9999.0,,14.6,13.8,29.38,995.4,,,,,,,,,,,TRACE,,,,,1200.0,1200.0,BKN,1200.0,OVC,2300.0,,,,
KRDR,10-10-2021,10:14,SPECI,Normal,80,6.0,,,9999.0,,15.0,14.0,29.37,995.0,,,,,,,,,,,,,,,,1200.0,500.0,SCT,500.0,BKN,1200.0,OVC,2100.0,,
KRDR,10-10-2021,09:59,METAR,Normal,100,7.0,,,9999.0,Light Drizzle,14.7,13.7,29.37,995.0,51,,,,,,,,,,.01 IN,,,,,400.0,500.0,SCT,500.0,OVC,1100.0,,,,
KRDR,10-10-2021,09:35,SPECI,Normal,100,7.0,,,9999.0,Light Drizzle,15.0,14.0,29.36,994.7,51,,,,,,,,,,,,,,,1300.0,200.0,FEW,200.0,FEW,600.0,OVC,1300.0,,
KRDR,10-10-2021,09:33,SPECI,Normal,100,12.0,,,9999.0,,15.0,14.0,29.36,994.7,,,,,,,,,,,,,,,,1300.0,600.0,SCT,600.0,OVC,1300.0,,,,
KRDR,10-10-2021,09:03,SPECI,Normal,90,10.0,,,9999.0,,15.0,14.0,29.36,994.7,,,,,,,,,,,,,,,,1000.0,1000.0,BKN,1000.0,OVC,1500.0,,,,
KRDR,10-10-2021,08:56,METAR,Normal,90,9.0,,,9999.0,,15.0,13.5,29.36,994.7,,,,,,,,,,,.01 IN,.41 IN,,,,1200.0,1200.0,BKN,1200.0,OVC,3200.0,,,,
KRDR,10-10-2021,08:26,SPECI,Normal,90,10.0,,,9999.0,,15.0,14.0,29.37,995.0,,,,,,,,,,,,,,,,1700.0,500.0,FEW,500.0,FEW,1000.0,BKN,2000.0,OVC,2800.0
KRDR,10-10-2021,08:06,SPECI,Normal,90,8.0,,,9999.0,Light Drizzle,16.0,15.0,29.38,995.4,51,,,,,,,,,,,,,,,400.0,300.0,SCT,300.0,BKN,1000.0,OVC,1700.0,,
KRDR,10-10-2021,07:56,METAR,Normal,90,10.0,,030/28KTS,9999.0,Light Rain,15.7,15.1,29.38,995.4,61,,,,,,,,,,.18 IN,,,,,200.0,400.0,BKN,400.0,BKN,1000.0,OVC,1700.0,,
KRDR,10-10-2021,07:48,SPECI,Normal,80,10.0,,,4800.0,Light Rain/Mist,16.0,15.0,29.38,995.4,61,10,,,,,,,,,,,,,,200.0,200.0,BKN,200.0,OVC,700.0,,,,
KRDR,10-10-2021,07:38,SPECI,Normal,80,11.0,21.0,,3000.0,Heavy Rain/Mist,16.0,15.0,29.38,995.4,63,10,,,,,,,,,,,,,,400.0,200.0,SCT,200.0,BKN,700.0,OVC,1400.0,,
KRDR,10-10-2021,07:28,SPECI,Normal,70,15.0,23.0,,9999.0,Rain/Mist,16.0,15.0,29.38,995.4,62,10,,,,,,,,,,,,,,400.0,600.0,BKN,600.0,OVC,1400.0,,,,
KRDR,10-10-2021,07:22,SPECI,Normal,80,14.0,23.0,,9999.0,Light Rain,16.0,15.0,29.38,995.4,61,,,,,,,,,,,,,,,400.0,400.0,BKN,400.0,BKN,800.0,OVC,1400.0,,
KRDR,10-10-2021,06:56,METAR,Normal,50,19.0,24.0,20/28KTS,9999.0,Rain,15.5,14.7,29.38,995.4,62,,,,,,,,,,.22 IN,,,,,600.0,200.0,FEW,200.0,OVC,600.0,,,,
KRDR,10-10-2021,06:40,SPECI,Normal,40,15.0,21.0,,9999.0,Light Rain,15.0,15.0,29.39,995.8,61,,,,,,,,,,,,,,,600.0,600.0,OVC,600.0,,,,,,
KRDR,10-10-2021,06:37,SPECI,Normal,90,12.0,18.0,,9999.0,Light Rain,15.0,15.0,29.39,995.8,61,,,,,,,,,,,,,,,600.0,100.0,FEW,100.0,OVC,600.0,,,,
KRDR,10-10-2021,06:22,SPECI,Normal,60,16.0,28.0,,6400.0,Rain/Mist,15.0,15.0,29.39,995.8,62,10,,,,,,,,,,,,,,600.0,100.0,FEW,100.0,BKN,600.0,OVC,1200.0,,
KRDR,10-10-2021,06:15,SPECI,Normal,20,21.0,28.0,,6400.0,Rain/Mist,15.0,15.0,29.37,995.1,62,10,,,,,,,,,,,,,,600.0,100.0,FEW,100.0,BKN,600.0,OVC,1200.0,,
KRDR,10-10-2021,06:11,SPECI,Normal,20,18.0,25.0,,800.0,Heavy Rain,15.0,15.0,29.38,995.5,,,,65,,,,,,,,,,,,600.0,100.0,FEW,100.0,OVC,600.0,,,,
KRDR,10-10-2021,06:08,SPECI,Normal,30,19.0,28.0,,4000.0,Heavy Rain,15.0,15.0,29.39,995.8,,,,65,,,,,,,,,,,,600.0,100.0,FEW,100.0,OVC,600.0,,,,
KRDR,10-10-2021,05:56,METAR,Normal,20,22.0,30.0,020/33KTS,9999.0,Light Rain,15.3,14.7,29.39,995.8,61,,,,,,,,,,.17 IN,,1.03 IN,,,400.0,400.0,OVC,400.0,,,,,,
KRDR,10-10-2021,04:56,METAR,Normal,30,18.0,27.0,020/27KTS,6400.0,Rain,15.4,14.8,29.46,998.2,62,,,,,,,,,,.26 IN,,,,,200.0,200.0,BKN,200.0,OVC,4400.0,,,,
KRDR,10-10-2021,04:06,SPECI,Normal,30,12.0,,,4800.0,Rain/Mist,15.0,15.0,29.51,999.9,62,10,,,,,,,,,,,,,,200.0,200.0,OVC,200.0,,,,,,
KRDR,10-10-2021,03:56,METAR,Normal,30,15.0,18.0,,2400.0,Heavy Rain/Mist,15.4,14.9,29.51,999.9,63,10,,,,,,,,,.28 IN,,,,,200.0,200.0,OVC,200.0,,,,,,
KRDR,10-10-2021,03:51,SPECI,Normal,30,14.0,18.0,,3600.0,Heavy Rain/Mist,15.0,15.0,29.52,1000.3,,,,65,10,,,,,,,,,,,200.0,200.0,OVC,200.0,,,,,,
KRDR,10-10-2021,02:56,METAR,Normal,30,9.0,,,9999.0,Light Rain,15.3,14.8,29.55,,61,,,,,,,,,,.08 IN,.32 IN,,,,300.0,300.0,OVC,300.0,,,,,,
KRDR,10-10-2021,02:26,SPECI,Normal,50,10.0,,,9999.0,Light Rain,15.0,15.0,29.57,1002.0,61,,,,,,,,,,,,,,,300.0,300.0,OVC,300.0,,,,,,
KRDR,10-10-2021,01:56,METAR,Normal,50,9.0,,,9999.0,Light Rain,15.4,14.9,29.59,1002.6,61,,,,,,,,,,.12 IN,,,,,200.0,200.0,OVC,200.0,,,,,,
KRDR,10-10-2021,00:56,METAR,Normal,30,9.0,,,8000.0,Light Rain/Mist,15.3,14.8,29.61,1003.4,61,10,,,,,,,,,.12 IN,,,,,200.0,200.0,OVC,200.0,,,,,,
KRDR,10-09-2021,23:56,METAR,Normal,20,7.0,,,6400.0,Rain/Mist,14.4,13.9,29.64,1004.2,62,10,,,,,,,,,.12 IN,,.15 IN,,,200.0,200.0,OVC,200.0,,,,,,
KRDR,10-09-2021,23:10,SPECI,Normal,360,6.0,,,8000.0,Light Rain,14.0,14.0,29.66,1004.9,61,,,,,,,,,,,,,,,200.0,200.0,OVC,200.0,,,,,,
KRDR,10-09-2021,23:00,SPECI,Normal,360,7.0,,,9999.0,Light Rain,14.0,14.0,29.66,1005.1,61,,,,,,,,,,,,,,,200.0,200.0,OVC,200.0,,,,,,
KRDR,10-09-2021,22:56,METAR,Normal,360,8.0,,,9999.0,,14.3,13.8,29.66,1005.2,,,,,,,,,,,,,,,,200.0,200.0,OVC,200.0,,,,,,
KRDR,10-09-2021,21:56,METAR,Normal,30,8.0,,,9999.0,Mist,14.3,13.8,29.68,1005.6,10,,,,,,,,,,,,,,,200.0,200.0,OVC,200.0,,,,,,
KRDR,10-09-2021,20:56,METAR,Normal,20,8.0,,,9999.0,Mist,14.3,13.8,29.69,1006.2,10,,,,,,,,,,,.03 IN,,,,200.0,200.0,OVC,200.0,,,,,,
KRDR,10-09-2021,19:56,METAR,Normal,10,8.0,,,9999.0,,13.9,13.4,29.71,1006.7,,,,,,,,,,,,,,,,200.0,200.0,OVC,200.0,,,,,,
KRDR,10-09-2021,18:56,METAR,Normal,10,8.0,,,9999.0,,13.8,13.3,29.74,1007.7,,,,,,,,,,,.03 IN,,,,,300.0,300.0,OVC,300.0,,,,,,
KRDR,10-09-2021,18:39,SPECI,Normal,30,8.0,,,9999.0,,14.0,13.0,29.73,1007.5,,,,,,,,,,,,,,,,300.0,300.0,OVC,300.0,,,,,,
KRDR,10-09-2021,17:56,METAR,Normal,40,12.0,,,9999.0,Light Rain,13.1,12.6,29.74,1007.6,61,,,,,,,,,,.03 IN,,.28 IN,,,300.0,300.0,OVC,300.0,,,,,,
KRDR,10-09-2021,17:37,SPECI,Normal,40,9.0,,,9999.0,Rain,13.0,12.0,29.77,,,,,61,,,,,,,,,,,,300.0,300.0,OVC,300.0,,,,,,
KRDR,10-09-2021,17:31,SPECI,Normal,30,8.0,,,9999.0,,13.0,12.0,29.77,,,,,,,,,,,,,,,,,300.0,300.0,OVC,300.0,,,,,,
KRDR,10-09-2021,17:16,SPECI,Normal,40,10.0,,,9999.0,Light Rain,13.0,12.0,29.78,,61,,,,,,,,,,,,,,,300.0,300.0,OVC,300.0,,,,,,
KRDR,10-09-2021,17:06,SPECI,Normal,40,11.0,,,9999.0,Light Rain,13.0,12.0,29.78,,61,,,,,,,,,,,,,,,200.0,200.0,OVC,200.0,,,,,,
KRDR,10-09-2021,16:56,METAR,Normal,40,8.0,,,8000.0,Light Rain/Mist,12.5,12.0,29.79,,61,10,,,,,,,,,.25 IN,,,,,300.0,300.0,OVC,300.0,,,,,,
KRDR,10-09-2021,16:44,SPECI,Normal,30,9.0,,,4800.0,Rain/Mist,12.0,12.0,29.80,,62,10,,,,,,,,,,,,,,300.0,300.0,OVC,300.0,,,,,,
KRDR,10-09-2021,16:34,SPECI,Normal,20,8.0,,,1800.0,Heavy Rain/Mist,12.0,12.0,29.81,,63,10,,,,,,,,,,,,,Sky Obscured (Unable to Estimate),300.0,300.0,,300.0,,,,,,
KRDR,10-09-2021,16:19,SPECI,Calm,,0.0,,,600.0,Rain/Fog,12.0,11.0,29.83,,62,30,,,,,,,,,,,,,Sky Obscured (Unable to Estimate),200.0,200.0,,200.0,,,,,,
KRDR,10-09-2021,16:00,SPECI,Normal,30,8.0,,,400.0,Fog,12.0,11.0,29.81,,30,,,,,,,,,,,,,,Sky Obscured (Unable to Estimate),200.0,200.0,,200.0,,,,,,
KRDR,10-09-2021,15:56,METAR,Normal,20,9.0,,,400.0,Light Rain/Fog,11.5,11.0,29.81,,61,30,,,,,,,,,TRACE,,,,Sky Obscured (Unable to Estimate),200.0,200.0,,200.0,,,,,,
KRDR,10-09-2021,15:51,SPECI,Normal,20,8.0,,,400.0,Light Rain/Fog,12.0,11.0,29.82,,61,30,,,,,,,,,,,,,Sky Obscured (Unable to Estimate),200.0,200.0,,200.0,,,,,,
KRDR,10-09-2021,15:12,SPECI,Normal,20,9.0,,,400.0,Fog,11.0,11.0,29.83,1010.9,30,,,,,,,,,,,,,,Sky Obscured (Unable to Estimate),200.0,200.0,,200.0,,,,,,
KRDR,10-09-2021,14:56,METAR,Normal,20,8.0,,,400.0,Fog,11.2,10.7,29.83,1010.9,30,,,,,,,,,,,,,,Sky Obscured (Unable to Estimate),200.0,200.0,,200.0,,,,,,
KRDR,10-09-2021,14:31,SPECI,Normal,10,7.0,,,400.0,Fog,11.0,11.0,29.84,1011.3,30,,,,,,,,,,,,,,Sky Obscured (Unable to Estimate),200.0,200.0,,200.0,,,,,,
KRDR,10-09-2021,13:56,METAR,Normal,10,9.0,,,400.0,Fog,11.0,10.5,29.84,1011.3,30,,,,,,,,,,,,,,Sky Obscured (Unable to Estimate),200.0,200.0,,200.0,,,,,,
KRDR,10-09-2021,13:21,SPECI,Normal,10,8.0,,,400.0,Fog,11.0,11.0,29.85,1011.6,30,,,,,,,,,,,,,,Sky Obscured (Unable to Estimate),200.0,200.0,,200.0,,,,,,
KRDR,10-09-2021,12:56,METAR,Normal,10,9.0,,,400.0,Fog,11.2,10.7,29.85,1011.6,30,,,,,,,,,,,,,,Sky Obscured (Unable to Estimate),200.0,200.0,,200.0,,,,,,
KRDR,10-09-2021,12:51,SPECI,Normal,10,7.0,,,400.0,Fog,11.0,11.0,29.85,1011.6,30,,,,,,,,,,,,,,Sky Obscured (Unable to Estimate),200.0,200.0,,200.0,,,,,,
KRDR,10-09-2021,12:41,SPECI,Normal,10,9.0,,,400.0,Mist,11.0,11.0,29.85,1011.6,10,,,,,,,,,,,,,,,100.0,100.0,OVC,100.0,,,,,,
KRDR,10-09-2021,12:26,SPECI,Normal,10,7.0,,,1200.0,Mist,11.0,11.0,29.85,1011.6,10,,,,,,,,,,,,,,,200.0,200.0,OVC,200.0,,,,,,
KRDR,10-09-2021,11:56,METAR,Normal,10,9.0,,,2800.0,Mist,11.4,10.9,29.85,1011.6,10,,,,,,,,,,,,,,,100.0,100.0,OVC,100.0,,,,,,
KRDR,10-09-2021,11:26,SPECI,Normal,20,9.0,,,2400.0,Mist,11.0,11.0,29.85,1011.6,10,,,,,,,,,,,,,,,200.0,200.0,OVC,200.0,,,,,,
KRDR,10-09-2021,10:56,METAR,Normal,360,10.0,,,3200.0,Mist,11.5,11.0,29.85,1011.5,10,,,,,,,,,,,,,,,100.0,100.0,OVC,100.0,,,,,,
KRDR,10-09-2021,09:56,METAR,Normal,10,10.0,,,1600.0,Mist,11.8,11.3,29.87,1012.2,10,,,,,,,,,,,,,,,100.0,100.0,OVC,100.0,,,,,,
KRDR,10-09-2021,09:31,SPECI,Normal,10,12.0,,,2000.0,Mist,12.0,11.0,29.87,1012.2,10,,,,,,,,,,,,,,,100.0,100.0,OVC,100.0,,,,,,
KRDR,10-09-2021,08:56,METAR,Normal,10,10.0,,,1200.0,Mist,12.2,11.7,29.87,1012.2,10,,,,,,,,,,,,,,,200.0,200.0,OVC,200.0,,,,,,
KRDR,10-09-2021,08:46,SPECI,Normal,20,11.0,,,3200.0,Mist,12.0,12.0,29.88,1012.5,10,,,,,,,,,,,,,,,200.0,200.0,OVC,200.0,,,,,,
KRDR,10-09-2021,08:17,SPECI,Normal,360,8.0,,,3200.0,Mist,13.0,12.0,29.88,1012.4,,,,10,,,,,,,,,,,,100.0,100.0,OVC,100.0,,,,,,
KRDR,10-09-2021,07:26,SPECI,Normal,10,11.0,,,3600.0,Mist,13.0,12.0,29.88,1012.4,10,,,,,,,,,,,,,,,200.0,200.0,OVC,200.0,,,,,,
KRDR,10-09-2021,06:56,METAR,Normal,360,11.0,,,6400.0,Mist,12.9,12.3,29.89,1012.7,10,,,,,,,,,,,,,,,200.0,200.0,OVC,200.0,,,,,,
KRDR,10-09-2021,06:31,SPECI,Normal,360,11.0,,,6400.0,Mist,13.0,13.0,29.90,1012.9,10,,,,,,,,,,,,,,,200.0,200.0,OVC,200.0,,,,,,
KRDR,10-09-2021,06:21,SPECI,Normal,360,10.0,,,4800.0,Mist,13.0,13.0,29.90,1012.9,10,,,,,,,,,,,,,,,100.0,100.0,OVC,100.0,,,,,,
KRDR,10-09-2021,06:09,SPECI,Normal,360,9.0,,,2800.0,Mist,13.0,13.0,29.89,1012.7,,,,10,,,,,,,,,,,,100.0,100.0,OVC,100.0,,,,,,
KRDR,10-09-2021,06:01,SPECI,Normal,350,9.0,,,800.0,Fog,13.0,13.0,29.90,1013.0,30,,,,,,,,,,,,,,,200.0,200.0,OVC,200.0,,,,,,
KRDR,10-09-2021,05:56,METAR,Normal,360,9.0,,,1200.0,Mist,13.0,12.5,29.89,1012.7,10,,,,,,,,,,TRACE,,,,,200.0,200.0,OVC,200.0,,,,,,
KRDR,10-09-2021,05:52,SPECI,Normal,360,10.0,,,3600.0,Mist,13.0,13.0,29.89,1012.7,,,,10,,,,,,,,,,,,200.0,200.0,OVC,200.0,,,,,,
KRDR,10-09-2021,05:16,SPECI,Normal,360,11.0,,,4800.0,Light Drizzle/Mist,13.0,13.0,29.91,1013.3,51,10,,,,,,,,,,,,,,100.0,100.0,OVC,100.0,,,,,,
KRDR,10-09-2021,04:56,METAR,Normal,360,5.0,,,4400.0,Mist,13.0,12.5,29.92,1013.7,10,,,,,,,,,,,,,,,100.0,100.0,OVC,100.0,,,,,,
KRDR,10-09-2021,04:46,SPECI,Normal,360,7.0,,,4400.0,Mist,13.0,13.0,29.92,1013.7,10,,,,,,,,,,,,,,,100.0,100.0,OVC,100.0,,,,,,
KRDR,10-09-2021,03:56,METAR,Normal,360,8.0,,,6400.0,Mist,13.0,12.5,29.91,1013.4,10,,,,,,,,,,,,,,,200.0,200.0,OVC,200.0,,,,,,
KRDR,10-09-2021,02:25,SPECI,Normal,350,11.0,,,8000.0,Distant Lightning/Mist,13.0,12.0,29.91,1013.5,12,10,,,,,,,,,,,,,,200.0,200.0,OVC,200.0,,,,,,
KRDR,10-09-2021,01:06,SPECI,Normal,360,9.0,,,9999.0,,13.0,12.0,29.91,1013.5,,,,,,,,,,,,,,,,400.0,400.0,OVC,400.0,,,,,,
KRDR,10-09-2021,00:56,METAR,Normal,10,12.0,,,9999.0,,13.0,11.9,29.91,1013.5,,,,,,,,,,,,,,,,500.0,500.0,OVC,500.0,,,,,,
KRDR,10-09-2021,00:46,SPECI,Normal,20,10.0,,,9999.0,,13.0,12.0,29.91,1013.5,,,,,,,,,,,,,,,,500.0,500.0,OVC,500.0,,,,,,
KRDR,10-08-2021,23:56,METAR,Normal,360,13.0,,,9999.0,Distant Lightning,13.5,12.5,29.89,1012.8,12,,,,,,,,,,,,TRACE,,,400.0,400.0,OVC,400.0,,,,,,
KRDR,10-08-2021,23:06,SPECI,Normal,360,14.0,,,9999.0,Distant Lightning,14.0,13.0,29.88,1012.4,12,,,,,,,,,,,,,,,500.0,500.0,BKN,500.0,OVC,3200.0,,,,
KRDR,10-08-2021,23:03,SPECI,Normal,350,14.0,,,9999.0,Distant Lightning,15.0,13.0,29.88,1012.4,12,,,,,,,,,,,,,,,3200.0,600.0,SCT,600.0,BKN,3200.0,OVC,6000.0,,
KRDR,10-08-2021,22:56,METAR,Normal,350,12.0,,,9999.0,,14.8,13.5,29.88,1012.4,,,,,,,,,,,,,,,,3100.0,600.0,FEW,600.0,BKN,3100.0,OVC,3800.0,,
KRDR,10-08-2021,22:26,SPECI,Normal,340,8.0,,,9999.0,,15.0,14.0,29.88,1012.4,,,,,,,,,,,,,,,,3900.0,600.0,SCT,600.0,BKN,3900.0,OVC,5000.0,,
KRDR,10-08-2021,22:16,SPECI,Normal,350,10.0,,,9999.0,,15.0,14.0,29.88,1012.4,,,,,,,,,,,,,,,,600.0,600.0,BKN,600.0,OVC,4000.0,,,,
KRDR,10-08-2021,21:56,METAR,Normal,360,11.0,,,9999.0,,15.0,13.9,29.88,1012.4,,,,,,,,,,,TRACE,,,,,500.0,500.0,BKN,500.0,OVC,4000.0,,,,
KRDR,10-08-2021,21:40,SPECI,Normal,360,12.0,,,9999.0,,15.0,14.0,29.88,1012.4,,,,,,,,,,,,,,,,600.0,600.0,BKN,600.0,OVC,1000.0,,,,
KRDR,10-08-2021,21:36,SPECI,Normal,360,12.0,,,9999.0,,15.0,14.0,29.88,1012.4,,,,,,,,,,,,,,,,800.0,800.0,BKN,800.0,OVC,1200.0,,,,
KRDR,10-08-2021,21:21,SPECI,Normal,360,11.0,,,9999.0,Light Rain,15.0,13.0,29.88,1012.4,61,,,,,,,,,,,,,,,700.0,900.0,OVC,900.0,,,,,,
KRDR,10-08-2021,21:11,SPECI,Normal,360,11.0,,,9999.0,Light Rain,15.0,13.0,29.89,1012.7,61,,,,,,,,,,,,,,,700.0,700.0,OVC,700.0,,,,,,
KRDR,10-08-2021,21:06,SPECI,Normal,360,12.0,19.0,,9999.0,,15.0,13.0,29.89,1012.7,,,,,,,,,,,,,,,,700.0,700.0,OVC,700.0,,,,,,
KRDR,10-08-2021,20:56,METAR,Normal,360,15.0,21.0,,9999.0,Haze Smoke or Dust,15.3,12.8,29.89,1012.7,05,,,,,,,,,,,,,,,800.0,800.0,BKN,800.0,BKN,3500.0,,,,
KRDR,10-08-2021,20:29,SPECI,Normal,360,15.0,19.0,,6400.0,Distant Lightning/Haze Smoke or Dust,17.0,14.0,29.88,1012.3,12,05,,,,,,,,,,,,,,900.0,900.0,BKN,900.0,BKN,1500.0,BKN,3000.0,,
KRDR,10-08-2021,20:22,SPECI,Normal,340,13.0,,,6400.0,Haze Smoke or Dust,18.0,15.0,29.89,1012.6,05,,,,,,,,,,,,,,,1300.0,900.0,SCT,900.0,BKN,1300.0,BKN,3000.0,,
KRDR,10-08-2021,19:56,METAR,Normal,360,13.0,,,6400.0,Haze Smoke or Dust,18.8,14.5,29.88,1012.2,05,,,,,,,,,,,,,,,7500.0,7500.0,BKN,7500.0,BKN,9100.0,,,,
KRDR,10-08-2021,19:37,SPECI,Normal,10,13.0,,,8000.0,Mist,19.0,15.0,29.88,1012.2,10,,,,,,,,,,,,,,,9000.0,3200.0,FEW,3200.0,BKN,9100.0,BKN,14000.0,,
KRDR,10-08-2021,19:15,SPECI,Normal,10,11.0,,,8000.0,Distant Lightning/Mist,20.0,15.0,29.89,1012.5,12,10,,,,,,,,,,,,,,3000.0,2500.0,SCT,2500.0,BKN,3000.0,BKN,3500.0,BKN,8600.0
KRDR,10-08-2021,19:00,SPECI,Normal,350,13.0,,,8000.0,Dry Thunderstorm/Mist,20.0,15.0,29.89,1012.5,91,10,,,,,,,,,,,,,,2500.0,2500.0,BKN,2500.0,,,,,,
KRDR,10-08-2021,18:56,METAR,Normal,340,14.0,,,8000.0,Distant Lightning/Mist,20.3,15.3,29.89,1012.5,12,10,,,,,,,,,,,,,,2300.0,2300.0,BKN,2300.0,BKN,2800.0,,,,
KRDR,10-08-2021,18:42,SPECI,Normal,340,11.0,16.0,,8000.0,Lightning/Mist,21.0,16.0,29.89,1012.5,,,,13,10,,,,,,,,,,,2600.0,2600.0,OVC,2600.0,,,,,,
KRDR,10-08-2021,17:56,METAR,Normal,340,4.0,,,9999.0,Mist,21.5,16.2,29.91,1013.1,10,,,,,,,,,,,,,,,2200.0,2200.0,BKN,2200.0,BKN,7000.0,,,,
KRDR,10-08-2021,17:46,SPECI,Normal,20,4.0,,,9999.0,,21.0,16.0,29.90,1012.8,,,,,,,,,,,,,,,,2000.0,2000.0,BKN,2000.0,BKN,7000.0,,,,
KRDR,10-08-2021,16:56,METAR,Normal,60,3.0,,,9999.0,,20.3,15.9,29.91,1013.1,,,,,,,,,,,,,,,,,1500.0,SCT,1500.0,SCT,14000.0,,,,
KRDR,10-08-2021,16:44,SPECI,Calm,,0.0,,,9999.0,,20.0,16.0,29.92,1013.5,,,,,,,,,,,,,,,,,1500.0,FEW,1500.0,FEW,2100.0,SCT,14000.0,SCT,20000.0
KRDR,10-08-2021,16:34,SPECI,Normal,360,4.0,,,9999.0,,20.0,16.0,29.92,1013.5,,,,,,,,,,,,,,,,1400.0,1000.0,FEW,1000.0,BKN,1400.0,BKN,14000.0,,
KRDR,10-08-2021,16:16,SPECI,Normal,340,5.0,,,9999.0,,19.0,15.0,29.93,1013.8,,,,,,,,,,,,,,,,1200.0,1200.0,BKN,1200.0,BKN,4000.0,,,,
KRDR,10-08-2021,16:06,SPECI,Normal,340,7.0,,,9999.0,,19.0,16.0,29.93,1013.8,,,,,,,,,,,,,,,,1000.0,1000.0,BKN,1000.0,BKN,5000.0,,,,
KRDR,10-08-2021,15:56,METAR,Normal,360,6.0,,,9999.0,,18.1,15.2,29.93,1013.9,,,,,,,,,,,,,,,,1500.0,900.0,SCT,900.0,BKN,1500.0,BKN,5000.0,,
KRDR,10-08-2021,15:36,SPECI,Calm,,0.0,,,9999.0,Mist,18.0,16.0,29.93,1013.9,10,,,,,,,,,,,,,,,800.0,800.0,BKN,800.0,BKN,1500.0,,,,
KRDR,10-08-2021,15:06,SPECI,Calm,,0.0,,,9999.0,Mist,18.0,16.0,29.93,1013.9,10,,,,,,,,,,,,,,,700.0,700.0,BKN,700.0,BKN,1500.0,,,,
KRDR,10-08-2021,14:56,METAR,Calm,,0.0,,,9999.0,Mist,17.7,15.9,29.92,1013.5,10,,,,,,,,,,,,,,,1500.0,600.0,SCT,600.0,BKN,1500.0,BKN,15000.0,,
KRDR,10-08-2021,14:34,SPECI,Calm,,0.0,,,8000.0,Mist,17.0,16.0,29.92,1013.5,10,,,,,,,,,,,,,,,600.0,600.0,BKN,600.0,BKN,1500.0,,,,
KRDR,10-08-2021,14:14,SPECI,Calm,,0.0,,,9999.0,Mist,17.0,16.0,29.92,1013.5,10,,,,,,,,,,,,,,,700.0,700.0,BKN,700.0,BKN,15000.0,,,,
KRDR,10-08-2021,14:06,SPECI,Calm,,0.0,,,8000.0,Mist,,,,1013.5,10,,,,,,,,,,,,,,,800.0,800.0,BKN,800.0,,,,,,
KRDR,10-08-2021,14:00,SPECI,Calm,,0.0,,,8000.0,Mist,17.0,16.0,29.92,1013.5,10,,,,,,,,,,,,,,,20000.0,800.0,SCT,800.0,SCT,15000.0,BKN,20000.0,,
KRDR,10-08-2021,13:56,METAR,Calm,,0.0,,,8000.0,Mist,16.4,15.4,29.92,1013.5,10,,,,,,,,,,,,,,,800.0,800.0,BKN,800.0,BKN,15000.0,BKN,20000.0,,
KRDR,10-08-2021,13:55,SPECI,Calm,,0.0,,,8000.0,Mist,16.0,16.0,29.92,1013.5,10,,,,,,,,,,,,,,,800.0,800.0,BKN,800.0,OVC,15000.0,,,,
KRDR,10-08-2021,13:45,SPECI,Calm,,0.0,,,8000.0,Mist,16.0,15.0,29.92,1013.5,10,,,,,,,,,,,,,,,15000.0,800.0,FEW,800.0,BKN,15000.0,BKN,20000.0,,
KRDR,10-08-2021,13:41,SPECI,Calm,,0.0,,,8000.0,Mist,16.0,15.0,29.92,1013.5,10,,,,,,,,,,,,,,,15000.0,15000.0,BKN,15000.0,BKN,20000.0,,,,
KRDR,10-08-2021,12:56,METAR,Normal,140,3.0,,,9999.0,,15.4,14.8,29.91,1013.3,,,,,,,,,,,,,,,,17000.0,11000.0,SCT,11000.0,BKN,17000.0,BKN,22000.0,,
KRDR,10-08-2021,11:56,METAR,Normal,170,4.0,,,9999.0,,16.1,15.0,29.91,1013.2,,,,,,,,,,,,,TRACE,,,8000.0,8000.0,BKN,8000.0,BKN,11000.0,,,,
KRDR,10-08-2021,10:56,METAR,Normal,170,7.0,,,9999.0,,17.1,15.4,29.91,1013.1,,,,,,,,,,,,,,,,6000.0,6000.0,OVC,6000.0,,,,,,
KRDR,10-08-2021,09:56,METAR,Normal,180,6.0,,,9999.0,,17.0,15.3,29.91,1013.0,,,,,,,,,,,TRACE,,,,,6000.0,6000.0,BKN,6000.0,,,,,,
KRDR,10-08-2021,09:16,SPECI,Normal,180,6.0,,,9999.0,,17.0,15.0,29.91,1013.0,,,,,,,,,,,,,,,,10000.0,4800.0,FEW,4800.0,SCT,6000.0,SCT,8000.0,BKN,10000.0
KRDR,10-08-2021,09:07,SPECI,Normal,180,7.0,,,9999.0,Light Drizzle,18.0,15.0,29.91,1013.0,51,,,,,,,,,,,,,,,10000.0,4800.0,FEW,4800.0,FEW,8000.0,OVC,10000.0,,
KRDR,10-08-2021,08:56,METAR,Normal,200,8.0,,,9999.0,,17.7,15.3,29.91,1013.0,,,,,,,,,,,,,,,,10000.0,6000.0,FEW,6000.0,OVC,10000.0,,,,
KRDR,10-08-2021,07:56,METAR,Normal,180,9.0,,,9999.0,,18.4,15.3,29.91,1013.0,,,,,,,,,,,,,,,,6000.0,6000.0,BKN,6000.0,OVC,7500.0,,,,
KRDR,10-08-2021,06:56,METAR,Normal,190,8.0,,,9999.0,,18.8,15.3,29.91,1013.0,,,,,,,,,,,,,,,,7000.0,5500.0,FEW,5500.0,OVC,7000.0,,,,
KRDR,10-08-2021,05:56,METAR,Normal,180,10.0,,,9999.0,,19.3,15.6,29.91,1013.0,,,,,,,,,,,,,,,,7000.0,7000.0,OVC,7000.0,,,,,,
KRDR,10-08-2021,04:56,METAR,Normal,170,9.0,,,9999.0,,19.4,15.2,29.91,1013.1,,,,,,,,,,,,,,,,6500.0,6500.0,BKN,6500.0,,,,,,
KRDR,10-08-2021,03:56,METAR,Normal,170,10.0,,,9999.0,,20.5,15.3,29.92,1013.4,,,,,,,,,,,,,,,,6500.0,6500.0,OVC,6500.0,,,,,,
KRDR,10-08-2021,02:56,METAR,Normal,160,9.0,,,9999.0,,20.8,14.2,29.91,1013.2,,,,,,,,,,,,,,,,6500.0,6500.0,OVC,6500.0,,,,,,
KRDR,10-08-2021,01:56,METAR,Normal,160,9.0,,,9999.0,,21.5,12.9,29.91,1013.2,,,,,,,,,,,,,,,,6500.0,6500.0,OVC,6500.0,,,,,,
KRDR,10-08-2021,00:56,METAR,Normal,160,7.0,,,9999.0,,21.4,13.0,29.91,1013.3,,,,,,,,,,,,,,,,6000.0,6000.0,OVC,6000.0,,,,,,
KRDR,10-07-2021,23:56,METAR,Normal,160,9.0,,,9999.0,,22.6,13.1,29.90,1012.9,,,,,,,,,,,,,,,,,5000.0,FEW,5000.0,SCT,15000.0,,,,
KRDR,10-07-2021,22:56,METAR,Normal,160,11.0,,,9999.0,,24.9,13.4,29.89,1012.5,,,,,,,,,,,,,,,,18000.0,5000.0,SCT,5000.0,BKN,18000.0,,,,
KRDR,10-07-2021,21:56,METAR,Normal,170,13.0,,,9999.0,,26.1,12.9,29.89,1012.5,,,,,,,,,,,,,,,,18000.0,5000.0,SCT,5000.0,BKN,18000.0,,,,
KRDR,10-07-2021,20:56,METAR,Normal,180,12.0,20.0,170/26KTS,9999.0,,26.6,13.3,29.90,1012.8,,,,,,,,,,,,,,,,18000.0,5500.0,SCT,5500.0,BKN,18000.0,,,,
KRDR,10-07-2021,19:56,METAR,Normal,190,14.0,23.0,,9999.0,,25.8,13.6,29.91,1013.1,,,,,,,,,,,,,,,,18000.0,12000.0,FEW,12000.0,SCT,15000.0,BKN,18000.0,,
KRDR,10-07-2021,18:56,METAR,Normal,190,18.0,22.0,,9999.0,,25.3,13.8,29.92,1013.5,,,,,,,,,,,,,,,,20000.0,20000.0,BKN,20000.0,,,,,,
KRDR,10-07-2021,17:56,METAR,Normal,190,15.0,21.0,,9999.0,,24.7,13.9,29.94,1014.2,,,,,,,,,,,,,,,,,20000.0,SCT,20000.0,,,,,,
KRDR,10-07-2021,16:56,METAR,Normal,180,14.0,,,9999.0,,22.5,14.1,29.96,1014.9,,,,,,,,,,,,,,,Clear,72000.0,,,,,,,,,
KRDR,10-07-2021,15:56,METAR,Normal,180,14.0,,,9999.0,,20.3,13.7,29.96,1014.9,,,,,,,,,,,,,,,Clear,72000.0,,,,,,,,,
KRDR,10-07-2021,14:56,METAR,Normal,180,15.0,,,9999.0,,17.7,13.2,29.96,1014.9,,,,,,,,,,,,,,,Clear,72000.0,,,,,,,,,
KRDR,10-07-2021,13:56,METAR,Normal,170,10.0,,,9999.0,,15.1,12.8,29.96,1015.0,,,,,,,,,,,,,,,Clear,72000.0,,,,,,,,,
KRDR,10-07-2021,12:56,METAR,Normal,160,9.0,,,9999.0,,13.4,12.1,29.96,1015.0,,,,,,,,,,,,,,,Clear,72000.0,,,,,,,,,
KRDR,10-07-2021,11:56,METAR,Normal,170,10.0,,,9999.0,,13.4,12.0,29.97,1015.3,,,,,,,,,,,,,,,Clear,72000.0,,,,,,,,,
KRDR,10-07-2021,10:56,METAR,Normal,160,8.0,,,9999.0,,13.7,11.7,29.98,1015.6,,,,,,,,,,,,,,,Clear,72000.0,,,,,,,,,
KRDR,10-07-2021,09:56,METAR,Normal,160,8.0,,,9999.0,,14.0,11.9,29.98,1015.5,,,,,,,,,,,,,,,Clear,72000.0,,,,,,,,,
KRDR,10-07-2021,08:56,METAR,Normal,170,7.0,,,9999.0,,13.4,11.3,29.98,1015.5,,,,,,,,,,,,,,,Clear,72000.0,,,,,,,,,
KRDR,10-07-2021,07:56,METAR,Normal,160,8.0,,,9999.0,,13.6,11.1,29.99,1015.8,,,,,,,,,,,,,,,Clear,72000.0,,,,,,,,,
KRDR,10-07-2021,06:56,METAR,Normal,170,8.0,,,9999.0,,14.7,11.3,30.00,1016.2,,,,,,,,,,,,,,,Clear,72000.0,,,,,,,,,
KRDR,10-07-2021,05:56,METAR,Normal,160,10.0,,,9999.0,,15.5,11.5,30.00,1016.2,,,,,,,,,,,,,,,Clear,72000.0,,,,,,,,,
KRDR,10-07-2021,04:56,METAR,Normal,160,10.0,,,9999.0,,16.5,11.6,30.00,,,,,,,,,,,,,,,,Clear,72000.0,,,,,,,,,
KRDR,10-07-2021,03:56,METAR,Normal,170,12.0,,,9999.0,,18.0,12.0,29.99,1015.9,,,,,,,,,,,,,,,Clear,72000.0,,,,,,,,,
KRDR,10-07-2021,02:56,METAR,Normal,160,14.0,,,9999.0,,19.2,12.2,29.99,1016.0,,,,,,,,,,,,,,,Clear,72000.0,,,,,,,,,
KRDR,10-07-2021,01:56,METAR,Normal,160,13.0,,,9999.0,,19.8,12.5,29.99,1016.0,,,,,,,,,,,,,,,Clear,72000.0,,,,,,,,,
KRDR,10-07-2021,00:56,METAR,Normal,150,10.0,,,9999.0,,21.1,12.8,29.99,1016.1,,,,,,,,,,,,,,,Clear,72000.0,,,,,,,,,
