Platform Id,Date,Time (UTC),Report Type,Wind Condition,Wind Direction,Wind Speed (Knots),Wind Gust Speed,Peak Wind (Knots),Visibility (M),Weather,Air Temp (C),Dew Point (C),Altimeter (inHg),SLP (Millibars),Present Automated 1,Present Automated 2,Present Automated 3,Present Manual 1,Present Manual 2,Present Manual 3,Present Manual 4,Present Manual 5,Present Manual 6,Present Manual 7,Precip Hr1,Precip Hr3,Precip Hr6,Precip Hr24,Cloud Cover,Cloud Ceiling (Feet),Lowest Cloud Base Height (Feet),Cloud Cover1,Cloudbase 1,Cloud Cover2,Cloudbase 2,Cloud Cover3,Cloudbase 3,Cloud Cover4,Cloudbase 4
KRDR,11-27-2007,23:00,METAR,,100,6,,,9999,,-17.0,-21.0,30.21,1023.5,,,,,,,,,,,,,,,8/8 Overcast,11000.0,,FEW,3600.0,SCT,6400.0,BKN,11000.0,OVC,20000.0
KRDR,11-27-2007,22:00,METAR,,130,7,,,9999,,-17.0,-21.0,30.21,1023.6,,,,,,,,,,,,,,,8/8 Overcast,20000.0,,FEW,5900.0,SCT,8900.0,OVC,20000.0,,
KRDR,11-27-2007,21:00,METAR,,130,7,,,9999,,-18.0,-22.0,30.25,1024.8,,,,,,,,,,,,,,,8/8 Overcast,12000.0,,FEW,6400.0,OVC,12000.0,,,,
KRDR,11-27-2007,20:00,METAR,,110,6,,,9999,,-18.0,-22.0,30.26,1025.1,,,,,,,,,,,,,,,8/8 Overcast,12000.0,,SCT,5900.0,BKN,12000.0,OVC,20000.0,,
KRDR,11-27-2007,19:00,METAR,,160,11,,,9999,,-18.0,-22.0,30.31,1026.8,,,,,,,,,,,,,,,8/8 Overcast,12000.0,,SCT,6900.0,BKN,12000.0,OVC,20000.0,,
KRDR,11-27-2007,18:00,METAR,,140,8,,,9999,,-18.0,-24.0,30.31,1027.1,,,,,,,,,,,,,,,8/8 Overcast,20000.0,,FEW,7900.0,SCT,12000.0,OVC,20000.0,,
KRDR,11-27-2007,17:00,METAR,,140,6,,,9999,,-19.0,-24.0,30.37,1028.8,,,,,,,,,,,,,,,7/8 Mostly Cloudy,20000.0,,SCT,12000.0,BKN,20000.0,,,,
KRDR,11-27-2007,16:00,METAR,,,0,,,9999,,-20.0,-25.0,30.36,1028.7,,,,,,,,,,,,,,,7/8 Mostly Cloudy,20000.0,,SCT,12000.0,BKN,20000.0,,,,
KRDR,11-27-2007,15:00,METAR,,,0,,,9999,,-21.0,-26.0,30.39,1029.5,,,,,,,,,,,,,,,7/8 Mostly Cloudy,12000.0,,BKN,12000.0,BKN,25000.0,,,,
KRDR,11-27-2007,14:00,METAR,,280,4,,,9999,,-24.0,-28.0,30.39,1029.5,,,,,,,,,,,,,,,4/8 Partly Cloudy,72000.0,,FEW,12000.0,SCT,25000.0,,,,
KRDR,11-27-2007,13:00,METAR,,310,4,,,9999,,-23.0,-27.0,30.37,1029.0,,,,,,,,,,,TRACE,,,,Clear,72000.0,,,73000.0,,,,,,
KRDR,11-27-2007,12:00,METAR,,280,6,,,9999,,-23.0,-27.0,30.40,1029.9,,,,,,,,,,,TRACE,,,.08 IN,Clear,72000.0,,,73000.0,,,,,,
KRDR,11-27-2007,11:00,METAR,,290,7,,,9999,,-23.0,-27.0,30.39,1029.5,,,,,,,,,,,TRACE,,,,Clear,72000.0,,,73000.0,,,,,,
KRDR,11-27-2007,10:00,METAR,,300,7,,,9999,,-23.0,-26.0,30.37,1028.9,,,,,,,,,,,TRACE,,,,Clear,72000.0,,,73000.0,,,,,,
KRDR,11-27-2007,09:00,METAR,,310,6,,,9999,,-22.0,-26.0,30.35,1028.3,,,,,,,,,,,TRACE,TRACE,,,Clear,72000.0,,,73000.0,,,,,,
KRDR,11-27-2007,08:00,METAR,,330,8,,,9999,,-21.0,-25.0,30.32,1027.2,,,,,,,,,,,TRACE,,,,Clear,72000.0,,,73000.0,,,,,,
KRDR,11-27-2007,07:00,METAR,,320,9,,,9999,,-20.0,-25.0,30.31,1027.0,,,,,,,,,,,TRACE,,,,Clear,72000.0,,,73000.0,,,,,,
KRDR,11-27-2007,06:00,METAR,,320,13,,,9999,,-20.0,-24.0,30.29,1026.4,,,,,,,,,,,TRACE,,.01 IN,,2/8 Mostly Clear,72000.0,,FEW,1200.0,,,,,,
KRDR,11-27-2007,05:00,METAR,,320,13,,,9999,,-19.0,-23.0,30.27,1025.5,,,,,,,,,,,,,,,Clear,72000.0,,,73000.0,,,,,,
KRDR,11-27-2007,04:00,METAR,,330,15,,,9999,,-17.0,-23.0,30.24,1024.5,,,,,,,,,,,,,,,Clear,72000.0,,,73000.0,,,,,,
KRDR,11-27-2007,03:00,METAR,,330,13,22.0,330/26KTS,9999,,-17.0,-22.0,30.20,1023.4,,,,,,,,,,,TRACE,TRACE,,,4/8 Partly Cloudy,72000.0,,SCT,1400.0,,,,,,
KRDR,11-27-2007,02:00,METAR,,330,22,28.0,330/28KTS,9999,Blowing Snow,-16.0,-20.0,30.15,1021.7,,,,38,,,,,,,TRACE,,,,4/8 Partly Cloudy,72000.0,,SCT,1200.0,,,,,,
KRDR,11-27-2007,01:33,SPECI,,330,18,25.0,,9999,,-15.0,-19.0,30.14,,,,,,,,,,,,,,,,2/8 Mostly Clear,72000.0,,FEW,1200.0,,,,,,
KRDR,11-27-2007,01:21,SPECI,,330,17,28.0,330/28KTS,9999,Light Snow/Blowing Snow,-15.0,-18.0,30.13,1021.0,,,,71,38,,,,,,,,,,8/8 Overcast,1100.0,,FEW,300.0,OVC,1100.0,,,,
KRDR,11-27-2007,01:20,METAR,,330,17,28.0,,9999,Light Snow,-15.0,-18.0,30.13,,,,,71,,,,,,,,,,,8/8 Overcast,1100.0,,OVC,1100.0,,,,,,
KRDR,11-27-2007,01:07,SPECI,,330,20,28.0,330/28KTS,9999,Light Snow,-14.0,-17.0,30.12,1020.6,,,,71,,,,,,,,,,,8/8 Overcast,300.0,,OVC,1000.0,,,,,,
KRDR,11-27-2007,01:04,SPECI,,330,21,28.0,330/28KTS,9999,Light Snow,-14.0,-17.0,30.12,1020.5,,,,71,,,,,,,,,,,8/8 Overcast,300.0,,OVC,900.0,,,,,,
KRDR,11-27-2007,01:00,METAR,,330,22,29.0,350/29KTS,9999,Light Snow,-13.0,-17.0,30.10,1020.1,,,,71,,,,,,,TRACE,,,,8/8 Overcast,200.0,,OVC,700.0,,,,,,
KRDR,11-27-2007,00:43,SPECI,,330,17,27.0,350/29KTS,6400,Light Snow/Blowing Snow,-13.0,-16.0,30.10,1020.0,,,,71,38,,,,,,,,,,8/8 Overcast,1100.0,,SCT,200.0,OVC,1100.0,,,,
KRDR,11-27-2007,00:22,SPECI,,340,17,25.0,350/29KTS,800,Light Snow,-13.0,-15.0,30.09,1019.6,,,,71,,,,,,,,,,,7/8 Mostly Cloudy,100.0,,BKN,500.0,,,,,,
KRDR,11-27-2007,00:13,SPECI,,340,21,27.0,350/29KTS,4800,Light Snow,-13.0,-15.0,30.08,1019.4,,,,71,,,,,,,,,,,7/8 Mostly Cloudy,100.0,,BKN,500.0,,,,,,
KRDR,11-27-2007,00:00,METAR,,340,23,32.0,350/37KTS,800,Light Snow/Blowing Snow,-12.0,-14.0,30.06,1018.7,,,,71,38,,,,,,.5 IN,,.75 IN,,Sky Obscured (Unable to Estimate),700.0,100.0,,700.0,,,,,,
KRDR,11-26-2007,23:24,SPECI,,340,22,32.0,,800,Light Snow/Mist,-11.0,-14.0,30.04,,,,,71,10,,,,,,,,,,7/8 Mostly Cloudy,300.0,,BKN,300.0,,,,,,
KRDR,11-26-2007,23:07,SPECI,,340,29,37.0,350/37KTS,300,Snow/Blowing Snow,-9.0,-11.0,30.02,,,,,73,38,,,,,,,,,,7/8 Mostly Cloudy,300.0,,BKN,300.0,,,,,,
KRDR,11-26-2007,23:00,METAR,,340,27,34.0,340/34KTS,400,Snow,-7.0,-8.0,29.99,1016.4,,,,73,,,,,,,.25 IN,,,,Sky Obscured (Unable to Estimate),900.0,100.0,,900.0,,,,,,
KRDR,11-26-2007,22:30,METAR,,330,20,26.0,340/26KTS,400,Snow,-4.0,-6.0,29.98,,,,,73,,,,,,,,,,,Sky Obscured (Unable to Estimate),1300.0,100.0,,1300.0,,,,,,
KRDR,11-26-2007,22:00,METAR,,290,9,,,800,Light Snow,-3.0,-7.0,29.96,1015.3,,,,71,,,,,,,TRACE,,,,8/8 Overcast,1500.0,,OVC,1500.0,,,,,,
KRDR,11-26-2007,21:48,SPECI,,280,9,,,2000,Light Snow,-3.0,-7.0,29.96,,,,,71,,,,,,,,,,,8/8 Overcast,1500.0,,OVC,1500.0,,,,,,
KRDR,11-26-2007,21:35,SPECI,,260,12,,,2400,Light Snow,-3.0,-7.0,29.96,,,,,71,,,,,,,,,,,8/8 Overcast,1500.0,,OVC,1500.0,,,,,,
KRDR,11-26-2007,21:26,SPECI,,240,12,,,1600,Light Snow,-2.0,-8.0,29.96,,,,,71,,,,,,,,,,,2/8 Mostly Clear,72000.0,,FEW,1500.0,,,,,,
KRDR,11-26-2007,21:10,SPECI,,230,16,20.0,,2400,Light Snow,-2.0,-9.0,29.96,,,,,71,,,,,,,,,,,8/8 Overcast,2900.0,,FEW,1500.0,OVC,2900.0,,,,
KRDR,11-26-2007,21:00,METAR,,200,12,,,9999,,-2.0,-9.0,29.96,1015.3,,,,,,,,,,,,,,,7/8 Mostly Cloudy,3000.0,,FEW,1500.0,BKN,3000.0,BKN,20000.0,,
KRDR,11-26-2007,20:00,METAR,,200,14,,,9999,,-3.0,-10.0,30.01,1016.9,,,,,,,,,,,,,,,7/8 Mostly Cloudy,20000.0,,SCT,2500.0,BKN,20000.0,,,,
KRDR,11-26-2007,19:00,METAR,,210,9,,,9999,,-4.0,-10.0,30.07,1019.1,,,,,,,,,,,,,,,7/8 Mostly Cloudy,20000.0,,SCT,2300.0,BKN,20000.0,,,,
KRDR,11-26-2007,18:00,METAR,,210,6,,,9999,,-6.0,-11.0,30.12,1020.6,,,,,,,,,,,TRACE,,TRACE,,8/8 Overcast,2000.0,,OVC,2000.0,,,,,,
KRDR,11-26-2007,17:00,METAR,,290,2,,,9999,Light Snow,-7.0,-12.0,30.15,1021.6,,,,71,,,,,,,,,,,8/8 Overcast,2200.0,,OVC,2200.0,,,,,,
KRDR,11-26-2007,16:00,METAR,,,0,,,9999,Light Snow,-8.0,-13.0,30.14,1021.4,,,,71,,,,,,,,,,,8/8 Overcast,2400.0,,OVC,2400.0,,,,,,
KRDR,11-26-2007,15:00,METAR,,30,4,,,9999,Light Snow,-9.0,-13.0,30.14,1021.5,,,,71,,,,,,,,,,,7/8 Mostly Cloudy,2400.0,,SCT,1400.0,BKN,2400.0,BKN,20000.0,,
KRDR,11-26-2007,14:00,METAR,,360,5,,,9999,Light Snow,-9.0,-13.0,30.15,1021.6,,,,71,,,,,,,,,,,8/8 Overcast,2900.0,,OVC,2900.0,,,,,,
KRDR,11-26-2007,13:34,SPECI,,10,4,,,9999,Light Snow,-9.0,-13.0,30.15,,,,,71,,,,,,,,,,,8/8 Overcast,3000.0,,OVC,3000.0,,,,,,
KRDR,11-26-2007,13:00,METAR,,30,5,,,9999,,-9.0,-13.0,30.15,1021.6,,,,,,,,,,,,,,,8/8 Overcast,3000.0,,OVC,3000.0,,,,,,
KRDR,11-26-2007,12:00,METAR,,20,7,,,9999,,-8.0,-12.0,30.14,1021.4,,,,,,,,,,,,,,,8/8 Overcast,3000.0,,OVC,3000.0,,,,,,
KRDR,11-26-2007,11:47,SPECI,,20,7,,,9999,,-8.0,-12.0,30.14,1021.4,,,,,,,,,,,,,,,8/8 Overcast,3000.0,,OVC,3000.0,,,,,,
KRDR,11-26-2007,11:37,SPECI,,350,5,,,9999,,-8.0,-12.0,30.14,1021.4,,,,,,,,,,,,,,,8/8 Overcast,2900.0,,OVC,2900.0,,,,,,
KRDR,11-26-2007,11:00,METAR,,,6,,,9999,,-8.0,-12.0,30.12,1020.8,,,,,,,,,,,,,,,8/8 Overcast,3600.0,,OVC,3700.0,,,,,,
KRDR,11-26-2007,10:00,METAR,,350,7,,,9999,,-8.0,-12.0,30.11,1020.2,,,,,,,,,,,,,,,8/8 Overcast,4300.0,,OVC,4400.0,,,,,,
KRDR,11-26-2007,09:00,METAR,,330,11,,,9999,,-7.0,-12.0,30.10,1020.0,,,,,,,,,,,,,,,8/8 Overcast,4600.0,,OVC,4700.0,,,,,,
KRDR,11-26-2007,08:00,METAR,,350,9,,,9999,,-7.0,-10.0,30.07,1019.2,,,,,,,,,,,,,,,7/8 Mostly Cloudy,4600.0,,BKN,4700.0,,,,,,
KRDR,11-26-2007,07:38,SPECI,,350,9,,,9999,,-7.0,-10.0,30.07,1018.9,,,,,,,,,,,,,,,4/8 Partly Cloudy,72000.0,,SCT,1600.0,,,,,,
KRDR,11-26-2007,07:00,METAR,,330,14,,,9999,,-5.0,-9.0,30.06,1018.8,,,,,,,,,,,,,,,8/8 Overcast,1600.0,,OVC,1600.0,,,,,,
KRDR,11-26-2007,06:00,METAR,,330,11,,,9999,,-5.0,-9.0,30.03,1017.7,,,,,,,,,,,,,TRACE,,8/8 Overcast,1500.0,,OVC,1500.0,,,,,,
KRDR,11-26-2007,05:18,SPECI,,350,8,,,9999,,-5.0,-8.0,30.02,1017.5,,,,,,,,,,,,,,,8/8 Overcast,1500.0,,OVC,1500.0,,,,,,
KRDR,11-26-2007,05:00,METAR,,350,10,,,9999,,-5.0,-8.0,30.02,1017.3,,,,,,,,,,,,,,,8/8 Overcast,1300.0,,OVC,1300.0,,,,,,
KRDR,11-26-2007,04:41,SPECI,,350,15,21.0,,9999,,-5.0,-8.0,30.01,1017.1,,,,,,,,,,,,,,,8/8 Overcast,900.0,,OVC,1400.0,,,,,,
KRDR,11-26-2007,04:00,METAR,,350,15,,,9999,,-4.0,-7.0,29.98,1016.0,,,,,,,,,,,,,,,8/8 Overcast,1700.0,,OVC,1700.0,,,,,,
KRDR,11-26-2007,03:37,SPECI,,340,14,18.0,,9999,,-3.0,-6.0,29.97,1015.7,,,,,,,,,,,,,,,8/8 Overcast,1100.0,,OVC,1600.0,,,,,,
KRDR,11-26-2007,03:21,SPECI,,360,14,,,9999,,-3.0,-6.0,29.97,1015.7,,,,,,,,,,,,,,,8/8 Overcast,1400.0,,OVC,1400.0,,,,,,
KRDR,11-26-2007,03:00,METAR,,350,14,,,9999,,-3.0,-6.0,29.95,1015.0,,,,,,,,,,,,TRACE,,,8/8 Overcast,1600.0,,OVC,1600.0,,,,,,
KRDR,11-26-2007,02:17,SPECI,,360,12,,,9999,,-2.0,-5.0,29.93,1014.3,,,,,,,,,,,,,,,8/8 Overcast,1700.0,,OVC,2900.0,,,,,,
KRDR,11-26-2007,02:00,METAR,,10,12,,,9999,,-2.0,-5.0,29.91,1013.9,,,,,,,,,,,,,,,8/8 Overcast,2600.0,,OVC,3600.0,,,,,,
KRDR,11-26-2007,01:00,METAR,,350,12,,,9999,,0.0,-4.0,29.88,1012.8,,,,,,,,,,,TRACE,,,,8/8 Overcast,4300.0,,OVC,4400.0,,,,,,
KRDR,11-26-2007,00:00,METAR,,340,13,,,9999,Light Rain,2.0,-3.0,29.85,1011.6,61,,,,,,,,,,TRACE,,TRACE,,8/8 Overcast,2200.0,,OVC,2200.0,,,,,,
KRDR,11-25-2007,23:22,SPECI,,330,11,,,9999,,2.0,-2.0,29.83,1011.0,,,,,,,,,,,,,,,8/8 Overcast,2100.0,,OVC,2900.0,,,,,,
KRDR,11-25-2007,23:14,SPECI,,330,12,18.0,,9999,,2.0,-2.0,29.82,1010.7,,,,,,,,,,,,,,,8/8 Overcast,3200.0,,OVC,3300.0,,,,,,
KRDR,11-25-2007,23:08,SPECI,,320,14,18.0,,9999,,2.0,-2.0,29.81,1010.6,,,,,,,,,,,,,,,8/8 Overcast,2400.0,,BKN,2400.0,OVC,5000.0,,,,
KRDR,11-25-2007,23:00,METAR,,330,12,20.0,,9999,,3.0,-2.0,29.80,1010.2,,,,,,,,,,,,,,,8/8 Overcast,4100.0,,OVC,4200.0,,,,,,
KRDR,11-25-2007,22:00,METAR,,320,15,22.0,,9999,,3.0,-2.0,29.75,1008.6,,,,,,,,,,,,,,,8/8 Overcast,3700.0,,OVC,3800.0,,,,,,
KRDR,11-25-2007,21:42,SPECI,,320,17,,,9999,,3.0,-2.0,29.75,1008.4,,,,,,,,,,,,,,,8/8 Overcast,3000.0,,OVC,3000.0,,,,,,
KRDR,11-25-2007,21:03,SPECI,,320,15,,,9999,,3.0,-2.0,29.72,1007.4,,,,,,,,,,,,,,,8/8 Overcast,2900.0,,OVC,2900.0,,,,,,
KRDR,11-25-2007,21:00,METAR,,310,23,28.0,300/30KTS,9999,,4.0,-2.0,29.71,1007.0,,,,,,,,,,,,,,,8/8 Overcast,3200.0,,FEW,2500.0,OVC,3300.0,,,,
KRDR,11-25-2007,20:30,METAR,,320,19,29.0,300/30KTS,9999,,4.0,-2.0,29.69,1006.5,,,,,,,,,,,,,,,8/8 Overcast,3100.0,,OVC,3100.0,,,,,,
KRDR,11-25-2007,20:24,SPECI,,310,23,29.0,300/30KTS,9999,,4.0,-2.0,29.69,1006.4,,,,,,,,,,,,,,,8/8 Overcast,2900.0,,OVC,2900.0,,,,,,
KRDR,11-25-2007,20:00,METAR,,320,19,26.0,310/26KTS,9999,,5.0,-4.0,29.65,1005.3,,,,,,,,,,,,,,,4/8 Partly Cloudy,72000.0,,SCT,3300.0,,,,,,
KRDR,11-25-2007,19:00,METAR,,300,18,22.0,,9999,,5.0,-3.0,29.61,1003.9,,,,,,,,,,,,,,,2/8 Mostly Clear,72000.0,,FEW,9900.0,,,,,,
KRDR,11-25-2007,18:00,METAR,,290,15,,,9999,,5.0,-4.0,29.58,1003.0,,,,,,,,,,,,,,,4/8 Partly Cloudy,72000.0,,SCT,11000.0,,,,,,
KRDR,11-25-2007,17:00,METAR,,280,11,,,9999,,4.0,-4.0,29.58,1002.8,,,,,,,,,,,,,,,2/8 Mostly Clear,72000.0,,FEW,12000.0,,,,,,
KRDR,11-25-2007,16:00,METAR,,220,4,,,9999,,1.0,-4.0,29.57,1002.5,,,,,,,,,,,,,,,2/8 Mostly Clear,72000.0,,FEW,12000.0,,,,,,
KRDR,11-25-2007,15:00,METAR,,190,6,,,9999,,-1.0,-5.0,29.57,1002.5,,,,,,,,,,,,,,,2/8 Mostly Clear,72000.0,,FEW,11000.0,,,,,,
KRDR,11-25-2007,14:00,METAR,,230,6,,,9999,,0.0,-5.0,29.58,1002.8,,,,,,,,,,,,,,,Clear,72000.0,,,73000.0,,,,,,
KRDR,11-25-2007,13:00,METAR,,200,6,,,9999,,0.0,-5.0,29.59,1003.2,,,,,,,,,,,,,,,4/8 Partly Cloudy,72000.0,,SCT,8400.0,,,,,,
KRDR,11-25-2007,12:00,METAR,,220,4,,,9999,,0.0,-5.0,29.60,1003.5,,,,,,,,,,,,,,,Clear,72000.0,,,73000.0,,,,,,
KRDR,11-25-2007,11:00,METAR,,210,5,,,9999,,-1.0,-5.0,29.61,1003.9,,,,,,,,,,,,,,,2/8 Mostly Clear,72000.0,,FEW,11000.0,,,,,,
KRDR,11-25-2007,10:00,METAR,,250,7,,,9999,,-1.0,-5.0,29.63,1004.6,,,,,,,,,,,,,,,2/8 Mostly Clear,72000.0,,FEW,11000.0,,,,,,
KRDR,11-25-2007,09:00,METAR,,240,7,,,9999,,-1.0,-5.0,29.63,1004.7,,,,,,,,,,,,,,,Clear,72000.0,,,73000.0,,,,,,
KRDR,11-25-2007,08:00,METAR,,240,8,,,9999,,-1.0,-5.0,29.64,1004.7,,,,,,,,,,,,,,,Clear,72000.0,,,73000.0,,,,,,
KRDR,11-25-2007,07:00,METAR,,230,7,,,9999,,-2.0,-6.0,29.64,1005.0,,,,,,,,,,,,,,,Clear,72000.0,,,73000.0,,,,,,
KRDR,11-25-2007,06:00,METAR,,220,6,,,9999,,-2.0,-6.0,29.67,1005.7,,,,,,,,,,,,,,,Clear,72000.0,,,73000.0,,,,,,
KRDR,11-25-2007,05:00,METAR,,200,9,,,9999,,-1.0,-6.0,29.68,1006.1,,,,,,,,,,,,,,,Clear,72000.0,,,73000.0,,,,,,
KRDR,11-25-2007,04:00,METAR,,200,8,,,9999,,0.0,-5.0,29.68,1006.2,,,,,,,,,,,,,,,Clear,72000.0,,,73000.0,,,,,,
KRDR,11-25-2007,03:00,METAR,,200,9,,,9999,,0.0,-5.0,29.71,1007.1,,,,,,,,,,,,,,,7/8 Mostly Cloudy,11000.0,,BKN,11000.0,,,,,,
KRDR,11-25-2007,02:00,METAR,,210,8,,,9999,,0.0,-5.0,29.73,1007.7,,,,,,,,,,,,,,,4/8 Partly Cloudy,72000.0,,SCT,11000.0,,,,,,
KRDR,11-25-2007,01:00,METAR,,200,6,,,9999,,1.0,-5.0,29.73,1008.0,,,,,,,,,,,,,,,7/8 Mostly Cloudy,8500.0,,FEW,6400.0,BKN,8400.0,,,,
KRDR,11-25-2007,00:00,METAR,,230,7,,,9999,,1.0,-5.0,29.75,1008.5,,,,,,,,,,,,,,,8/8 Overcast,10000.0,,OVC,9900.0,,,,,,
KRDR,11-24-2007,23:00,METAR,,230,8,,,9999,,3.0,-5.0,29.75,1008.6,,,,,,,,,,,,,,,2/8 Mostly Clear,72000.0,,FEW,11000.0,,,,,,
KRDR,11-24-2007,22:00,METAR,,220,9,,,9999,,4.0,-4.0,29.76,1008.6,,,,,,,,,,,,,,,2/8 Mostly Clear,72000.0,,FEW,11000.0,,,,,,
KRDR,11-24-2007,21:00,METAR,,220,13,,,9999,,5.0,-4.0,29.75,1008.4,,,,,,,,,,,,,,,Clear,72000.0,,,73000.0,,,,,,
KRDR,11-24-2007,20:00,METAR,,220,12,,,9999,,4.0,-4.0,29.77,1009.2,,,,,,,,,,,,,,,8/8 Overcast,11000.0,,OVC,11000.0,,,,,,
KRDR,11-24-2007,19:00,METAR,,230,15,,,9999,,2.0,-4.0,29.80,1010.0,,,,,,,,,,,,,,,Clear,72000.0,,,73000.0,,,,,,
KRDR,11-24-2007,18:00,METAR,,230,13,,,9999,,1.0,-5.0,29.83,1011.0,,,,,,,,,,,,,,,Clear,72000.0,,,73000.0,,,,,,
KRDR,11-24-2007,17:00,METAR,,230,14,,,9999,,-1.0,-5.0,29.85,1011.9,,,,,,,,,,,,,,,7/8 Mostly Cloudy,25000.0,,FEW,1500.0,BKN,25000.0,,,,
KRDR,11-24-2007,16:00,METAR,,230,12,,,9999,,-2.0,-6.0,29.87,1012.5,,,,,,,,,,,,,,,8/8 Overcast,1500.0,,BKN,1500.0,OVC,25000.0,,,,
KRDR,11-24-2007,15:00,METAR,,230,9,,,9999,,-4.0,-7.0,29.89,1013.2,,,,,,,,,,,,,,,8/8 Overcast,1800.0,,OVC,1800.0,,,,,,
KRDR,11-24-2007,14:36,SPECI,,230,9,,,9999,,-4.0,-7.0,29.90,,,,,,,,,,,,,,,,8/8 Overcast,1500.0,,OVC,1500.0,,,,,,
KRDR,11-24-2007,14:00,METAR,,230,9,,,9999,,-5.0,-8.0,29.91,1013.7,,,,,,,,,,,,,,,8/8 Overcast,1300.0,,OVC,1300.0,,,,,,
KRDR,11-24-2007,13:00,METAR,,240,11,17.0,,9999,,-5.0,-8.0,29.92,1014.1,,,,,,,,,,,,,,,8/8 Overcast,1300.0,,OVC,1300.0,,,,,,
KRDR,11-24-2007,12:00,METAR,,270,7,,,9999,,-6.0,-10.0,29.96,1015.3,,,,,,,,,,,TRACE,,TRACE,,8/8 Overcast,1400.0,,OVC,1400.0,,,,,,
KRDR,11-24-2007,11:34,SPECI,,270,11,20.0,,9999,,-7.0,-10.0,29.96,1015.4,,,,,,,,,,,,,,,8/8 Overcast,1400.0,,OVC,1400.0,,,,,,
KRDR,11-24-2007,11:31,SPECI,,260,14,20.0,,9999,,-6.0,-10.0,29.96,1015.5,,,,,,,,,,,,,,,8/8 Overcast,1500.0,,OVC,1500.0,,,,,,
KRDR,11-24-2007,11:26,SPECI,,260,15,20.0,,9999,,-6.0,-10.0,29.97,1015.6,,,,,,,,,,,,,,,8/8 Overcast,1400.0,,OVC,1400.0,,,,,,
KRDR,11-24-2007,11:20,METAR,,250,15,,,9999,Light Snow,-6.0,-10.0,29.97,1015.7,71,,,,,,,,,,,,,,8/8 Overcast,1400.0,,OVC,1400.0,,,,,,
KRDR,11-24-2007,11:17,SPECI,,260,12,,,9999,Light Snow,-6.0,-10.0,29.97,1015.9,71,,,,,,,,,,,,,,8/8 Overcast,1500.0,,OVC,1500.0,,,,,,
KRDR,11-24-2007,11:00,METAR,,280,11,,,9999,,-6.0,-10.0,29.99,1016.5,,,,,,,,,,,,,,,8/8 Overcast,1500.0,,OVC,1500.0,,,,,,
KRDR,11-24-2007,10:00,METAR,,260,15,,,9999,,-6.0,-10.0,29.99,1016.3,,,,,,,,,,,,,,,8/8 Overcast,1500.0,,OVC,1500.0,,,,,,
KRDR,11-24-2007,09:00,METAR,,260,14,,,9999,,-6.0,-10.0,30.01,1017.1,,,,,,,,,,,,,,,8/8 Overcast,1600.0,,OVC,1600.0,,,,,,
KRDR,11-24-2007,08:00,METAR,,240,6,,,9999,,-5.0,-9.0,30.01,1017.2,,,,,,,,,,,,,,,8/8 Overcast,1900.0,,OVC,1900.0,,,,,,
KRDR,11-24-2007,07:00,METAR,,280,3,,,9999,,-6.0,-9.0,30.02,1017.5,,,,,,,,,,,,,,,8/8 Overcast,2000.0,,OVC,2000.0,,,,,,
KRDR,11-24-2007,06:00,METAR,,300,5,,,9999,,-6.0,-9.0,30.04,1018.2,,,,,,,,,,,,,TRACE,,8/8 Overcast,1900.0,,OVC,1900.0,,,,,,
KRDR,11-24-2007,05:00,METAR,,320,3,,,9999,,-6.0,-9.0,30.05,1018.5,,,,,,,,,,,TRACE,,,,8/8 Overcast,2000.0,,OVC,2000.0,,,,,,
KRDR,11-24-2007,04:09,SPECI,,350,5,,,9999,,-6.0,-9.0,30.06,1018.7,,,,,,,,,,,,,,,8/8 Overcast,2000.0,,OVC,2000.0,,,,,,
KRDR,11-24-2007,04:00,METAR,,350,6,,,9999,,-6.0,-9.0,30.06,1018.6,,,,,,,,,,,TRACE,,,,8/8 Overcast,2200.0,,OVC,2200.0,,,,,,
KRDR,11-24-2007,03:48,SPECI,,340,7,,,9999,,-6.0,-9.0,30.06,1018.7,,,,,,,,,,,,,,,8/8 Overcast,2200.0,,OVC,2200.0,,,,,,
KRDR,11-24-2007,03:23,SPECI,,340,8,,,9999,Unknown Precipitation,-5.0,-9.0,30.06,1018.8,40,,,,,,,,,,,,,,8/8 Overcast,2200.0,,OVC,2200.0,,,,,,
KRDR,11-24-2007,03:00,METAR,,340,7,,,9999,,-5.0,-9.0,30.07,1018.9,,,,,,,,,,,TRACE,TRACE,,,8/8 Overcast,2000.0,,OVC,2000.0,,,,,,
KRDR,11-24-2007,02:18,SPECI,,360,8,,,9999,,-5.0,-7.0,30.06,1018.6,,,,,,,,,,,,,,,8/8 Overcast,1700.0,,OVC,1700.0,,,,,,
KRDR,11-24-2007,02:00,METAR,,360,6,,,9999,,-4.0,-7.0,30.05,1018.4,,,,,,,,,,,,,,,8/8 Overcast,2000.0,,OVC,2000.0,,,,,,
KRDR,11-24-2007,01:00,METAR,,340,5,,,9999,,-4.0,-7.0,30.06,1018.5,,,,,,,,,,,,,,,8/8 Overcast,2000.0,,OVC,2000.0,,,,,,
KRDR,11-24-2007,00:18,SPECI,,10,6,,,9999,,-4.0,-7.0,30.05,1018.4,,,,,,,,,,,,,,,8/8 Overcast,1600.0,,OVC,1600.0,,,,,,
KRDR,11-24-2007,00:00,METAR,,10,8,,,9999,,-4.0,-7.0,30.05,1018.2,,,,,,,,,,,TRACE,,TRACE,,8/8 Overcast,1300.0,,OVC,1300.0,,,,,,
KRDR,11-23-2007,23:50,METAR,,10,10,,,9999,,-4.0,-7.0,30.05,1018.2,,,,,,,,,,,,,,,8/8 Overcast,1300.0,,OVC,1300.0,,,,,,
KRDR,11-23-2007,23:38,SPECI,,10,12,,,9999,Unknown Precipitation,-4.0,-7.0,30.04,1018.0,40,,,,,,,,,,,,,,8/8 Overcast,1000.0,,OVC,1400.0,,,,,,
KRDR,11-23-2007,23:16,SPECI,,360,8,,,9999,Unknown Precipitation,-4.0,-6.0,30.04,1018.0,40,,,,,,,,,,,,,,8/8 Overcast,1800.0,,FEW,1100.0,OVC,2600.0,,,,
KRDR,11-23-2007,23:00,METAR,,360,7,,,9999,,-4.0,-6.0,30.04,1017.9,,,,,,,,,,,TRACE,,,,8/8 Overcast,2800.0,,FEW,900.0,OVC,2800.0,,,,
KRDR,11-23-2007,22:45,METAR,,10,7,,,9999,,-4.0,-6.0,30.03,1017.8,,,,,,,,,,,,,,,8/8 Overcast,600.0,,OVC,2200.0,,,,,,
KRDR,11-23-2007,22:34,SPECI,,10,9,,,9999,Unknown Precipitation,-4.0,-6.0,30.03,1017.8,40,,,,,,,,,,,,,,8/8 Overcast,1500.0,,FEW,500.0,BKN,1500.0,OVC,3000.0,,
KRDR,11-23-2007,22:23,SPECI,,360,10,,,9999,Unknown Precipitation,-3.0,-5.0,30.03,1017.9,40,,,,,,,,,,,,,,8/8 Overcast,900.0,,SCT,500.0,BKN,900.0,OVC,1500.0,,
KRDR,11-23-2007,22:18,SPECI,,360,10,,,9999,Light Snow,-3.0,-5.0,30.03,1017.8,71,,,,,,,,,,,,,,8/8 Overcast,400.0,,OVC,1000.0,,,,,,
KRDR,11-23-2007,22:16,SPECI,,360,10,,,9999,Light Snow,-3.0,-5.0,30.03,1017.8,71,,,,,,,,,,,,,,8/8 Overcast,500.0,,BKN,500.0,OVC,1700.0,,,,
KRDR,11-23-2007,22:13,SPECI,,360,9,,,9999,Light Snow,-3.0,-5.0,30.03,1017.7,71,,,,,,,,,,,,,,8/8 Overcast,700.0,,SCT,300.0,BKN,1100.0,OVC,2200.0,,
KRDR,11-23-2007,22:10,SPECI,,360,7,,,9999,Light Snow/Mist,-3.0,-5.0,30.03,1017.7,71,10,,,,,,,,,,,,,8/8 Overcast,900.0,,SCT,300.0,BKN,900.0,OVC,2200.0,,
KRDR,11-23-2007,22:07,SPECI,,10,8,,,9999,Light Snow/Mist,-3.0,-5.0,30.03,1017.7,71,10,,,,,,,,,,,,,7/8 Mostly Cloudy,1600.0,,SCT,300.0,BKN,1600.0,BKN,2200.0,,
KRDR,11-23-2007,22:00,METAR,,360,7,,,9999,Unknown Precipitation,-3.0,-5.0,30.02,1017.5,40,,,,,,,,,,TRACE,,,,7/8 Mostly Cloudy,1600.0,,SCT,300.0,BKN,1600.0,BKN,2100.0,,
KRDR,11-23-2007,21:50,METAR,,10,8,,,9999,Unknown Precipitation,-3.0,-5.0,30.02,1017.5,40,,,,,,,,,,,,,,7/8 Mostly Cloudy,1900.0,,SCT,300.0,SCT,1100.0,BKN,1900.0,,
KRDR,11-23-2007,21:48,SPECI,,360,9,,,9999,Unknown Precipitation,-3.0,-5.0,30.02,1017.5,40,,,,,,,,,,,,,,7/8 Mostly Cloudy,1100.0,,SCT,300.0,BKN,1100.0,BKN,1800.0,,
KRDR,11-23-2007,21:44,SPECI,,360,9,,,9999,Unknown Precipitation,-3.0,-5.0,30.02,1017.4,40,,,,,,,,,,,,,,7/8 Mostly Cloudy,900.0,,SCT,300.0,BKN,900.0,BKN,5400.0,,
KRDR,11-23-2007,21:31,SPECI,,10,8,,,6400,Light Snow/Mist,-3.0,-5.0,30.02,1017.3,71,10,,,,,,,,,,,,,7/8 Mostly Cloudy,300.0,,BKN,800.0,,,,,,
KRDR,11-23-2007,21:25,METAR,,20,7,,,4800,Light Snow/Mist,-3.0,-5.0,30.02,1017.3,71,10,,,,,,,,,,,,,7/8 Mostly Cloudy,1100.0,,BKN,1100.0,,,,,,
KRDR,11-23-2007,21:20,METAR,,20,9,,,4000,Light Snow/Mist,-3.0,-5.0,30.02,1017.3,71,10,,,,,,,,,,,,,8/8 Overcast,1400.0,,SCT,700.0,OVC,1400.0,,,,
KRDR,11-23-2007,21:14,SPECI,,10,8,,,4000,Light Snow/Mist,-2.0,-5.0,30.02,1017.3,71,10,,,,,,,,,,,,,7/8 Mostly Cloudy,500.0,,BKN,1200.0,,,,,,
KRDR,11-23-2007,21:11,SPECI,,10,9,,,4800,Light Snow/Mist,-2.0,-5.0,30.02,1017.3,71,10,,,,,,,,,,,,,8/8 Overcast,1600.0,,FEW,500.0,SCT,900.0,OVC,1600.0,,
KRDR,11-23-2007,21:09,SPECI,,10,8,,,6400,Light Snow/Mist,-2.0,-4.0,30.02,1017.2,71,10,,,,,,,,,,,,,8/8 Overcast,1300.0,,OVC,1300.0,,,,,,
KRDR,11-23-2007,21:06,SPECI,,360,7,,,8000,Light Snow,-2.0,-4.0,30.02,1017.2,71,,,,,,,,,,,,,,8/8 Overcast,1800.0,,FEW,500.0,SCT,900.0,OVC,1800.0,,
KRDR,11-23-2007,21:03,SPECI,,360,7,,,9999,Light Snow,-2.0,-4.0,30.02,1017.2,71,,,,,,,,,,,,,,8/8 Overcast,700.0,,FEW,400.0,OVC,1400.0,,,,
KRDR,11-23-2007,21:01,SPECI,,10,7,,,9999,Light Snow,-2.0,-4.0,30.01,1017.2,71,,,,,,,,,,,,,,8/8 Overcast,1700.0,,FEW,400.0,SCT,900.0,OVC,1700.0,,
KRDR,11-23-2007,21:00,METAR,,360,7,,,9999,Light Snow,-2.0,-4.0,30.01,1017.2,71,,,,,,,,,,TRACE,TRACE,,,7/8 Mostly Cloudy,700.0,,FEW,400.0,BKN,1400.0,,,,
KRDR,11-23-2007,20:53,SPECI,,360,6,,,9999,Light Snow,-2.0,-4.0,30.01,1017.2,71,,,,,,,,,,,,,,7/8 Mostly Cloudy,1900.0,,FEW,400.0,SCT,900.0,BKN,1900.0,,
KRDR,11-23-2007,20:40,SPECI,,10,7,,,6400,Light Snow/Mist,-2.0,-4.0,30.02,1017.3,71,10,,,,,,,,,,,,,7/8 Mostly Cloudy,1100.0,,FEW,300.0,SCT,700.0,BKN,1100.0,,
KRDR,11-23-2007,20:37,SPECI,,360,7,,,6400,Light Snow,-2.0,-4.0,30.01,1017.2,71,,,,,,,,,,,,,,7/8 Mostly Cloudy,1200.0,,FEW,300.0,SCT,700.0,BKN,1200.0,,
KRDR,11-23-2007,20:32,SPECI,,350,7,,,6400,Light Snow,-2.0,-4.0,30.01,1017.2,71,,,,,,,,,,,,,,7/8 Mostly Cloudy,1800.0,,FEW,100.0,SCT,500.0,BKN,1800.0,,
KRDR,11-23-2007,20:30,METAR,,360,8,,,8000,Light Snow,-2.0,-4.0,30.01,1017.2,71,,,,,,,,,,,,,,7/8 Mostly Cloudy,100.0,,BKN,800.0,,,,,,
KRDR,11-23-2007,20:28,SPECI,,360,8,,,9999,Light Snow/Mist,-2.0,-4.0,30.01,1017.1,71,10,,,,,,,,,,,,,7/8 Mostly Cloudy,400.0,,FEW,100.0,BKN,900.0,,,,
KRDR,11-23-2007,20:19,SPECI,,350,6,,,9999,Light Snow,-2.0,-5.0,30.01,1017.1,71,,,,,,,,,,,,,,7/8 Mostly Cloudy,900.0,,FEW,100.0,SCT,500.0,BKN,900.0,,
KRDR,11-23-2007,20:17,SPECI,,340,5,,,9999,Light Snow,-2.0,-4.0,30.01,1017.1,71,,,,,,,,,,,,,,7/8 Mostly Cloudy,1000.0,,FEW,100.0,SCT,500.0,BKN,1000.0,,
KRDR,11-23-2007,20:15,SPECI,,340,6,,,9999,Light Snow,-2.0,-4.0,30.01,1017.1,71,,,,,,,,,,,,,,7/8 Mostly Cloudy,100.0,,BKN,1000.0,,,,,,
KRDR,11-23-2007,20:12,SPECI,,340,6,,,9999,Light Snow,-2.0,-4.0,30.01,1017.0,71,,,,,,,,,,,,,,7/8 Mostly Cloudy,100.0,,BKN,800.0,,,,,,
KRDR,11-23-2007,20:09,SPECI,,340,6,,,9999,Light Snow,-2.0,-4.0,30.01,1017.1,71,,,,,,,,,,,,,,7/8 Mostly Cloudy,100.0,,BKN,600.0,,,,,,
KRDR,11-23-2007,20:07,SPECI,,340,8,,,9999,Light Snow,-2.0,-4.0,30.01,1017.1,71,,,,,,,,,,,,,,7/8 Mostly Cloudy,200.0,,BKN,700.0,,,,,,
KRDR,11-23-2007,20:05,SPECI,,350,6,,,9999,Light Snow,-2.0,-4.0,30.01,1017.1,71,,,,,,,,,,,,,,7/8 Mostly Cloudy,100.0,,BKN,500.0,,,,,,
KRDR,11-23-2007,20:03,SPECI,,330,6,,,9999,Light Snow,-2.0,-4.0,30.01,1017.1,71,,,,,,,,,,,,,,7/8 Mostly Cloudy,100.0,,BKN,600.0,,,,,,
KRDR,11-23-2007,20:01,SPECI,,340,7,,,9999,Light Snow,-2.0,-4.0,30.01,1017.1,71,,,,,,,,,,,,,,7/8 Mostly Cloudy,100.0,,BKN,700.0,,,,,,
KRDR,11-23-2007,20:00,METAR,,340,6,,,9999,Light Snow,-2.0,-4.0,30.01,1017.1,71,,,,,,,,,,TRACE,,,,7/8 Mostly Cloudy,600.0,,SCT,200.0,BKN,900.0,,,,
KRDR,11-23-2007,19:56,SPECI,,340,6,,,9999,Light Snow,-2.0,-4.0,30.01,1017.1,71,,,,,,,,,,,,,,4/8 Partly Cloudy,72000.0,,SCT,500.0,,,,,,
KRDR,11-23-2007,19:54,SPECI,,340,7,,,9999,Light Snow,-2.0,-4.0,30.01,1017.1,71,,,,,,,,,,,,,,7/8 Mostly Cloudy,600.0,,FEW,200.0,BKN,800.0,,,,
KRDR,11-23-2007,19:46,SPECI,,330,6,,,9999,Light Snow,-2.0,-4.0,30.01,1017.1,71,,,,,,,,,,,,,,7/8 Mostly Cloudy,600.0,,FEW,200.0,BKN,1000.0,,,,
KRDR,11-23-2007,19:40,SPECI,,340,7,,,9999,Light Snow,-2.0,-4.0,30.01,1017.1,71,,,,,,,,,,,,,,4/8 Partly Cloudy,72000.0,,SCT,900.0,,,,,,
KRDR,11-23-2007,19:36,SPECI,,340,6,,,9999,Light Snow,-2.0,-4.0,30.01,1017.1,71,,,,,,,,,,,,,,7/8 Mostly Cloudy,600.0,,BKN,900.0,,,,,,
KRDR,11-23-2007,19:32,SPECI,,320,4,,,9999,Light Snow,-2.0,-5.0,30.01,1017.1,71,,,,,,,,,,,,,,7/8 Mostly Cloudy,900.0,,FEW,600.0,BKN,1200.0,,,,
KRDR,11-23-2007,19:27,SPECI,,330,6,,,9999,Light Snow,-2.0,-5.0,30.01,1017.1,71,,,,,,,,,,,,,,7/8 Mostly Cloudy,700.0,,BKN,1300.0,,,,,,
KRDR,11-23-2007,19:24,SPECI,,320,5,,,9999,Light Snow,-2.0,-5.0,30.01,1017.1,71,,,,,,,,,,,,,,4/8 Partly Cloudy,72000.0,,FEW,600.0,SCT,1300.0,,,,
KRDR,11-23-2007,19:19,SPECI,,320,5,,,9999,Light Snow,-2.0,-5.0,30.01,1017.1,71,,,,,,,,,,,,,,4/8 Partly Cloudy,72000.0,,FEW,500.0,SCT,900.0,,,,
KRDR,11-23-2007,19:00,METAR,,330,6,,,9999,Light Snow,-2.0,-5.0,30.01,1017.1,71,,,,,,,,,,TRACE,,,,4/8 Partly Cloudy,72000.0,,SCT,1400.0,,,,,,
KRDR,11-23-2007,18:57,SPECI,,320,5,,,9999,Light Snow,-2.0,-5.0,30.01,1017.1,71,,,,,,,,,,,,,,4/8 Partly Cloudy,72000.0,,FEW,600.0,SCT,1000.0,SCT,4500.0,,
KRDR,11-23-2007,18:44,SPECI,,330,5,,,9999,Light Snow,-2.0,-5.0,30.01,1017.1,71,,,,,,,,,,,,,,4/8 Partly Cloudy,72000.0,,SCT,800.0,,,,,,
KRDR,11-23-2007,18:41,SPECI,,310,6,,,9999,Light Snow,-2.0,-5.0,30.01,1017.1,71,,,,,,,,,,,,,,4/8 Partly Cloudy,72000.0,,SCT,900.0,,,,,,
KRDR,11-23-2007,18:18,SPECI,,330,5,,,9999,Light Snow,-2.0,-5.0,30.01,1017.1,71,,,,,,,,,,,,,,7/8 Mostly Cloudy,1400.0,,BKN,1400.0,,,,,,
KRDR,11-23-2007,18:12,SPECI,,320,6,,,9999,Light Snow,-2.0,-5.0,30.01,1017.1,71,,,,,,,,,,,,,,7/8 Mostly Cloudy,800.0,,FEW,400.0,BKN,800.0,BKN,3200.0,,
KRDR,11-23-2007,18:09,SPECI,,320,6,,,9999,Light Snow,-2.0,-5.0,30.01,1017.2,71,,,,,,,,,,,,,,8/8 Overcast,900.0,,FEW,400.0,BKN,900.0,OVC,3200.0,,
KRDR,11-23-2007,18:06,SPECI,,320,7,,,9999,Light Snow,-2.0,-5.0,30.02,1017.3,71,,,,,,,,,,,,,,8/8 Overcast,700.0,,FEW,400.0,OVC,1200.0,,,,
KRDR,11-23-2007,18:00,METAR,,310,6,,,6400,Light Snow,-2.0,-5.0,30.02,1017.3,71,,,,,,,,,,TRACE,,TRACE,,8/8 Overcast,800.0,,FEW,500.0,OVC,900.0,,,,
KRDR,11-23-2007,17:58,SPECI,,320,7,,,9999,Light Snow,-2.0,-5.0,30.02,1017.3,71,,,,,,,,,,,,,,7/8 Mostly Cloudy,700.0,,FEW,400.0,BKN,1000.0,,,,
KRDR,11-23-2007,17:53,SPECI,,310,7,,,8000,Light Snow,-2.0,-5.0,30.02,1017.4,71,,,,,,,,,,,,,,8/8 Overcast,400.0,,OVC,800.0,,,,,,
KRDR,11-23-2007,17:51,SPECI,,320,6,,,6400,Light Snow,-2.0,-5.0,30.02,1017.3,71,,,,,,,,,,,,,,8/8 Overcast,800.0,,FEW,500.0,OVC,900.0,,,,
KRDR,11-23-2007,17:43,SPECI,,300,7,,,6400,Light Snow/Mist,-2.0,-5.0,30.02,1017.5,71,10,,,,,,,,,,,,,7/8 Mostly Cloudy,400.0,,BKN,1000.0,,,,,,
KRDR,11-23-2007,17:36,SPECI,,300,5,,,4800,Light Snow,-3.0,-5.0,30.02,1017.5,71,,,,,,,,,,,,,,7/8 Mostly Cloudy,400.0,,BKN,800.0,,,,,,
KRDR,11-23-2007,17:21,SPECI,,290,6,,,4800,Light Snow,-3.0,-5.0,30.03,1017.7,71,,,,,,,,,,,,,,7/8 Mostly Cloudy,500.0,,BKN,900.0,,,,,,
KRDR,11-23-2007,17:18,SPECI,,310,6,,,4800,Light Snow,-3.0,-5.0,30.03,1017.7,71,,,,,,,,,,,,,,7/8 Mostly Cloudy,400.0,,BKN,800.0,,,,,,
KRDR,11-23-2007,17:15,SPECI,,290,5,,,4800,Light Snow,-2.0,-5.0,30.03,1017.7,71,,,,,,,,,,,,,,4/8 Partly Cloudy,72000.0,,SCT,800.0,,,,,,
KRDR,11-23-2007,17:07,SPECI,,280,6,,,4800,,-3.0,-5.0,30.03,1017.8,,,,,,,,,,,,,,,Clear,72000.0,,,73000.0,,,,,,
KRDR,11-23-2007,17:04,SPECI,,300,6,,,4000,,-3.0,-5.0,30.03,1017.8,,,,,,,,,,,,,,,Clear,72000.0,,,73000.0,,,,,,
KRDR,11-23-2007,17:01,SPECI,,280,7,,,4800,Light Snow,-3.0,-5.0,30.03,1017.8,71,,,,,,,,,,,,,,Sky Obscured (Unable to Estimate),1400.0,100.0,,1400.0,,,,,,
KRDR,11-23-2007,17:00,METAR,,300,7,,,6400,Light Snow,-3.0,-6.0,30.03,1017.8,71,,,,,,,,,,TRACE,,,,Sky Obscured (Unable to Estimate),1700.0,100.0,,1700.0,,,,,,
KRDR,11-23-2007,16:22,SPECI,,290,7,,,9999,Unknown Precipitation,-3.0,-7.0,30.03,1017.6,40,,,,,,,,,,,,,,8/8 Overcast,3600.0,,BKN,3700.0,OVC,6400.0,,,,
KRDR,11-23-2007,16:00,METAR,,290,8,,,9999,,-3.0,-7.0,30.03,1017.6,,,,,,,,,,,,,,,7/8 Mostly Cloudy,3500.0,,SCT,2600.0,BKN,3600.0,BKN,5000.0,,
KRDR,11-23-2007,15:44,SPECI,,270,8,,,9999,,-3.0,-8.0,30.03,1017.6,,,,,,,,,,,,,,,8/8 Overcast,2900.0,,OVC,2900.0,,,,,,
KRDR,11-23-2007,15:00,METAR,,250,6,,,9999,,-5.0,-8.0,30.03,1017.5,,,,,,,,,,,,,,,8/8 Overcast,4500.0,,OVC,4600.0,,,,,,
KRDR,11-23-2007,14:00,METAR,,250,6,,,9999,,-5.0,-8.0,30.03,1017.7,,,,,,,,,,,,,,,Clear,72000.0,,,73000.0,,,,,,
KRDR,11-23-2007,13:00,METAR,,250,8,,,9999,,-5.0,-9.0,30.04,1018.1,,,,,,,,,,,,,,,7/8 Mostly Cloudy,5500.0,,BKN,5400.0,,,,,,
KRDR,11-23-2007,12:00,METAR,,250,8,,,9999,,-6.0,-9.0,30.06,1018.8,,,,,,,,,,,,,,,8/8 Overcast,6000.0,,OVC,5900.0,,,,,,
KRDR,11-23-2007,11:00,METAR,,230,8,,,9999,,-6.0,-9.0,30.08,1019.3,,,,,,,,,,,,,,,8/8 Overcast,7500.0,,OVC,7400.0,,,,,,
KRDR,11-23-2007,10:00,METAR,,220,7,,,9999,,-7.0,-10.0,30.10,1020.2,,,,,,,,,,,,,,,Clear,72000.0,,,73000.0,,,,,,
KRDR,11-23-2007,09:00,METAR,,220,7,,,9999,,-7.0,-10.0,30.13,1021.2,,,,,,,,,,,,,,,Clear,72000.0,,,73000.0,,,,,,
KRDR,11-23-2007,08:00,METAR,,220,7,,,9999,,-7.0,-9.0,30.16,1021.9,,,,,,,,,,,,,,,Clear,72000.0,,,73000.0,,,,,,
KRDR,11-23-2007,07:00,METAR,,220,7,,,9999,,-6.0,-9.0,30.19,1022.8,,,,,,,,,,,,,,,Clear,72000.0,,,73000.0,,,,,,
KRDR,11-23-2007,06:00,METAR,,220,8,,,9999,,-6.0,-8.0,30.21,1023.8,,,,,,,,,,,,,TRACE,,Clear,72000.0,,,73000.0,,,,,,
KRDR,11-23-2007,05:00,METAR,,220,7,,,9999,,-6.0,-9.0,30.23,1024.3,,,,,,,,,,,,,,,Clear,72000.0,,,73000.0,,,,,,
KRDR,11-23-2007,04:00,METAR,,200,7,,,9999,,-6.0,-9.0,30.25,1025.1,,,,,,,,,,,,,,,Clear,72000.0,,,73000.0,,,,,,
KRDR,11-23-2007,03:00,METAR,,200,7,,,9999,,-3.0,-7.0,30.27,1025.8,,,,,,,,,,,,TRACE,,,8/8 Overcast,3300.0,,FEW,2100.0,OVC,3400.0,,,,
KRDR,11-23-2007,02:00,METAR,,200,6,,,9999,,-4.0,-8.0,30.29,1026.3,,,,,,,,,,,,,,,8/8 Overcast,3100.0,,OVC,3200.0,,,,,,
KRDR,11-23-2007,01:00,METAR,,190,6,,,9999,,-4.0,-9.0,30.31,1026.9,,,,,,,,,,,TRACE,,,,8/8 Overcast,3400.0,,FEW,2100.0,OVC,3500.0,,,,
KRDR,11-23-2007,00:42,SPECI,,200,6,,,9999,,-4.0,-10.0,30.31,1027.0,,,,,,,,,,,,,,,8/8 Overcast,3900.0,,FEW,2300.0,SCT,2900.0,OVC,4000.0,,
KRDR,11-23-2007,00:00,METAR,,180,5,,,9999,Light Snow,-4.0,-11.0,30.32,1027.3,,,,71,,,,,,,,,,,7/8 Mostly Cloudy,2200.0,,FEW,700.0,BKN,2200.0,,,,
KRDR,11-22-2007,23:55,METAR,,170,6,,,9999,,-4.0,-11.0,30.32,1027.3,,,,,,,,,,,,,,,8/8 Overcast,2200.0,,FEW,700.0,OVC,2200.0,,,,
KRDR,11-22-2007,23:42,SPECI,,170,5,,,9999,,-4.0,-11.0,30.33,1027.5,,,,,,,,,,,,,,,8/8 Overcast,2100.0,,FEW,800.0,BKN,2100.0,OVC,3600.0,,
KRDR,11-22-2007,23:00,METAR,,190,5,,,9999,,-4.0,-11.0,30.34,1028.0,,,,,,,,,,,,,,,8/8 Overcast,2000.0,,FEW,400.0,OVC,2000.0,,,,
KRDR,11-22-2007,22:44,SPECI,,200,6,,,9999,,-4.0,-11.0,30.34,1028.0,,,,,,,,,,,,,,,8/8 Overcast,1900.0,,FEW,400.0,OVC,1900.0,,,,
KRDR,11-22-2007,22:00,METAR,,200,8,,,9999,,-4.0,-11.0,30.36,1028.5,,,,,,,,,,,,,,,8/8 Overcast,2500.0,,OVC,2500.0,,,,,,
KRDR,11-22-2007,21:00,METAR,,200,5,,,9999,,-4.0,-12.0,30.37,1028.9,,,,,,,,,,,,,,,7/8 Mostly Cloudy,1900.0,,BKN,1900.0,BKN,5400.0,BKN,6900.0,,
KRDR,11-22-2007,20:32,SPECI,,210,6,,,9999,,-4.0,-12.0,30.37,1029.1,,,,,,,,,,,,,,,7/8 Mostly Cloudy,3100.0,,BKN,3200.0,,,,,,
KRDR,11-22-2007,20:05,SPECI,,230,5,,,9999,,-5.0,-12.0,30.39,1029.5,,,,,,,,,,,,,,,8/8 Overcast,2000.0,,OVC,2800.0,,,,,,
KRDR,11-22-2007,20:00,METAR,,230,5,,,9999,,-5.0,-12.0,30.39,1029.6,,,,,,,,,,,,,,,7/8 Mostly Cloudy,3600.0,,BKN,3700.0,,,,,,
KRDR,11-22-2007,19:00,METAR,,220,9,,,9999,,-5.0,-12.0,30.41,1030.1,,,,,,,,,,,,,,,Clear,72000.0,,,73000.0,,,,,,
KRDR,11-22-2007,18:00,METAR,,190,6,,,9999,,-7.0,-12.0,30.43,1031.0,,,,,,,,,,,,,TRACE,,Clear,72000.0,,,73000.0,,,,,,
KRDR,11-22-2007,17:00,METAR,,,5,,,9999,,-8.0,-13.0,30.46,1031.9,,,,,,,,,,,,,,,Clear,72000.0,,,73000.0,,,,,,
KRDR,11-22-2007,16:00,METAR,,240,4,,,9999,,-9.0,-13.0,30.46,1031.8,,,,,,,,,,,TRACE,,,,2/8 Mostly Clear,72000.0,,FEW,400.0,,,,,,
KRDR,11-22-2007,15:33,SPECI,,180,2,,,9999,,-9.0,-13.0,30.46,1031.9,,,,,,,,,,,,,,,4/8 Partly Cloudy,72000.0,,SCT,800.0,,,,,,
KRDR,11-22-2007,15:23,SPECI,,230,3,,,9999,,-9.0,-13.0,30.46,1032.0,,,,,,,,,,,,,,,7/8 Mostly Cloudy,100.0,,BKN,800.0,,,,,,
KRDR,11-22-2007,15:21,SPECI,,220,3,,,9999,,-9.0,-13.0,30.46,1032.0,,,,,,,,,,,,,,,7/8 Mostly Cloudy,1000.0,,FEW,100.0,BKN,1000.0,,,,
KRDR,11-22-2007,15:15,SPECI,,240,2,,,9999,,-10.0,-13.0,30.47,1032.1,,,,,,,,,,,,,,,8/8 Overcast,100.0,,OVC,700.0,,,,,,
KRDR,11-22-2007,15:02,SPECI,,,0,,,9999,,-10.0,-13.0,30.47,1032.1,,,,,,,,,,,,,,,8/8 Overcast,100.0,,OVC,600.0,,,,,,
KRDR,11-22-2007,15:00,METAR,,210,2,,,9999,Light Snow/Haze Smoke or Dust,-10.0,-13.0,30.47,1032.1,71,4,,,,,,,,,TRACE,TRACE,,,8/8 Overcast,100.0,,OVC,900.0,,,,,,
KRDR,11-22-2007,14:57,SPECI,,,0,,,9999,,-10.0,-13.0,30.47,1032.1,,,,,,,,,,,,,,,8/8 Overcast,1000.0,,SCT,100.0,OVC,1000.0,,,,
KRDR,11-22-2007,14:56,SPECI,,,0,,,9999,,-10.0,-13.0,30.47,1032.1,,,,,,,,,,,,,,,8/8 Overcast,100.0,,OVC,700.0,,,,,,
KRDR,11-22-2007,14:53,SPECI,,210,2,,,9999,Light Snow/Haze Smoke or Dust,-10.0,-13.0,30.47,1032.1,71,4,,,,,,,,,,,,,8/8 Overcast,900.0,,FEW,100.0,OVC,900.0,,,,
KRDR,11-22-2007,14:48,SPECI,,210,3,,,9999,Light Snow/Haze Smoke or Dust,-10.0,-13.0,30.47,1032.1,71,4,,,,,,,,,,,,,8/8 Overcast,100.0,,OVC,900.0,,,,,,
KRDR,11-22-2007,14:45,METAR,,,0,,,9999,Light Snow,-10.0,-13.0,30.47,1032.1,71,,,,,,,,,,,,,,8/8 Overcast,1000.0,,FEW,100.0,OVC,1000.0,,,,
KRDR,11-22-2007,14:40,SPECI,,,0,,,8000,Light Snow/Haze Smoke or Dust,-10.0,-13.0,30.47,1032.1,71,4,,,,,,,,,,,,,7/8 Mostly Cloudy,900.0,,FEW,100.0,BKN,900.0,,,,
KRDR,11-22-2007,14:34,SPECI,,,0,,,9999,Light Snow,-10.0,-14.0,30.47,1032.2,71,,,,,,,,,,,,,,7/8 Mostly Cloudy,100.0,,BKN,900.0,,,,,,
KRDR,11-22-2007,14:26,SPECI,,280,4,,,9999,Light Snow,-10.0,-13.0,30.47,1032.3,71,,,,,,,,,,,,,,8/8 Overcast,1000.0,,FEW,100.0,OVC,1000.0,,,,
KRDR,11-22-2007,14:20,METAR,,240,3,,,9999,,-10.0,-13.0,30.47,1032.3,,,,,,,,,,,,,,,8/8 Overcast,1000.0,,FEW,200.0,OVC,1000.0,,,,
KRDR,11-22-2007,14:16,SPECI,,,0,,,9999,,-10.0,-13.0,30.47,1032.4,,,,,,,,,,,,,,,8/8 Overcast,1000.0,,FEW,200.0,OVC,1000.0,,,,
KRDR,11-22-2007,14:14,SPECI,,,0,,,9999,,-10.0,-13.0,30.47,1032.3,,,,,,,,,,,,,,,8/8 Overcast,100.0,,OVC,1000.0,,,,,,
KRDR,11-22-2007,14:12,SPECI,,,0,,,9999,Light Snow,-10.0,-14.0,30.47,1032.3,71,,,,,,,,,,,,,,8/8 Overcast,1000.0,,FEW,100.0,OVC,1000.0,,,,
KRDR,11-22-2007,14:00,METAR,,,0,,,9999,Light Snow,-10.0,-13.0,30.47,1032.3,71,,,,,,,,,,TRACE,,,,8/8 Overcast,1100.0,,FEW,300.0,OVC,1100.0,,,,
KRDR,11-22-2007,13:49,SPECI,,280,2,,,9999,Light Snow,-10.0,-13.0,30.47,1032.3,71,,,,,,,,,,,,,,8/8 Overcast,1100.0,,FEW,300.0,OVC,1100.0,,,,
KRDR,11-22-2007,13:44,SPECI,,340,3,,,9999,,-10.0,-13.0,30.47,1032.3,,,,,,,,,,,,,,,8/8 Overcast,1200.0,,OVC,1200.0,,,,,,
KRDR,11-22-2007,13:26,SPECI,,,0,,,9999,,-10.0,-13.0,30.47,1032.2,,,,,,,,,,,,,,,8/8 Overcast,1200.0,,FEW,100.0,OVC,1200.0,,,,
KRDR,11-22-2007,13:24,SPECI,,,0,,,9999,,-10.0,-13.0,30.47,1032.1,,,,,,,,,,,,,,,8/8 Overcast,1000.0,,OVC,1000.0,,,,,,
KRDR,11-22-2007,13:14,SPECI,,330,3,,,9999,Light Snow,-10.0,-13.0,30.47,1032.2,71,,,,,,,,,,,,,,8/8 Overcast,1100.0,,FEW,100.0,OVC,1100.0,,,,
KRDR,11-22-2007,13:00,METAR,,,0,,,9999,Light Snow,-10.0,-13.0,30.47,1032.3,71,,,,,,,,,,TRACE,,,,8/8 Overcast,1100.0,,FEW,200.0,OVC,1100.0,,,,
KRDR,11-22-2007,12:49,SPECI,,,0,,,9999,Light Snow,-10.0,-13.0,30.47,1032.3,71,,,,,,,,,,,,,,8/8 Overcast,1200.0,,FEW,200.0,OVC,1200.0,,,,
KRDR,11-22-2007,12:37,SPECI,,,0,,,9999,Light Snow,-10.0,-13.0,30.47,1032.4,71,,,,,,,,,,,,,,8/8 Overcast,1100.0,,FEW,200.0,OVC,1100.0,,,,
KRDR,11-22-2007,12:02,SPECI,,10,3,,,9999,Light Snow,-10.0,-13.0,30.47,1032.4,71,,,,,,,,,,,,,,8/8 Overcast,1100.0,,OVC,1100.0,,,,,,
KRDR,11-22-2007,12:00,METAR,,330,2,,,9999,Light Snow,-10.0,-12.0,30.48,1032.4,71,,,,,,,,,,TRACE,,TRACE,,8/8 Overcast,1300.0,,FEW,700.0,OVC,1300.0,,,,
KRDR,11-22-2007,11:56,SPECI,,,0,,,9999,Light Snow,-10.0,-12.0,30.47,1032.3,71,,,,,,,,,,,,,,8/8 Overcast,1300.0,,FEW,300.0,OVC,1300.0,,,,
KRDR,11-22-2007,11:40,SPECI,,,0,,,9999,Light Snow,-10.0,-12.0,30.47,1032.3,71,,,,,,,,,,,,,,8/8 Overcast,1300.0,,OVC,1300.0,,,,,,
KRDR,11-22-2007,11:39,SPECI,,,0,,,9999,,-10.0,-12.0,30.47,1032.3,,,,,,,,,,,,,,,8/8 Overcast,1300.0,,OVC,1300.0,,,,,,
KRDR,11-22-2007,11:18,SPECI,,310,2,,,9999,,-10.0,-12.0,30.47,1032.3,,,,,,,,,,,,,,,8/8 Overcast,1300.0,,OVC,1300.0,,,,,,
KRDR,11-22-2007,11:12,SPECI,,330,3,,,9999,Light Snow,-10.0,-12.0,30.47,1032.3,71,,,,,,,,,,,,,,8/8 Overcast,1400.0,,OVC,1400.0,,,,,,
KRDR,11-22-2007,11:00,METAR,,330,3,,,9999,,-10.0,-12.0,30.47,1032.3,,,,,,,,,,,,,,,8/8 Overcast,1400.0,,OVC,1400.0,,,,,,
KRDR,11-22-2007,10:02,SPECI,,340,2,,,9999,,-11.0,-13.0,30.48,1032.4,,,,,,,,,,,,,,,8/8 Overcast,1400.0,,FEW,600.0,OVC,1400.0,,,,
KRDR,11-22-2007,10:00,METAR,,360,3,,,9999,,-11.0,-13.0,30.47,1032.4,,,,,,,,,,,,,,,8/8 Overcast,1400.0,,OVC,1400.0,,,,,,
KRDR,11-22-2007,09:40,SPECI,,10,3,,,9999,,-11.0,-13.0,30.47,1032.3,,,,,,,,,,,,,,,8/8 Overcast,1400.0,,OVC,1400.0,,,,,,
KRDR,11-22-2007,09:28,SPECI,,20,2,,,9999,,-11.0,-13.0,30.47,1032.4,,,,,,,,,,,,,,,8/8 Overcast,1500.0,,OVC,1500.0,,,,,,
KRDR,11-22-2007,09:16,SPECI,,20,3,,,9999,,-11.0,-13.0,30.48,1032.4,,,,,,,,,,,,,,,8/8 Overcast,1400.0,,FEW,800.0,OVC,1400.0,,,,
KRDR,11-22-2007,09:00,METAR,,10,4,,,9999,,-10.0,-12.0,30.48,1032.6,,,,,,,,,,,,TRACE,,,8/8 Overcast,1400.0,,OVC,1400.0,,,,,,
KRDR,11-22-2007,08:00,METAR,,360,5,,,9999,,-10.0,-12.0,30.48,1032.4,,,,,,,,,,,,,,,8/8 Overcast,1200.0,,OVC,1200.0,,,,,,
KRDR,11-22-2007,07:00,METAR,,20,8,,,9999,,-9.0,-12.0,30.47,1032.3,,,,,,,,,,,TRACE,,,,8/8 Overcast,1300.0,,OVC,1300.0,,,,,,
KRDR,11-22-2007,06:49,SPECI,,20,7,,,9999,Light Snow,-9.0,-12.0,30.47,1032.3,71,,,,,,,,,,,,,,8/8 Overcast,1300.0,,FEW,800.0,OVC,1300.0,,,,
KRDR,11-22-2007,06:46,SPECI,,20,7,,,9999,,-9.0,-12.0,30.47,1032.4,,,,,,,,,,,,,,,8/8 Overcast,1300.0,,FEW,700.0,OVC,1300.0,,,,
KRDR,11-22-2007,06:23,SPECI,,20,6,,,9999,,-9.0,-13.0,30.48,1032.6,,,,,,,,,,,,,,,8/8 Overcast,1400.0,,OVC,1400.0,,,,,,
KRDR,11-22-2007,06:00,METAR,,20,7,,,9999,,-9.0,-13.0,30.48,1032.6,,,,,,,,,,,,,TRACE,,8/8 Overcast,1400.0,,OVC,1400.0,,,,,,
KRDR,11-22-2007,05:54,SPECI,,20,7,,,9999,,-9.0,-13.0,30.48,1032.6,,,,,,,,,,,,,,,8/8 Overcast,1500.0,,OVC,1500.0,,,,,,
KRDR,11-22-2007,05:39,SPECI,,10,6,,,9999,,-9.0,-13.0,30.48,1032.7,,,,,,,,,,,,,,,8/8 Overcast,1400.0,,OVC,1400.0,,,,,,
KRDR,11-22-2007,05:00,METAR,,360,7,,,9999,Light Snow,-9.0,-13.0,30.49,1033.0,,,,71,,,,,,,,,,,8/8 Overcast,1700.0,,OVC,1700.0,,,,,,
KRDR,11-22-2007,04:00,METAR,,350,5,,,9999,Light Snow,-9.0,-13.0,30.50,1033.3,,,,71,,,,,,,TRACE,,,,8/8 Overcast,1700.0,,OVC,1700.0,,,,,,
KRDR,11-22-2007,03:00,METAR,,360,8,,,9999,Light Snow,-8.0,-13.0,30.51,1035.1,,,,71,,,,,,,TRACE,TRACE,,,8/8 Overcast,1800.0,,OVC,1800.0,,,,,,
KRDR,11-22-2007,02:00,METAR,,360,7,,,9999,Light Snow,-8.0,-12.0,30.51,1033.5,,,,71,,,,,,,TRACE,,,,8/8 Overcast,300.0,,FEW,500.0,OVC,1700.0,,,,
KRDR,11-22-2007,01:00,METAR,,20,11,,,9999,Light Snow,-8.0,-12.0,30.50,1033.4,,,,71,,,,,,,TRACE,,,,8/8 Overcast,400.0,,FEW,600.0,OVC,1500.0,,,,
KRDR,11-22-2007,00:00,METAR,,10,8,,,9999,Light Snow,-8.0,-12.0,30.49,1032.9,,,,71,,,,,,,TRACE,,TRACE,,8/8 Overcast,1900.0,,FEW,700.0,OVC,1900.0,,,,
KRDR,11-21-2007,23:00,METAR,,10,10,,,9999,Light Snow,-8.0,-12.0,30.48,1032.5,,,,71,,,,,,,TRACE,,,,8/8 Overcast,2100.0,,OVC,2100.0,,,,,,
KRDR,11-21-2007,22:00,METAR,,10,13,16.0,,9999,Light Snow,-7.0,-12.0,30.47,1032.2,,,,71,,,,,,,TRACE,,,,8/8 Overcast,2200.0,,OVC,2200.0,,,,,,
KRDR,11-21-2007,21:00,METAR,,10,13,19.0,,9999,Light Snow,-7.0,-11.0,30.46,1031.8,,,,71,,,,,,,TRACE,TRACE,,,8/8 Overcast,1600.0,,OVC,1600.0,,,,,,
KRDR,11-21-2007,20:00,METAR,,360,11,,,9999,Light Snow,-6.0,-11.0,30.46,1031.9,,,,71,,,,,,,TRACE,,,,8/8 Overcast,1700.0,,FEW,700.0,OVC,1700.0,,,,
KRDR,11-21-2007,19:00,METAR,,10,14,,,9999,Light Snow,-6.0,-11.0,30.46,1031.9,,,,71,,,,,,,TRACE,,,,8/8 Overcast,1700.0,,SCT,1200.0,OVC,1700.0,,,,
KRDR,11-21-2007,18:00,METAR,,360,15,19.0,,9999,Light Snow,-7.0,-11.0,30.47,1032.3,,,,71,,,,,,,TRACE,,TRACE,,8/8 Overcast,1600.0,,FEW,900.0,OVC,1600.0,,,,
KRDR,11-21-2007,17:00,METAR,,10,13,,,9999,Light Snow,-7.0,-10.0,30.48,1032.6,,,,71,,,,,,,TRACE,,,,8/8 Overcast,2000.0,,SCT,1500.0,OVC,2000.0,,,,
KRDR,11-21-2007,16:33,SPECI,,10,15,,,6400,Light Snow,-7.0,-10.0,30.48,,,,,71,,,,,,,,,,,8/8 Overcast,2300.0,,SCT,1600.0,OVC,2300.0,,,,
KRDR,11-21-2007,16:28,SPECI,,20,14,,,4800,Light Snow,-7.0,-9.0,30.48,,,,,71,,,,,,,,,,,7/8 Mostly Cloudy,1300.0,,FEW,100.0,BKN,1300.0,,,,
KRDR,11-21-2007,16:00,METAR,,350,12,,,4000,Light Snow,-7.0,-10.0,30.48,1032.4,,,,71,,,,,,,TRACE,,,,8/8 Overcast,200.0,,FEW,1500.0,OVC,2100.0,,,,
KRDR,11-21-2007,15:51,SPECI,,350,12,,,3200,Light Snow,-7.0,-10.0,30.47,,,,,71,,,,,,,,,,,8/8 Overcast,1300.0,,OVC,1300.0,,,,,,
KRDR,11-21-2007,15:00,METAR,,360,10,,,9999,Light Snow,-7.0,-10.0,30.48,1032.4,,,,71,,,,,,,TRACE,TRACE,,,8/8 Overcast,2100.0,,FEW,1400.0,OVC,2100.0,,,,
KRDR,11-21-2007,14:00,METAR,,360,10,,,4800,Light Snow,-8.0,-11.0,30.47,1032.1,,,,71,,,,,,,TRACE,,,,8/8 Overcast,1500.0,,FEW,600.0,OVC,1500.0,,,,
KRDR,11-21-2007,13:00,METAR,,360,12,16.0,,9999,Light Snow,-8.0,-11.0,30.45,1031.7,,,,71,,,,,,,TRACE,,,,8/8 Overcast,1700.0,,OVC,1700.0,,,,,,
KRDR,11-21-2007,12:08,SPECI,,360,13,,,9999,Light Snow,-8.0,-11.0,30.43,1030.7,,,,71,,,,,,,,,,,8/8 Overcast,1700.0,,OVC,1700.0,,,,,,
KRDR,11-21-2007,12:00,METAR,,350,10,16.0,,9999,,-8.0,-12.0,30.42,1030.6,,,,,,,,,,,,,TRACE,,8/8 Overcast,1900.0,,OVC,1900.0,,,,,,
KRDR,11-21-2007,11:00,METAR,,360,14,19.0,,9999,,-9.0,-12.0,30.40,1029.8,,,,,,,,,,,TRACE,,,,7/8 Mostly Cloudy,2300.0,,BKN,2300.0,,,,,,
KRDR,11-21-2007,10:02,SPECI,,360,15,,,9999,,-7.0,-12.0,30.38,1029.2,,,,,,,,,,,,,,,7/8 Mostly Cloudy,1600.0,,FEW,800.0,BKN,1600.0,,,,
KRDR,11-21-2007,10:00,METAR,,360,14,19.0,,9999,Unknown Precipitation,-7.0,-11.0,30.38,1029.1,40,,,,,,,,,,TRACE,,,,8/8 Overcast,1500.0,,OVC,1500.0,,,,,,
KRDR,11-21-2007,09:54,SPECI,,360,14,19.0,,9999,Unknown Precipitation,-7.0,-11.0,30.38,1029.2,40,,,,,,,,,,,,,,8/8 Overcast,1500.0,,FEW,800.0,OVC,1500.0,,,,
KRDR,11-21-2007,09:42,SPECI,,10,15,,,9999,Unknown Precipitation,-7.0,-10.0,30.38,1029.2,40,,,,,,,,,,,,,,8/8 Overcast,1500.0,,OVC,1500.0,,,,,,
KRDR,11-21-2007,09:28,SPECI,,10,14,18.0,,9999,Light Snow,-6.0,-10.0,30.38,1029.1,71,,,,,,,,,,,,,,8/8 Overcast,1400.0,,OVC,1400.0,,,,,,
KRDR,11-21-2007,09:26,SPECI,,10,11,,,9999,Light Snow,-6.0,-10.0,30.38,1029.1,71,,,,,,,,,,,,,,8/8 Overcast,1500.0,,OVC,1500.0,,,,,,
KRDR,11-21-2007,09:09,SPECI,,10,11,,,9999,Light Snow,-6.0,-9.0,30.37,1028.9,71,,,,,,,,,,,,,,8/8 Overcast,1400.0,,OVC,1400.0,,,,,,
KRDR,11-21-2007,09:00,METAR,,350,12,,,9999,Light Snow,-6.0,-10.0,30.37,1028.8,71,,,,,,,,,,TRACE,TRACE,,,8/8 Overcast,2100.0,,OVC,2100.0,,,,,,
KRDR,11-21-2007,08:50,METAR,,340,11,,,9999,Light Snow,-6.0,-10.0,30.36,1028.7,71,,,,,,,,,,,,,,8/8 Overcast,2100.0,,OVC,2100.0,,,,,,
KRDR,11-21-2007,08:21,SPECI,,340,10,,,9999,,-7.0,-10.0,30.36,1028.5,,,,,,,,,,,,,,,8/8 Overcast,2500.0,,FEW,1200.0,OVC,2500.0,,,,
KRDR,11-21-2007,08:03,SPECI,,340,9,,,9999,Light Snow,-7.0,-10.0,30.36,1028.5,71,,,,,,,,,,,,,,7/8 Mostly Cloudy,2300.0,,BKN,2300.0,,,,,,
KRDR,11-21-2007,08:00,METAR,,330,9,,,9999,,-8.0,-11.0,30.36,1028.5,,,,,,,,,,,,,,,Clear,72000.0,,,73000.0,,,,,,
KRDR,11-21-2007,07:00,METAR,,340,9,,,9999,,-6.0,-10.0,30.36,1028.5,,,,,,,,,,,,,,,2/8 Mostly Clear,72000.0,,FEW,3200.0,,,,,,
KRDR,11-21-2007,06:03,SPECI,,360,12,,,9999,,-5.0,-8.0,30.36,1028.4,,,,,,,,,,,,,,,8/8 Overcast,3000.0,,OVC,3000.0,,,,,,
KRDR,11-21-2007,06:00,METAR,,360,9,,,9999,,-4.0,-8.0,30.35,1028.3,,,,,,,,,,,TRACE,,TRACE,,8/8 Overcast,1100.0,,OVC,2400.0,,,,,,
KRDR,11-21-2007,05:33,SPECI,,350,11,,,9999,,-4.0,-7.0,30.35,1028.1,,,,,,,,,,,,,,,8/8 Overcast,1200.0,,OVC,1600.0,,,,,,
KRDR,11-21-2007,05:21,SPECI,,360,8,,,9999,Unknown Precipitation,-4.0,-7.0,30.34,1028.0,40,,,,,,,,,,,,,,8/8 Overcast,1100.0,,OVC,1900.0,,,,,,
KRDR,11-21-2007,05:18,SPECI,,360,8,,,9999,,-4.0,-7.0,30.34,1027.9,,,,,,,,,,,,,,,8/8 Overcast,1100.0,,OVC,2000.0,,,,,,
KRDR,11-21-2007,05:15,SPECI,,360,10,,,9999,,-4.0,-7.0,30.34,1027.9,,,,,,,,,,,,,,,8/8 Overcast,1200.0,,BKN,1200.0,BKN,2200.0,OVC,3900.0,,
KRDR,11-21-2007,05:07,SPECI,,360,8,,,9999,,-4.0,-7.0,30.34,1028.0,,,,,,,,,,,,,,,8/8 Overcast,2900.0,,FEW,1200.0,BKN,2900.0,OVC,3700.0,,
KRDR,11-21-2007,05:00,METAR,,360,8,,,9999,Light Snow,-4.0,-7.0,30.34,1027.8,,,,71,,,,,,,TRACE,,,,8/8 Overcast,2300.0,,SCT,1800.0,BKN,2300.0,OVC,3200.0,,
KRDR,11-21-2007,04:00,METAR,,20,10,,,9999,Light Snow,-4.0,-7.0,30.33,1027.5,,,,71,,,,,,,TRACE,,,,8/8 Overcast,2300.0,,OVC,2300.0,,,,,,
KRDR,11-21-2007,03:00,METAR,,10,7,,,9999,Light Snow,-3.0,-7.0,30.31,1026.9,,,,71,,,,,,,TRACE,TRACE,,,8/8 Overcast,2600.0,,OVC,2600.0,,,,,,
KRDR,11-21-2007,02:28,SPECI,,,5,,,9999,Light Snow,-3.0,-8.0,30.30,1026.6,,,,71,,,,,,,,,,,8/8 Overcast,2700.0,,OVC,2700.0,,,,,,
KRDR,11-21-2007,02:00,METAR,,330,8,,,9999,,-2.0,-9.0,30.29,1026.3,,,,,,,,,,,,,,,8/8 Overcast,2900.0,,OVC,2900.0,,,,,,
KRDR,11-21-2007,01:00,METAR,,330,9,,,9999,,-2.0,-10.0,30.28,1025.8,,,,,,,,,,,,,,,8/8 Overcast,2800.0,,OVC,2800.0,,,,,,
KRDR,11-21-2007,00:00,METAR,,330,13,18.0,,9999,,-2.0,-9.0,30.25,1025.0,,,,,,,,,,,,,,,8/8 Overcast,2600.0,,OVC,2600.0,,,,,,
KRDR,11-20-2007,23:00,METAR,,340,12,,,9999,,-2.0,-8.0,30.23,1024.3,,,,,,,,,,,,,,,8/8 Overcast,2600.0,,OVC,2600.0,,,,,,
KRDR,11-20-2007,22:00,METAR,,320,13,,,9999,,-1.0,-8.0,30.21,1023.7,,,,,,,,,,,,,,,8/8 Overcast,3000.0,,OVC,3000.0,,,,,,
KRDR,11-20-2007,21:00,METAR,,350,10,17.0,,9999,,-1.0,-8.0,30.19,1023.0,,,,,,,,,,,,,,,8/8 Overcast,3000.0,,OVC,3000.0,,,,,,
KRDR,11-20-2007,20:00,METAR,,340,13,,,9999,,-1.0,-8.0,30.20,1023.3,,,,,,,,,,,,,,,8/8 Overcast,3000.0,,OVC,3000.0,,,,,,
KRDR,11-20-2007,19:00,METAR,,320,11,,,9999,,-1.0,-8.0,30.20,1023.3,,,,,,,,,,,,,,,8/8 Overcast,3000.0,,OVC,3000.0,,,,,,
KRDR,11-20-2007,18:00,METAR,,330,10,,,9999,,0.0,-6.0,30.19,1022.9,,,,,,,,,,,,,,,7/8 Mostly Cloudy,3200.0,,FEW,2200.0,BKN,3300.0,BKN,25000.0,,
KRDR,11-20-2007,17:00,METAR,,350,9,,,9999,,0.0,-6.0,30.19,1022.9,,,,,,,,,,,,,,,7/8 Mostly Cloudy,3000.0,,FEW,2000.0,BKN,3000.0,,,,
KRDR,11-20-2007,16:00,METAR,,340,8,,,9999,,-1.0,-6.0,30.16,1022.1,,,,,,,,,,,,,,,7/8 Mostly Cloudy,3300.0,,BKN,3400.0,BKN,7900.0,,,,
KRDR,11-20-2007,15:00,METAR,,360,6,,,9999,,-1.0,-6.0,30.14,1021.2,,,,,,,,,,,,,,,8/8 Overcast,3100.0,,OVC,3200.0,,,,,,
KRDR,11-20-2007,14:26,SPECI,,350,5,,,9999,,-1.0,-5.0,30.13,,,,,,,,,,,,,,,,8/8 Overcast,3100.0,,OVC,3100.0,,,,,,
KRDR,11-20-2007,14:00,METAR,,350,4,,,9999,,-1.0,-5.0,30.12,1020.8,,,,,,,,,,,,,,,8/8 Overcast,2800.0,,OVC,2800.0,,,,,,
KRDR,11-20-2007,13:00,METAR,,340,6,,,9999,,-1.0,-5.0,30.12,1020.5,,,,,,,,,,,,,,,8/8 Overcast,2700.0,,OVC,2700.0,,,,,,
KRDR,11-20-2007,12:00,METAR,,360,5,,,9999,,-1.0,-5.0,30.08,1019.5,,,,,,,,,,,,,,,8/8 Overcast,2900.0,,OVC,2900.0,,,,,,
KRDR,11-20-2007,11:00,METAR,,360,4,,,9999,,-1.0,-5.0,30.07,1019.0,,,,,,,,,,,,,,,8/8 Overcast,2400.0,,OVC,2400.0,,,,,,
KRDR,11-20-2007,10:32,SPECI,,360,4,,,9999,,-1.0,-5.0,30.06,1018.8,,,,,,,,,,,,,,,8/8 Overcast,2000.0,,OVC,2800.0,,,,,,
KRDR,11-20-2007,10:00,METAR,,360,3,,,9999,,-1.0,-4.0,30.05,1018.3,,,,,,,,,,,,,,,8/8 Overcast,3500.0,,OVC,3600.0,,,,,,
KRDR,11-20-2007,09:00,METAR,,,0,,,9999,,0.0,-4.0,30.06,1018.6,,,,,,,,,,,,,,,8/8 Overcast,3900.0,,OVC,4000.0,,,,,,
KRDR,11-20-2007,08:00,METAR,,320,3,,,9999,,0.0,-4.0,30.03,1017.7,,,,,,,,,,,,,,,8/8 Overcast,3400.0,,OVC,3500.0,,,,,,
KRDR,11-20-2007,07:00,METAR,,290,5,,,9999,,0.0,-4.0,30.03,1017.8,,,,,,,,,,,,,,,8/8 Overcast,3600.0,,OVC,3700.0,,,,,,
KRDR,11-20-2007,06:00,METAR,,300,6,,,9999,,0.0,-4.0,30.02,1017.4,,,,,,,,,,,,,,,7/8 Mostly Cloudy,12000.0,,BKN,12000.0,,,,,,
KRDR,11-20-2007,05:00,METAR,,290,5,,,9999,,0.0,-4.0,30.00,1016.8,,,,,,,,,,,,,,,8/8 Overcast,15000.0,,OVC,15000.0,,,,,,
KRDR,11-20-2007,04:00,METAR,,320,6,,,9999,,1.0,-5.0,29.97,1015.8,,,,,,,,,,,,,,,8/8 Overcast,15000.0,,BKN,15000.0,OVC,25000.0,,,,
KRDR,11-20-2007,03:00,METAR,,330,5,,,9999,,1.0,-5.0,29.95,1015.2,,,,,,,,,,,,,,,8/8 Overcast,15000.0,,OVC,15000.0,,,,,,
KRDR,11-20-2007,02:00,METAR,,330,11,,,9999,,3.0,-5.0,29.93,1014.3,,,,,,,,,,,,,,,8/8 Overcast,12000.0,,OVC,12000.0,,,,,,
KRDR,11-20-2007,01:00,METAR,,330,11,,,9999,,4.0,-5.0,29.90,1013.4,,,,,,,,,,,,,,,7/8 Mostly Cloudy,25000.0,,SCT,12000.0,BKN,25000.0,,,,
KRDR,11-20-2007,00:00,METAR,,320,8,,,9999,,5.0,-6.0,29.89,1013.0,,,,,,,,,,,,,,,4/8 Partly Cloudy,72000.0,,SCT,9900.0,SCT,20000.0,,,,
KRDR,11-19-2007,23:00,METAR,,270,7,,,9999,,4.0,-5.0,29.87,1012.3,,,,,,,,,,,,,,,4/8 Partly Cloudy,72000.0,,SCT,9900.0,SCT,20000.0,,,,
KRDR,11-19-2007,22:00,METAR,,280,9,15.0,,9999,,7.0,-5.0,29.85,1011.9,,,,,,,,,,,,,,,4/8 Partly Cloudy,72000.0,,SCT,9900.0,SCT,20000.0,,,,
KRDR,11-19-2007,21:00,METAR,,300,16,23.0,,9999,,8.0,-6.0,29.83,1011.2,,,,,,,,,,,,,,,4/8 Partly Cloudy,72000.0,,SCT,11000.0,SCT,20000.0,,,,
KRDR,11-19-2007,20:00,METAR,,300,15,20.0,,9999,,8.0,-5.0,29.84,1011.3,,,,,,,,,,,,,,,4/8 Partly Cloudy,72000.0,,SCT,9900.0,SCT,20000.0,,,,
KRDR,11-19-2007,19:00,METAR,,290,12,18.0,,9999,,8.0,-4.0,29.83,1011.0,,,,,,,,,,,,,,,2/8 Mostly Clear,72000.0,,FEW,12000.0,,,,,,
KRDR,11-19-2007,18:00,METAR,,300,14,19.0,,9999,,8.0,-4.0,29.83,1011.2,,,,,,,,,,,,,,,4/8 Partly Cloudy,72000.0,,SCT,9900.0,SCT,20000.0,,,,
KRDR,11-19-2007,17:00,METAR,,290,13,,,9999,,6.0,-3.0,29.83,1011.1,,,,,,,,,,,,,,,4/8 Partly Cloudy,72000.0,,SCT,11000.0,SCT,20000.0,,,,
KRDR,11-19-2007,16:00,METAR,,290,11,,,9999,,5.0,-2.0,29.82,1010.7,,,,,,,,,,,,,,,7/8 Mostly Cloudy,11000.0,,BKN,11000.0,BKN,20000.0,,,,
KRDR,11-19-2007,15:00,METAR,,280,12,,,9999,,4.0,-1.0,29.81,1010.6,,,,,,,,,,,,,,,8/8 Overcast,11000.0,,OVC,11000.0,,,,,,
KRDR,11-19-2007,14:00,METAR,,270,8,,,9999,,4.0,-1.0,29.80,1010.2,,,,,,,,,,,,,,,8/8 Overcast,11000.0,,OVC,11000.0,,,,,,
KRDR,11-19-2007,13:00,METAR,,280,7,,,9999,,4.0,-1.0,29.78,1009.5,,,,,,,,,,,,,,,7/8 Mostly Cloudy,11000.0,,BKN,11000.0,,,,,,
KRDR,11-19-2007,12:00,METAR,,280,8,,,9999,,4.0,-1.0,29.78,1009.5,,,,,,,,,,,,,,.03 IN,8/8 Overcast,10000.0,,OVC,9900.0,,,,,,
KRDR,11-19-2007,11:00,METAR,,290,9,,,9999,,5.0,-1.0,29.76,1008.7,,,,,,,,,,,,,,,8/8 Overcast,10000.0,,OVC,9900.0,,,,,,
KRDR,11-19-2007,10:00,METAR,,270,11,,,9999,,6.0,0.0,29.74,1008.0,,,,,,,,,,,,,,,8/8 Overcast,10000.0,,OVC,9900.0,,,,,,
KRDR,11-19-2007,09:00,METAR,,280,10,,,9999,,6.0,0.0,29.73,1007.8,,,,,,,,,,,,,,,7/8 Mostly Cloudy,10000.0,,BKN,9900.0,,,,,,
KRDR,11-19-2007,08:00,METAR,,260,9,,,9999,,7.0,0.0,29.72,1007.3,,,,,,,,,,,,,,,2/8 Mostly Clear,72000.0,,FEW,11000.0,,,,,,
KRDR,11-19-2007,07:00,METAR,,230,8,,,9999,,5.0,0.0,29.72,1007.4,,,,,,,,,,,,,,,Clear,72000.0,,,73000.0,,,,,,
KRDR,11-19-2007,06:00,METAR,,170,8,,,9999,,3.0,1.0,29.71,1007.0,,,,,,,,,,,,,,,Clear,72000.0,,,73000.0,,,,,,
KRDR,11-19-2007,05:48,SPECI,,180,10,,,9999,,3.0,1.0,29.70,1006.8,,,,,,,,,,,,,,,Clear,72000.0,,,73000.0,,,,,,
KRDR,11-19-2007,05:00,METAR,,190,11,,,8000,Mist,3.0,1.0,29.71,1007.0,10,,,,,,,,,,,,,,Clear,72000.0,,,73000.0,,,,,,
KRDR,11-19-2007,04:00,METAR,,190,13,,,8000,Mist,2.0,1.0,29.70,1006.8,10,,,,,,,,,,,,,,Clear,72000.0,,,73000.0,,,,,,
KRDR,11-19-2007,03:41,SPECI,,190,13,,,8000,Mist,2.0,1.0,29.70,1006.7,10,,,,,,,,,,,,,,Clear,72000.0,,,73000.0,,,,,,
KRDR,11-19-2007,03:39,SPECI,,180,14,,,8000,Mist,2.0,1.0,29.70,1006.8,10,,,,,,,,,,,,,,Clear,72000.0,,,73000.0,,,,,,
KRDR,11-19-2007,03:00,METAR,,190,16,,,8000,Mist,2.0,1.0,29.70,1006.9,10,,,,,,,,,,,,,,Clear,72000.0,,,73000.0,,,,,,
KRDR,11-19-2007,02:00,METAR,,200,17,,,9999,Mist,3.0,1.0,29.72,1007.5,10,,,,,,,,,,,,,,Clear,72000.0,,,73000.0,,,,,,
KRDR,11-19-2007,01:00,METAR,,200,17,25.0,190/29KTS,9999,,3.0,1.0,29.72,1007.6,,,,,,,,,,,,,,,4/8 Partly Cloudy,72000.0,,SCT,1100.0,,,,,,
KRDR,11-19-2007,00:09,SPECI,,190,21,26.0,190/26KTS,9999,,3.0,1.0,29.71,1007.0,,,,,,,,,,,,,,,7/8 Mostly Cloudy,1000.0,,BKN,1000.0,,,,,,
KRDR,11-19-2007,00:00,METAR,,190,20,25.0,,9999,,3.0,1.0,29.71,1007.0,,,,,,,,,,,,,.03 IN,,4/8 Partly Cloudy,72000.0,,SCT,2600.0,,,,,,
KRDR,11-18-2007,23:19,SPECI,,190,20,,,9999,,3.0,1.0,29.72,1007.5,,,,,,,,,,,,,,,7/8 Mostly Cloudy,1600.0,,BKN,3400.0,,,,,,
KRDR,11-18-2007,23:16,SPECI,,180,17,23.0,,9999,,3.0,1.0,29.73,1007.7,,,,,,,,,,,,,,,7/8 Mostly Cloudy,600.0,,BKN,1800.0,,,,,,
KRDR,11-18-2007,23:14,SPECI,,190,18,23.0,,9999,,3.0,1.0,29.73,1007.8,,,,,,,,,,,,,,,7/8 Mostly Cloudy,600.0,,BKN,1000.0,,,,,,
KRDR,11-18-2007,23:00,METAR,,180,18,,,9999,Mist,3.0,1.0,29.74,1008.3,10,,,,,,,,,,,,,,8/8 Overcast,600.0,,OVC,1000.0,,,,,,
KRDR,11-18-2007,22:00,METAR,,180,17,,,9999,,2.0,0.0,29.75,1008.6,,,,,,,,,,,,,,,8/8 Overcast,500.0,,OVC,900.0,,,,,,
KRDR,11-18-2007,21:00,METAR,,180,21,,170/28KTS,9999,,1.0,0.0,29.77,1009.1,,,,,,,,,,,,.03 IN,,,8/8 Overcast,900.0,,OVC,900.0,,,,,,
KRDR,11-18-2007,20:48,SPECI,,180,22,26.0,170/28KTS,9999,,1.0,0.0,29.77,1009.0,,,,,,,,,,,,,,,8/8 Overcast,900.0,,OVC,900.0,,,,,,
KRDR,11-18-2007,20:00,METAR,,170,23,28.0,170/34KTS,9999,,1.0,-1.0,29.76,1009.0,,,,,,,,,,,TRACE,,,,8/8 Overcast,700.0,,OVC,1100.0,,,,,,
KRDR,11-18-2007,19:32,SPECI,,170,23,27.0,150/29KTS,9999,,1.0,-1.0,29.77,1009.2,,,,,,,,,,,,,,,8/8 Overcast,1100.0,,OVC,1400.0,,,,,,
KRDR,11-18-2007,19:13,SPECI,,170,23,28.0,150/29KTS,9999,,0.0,-2.0,29.80,1010.1,,,,,,,,,,,,,,,8/8 Overcast,1400.0,,OVC,2900.0,,,,,,
KRDR,11-18-2007,19:00,METAR,,160,19,28.0,150/29KTS,9999,Light Rain,0.0,-2.0,29.80,1010.2,61,,,,,,,,,,.03 IN,,,,7/8 Mostly Cloudy,4900.0,,BKN,5000.0,,,,,,
KRDR,11-18-2007,18:11,SPECI,,170,19,24.0,180/26KTS,4800,Light Snow,0.0,-2.0,29.86,1012.1,71,,,,,,,,,,,,,,4/8 Partly Cloudy,72000.0,,SCT,1300.0,,,,,,
KRDR,11-18-2007,18:01,SPECI,,170,22,26.0,180/26KTS,4000,Unknown Precipitation,1.0,-3.0,29.88,1012.6,40,,,,,,,,,,,,,,2/8 Mostly Clear,72000.0,,FEW,5900.0,,,,,,
KRDR,11-18-2007,18:00,METAR,,180,20,25.0,170/29KTS,9999,,1.0,-4.0,29.88,1012.8,,,,,,,,,,,,,TRACE,,4/8 Partly Cloudy,72000.0,,SCT,5900.0,,,,,,
KRDR,11-18-2007,17:53,SPECI,,180,18,25.0,,9999,Unknown Precipitation,1.0,-4.0,29.88,1012.8,40,,,,,,,,,,,,,,4/8 Partly Cloudy,72000.0,,SCT,5900.0,,,,,,
KRDR,11-18-2007,17:00,METAR,,170,23,31.0,170/31KTS,9999,,1.0,-4.0,29.91,1013.8,,,,,,,,,,,TRACE,,,,7/8 Mostly Cloudy,6500.0,,BKN,6400.0,,,,,,
KRDR,11-18-2007,16:33,SPECI,,170,19,29.0,170/31KTS,9999,,1.0,-5.0,29.92,1014.1,,,,,,,,,,,,,,,7/8 Mostly Cloudy,7000.0,,BKN,6900.0,,,,,,
KRDR,11-18-2007,16:25,METAR,,170,23,31.0,170/31KTS,9999,Unknown Precipitation,1.0,-5.0,29.92,1014.0,40,,,,,,,,,,,,,,4/8 Partly Cloudy,72000.0,,SCT,6900.0,,,,,,
KRDR,11-18-2007,16:00,METAR,,170,24,30.0,160/31KTS,9999,,1.0,-5.0,29.93,1014.5,,,,,,,,,,,TRACE,,,,2/8 Mostly Clear,72000.0,,FEW,7900.0,,,,,,
KRDR,11-18-2007,15:49,SPECI,,170,26,30.0,160/31KTS,9999,,1.0,-5.0,29.93,1014.5,,,,,,,,,,,,,,,2/8 Mostly Clear,72000.0,,FEW,7900.0,,,,,,
KRDR,11-18-2007,15:43,SPECI,,160,21,26.0,160/31KTS,9999,Unknown Precipitation,0.0,-5.0,29.93,1014.4,40,,,,,,,,,,,,,,2/8 Mostly Clear,72000.0,,FEW,7900.0,,,,,,
KRDR,11-18-2007,15:17,SPECI,,170,23,31.0,160/31KTS,9999,,0.0,-6.0,29.95,1014.9,,,,,,,,,,,,,,,Clear,72000.0,,,73000.0,,,,,,
KRDR,11-18-2007,15:07,SPECI,,170,21,29.0,170/29KTS,9999,Unknown Precipitation,0.0,-6.0,29.95,1015.2,40,,,,,,,,,,,,,,4/8 Partly Cloudy,72000.0,,SCT,3000.0,,,,,,
KRDR,11-18-2007,15:00,METAR,,170,21,28.0,160/28KTS,9999,,0.0,-6.0,29.96,1015.4,,,,,,,,,,,,,,,7/8 Mostly Cloudy,3000.0,,BKN,3000.0,,,,,,
KRDR,11-18-2007,14:00,METAR,,170,22,26.0,170/26KTS,9999,,0.0,-6.0,29.97,1015.9,,,,,,,,,,,,,,,8/8 Overcast,2600.0,,OVC,2600.0,,,,,,
KRDR,11-18-2007,13:00,METAR,,170,16,,,9999,,0.0,-6.0,29.99,1016.4,,,,,,,,,,,,,,,8/8 Overcast,2900.0,,OVC,2900.0,,,,,,
KRDR,11-18-2007,12:00,METAR,,170,16,23.0,,9999,,0.0,-6.0,30.02,1017.5,,,,,,,,,,,,,,,8/8 Overcast,2900.0,,OVC,2900.0,,,,,,
KRDR,11-18-2007,11:37,SPECI,,160,18,24.0,,9999,,0.0,-7.0,30.03,1017.6,,,,,,,,,,,,,,,8/8 Overcast,2900.0,,OVC,2900.0,,,,,,
KRDR,11-18-2007,11:00,METAR,,160,17,21.0,,9999,,-1.0,-7.0,30.05,1018.3,,,,,,,,,,,,,,,8/8 Overcast,3000.0,,OVC,3000.0,,,,,,
KRDR,11-18-2007,10:00,METAR,,160,13,19.0,,9999,,-1.0,-7.0,30.06,1018.7,,,,,,,,,,,,,,,8/8 Overcast,3000.0,,OVC,3000.0,,,,,,
KRDR,11-18-2007,09:00,METAR,,160,11,,,9999,,-1.0,-7.0,30.08,1019.3,,,,,,,,,,,,,,,8/8 Overcast,3000.0,,OVC,3000.0,,,,,,
KRDR,11-18-2007,08:20,METAR,,150,14,,,9999,,-1.0,-7.0,30.08,1019.2,,,,,,,,,,,,,,,8/8 Overcast,3000.0,,OVC,3000.0,,,,,,
KRDR,11-18-2007,08:04,SPECI,,150,15,19.0,,9999,,-1.0,-7.0,30.08,1019.4,,,,,,,,,,,,,,,8/8 Overcast,2900.0,,OVC,2900.0,,,,,,
KRDR,11-18-2007,08:00,METAR,,150,13,,,9999,,-1.0,-7.0,30.09,1019.7,,,,,,,,,,,,,,,8/8 Overcast,2900.0,,OVC,2900.0,,,,,,
KRDR,11-18-2007,07:46,SPECI,,150,10,,,9999,,-1.0,-7.0,30.09,1019.7,,,,,,,,,,,,,,,8/8 Overcast,2900.0,,OVC,2900.0,,,,,,
KRDR,11-18-2007,07:43,SPECI,,140,11,,,9999,,-1.0,-7.0,30.09,1019.7,,,,,,,,,,,,,,,8/8 Overcast,3000.0,,OVC,3000.0,,,,,,
KRDR,11-18-2007,07:37,SPECI,,150,11,,,9999,,-1.0,-7.0,30.09,1019.8,,,,,,,,,,,,,,,8/8 Overcast,2900.0,,OVC,2900.0,,,,,,
KRDR,11-18-2007,07:00,METAR,,150,13,,,9999,,-1.0,-7.0,30.11,1020.4,,,,,,,,,,,,,,,8/8 Overcast,3100.0,,OVC,3200.0,,,,,,
KRDR,11-18-2007,06:00,METAR,,150,12,19.0,,9999,,0.0,-7.0,30.13,1021.0,,,,,,,,,,,,,,,8/8 Overcast,3300.0,,OVC,3400.0,,,,,,
KRDR,11-18-2007,05:00,METAR,,140,11,,,9999,,0.0,-6.0,30.12,1020.7,,,,,,,,,,,,,,,8/8 Overcast,3600.0,,OVC,3700.0,,,,,,
KRDR,11-18-2007,04:00,METAR,,140,10,,,9999,,-1.0,-6.0,30.14,1021.3,,,,,,,,,,,,,,,8/8 Overcast,3500.0,,OVC,3600.0,,,,,,
KRDR,11-18-2007,03:00,METAR,,130,11,,,9999,,-1.0,-6.0,30.14,1021.3,,,,,,,,,,,,,,,8/8 Overcast,3700.0,,OVC,3800.0,,,,,,
KRDR,11-18-2007,02:00,METAR,,120,7,,,9999,,-1.0,-7.0,30.15,1021.6,,,,,,,,,,,,,,,8/8 Overcast,4000.0,,OVC,4100.0,,,,,,
KRDR,11-18-2007,01:00,METAR,,100,5,,,9999,,0.0,-7.0,30.16,1021.9,,,,,,,,,,,,,,,8/8 Overcast,3900.0,,OVC,4000.0,,,,,,
KRDR,11-18-2007,00:00,METAR,,100,4,,,9999,,0.0,-7.0,30.16,1021.9,,,,,,,,,,,,,,,8/8 Overcast,3600.0,,OVC,3700.0,,,,,,
KRDR,11-17-2007,23:37,SPECI,,100,5,,,9999,,0.0,-7.0,30.16,1021.9,,,,,,,,,,,,,,,8/8 Overcast,3000.0,,OVC,3000.0,,,,,,
KRDR,11-17-2007,23:00,METAR,,100,6,,,9999,,1.0,-7.0,30.16,1021.9,,,,,,,,,,,,,,,8/8 Overcast,2700.0,,OVC,2700.0,,,,,,
KRDR,11-17-2007,22:22,SPECI,,100,5,,,9999,,1.0,-7.0,30.15,1021.8,,,,,,,,,,,,,,,8/8 Overcast,2400.0,,OVC,2900.0,,,,,,
KRDR,11-17-2007,22:00,METAR,,80,6,,,9999,,1.0,-7.0,30.16,1021.8,,,,,,,,,,,,,,,8/8 Overcast,3200.0,,FEW,2800.0,OVC,4000.0,,,,
KRDR,11-17-2007,21:00,METAR,,90,8,,,9999,,1.0,-7.0,30.15,1021.7,,,,,,,,,,,,,,,8/8 Overcast,3500.0,,OVC,3600.0,,,,,,
KRDR,11-17-2007,20:00,METAR,,70,7,,,9999,,0.0,-7.0,30.15,1021.8,,,,,,,,,,,,,,,8/8 Overcast,3100.0,,OVC,3200.0,,,,,,
KRDR,11-17-2007,19:00,METAR,,70,6,,,9999,,0.0,-7.0,30.16,1022.1,,,,,,,,,,,,,,,8/8 Overcast,3000.0,,OVC,3000.0,,,,,,
KRDR,11-17-2007,18:44,SPECI,,80,8,,,9999,,-1.0,-8.0,30.16,1022.1,,,,,,,,,,,,,,,8/8 Overcast,3000.0,,OVC,3000.0,,,,,,
KRDR,11-17-2007,18:00,METAR,,70,8,,,9999,,-1.0,-8.0,30.16,1021.9,,,,,,,,,,,,,,,8/8 Overcast,2800.0,,OVC,2800.0,,,,,,
KRDR,11-17-2007,17:00,METAR,,60,9,,,9999,,-2.0,-8.0,30.15,1021.7,,,,,,,,,,,,,,,8/8 Overcast,2400.0,,OVC,2400.0,,,,,,
KRDR,11-17-2007,16:00,METAR,,70,9,,,9999,,-2.0,-8.0,30.14,1021.4,,,,,,,,,,,,,,,7/8 Mostly Cloudy,2100.0,,BKN,2600.0,,,,,,
KRDR,11-17-2007,15:00,METAR,,50,8,,,9999,,-3.0,-8.0,30.13,1020.9,,,,,,,,,,,,,,,7/8 Mostly Cloudy,2800.0,,BKN,2800.0,,,,,,
KRDR,11-17-2007,14:00,METAR,,30,6,,,9999,,-3.0,-8.0,30.11,1020.3,,,,,,,,,,,,,,,7/8 Mostly Cloudy,2500.0,,BKN,2500.0,,,,,,
KRDR,11-17-2007,13:00,METAR,,40,8,,,9999,,-3.0,-8.0,30.09,1019.7,,,,,,,,,,,,,,,8/8 Overcast,2200.0,,OVC,2200.0,,,,,,
KRDR,11-17-2007,12:00,METAR,,20,8,,,9999,,-4.0,-8.0,30.07,1019.1,,,,,,,,,,,,,,,8/8 Overcast,1800.0,,OVC,2300.0,,,,,,
KRDR,11-17-2007,11:00,METAR,,30,6,,,9999,,-3.0,-8.0,30.06,1018.6,,,,,,,,,,,,,,,8/8 Overcast,2700.0,,OVC,2700.0,,,,,,
KRDR,11-17-2007,10:25,METAR,,40,7,,,9999,,-3.0,-7.0,30.04,1018.1,,,,,,,,,,,,,,,7/8 Mostly Cloudy,2800.0,,BKN,2800.0,,,,,,
KRDR,11-17-2007,10:00,METAR,,50,9,,,9999,,-3.0,-7.0,30.02,1017.5,,,,,,,,,,,,,,,2/8 Mostly Clear,72000.0,,FEW,9400.0,,,,,,
KRDR,11-17-2007,09:00,METAR,,60,12,,,9999,,-1.0,-7.0,30.00,1016.8,,,,,,,,,,,,,,,Clear,72000.0,,,73000.0,,,,,,
KRDR,11-17-2007,08:00,METAR,,60,10,,,9999,,-1.0,-6.0,29.98,1016.0,,,,,,,,,,,,,,,Clear,72000.0,,,73000.0,,,,,,
KRDR,11-17-2007,07:00,METAR,,60,9,,,9999,,0.0,-5.0,29.97,1015.7,,,,,,,,,,,,,,,Clear,72000.0,,,73000.0,,,,,,
KRDR,11-17-2007,06:00,METAR,,60,9,,,9999,,0.0,-5.0,29.97,1015.7,,,,,,,,,,,,,,,Clear,72000.0,,,73000.0,,,,,,
KRDR,11-17-2007,05:00,METAR,,60,10,,,9999,,0.0,-5.0,29.95,1015.2,,,,,,,,,,,,,,,8/8 Overcast,8000.0,,OVC,7900.0,,,,,,
KRDR,11-17-2007,04:00,METAR,,60,8,,,9999,,1.0,-5.0,29.94,1014.8,,,,,,,,,,,,,,,8/8 Overcast,9000.0,,OVC,8900.0,,,,,,
KRDR,11-17-2007,03:00,METAR,,50,7,,,9999,,1.0,-5.0,29.93,1014.3,,,,,,,,,,,,,,,8/8 Overcast,9500.0,,OVC,9400.0,,,,,,
KRDR,11-17-2007,02:00,METAR,,60,9,,,9999,,1.0,-5.0,29.90,1013.4,,,,,,,,,,,,,,,8/8 Overcast,9500.0,,OVC,9400.0,,,,,,
KRDR,11-17-2007,01:00,METAR,,50,7,,,9999,,0.0,-5.0,29.89,1013.0,,,,,,,,,,,,,,,7/8 Mostly Cloudy,10000.0,,BKN,9900.0,,,,,,
KRDR,11-17-2007,00:00,METAR,,50,8,,,9999,,1.0,-5.0,29.86,1012.3,,,,,,,,,,,,,,,4/8 Partly Cloudy,72000.0,,FEW,7900.0,SCT,20000.0,,,,
KRDR,11-16-2007,23:00,METAR,,60,7,,,9999,,3.0,-4.0,29.84,1011.6,,,,,,,,,,,,,,,7/8 Mostly Cloudy,20000.0,,FEW,7900.0,BKN,20000.0,,,,
KRDR,11-16-2007,22:00,METAR,,70,10,,,9999,,5.0,-5.0,29.82,1010.9,,,,,,,,,,,,,,,7/8 Mostly Cloudy,20000.0,,FEW,9900.0,BKN,20000.0,,,,
KRDR,11-16-2007,21:00,METAR,,60,12,,,9999,,6.0,-5.0,29.79,1009.8,,,,,,,,,,,,,,,4/8 Partly Cloudy,72000.0,,FEW,7900.0,SCT,20000.0,,,,
KRDR,11-16-2007,20:00,METAR,,50,11,,,9999,,6.0,-4.0,29.78,1009.6,,,,,,,,,,,,,,,4/8 Partly Cloudy,72000.0,,FEW,7900.0,SCT,20000.0,,,,
KRDR,11-16-2007,19:00,METAR,,60,6,,,9999,,5.0,-5.0,29.78,1009.4,,,,,,,,,,,,,,,7/8 Mostly Cloudy,20000.0,,FEW,7900.0,BKN,20000.0,,,,
KRDR,11-16-2007,18:00,METAR,,110,7,,,9999,,5.0,-5.0,29.79,1009.9,,,,,,,,,,,,,,,7/8 Mostly Cloudy,20000.0,,FEW,7900.0,BKN,20000.0,,,,
KRDR,11-16-2007,17:00,METAR,,120,9,,,9999,,4.0,-5.0,29.80,1010.1,,,,,,,,,,,,,,,4/8 Partly Cloudy,72000.0,,FEW,7900.0,SCT,18000.0,,,,
KRDR,11-16-2007,16:00,METAR,,90,10,,,9999,,1.0,-4.0,29.79,1009.8,,,,,,,,,,,,,,,4/8 Partly Cloudy,72000.0,,FEW,8900.0,SCT,18000.0,,,,
KRDR,11-16-2007,15:00,METAR,,90,6,,,9999,,-1.0,-5.0,29.78,1009.6,,,,,,,,,,,,,,,4/8 Partly Cloudy,72000.0,,FEW,8900.0,SCT,18000.0,,,,
KRDR,11-16-2007,14:00,METAR,,40,4,,,9999,,-6.0,-8.0,29.79,1009.7,,,,,,,,,,,,,,,4/8 Partly Cloudy,72000.0,,FEW,8900.0,SCT,18000.0,,,,
KRDR,11-16-2007,13:00,METAR,,80,4,,,9999,,-2.0,-6.0,29.76,1008.9,,,,,,,,,,,,,,,2/8 Mostly Clear,72000.0,,FEW,8900.0,FEW,22000.0,,,,
KRDR,11-16-2007,12:00,METAR,,110,6,,,9999,,-2.0,-6.0,29.77,1009.1,,,,,,,,,,,,,,,4/8 Partly Cloudy,72000.0,,FEW,5900.0,SCT,15000.0,,,,
KRDR,11-16-2007,11:00,METAR,,110,4,,,9999,,-1.0,-6.0,29.78,1009.6,,,,,,,,,,,,,,,Clear,72000.0,,,73000.0,,,,,,
KRDR,11-16-2007,10:00,METAR,,110,7,,,9999,,0.0,-5.0,29.78,1009.5,,,,,,,,,,,,,,,2/8 Mostly Clear,72000.0,,FEW,7900.0,,,,,,
KRDR,11-16-2007,09:00,METAR,,130,11,,,9999,,1.0,-5.0,29.81,1010.4,,,,,,,,,,,,,,,8/8 Overcast,8000.0,,OVC,7900.0,,,,,,
KRDR,11-16-2007,08:00,METAR,,120,9,,,9999,,0.0,-5.0,29.83,1011.2,,,,,,,,,,,,,,,8/8 Overcast,9000.0,,OVC,8900.0,,,,,,
KRDR,11-16-2007,07:00,METAR,,120,10,,,9999,,0.0,-5.0,29.86,1012.0,,,,,,,,,,,,,,,4/8 Partly Cloudy,72000.0,,SCT,9400.0,,,,,,
KRDR,11-16-2007,06:00,METAR,,120,9,,,9999,,0.0,-5.0,29.89,1013.1,,,,,,,,,,,,,,,2/8 Mostly Clear,72000.0,,FEW,6900.0,,,,,,
KRDR,11-16-2007,05:00,METAR,,110,9,,,9999,,0.0,-5.0,29.90,1013.5,,,,,,,,,,,,,,,7/8 Mostly Cloudy,18000.0,,SCT,12000.0,BKN,18000.0,,,,
KRDR,11-16-2007,04:00,METAR,,130,8,,,9999,,1.0,-5.0,29.92,1014.2,,,,,,,,,,,,,,,8/8 Overcast,15000.0,,SCT,9900.0,OVC,15000.0,,,,
KRDR,11-16-2007,03:00,METAR,,130,8,,,9999,,1.0,-6.0,29.94,1014.7,,,,,,,,,,,,,,,8/8 Overcast,6000.0,,BKN,5900.0,OVC,9900.0,,,,
KRDR,11-16-2007,02:00,METAR,,140,10,,,9999,,1.0,-6.0,29.94,1014.8,,,,,,,,,,,,,,,7/8 Mostly Cloudy,15000.0,,SCT,9900.0,BKN,15000.0,,,,
KRDR,11-16-2007,01:00,METAR,,130,9,,,9999,,1.0,-6.0,29.96,1015.3,,,,,,,,,,,,,,,8/8 Overcast,12000.0,,SCT,7900.0,BKN,12000.0,OVC,15000.0,,
KRDR,11-16-2007,00:00,METAR,,140,7,,,9999,,1.0,-6.0,29.99,1016.5,,,,,,,,,,,,,,,7/8 Mostly Cloudy,11000.0,,BKN,11000.0,BKN,16000.0,,,,
KRDR,11-15-2007,23:00,METAR,,140,7,,,9999,Smoke or Ash,2.0,-6.0,30.00,1016.8,,,,4,,,,,,,,,,,8/8 Overcast,14000.0,,FEW,0.0,BKN,14000.0,OVC,18000.0,,
KRDR,11-15-2007,22:00,METAR,,150,7,,,9999,,2.0,-6.0,30.04,1018.1,,,,,,,,,,,,,,,7/8 Mostly Cloudy,20000.0,,SCT,14000.0,BKN,20000.0,,,,
KRDR,11-15-2007,21:00,METAR,,180,9,,,9999,,2.0,-6.0,30.06,1018.7,,,,,,,,,,,,,,,7/8 Mostly Cloudy,14000.0,,BKN,14000.0,BKN,20000.0,,,,
KRDR,11-15-2007,20:00,METAR,,210,5,,,9999,,2.0,-6.0,30.09,1019.6,,,,,,,,,,,,,,,7/8 Mostly Cloudy,17000.0,,FEW,12000.0,BKN,17000.0,,,,
KRDR,11-15-2007,19:00,METAR,,180,6,,,9999,,1.0,-7.0,30.10,1020.0,,,,,,,,,,,,,,,7/8 Mostly Cloudy,20000.0,,FEW,9900.0,BKN,20000.0,,,,
KRDR,11-15-2007,18:00,METAR,,,2,,,9999,,1.0,-7.0,30.12,1020.7,,,,,,,,,,,,,,,4/8 Partly Cloudy,72000.0,,SCT,20000.0,,,,,,
KRDR,11-15-2007,17:00,METAR,,,3,,,9999,,0.0,-7.0,30.14,1021.5,,,,,,,,,,,,,,,2/8 Mostly Clear,72000.0,,FEW,25000.0,,,,,,
KRDR,11-15-2007,16:00,METAR,,260,4,,,9999,,-2.0,-6.0,30.15,1021.8,,,,,,,,,,,,,,,2/8 Mostly Clear,72000.0,,FEW,3500.0,FEW,25000.0,,,,
KRDR,11-15-2007,15:00,METAR,,280,5,,,9999,,-4.0,-7.0,30.16,1021.8,,,,,,,,,,,,,,,2/8 Mostly Clear,72000.0,,FEW,4000.0,FEW,25000.0,,,,
KRDR,11-15-2007,14:00,METAR,,280,5,,,9999,,-7.0,-9.0,30.16,1022.1,,,,,,,,,,,,,,,2/8 Mostly Clear,72000.0,,FEW,3500.0,FEW,25000.0,,,,
KRDR,11-15-2007,13:00,METAR,,270,6,,,9999,,-6.0,-8.0,30.16,1021.9,,,,,,,,,,,,,,,Clear,72000.0,,,73000.0,,,,,,
KRDR,11-15-2007,12:00,METAR,,290,7,,,9999,,-6.0,-9.0,30.15,1021.7,,,,,,,,,,,,,,,Clear,72000.0,,,73000.0,,,,,,
KRDR,11-15-2007,11:00,METAR,,300,8,,,9999,,-7.0,-9.0,30.15,1021.7,,,,,,,,,,,,,,,2/8 Mostly Clear,72000.0,,FEW,3400.0,,,,,,
KRDR,11-15-2007,10:00,METAR,,290,7,,,9999,,-6.0,-8.0,30.15,1021.5,,,,,,,,,,,,,,,2/8 Mostly Clear,72000.0,,FEW,3100.0,,,,,,
KRDR,11-15-2007,09:00,METAR,,300,7,,,9999,,-4.0,-7.0,30.15,1021.7,,,,,,,,,,,,,,,Clear,72000.0,,,73000.0,,,,,,
KRDR,11-15-2007,08:00,METAR,,320,7,,,9999,,-3.0,-8.0,30.15,1021.5,,,,,,,,,,,,,,,4/8 Partly Cloudy,72000.0,,SCT,3800.0,,,,,,
KRDR,11-15-2007,07:00,METAR,,310,9,,,9999,,-2.0,-7.0,30.14,1021.4,,,,,,,,,,,,,,,2/8 Mostly Clear,72000.0,,FEW,3800.0,,,,,,
KRDR,11-15-2007,06:00,METAR,,320,13,19.0,,9999,,0.0,-7.0,30.14,1021.3,,,,,,,,,,,,,,,7/8 Mostly Cloudy,3000.0,,BKN,3000.0,,,,,,
KRDR,11-15-2007,05:50,METAR,,310,14,19.0,,9999,,0.0,-7.0,30.14,1021.2,,,,,,,,,,,,,,,8/8 Overcast,3000.0,,OVC,3000.0,,,,,,
KRDR,11-15-2007,05:14,SPECI,,310,14,18.0,,9999,,0.0,-7.0,30.13,1021.1,,,,,,,,,,,,,,,8/8 Overcast,2900.0,,OVC,2900.0,,,,,,
KRDR,11-15-2007,05:09,SPECI,,310,14,,,9999,,0.0,-6.0,30.13,1021.1,,,,,,,,,,,,,,,8/8 Overcast,3000.0,,OVC,3000.0,,,,,,
KRDR,11-15-2007,05:00,METAR,,310,15,22.0,,9999,,0.0,-6.0,30.13,1020.9,,,,,,,,,,,,,,,8/8 Overcast,3100.0,,OVC,3200.0,,,,,,
KRDR,11-15-2007,04:00,METAR,,330,11,22.0,,9999,,1.0,-5.0,30.12,1020.6,,,,,,,,,,,,,,,8/8 Overcast,3100.0,,OVC,3100.0,,,,,,
KRDR,11-15-2007,03:00,METAR,,330,10,19.0,330/25KTS,9999,,1.0,-5.0,30.13,1021.1,,,,,,,,,,,,,,,8/8 Overcast,3100.0,,OVC,3100.0,,,,,,
KRDR,11-15-2007,02:00,METAR,,350,19,28.0,330/31KTS,9999,,1.0,-6.0,30.12,1020.8,,,,,,,,,,,,,,,8/8 Overcast,3200.0,,OVC,3300.0,,,,,,
KRDR,11-15-2007,01:00,METAR,,340,15,23.0,330/26KTS,9999,,1.0,-5.0,30.11,1020.4,,,,,,,,,,,,,,,8/8 Overcast,3100.0,,OVC,3100.0,,,,,,
KRDR,11-15-2007,00:00,METAR,,330,17,24.0,340/26KTS,9999,,1.0,-6.0,30.09,1019.7,,,,,,,,,,,,,,,8/8 Overcast,3100.0,,OVC,3100.0,,,,,,
KRDR,11-14-2007,23:00,METAR,,320,16,22.0,330/28KTS,9999,,1.0,-5.0,30.06,1018.6,,,,,,,,,,,,,,,8/8 Overcast,3100.0,,OVC,3200.0,,,,,,
KRDR,11-14-2007,22:11,SPECI,,330,19,27.0,,9999,,2.0,-6.0,30.04,,,,,,,,,,,,,,,,8/8 Overcast,3100.0,,OVC,3200.0,,,,,,
KRDR,11-14-2007,22:00,METAR,,330,21,28.0,320/29KTS,9999,,2.0,-6.0,30.03,1017.6,,,,,,,,,,,,,,,8/8 Overcast,2900.0,,OVC,2900.0,,,,,,
KRDR,11-14-2007,21:00,METAR,,330,21,28.0,340/29KTS,9999,,2.0,-5.0,29.99,1016.5,,,,,,,,,,,,,,,8/8 Overcast,2900.0,,OVC,2900.0,,,,,,
KRDR,11-14-2007,20:00,METAR,,330,20,27.0,330/30KTS,9999,,2.0,-5.0,29.95,1015.1,,,,,,,,,,,,,,,8/8 Overcast,2500.0,,OVC,2500.0,,,,,,
KRDR,11-14-2007,19:00,METAR,,340,24,30.0,340/31KTS,9999,,2.0,-5.0,29.93,1014.5,,,,,,,,,,,,,,,7/8 Mostly Cloudy,2500.0,,BKN,2500.0,,,,,,
KRDR,11-14-2007,18:00,METAR,,330,22,33.0,340/36KTS,9999,,2.0,-5.0,29.90,1013.5,,,,,,,,,,,,,TRACE,,8/8 Overcast,2600.0,,OVC,2600.0,,,,,,
KRDR,11-14-2007,17:00,METAR,,330,23,29.0,320/36KTS,9999,,1.0,-5.0,29.87,1012.4,,,,,,,,,,,,,,,7/8 Mostly Cloudy,2700.0,,BKN,2700.0,BKN,5000.0,,,,
KRDR,11-14-2007,16:00,METAR,,330,23,34.0,320/34KTS,9999,,1.0,-5.0,29.82,1010.8,,,,,,,,,,,TRACE,,,,8/8 Overcast,2700.0,,BKN,2700.0,OVC,5000.0,,,,
KRDR,11-14-2007,15:00,METAR,,320,21,28.0,340/30KTS,9999,Light Snow,0.0,-5.0,29.78,1009.3,,,,71,,,,,,,TRACE,TRACE,,,7/8 Mostly Cloudy,2400.0,,BKN,2400.0,,,,,,
KRDR,11-14-2007,14:37,SPECI,,320,16,24.0,,9999,Light Snow,0.0,-5.0,29.77,,,,,71,,,,,,,,,,,8/8 Overcast,2600.0,,BKN,2600.0,BKN,3700.0,OVC,6900.0,,
KRDR,11-14-2007,14:00,METAR,,330,22,29.0,330/35KTS,9999,,0.0,-5.0,29.73,1007.9,,,,,,,,,,,TRACE,,,,7/8 Mostly Cloudy,2300.0,,BKN,2300.0,BKN,4300.0,,,,
KRDR,11-14-2007,13:41,SPECI,,320,20,29.0,,9999,,0.0,-4.0,29.72,,,,,,,,,,,,,,,,7/8 Mostly Cloudy,2300.0,,BKN,2300.0,BKN,12000.0,,,,
KRDR,11-14-2007,13:31,SPECI,,330,23,35.0,,9999,Light Snow/Rain,1.0,-4.0,29.71,,,,,61,71,,,,,,,,,,7/8 Mostly Cloudy,2200.0,,BKN,2200.0,,,,,,
KRDR,11-14-2007,13:00,METAR,,310,24,32.0,320/34KTS,9999,Light Snow,1.0,-4.0,29.67,1006.0,,,,71,,,,,,,TRACE,,,,8/8 Overcast,2200.0,,OVC,2200.0,,,,,,
KRDR,11-14-2007,12:06,SPECI,,320,21,30.0,,9999,Light Snow,2.0,-3.0,29.64,,,,,71,,,,,,,,,,,8/8 Overcast,2400.0,,FEW,1800.0,BKN,2400.0,OVC,2900.0,,
KRDR,11-14-2007,12:00,METAR,,320,26,39.0,320/39KTS,9999,Snow Grains/Light Snow,2.0,-2.0,29.63,1004.5,,,,71,77,,,,,,,,,,8/8 Overcast,2700.0,,FEW,2200.0,BKN,2700.0,OVC,4500.0,,
KRDR,11-14-2007,11:00,METAR,,310,22,34.0,300/36KTS,9999,,3.0,-2.0,29.60,1003.5,,,,,,,,,,,,,,,8/8 Overcast,2700.0,,FEW,2200.0,BKN,2700.0,OVC,4500.0,,
KRDR,11-14-2007,10:00,METAR,,300,21,34.0,310/38KTS,9999,,3.0,-2.0,29.57,1002.4,,,,,,,,,,,,,,,8/8 Overcast,2400.0,,BKN,2400.0,BKN,4500.0,OVC,6900.0,,
KRDR,11-14-2007,09:32,SPECI,,300,22,33.0,310/38KTS,9999,,3.0,-2.0,29.56,1002.1,,,,,,,,,,,,,,,7/8 Mostly Cloudy,2200.0,,BKN,2900.0,,,,,,
KRDR,11-14-2007,09:00,METAR,,300,20,33.0,310/37KTS,9999,,4.0,-3.0,29.54,1001.6,,,,,,,,,,,,,,,7/8 Mostly Cloudy,3000.0,,BKN,3700.0,,,,,,
KRDR,11-14-2007,08:00,METAR,,290,23,34.0,300/34KTS,9999,,5.0,-3.0,29.50,1000.3,,,,,,,,,,,,,,,8/8 Overcast,4100.0,,OVC,4200.0,,,,,,
KRDR,11-14-2007,07:00,METAR,,290,22,32.0,290/36KTS,9999,,6.0,-3.0,29.49,999.8,,,,,,,,,,,,,,,8/8 Overcast,6000.0,,OVC,5900.0,,,,,,
KRDR,11-14-2007,06:00,METAR,,280,21,33.0,280/43KTS,9999,,6.0,-4.0,29.47,999.4,,,,,,,,,,,,,,,4/8 Partly Cloudy,72000.0,,SCT,6400.0,,,,,,
KRDR,11-14-2007,05:00,METAR,,290,19,29.0,290/29KTS,9999,,7.0,-6.0,29.46,999.0,,,,,,,,,,,,,,,4/8 Partly Cloudy,72000.0,,SCT,7900.0,,,,,,
KRDR,11-14-2007,04:00,METAR,,280,15,20.0,,9999,,8.0,-8.0,29.46,998.9,,,,,,,,,,,,,,,7/8 Mostly Cloudy,7500.0,,BKN,7400.0,,,,,,
KRDR,11-14-2007,03:00,METAR,,260,13,19.0,,9999,,8.0,-7.0,29.45,998.7,,,,,,,,,,,,,,,4/8 Partly Cloudy,72000.0,,FEW,12000.0,SCT,20000.0,,,,
KRDR,11-14-2007,02:00,METAR,,280,13,21.0,270/27KTS,9999,,8.0,-7.0,29.46,998.8,,,,,,,,,,,,,,,4/8 Partly Cloudy,72000.0,,FEW,12000.0,SCT,20000.0,,,,
KRDR,11-14-2007,01:00,METAR,,280,19,29.0,290/29KTS,9999,,10.0,-7.0,29.45,998.5,,,,,,,,,,,,,,,2/8 Mostly Clear,72000.0,,FEW,12000.0,FEW,20000.0,,,,
KRDR,11-14-2007,00:00,METAR,,280,18,30.0,270/30KTS,9999,,10.0,-7.0,29.44,998.3,,,,,,,,,,,,,,,2/8 Mostly Clear,72000.0,,FEW,12000.0,FEW,20000.0,,,,
KRDR,11-13-2007,23:00,METAR,,270,17,29.0,280/34KTS,9999,,11.0,-6.0,29.43,998.1,,,,,,,,,,,,,,,4/8 Partly Cloudy,72000.0,,SCT,12000.0,SCT,20000.0,,,,
KRDR,11-13-2007,22:00,METAR,,270,20,28.0,280/34KTS,9999,,11.0,-2.0,29.40,997.0,,,,,,,,,,,,,,,7/8 Mostly Cloudy,12000.0,,BKN,12000.0,BKN,20000.0,,,,
KRDR,11-13-2007,21:00,METAR,,270,21,34.0,270/38KTS,9999,,13.0,-5.0,29.40,996.9,,,,,,,,,,,,,,,7/8 Mostly Cloudy,12000.0,,BKN,12000.0,BKN,20000.0,,,,
KRDR,11-13-2007,20:00,METAR,,270,25,36.0,280/37KTS,9999,,14.0,-7.0,29.38,996.2,,,,,,,,,,,,,,,8/8 Overcast,12000.0,,OVC,12000.0,,,,,,
KRDR,11-13-2007,19:00,METAR,,270,19,38.0,280/38KTS,9999,,15.0,-7.0,29.36,995.6,,,,,,,,,,,,,,,8/8 Overcast,11000.0,,OVC,11000.0,,,,,,
KRDR,11-13-2007,18:00,METAR,,270,19,24.0,,9999,,14.0,0.0,29.33,994.6,,,,,,,,,,,,,,,8/8 Overcast,12000.0,,BKN,12000.0,OVC,20000.0,,,,
KRDR,11-13-2007,17:00,METAR,,230,16,,,9999,,13.0,0.0,29.32,994.2,,,,,,,,,,,,,,,8/8 Overcast,12000.0,,BKN,12000.0,OVC,20000.0,,,,
KRDR,11-13-2007,16:00,METAR,,220,15,,,9999,,12.0,0.0,29.33,994.6,,,,,,,,,,,,,,,8/8 Overcast,12000.0,,BKN,12000.0,OVC,20000.0,,,,
KRDR,11-13-2007,15:00,METAR,,220,15,,,9999,,12.0,-1.0,29.33,994.5,,,,,,,,,,,,,,,8/8 Overcast,20000.0,,SCT,12000.0,OVC,20000.0,,,,
KRDR,11-13-2007,14:00,METAR,,200,11,,,9999,,10.0,-1.0,29.34,994.9,,,,,,,,,,,,,,,8/8 Overcast,20000.0,,FEW,11000.0,OVC,20000.0,,,,
KRDR,11-13-2007,13:00,METAR,,200,14,,,9999,,9.0,-1.0,29.34,994.9,,,,,,,,,,,,,,,8/8 Overcast,20000.0,,SCT,11000.0,OVC,20000.0,,,,
KRDR,11-13-2007,12:00,METAR,,190,17,23.0,200/31KTS,9999,,9.0,-1.0,29.35,995.4,,,,,,,,,,,,,,,8/8 Overcast,20000.0,,FEW,12000.0,OVC,20000.0,,,,
KRDR,11-13-2007,11:00,METAR,,190,18,,,9999,,9.0,-2.0,29.36,995.6,,,,,,,,,,,,,,,Clear,72000.0,,,73000.0,,,,,,
KRDR,11-13-2007,10:00,METAR,,200,16,26.0,200/29KTS,9999,,9.0,-2.0,29.43,997.9,,,,,,,,,,,,,,,Clear,72000.0,,,73000.0,,,,,,
KRDR,11-13-2007,09:00,METAR,,190,17,24.0,190/29KTS,9999,,9.0,-2.0,29.46,999.0,,,,,,,,,,,,,,,Clear,72000.0,,,73000.0,,,,,,
KRDR,11-13-2007,08:00,METAR,,190,18,,180/29KTS,9999,,9.0,-2.0,29.50,1000.1,,,,,,,,,,,,,,,Clear,72000.0,,,73000.0,,,,,,
KRDR,11-13-2007,07:00,METAR,,190,20,26.0,190/29KTS,9999,,9.0,-2.0,29.54,1001.4,,,,,,,,,,,,,,,Clear,72000.0,,,73000.0,,,,,,
KRDR,11-13-2007,06:00,METAR,,190,19,25.0,190/27KTS,9999,,9.0,-1.0,29.60,1003.5,,,,,,,,,,,,,,,Clear,72000.0,,,73000.0,,,,,,
KRDR,11-13-2007,05:00,METAR,,200,19,24.0,,9999,,9.0,0.0,29.68,1006.0,,,,,,,,,,,,,,,8/8 Overcast,20000.0,,OVC,20000.0,,,,,,
KRDR,11-13-2007,04:00,METAR,,200,13,,,9999,,8.0,0.0,29.73,1007.9,,,,,,,,,,,,,,,8/8 Overcast,20000.0,,OVC,20000.0,,,,,,
KRDR,11-13-2007,03:00,METAR,,180,10,,,9999,,7.0,-1.0,29.76,1008.9,,,,,,,,,,,,,,,8/8 Overcast,22000.0,,OVC,22000.0,,,,,,
KRDR,11-13-2007,02:00,METAR,,190,14,,,9999,,8.0,-1.0,29.81,1010.3,,,,,,,,,,,,,,,8/8 Overcast,25000.0,,OVC,25000.0,,,,,,
KRDR,11-13-2007,01:00,METAR,,180,10,,,9999,,8.0,-2.0,29.84,1011.6,,,,,,,,,,,,,,,4/8 Partly Cloudy,72000.0,,SCT,25000.0,,,,,,
KRDR,11-13-2007,00:00,METAR,,170,9,,,9999,Smoke or Ash,9.0,-3.0,29.87,1012.3,,,,4,,,,,,,,,,,4/8 Partly Cloudy,72000.0,,FEW,0.0,SCT,25000.0,,,,
KRDR,11-12-2007,23:00,METAR,,200,11,,,9999,Smoke or Ash,12.0,-3.0,29.89,1013.2,,,,4,,,,,,,,,,,4/8 Partly Cloudy,72000.0,,FEW,0.0,SCT,25000.0,,,,
KRDR,11-12-2007,22:00,METAR,,240,14,24.0,,9999,,15.0,-3.0,29.93,1014.4,,,,,,,,,,,,,,,Clear,72000.0,,,73000.0,,,,,,
KRDR,11-12-2007,21:00,METAR,,240,15,19.0,,9999,,15.0,-2.0,29.95,1015.2,,,,,,,,,,,,,,,Clear,72000.0,,,73000.0,,,,,,
KRDR,11-12-2007,20:00,METAR,,240,17,23.0,,9999,,15.0,-2.0,29.99,1016.3,,,,,,,,,,,,,,,Clear,72000.0,,,73000.0,,,,,,
KRDR,11-12-2007,19:00,METAR,,240,12,,,9999,,14.0,-2.0,30.01,1017.1,,,,,,,,,,,,,,,Clear,72000.0,,,73000.0,,,,,,
KRDR,11-12-2007,18:00,METAR,,220,10,,,9999,,12.0,-3.0,30.04,1018.1,,,,,,,,,,,,,,,Clear,72000.0,,,73000.0,,,,,,
KRDR,11-12-2007,17:00,METAR,,220,11,,,9999,,10.0,-4.0,30.07,1019.2,,,,,,,,,,,,,,,Clear,72000.0,,,73000.0,,,,,,
KRDR,11-12-2007,16:00,METAR,,240,9,,,9999,,7.0,-5.0,30.08,1019.5,,,,,,,,,,,,,,,Clear,72000.0,,,73000.0,,,,,,
KRDR,11-12-2007,15:00,METAR,,220,7,,,9999,,4.0,-6.0,30.07,1019.2,,,,,,,,,,,,,,,Clear,72000.0,,,73000.0,,,,,,
KRDR,11-12-2007,14:00,METAR,,250,8,,,9999,,1.0,-7.0,30.07,1019.1,,,,,,,,,,,,,,,Clear,72000.0,,,73000.0,,,,,,
KRDR,11-12-2007,13:00,METAR,,250,9,,,9999,,2.0,-6.0,30.07,1019.1,,,,,,,,,,,,,,,Clear,72000.0,,,73000.0,,,,,,
KRDR,11-12-2007,12:00,METAR,,270,8,,,9999,,4.0,-8.0,30.05,1018.3,,,,,,,,,,,,,,,Clear,72000.0,,,73000.0,,,,,,
KRDR,11-12-2007,11:00,METAR,,280,12,,,9999,,5.0,-8.0,30.04,1017.9,,,,,,,,,,,,,,,Clear,72000.0,,,73000.0,,,,,,
KRDR,11-12-2007,10:00,METAR,,260,12,,,9999,,5.0,-8.0,30.02,1017.4,,,,,,,,,,,,,,,Clear,72000.0,,,73000.0,,,,,,
KRDR,11-12-2007,09:00,METAR,,290,8,,,9999,,4.0,-8.0,30.00,1016.6,,,,,,,,,,,,,,,Clear,72000.0,,,73000.0,,,,,,
KRDR,11-12-2007,08:00,METAR,,300,9,,,9999,,6.0,-8.0,29.99,1016.2,,,,,,,,,,,,,,,Clear,72000.0,,,73000.0,,,,,,
KRDR,11-12-2007,07:00,METAR,,320,10,,,9999,,5.0,-8.0,29.96,1015.5,,,,,,,,,,,,,,,Clear,72000.0,,,73000.0,,,,,,
KRDR,11-12-2007,06:00,METAR,,280,14,,,9999,,5.0,-9.0,29.93,1014.4,,,,,,,,,,,,,,,Clear,72000.0,,,73000.0,,,,,,
KRDR,11-12-2007,05:00,METAR,,280,11,,,9999,,5.0,-9.0,29.89,1013.2,,,,,,,,,,,,,,,Clear,72000.0,,,73000.0,,,,,,
KRDR,11-12-2007,04:00,METAR,,280,13,,,9999,,6.0,-8.0,29.87,1012.6,,,,,,,,,,,,,,,Clear,72000.0,,,73000.0,,,,,,
KRDR,11-12-2007,03:00,METAR,,280,12,,,9999,,5.0,-8.0,29.84,1011.6,,,,,,,,,,,,,,,Clear,72000.0,,,73000.0,,,,,,
KRDR,11-12-2007,02:00,METAR,,280,7,,,9999,,5.0,-7.0,29.82,1010.8,,,,,,,,,,,,,,,Clear,72000.0,,,73000.0,,,,,,
KRDR,11-12-2007,01:00,METAR,,270,8,,,9999,,7.0,-6.0,29.80,1010.0,,,,,,,,,,,,,,,Clear,72000.0,,,73000.0,,,,,,
KRDR,11-12-2007,00:00,METAR,,280,8,,,9999,,8.0,-5.0,29.77,1009.2,,,,,,,,,,,,,,,Clear,72000.0,,,73000.0,,,,,,
KRDR,11-11-2007,23:00,METAR,,280,14,21.0,300/29KTS,9999,,10.0,-4.0,29.73,1007.9,,,,,,,,,,,,,,,Clear,72000.0,,,73000.0,,,,,,
KRDR,11-11-2007,22:00,METAR,,290,20,28.0,300/30KTS,9999,,12.0,-3.0,29.70,1006.9,,,,,,,,,,,,,,,Clear,72000.0,,,73000.0,,,,,,
KRDR,11-11-2007,21:00,METAR,,300,19,29.0,290/30KTS,9999,,12.0,-2.0,29.68,1006.2,,,,,,,,,,,,,,,Clear,72000.0,,,73000.0,,,,,,
KRDR,11-11-2007,20:00,METAR,,290,16,25.0,280/29KTS,9999,,12.0,-1.0,29.66,1005.4,,,,,,,,,,,,,,,Clear,72000.0,,,73000.0,,,,,,
KRDR,11-11-2007,19:00,METAR,,290,18,33.0,280/33KTS,9999,,12.0,0.0,29.64,1004.7,,,,,,,,,,,,,,,Clear,72000.0,,,73000.0,,,,,,
KRDR,11-11-2007,18:00,METAR,,290,17,23.0,,9999,,11.0,-1.0,29.63,1004.6,,,,,,,,,,,,,,,8/8 Overcast,7500.0,,OVC,7400.0,,,,,,
KRDR,11-11-2007,17:00,METAR,,290,16,23.0,,9999,,12.0,1.0,29.62,1004.0,,,,,,,,,,,,,,,4/8 Partly Cloudy,72000.0,,SCT,7900.0,,,,,,
KRDR,11-11-2007,16:00,METAR,,180,9,,,9999,,5.0,2.0,29.59,1003.3,,,,,,,,,,,,,,,7/8 Mostly Cloudy,9000.0,,BKN,8900.0,,,,,,
KRDR,11-11-2007,15:00,METAR,,170,8,,,9999,,4.0,1.0,29.58,1002.8,,,,,,,,,,,,,,,Clear,72000.0,,,73000.0,,,,,,
KRDR,11-11-2007,14:00,METAR,,190,5,,,9999,,3.0,1.0,29.59,1003.0,,,,,,,,,,,,,,,4/8 Partly Cloudy,72000.0,,SCT,12000.0,,,,,,
KRDR,11-11-2007,13:00,METAR,,160,8,,,9999,,2.0,0.0,29.55,1001.9,,,,,,,,,,,,,,,2/8 Mostly Clear,72000.0,,FEW,12000.0,,,,,,
KRDR,11-11-2007,12:00,METAR,,160,12,,,9999,,2.0,0.0,29.57,1002.4,,,,,,,,,,,,,,,4/8 Partly Cloudy,72000.0,,SCT,11000.0,,,,,,
KRDR,11-11-2007,11:00,METAR,,140,6,,,9999,,1.0,0.0,29.58,1002.9,,,,,,,,,,,,,,,Clear,72000.0,,,73000.0,,,,,,
KRDR,11-11-2007,10:00,METAR,,160,5,,,9999,,2.0,0.0,29.58,1002.9,,,,,,,,,,,,,,,2/8 Mostly Clear,72000.0,,FEW,11000.0,,,,,,
KRDR,11-11-2007,09:00,METAR,,160,8,,,9999,,1.0,-1.0,29.59,1003.2,,,,,,,,,,,,,,,2/8 Mostly Clear,72000.0,,FEW,12000.0,,,,,,
KRDR,11-11-2007,08:00,METAR,,150,8,,,9999,,1.0,-1.0,29.58,1002.9,,,,,,,,,,,,,,,Clear,72000.0,,,73000.0,,,,,,
KRDR,11-11-2007,07:20,METAR,,150,7,,,9999,,0.0,-1.0,29.58,1003.0,,,,,,,,,,,,,,,Clear,72000.0,,,73000.0,,,,,,
KRDR,11-11-2007,07:00,METAR,,140,7,,,9999,,-1.0,-2.0,29.59,1003.2,,,,,,,,,,,,,,,Clear,72000.0,,,73000.0,,,,,,
KRDR,11-11-2007,06:00,METAR,,140,7,,,9999,,-1.0,-2.0,29.60,1003.4,,,,,,,,,,,,,,,Clear,72000.0,,,73000.0,,,,,,
KRDR,11-11-2007,05:28,SPECI,,140,7,,,9999,,-1.0,-2.0,29.60,1003.6,,,,,,,,,,,,,,,Clear,72000.0,,,73000.0,,,,,,
KRDR,11-11-2007,05:00,METAR,,150,7,,,9999,,0.0,-1.0,29.60,1003.7,,,,,,,,,,,,,,,Clear,72000.0,,,73000.0,,,,,,
KRDR,11-11-2007,04:00,METAR,,140,6,,,9999,,1.0,-1.0,29.62,1004.2,,,,,,,,,,,,,,,Clear,72000.0,,,73000.0,,,,,,
KRDR,11-11-2007,03:00,METAR,,170,8,,,9999,,2.0,-1.0,29.63,1004.5,,,,,,,,,,,,,,,Clear,72000.0,,,73000.0,,,,,,
KRDR,11-11-2007,02:00,METAR,,180,9,,,9999,,3.0,0.0,29.64,1004.7,,,,,,,,,,,,,,,Clear,72000.0,,,73000.0,,,,,,
KRDR,11-11-2007,01:00,METAR,,170,7,,,9999,,2.0,0.0,29.64,1004.8,,,,,,,,,,,,,,,Clear,72000.0,,,73000.0,,,,,,
KRDR,11-11-2007,00:00,METAR,,150,8,,,9999,,3.0,0.0,29.64,1004.8,,,,,,,,,,,,,,,Clear,72000.0,,,73000.0,,,,,,
KRDR,11-10-2007,23:00,METAR,,150,7,,,9999,,5.0,0.0,29.65,1005.0,,,,,,,,,,,,,,,Clear,72000.0,,,73000.0,,,,,,
KRDR,11-10-2007,22:00,METAR,,170,8,,,9999,,8.0,1.0,29.66,1005.6,,,,,,,,,,,,,,,Clear,72000.0,,,73000.0,,,,,,
KRDR,11-10-2007,21:00,METAR,,190,12,,,9999,,9.0,1.0,29.67,1005.7,,,,,,,,,,,,,,,Clear,72000.0,,,73000.0,,,,,,
KRDR,11-10-2007,20:00,METAR,,190,15,,,9999,,9.0,1.0,29.67,1005.7,,,,,,,,,,,,,,,Clear,72000.0,,,73000.0,,,,,,
KRDR,11-10-2007,19:00,METAR,,190,17,,,9999,,8.0,0.0,29.70,1007.0,,,,,,,,,,,,,,,Clear,72000.0,,,73000.0,,,,,,
KRDR,11-10-2007,18:00,METAR,,180,17,22.0,,9999,,7.0,0.0,29.74,1008.2,,,,,,,,,,,,,TRACE,,Clear,72000.0,,,73000.0,,,,,,
KRDR,11-10-2007,17:00,METAR,,170,18,24.0,180/27KTS,9999,,5.0,-1.0,29.77,1009.2,,,,,,,,,,,,,,,Clear,72000.0,,,73000.0,,,,,,
KRDR,11-10-2007,16:00,METAR,,170,20,27.0,180/28KTS,9999,,4.0,-1.0,29.79,1009.7,,,,,,,,,,,,,,,2/8 Mostly Clear,72000.0,,FEW,25000.0,,,,,,
KRDR,11-10-2007,15:00,METAR,,170,17,22.0,,9999,,3.0,-1.0,29.82,1010.7,,,,,,,,,,,,,,,2/8 Mostly Clear,72000.0,,FEW,25000.0,,,,,,
KRDR,11-10-2007,14:00,METAR,,170,16,,,9999,,1.0,-2.0,29.82,1010.8,,,,,,,,,,,,,,,7/8 Mostly Cloudy,25000.0,,SCT,12000.0,BKN,25000.0,,,,
KRDR,11-10-2007,13:00,METAR,,160,18,22.0,,9999,,1.0,-2.0,29.85,1011.9,,,,,,,,,,,,,,,7/8 Mostly Cloudy,12000.0,,BKN,12000.0,,,,,,
KRDR,11-10-2007,12:00,METAR,,160,14,,,9999,,1.0,-2.0,29.90,1013.5,,,,,,,,,,,,,TRACE,,7/8 Mostly Cloudy,12000.0,,BKN,12000.0,,,,,,
KRDR,11-10-2007,11:00,METAR,,160,11,,,9999,,1.0,-2.0,29.94,1014.7,,,,,,,,,,,,,,,4/8 Partly Cloudy,72000.0,,SCT,9900.0,,,,,,
KRDR,11-10-2007,10:18,SPECI,,160,13,,,9999,,1.0,-1.0,29.97,1015.7,,,,,,,,,,,,,,,4/8 Partly Cloudy,72000.0,,SCT,1700.0,,,,,,
KRDR,11-10-2007,10:00,METAR,,150,9,,,9999,,1.0,-1.0,29.98,1016.2,,,,,,,,,,,,,,,8/8 Overcast,1700.0,,OVC,1700.0,,,,,,
KRDR,11-10-2007,09:00,METAR,,140,7,,,9999,,0.0,-1.0,30.02,1017.3,,,,,,,,,,,TRACE,TRACE,,,8/8 Overcast,1600.0,,OVC,1600.0,,,,,,
KRDR,11-10-2007,08:18,SPECI,,150,6,,,9999,,0.0,-1.0,30.03,1017.8,,,,,,,,,,,,,,,8/8 Overcast,1800.0,,OVC,1800.0,,,,,,
KRDR,11-10-2007,08:07,SPECI,,160,5,,,9999,Fog or Ice Fog,0.0,-1.0,30.04,1018.0,,,,40,,,,,,,,,,,8/8 Overcast,1700.0,,OVC,1700.0,,,,,,
KRDR,11-10-2007,08:00,METAR,,160,6,,,9999,,0.0,-1.0,30.04,1018.2,,,,,,,,,,,,,,,8/8 Overcast,1500.0,,OVC,1500.0,,,,,,
KRDR,11-10-2007,07:00,METAR,,150,8,,,9999,,0.0,-2.0,30.04,1018.0,,,,,,,,,,,,,,,8/8 Overcast,1700.0,,OVC,1700.0,,,,,,
KRDR,11-10-2007,06:00,METAR,,,0,,,9999,,0.0,-2.0,30.09,1019.6,,,,,,,,,,,,,,,8/8 Overcast,2600.0,,OVC,2600.0,,,,,,
KRDR,11-10-2007,05:00,METAR,,210,4,,,9999,,0.0,-2.0,30.10,1020.0,,,,,,,,,,,,,,,8/8 Overcast,2100.0,,FEW,1200.0,OVC,2100.0,,,,
KRDR,11-10-2007,04:40,SPECI,,190,3,,,9999,,0.0,-2.0,30.10,1020.2,,,,,,,,,,,,,,,8/8 Overcast,500.0,,OVC,800.0,,,,,,
KRDR,11-10-2007,04:00,METAR,,230,3,,,9999,,0.0,-2.0,30.12,1020.6,,,,,,,,,,,,,,,8/8 Overcast,2400.0,,SCT,1100.0,OVC,2400.0,,,,
KRDR,11-10-2007,03:00,METAR,,,0,,,9999,,0.0,-2.0,30.12,1020.7,,,,,,,,,,,,,,,8/8 Overcast,1500.0,,BKN,1500.0,OVC,2600.0,,,,
KRDR,11-10-2007,02:00,METAR,,,0,,,9999,,0.0,-2.0,30.14,1021.2,,,,,,,,,,,,,,,8/8 Overcast,2700.0,,OVC,2700.0,,,,,,
KRDR,11-10-2007,01:00,METAR,,10,4,,,9999,,0.0,-2.0,30.15,1021.7,,,,,,,,,,,,,,,8/8 Overcast,1700.0,,BKN,1700.0,OVC,2800.0,,,,
KRDR,11-10-2007,00:00,METAR,,10,4,,,9999,,0.0,-2.0,30.15,1021.7,,,,,,,,,,,,,,,8/8 Overcast,2500.0,,OVC,2500.0,,,,,,
KRDR,11-09-2007,23:00,METAR,,360,6,,,9999,,1.0,-2.0,30.16,1021.9,,,,,,,,,,,,,,,8/8 Overcast,2300.0,,FEW,1000.0,OVC,2300.0,,,,
KRDR,11-09-2007,22:00,METAR,,360,9,,,9999,,1.0,-2.0,30.15,1021.6,,,,,,,,,,,,,,,8/8 Overcast,1700.0,,BKN,1700.0,OVC,2400.0,,,,
KRDR,11-09-2007,21:00,METAR,,360,10,,,9999,,1.0,-2.0,30.15,1021.5,,,,,,,,,,,,,,,8/8 Overcast,2100.0,,SCT,1400.0,OVC,2100.0,,,,
KRDR,11-09-2007,20:12,SPECI,,360,10,,,9999,,1.0,-2.0,30.14,,,,,,,,,,,,,,,,8/8 Overcast,1000.0,,OVC,1000.0,,,,,,
KRDR,11-09-2007,20:00,METAR,,10,12,,,9999,,1.0,-2.0,30.14,1021.2,,,,,,,,,,,,,,,8/8 Overcast,700.0,,OVC,700.0,,,,,,
KRDR,11-09-2007,19:25,METAR,,360,13,,,9999,,1.0,-1.0,30.14,,,,,,,,,,,,,,,,8/8 Overcast,500.0,,OVC,500.0,,,,,,
KRDR,11-09-2007,19:00,METAR,,350,13,20.0,,9999,,1.0,-1.0,30.15,1021.7,,,,,,,,,,,,,,,8/8 Overcast,400.0,,OVC,400.0,,,,,,
KRDR,11-09-2007,18:00,METAR,,350,15,,,9999,,1.0,-1.0,30.15,1021.8,,,,,,,,,,,,,TRACE,,8/8 Overcast,400.0,,OVC,400.0,,,,,,
KRDR,11-09-2007,17:00,METAR,,350,15,,,9999,,0.0,-1.0,30.14,1021.2,,,,,,,,,,,TRACE,,,,8/8 Overcast,400.0,,OVC,400.0,,,,,,
KRDR,11-09-2007,16:17,SPECI,,350,14,19.0,,8000,Mist,1.0,0.0,30.12,,,,,10,,,,,,,,,,,8/8 Overcast,500.0,,OVC,500.0,,,,,,
KRDR,11-09-2007,16:00,METAR,,340,13,21.0,,6400,Light Snow,1.0,-1.0,30.11,1020.3,,,,71,,,,,,,TRACE,,,,8/8 Overcast,500.0,,OVC,500.0,,,,,,
KRDR,11-09-2007,15:16,SPECI,,340,14,17.0,,3200,Light Snow,1.0,-2.0,30.10,,,,,71,,,,,,,,,,,8/8 Overcast,1100.0,,OVC,1100.0,,,,,,
KRDR,11-09-2007,15:02,SPECI,,340,11,,,2400,Light Snow,1.0,-2.0,30.09,,,,,71,,,,,,,,,,,8/8 Overcast,1100.0,,OVC,1100.0,,,,,,
KRDR,11-09-2007,15:00,METAR,,330,12,18.0,,9999,,1.0,-3.0,30.09,1019.7,,,,,,,,,,,,,,,8/8 Overcast,1400.0,,OVC,1400.0,,,,,,
KRDR,11-09-2007,14:00,METAR,,320,15,21.0,,9999,,0.0,-3.0,30.06,1018.8,,,,,,,,,,,,,,,8/8 Overcast,2100.0,,OVC,2100.0,,,,,,
KRDR,11-09-2007,13:00,METAR,,310,15,18.0,,9999,,3.0,-2.0,30.02,1017.4,,,,,,,,,,,,,,,8/8 Overcast,2300.0,,OVC,2300.0,,,,,,
KRDR,11-09-2007,12:18,SPECI,,310,12,,,9999,,3.0,-2.0,30.01,,,,,,,,,,,,,,,,8/8 Overcast,2800.0,,OVC,2800.0,,,,,,
KRDR,11-09-2007,12:00,METAR,,290,10,,,9999,,2.0,-2.0,29.99,1016.5,,,,,,,,,,,,,,,8/8 Overcast,3100.0,,OVC,3200.0,,,,,,
KRDR,11-09-2007,11:00,METAR,,290,13,,,9999,,1.0,-2.0,29.97,1015.6,,,,,,,,,,,,,,,4/8 Partly Cloudy,72000.0,,SCT,2800.0,,,,,,
KRDR,11-09-2007,10:00,METAR,,300,14,18.0,,9999,,2.0,-1.0,29.95,1015.1,,,,,,,,,,,,,,,2/8 Mostly Clear,72000.0,,FEW,2600.0,,,,,,
KRDR,11-09-2007,09:00,METAR,,290,11,,,9999,,1.0,-1.0,29.94,1014.7,,,,,,,,,,,,,,,2/8 Mostly Clear,72000.0,,FEW,3600.0,FEW,5000.0,,,,
KRDR,11-09-2007,08:00,METAR,,260,9,,,9999,,1.0,-1.0,29.93,1014.5,,,,,,,,,,,,,,,7/8 Mostly Cloudy,4900.0,,FEW,3600.0,BKN,5000.0,BKN,11000.0,,
KRDR,11-09-2007,07:00,METAR,,230,10,,,9999,,1.0,-1.0,29.94,1014.7,,,,,,,,,,,,,,,8/8 Overcast,3500.0,,BKN,3600.0,BKN,4400.0,OVC,9900.0,,
KRDR,11-09-2007,06:00,METAR,,200,9,,,9999,,1.0,-1.0,29.95,1015.2,,,,,,,,,,,,,TRACE,,8/8 Overcast,4900.0,,FEW,2500.0,OVC,5000.0,,,,
KRDR,11-09-2007,05:11,SPECI,,210,10,,,9999,,1.0,-2.0,29.97,,,,,,,,,,,,,,,,4/8 Partly Cloudy,72000.0,,SCT,2700.0,SCT,4000.0,,,,
KRDR,11-09-2007,05:00,METAR,,220,12,,,9999,,1.0,-2.0,29.97,1015.8,,,,,,,,,,,,,,,8/8 Overcast,2700.0,,BKN,2700.0,OVC,3400.0,,,,
KRDR,11-09-2007,04:31,SPECI,,210,11,,,9999,,2.0,-2.0,29.98,,,,,,,,,,,,,,,,8/8 Overcast,2700.0,,OVC,2700.0,,,,,,
KRDR,11-09-2007,04:00,METAR,,200,10,,,9999,,2.0,-2.0,29.99,1016.4,,,,,,,,,,,,,,,8/8 Overcast,3100.0,,OVC,3200.0,,,,,,
KRDR,11-09-2007,03:00,METAR,,210,8,,,9999,,2.0,-2.0,30.00,1016.7,,,,,,,,,,,,TRACE,,,8/8 Overcast,3400.0,,OVC,3500.0,,,,,,
KRDR,11-09-2007,02:00,METAR,,200,6,,,9999,,2.0,-3.0,30.01,1017.0,,,,,,,,,,,,,,,8/8 Overcast,3900.0,,BKN,4000.0,OVC,5900.0,,,,
KRDR,11-09-2007,01:24,SPECI,,180,5,,,9999,,2.0,-3.0,30.01,,,,,,,,,,,,,,,,8/8 Overcast,3900.0,,BKN,4000.0,OVC,5900.0,,,,
KRDR,11-09-2007,01:00,METAR,,160,5,,,9999,Light Snow,2.0,-3.0,30.01,1017.1,,,,71,,,,,,,TRACE,,,,8/8 Overcast,4300.0,,BKN,4400.0,OVC,6400.0,,,,
KRDR,11-09-2007,00:05,SPECI,,150,4,,,9999,Light Snow,2.0,-3.0,30.01,,,,,71,,,,,,,,,,,8/8 Overcast,6000.0,,OVC,5900.0,,,,,,
KRDR,11-09-2007,00:00,METAR,,160,5,,,9999,,1.0,-3.0,30.01,1017.2,,,,,,,,,,,,,,,8/8 Overcast,4900.0,,BKN,5000.0,OVC,7400.0,,,,
KRDR,11-08-2007,23:00,METAR,,170,3,,,9999,,3.0,-3.0,30.01,1017.1,,,,,,,,,,,,,,,8/8 Overcast,6000.0,,OVC,5900.0,,,,,,
KRDR,11-08-2007,22:00,METAR,,180,5,,,9999,,3.0,-4.0,30.00,1016.7,,,,,,,,,,,,,,,8/8 Overcast,6500.0,,FEW,3000.0,BKN,6400.0,OVC,25000.0,,
KRDR,11-08-2007,21:00,METAR,,230,6,,,9999,,3.0,-4.0,30.00,1016.7,,,,,,,,,,,,,,,8/8 Overcast,4500.0,,FEW,3000.0,BKN,4600.0,BKN,7900.0,OVC,25000.0
KRDR,11-08-2007,20:00,METAR,,,0,,,9999,,4.0,-4.0,30.00,1016.8,,,,,,,,,,,,,,,7/8 Mostly Cloudy,5500.0,,SCT,2900.0,BKN,5400.0,BKN,20000.0,,
KRDR,11-08-2007,19:00,METAR,,,0,,,9999,,3.0,-3.0,30.01,1017.0,,,,,,,,,,,,,,,7/8 Mostly Cloudy,7000.0,,SCT,4000.0,BKN,6900.0,,,,
KRDR,11-08-2007,18:00,METAR,,,0,,,9999,,3.0,-3.0,30.02,1017.3,,,,,,,,,,,,,,,7/8 Mostly Cloudy,7000.0,,FEW,1500.0,SCT,3500.0,BKN,6900.0,,
KRDR,11-08-2007,17:00,METAR,,50,2,,,9999,,2.0,-2.0,30.03,1017.6,,,,,,,,,,,,,,,7/8 Mostly Cloudy,9000.0,,FEW,4000.0,BKN,8900.0,BKN,20000.0,,
KRDR,11-08-2007,16:00,METAR,,360,3,,,9999,,0.0,-3.0,30.02,1017.4,,,,,,,,,,,,,,,8/8 Overcast,9000.0,,FEW,7900.0,SCT,8900.0,OVC,20000.0,,
KRDR,11-08-2007,15:00,METAR,,,0,,,9999,,-2.0,-3.0,30.01,1017.0,,,,,,,,,,,,,,,8/8 Overcast,11000.0,,SCT,7900.0,BKN,9900.0,OVC,20000.0,,
KRDR,11-08-2007,14:00,METAR,,290,3,,,9999,,-3.0,-5.0,30.01,1017.1,,,,,,,,,,,,,,,7/8 Mostly Cloudy,10000.0,,FEW,3000.0,BKN,9900.0,BKN,25000.0,,
KRDR,11-08-2007,13:00,METAR,,280,6,,,9999,,-4.0,-5.0,30.02,1017.5,,,,,,,,,,,,,,,7/8 Mostly Cloudy,25000.0,,FEW,3000.0,FEW,9900.0,BKN,25000.0,,
KRDR,11-08-2007,12:00,METAR,,300,5,,,9999,,-5.0,-7.0,30.01,1017.0,,,,,,,,,,,,,,,7/8 Mostly Cloudy,25000.0,,FEW,2400.0,BKN,25000.0,,,,
KRDR,11-08-2007,11:00,METAR,,320,5,,,9999,,-5.0,-7.0,30.00,1016.8,,,,,,,,,,,,,,,Clear,72000.0,,,73000.0,,,,,,
KRDR,11-08-2007,10:00,METAR,,290,6,,,9999,,-5.0,-7.0,30.00,1016.6,,,,,,,,,,,,,,,Clear,72000.0,,,73000.0,,,,,,
KRDR,11-08-2007,09:00,METAR,,320,6,,,9999,,-4.0,-6.0,29.99,1016.4,,,,,,,,,,,,,,,4/8 Partly Cloudy,72000.0,,SCT,3800.0,,,,,,
KRDR,11-08-2007,07:00,METAR,,300,6,,,9999,,-2.0,-5.0,29.99,1016.4,,,,,,,,,,,,,,,8/8 Overcast,4300.0,,OVC,4400.0,,,,,,
KRDR,11-08-2007,06:00,METAR,,320,5,,,9999,,0.0,-4.0,29.99,1016.2,,,,,,,,,,,,,,,8/8 Overcast,4400.0,,OVC,4500.0,,,,,,
KRDR,11-08-2007,05:00,METAR,,300,6,,,9999,,-2.0,-4.0,29.98,1016.2,,,,,,,,,,,,,,,8/8 Overcast,4500.0,,OVC,4600.0,,,,,,
KRDR,11-08-2007,04:00,METAR,,330,5,,,9999,,-1.0,-5.0,29.97,1015.7,,,,,,,,,,,,,,,8/8 Overcast,4600.0,,OVC,4700.0,,,,,,
KRDR,11-08-2007,03:00,METAR,,330,7,,,9999,,-1.0,-4.0,29.97,1015.7,,,,,,,,,,,,,,,8/8 Overcast,4800.0,,OVC,4900.0,,,,,,
KRDR,11-08-2007,02:00,METAR,,310,6,,,9999,,-5.0,-7.0,29.96,1015.3,,,,,,,,,,,,,,,4/8 Partly Cloudy,72000.0,,SCT,25000.0,,,,,,
KRDR,11-08-2007,01:00,METAR,,,0,,,9999,,-2.0,-5.0,29.93,1014.5,,,,,,,,,,,,,,,4/8 Partly Cloudy,72000.0,,SCT,25000.0,,,,,,
KRDR,11-08-2007,00:00,METAR,,40,6,,,9999,,-1.0,-5.0,29.91,1013.8,,,,,,,,,,,,,,,2/8 Mostly Clear,72000.0,,FEW,25000.0,,,,,,
KRDR,11-07-2007,23:00,METAR,,60,5,,,9999,,3.0,-4.0,29.88,1012.9,,,,,,,,,,,,,,,4/8 Partly Cloudy,72000.0,,FEW,12000.0,SCT,25000.0,,,,
KRDR,11-07-2007,22:00,METAR,,350,7,,,9999,,5.0,-4.0,29.87,1012.4,,,,,,,,,,,,,,,2/8 Mostly Clear,72000.0,,FEW,25000.0,,,,,,
KRDR,11-07-2007,21:00,METAR,,320,5,,,9999,,5.0,-4.0,29.87,1012.4,,,,,,,,,,,,,,,2/8 Mostly Clear,72000.0,,FEW,25000.0,,,,,,
KRDR,11-07-2007,20:00,METAR,,310,6,,,9999,,5.0,-5.0,29.86,1012.1,,,,,,,,,,,,,,,4/8 Partly Cloudy,72000.0,,FEW,12000.0,SCT,25000.0,,,,
KRDR,11-07-2007,19:00,METAR,,210,5,,,9999,,3.0,-5.0,29.86,1012.1,,,,,,,,,,,,,,,4/8 Partly Cloudy,72000.0,,SCT,12000.0,SCT,25000.0,,,,
KRDR,11-07-2007,18:00,METAR,,190,9,,,9999,,1.0,-5.0,29.87,1012.4,,,,,,,,,,,,,,,7/8 Mostly Cloudy,25000.0,,SCT,9900.0,BKN,25000.0,,,,
KRDR,11-07-2007,17:00,METAR,,200,11,,,9999,,0.0,-6.0,29.89,1013.1,,,,,,,,,,,,,,,8/8 Overcast,25000.0,,SCT,15000.0,OVC,25000.0,,,,
KRDR,11-07-2007,16:00,METAR,,180,11,,,9999,,-1.0,-6.0,29.91,1013.7,,,,,,,,,,,,,,,8/8 Overcast,15000.0,,BKN,15000.0,OVC,25000.0,,,,
KRDR,11-07-2007,15:00,METAR,,180,14,,,9999,,-3.0,-6.0,29.93,1014.4,,,,,,,,,,,,,,,8/8 Overcast,15000.0,,BKN,15000.0,OVC,25000.0,,,,
KRDR,11-07-2007,14:00,METAR,,170,12,,,9999,,-4.0,-7.0,29.95,1014.9,,,,,,,,,,,,,,,7/8 Mostly Cloudy,25000.0,,SCT,18000.0,BKN,25000.0,,,,
KRDR,11-07-2007,13:00,METAR,,170,13,,,9999,,-4.0,-7.0,29.96,1015.4,,,,,,,,,,,,,,,4/8 Partly Cloudy,72000.0,,FEW,12000.0,SCT,25000.0,,,,
KRDR,11-07-2007,12:00,METAR,,160,16,22.0,,9999,,-4.0,-7.0,30.00,1016.6,,,,,,,,,,,,,,,7/8 Mostly Cloudy,12000.0,,BKN,12000.0,BKN,25000.0,,,,
KRDR,11-07-2007,11:00,METAR,,170,11,,,9999,,-4.0,-7.0,30.03,1017.8,,,,,,,,,,,,,,,2/8 Mostly Clear,72000.0,,FEW,11000.0,,,,,,
KRDR,11-07-2007,10:00,METAR,,170,14,,,9999,,-4.0,-7.0,30.07,1019.1,,,,,,,,,,,,,,,4/8 Partly Cloudy,72000.0,,SCT,8900.0,,,,,,
KRDR,11-07-2007,09:00,METAR,,180,12,,,9999,,-4.0,-7.0,30.13,1021.0,,,,,,,,,,,,,,,7/8 Mostly Cloudy,10000.0,,BKN,9900.0,,,,,,
KRDR,11-07-2007,08:00,METAR,,180,13,,,9999,,-3.0,-7.0,30.16,1021.9,,,,,,,,,,,,,,,8/8 Overcast,9000.0,,OVC,8900.0,,,,,,
KRDR,11-07-2007,07:00,METAR,,170,11,,,9999,,-4.0,-7.0,30.19,1023.0,,,,,,,,,,,,,,,8/8 Overcast,9000.0,,OVC,8900.0,,,,,,
KRDR,11-07-2007,06:00,METAR,,170,13,,,9999,,-4.0,-7.0,30.22,1024.0,,,,,,,,,,,,,,,7/8 Mostly Cloudy,11000.0,,BKN,11000.0,,,,,,
KRDR,11-07-2007,05:00,METAR,,170,8,,,9999,,-5.0,-7.0,30.26,1025.4,,,,,,,,,,,,,,,8/8 Overcast,25000.0,,OVC,25000.0,,,,,,
KRDR,11-07-2007,04:00,METAR,,160,7,,,9999,,-5.0,-7.0,30.29,1026.4,,,,,,,,,,,,,,,7/8 Mostly Cloudy,25000.0,,BKN,25000.0,,,,,,
KRDR,11-07-2007,03:00,METAR,,160,6,,,9999,,-6.0,-7.0,30.31,1026.8,,,,,,,,,,,,,,,7/8 Mostly Cloudy,25000.0,,BKN,25000.0,,,,,,
KRDR,11-07-2007,02:00,METAR,,150,7,,,9999,,-5.0,-7.0,30.31,1026.9,,,,,,,,,,,,,,,7/8 Mostly Cloudy,25000.0,,BKN,25000.0,,,,,,
KRDR,11-07-2007,01:00,METAR,,140,7,,,9999,,-5.0,-7.0,30.33,1027.6,,,,,,,,,,,,,,,7/8 Mostly Cloudy,25000.0,,BKN,25000.0,,,,,,
KRDR,11-07-2007,00:00,METAR,,130,4,,,9999,,-4.0,-7.0,30.35,1028.3,,,,,,,,,,,,,TRACE,,4/8 Partly Cloudy,72000.0,,FEW,2000.0,SCT,20000.0,,,,
KRDR,11-06-2007,23:00,METAR,,110,6,,,9999,,-3.0,-7.0,30.36,1028.7,,,,,,,,,,,,,,,7/8 Mostly Cloudy,20000.0,,SCT,1800.0,BKN,20000.0,,,,
KRDR,11-06-2007,22:00,METAR,,,0,,,9999,,-2.0,-7.0,30.38,1029.2,,,,,,,,,,,,,,,7/8 Mostly Cloudy,1900.0,,BKN,1900.0,,,,,,
KRDR,11-06-2007,21:00,METAR,,30,3,,,9999,Light Snow,-1.0,-7.0,30.39,1029.6,,,,71,,,,,,,,TRACE,,,8/8 Overcast,1900.0,,OVC,1900.0,,,,,,
KRDR,11-06-2007,20:00,METAR,,10,4,,,9999,Light Snow,-2.0,-6.0,30.41,1030.4,,,,71,,,,,,,,,,,7/8 Mostly Cloudy,1800.0,,BKN,1800.0,,,,,,
KRDR,11-06-2007,19:00,METAR,,10,5,,,9999,Light Snow,-2.0,-6.0,30.43,1030.9,,,,71,,,,,,,,,,,8/8 Overcast,1800.0,,OVC,1800.0,,,,,,
KRDR,11-06-2007,18:00,METAR,,40,5,,,9999,Light Snow,-2.0,-6.0,30.44,1031.2,,,,71,,,,,,,,,TRACE,,8/8 Overcast,1900.0,,OVC,1900.0,,,,,,
KRDR,11-06-2007,17:00,METAR,,340,8,,,9999,Light Snow,-1.0,-6.0,30.45,1031.5,,,,71,,,,,,,TRACE,,,,8/8 Overcast,2300.0,,OVC,2300.0,,,,,,
KRDR,11-06-2007,16:00,METAR,,360,7,,,9999,Light Snow,-2.0,-5.0,30.44,1031.3,,,,71,,,,,,,TRACE,,,,8/8 Overcast,2600.0,,OVC,2600.0,,,,,,
KRDR,11-06-2007,15:00,METAR,,330,7,,,9999,Light Snow,-3.0,-6.0,30.44,1031.2,,,,71,,,,,,,,,,,8/8 Overcast,2000.0,,OVC,2000.0,,,,,,
KRDR,11-06-2007,14:00,METAR,,330,6,,,9999,,-3.0,-6.0,30.43,1030.9,,,,,,,,,,,,,,,8/8 Overcast,2200.0,,OVC,2200.0,,,,,,
KRDR,11-06-2007,13:00,METAR,,330,6,,,9999,,-4.0,-6.0,30.41,1030.3,,,,,,,,,,,,,,,7/8 Mostly Cloudy,1100.0,,BKN,1700.0,BKN,3000.0,,,,
KRDR,11-06-2007,12:00,METAR,,340,10,,,9999,,-3.0,-6.0,30.41,1030.1,,,,,,,,,,,,,,,7/8 Mostly Cloudy,1400.0,,BKN,1400.0,,,,,,
KRDR,11-06-2007,11:41,SPECI,,340,10,,,9999,,-3.0,-6.0,30.41,,,,,,,,,,,,,,,,7/8 Mostly Cloudy,1400.0,,BKN,1400.0,,,,,,
KRDR,11-06-2007,11:21,SPECI,,340,10,,,9999,,-3.0,-6.0,30.40,1029.9,,,,,,,,,,,,,,,4/8 Partly Cloudy,72000.0,,SCT,1300.0,,,,,,
KRDR,11-06-2007,11:00,METAR,,340,11,,,9999,,-2.0,-5.0,30.39,1029.7,,,,,,,,,,,,,,,8/8 Overcast,1300.0,,OVC,1300.0,,,,,,
KRDR,11-06-2007,10:10,SPECI,,350,10,,,9999,,-2.0,-5.0,30.38,1029.4,,,,,,,,,,,,,,,8/8 Overcast,1400.0,,OVC,1400.0,,,,,,
KRDR,11-06-2007,10:05,SPECI,,340,12,,,9999,,-2.0,-5.0,30.38,1029.4,,,,,,,,,,,,,,,7/8 Mostly Cloudy,1500.0,,BKN,1500.0,,,,,,
KRDR,11-06-2007,10:00,METAR,,330,9,,,9999,,-2.0,-5.0,30.38,1029.2,,,,,,,,,,,,,,,8/8 Overcast,1400.0,,OVC,1400.0,,,,,,
KRDR,11-06-2007,09:44,SPECI,,320,8,,,9999,,-2.0,-6.0,30.38,1029.2,,,,,,,,,,,,,,,8/8 Overcast,1400.0,,OVC,1400.0,,,,,,
KRDR,11-06-2007,09:00,METAR,,330,7,,,9999,,-2.0,-5.0,30.38,1029.1,,,,,,,,,,,,,,,8/8 Overcast,1600.0,,OVC,1800.0,,,,,,
KRDR,11-06-2007,08:23,SPECI,,340,8,,,9999,,-2.0,-5.0,30.37,1028.9,,,,,,,,,,,,,,,8/8 Overcast,1900.0,,OVC,2900.0,,,,,,
KRDR,11-06-2007,08:03,SPECI,,340,9,,,9999,,-2.0,-5.0,30.37,1028.8,,,,,,,,,,,,,,,7/8 Mostly Cloudy,3700.0,,FEW,2100.0,SCT,2600.0,BKN,3800.0,,
KRDR,11-06-2007,08:00,METAR,,350,11,,,9999,,-1.0,-5.0,30.36,1028.7,,,,,,,,,,,,,,,7/8 Mostly Cloudy,2800.0,,BKN,2800.0,,,,,,
KRDR,11-06-2007,07:50,METAR,,340,12,,,9999,,-1.0,-5.0,30.36,1028.7,,,,,,,,,,,,,,,7/8 Mostly Cloudy,2000.0,,BKN,2900.0,,,,,,
KRDR,11-06-2007,07:46,SPECI,,340,12,,,9999,,-1.0,-6.0,30.36,1028.7,,,,,,,,,,,,,,,8/8 Overcast,3000.0,,FEW,2200.0,OVC,3000.0,,,,
KRDR,11-06-2007,07:00,METAR,,330,9,,,9999,,-2.0,-6.0,30.35,1028.3,,,,,,,,,,,,,,,7/8 Mostly Cloudy,2800.0,,BKN,2800.0,,,,,,
KRDR,11-06-2007,06:00,METAR,,340,11,,,9999,,-1.0,-6.0,30.34,1027.9,,,,,,,,,,,,,TRACE,,7/8 Mostly Cloudy,4400.0,,BKN,4500.0,,,,,,
KRDR,11-06-2007,05:00,METAR,,330,10,,,9999,,-1.0,-5.0,30.32,1027.4,,,,,,,,,,,,,,,7/8 Mostly Cloudy,4100.0,,BKN,4200.0,,,,,,
KRDR,11-06-2007,04:00,METAR,,340,13,,,9999,,0.0,-6.0,30.31,1026.9,,,,,,,,,,,,,,,7/8 Mostly Cloudy,3800.0,,BKN,3900.0,,,,,,
KRDR,11-06-2007,03:00,METAR,,340,12,,,9999,,1.0,-5.0,30.29,1026.3,,,,,,,,,,,,TRACE,,,8/8 Overcast,4400.0,,FEW,3300.0,OVC,4500.0,,,,
KRDR,11-06-2007,02:00,METAR,,350,14,25.0,,9999,,1.0,-5.0,30.28,1025.8,,,,,,,,,,,TRACE,,,,8/8 Overcast,3700.0,,OVC,3800.0,,,,,,
KRDR,11-06-2007,01:00,METAR,,340,14,18.0,,9999,Light Snow,2.0,-3.0,30.26,1025.2,,,,71,,,,,,,TRACE,,,,8/8 Overcast,3500.0,,SCT,2800.0,BKN,3600.0,OVC,4500.0,,
KRDR,11-06-2007,00:14,SPECI,,330,17,24.0,,9999,Light Snow,2.0,-4.0,30.25,1024.9,,,,71,,,,,,,,,,,8/8 Overcast,4900.0,,OVC,5000.0,,,,,,
KRDR,11-06-2007,00:00,METAR,,330,15,21.0,,9999,,2.0,-4.0,30.24,1024.5,,,,,,,,,,,,,TRACE,,8/8 Overcast,5500.0,,FEW,4200.0,OVC,5400.0,,,,
KRDR,11-05-2007,23:00,METAR,,330,14,25.0,340/27KTS,9999,Light Snow,2.0,-3.0,30.21,1023.6,,,,71,,,,,,,TRACE,,,,8/8 Overcast,4500.0,,OVC,4600.0,,,,,,
KRDR,11-05-2007,22:00,METAR,,330,18,26.0,340/30KTS,9999,,2.0,-3.0,30.17,1022.5,,,,,,,,,,,,,,,8/8 Overcast,3600.0,,OVC,3700.0,,,,,,
KRDR,11-05-2007,21:25,METAR,,330,18,25.0,,9999,Light Snow,2.0,-3.0,30.16,,,,,71,,,,,,,,,,,8/8 Overcast,4000.0,,OVC,4100.0,,,,,,
KRDR,11-05-2007,21:00,METAR,,330,20,26.0,320/30KTS,9999,,2.0,-4.0,30.14,1021.4,,,,,,,,,,,,,,,8/8 Overcast,3100.0,,OVC,3100.0,,,,,,
KRDR,11-05-2007,20:00,METAR,,320,22,30.0,320/30KTS,9999,,2.0,-5.0,30.11,1020.4,,,,,,,,,,,,,,,8/8 Overcast,3200.0,,OVC,3300.0,,,,,,
KRDR,11-05-2007,19:00,METAR,,320,22,29.0,330/29KTS,9999,,1.0,-5.0,30.10,1020.1,,,,,,,,,,,,,,,8/8 Overcast,3300.0,,OVC,3400.0,,,,,,
KRDR,11-05-2007,18:00,METAR,,320,19,26.0,320/28KTS,9999,,1.0,-5.0,30.08,1019.4,,,,,,,,,,,,,,,8/8 Overcast,3900.0,,FEW,2700.0,OVC,4000.0,,,,
KRDR,11-05-2007,17:00,METAR,,310,19,28.0,320/28KTS,9999,,1.0,-5.0,30.06,1018.8,,,,,,,,,,,,,,,8/8 Overcast,4400.0,,FEW,2500.0,OVC,4500.0,,,,
KRDR,11-05-2007,16:00,METAR,,310,18,28.0,320/28KTS,9999,,1.0,-5.0,30.03,1017.7,,,,,,,,,,,,,,,7/8 Mostly Cloudy,5500.0,,BKN,5400.0,,,,,,
KRDR,11-05-2007,15:00,METAR,,310,16,25.0,,9999,,1.0,-5.0,30.01,1017.0,,,,,,,,,,,,,,,7/8 Mostly Cloudy,6000.0,,SCT,5000.0,BKN,5900.0,,,,
KRDR,11-05-2007,14:00,METAR,,320,17,22.0,320/25KTS,9999,,0.0,-5.0,29.99,1016.3,,,,,,,,,,,,,,,8/8 Overcast,4900.0,,BKN,5000.0,OVC,6400.0,,,,
KRDR,11-05-2007,13:00,METAR,,320,16,25.0,,9999,,0.0,-5.0,29.96,1015.4,,,,,,,,,,,,,,,7/8 Mostly Cloudy,8000.0,,BKN,7900.0,,,,,,
KRDR,11-05-2007,12:00,METAR,,310,14,,,9999,,1.0,-3.0,29.93,1014.4,,,,,,,,,,,,,,25.77 IN,7/8 Mostly Cloudy,8500.0,,BKN,8400.0,,,,,,
KRDR,11-05-2007,11:00,METAR,,310,14,22.0,,9999,,1.0,-3.0,29.91,1013.7,,,,,,,,,,,,,,,8/8 Overcast,9500.0,,OVC,9400.0,,,,,,
KRDR,11-05-2007,10:00,METAR,,310,15,19.0,,9999,,0.0,-3.0,29.88,1012.9,,,,,,,,,,,,,,,4/8 Partly Cloudy,72000.0,,SCT,9400.0,,,,,,
KRDR,11-05-2007,09:00,METAR,,320,13,19.0,,9999,,0.0,-3.0,29.86,1012.0,,,,,,,,,,,,,,,Clear,72000.0,,,73000.0,,,,,,
KRDR,11-05-2007,08:00,METAR,,310,14,20.0,,9999,,1.0,-2.0,29.83,1011.2,,,,,,,,,,,,,,,Clear,72000.0,,,73000.0,,,,,,
KRDR,11-05-2007,07:00,METAR,,310,12,,,9999,,1.0,-1.0,29.81,1010.6,,,,,,,,,,,,,,,Clear,72000.0,,,73000.0,,,,,,
KRDR,11-05-2007,06:00,METAR,,310,10,,,9999,,2.0,0.0,29.80,1010.3,,,,,,,,,,,,,TRACE,,Clear,72000.0,,,73000.0,,,,,,
KRDR,11-05-2007,05:23,SPECI,,320,8,,,9999,,2.0,1.0,29.81,1010.4,,,,,,,,,,,,,,,8/8 Overcast,3100.0,,FEW,1300.0,BKN,3100.0,OVC,5900.0,,
KRDR,11-05-2007,05:07,SPECI,,320,9,,,9999,,2.0,1.0,29.81,1010.3,,,,,,,,,,,,,,,8/8 Overcast,2000.0,,SCT,1400.0,BKN,2000.0,OVC,5900.0,,
KRDR,11-05-2007,05:04,SPECI,,320,9,,,9999,,2.0,1.0,29.81,1010.4,,,,,,,,,,,,,,,8/8 Overcast,2400.0,,SCT,1400.0,OVC,3800.0,,,,
KRDR,11-05-2007,05:00,METAR,,310,9,,,9999,,2.0,2.0,29.80,1010.2,,,,,,,,,,,TRACE,,,,8/8 Overcast,1500.0,,BKN,1500.0,BKN,2600.0,OVC,4900.0,,
KRDR,11-05-2007,04:50,METAR,,310,7,,,9999,,2.0,2.0,29.80,1010.2,,,,,,,,,,,,,,,8/8 Overcast,1700.0,,OVC,2900.0,,,,,,
KRDR,11-05-2007,04:41,SPECI,,310,6,,,9999,,2.0,1.0,29.80,1010.1,,,,,,,,,,,,,,,8/8 Overcast,1400.0,,BKN,1400.0,OVC,4100.0,,,,
KRDR,11-05-2007,04:35,SPECI,,300,7,,,9999,,2.0,1.0,29.80,1010.0,,,,,,,,,,,,,,,8/8 Overcast,2800.0,,SCT,1500.0,BKN,2800.0,OVC,4800.0,,
KRDR,11-05-2007,04:24,SPECI,,300,6,,,9999,,2.0,2.0,29.79,1009.9,,,,,,,,,,,,,,,8/8 Overcast,3500.0,,FEW,1100.0,BKN,3600.0,OVC,4500.0,,
KRDR,11-05-2007,04:10,SPECI,,300,5,,,9999,Light Rain,2.0,2.0,29.79,1009.8,61,,,,,,,,,,,,,,8/8 Overcast,700.0,,OVC,1500.0,,,,,,
KRDR,11-05-2007,04:01,SPECI,,300,6,,,9999,Light Rain,2.0,2.0,29.79,1009.8,61,,,,,,,,,,,,,,8/8 Overcast,1200.0,,SCT,700.0,OVC,1200.0,,,,
KRDR,11-05-2007,04:00,METAR,,300,5,,,9999,Light Drizzle,2.0,2.0,29.80,1010.0,51,,,,,,,,,,TRACE,,,,8/8 Overcast,700.0,,FEW,200.0,OVC,700.0,,,,
KRDR,11-05-2007,03:53,SPECI,,300,5,,,9999,Light Drizzle,2.0,2.0,29.80,1010.1,51,,,,,,,,,,,,,,8/8 Overcast,600.0,,FEW,100.0,OVC,900.0,,,,
KRDR,11-05-2007,03:49,SPECI,,290,5,,,9999,Light Rain,2.0,2.0,29.80,1010.1,61,,,,,,,,,,,,,,8/8 Overcast,700.0,,FEW,200.0,OVC,700.0,,,,
KRDR,11-05-2007,03:42,SPECI,,300,7,,,9999,Light Rain,2.0,2.0,29.80,1010.1,61,,,,,,,,,,,,,,8/8 Overcast,100.0,,OVC,500.0,,,,,,
KRDR,11-05-2007,03:32,SPECI,,310,6,,,9999,Light Drizzle,2.0,2.0,29.80,1010.2,51,,,,,,,,,,,,,,8/8 Overcast,100.0,,OVC,300.0,,,,,,
KRDR,11-05-2007,03:14,SPECI,,320,8,,,9999,Unknown Precipitation,2.0,1.0,29.80,1010.2,40,,,,,,,,,,,,,,8/8 Overcast,100.0,,OVC,100.0,,,,,,
KRDR,11-05-2007,03:00,METAR,,330,6,,,9999,,2.0,1.0,29.79,1009.9,,,,,,,,,,,TRACE,TRACE,,,7/8 Mostly Cloudy,100.0,,BKN,100.0,,,,,,
KRDR,11-05-2007,02:00,METAR,,350,11,,,9999,,2.0,1.0,29.78,1009.4,,,,,,,,,,,,,,,8/8 Overcast,100.0,,OVC,100.0,,,,,,
KRDR,11-05-2007,01:30,METAR,,340,6,,,9999,Light Rain,2.0,1.0,29.77,1009.1,61,,,,,,,,,,,,,,7/8 Mostly Cloudy,100.0,,BKN,100.0,,,,,,
KRDR,11-05-2007,01:29,SPECI,,340,5,,,9999,Unknown Precipitation,2.0,1.0,29.77,1009.0,40,,,,,,,,,,,,,,7/8 Mostly Cloudy,100.0,,BKN,400.0,,,,,,
KRDR,11-05-2007,01:17,SPECI,,350,5,,,9999,,2.0,1.0,29.75,1008.6,,,,,,,,,,,,,,,7/8 Mostly Cloudy,100.0,,BKN,300.0,,,,,,
KRDR,11-05-2007,01:00,METAR,,360,7,,,9999,,2.0,1.0,29.75,1008.5,,,,,,,,,,,,,,,8/8 Overcast,300.0,,BKN,300.0,BKN,1500.0,OVC,3200.0,,
KRDR,11-05-2007,00:19,SPECI,,360,6,,,9999,,2.0,1.0,29.74,1008.1,,,,,,,,,,,,,,,8/8 Overcast,600.0,,BKN,600.0,OVC,1500.0,,,,
KRDR,11-05-2007,00:00,METAR,,30,9,,,9999,Drizzle,2.0,2.0,29.72,1007.5,,,,51,,,,,,,TRACE,,,,8/8 Overcast,1100.0,,OVC,1100.0,,,,,,
KRDR,11-04-2007,23:41,SPECI,,30,8,,,9999,,2.0,2.0,29.72,,,,,,,,,,,,,,,,8/8 Overcast,1400.0,,SCT,800.0,OVC,1400.0,,,,
KRDR,11-04-2007,23:33,SPECI,,20,9,,,9999,,2.0,2.0,29.73,1007.7,,,,,,,,,,,,,,,8/8 Overcast,900.0,,OVC,900.0,,,,,,
KRDR,11-04-2007,23:10,SPECI,,20,8,,,9999,,2.0,2.0,29.72,1007.6,,,,,,,,,,,,,,,8/8 Overcast,1200.0,,OVC,1200.0,,,,,,
KRDR,11-04-2007,23:00,METAR,,30,7,,,9999,Light Drizzle,3.0,2.0,29.71,1007.2,51,,,,,,,,,,,,,,8/8 Overcast,1400.0,,OVC,1400.0,,,,,,
KRDR,11-04-2007,22:56,SPECI,,30,9,,,9999,,3.0,2.0,29.71,1007.1,,,,,,,,,,,,,,,8/8 Overcast,1400.0,,OVC,1400.0,,,,,,
KRDR,11-04-2007,22:37,SPECI,,30,7,,,9999,,3.0,1.0,29.70,1006.9,,,,,,,,,,,,,,,8/8 Overcast,1500.0,,BKN,1500.0,OVC,5900.0,,,,
KRDR,11-04-2007,22:35,SPECI,,30,8,,,9999,,3.0,1.0,29.70,1006.7,,,,,,,,,,,,,,,8/8 Overcast,1400.0,,BKN,1400.0,OVC,5900.0,,,,
KRDR,11-04-2007,22:00,METAR,,90,6,,,9999,,3.0,2.0,29.68,1006.2,,,,,,,,,,,TRACE,,,,8/8 Overcast,4900.0,,FEW,1300.0,OVC,5000.0,,,,
KRDR,11-04-2007,21:34,SPECI,,100,4,,,9999,,3.0,2.0,29.68,1006.2,,,,,,,,,,,,,,,4/8 Partly Cloudy,72000.0,,SCT,4600.0,,,,,,
KRDR,11-04-2007,21:00,METAR,,150,4,,,9999,,3.0,2.0,29.68,1006.2,,,,,,,,,,,20.65 IN,,,,Clear,72000.0,,,73000.0,,,,,,
KRDR,11-04-2007,20:41,SPECI,,160,3,,,9999,,3.0,1.0,29.69,1006.5,,,,,,,,,,,,,,,2/8 Mostly Clear,72000.0,,FEW,4500.0,,,,,,
KRDR,11-04-2007,20:33,SPECI,,150,4,,,9999,,3.0,2.0,29.69,1006.4,,,,,,,,,,,,,,,2/8 Mostly Clear,72000.0,,FEW,4600.0,,,,,,
KRDR,11-04-2007,20:08,SPECI,,120,7,,,9999,,3.0,2.0,29.67,1005.9,,,,,,,,,,,,,,,Clear,72000.0,,,73000.0,,,,,,
KRDR,11-04-2007,20:00,METAR,,100,8,,,9999,,3.0,2.0,29.66,1005.7,,,,,,,,,,,5.12 IN,,,,Clear,72000.0,,,73000.0,,,,,,
KRDR,11-04-2007,19:00,METAR,,90,8,,,9999,,3.0,1.0,29.69,1006.5,,,,,,,,,,,TRACE,,,,Clear,72000.0,,,73000.0,,,,,,
KRDR,11-04-2007,18:00,METAR,,110,5,,,9999,,4.0,1.0,29.73,1008.0,,,,,,,,,,,TRACE,,TRACE,,8/8 Overcast,12000.0,,FEW,2100.0,SCT,7900.0,BKN,12000.0,OVC,25000.0
KRDR,11-04-2007,17:00,METAR,,220,5,,,9999,,4.0,0.0,29.78,1009.3,,,,,,,,,,,TRACE,,,,8/8 Overcast,25000.0,,FEW,8400.0,SCT,12000.0,OVC,25000.0,,
KRDR,11-04-2007,16:21,SPECI,,,0,,,9999,Rain,4.0,-2.0,29.79,,,,,61,,,,,,,,,,,8/8 Overcast,25000.0,,FEW,8400.0,SCT,12000.0,OVC,25000.0,,
KRDR,11-04-2007,16:00,METAR,,230,2,,,9999,,4.0,-2.0,29.79,1009.8,,,,,,,,,,,,,,,8/8 Overcast,25000.0,,FEW,8400.0,SCT,12000.0,OVC,25000.0,,
KRDR,11-04-2007,15:00,METAR,,230,3,,,9999,,2.0,-3.0,29.79,1009.7,,,,,,,,,,,,,,,8/8 Overcast,11000.0,,BKN,11000.0,OVC,25000.0,,,,
KRDR,11-04-2007,14:00,METAR,,260,5,,,9999,,0.0,-3.0,29.80,1010.2,,,,,,,,,,,,,,,8/8 Overcast,12000.0,,BKN,12000.0,OVC,25000.0,,,,
KRDR,11-04-2007,13:00,METAR,,270,5,,,9999,,0.0,-4.0,29.82,1010.7,,,,,,,,,,,,,,,7/8 Mostly Cloudy,12000.0,,BKN,12000.0,,,,,,
KRDR,11-04-2007,12:00,METAR,,280,7,,,9999,,1.0,-4.0,29.83,1011.1,,,,,,,,,,,,,,,7/8 Mostly Cloudy,12000.0,,BKN,12000.0,,,,,,
KRDR,11-04-2007,11:00,METAR,,280,7,,,9999,,0.0,-5.0,29.84,1011.6,,,,,,,,,,,,,,,4/8 Partly Cloudy,72000.0,,SCT,11000.0,,,,,,
KRDR,11-04-2007,10:00,METAR,,270,9,,,9999,,0.0,-5.0,29.85,1011.8,,,,,,,,,,,,,,,Clear,72000.0,,,73000.0,,,,,,
KRDR,11-04-2007,09:00,METAR,,270,10,,,9999,,1.0,-4.0,29.85,1011.9,,,,,,,,,,,,,,,Clear,72000.0,,,73000.0,,,,,,
KRDR,11-04-2007,08:00,METAR,,280,9,,,9999,,1.0,-4.0,29.86,1012.1,,,,,,,,,,,,,,,Clear,72000.0,,,73000.0,,,,,,
KRDR,11-04-2007,07:00,METAR,,260,8,,,9999,,1.0,-5.0,29.86,1012.0,,,,,,,,,,,,,,,Clear,72000.0,,,73000.0,,,,,,
KRDR,11-04-2007,06:00,METAR,,270,6,,,9999,,0.0,-5.0,29.85,1011.9,,,,,,,,,,,,,,,Clear,72000.0,,,73000.0,,,,,,
KRDR,11-04-2007,05:00,METAR,,290,8,,,9999,,1.0,-5.0,29.85,1011.8,,,,,,,,,,,,,,,Clear,72000.0,,,73000.0,,,,,,
KRDR,11-04-2007,04:00,METAR,,260,8,,,9999,,-1.0,-6.0,29.85,1011.8,,,,,,,,,,,,,,,2/8 Mostly Clear,72000.0,,FEW,6900.0,FEW,20000.0,,,,
KRDR,11-04-2007,03:00,METAR,,280,6,,,9999,,-1.0,-6.0,29.86,1012.0,,,,,,,,,,,,,,,2/8 Mostly Clear,72000.0,,FEW,6900.0,FEW,20000.0,,,,
KRDR,11-04-2007,02:00,METAR,,290,7,,,9999,,1.0,-5.0,29.86,1012.0,,,,,,,,,,,,,,,2/8 Mostly Clear,72000.0,,FEW,20000.0,,,,,,
KRDR,11-04-2007,01:00,METAR,,220,5,,,9999,,1.0,-4.0,29.86,1012.1,,,,,,,,,,,,,,,4/8 Partly Cloudy,72000.0,,FEW,9900.0,SCT,20000.0,,,,
KRDR,11-04-2007,00:00,METAR,,210,6,,,9999,,4.0,-4.0,29.87,1012.3,,,,,,,,,,,,,,,7/8 Mostly Cloudy,10000.0,,BKN,9900.0,BKN,25000.0,,,,
KRDR,11-03-2007,23:00,METAR,,190,10,,,9999,,7.0,-4.0,29.86,1012.1,,,,,,,,,,,,,,,7/8 Mostly Cloudy,10000.0,,BKN,9900.0,BKN,25000.0,,,,
KRDR,11-03-2007,22:00,METAR,,200,12,,,9999,,8.0,-5.0,29.87,1012.3,,,,,,,,,,,,,,,7/8 Mostly Cloudy,9000.0,,BKN,8900.0,BKN,25000.0,,,,
KRDR,11-03-2007,21:01,SPECI,,210,12,,,9999,,8.0,-5.0,29.86,1012.3,,,,,,,,,,,,,,,7/8 Mostly Cloudy,7000.0,,FEW,4600.0,BKN,6900.0,,,,
KRDR,11-03-2007,21:00,METAR,,200,11,,,9999,,8.0,-5.0,29.87,1012.3,,,,,,,,,,,,,,,7/8 Mostly Cloudy,7000.0,,FEW,4600.0,BKN,6900.0,,,,
KRDR,11-03-2007,20:00,METAR,,180,11,,,9999,,8.0,-4.0,29.89,1013.0,,,,,,,,,,,,,,,Clear,72000.0,,,73000.0,,,,,,
KRDR,11-03-2007,19:00,METAR,,180,9,,,9999,,7.0,-4.0,29.91,1013.9,,,,,,,,,,,,,,,2/8 Mostly Clear,72000.0,,FEW,8400.0,,,,,,
KRDR,11-03-2007,18:00,METAR,,180,9,,,9999,,6.0,-4.0,29.95,1015.2,,,,,,,,,,,,,,,4/8 Partly Cloudy,72000.0,,SCT,7900.0,,,,,,
KRDR,11-03-2007,17:00,METAR,,200,8,,,9999,,6.0,-3.0,29.98,1016.1,,,,,,,,,,,,,,,Clear,72000.0,,,73000.0,,,,,,
KRDR,11-03-2007,16:00,METAR,,170,5,,,9999,,2.0,-3.0,29.99,1016.5,,,,,,,,,,,,,,,Clear,72000.0,,,73000.0,,,,,,
KRDR,11-03-2007,15:00,METAR,,190,4,,,9999,,-1.0,-4.0,30.01,1017.1,,,,,,,,,,,,,,,Clear,72000.0,,,73000.0,,,,,,
KRDR,11-03-2007,14:00,METAR,,210,5,,,9999,,-2.0,-5.0,30.02,1017.4,,,,,,,,,,,,,,,Clear,72000.0,,,73000.0,,,,,,
KRDR,11-03-2007,13:00,METAR,,240,3,,,9999,,-3.0,-6.0,30.03,1017.7,,,,,,,,,,,,,,,Clear,72000.0,,,73000.0,,,,,,
KRDR,11-03-2007,12:00,METAR,,250,6,,,9999,,-4.0,-6.0,30.04,1018.1,,,,,,,,,,,,,,,Clear,72000.0,,,73000.0,,,,,,
KRDR,11-03-2007,11:00,METAR,,260,5,,,9999,,-4.0,-6.0,30.06,1018.8,,,,,,,,,,,,,,,Clear,72000.0,,,73000.0,,,,,,
KRDR,11-03-2007,10:00,METAR,,240,6,,,9999,,-4.0,-6.0,30.07,1019.2,,,,,,,,,,,,,,,Clear,72000.0,,,73000.0,,,,,,
KRDR,11-03-2007,09:00,METAR,,240,5,,,9999,,-3.0,-6.0,30.08,1019.2,,,,,,,,,,,,,,,Clear,72000.0,,,73000.0,,,,,,
KRDR,11-03-2007,08:00,METAR,,240,4,,,9999,,-2.0,-5.0,30.09,1019.6,,,,,,,,,,,,,,,Clear,72000.0,,,73000.0,,,,,,
KRDR,11-03-2007,07:00,METAR,,240,6,,,9999,,-3.0,-5.0,30.10,1020.0,,,,,,,,,,,,,,,Clear,72000.0,,,73000.0,,,,,,
KRDR,11-03-2007,06:00,METAR,,260,9,,,9999,,-2.0,-5.0,30.11,1020.4,,,,,,,,,,,,,,,Clear,72000.0,,,73000.0,,,,,,
KRDR,11-03-2007,05:00,METAR,,260,6,,,9999,,-1.0,-5.0,30.11,1020.4,,,,,,,,,,,,,,,Clear,72000.0,,,73000.0,,,,,,
KRDR,11-03-2007,04:00,METAR,,280,7,,,9999,,1.0,-4.0,30.11,1020.5,,,,,,,,,,,,,,,2/8 Mostly Clear,72000.0,,FEW,5900.0,,,,,,
KRDR,11-03-2007,03:00,METAR,,240,6,,,9999,,4.0,-3.0,30.11,1020.3,,,,,,,,,,,,,,,8/8 Overcast,6000.0,,OVC,5900.0,,,,,,
KRDR,11-03-2007,02:00,METAR,,270,8,,,9999,,5.0,-3.0,30.10,1020.0,,,,,,,,,,,,,,,8/8 Overcast,6500.0,,OVC,6400.0,,,,,,
KRDR,11-03-2007,01:00,METAR,,280,8,,,9999,,6.0,-4.0,30.10,1020.1,,,,,,,,,,,,,,,8/8 Overcast,6000.0,,OVC,5900.0,,,,,,
KRDR,11-03-2007,00:00,METAR,,290,12,,,9999,,6.0,-3.0,30.09,1019.6,,,,,,,,,,,,,,,8/8 Overcast,4900.0,,OVC,5000.0,,,,,,
KRDR,11-02-2007,23:00,METAR,,290,12,,,9999,,6.0,-3.0,30.07,1019.0,,,,,,,,,,,,,,,8/8 Overcast,5500.0,,OVC,5400.0,,,,,,
KRDR,11-02-2007,22:00,METAR,,300,15,20.0,,9999,,7.0,-3.0,30.05,1018.4,,,,,,,,,,,,,,,8/8 Overcast,6000.0,,OVC,5900.0,,,,,,
KRDR,11-02-2007,21:00,METAR,,300,15,20.0,,9999,,7.0,-3.0,30.03,1017.8,,,,,,,,,,,,,,,8/8 Overcast,5500.0,,OVC,5400.0,,,,,,
KRDR,11-02-2007,20:00,METAR,,300,20,26.0,300/28KTS,9999,,7.0,-3.0,30.02,1017.2,,,,,,,,,,,,,,,8/8 Overcast,4400.0,,OVC,4500.0,,,,,,
KRDR,11-02-2007,19:00,METAR,,290,18,27.0,270/27KTS,9999,,7.0,-3.0,30.01,1017.0,,,,,,,,,,,,,,,7/8 Mostly Cloudy,5500.0,,BKN,5400.0,,,,,,
KRDR,11-02-2007,18:00,METAR,,280,24,30.0,300/30KTS,9999,,8.0,-3.0,30.00,1016.6,,,,,,,,,,,,,,,7/8 Mostly Cloudy,6500.0,,FEW,4000.0,BKN,6400.0,BKN,20000.0,,
KRDR,11-02-2007,17:00,METAR,,280,19,24.0,290/27KTS,9999,,7.0,-3.0,30.00,1016.7,,,,,,,,,,,,,,,7/8 Mostly Cloudy,20000.0,,SCT,9900.0,BKN,20000.0,,,,
KRDR,11-02-2007,16:00,METAR,,280,14,23.0,,9999,,6.0,-3.0,29.99,1016.5,,,,,,,,,,,,,,,4/8 Partly Cloudy,72000.0,,SCT,6400.0,SCT,20000.0,,,,
KRDR,11-02-2007,15:00,METAR,,280,16,24.0,270/26KTS,9999,,4.0,-4.0,29.98,1016.1,,,,,,,,,,,,,,,2/8 Mostly Clear,72000.0,,FEW,9900.0,FEW,20000.0,,,,
KRDR,11-02-2007,14:00,METAR,,280,15,21.0,,9999,,3.0,-3.0,29.96,1015.3,,,,,,,,,,,,,,,2/8 Mostly Clear,72000.0,,FEW,20000.0,,,,,,
KRDR,11-02-2007,13:00,METAR,,280,15,22.0,,9999,,3.0,-3.0,29.93,1014.4,,,,,,,,,,,,,,,2/8 Mostly Clear,72000.0,,FEW,20000.0,,,,,,
KRDR,11-02-2007,12:00,METAR,,280,16,20.0,,9999,,4.0,-1.0,29.90,1013.6,,,,,,,,,,,,,,,2/8 Mostly Clear,72000.0,,FEW,9400.0,,,,,,
KRDR,11-02-2007,11:00,METAR,,280,13,20.0,,9999,,4.0,-1.0,29.88,1012.8,,,,,,,,,,,,,,,4/8 Partly Cloudy,72000.0,,SCT,9400.0,,,,,,
KRDR,11-02-2007,10:00,METAR,,290,13,20.0,,9999,,5.0,-2.0,29.87,1012.5,,,,,,,,,,,,,,,8/8 Overcast,6000.0,,OVC,5900.0,,,,,,
KRDR,11-02-2007,09:00,METAR,,290,12,,,9999,,4.0,-4.0,29.84,1011.4,,,,,,,,,,,,,,,7/8 Mostly Cloudy,9000.0,,BKN,8900.0,,,,,,
KRDR,11-02-2007,08:00,METAR,,290,14,,,9999,,5.0,-3.0,29.79,1009.8,,,,,,,,,,,,,,,4/8 Partly Cloudy,72000.0,,SCT,8900.0,,,,,,
KRDR,11-02-2007,07:00,METAR,,270,10,,,9999,,3.0,-3.0,29.77,1009.0,,,,,,,,,,,,,,,Clear,72000.0,,,73000.0,,,,,,
KRDR,11-02-2007,06:00,METAR,,250,7,,,9999,,5.0,-3.0,29.75,1008.4,,,,,,,,,,,,,,,Clear,72000.0,,,73000.0,,,,,,
KRDR,11-02-2007,05:00,METAR,,260,9,,,9999,,8.0,-4.0,29.72,1007.6,,,,,,,,,,,,,,,2/8 Mostly Clear,72000.0,,FEW,11000.0,FEW,20000.0,,,,
KRDR,11-02-2007,04:00,METAR,,230,8,,,9999,,8.0,-2.0,29.71,1007.3,,,,,,,,,,,,,,,7/8 Mostly Cloudy,11000.0,,BKN,11000.0,BKN,20000.0,,,,
KRDR,11-02-2007,03:00,METAR,,230,8,,,9999,,7.0,0.0,29.71,1007.1,,,,,,,,,,,,,,,7/8 Mostly Cloudy,20000.0,,SCT,9900.0,BKN,20000.0,,,,
KRDR,11-02-2007,02:00,METAR,,220,9,,,9999,,8.0,0.0,29.71,1007.1,,,,,,,,,,,,,,,8/8 Overcast,9000.0,,OVC,8900.0,,,,,,
KRDR,11-02-2007,01:00,METAR,,210,8,,,9999,,9.0,0.0,29.70,1006.9,,,,,,,,,,,,,,,8/8 Overcast,20000.0,,SCT,12000.0,OVC,20000.0,,,,
KRDR,11-02-2007,00:00,METAR,,200,9,,,9999,,10.0,-1.0,29.70,1006.9,,,,,,,,,,,,,,,7/8 Mostly Cloudy,20000.0,,FEW,15000.0,BKN,20000.0,,,,
KRDR,11-01-2007,23:00,METAR,,190,11,,,9999,,11.0,-2.0,29.70,1007.0,,,,,,,,,,,,,,,7/8 Mostly Cloudy,20000.0,,SCT,15000.0,BKN,20000.0,,,,
KRDR,11-01-2007,22:00,METAR,,180,12,,,9999,,12.0,-1.0,29.71,1007.2,,,,,,,,,,,,,,,7/8 Mostly Cloudy,20000.0,,FEW,15000.0,BKN,20000.0,,,,
KRDR,11-01-2007,21:00,METAR,,180,17,22.0,,9999,,13.0,-2.0,29.72,1007.6,,,,,,,,,,,,,,,7/8 Mostly Cloudy,20000.0,,FEW,15000.0,BKN,20000.0,,,,
KRDR,11-01-2007,20:00,METAR,,180,13,21.0,,9999,,12.0,-1.0,29.75,1008.5,,,,,,,,,,,,,,,7/8 Mostly Cloudy,20000.0,,FEW,12000.0,BKN,20000.0,,,,
KRDR,11-01-2007,19:00,METAR,,190,14,20.0,,9999,,11.0,-2.0,29.78,1009.8,,,,,,,,,,,,,,,7/8 Mostly Cloudy,20000.0,,SCT,14000.0,BKN,20000.0,,,,
KRDR,11-01-2007,18:00,METAR,,180,13,,,9999,,9.0,-2.0,29.83,1011.3,,,,,,,,,,,,,,,7/8 Mostly Cloudy,20000.0,,FEW,12000.0,BKN,20000.0,,,,
KRDR,11-01-2007,17:00,METAR,,200,10,,,9999,,6.0,-2.0,29.86,1012.6,,,,,,,,,,,,,,,7/8 Mostly Cloudy,20000.0,,SCT,12000.0,BKN,20000.0,,,,
KRDR,11-01-2007,16:00,METAR,,190,11,,,9999,,4.0,-3.0,29.89,1013.7,,,,,,,,,,,,,,,7/8 Mostly Cloudy,20000.0,,SCT,12000.0,BKN,20000.0,,,,
KRDR,11-01-2007,15:00,METAR,,170,13,,,9999,,1.0,-4.0,29.92,1014.6,,,,,,,,,,,,,,,7/8 Mostly Cloudy,20000.0,,SCT,12000.0,BKN,20000.0,,,,
KRDR,11-01-2007,14:00,METAR,,180,7,,,9999,,-1.0,-5.0,29.95,1015.7,,,,,,,,,,,,,,,7/8 Mostly Cloudy,20000.0,,SCT,12000.0,BKN,20000.0,,,,
KRDR,11-01-2007,13:00,METAR,,160,7,,,9999,,-2.0,-5.0,29.96,1016.1,,,,,,,,,,,,,,,7/8 Mostly Cloudy,12000.0,,BKN,12000.0,,,,,,
KRDR,11-01-2007,12:00,METAR,,160,10,,,9999,,-2.0,-5.0,30.00,1016.6,,,,,,,,,,,,,,,2/8 Mostly Clear,72000.0,,FEW,25000.0,,,,,,
KRDR,11-01-2007,11:00,METAR,,160,7,,,9999,,-1.0,-5.0,30.02,1016.9,,,,,,,,,,,,,,,4/8 Partly Cloudy,72000.0,,SCT,13000.0,,,,,,
KRDR,11-01-2007,10:00,METAR,,190,7,,,9999,,0.0,-5.0,30.04,1018.2,,,,,,,,,,,,,,,Clear,72000.0,,,73000.0,,,,,,
KRDR,11-01-2007,09:00,METAR,,190,7,,,9999,,-2.0,-6.0,30.07,1018.9,,,,,,,,,,,,,,,Clear,72000.0,,,73000.0,,,,,,
KRDR,11-01-2007,08:00,METAR,,220,6,,,9999,,-3.0,-6.0,30.08,1019.3,,,,,,,,,,,,,,,Clear,72000.0,,,73000.0,,,,,,
KRDR,11-01-2007,07:00,METAR,,190,5,,,9999,,-2.0,-6.0,30.09,1019.6,,,,,,,,,,,,,,,Clear,72000.0,,,73000.0,,,,,,
KRDR,11-01-2007,06:00,METAR,,240,7,,,9999,,-3.0,-6.0,30.11,1020.3,,,,,,,,,,,,,,,Clear,72000.0,,,73000.0,,,,,,
KRDR,11-01-2007,05:00,METAR,,270,4,,,9999,,-2.0,-6.0,30.11,1020.3,,,,,,,,,,,,,,,Clear,72000.0,,,73000.0,,,,,,
KRDR,11-01-2007,04:00,METAR,,270,6,,,9999,,-2.0,-6.0,30.11,1020.5,,,,,,,,,,,,,,,2/8 Mostly Clear,72000.0,,FEW,25000.0,,,,,,
KRDR,11-01-2007,03:00,METAR,,260,6,,,9999,,-1.0,-5.0,30.12,1020.6,,,,,,,,,,,,,,,2/8 Mostly Clear,72000.0,,FEW,25000.0,,,,,,
KRDR,11-01-2007,02:00,METAR,,270,6,,,9999,,0.0,-5.0,30.11,1020.5,,,,,,,,,,,,,,,2/8 Mostly Clear,72000.0,,FEW,25000.0,,,,,,
KRDR,11-01-2007,01:00,METAR,,270,6,,,9999,,-1.0,-6.0,30.11,1020.4,,,,,,,,,,,,,,,2/8 Mostly Clear,72000.0,,FEW,25000.0,,,,,,
KRDR,11-01-2007,00:00,METAR,,310,5,,,9999,,4.0,-6.0,30.10,1020.2,,,,,,,,,,,,,,,2/8 Mostly Clear,72000.0,,FEW,4000.0,FEW,25000.0,,,,
KRDR,10-31-2007,23:00,METAR,,310,9,,,9999,,7.0,-6.0,30.08,1019.9,,,,,,,,,,,,,,,2/8 Mostly Clear,72000.0,,FEW,3500.0,FEW,20000.0,,,,
KRDR,10-31-2007,22:00,METAR,,300,15,,,9999,,8.0,-5.0,30.07,1019.3,,,,,,,,,,,,,,,2/8 Mostly Clear,72000.0,,FEW,3500.0,FEW,20000.0,,,,
KRDR,10-31-2007,21:00,METAR,,310,20,28.0,320/28KTS,9999,,8.0,-4.0,30.06,1019.0,,,,,,,,,,,,,,,2/8 Mostly Clear,72000.0,,FEW,3500.0,FEW,20000.0,,,,
KRDR,10-31-2007,20:00,METAR,,310,18,28.0,320/28KTS,9999,,8.0,-4.0,30.06,1018.9,,,,,,,,,,,,,,,2/8 Mostly Clear,72000.0,,FEW,3500.0,,,,,,
KRDR,10-31-2007,19:00,METAR,,320,21,26.0,310/30KTS,9999,,8.0,-3.0,30.05,1018.7,,,,,,,,,,,,,,,2/8 Mostly Clear,72000.0,,FEW,3500.0,,,,,,
KRDR,10-31-2007,18:00,METAR,,300,18,26.0,310/30KTS,9999,,7.0,-2.0,30.06,1018.7,,,,,,,,,,,,,,,4/8 Partly Cloudy,72000.0,,SCT,3200.0,,,,,,
KRDR,10-31-2007,17:00,METAR,,310,19,27.0,310/28KTS,9999,,6.0,-3.0,30.05,1018.6,,,,,,,,,,,,,,,4/8 Partly Cloudy,72000.0,,SCT,3200.0,,,,,,
KRDR,10-31-2007,16:00,METAR,,310,20,26.0,300/28KTS,9999,,5.0,-3.0,30.03,1017.9,,,,,,,,,,,,,,,4/8 Partly Cloudy,72000.0,,SCT,2500.0,,,,,,
KRDR,10-31-2007,15:00,METAR,,300,19,28.0,,9999,,3.0,-3.0,30.01,1017.2,,,,,,,,,,,,,,,2/8 Mostly Clear,72000.0,,FEW,5000.0,,,,,,
KRDR,10-31-2007,14:00,METAR,,290,20,,,9999,,2.0,-3.0,29.98,1016.4,,,,,,,,,,,,,,,2/8 Mostly Clear,72000.0,,FEW,5000.0,,,,,,
KRDR,10-31-2007,13:00,METAR,,290,13,20.0,,9999,,1.0,-3.0,29.96,1015.7,,,,,,,,,,,,,,,2/8 Mostly Clear,72000.0,,FEW,25000.0,,,,,,
KRDR,10-31-2007,12:00,METAR,,300,16,24.0,,9999,,3.0,-3.0,29.95,1015.2,,,,,,,,,,,,,,,Clear,72000.0,,,73000.0,,,,,,
KRDR,10-31-2007,11:00,METAR,,300,15,21.0,,9999,,3.0,-2.0,29.94,1014.9,,,,,,,,,,,,,,,Clear,72000.0,,,73000.0,,,,,,
KRDR,10-31-2007,10:00,METAR,,300,16,21.0,,9999,,3.0,-2.0,29.92,1014.2,,,,,,,,,,,,,,,Clear,72000.0,,,73000.0,,,,,,
KRDR,10-31-2007,09:00,METAR,,290,15,,,9999,,3.0,-1.0,29.91,1013.7,,,,,,,,,,,,,,,Clear,72000.0,,,73000.0,,,,,,
KRDR,10-31-2007,08:00,METAR,,300,12,19.0,,9999,,5.0,0.0,29.89,1013.1,,,,,,,,,,,,,,,Clear,72000.0,,,73000.0,,,,,,
KRDR,10-31-2007,07:00,METAR,,300,18,24.0,,9999,,6.0,0.0,29.86,1012.2,,,,,,,,,,,,,,,Clear,72000.0,,,73000.0,,,,,,
KRDR,10-31-2007,06:00,METAR,,310,14,21.0,,9999,,6.0,1.0,29.86,1012.1,,,,,,,,,,,,,.07 IN,,Clear,72000.0,,,73000.0,,,,,,
KRDR,10-31-2007,05:00,METAR,,310,17,20.0,,9999,,7.0,3.0,29.85,1011.8,,,,,,,,,,,,,,,Clear,72000.0,,,73000.0,,,,,,
KRDR,10-31-2007,04:00,METAR,,330,12,18.0,,9999,,6.0,4.0,29.84,1011.4,,,,,,,,,,,.06 IN,,,,8/8 Overcast,6000.0,,SCT,1700.0,BKN,5900.0,OVC,25000.0,,
KRDR,10-31-2007,03:00,METAR,,320,17,25.0,330/27KTS,8000,Rain,7.0,5.0,29.82,1010.7,,,,63,,,,,,,.01 IN,.01 IN,,,8/8 Overcast,7000.0,,SCT,2700.0,BKN,6900.0,OVC,25000.0,,
KRDR,10-31-2007,02:22,SPECI,,330,18,24.0,330/27KTS,9999,Rain,8.0,3.0,29.80,1010.2,,,,61,,,,,,,,,,,7/8 Mostly Cloudy,7000.0,,BKN,6900.0,BKN,25000.0,,,,
KRDR,10-31-2007,02:00,METAR,,330,21,26.0,340/26KTS,9999,,9.0,3.0,29.78,1009.6,,,,,,,,,,,,,,,7/8 Mostly Cloudy,8000.0,,BKN,7900.0,BKN,25000.0,,,,
KRDR,10-31-2007,01:56,METAR,,330,16,25.0,330/31KTS,9999,Rain,9.0,4.0,29.78,1009.4,,,,61,,,,,,,TRACE,,,,7/8 Mostly Cloudy,8500.0,,BKN,8400.0,BKN,25000.0,,,,
KRDR,10-31-2007,01:36,SPECI,,330,19,31.0,330/31KTS,9999,Rain,11.0,3.0,29.77,1009.0,,,,61,,,,,,,,,,,8/8 Overcast,25000.0,,SCT,12000.0,OVC,25000.0,,,,
KRDR,10-31-2007,01:00,METAR,,340,15,25.0,340/29KTS,9999,,13.0,3.0,29.73,1007.9,,,,,,,,,,,,,,,8/8 Overcast,25000.0,,SCT,15000.0,OVC,25000.0,,,,
KRDR,10-31-2007,00:00,METAR,,330,10,,,9999,,15.0,1.0,29.71,1007.0,,,,,,,,,,,,,,,8/8 Overcast,25000.0,,FEW,9900.0,SCT,15000.0,OVC,25000.0,,
KRDR,10-30-2007,23:00,METAR,,270,10,,,9999,,16.0,0.0,29.69,1006.1,,,,,,,,,,,,,,,8/8 Overcast,12000.0,,BKN,12000.0,OVC,25000.0,,,,
KRDR,10-30-2007,22:00,METAR,,200,9,,,9999,,17.0,7.0,29.66,1005.6,,,,,,,,,,,,,,,8/8 Overcast,15000.0,,SCT,12000.0,BKN,15000.0,OVC,25000.0,,
KRDR,10-30-2007,21:00,METAR,,,3,,,9999,,20.0,2.0,29.65,1005.1,,,,,,,,,,,,,,,8/8 Overcast,15000.0,,SCT,12000.0,BKN,15000.0,OVC,25000.0,,
KRDR,10-30-2007,20:00,METAR,,230,6,,,9999,,22.0,1.0,29.65,1005.3,,,,,,,,,,,,,,,7/8 Mostly Cloudy,25000.0,,SCT,12000.0,BKN,25000.0,,,,
KRDR,10-30-2007,19:00,METAR,,210,7,,,9999,,20.0,1.0,29.68,1006.3,,,,,,,,,,,,,,,7/8 Mostly Cloudy,25000.0,,SCT,15000.0,BKN,25000.0,,,,
KRDR,10-30-2007,18:00,METAR,,200,9,,,9999,,18.0,1.0,29.72,1007.4,,,,,,,,,,,,,,,7/8 Mostly Cloudy,25000.0,,SCT,15000.0,BKN,25000.0,,,,
KRDR,10-30-2007,17:00,METAR,,150,6,,,9999,,14.0,4.0,29.73,1007.8,,,,,,,,,,,,,,,7/8 Mostly Cloudy,25000.0,,FEW,12000.0,BKN,25000.0,,,,
KRDR,10-30-2007,16:00,METAR,,150,4,,,9999,,10.0,3.0,29.73,1008.0,,,,,,,,,,,,,,,7/8 Mostly Cloudy,25000.0,,FEW,12000.0,BKN,25000.0,,,,
KRDR,10-30-2007,15:00,METAR,,150,4,,,9999,,8.0,3.0,29.75,1008.4,,,,,,,,,,,,,,,7/8 Mostly Cloudy,25000.0,,FEW,12000.0,BKN,25000.0,,,,
KRDR,10-30-2007,14:00,METAR,,190,5,,,9999,,3.0,0.0,29.76,1008.7,,,,,,,,,,,,,,,4/8 Partly Cloudy,72000.0,,SCT,25000.0,,,,,,
KRDR,10-30-2007,13:00,METAR,,180,4,,,9999,,1.0,-1.0,29.76,1008.8,,,,,,,,,,,,,,,2/8 Mostly Clear,72000.0,,FEW,25000.0,,,,,,
KRDR,10-30-2007,12:00,METAR,,160,5,,,9999,,1.0,-1.0,29.76,1008.8,,,,,,,,,,,,,TRACE,,2/8 Mostly Clear,72000.0,,FEW,25000.0,,,,,,
KRDR,10-30-2007,11:00,METAR,,140,5,,,9999,,2.0,0.0,29.78,1009.4,,,,,,,,,,,TRACE,,,,2/8 Mostly Clear,72000.0,,FEW,12000.0,FEW,20000.0,,,,
KRDR,10-30-2007,10:00,METAR,,180,4,,,9999,,4.0,1.0,29.79,1009.8,,,,,,,,,,,TRACE,,,,Clear,72000.0,,,73000.0,,,,,,
KRDR,10-30-2007,09:49,SPECI,,170,4,,,9999,,5.0,1.0,29.79,1009.8,,,,,,,,,,,,,,,Clear,72000.0,,,73000.0,,,,,,
KRDR,10-30-2007,09:00,METAR,,190,5,,,9999,,6.0,1.0,29.81,1010.4,,,,,,,,,,,,,,,Clear,72000.0,,,73000.0,,,,,,
KRDR,10-30-2007,08:00,METAR,,190,5,,,9999,,8.0,2.0,29.82,1010.7,,,,,,,,,,,,,,,Clear,72000.0,,,73000.0,,,,,,
KRDR,10-30-2007,07:00,METAR,,200,6,,,9999,,8.0,2.0,29.82,1010.9,,,,,,,,,,,,,,,Clear,72000.0,,,73000.0,,,,,,
KRDR,10-30-2007,06:00,METAR,,180,2,,,9999,,8.0,3.0,29.84,1011.5,,,,,,,,,,,,,,,Clear,72000.0,,,73000.0,,,,,,
KRDR,10-30-2007,05:00,METAR,,180,8,,,9999,,10.0,3.0,29.86,1012.0,,,,,,,,,,,,,,,Clear,72000.0,,,73000.0,,,,,,
KRDR,10-30-2007,04:00,METAR,,190,9,,,9999,,11.0,3.0,29.87,1012.3,,,,,,,,,,,,,,,4/8 Partly Cloudy,72000.0,,SCT,12000.0,,,,,,
KRDR,10-30-2007,03:00,METAR,,180,7,,,9999,,9.0,2.0,29.88,1012.7,,,,,,,,,,,,,,,2/8 Mostly Clear,72000.0,,FEW,12000.0,,,,,,
KRDR,10-30-2007,02:00,METAR,,160,7,,,9999,,7.0,2.0,29.90,1013.6,,,,,,,,,,,,,,,2/8 Mostly Clear,72000.0,,FEW,12000.0,,,,,,
KRDR,10-30-2007,01:00,METAR,,150,9,,,9999,,10.0,2.0,29.91,1013.7,,,,,,,,,,,,,,,2/8 Mostly Clear,72000.0,,FEW,12000.0,,,,,,
KRDR,10-30-2007,00:00,METAR,,140,9,,,9999,,11.0,2.0,29.94,1014.6,,,,,,,,,,,,,,,2/8 Mostly Clear,72000.0,,FEW,12000.0,,,,,,
KRDR,10-29-2007,23:00,METAR,,150,7,,,9999,,15.0,1.0,29.95,1015.2,,,,,,,,,,,,,,,2/8 Mostly Clear,72000.0,,FEW,12000.0,,,,,,
KRDR,10-29-2007,22:00,METAR,,150,11,,,9999,,17.0,0.0,29.97,1015.9,,,,,,,,,,,,,,,2/8 Mostly Clear,72000.0,,FEW,12000.0,,,,,,
KRDR,10-29-2007,21:00,METAR,,150,12,,,9999,,18.0,-1.0,30.00,1016.7,,,,,,,,,,,,,,,2/8 Mostly Clear,72000.0,,FEW,25000.0,,,,,,
KRDR,10-29-2007,20:00,METAR,,140,8,,,9999,,18.0,-1.0,30.03,1017.8,,,,,,,,,,,,,,,2/8 Mostly Clear,72000.0,,FEW,25000.0,,,,,,
KRDR,10-29-2007,19:00,METAR,,170,9,,,9999,,17.0,-2.0,30.07,1019.1,,,,,,,,,,,,,,,2/8 Mostly Clear,72000.0,,FEW,25000.0,,,,,,
KRDR,10-29-2007,18:00,METAR,,160,7,,,9999,,15.0,0.0,30.11,1020.2,,,,,,,,,,,,,,,4/8 Partly Cloudy,72000.0,,FEW,12000.0,SCT,25000.0,,,,
KRDR,10-29-2007,17:00,METAR,,130,3,,,9999,,12.0,-1.0,30.13,1020.9,,,,,,,,,,,,,,,4/8 Partly Cloudy,72000.0,,FEW,12000.0,SCT,25000.0,,,,
KRDR,10-29-2007,16:00,METAR,,240,3,,,9999,,9.0,1.0,30.15,1021.6,,,,,,,,,,,,,,,4/8 Partly Cloudy,72000.0,,FEW,12000.0,SCT,25000.0,,,,
KRDR,10-29-2007,15:00,METAR,,250,2,,,9999,,5.0,-1.0,30.16,1022.0,,,,,,,,,,,,,,,4/8 Partly Cloudy,72000.0,,FEW,12000.0,SCT,25000.0,,,,
KRDR,10-29-2007,14:00,METAR,,250,4,,,9999,,0.0,-3.0,30.16,1022.1,,,,,,,,,,,,,,,4/8 Partly Cloudy,72000.0,,FEW,12000.0,SCT,25000.0,,,,
KRDR,10-29-2007,13:00,METAR,,220,6,,,9999,,0.0,-4.0,30.15,1021.5,,,,,,,,,,,,,,,2/8 Mostly Clear,72000.0,,FEW,25000.0,,,,,,
KRDR,10-29-2007,12:00,METAR,,240,4,,,9999,,-2.0,-4.0,30.15,1021.6,,,,,,,,,,,,,,,2/8 Mostly Clear,72000.0,,FEW,25000.0,,,,,,
KRDR,10-29-2007,11:00,METAR,,240,5,,,9999,,-2.0,-4.0,30.15,1021.5,,,,,,,,,,,,,,,2/8 Mostly Clear,72000.0,,FEW,25000.0,,,,,,
KRDR,10-29-2007,10:00,METAR,,310,3,,,9999,,1.0,-4.0,30.14,1021.4,,,,,,,,,,,,,,,Clear,72000.0,,,73000.0,,,,,,
KRDR,10-29-2007,09:00,METAR,,,0,,,9999,,1.0,-4.0,30.14,1021.2,,,,,,,,,,,,,,,Clear,72000.0,,,73000.0,,,,,,
KRDR,10-29-2007,08:00,METAR,,240,6,,,9999,,1.0,-3.0,30.14,1021.3,,,,,,,,,,,,,,,Clear,72000.0,,,73000.0,,,,,,
KRDR,10-29-2007,07:00,METAR,,300,2,,,9999,,3.0,-3.0,30.13,1021.0,,,,,,,,,,,,,,,Clear,72000.0,,,73000.0,,,,,,
KRDR,10-29-2007,06:00,METAR,,280,6,,,9999,,1.0,-2.0,30.12,1020.8,,,,,,,,,,,,,,,Clear,72000.0,,,73000.0,,,,,,
KRDR,10-29-2007,05:00,METAR,,230,3,,,9999,,2.0,-1.0,30.12,1020.6,,,,,,,,,,,,,,,Clear,72000.0,,,73000.0,,,,,,
KRDR,10-29-2007,04:00,METAR,,240,6,,,9999,,3.0,-1.0,30.10,1020.0,,,,,,,,,,,,,,,Clear,72000.0,,,73000.0,,,,,,
KRDR,10-29-2007,03:00,METAR,,230,6,,,9999,,1.0,-1.0,30.09,1019.8,,,,,,,,,,,,,,,Clear,72000.0,,,73000.0,,,,,,
KRDR,10-29-2007,02:00,METAR,,220,4,,,9999,,3.0,-1.0,30.09,1019.7,,,,,,,,,,,,,,,7/8 Mostly Cloudy,25000.0,,BKN,25000.0,,,,,,
KRDR,10-29-2007,01:00,METAR,,200,3,,,9999,,6.0,0.0,30.08,1019.4,,,,,,,,,,,,,,,7/8 Mostly Cloudy,25000.0,,BKN,25000.0,,,,,,
KRDR,10-29-2007,00:00,METAR,,250,4,,,9999,,9.0,1.0,30.07,1019.1,,,,,,,,,,,,,,,7/8 Mostly Cloudy,25000.0,,BKN,25000.0,,,,,,
KRDR,10-28-2007,23:00,METAR,,200,9,,,9999,,11.0,2.0,30.04,1018.2,,,,,,,,,,,,,,,Clear,72000.0,,,73000.0,,,,,,
KRDR,10-28-2007,22:00,METAR,,230,15,,,9999,,13.0,1.0,30.04,1017.9,,,,,,,,,,,,,,,Clear,72000.0,,,73000.0,,,,,,
KRDR,10-28-2007,21:00,METAR,,200,18,21.0,200/27KTS,9999,,13.0,1.0,30.04,1018.0,,,,,,,,,,,,,,,Clear,72000.0,,,73000.0,,,,,,
KRDR,10-28-2007,20:00,METAR,,190,18,,,9999,,12.0,0.0,30.06,1018.7,,,,,,,,,,,,,,,Clear,72000.0,,,73000.0,,,,,,
KRDR,10-28-2007,19:00,METAR,,190,19,23.0,190/26KTS,9999,,10.0,0.0,30.10,1020.1,,,,,,,,,,,,,,,Clear,72000.0,,,73000.0,,,,,,
KRDR,10-28-2007,18:00,METAR,,190,19,23.0,190/29KTS,9999,,8.0,-1.0,30.15,1021.8,,,,,,,,,,,,,,,Clear,72000.0,,,73000.0,,,,,,
KRDR,10-28-2007,17:00,METAR,,180,20,27.0,190/27KTS,9999,,7.0,-1.0,30.19,1023.0,,,,,,,,,,,,,,,7/8 Mostly Cloudy,20000.0,,BKN,20000.0,,,,,,
KRDR,10-28-2007,16:00,METAR,,180,14,,,9999,,4.0,-1.0,30.23,1024.3,,,,,,,,,,,,,,,7/8 Mostly Cloudy,20000.0,,BKN,20000.0,,,,,,
KRDR,10-28-2007,15:00,METAR,,180,17,,,9999,,1.0,-2.0,30.26,1025.4,,,,,,,,,,,,,,,7/8 Mostly Cloudy,20000.0,,BKN,20000.0,,,,,,
KRDR,10-28-2007,14:00,METAR,,180,11,,,9999,,-1.0,-3.0,30.29,1026.3,,,,,,,,,,,,,,,7/8 Mostly Cloudy,20000.0,,BKN,20000.0,,,,,,
KRDR,10-28-2007,13:00,METAR,,190,7,,,9999,,-2.0,-4.0,30.33,1027.6,,,,,,,,,,,,,,,2/8 Mostly Clear,72000.0,,FEW,20000.0,,,,,,
KRDR,10-28-2007,12:00,METAR,,180,8,,,9999,,-3.0,-5.0,30.35,1028.3,,,,,,,,,,,,,,,Clear,72000.0,,,73000.0,,,,,,
KRDR,10-28-2007,11:00,METAR,,190,7,,,9999,,-4.0,-6.0,30.37,1029.0,,,,,,,,,,,,,,,Clear,72000.0,,,73000.0,,,,,,
KRDR,10-28-2007,10:00,METAR,,200,9,,,9999,,-3.0,-5.0,30.41,1030.3,,,,,,,,,,,,,,,Clear,72000.0,,,73000.0,,,,,,
KRDR,10-28-2007,09:00,METAR,,180,8,,,9999,,-3.0,-6.0,30.42,1030.6,,,,,,,,,,,,,,,Clear,72000.0,,,73000.0,,,,,,
KRDR,10-28-2007,08:00,METAR,,210,6,,,9999,,-3.0,-5.0,30.45,1031.7,,,,,,,,,,,,,,,Clear,72000.0,,,73000.0,,,,,,
KRDR,10-28-2007,07:00,METAR,,200,8,,,9999,,-3.0,-6.0,30.46,1031.7,,,,,,,,,,,,,,,Clear,72000.0,,,73000.0,,,,,,
KRDR,10-28-2007,06:00,METAR,,190,8,,,9999,,-3.0,-6.0,30.47,1032.1,,,,,,,,,,,,,,,Clear,72000.0,,,73000.0,,,,,,
KRDR,10-28-2007,05:00,METAR,,170,6,,,9999,,-4.0,-7.0,30.47,1032.4,,,,,,,,,,,,,,,Clear,72000.0,,,73000.0,,,,,,
KRDR,10-28-2007,04:00,METAR,,210,5,,,9999,,-5.0,-7.0,30.49,1032.8,,,,,,,,,,,,,,,Clear,72000.0,,,73000.0,,,,,,
KRDR,10-28-2007,03:00,METAR,,230,3,,,9999,,-4.0,-7.0,30.49,1032.8,,,,,,,,,,,,,,,Clear,72000.0,,,73000.0,,,,,,
KRDR,10-28-2007,02:00,METAR,,230,3,,,9999,,-3.0,-6.0,30.48,1032.6,,,,,,,,,,,,,,,Clear,72000.0,,,73000.0,,,,,,
KRDR,10-28-2007,01:00,METAR,,,0,,,9999,,-2.0,-6.0,30.48,1032.4,,,,,,,,,,,,,,,Clear,72000.0,,,73000.0,,,,,,
KRDR,10-28-2007,00:00,METAR,,360,5,,,9999,,1.0,-5.0,30.47,1032.4,,,,,,,,,,,,,,,Clear,72000.0,,,73000.0,,,,,,
KRDR,10-27-2007,23:00,METAR,,360,5,,,9999,,4.0,-5.0,30.47,1032.1,,,,,,,,,,,,,,,Clear,72000.0,,,73000.0,,,,,,
KRDR,10-27-2007,22:00,METAR,,350,7,,,9999,,6.0,-5.0,30.46,1032.0,,,,,,,,,,,,,,,Clear,72000.0,,,73000.0,,,,,,
KRDR,10-27-2007,21:00,METAR,,350,8,,,9999,,6.0,-4.0,30.46,1032.0,,,,,,,,,,,,,,,2/8 Mostly Clear,72000.0,,FEW,4100.0,,,,,,
KRDR,10-27-2007,20:00,METAR,,340,7,,,9999,,6.0,-4.0,30.47,1032.2,,,,,,,,,,,,,,,2/8 Mostly Clear,72000.0,,FEW,3600.0,,,,,,
KRDR,10-27-2007,19:00,METAR,,360,9,,,9999,,5.0,-4.0,30.47,1032.4,,,,,,,,,,,,,,,Clear,72000.0,,,73000.0,,,,,,
KRDR,10-27-2007,18:00,METAR,,360,9,15.0,,9999,,5.0,-4.0,30.48,1032.4,,,,,,,,,,,,,,,Clear,72000.0,,,73000.0,,,,,,
KRDR,10-27-2007,17:00,METAR,,350,13,,,9999,,5.0,-4.0,30.48,1032.6,,,,,,,,,,,,,,,Clear,72000.0,,,73000.0,,,,,,
KRDR,10-27-2007,16:00,METAR,,350,12,,,9999,,3.0,-4.0,30.47,1032.3,,,,,,,,,,,,,,,2/8 Mostly Clear,72000.0,,FEW,3000.0,FEW,5900.0,FEW,8900.0,,
KRDR,10-27-2007,15:00,METAR,,330,7,,,9999,,1.0,-3.0,30.45,1031.4,,,,,,,,,,,,,,,4/8 Partly Cloudy,72000.0,,FEW,3000.0,SCT,5400.0,SCT,8900.0,,
KRDR,10-27-2007,14:00,METAR,,310,5,,,9999,,-1.0,-3.0,30.42,1030.7,,,,,,,,,,,,,,,4/8 Partly Cloudy,72000.0,,FEW,5900.0,SCT,7900.0,,,,
KRDR,10-27-2007,13:00,METAR,,290,7,,,9999,,-1.0,-4.0,30.40,1029.8,,,,,,,,,,,,,,,4/8 Partly Cloudy,72000.0,,FEW,5900.0,SCT,11000.0,,,,
KRDR,10-27-2007,12:00,METAR,,320,8,,,9999,,0.0,-3.0,30.39,1029.6,,,,,,,,,,,,,,,2/8 Mostly Clear,72000.0,,FEW,15000.0,,,,,,
KRDR,10-27-2007,11:00,METAR,,290,7,,,9999,,-1.0,-4.0,30.37,1028.9,,,,,,,,,,,,,,,Clear,72000.0,,,73000.0,,,,,,
KRDR,10-27-2007,10:00,METAR,,280,6,,,9999,,0.0,-4.0,30.36,1028.7,,,,,,,,,,,,,,,Clear,72000.0,,,73000.0,,,,,,
KRDR,10-27-2007,09:00,METAR,,330,7,,,9999,,3.0,-4.0,30.37,1028.9,,,,,,,,,,,,,,,7/8 Mostly Cloudy,10000.0,,BKN,9900.0,,,,,,
KRDR,10-27-2007,08:00,METAR,,350,7,,,9999,,2.0,-2.0,30.37,1028.8,,,,,,,,,,,,,,,2/8 Mostly Clear,72000.0,,FEW,9400.0,,,,,,
KRDR,10-27-2007,07:00,METAR,,280,4,,,9999,,0.0,-3.0,30.36,1028.5,,,,,,,,,,,,,,,2/8 Mostly Clear,72000.0,,FEW,9400.0,,,,,,
KRDR,10-27-2007,06:00,METAR,,280,6,,,9999,,-1.0,-5.0,30.35,1028.4,,,,,,,,,,,,,,,Clear,72000.0,,,73000.0,,,,,,
KRDR,10-27-2007,05:00,METAR,,260,5,,,9999,,-1.0,-4.0,30.34,1028.1,,,,,,,,,,,,,,,Clear,72000.0,,,73000.0,,,,,,
KRDR,10-27-2007,04:00,METAR,,270,5,,,9999,,-1.0,-4.0,30.34,1027.8,,,,,,,,,,,,,,,Clear,72000.0,,,73000.0,,,,,,
KRDR,10-27-2007,03:00,METAR,,260,5,,,9999,,1.0,-3.0,30.33,1028.4,,,,,,,,,,,,,,,4/8 Partly Cloudy,72000.0,,FEW,12000.0,SCT,20000.0,,,,
KRDR,10-27-2007,02:00,METAR,,250,4,,,9999,,2.0,-4.0,30.32,1028.4,,,,,,,,,,,,,,,4/8 Partly Cloudy,72000.0,,FEW,12000.0,SCT,20000.0,,,,
KRDR,10-27-2007,01:00,METAR,,260,4,,,9999,,1.0,-3.0,30.32,1028.2,,,,,,,,,,,,,,,4/8 Partly Cloudy,72000.0,,FEW,12000.0,SCT,20000.0,,,,
KRDR,10-27-2007,00:00,METAR,,300,3,,,9999,,6.0,-4.0,30.31,1027.7,,,,,,,,,,,,,,,7/8 Mostly Cloudy,16000.0,,SCT,12000.0,BKN,16000.0,BKN,22000.0,,
KRDR,10-26-2007,23:00,METAR,,350,6,,,9999,,8.0,-5.0,30.30,1026.7,,,,,,,,,,,,,,,7/8 Mostly Cloudy,16000.0,,SCT,12000.0,BKN,16000.0,BKN,22000.0,,
KRDR,10-26-2007,22:00,METAR,,360,7,,,9999,,9.0,-4.0,30.30,1026.6,,,,,,,,,,,,,,,8/8 Overcast,18000.0,,SCT,12000.0,OVC,18000.0,,,,
KRDR,10-26-2007,21:00,METAR,,350,13,21.0,,9999,,9.0,-4.0,30.31,1027.0,,,,,,,,,,,,,,,8/8 Overcast,9500.0,,FEW,7400.0,BKN,9400.0,OVC,12000.0,,
KRDR,10-26-2007,20:00,METAR,,350,13,20.0,,9999,,9.0,-4.0,30.31,1027.1,,,,,,,,,,,,,,,8/8 Overcast,9000.0,,OVC,8900.0,,,,,,
KRDR,10-26-2007,19:00,METAR,,360,16,22.0,,9999,,9.0,-7.0,30.32,1027.1,,,,,,,,,,,,,,,8/8 Overcast,9000.0,,OVC,8900.0,,,,,,
KRDR,10-26-2007,18:00,METAR,,360,15,20.0,,9999,,10.0,-5.0,30.31,1026.9,,,,,,,,,,,,,,,8/8 Overcast,9000.0,,OVC,8900.0,,,,,,
KRDR,10-26-2007,17:00,METAR,,350,9,,,9999,,9.0,-4.0,30.30,1026.7,,,,,,,,,,,,,,,8/8 Overcast,8500.0,,OVC,8400.0,,,,,,
KRDR,10-26-2007,16:00,METAR,,350,12,,,9999,,8.0,-3.0,30.28,1025.9,,,,,,,,,,,,,,,8/8 Overcast,8000.0,,OVC,7900.0,,,,,,
KRDR,10-26-2007,15:00,METAR,,340,9,,,9999,,5.0,-3.0,30.25,1025.1,,,,,,,,,,,,,,,7/8 Mostly Cloudy,12000.0,,SCT,7900.0,BKN,12000.0,BKN,22000.0,,
KRDR,10-26-2007,14:00,METAR,,320,6,,,9999,,1.0,-4.0,30.24,1024.7,,,,,,,,,,,,,,,4/8 Partly Cloudy,72000.0,,FEW,7900.0,SCT,12000.0,SCT,22000.0,,
KRDR,10-26-2007,13:00,METAR,,330,8,,,9999,,1.0,-3.0,30.22,1024.1,,,,,,,,,,,,,,,4/8 Partly Cloudy,72000.0,,FEW,7900.0,SCT,22000.0,,,,
KRDR,10-26-2007,12:00,METAR,,340,9,,,9999,,2.0,-2.0,30.20,1023.5,,,,,,,,,,,,,,,7/8 Mostly Cloudy,25000.0,,FEW,5900.0,SCT,12000.0,BKN,25000.0,,
KRDR,10-26-2007,11:00,METAR,,340,8,,,9999,,3.0,-1.0,30.19,1023.1,,,,,,,,,,,,,,,8/8 Overcast,6000.0,,OVC,5900.0,,,,,,
KRDR,10-26-2007,10:00,METAR,,340,9,,,9999,,4.0,-1.0,30.17,1022.5,,,,,,,,,,,,,,,Clear,72000.0,,,73000.0,,,,,,
KRDR,10-26-2007,09:00,METAR,,340,10,,,9999,,5.0,0.0,30.15,1021.8,,,,,,,,,,,,,,,Clear,72000.0,,,73000.0,,,,,,
KRDR,10-26-2007,08:00,METAR,,340,9,,,9999,,6.0,1.0,30.14,1021.4,,,,,,,,,,,,,,,Clear,72000.0,,,73000.0,,,,,,
KRDR,10-26-2007,07:00,METAR,,350,10,,,9999,,6.0,2.0,30.12,1020.8,,,,,,,,,,,,,,,Clear,72000.0,,,73000.0,,,,,,
KRDR,10-26-2007,06:00,METAR,,350,8,,,9999,,7.0,4.0,30.10,1020.2,,,,,,,,,,,,,,,Clear,72000.0,,,73000.0,,,,,,
KRDR,10-26-2007,05:00,METAR,,350,9,,,9999,,9.0,5.0,30.08,1019.4,,,,,,,,,,,,,,,Clear,72000.0,,,73000.0,,,,,,
KRDR,10-26-2007,04:00,METAR,,350,7,,,9999,,9.0,5.0,30.05,1018.5,,,,,,,,,,,,,,,2/8 Mostly Clear,72000.0,,FEW,25000.0,,,,,,
KRDR,10-26-2007,03:00,METAR,,340,11,,,9999,,8.0,5.0,30.02,1017.5,,,,,,,,,,,,,,,2/8 Mostly Clear,72000.0,,FEW,25000.0,,,,,,
KRDR,10-26-2007,02:00,METAR,,300,10,,,9999,,7.0,4.0,29.99,1016.4,,,,,,,,,,,,,,,4/8 Partly Cloudy,72000.0,,FEW,15000.0,SCT,25000.0,,,,
KRDR,10-26-2007,01:00,METAR,,180,6,,,9999,,10.0,5.0,29.97,1015.7,,,,,,,,,,,,,,,4/8 Partly Cloudy,72000.0,,FEW,15000.0,SCT,25000.0,,,,
KRDR,10-26-2007,00:00,METAR,,170,7,,,9999,,11.0,5.0,29.94,1014.9,,,,,,,,,,,,,,,4/8 Partly Cloudy,72000.0,,FEW,18000.0,SCT,22000.0,,,,
KRDR,10-25-2007,23:00,METAR,,230,9,,,9999,,17.0,6.0,29.94,1014.7,,,,,,,,,,,,,,,2/8 Mostly Clear,72000.0,,FEW,18000.0,FEW,22000.0,,,,
KRDR,10-25-2007,22:00,METAR,,200,13,,,9999,,19.0,5.0,29.91,1013.9,,,,,,,,,,,,,,,2/8 Mostly Clear,72000.0,,FEW,18000.0,FEW,22000.0,,,,
KRDR,10-25-2007,21:00,METAR,,210,14,,,9999,,19.0,5.0,29.91,1013.7,,,,,,,,,,,,,,,2/8 Mostly Clear,72000.0,,FEW,22000.0,,,,,,
KRDR,10-25-2007,20:00,METAR,,230,14,,,9999,,19.0,5.0,29.91,1013.7,,,,,,,,,,,,,,,2/8 Mostly Clear,72000.0,,FEW,22000.0,,,,,,
KRDR,10-25-2007,19:00,METAR,,220,15,20.0,,9999,,18.0,5.0,29.91,1013.6,,,,,,,,,,,,,,,2/8 Mostly Clear,72000.0,,FEW,18000.0,,,,,,
KRDR,10-25-2007,18:00,METAR,,200,17,27.0,200/27KTS,9999,,17.0,4.0,29.91,1013.8,,,,,,,,,,,,,,,Clear,72000.0,,,73000.0,,,,,,
KRDR,10-25-2007,17:00,METAR,,190,22,28.0,210/29KTS,9999,,14.0,4.0,29.91,1013.6,,,,,,,,,,,,,,,Clear,72000.0,,,73000.0,,,,,,
KRDR,10-25-2007,16:00,METAR,,200,19,29.0,190/29KTS,9999,,12.0,3.0,29.90,1013.5,,,,,,,,,,,,,,,Clear,72000.0,,,73000.0,,,,,,
KRDR,10-25-2007,15:00,METAR,,180,17,,,9999,,9.0,2.0,29.90,1013.4,,,,,,,,,,,,,,,Clear,72000.0,,,73000.0,,,,,,
KRDR,10-25-2007,14:00,METAR,,170,17,,,9999,,7.0,2.0,29.89,1013.2,,,,,,,,,,,,,,,Clear,72000.0,,,73000.0,,,,,,
KRDR,10-25-2007,13:00,METAR,,180,12,,,9999,,6.0,1.0,29.89,1013.2,,,,,,,,,,,,,,,Clear,72000.0,,,73000.0,,,,,,
KRDR,10-25-2007,12:00,METAR,,170,17,24.0,,9999,,6.0,1.0,29.89,1013.0,,,,,,,,,,,,,,,Clear,72000.0,,,73000.0,,,,,,
KRDR,10-25-2007,11:00,METAR,,180,15,,,9999,,6.0,1.0,29.90,1013.3,,,,,,,,,,,,,,,2/8 Mostly Clear,72000.0,,FEW,20000.0,,,,,,
KRDR,10-25-2007,10:00,METAR,,180,14,,,9999,,7.0,1.0,29.92,1013.9,,,,,,,,,,,,,,,2/8 Mostly Clear,72000.0,,FEW,20000.0,,,,,,
KRDR,10-25-2007,09:00,METAR,,180,13,,,9999,,7.0,1.0,29.95,1015.0,,,,,,,,,,,,,,,Clear,72000.0,,,73000.0,,,,,,
KRDR,10-25-2007,08:00,METAR,,180,17,24.0,,9999,,7.0,1.0,29.95,1015.1,,,,,,,,,,,,,,,Clear,72000.0,,,73000.0,,,,,,
KRDR,10-25-2007,07:00,METAR,,180,18,,,9999,,8.0,1.0,29.97,1015.8,,,,,,,,,,,,,,,Clear,72000.0,,,73000.0,,,,,,
KRDR,10-25-2007,06:00,METAR,,180,17,,,9999,,8.0,1.0,29.99,1016.3,,,,,,,,,,,,,,,Clear,72000.0,,,73000.0,,,,,,
KRDR,10-25-2007,05:00,METAR,,170,15,,,9999,,8.0,1.0,30.00,1016.8,,,,,,,,,,,,,,,Clear,72000.0,,,73000.0,,,,,,
KRDR,10-25-2007,04:00,METAR,,170,16,,,9999,,9.0,1.0,30.02,1017.5,,,,,,,,,,,,,,,Clear,72000.0,,,73000.0,,,,,,
KRDR,10-25-2007,03:00,METAR,,180,14,,,9999,,10.0,1.0,30.04,1018.2,,,,,,,,,,,,,,,7/8 Mostly Cloudy,25000.0,,BKN,25000.0,,,,,,
KRDR,10-25-2007,02:00,METAR,,170,13,,,9999,,10.0,1.0,30.05,1018.6,,,,,,,,,,,,,,,7/8 Mostly Cloudy,25000.0,,BKN,25000.0,,,,,,
KRDR,10-25-2007,01:00,METAR,,170,13,,,9999,,10.0,1.0,30.07,1019.5,,,,,,,,,,,,,,,7/8 Mostly Cloudy,25000.0,,BKN,25000.0,,,,,,
KRDR,10-25-2007,00:00,METAR,,160,13,,,9999,,11.0,1.0,30.09,1020.2,,,,,,,,,,,,,,,7/8 Mostly Cloudy,25000.0,,BKN,25000.0,,,,,,
KRDR,10-24-2007,23:00,METAR,,170,12,,,9999,,13.0,0.0,30.12,1020.7,,,,,,,,,,,,,,,7/8 Mostly Cloudy,25000.0,,BKN,25000.0,,,,,,
KRDR,10-24-2007,22:00,METAR,,170,14,22.0,,9999,,15.0,0.0,30.14,1021.3,,,,,,,,,,,,,,,7/8 Mostly Cloudy,25000.0,,BKN,25000.0,,,,,,
KRDR,10-24-2007,21:00,METAR,,190,16,21.0,,9999,,15.0,0.0,30.17,1022.2,,,,,,,,,,,,,,,Clear,72000.0,,,73000.0,,,,,,
KRDR,10-24-2007,20:00,METAR,,180,14,21.0,,9999,,15.0,-1.0,30.19,1023.0,,,,,,,,,,,,,,,7/8 Mostly Cloudy,25000.0,,BKN,25000.0,,,,,,
KRDR,10-24-2007,19:00,METAR,,180,15,19.0,,9999,,13.0,0.0,30.23,1024.2,,,,,,,,,,,,,,,7/8 Mostly Cloudy,25000.0,,BKN,25000.0,,,,,,
KRDR,10-24-2007,18:00,METAR,,180,14,,,9999,,12.0,0.0,30.25,1025.1,,,,,,,,,,,,,,,7/8 Mostly Cloudy,25000.0,,BKN,25000.0,,,,,,
KRDR,10-24-2007,17:00,METAR,,170,13,,,9999,,11.0,0.0,30.27,1025.6,,,,,,,,,,,,,,,7/8 Mostly Cloudy,25000.0,,BKN,25000.0,,,,,,
KRDR,10-24-2007,16:00,METAR,,160,8,,,9999,,9.0,1.0,30.29,1026.2,,,,,,,,,,,,,,,4/8 Partly Cloudy,72000.0,,SCT,25000.0,,,,,,
KRDR,10-24-2007,15:00,METAR,,180,4,,,9999,,5.0,0.0,30.30,1026.7,,,,,,,,,,,,,,,4/8 Partly Cloudy,72000.0,,SCT,25000.0,,,,,,
KRDR,10-24-2007,14:00,METAR,,160,4,,,9999,,0.0,-2.0,30.30,1026.6,,,,,,,,,,,,,,,2/8 Mostly Clear,72000.0,,FEW,25000.0,,,,,,
KRDR,10-24-2007,13:00,METAR,,210,4,,,9999,,0.0,-2.0,30.29,1026.4,,,,,,,,,,,,,,,4/8 Partly Cloudy,72000.0,,FEW,9900.0,SCT,25000.0,,,,
KRDR,10-24-2007,12:00,METAR,,230,3,,,9999,,1.0,-1.0,30.29,1026.2,,,,,,,,,,,,,,,4/8 Partly Cloudy,72000.0,,SCT,9900.0,SCT,25000.0,,,,
KRDR,10-24-2007,11:00,METAR,,230,3,,,9999,,-1.0,-3.0,30.28,1025.9,,,,,,,,,,,,,,,4/8 Partly Cloudy,72000.0,,FEW,9900.0,SCT,25000.0,,,,
KRDR,10-24-2007,10:00,METAR,,270,3,,,9999,,-2.0,-3.0,30.27,1025.7,,,,,,,,,,,,,,,Clear,72000.0,,,73000.0,,,,,,
KRDR,10-24-2007,09:00,METAR,,270,3,,,9999,,-1.0,-3.0,30.26,1025.4,,,,,,,,,,,,,,,Clear,72000.0,,,73000.0,,,,,,
KRDR,10-24-2007,08:00,METAR,,300,7,,,9999,,0.0,-3.0,30.27,1025.6,,,,,,,,,,,,,,,Clear,72000.0,,,73000.0,,,,,,
KRDR,10-24-2007,07:00,METAR,,300,6,,,9999,,0.0,-2.0,30.25,1025.1,,,,,,,,,,,,,,,Clear,72000.0,,,73000.0,,,,,,
KRDR,10-24-2007,06:00,METAR,,290,7,,,9999,,1.0,-2.0,30.25,1024.9,,,,,,,,,,,,,,,Clear,72000.0,,,73000.0,,,,,,
KRDR,10-24-2007,05:00,METAR,,320,6,,,9999,,2.0,-1.0,30.23,1024.2,,,,,,,,,,,,,,,Clear,72000.0,,,73000.0,,,,,,
KRDR,10-24-2007,04:00,METAR,,320,7,,,9999,,3.0,0.0,30.21,1023.6,,,,,,,,,,,,,,,Clear,72000.0,,,73000.0,,,,,,
KRDR,10-24-2007,03:00,METAR,,340,8,,,9999,,5.0,0.0,30.19,1023.0,,,,,,,,,,,,,,,Clear,72000.0,,,73000.0,,,,,,
KRDR,10-24-2007,02:00,METAR,,350,8,,,9999,,5.0,1.0,30.17,1022.4,,,,,,,,,,,,,,,Clear,72000.0,,,73000.0,,,,,,
KRDR,10-24-2007,01:00,METAR,,360,7,,,9999,,5.0,1.0,30.14,1021.3,,,,,,,,,,,,,,,Clear,72000.0,,,73000.0,,,,,,
KRDR,10-24-2007,00:00,METAR,,20,9,,,9999,,8.0,1.0,30.11,1020.4,,,,,,,,,,,,,,,2/8 Mostly Clear,72000.0,,FEW,6900.0,FEW,25000.0,,,,
KRDR,10-23-2007,23:00,METAR,,360,10,,,9999,,12.0,0.0,30.07,1019.0,,,,,,,,,,,,,,,2/8 Mostly Clear,72000.0,,FEW,6400.0,,,,,,
KRDR,10-23-2007,22:00,METAR,,350,17,24.0,340/30KTS,9999,,14.0,-1.0,30.03,1017.7,,,,,,,,,,,,,,,2/8 Mostly Clear,72000.0,,FEW,6400.0,,,,,,
KRDR,10-23-2007,21:00,METAR,,340,23,33.0,350/38KTS,9999,,14.0,0.0,29.99,1016.4,,,,,,,,,,,,,,,4/8 Partly Cloudy,72000.0,,SCT,6400.0,,,,,,
KRDR,10-23-2007,20:00,METAR,,350,26,37.0,350/37KTS,9999,,15.0,-1.0,29.94,1014.8,,,,,,,,,,,,,,,4/8 Partly Cloudy,72000.0,,SCT,5900.0,,,,,,
KRDR,10-23-2007,19:00,METAR,,320,24,34.0,330/35KTS,9999,,14.0,0.0,29.91,1013.6,,,,,,,,,,,,,,,2/8 Mostly Clear,72000.0,,FEW,5900.0,,,,,,
KRDR,10-23-2007,18:00,METAR,,330,25,31.0,320/33KTS,9999,,14.0,2.0,29.87,1012.5,,,,,,,,,,,,,,,4/8 Partly Cloudy,72000.0,,SCT,5000.0,,,,,,
KRDR,10-23-2007,17:00,METAR,,330,21,29.0,320/29KTS,9999,,14.0,2.0,29.84,1011.4,,,,,,,,,,,,,,,2/8 Mostly Clear,72000.0,,FEW,4000.0,FEW,11000.0,,,,
KRDR,10-23-2007,16:00,METAR,,310,20,31.0,310/34KTS,9999,,12.0,2.0,29.81,1010.4,,,,,,,,,,,,,,,2/8 Mostly Clear,72000.0,,FEW,11000.0,FEW,25000.0,,,,
KRDR,10-23-2007,15:00,METAR,,280,17,23.0,,9999,,10.0,2.0,29.76,1009.0,,,,,,,,,,,,,,,7/8 Mostly Cloudy,25000.0,,SCT,11000.0,BKN,25000.0,,,,
KRDR,10-23-2007,14:00,METAR,,260,13,20.0,,9999,,9.0,1.0,29.76,1008.9,,,,,,,,,,,,,,,7/8 Mostly Cloudy,9000.0,,BKN,8900.0,,,,,,
KRDR,10-23-2007,13:00,METAR,,250,11,,,9999,,9.0,1.0,29.78,1009.6,,,,,,,,,,,,,,,7/8 Mostly Cloudy,10000.0,,BKN,9900.0,,,,,,
KRDR,10-23-2007,12:00,METAR,,230,9,,,9999,,7.0,1.0,29.80,1010.2,,,,,,,,,,,,,TRACE,,8/8 Overcast,10000.0,,OVC,9900.0,,,,,,
KRDR,10-23-2007,11:00,METAR,,240,8,,,9999,,7.0,1.0,29.83,1011.0,,,,,,,,,,,,,,,7/8 Mostly Cloudy,10000.0,,BKN,9900.0,,,,,,
KRDR,10-23-2007,10:00,METAR,,230,6,,,9999,,5.0,0.0,29.86,1012.0,,,,,,,,,,,,,,,7/8 Mostly Cloudy,11000.0,,BKN,11000.0,,,,,,
KRDR,10-23-2007,09:00,METAR,,240,5,,,9999,,5.0,1.0,29.89,1013.2,,,,,,,,,,,,TRACE,,,4/8 Partly Cloudy,72000.0,,SCT,9900.0,,,,,,
KRDR,10-23-2007,08:00,METAR,,230,7,,,9999,,4.0,0.0,29.91,1013.7,,,,,,,,,,,TRACE,,,,7/8 Mostly Cloudy,11000.0,,BKN,11000.0,,,,,,
KRDR,10-23-2007,07:13,SPECI,,230,6,,,9999,,3.0,0.0,29.92,1014.1,,,,,,,,,,,,,,,7/8 Mostly Cloudy,11000.0,,BKN,11000.0,,,,,,
KRDR,10-23-2007,07:03,SPECI,,230,6,,,9999,Fog or Ice Fog,3.0,0.0,29.92,1014.1,,,,40,,,,,,,,,,,4/8 Partly Cloudy,72000.0,,SCT,12000.0,,,,,,
KRDR,10-23-2007,07:00,METAR,,240,7,,,9999,,3.0,0.0,29.93,1014.3,,,,,,,,,,,,,,,Clear,72000.0,,,73000.0,,,,,,
KRDR,10-23-2007,06:00,METAR,,230,5,,,9999,,3.0,0.0,29.93,1014.3,,,,,,,,,,,,,,,Clear,72000.0,,,73000.0,,,,,,
KRDR,10-23-2007,05:00,METAR,,240,4,,,9999,,2.0,-1.0,29.96,1015.3,,,,,,,,,,,,,,,Clear,72000.0,,,73000.0,,,,,,
KRDR,10-23-2007,04:00,METAR,,270,6,,,9999,,2.0,-1.0,29.96,1015.4,,,,,,,,,,,,,,,Clear,72000.0,,,73000.0,,,,,,
KRDR,10-23-2007,03:00,METAR,,270,4,,,9999,,2.0,-1.0,29.97,1015.6,,,,,,,,,,,,,,,2/8 Mostly Clear,72000.0,,FEW,25000.0,,,,,,
KRDR,10-23-2007,02:00,METAR,,280,5,,,9999,,2.0,-1.0,29.99,1016.3,,,,,,,,,,,,,,,2/8 Mostly Clear,72000.0,,FEW,25000.0,,,,,,
KRDR,10-23-2007,01:00,METAR,,330,3,,,9999,,4.0,0.0,30.01,1017.0,,,,,,,,,,,,,,,4/8 Partly Cloudy,72000.0,,SCT,25000.0,,,,,,
KRDR,10-23-2007,00:00,METAR,,210,3,,,9999,,7.0,0.0,30.00,1016.9,,,,,,,,,,,,,,,4/8 Partly Cloudy,72000.0,,FEW,8900.0,SCT,25000.0,,,,
KRDR,10-22-2007,23:00,METAR,,260,3,,,9999,,12.0,0.0,30.02,1017.4,,,,,,,,,,,,,,,7/8 Mostly Cloudy,25000.0,,SCT,8900.0,BKN,25000.0,,,,
KRDR,10-22-2007,22:00,METAR,,260,8,,,9999,,13.0,-1.0,30.03,1017.7,,,,,,,,,,,,,,,7/8 Mostly Cloudy,9000.0,,BKN,8900.0,BKN,25000.0,,,,
KRDR,10-22-2007,21:00,METAR,,270,9,,,9999,,14.0,-2.0,30.04,1018.1,,,,,,,,,,,,,,,4/8 Partly Cloudy,72000.0,,FEW,5000.0,SCT,9900.0,,,,
KRDR,10-22-2007,20:00,METAR,,270,9,17.0,,9999,,14.0,-1.0,30.06,1018.9,,,,,,,,,,,,,,,2/8 Mostly Clear,72000.0,,FEW,5000.0,FEW,8900.0,,,,
KRDR,10-22-2007,19:00,METAR,,260,12,,,9999,,13.0,-1.0,30.08,1019.5,,,,,,,,,,,,,,,2/8 Mostly Clear,72000.0,,FEW,25000.0,,,,,,
KRDR,10-22-2007,18:00,METAR,,290,10,,,9999,,12.0,0.0,30.11,1020.4,,,,,,,,,,,,,,,2/8 Mostly Clear,72000.0,,FEW,25000.0,,,,,,
KRDR,10-22-2007,17:00,METAR,,280,9,,,9999,,10.0,2.0,30.13,1021.1,,,,,,,,,,,,,,,2/8 Mostly Clear,72000.0,,FEW,25000.0,,,,,,
KRDR,10-22-2007,16:00,METAR,,280,10,,,9999,,7.0,2.0,30.15,1021.6,,,,,,,,,,,,,,,2/8 Mostly Clear,72000.0,,FEW,25000.0,,,,,,
KRDR,10-22-2007,15:00,METAR,,270,8,,,9999,,5.0,1.0,30.15,1021.5,,,,,,,,,,,,,,,2/8 Mostly Clear,72000.0,,FEW,25000.0,,,,,,
KRDR,10-22-2007,14:00,METAR,,260,10,,,9999,,3.0,0.0,30.14,1021.3,,,,,,,,,,,,,,,2/8 Mostly Clear,72000.0,,FEW,25000.0,,,,,,
KRDR,10-22-2007,13:00,METAR,,250,7,,,9999,,1.0,-1.0,30.14,1021.3,,,,,,,,,,,,,,,Clear,72000.0,,,73000.0,,,,,,
KRDR,10-22-2007,12:00,METAR,,270,8,,,9999,,2.0,-1.0,30.13,1021.1,,,,,,,,,,,,,,,Clear,72000.0,,,73000.0,,,,,,
KRDR,10-22-2007,11:00,METAR,,270,7,,,9999,,1.0,-1.0,30.14,1021.2,,,,,,,,,,,,,,,Clear,72000.0,,,73000.0,,,,,,
KRDR,10-22-2007,10:00,METAR,,270,8,,,9999,,2.0,-1.0,30.12,1020.8,,,,,,,,,,,,,,,Clear,72000.0,,,73000.0,,,,,,
KRDR,10-22-2007,09:00,METAR,,280,8,,,9999,,2.0,-1.0,30.11,1020.4,,,,,,,,,,,,,,,Clear,72000.0,,,73000.0,,,,,,
KRDR,10-22-2007,08:00,METAR,,290,7,,,9999,,1.0,-2.0,30.12,1020.8,,,,,,,,,,,,,,,Clear,72000.0,,,73000.0,,,,,,
KRDR,10-22-2007,07:00,METAR,,290,6,,,9999,,0.0,-2.0,30.13,1020.9,,,,,,,,,,,,,,,Clear,72000.0,,,73000.0,,,,,,
KRDR,10-22-2007,06:00,METAR,,290,7,,,9999,,1.0,-2.0,30.13,1021.0,,,,,,,,,,,,,,,Clear,72000.0,,,73000.0,,,,,,
KRDR,10-22-2007,05:00,METAR,,300,7,,,9999,,1.0,-1.0,30.12,1020.7,,,,,,,,,,,,,,,Clear,72000.0,,,73000.0,,,,,,
KRDR,10-22-2007,04:00,METAR,,280,7,,,9999,,2.0,-1.0,30.09,1019.8,,,,,,,,,,,,,,,Clear,72000.0,,,73000.0,,,,,,
KRDR,10-22-2007,03:00,METAR,,270,6,,,9999,,2.0,-1.0,30.08,1019.3,,,,,,,,,,,,,,,Clear,72000.0,,,73000.0,,,,,,
KRDR,10-22-2007,02:00,METAR,,290,7,,,9999,,4.0,-1.0,30.06,1018.7,,,,,,,,,,,,,,,Clear,72000.0,,,73000.0,,,,,,
KRDR,10-22-2007,01:00,METAR,,310,6,,,9999,,3.0,-1.0,30.06,1018.6,,,,,,,,,,,,,,,Clear,72000.0,,,73000.0,,,,,,
KRDR,10-22-2007,00:00,METAR,,320,7,,,9999,,8.0,-1.0,30.04,1018.1,,,,,,,,,,,,,,,Clear,72000.0,,,73000.0,,,,,,
KRDR,10-21-2007,23:00,METAR,,310,7,,,9999,,10.0,0.0,30.01,1017.1,,,,,,,,,,,,,,,Clear,72000.0,,,73000.0,,,,,,
KRDR,10-21-2007,22:00,METAR,,320,15,,,9999,,12.0,0.0,29.98,1016.0,,,,,,,,,,,,,,,Clear,72000.0,,,73000.0,,,,,,
KRDR,10-21-2007,21:00,METAR,,330,14,,,9999,,13.0,3.0,29.95,1015.1,,,,,,,,,,,,,,,2/8 Mostly Clear,72000.0,,FEW,2900.0,,,,,,
KRDR,10-21-2007,20:00,METAR,,340,9,,,9999,,13.0,5.0,29.93,1014.4,,,,,,,,,,,,,,,Clear,72000.0,,,73000.0,,,,,,
KRDR,10-21-2007,19:00,METAR,,340,9,,,9999,,12.0,7.0,29.93,1014.5,,,,,,,,,,,,,,,2/8 Mostly Clear,72000.0,,FEW,1900.0,,,,,,
KRDR,10-21-2007,18:00,METAR,,350,7,,,9999,,10.0,6.0,29.92,1014.1,,,,,,,,,,,,,,,4/8 Partly Cloudy,72000.0,,SCT,4000.0,,,,,,
KRDR,10-21-2007,17:00,METAR,,330,6,,,9999,,7.0,6.0,29.88,1012.8,,,,,,,,,,,,,,,2/8 Mostly Clear,72000.0,,FEW,4300.0,,,,,,
KRDR,10-21-2007,16:00,METAR,,330,4,,,9999,,6.0,5.0,29.87,1012.4,,,,,,,,,,,,,,,2/8 Mostly Clear,72000.0,,FEW,5400.0,,,,,,
KRDR,10-21-2007,15:27,SPECI,,330,5,,,9999,,6.0,4.0,29.86,1012.2,,,,,,,,,,,,,,,4/8 Partly Cloudy,72000.0,,FEW,100.0,SCT,5000.0,,,,
KRDR,10-21-2007,15:00,METAR,,310,4,,,9999,,5.0,4.0,29.83,1011.3,,,,,,,,,,,,,,,Clear,72000.0,,,73000.0,,,,,,
KRDR,10-21-2007,14:00,METAR,,350,5,,,9999,,4.0,4.0,29.81,1010.4,,,,,,,,,,,,,,,4/8 Partly Cloudy,72000.0,,SCT,100.0,,,,,,
KRDR,10-21-2007,13:54,SPECI,,360,4,,,9999,,4.0,4.0,29.81,1010.4,,,,,,,,,,,,,,,7/8 Mostly Cloudy,100.0,,BKN,100.0,,,,,,
KRDR,10-21-2007,13:31,SPECI,,320,5,,,9999,,4.0,3.0,29.80,1010.1,,,,,,,,,,,,,,,4/8 Partly Cloudy,72000.0,,FEW,100.0,SCT,4800.0,,,,
KRDR,10-21-2007,13:00,METAR,,310,5,,,9999,,3.0,2.0,29.77,1009.1,,,,,,,,,,,,,,,Clear,72000.0,,,73000.0,,,,,,
KRDR,10-21-2007,12:00,METAR,,340,4,,,9999,,2.0,2.0,29.74,1008.1,,,,,,,,,,,,,,,Clear,72000.0,,,73000.0,,,,,,
KRDR,10-21-2007,11:00,METAR,,,0,,,9999,,3.0,2.0,29.74,1008.1,,,,,,,,,,,,,,,Clear,72000.0,,,73000.0,,,,,,
KRDR,10-21-2007,10:00,METAR,,320,4,,,9999,,3.0,2.0,29.70,1006.9,,,,,,,,,,,,,,,Clear,72000.0,,,73000.0,,,,,,
KRDR,10-21-2007,09:00,METAR,,290,7,,,9999,,3.0,2.0,29.70,1006.8,,,,,,,,,,,,,,,Clear,72000.0,,,73000.0,,,,,,
KRDR,10-21-2007,08:00,METAR,,,0,,,9999,,3.0,2.0,29.65,1005.3,,,,,,,,,,,,,,,Clear,72000.0,,,73000.0,,,,,,
KRDR,10-21-2007,07:00,METAR,,300,4,,,9999,,4.0,3.0,29.65,1005.2,,,,,,,,,,,,,,,Clear,72000.0,,,73000.0,,,,,,
KRDR,10-21-2007,06:00,METAR,,,0,,,9999,,4.0,3.0,29.62,1004.3,,,,,,,,,,,,,,,Clear,72000.0,,,73000.0,,,,,,
KRDR,10-21-2007,05:00,METAR,,,0,,,9999,,5.0,3.0,29.61,1004.0,,,,,,,,,,,,,,,Clear,72000.0,,,73000.0,,,,,,
KRDR,10-21-2007,04:00,METAR,,320,5,,,9999,,4.0,3.0,29.61,1004.0,,,,,,,,,,,,,,,Clear,72000.0,,,73000.0,,,,,,
KRDR,10-21-2007,03:00,METAR,,350,6,,,9999,,6.0,4.0,29.58,1002.9,,,,,,,,,,,,,,,4/8 Partly Cloudy,72000.0,,SCT,15000.0,SCT,20000.0,,,,
KRDR,10-21-2007,02:00,METAR,,250,5,,,9999,,6.0,3.0,29.56,1002.1,,,,,,,,,,,,,,,7/8 Mostly Cloudy,20000.0,,SCT,15000.0,BKN,20000.0,,,,
KRDR,10-21-2007,01:00,METAR,,290,5,,,9999,,10.0,4.0,29.54,1001.7,,,,,,,,,,,,,,,7/8 Mostly Cloudy,20000.0,,SCT,12000.0,BKN,20000.0,,,,
KRDR,10-21-2007,00:00,METAR,,300,7,,,9999,,12.0,3.0,29.52,1000.8,,,,,,,,,,,,,,,Clear,72000.0,,,73000.0,,,,,,
KRDR,10-20-2007,23:00,METAR,,290,9,,,9999,,13.0,3.0,29.50,1000.1,,,,,,,,,,,,,,,Clear,72000.0,,,73000.0,,,,,,
KRDR,10-20-2007,22:00,METAR,,270,9,16.0,,9999,,14.0,3.0,29.46,998.9,,,,,,,,,,,,,,,Clear,72000.0,,,73000.0,,,,,,
KRDR,10-20-2007,21:00,METAR,,280,9,,,9999,,15.0,3.0,29.45,998.5,,,,,,,,,,,,,,,Clear,72000.0,,,73000.0,,,,,,
KRDR,10-20-2007,20:00,METAR,,280,12,,,9999,,15.0,3.0,29.42,997.4,,,,,,,,,,,,,,,Clear,72000.0,,,73000.0,,,,,,
KRDR,10-20-2007,19:00,METAR,,290,15,21.0,,9999,,16.0,2.0,29.42,997.4,,,,,,,,,,,,,,,Clear,72000.0,,,73000.0,,,,,,
KRDR,10-20-2007,18:00,METAR,,280,16,20.0,,9999,,16.0,5.0,29.42,997.5,,,,,,,,,,,,,,,Clear,72000.0,,,73000.0,,,,,,
KRDR,10-20-2007,17:00,METAR,,280,14,21.0,,9999,,15.0,5.0,29.40,996.3,,,,,,,,,,,,,,,7/8 Mostly Cloudy,25000.0,,SCT,16000.0,BKN,25000.0,,,,
KRDR,10-20-2007,16:00,METAR,,270,8,,,9999,,12.0,5.0,29.36,995.0,,,,,,,,,,,,,,,7/8 Mostly Cloudy,25000.0,,SCT,16000.0,BKN,25000.0,,,,
KRDR,10-20-2007,15:00,METAR,,280,10,,,9999,,11.0,5.0,29.38,996.2,,,,,,,,,,,,,,,Clear,72000.0,,,73000.0,,,,,,
KRDR,10-20-2007,14:00,METAR,,200,3,,,9999,,8.0,4.0,29.37,995.6,,,,,,,,,,,,,,,7/8 Mostly Cloudy,15000.0,,SCT,7900.0,BKN,15000.0,BKN,25000.0,,
KRDR,10-20-2007,13:00,METAR,,180,4,,,9999,,6.0,4.0,29.38,996.1,,,,,,,,,,,,,,,8/8 Overcast,15000.0,,SCT,7900.0,OVC,15000.0,,,,
KRDR,10-20-2007,12:00,METAR,,170,6,,,9999,,6.0,4.0,29.36,995.7,,,,,,,,,,,,,,,Clear,72000.0,,,73000.0,,,,,,
KRDR,10-20-2007,11:00,METAR,,210,5,,,9999,,6.0,3.0,29.39,996.5,,,,,,,,,,,,,,,2/8 Mostly Clear,72000.0,,FEW,7900.0,,,,,,
KRDR,10-20-2007,10:00,METAR,,170,4,,,9999,,6.0,4.0,29.38,996.4,,,,,,,,,,,,,,,7/8 Mostly Cloudy,8000.0,,BKN,7900.0,,,,,,
KRDR,10-20-2007,09:00,METAR,,180,4,,,9999,,6.0,3.0,29.41,997.1,,,,,,,,,,,,,,,8/8 Overcast,8500.0,,OVC,8400.0,,,,,,
KRDR,10-20-2007,08:00,METAR,,210,6,,,9999,,6.0,2.0,29.42,997.5,,,,,,,,,,,,,,,8/8 Overcast,8500.0,,OVC,8400.0,,,,,,
KRDR,10-20-2007,07:00,METAR,,210,4,,,9999,,5.0,2.0,29.42,997.7,,,,,,,,,,,,,,,7/8 Mostly Cloudy,10000.0,,BKN,9900.0,,,,,,
KRDR,10-20-2007,06:00,METAR,,220,3,,,9999,,4.0,1.0,29.43,997.9,,,,,,,,,,,,,,,Clear,72000.0,,,73000.0,,,,,,
KRDR,10-20-2007,05:00,METAR,,250,5,,,9999,,4.0,1.0,29.44,998.3,,,,,,,,,,,,,,,Clear,72000.0,,,73000.0,,,,,,
KRDR,10-20-2007,04:00,METAR,,230,4,,,9999,,4.0,1.0,29.43,998.1,,,,,,,,,,,,,,,2/8 Mostly Clear,72000.0,,FEW,9900.0,,,,,,
KRDR,10-20-2007,03:00,METAR,,280,5,,,9999,,5.0,1.0,29.43,998.0,,,,,,,,,,,,,,,2/8 Mostly Clear,72000.0,,FEW,9900.0,,,,,,
KRDR,10-20-2007,02:00,METAR,,270,6,,,9999,,4.0,2.0,29.42,997.7,,,,,,,,,,,,,,,2/8 Mostly Clear,72000.0,,FEW,9900.0,FEW,15000.0,,,,
KRDR,10-20-2007,01:00,METAR,,270,7,,,9999,,6.0,3.0,29.42,997.5,,,,,,,,,,,,,,,2/8 Mostly Clear,72000.0,,FEW,9900.0,FEW,15000.0,,,,
KRDR,10-20-2007,00:00,METAR,,300,6,,,9999,,9.0,3.0,29.40,996.9,,,,,,,,,,,,,,,2/8 Mostly Clear,72000.0,,FEW,5900.0,FEW,15000.0,,,,
KRDR,10-19-2007,23:00,METAR,,320,11,,,9999,,13.0,6.0,29.37,995.3,,,,,,,,,,,,,,,2/8 Mostly Clear,72000.0,,FEW,4000.0,,,,,,
KRDR,10-19-2007,22:00,METAR,,320,9,,,9999,,14.0,7.0,29.37,995.3,,,,,,,,,,,,,,,4/8 Partly Cloudy,72000.0,,SCT,4000.0,,,,,,
KRDR,10-19-2007,21:00,METAR,,330,10,,,9999,,13.0,7.0,29.36,994.9,,,,,,,,,,,,,,,7/8 Mostly Cloudy,3400.0,,SCT,2500.0,BKN,3500.0,,,,
KRDR,10-19-2007,20:24,SPECI,,320,11,16.0,,9999,,13.0,8.0,29.36,,,,,,,,,,,,,,,,7/8 Mostly Cloudy,3000.0,,SCT,2500.0,BKN,3000.0,BKN,5900.0,,
KRDR,10-19-2007,20:00,METAR,,320,14,,,9999,,13.0,8.0,29.35,994.6,,,,,,,,,,,,,,,7/8 Mostly Cloudy,2700.0,,FEW,1600.0,BKN,2700.0,BKN,5900.0,,
KRDR,10-19-2007,19:00,METAR,,300,13,20.0,,9999,,11.0,7.0,29.35,994.5,,,,,,,,,,,,,,,8/8 Overcast,1600.0,,BKN,1600.0,OVC,2500.0,,,,
KRDR,10-19-2007,18:00,METAR,,300,13,24.0,,9999,,11.0,7.0,29.34,994.3,,,,,,,,,,,,,,,8/8 Overcast,2000.0,,SCT,1800.0,BKN,2000.0,OVC,4000.0,,
KRDR,10-19-2007,17:18,SPECI,,310,14,19.0,,9999,,11.0,8.0,29.34,,,,,,,,,,,,,,,,8/8 Overcast,2000.0,,SCT,1500.0,BKN,2000.0,OVC,4000.0,,
KRDR,10-19-2007,17:00,METAR,,300,15,22.0,,9999,,11.0,8.0,29.33,993.9,,,,,,,,,,,,,,,8/8 Overcast,3000.0,,SCT,1500.0,OVC,3000.0,,,,
KRDR,10-19-2007,16:00,METAR,,300,14,20.0,,9999,,11.0,8.0,29.32,993.6,,,,,,,,,,,,,,,8/8 Overcast,3400.0,,SCT,1900.0,OVC,3500.0,,,,
KRDR,10-19-2007,15:00,METAR,,300,14,20.0,,9999,,10.0,8.0,29.32,993.4,,,,,,,,,,,,,,,8/8 Overcast,3900.0,,FEW,3000.0,OVC,4000.0,,,,
KRDR,10-19-2007,14:00,METAR,,320,16,22.0,,9999,,10.0,7.0,29.32,993.4,,,,,,,,,,,,,,,8/8 Overcast,72000.0,,SCT,3200.0,OVC,3800.0,,,,
KRDR,10-19-2007,13:35,SPECI,,320,15,23.0,,9999,,10.0,7.0,29.30,,,,,,,,,,,,,,,,7/8 Mostly Cloudy,3200.0,,SCT,2900.0,BKN,3300.0,,,,
KRDR,10-19-2007,13:00,METAR,,320,17,27.0,310/27KTS,9999,,10.0,7.0,29.30,992.7,,,,,,,,,,,,,,,7/8 Mostly Cloudy,2800.0,,BKN,2800.0,BKN,3400.0,,,,
KRDR,10-19-2007,12:22,SPECI,,320,16,22.0,,9999,,9.0,7.0,29.30,993.7,,,,,,,,,,,,,,,8/8 Overcast,2900.0,,OVC,2900.0,,,,,,
KRDR,10-19-2007,12:00,METAR,,320,17,21.0,,9999,,9.0,7.0,29.30,993.7,,,,,,,,,,,,,.03 IN,.86 IN,7/8 Mostly Cloudy,2600.0,,BKN,2600.0,BKN,3400.0,,,,
KRDR,10-19-2007,11:00,METAR,,320,17,27.0,340/27KTS,9999,,9.0,7.0,29.30,993.6,,,,,,,,,,,,,,,8/8 Overcast,1400.0,,OVC,1900.0,,,,,,
KRDR,10-19-2007,10:29,SPECI,,320,15,27.0,340/27KTS,9999,,9.0,7.0,29.29,993.4,,,,,,,,,,,,,,,8/8 Overcast,1600.0,,OVC,1600.0,,,,,,
KRDR,10-19-2007,10:00,METAR,,320,14,19.0,330/26KTS,9999,,9.0,7.0,29.28,993.1,,,,,,,,,,,TRACE,,,,8/8 Overcast,1200.0,,OVC,1200.0,,,,,,
KRDR,10-19-2007,09:27,SPECI,,330,17,,330/26KTS,9999,Light Drizzle,9.0,7.0,29.28,993.0,51,,,,,,,,,,,,,,7/8 Mostly Cloudy,1300.0,,BKN,1300.0,,,,,,
KRDR,10-19-2007,09:22,SPECI,,330,16,26.0,330/26KTS,9999,,9.0,7.0,29.28,993.0,,,,,,,,,,,,,,,4/8 Partly Cloudy,72000.0,,SCT,1300.0,,,,,,
KRDR,10-19-2007,09:20,METAR,,330,15,26.0,330/26KTS,9999,,9.0,7.0,29.28,993.0,,,,,,,,,,,,,,,4/8 Partly Cloudy,72000.0,,SCT,1300.0,,,,,,
KRDR,10-19-2007,09:00,METAR,,330,17,24.0,,9999,,9.0,8.0,29.28,992.9,,,,,,,,,,,.01 IN,.03 IN,,,Clear,72000.0,,,73000.0,,,,,,
KRDR,10-19-2007,08:00,METAR,,330,16,22.0,330/26KTS,9999,,9.0,8.0,29.27,992.8,,,,,,,,,,,.02 IN,,,,Clear,72000.0,,,73000.0,,,,,,
KRDR,10-19-2007,07:00,METAR,,330,18,27.0,330/27KTS,9999,,9.0,8.0,29.27,992.5,,,,,,,,,,,TRACE,,,,Clear,72000.0,,,73000.0,,,,,,
KRDR,10-19-2007,06:00,METAR,,330,17,29.0,340/29KTS,9999,Rain,9.0,8.0,29.26,992.4,,,,61,,,,,,,.02 IN,,.1 IN,,7/8 Mostly Cloudy,1200.0,,BKN,1200.0,,,,,,
KRDR,10-19-2007,05:00,METAR,,340,20,31.0,340/35KTS,9999,Rain,9.0,8.0,29.26,992.3,,,,61,,,,,,,.02 IN,,,,8/8 Overcast,1200.0,,FEW,1000.0,OVC,1200.0,,,,
KRDR,10-19-2007,04:00,METAR,,340,21,29.0,340/31KTS,9999,Rain,9.0,8.0,29.26,992.5,,,,61,,,,,,,.01 IN,,,,8/8 Overcast,1300.0,,SCT,700.0,OVC,1300.0,,,,
KRDR,10-19-2007,03:00,METAR,,340,19,29.0,330/29KTS,9999,Rain,10.0,9.0,29.26,992.4,,,,61,,,,,,,.02 IN,.05 IN,,,8/8 Overcast,600.0,,BKN,600.0,OVC,1000.0,,,,
KRDR,10-19-2007,02:11,SPECI,,340,22,29.0,330/29KTS,9999,Rain,10.0,9.0,29.26,992.3,,,,61,,,,,,,,,,,8/8 Overcast,600.0,,BKN,600.0,OVC,1200.0,,,,
KRDR,10-19-2007,02:00,METAR,,340,21,27.0,340/30KTS,9999,Rain,10.0,9.0,29.26,992.3,,,,61,,,,,,,.01 IN,,,,8/8 Overcast,500.0,,BKN,500.0,OVC,1200.0,,,,
KRDR,10-19-2007,01:03,SPECI,,340,20,30.0,340/30KTS,9999,Rain,10.0,9.0,29.26,992.3,,,,61,,,,,,,,,,,8/8 Overcast,600.0,,BKN,600.0,OVC,900.0,,,,
KRDR,10-19-2007,01:00,METAR,,340,20,26.0,340/28KTS,9999,Rain,10.0,9.0,29.26,992.3,,,,61,,,,,,,.02 IN,,,,8/8 Overcast,500.0,,BKN,500.0,OVC,900.0,,,,
KRDR,10-19-2007,00:07,SPECI,,340,21,28.0,340/28KTS,9999,Rain,10.0,9.0,29.26,992.3,,,,61,,,,,,,,,,,8/8 Overcast,500.0,,BKN,500.0,OVC,1000.0,,,,
KRDR,10-19-2007,00:00,METAR,,340,21,29.0,340/29KTS,9999,Rain,10.0,9.0,29.26,992.4,,,,61,,,,,,,.01 IN,,.22 IN,,8/8 Overcast,500.0,,BKN,500.0,OVC,1000.0,,,,
KRDR,10-18-2007,23:50,METAR,,340,19,29.0,340/29KTS,9999,Rain,10.0,9.0,29.26,992.4,,,,61,,,,,,,,,,,8/8 Overcast,500.0,,BKN,500.0,OVC,1000.0,,,,
KRDR,10-18-2007,23:37,SPECI,,340,18,27.0,340/28KTS,9999,Rain,10.0,9.0,29.26,992.4,,,,61,,,,,,,,,,,8/8 Overcast,600.0,,BKN,600.0,OVC,1000.0,,,,
KRDR,10-18-2007,23:00,METAR,,340,19,26.0,340/31KTS,9999,Rain,10.0,10.0,29.26,992.3,,,,61,,,,,,,.02 IN,,,,8/8 Overcast,500.0,,BKN,500.0,OVC,1200.0,,,,
KRDR,10-18-2007,22:00,METAR,,350,20,26.0,350/31KTS,9999,Rain/Mist,11.0,10.0,29.26,992.2,,,,63,10,,,,,,.06 IN,,,,8/8 Overcast,500.0,,BKN,500.0,OVC,1100.0,,,,
KRDR,10-18-2007,21:00,METAR,,350,18,28.0,010/28KTS,9999,Rain,11.0,10.0,29.25,992.0,,,,61,,,,,,,.03 IN,.13 IN,,,8/8 Overcast,500.0,,OVC,500.0,,,,,,
KRDR,10-18-2007,20:33,SPECI,,350,20,28.0,010/28KTS,9999,Rain,11.0,10.0,29.25,,,,,61,,,,,,,,,,,7/8 Mostly Cloudy,500.0,,BKN,500.0,,,,,,
KRDR,10-18-2007,20:00,METAR,,360,20,26.0,000/27KTS,9999,Rain,11.0,11.0,29.25,992.0,,,,61,,,,,,,.05 IN,,,,8/8 Overcast,700.0,,BKN,700.0,OVC,1300.0,,,,
KRDR,10-18-2007,19:15,SPECI,,360,17,26.0,000/27KTS,9999,Rain,11.0,11.0,29.25,992.0,,,,63,,,,,,,,,,,4/8 Partly Cloudy,72000.0,,SCT,400.0,,,,,,
KRDR,10-18-2007,19:13,SPECI,,360,20,26.0,000/27KTS,9999,Rain,11.0,11.0,29.25,992.1,,,,63,,,,,,,,,,,7/8 Mostly Cloudy,300.0,,BKN,400.0,,,,,,
KRDR,10-18-2007,19:00,METAR,,360,19,28.0,000/28KTS,9999,Rain,11.0,11.0,29.25,992.1,,,,61,,,,,,,.05 IN,,,,8/8 Overcast,600.0,,BKN,600.0,OVC,1700.0,,,,
KRDR,10-18-2007,18:00,METAR,,360,18,25.0,360/26KTS,8000,Rain/Mist,11.0,11.0,29.27,992.7,,,,61,10,,,,,,.07 IN,,.51 IN,,8/8 Overcast,600.0,,BKN,600.0,OVC,1200.0,,,,
KRDR,10-18-2007,17:00,METAR,,10,15,23.0,010/25KTS,6400,Rain/Mist,11.0,11.0,29.29,993.3,,,,61,10,,,,,,.1 IN,,,,8/8 Overcast,700.0,,BKN,700.0,OVC,1200.0,,,,
KRDR,10-18-2007,16:00,METAR,,10,18,21.0,,6400,Rain/Mist,11.0,11.0,29.31,993.9,,,,61,10,,,,,,.09 IN,,,,8/8 Overcast,600.0,,OVC,600.0,,,,,,
KRDR,10-18-2007,15:00,METAR,,20,15,,,8000,Rain/Mist,11.0,11.0,29.33,994.5,,,,61,10,,,,,,.1 IN,.25 IN,,,8/8 Overcast,600.0,,BKN,600.0,OVC,1500.0,,,,
KRDR,10-18-2007,14:00,METAR,,20,14,,,6400,Rain/Mist,10.0,10.0,29.35,995.2,,,,61,10,,,,,,.1 IN,,,,8/8 Overcast,600.0,,OVC,600.0,,,,,,
KRDR,10-18-2007,13:00,METAR,,20,13,,,9999,Rain/Mist,10.0,10.0,29.36,995.8,,,,61,10,,,,,,.05 IN,,,,8/8 Overcast,600.0,,OVC,600.0,,,,,,
KRDR,10-18-2007,12:00,METAR,,30,11,,,9999,Rain/Mist,11.0,11.0,29.39,996.5,,,,61,10,,,,,,.04 IN,,.16 IN,.19 IN,8/8 Overcast,500.0,,BKN,500.0,OVC,1400.0,,,,
KRDR,10-18-2007,11:00,METAR,,30,10,,,9999,Rain/Mist,11.0,10.0,29.40,997.1,,,,61,10,,,,,,.05 IN,,,,8/8 Overcast,400.0,,OVC,400.0,,,,,,
KRDR,10-18-2007,10:00,METAR,,40,10,,,8000,Rain/Mist,11.0,10.0,29.42,997.6,,,,61,10,,,,,,.03 IN,,,,8/8 Overcast,400.0,,OVC,400.0,,,,,,
KRDR,10-18-2007,09:08,SPECI,,40,10,,,9999,Rain/Mist,11.0,11.0,29.43,,,,,61,10,,,,,,,,,,8/8 Overcast,400.0,,OVC,400.0,,,,,,
KRDR,10-18-2007,09:00,METAR,,50,9,,,4800,Rain/Mist,11.0,11.0,29.44,998.1,,,,63,10,,,,,,.02 IN,.04 IN,,,8/8 Overcast,500.0,,OVC,500.0,,,,,,
KRDR,10-18-2007,08:41,SPECI,,50,8,,,8000,Rain,11.0,11.0,29.44,,,,,61,,,,,,,,,,,8/8 Overcast,500.0,,BKN,500.0,OVC,2000.0,,,,
KRDR,10-18-2007,08:37,SPECI,,40,9,,,8000,Rain/Mist,11.0,11.0,29.44,,,,,61,10,,,,,,,,,,8/8 Overcast,500.0,,BKN,500.0,OVC,2000.0,,,,
KRDR,10-18-2007,08:00,METAR,,50,10,,,8000,Drizzle/Mist,11.0,11.0,29.45,998.7,,,,51,10,,,,,,TRACE,,,,8/8 Overcast,400.0,,OVC,400.0,,,,,,
KRDR,10-18-2007,07:00,METAR,,40,7,,,8000,Rain/Mist,11.0,10.0,29.47,999.4,,,,61,10,,,,,,.02 IN,,,,8/8 Overcast,500.0,,OVC,500.0,,,,,,
KRDR,10-18-2007,06:44,SPECI,,40,7,,,8000,Rain/Mist,11.0,10.0,29.48,,,,,61,10,,,,,,,,,,8/8 Overcast,500.0,,OVC,500.0,,,,,,
KRDR,10-18-2007,06:00,METAR,,50,7,,,4000,Rain/Mist,11.0,10.0,29.50,1000.2,,,,61,10,,,,,,.03 IN,,.03 IN,,8/8 Overcast,400.0,,OVC,400.0,,,,,,
KRDR,10-18-2007,05:30,METAR,,50,7,,,4000,Rain/Mist,11.0,10.0,29.51,,,,,61,10,,,,,,,,,,8/8 Overcast,400.0,,OVC,400.0,,,,,,
KRDR,10-18-2007,05:15,SPECI,,50,7,,,4800,Rain/Mist,11.0,10.0,29.52,,,,,61,10,,,,,,,,,,8/8 Overcast,400.0,,OVC,400.0,,,,,,
KRDR,10-18-2007,05:00,METAR,,60,6,,,6400,Drizzle/Mist,11.0,10.0,29.52,1000.8,,,,51,10,,,,,,TRACE,,,,8/8 Overcast,500.0,,OVC,500.0,,,,,,
KRDR,10-18-2007,04:38,SPECI,,70,8,,,6400,Drizzle/Mist,11.0,10.0,29.52,,,,,51,10,,,,,,,,,,8/8 Overcast,600.0,,OVC,600.0,,,,,,
KRDR,10-18-2007,04:00,METAR,,80,8,,,9999,,11.0,10.0,29.54,1001.4,,,,,,,,,,,,,,,8/8 Overcast,700.0,,OVC,700.0,,,,,,
KRDR,10-18-2007,03:41,SPECI,,80,7,,,9999,,11.0,10.0,29.54,,,,,,,,,,,,,,,,8/8 Overcast,800.0,,OVC,800.0,,,,,,
KRDR,10-18-2007,03:28,SPECI,,80,9,,,9999,,11.0,10.0,29.54,,,,,,,,,,,,,,,,8/8 Overcast,1000.0,,OVC,1000.0,,,,,,
KRDR,10-18-2007,03:00,METAR,,80,7,,,9999,,12.0,9.0,29.55,1001.8,,,,,,,,,,,,,,,8/8 Overcast,1200.0,,OVC,1200.0,,,,,,
KRDR,10-18-2007,02:00,METAR,,100,7,,,9999,,12.0,10.0,29.56,1002.3,,,,,,,,,,,,,,,8/8 Overcast,1300.0,,OVC,1300.0,,,,,,
KRDR,10-18-2007,01:44,SPECI,,90,8,,,9999,,12.0,10.0,29.56,,,,,,,,,,,,,,,,8/8 Overcast,1300.0,,OVC,1300.0,,,,,,
KRDR,10-18-2007,01:00,METAR,,80,6,,,9999,,12.0,10.0,29.57,1002.5,,,,,,,,,,,,,,,8/8 Overcast,1900.0,,OVC,1900.0,,,,,,
KRDR,10-18-2007,00:00,METAR,,80,4,,,9999,,12.0,10.0,29.57,1002.6,,,,,,,,,,,,,,,8/8 Overcast,2000.0,,OVC,2000.0,,,,,,
KRDR,10-17-2007,23:00,METAR,,120,5,,,9999,,13.0,10.0,29.58,1002.9,,,,,,,,,,,,,,,8/8 Overcast,1900.0,,BKN,1900.0,OVC,2800.0,,,,
KRDR,10-17-2007,22:00,METAR,,110,8,,,9999,,13.0,10.0,29.57,1002.6,,,,,,,,,,,,,,,8/8 Overcast,1600.0,,BKN,1600.0,OVC,2600.0,,,,
KRDR,10-17-2007,21:00,METAR,,110,6,,,9999,,13.0,10.0,29.58,1003.0,,,,,,,,,,,,,,,8/8 Overcast,2100.0,,OVC,2100.0,,,,,,
KRDR,10-17-2007,20:37,SPECI,,130,7,,,9999,,12.0,10.0,29.59,,,,,,,,,,,,,,,,7/8 Mostly Cloudy,1600.0,,BKN,1600.0,,,,,,
KRDR,10-17-2007,20:00,METAR,,130,10,,,9999,,13.0,10.0,29.60,1003.4,,,,,,,,,,,,,,,8/8 Overcast,2100.0,,OVC,2100.0,,,,,,
KRDR,10-17-2007,19:00,METAR,,130,11,,,9999,,13.0,10.0,29.62,1004.1,,,,,,,,,,,,,,,8/8 Overcast,1300.0,,OVC,1300.0,,,,,,
KRDR,10-17-2007,18:00,METAR,,130,9,,,9999,,12.0,10.0,29.64,1004.9,,,,,,,,,,,,,,,8/8 Overcast,1200.0,,BKN,1200.0,OVC,3200.0,,,,
KRDR,10-17-2007,17:00,METAR,,130,10,,,9999,,11.0,11.0,29.66,1005.6,,,,,,,,,,,,,,,8/8 Overcast,800.0,,OVC,800.0,,,,,,
KRDR,10-17-2007,16:46,SPECI,,130,9,,,9999,Mist,11.0,11.0,29.66,,,,,10,,,,,,,,,,,8/8 Overcast,800.0,,OVC,800.0,,,,,,
KRDR,10-17-2007,15:44,SPECI,,130,9,,,1200,Mist,10.0,10.0,29.67,,,,,10,,,,,,,,,,,8/8 Overcast,500.0,,OVC,500.0,,,,,,
KRDR,10-17-2007,15:00,METAR,,140,10,,,800,Fog or Ice Fog,10.0,9.0,29.67,1005.8,,,,44,,,,,,,,,,,8/8 Overcast,500.0,,OVC,500.0,,,,,,
KRDR,10-17-2007,14:00,METAR,,130,7,,,800,Fog or Ice Fog,9.0,9.0,29.69,1006.4,,,,44,,,,,,,,,,,8/8 Overcast,500.0,,OVC,500.0,,,,,,
KRDR,10-17-2007,13:27,SPECI,,120,7,,,800,Fog or Ice Fog,9.0,9.0,29.69,,,,,44,,,,,,,,,,,8/8 Overcast,500.0,,OVC,500.0,,,,,,
KRDR,10-17-2007,13:00,METAR,,120,6,,,9999,Mist,9.0,9.0,29.69,1006.5,,,,10,,,,,,,,,,,8/8 Overcast,600.0,,OVC,600.0,,,,,,
KRDR,10-17-2007,12:21,SPECI,,110,6,,,6400,Mist,9.0,9.0,29.69,,,,,10,,,,,,,,,,,8/8 Overcast,600.0,,OVC,600.0,,,,,,
KRDR,10-17-2007,12:00,METAR,,130,7,,,1200,Mist,9.0,9.0,29.70,1006.8,,,,10,,,,,,,,,,.01 IN,8/8 Overcast,600.0,,OVC,600.0,,,,,,
KRDR,10-17-2007,11:28,SPECI,,130,7,,,800,Mist,9.0,9.0,29.70,,,,,10,,,,,,,,,,,Sky Obscured (Unable to Estimate),200.0,100.0,,200.0,,,,,,
KRDR,10-17-2007,11:00,METAR,,130,7,,,4800,Mist,9.0,9.0,29.70,1007.0,10,,,,,,,,,,,,,,Clear,72000.0,,,73000.0,,,,,,
KRDR,10-17-2007,10:10,SPECI,,130,7,,,4800,Mist,9.0,9.0,29.71,1007.1,10,,,,,,,,,,,,,,Clear,72000.0,,,73000.0,,,,,,
KRDR,10-17-2007,10:07,SPECI,,120,6,,,3200,Mist,9.0,9.0,29.71,1007.1,10,,,,,,,,,,,,,,Clear,72000.0,,,73000.0,,,,,,
KRDR,10-17-2007,10:06,SPECI,,120,6,,,2800,Mist,9.0,9.0,29.71,1007.1,10,,,,,,,,,,,,,,Clear,72000.0,,,73000.0,,,,,,
KRDR,10-17-2007,10:03,SPECI,,120,7,,,2000,Mist,9.0,9.0,29.71,1007.1,10,,,,,,,,,,,,,,Clear,72000.0,,,73000.0,,,,,,
KRDR,10-17-2007,10:01,SPECI,,130,7,,,1600,Mist,9.0,9.0,29.71,1007.1,10,,,,,,,,,,,,,,Clear,72000.0,,,73000.0,,,,,,
KRDR,10-17-2007,10:00,METAR,,130,6,,,800,Fog,9.0,9.0,29.71,1007.3,30,,,,,,,,,,,,,,Clear,72000.0,,,73000.0,,,,,,
KRDR,10-17-2007,09:53,SPECI,,130,6,,,1200,Mist,9.0,9.0,29.71,1007.2,10,,,,,,,,,,,,,,Clear,72000.0,,,73000.0,,,,,,
KRDR,10-17-2007,09:11,SPECI,,130,5,,,800,Fog,9.0,9.0,29.71,1007.3,30,,,,,,,,,,,,,,Clear,72000.0,,,73000.0,,,,,,
KRDR,10-17-2007,09:00,METAR,,130,5,,,800,Fog,9.0,9.0,29.72,1007.4,30,,,,,,,,,,,,,,Clear,72000.0,,,73000.0,,,,,,
KRDR,10-17-2007,08:54,SPECI,,130,4,,,1200,Mist,9.0,9.0,29.72,1007.4,10,,,,,,,,,,,,,,Clear,72000.0,,,73000.0,,,,,,
KRDR,10-17-2007,08:43,SPECI,,140,5,,,1200,Mist,9.0,9.0,29.72,1007.6,10,,,,,,,,,,,,,,Clear,72000.0,,,73000.0,,,,,,
KRDR,10-17-2007,08:27,SPECI,,130,6,,,800,Fog,9.0,9.0,29.73,1007.8,30,,,,,,,,,,,,,,Clear,72000.0,,,73000.0,,,,,,
KRDR,10-17-2007,08:15,SPECI,,130,6,,,1200,Mist,9.0,9.0,29.73,1007.9,10,,,,,,,,,,,,,,Clear,72000.0,,,73000.0,,,,,,
KRDR,10-17-2007,08:00,METAR,,110,7,,,800,Fog,9.0,9.0,29.73,1007.9,30,,,,,,,,,,,,,,Clear,72000.0,,,73000.0,,,,,,
KRDR,10-17-2007,07:38,SPECI,,120,4,,,800,Fog,9.0,9.0,29.73,1008.0,30,,,,,,,,,,,,,,Clear,72000.0,,,73000.0,,,,,,
KRDR,10-17-2007,07:07,SPECI,,110,4,,,1200,Mist,9.0,8.0,29.73,1008.0,10,,,,,,,,,,,,,,Clear,72000.0,,,73000.0,,,,,,
KRDR,10-17-2007,07:00,METAR,,120,3,,,800,Fog,9.0,8.0,29.74,1008.2,30,,,,,,,,,,,,,,Clear,72000.0,,,73000.0,,,,,,
KRDR,10-17-2007,06:10,SPECI,,130,2,,,800,Fog,8.0,8.0,29.75,1008.4,30,,,,,,,,,,,,,,Clear,72000.0,,,73000.0,,,,,,
KRDR,10-17-2007,06:00,METAR,,140,3,,,1200,Mist,8.0,8.0,29.75,1008.5,10,,,,,,,,,,,,.01 IN,,Clear,72000.0,,,73000.0,,,,,,
KRDR,10-17-2007,05:51,SPECI,,130,3,,,1200,Mist,8.0,8.0,29.75,1008.5,10,,,,,,,,,,,,,,Clear,72000.0,,,73000.0,,,,,,
KRDR,10-17-2007,05:46,SPECI,,120,4,,,1600,Mist,8.0,8.0,29.75,1008.5,10,,,,,,,,,,,,,,Clear,72000.0,,,73000.0,,,,,,
KRDR,10-17-2007,05:42,SPECI,,120,3,,,2000,Mist,8.0,8.0,29.75,1008.5,10,,,,,,,,,,,,,,Clear,600.0,,,73000.0,,,,,,
KRDR,10-17-2007,05:37,SPECI,,120,4,,,2800,Mist,8.0,8.0,29.75,1008.6,10,,,,,,,,,,,,,,Clear,600.0,,,73000.0,,,,,,
KRDR,10-17-2007,05:33,SPECI,,120,4,,,3200,Mist,8.0,8.0,29.75,1008.6,10,,,,,,,,,,,,,,Clear,72000.0,,,73000.0,,,,,,
KRDR,10-17-2007,05:29,SPECI,,120,3,,,4000,Mist,8.0,8.0,29.75,1008.6,10,,,,,,,,,,,,,,Clear,72000.0,,,73000.0,,,,,,
KRDR,10-17-2007,05:00,METAR,,100,3,,,8000,Mist,8.0,8.0,29.76,1008.8,10,,,,,,,,,,.01 IN,,,,Clear,72000.0,,,73000.0,,,,,,
KRDR,10-17-2007,04:30,METAR,,100,3,,,8000,Mist,8.0,8.0,29.76,1008.9,10,,,,,,,,,,,,,,Clear,72000.0,,,73000.0,,,,,,
KRDR,10-17-2007,04:28,SPECI,,110,4,,,6400,Mist,8.0,8.0,29.76,1008.9,,10,,,,,,,,,,,,,Clear,72000.0,,,73000.0,,,,,,
KRDR,10-17-2007,04:00,METAR,,100,3,,,800,Rain/Fog or Ice Fog,8.0,8.0,29.76,1008.8,,,,61,44,,,,,,,,,,8/8 Overcast,200.0,,OVC,200.0,,,,,,
KRDR,10-17-2007,03:00,METAR,,90,6,,,800,Drizzle/Fog or Ice Fog,8.0,8.0,29.77,1009.1,,,,51,44,,,,,,,,,,8/8 Overcast,600.0,,OVC,200.0,,,,,,
KRDR,10-17-2007,02:00,METAR,,90,7,,,800,Drizzle/Fog or Ice Fog,8.0,8.0,29.78,1009.5,,,,51,44,,,,,,,,,,8/8 Overcast,200.0,,OVC,200.0,,,,,,
KRDR,10-17-2007,01:00,METAR,,80,6,,,800,Drizzle/Fog or Ice Fog,8.0,8.0,29.78,1009.5,,,,44,53,,,,,,,,,,8/8 Overcast,300.0,,OVC,300.0,,,,,,
KRDR,10-17-2007,00:20,METAR,,70,4,,,800,Drizzle/Fog or Ice Fog,8.0,8.0,29.78,,,,,44,53,,,,,,,,,,8/8 Overcast,300.0,,OVC,300.0,,,,,,
KRDR,10-17-2007,00:00,METAR,,70,5,,,800,Fog or Ice Fog,9.0,8.0,29.79,1009.7,,,,45,,,,,,,,,,,Sky Obscured (Unable to Estimate),300.0,100.0,,300.0,,,,,,
KRDR,10-16-2007,23:00,METAR,,80,7,,,4000,Drizzle/Mist,9.0,8.0,29.79,1009.9,,,,51,10,,,,,,,,,,8/8 Overcast,700.0,,OVC,700.0,,,,,,
KRDR,10-16-2007,22:00,METAR,,90,5,,,9999,,9.0,7.0,29.81,1010.3,,,,,,,,,,,,,,,8/8 Overcast,900.0,,OVC,900.0,,,,,,
KRDR,10-16-2007,21:00,METAR,,80,6,,,9999,,9.0,7.0,29.81,1010.5,,,,,,,,,,,,,,,8/8 Overcast,900.0,,OVC,900.0,,,,,,
KRDR,10-16-2007,20:19,SPECI,,80,7,,,9999,,9.0,7.0,29.81,,,,,,,,,,,,,,,,8/8 Overcast,800.0,,OVC,800.0,,,,,,
KRDR,10-16-2007,20:00,METAR,,80,8,,,9999,,8.0,7.0,29.82,1010.7,,,,,,,,,,,,,,,8/8 Overcast,500.0,,OVC,500.0,,,,,,
KRDR,10-16-2007,19:00,METAR,,80,5,,,6400,Mist,8.0,7.0,29.84,1011.4,,,,10,,,,,,,,,,,8/8 Overcast,600.0,,OVC,600.0,,,,,,
KRDR,10-16-2007,18:00,METAR,,80,6,,,8000,Mist,7.0,6.0,29.86,1012.3,,,,10,,,,,,,,,TRACE,,8/8 Overcast,500.0,,BKN,500.0,OVC,1100.0,,,,
KRDR,10-16-2007,17:00,METAR,,90,6,,,9999,Mist,7.0,6.0,29.88,1012.7,,,,10,,,,,,,TRACE,,,,8/8 Overcast,700.0,,BKN,700.0,OVC,1200.0,,,,
KRDR,10-16-2007,16:38,SPECI,,70,6,,,9999,Mist,7.0,6.0,29.88,,,,,10,,,,,,,,,,,8/8 Overcast,800.0,,BKN,800.0,OVC,1300.0,,,,
KRDR,10-16-2007,16:00,METAR,,70,7,,,8000,Rain/Mist,6.0,5.0,29.89,1013.2,,,,61,10,,,,,,TRACE,,,,8/8 Overcast,1300.0,,SCT,800.0,OVC,1300.0,,,,
KRDR,10-16-2007,15:38,SPECI,,60,7,,,6400,Drizzle/Mist,7.0,5.0,29.89,,,,,51,10,,,,,,,,,,8/8 Overcast,1300.0,,SCT,700.0,OVC,1300.0,,,,
KRDR,10-16-2007,15:00,METAR,,50,6,,,9999,,6.0,5.0,29.90,1013.3,,,,,,,,,,,TRACE,TRACE,,,8/8 Overcast,1200.0,,SCT,900.0,BKN,1200.0,OVC,1600.0,,
KRDR,10-16-2007,14:00,METAR,,60,8,,,9999,Drizzle,6.0,5.0,29.90,1013.5,,,,51,,,,,,,TRACE,,,,8/8 Overcast,1200.0,,BKN,1200.0,OVC,1700.0,,,,
KRDR,10-16-2007,13:41,SPECI,,70,9,,,9999,Drizzle,6.0,5.0,29.90,,,,,51,,,,,,,,,,,8/8 Overcast,1200.0,,BKN,1200.0,OVC,1800.0,,,,
KRDR,10-16-2007,13:00,METAR,,50,6,,,9999,,7.0,4.0,29.91,1013.7,,,,,,,,,,,,,,,8/8 Overcast,1800.0,,OVC,1800.0,,,,,,
KRDR,10-16-2007,12:00,METAR,,50,6,,,9999,,7.0,4.0,29.91,1013.9,,,,,,,,,,,TRACE,,TRACE,,8/8 Overcast,2000.0,,OVC,2000.0,,,,,,
KRDR,10-16-2007,11:00,METAR,,70,8,,,9999,Drizzle,7.0,4.0,29.93,1014.3,,,,51,,,,,,,TRACE,,,,8/8 Overcast,2200.0,,OVC,2200.0,,,,,,
KRDR,10-16-2007,10:35,SPECI,,50,6,,,9999,,7.0,4.0,29.92,,,,,,,,,,,,,,,,8/8 Overcast,2300.0,,OVC,2300.0,,,,,,
KRDR,10-16-2007,10:22,SPECI,,40,6,,,9999,Rain,7.0,4.0,29.93,,,,,61,,,,,,,,,,,8/8 Overcast,2300.0,,OVC,2300.0,,,,,,
KRDR,10-16-2007,10:00,METAR,,30,6,,,9999,,7.0,4.0,29.93,1014.4,,,,,,,,,,,,,,,8/8 Overcast,2400.0,,OVC,2400.0,,,,,,
KRDR,10-16-2007,09:00,METAR,,40,6,,,9999,,7.0,4.0,29.94,1014.8,,,,,,,,,,,,TRACE,,,8/8 Overcast,2400.0,,OVC,2400.0,,,,,,
KRDR,10-16-2007,08:00,METAR,,40,5,,,9999,,6.0,5.0,29.96,1015.4,,,,,,,,,,,TRACE,,,,8/8 Overcast,3100.0,,SCT,2700.0,OVC,3100.0,,,,
KRDR,10-16-2007,07:33,SPECI,,30,4,,,9999,,6.0,5.0,29.96,,,,,,,,,,,,,,,,8/8 Overcast,3100.0,,SCT,2300.0,OVC,3200.0,,,,
KRDR,10-16-2007,07:21,SPECI,,30,3,,,9999,Drizzle,6.0,4.0,29.97,,,,,51,,,,,,,,,,,8/8 Overcast,3200.0,,SCT,2300.0,OVC,3300.0,,,,
KRDR,10-16-2007,07:00,METAR,,90,5,,,9999,Drizzle,7.0,4.0,29.98,1016.1,,,,51,,,,,,,TRACE,,,,8/8 Overcast,3200.0,,SCT,2400.0,OVC,3300.0,,,,
KRDR,10-16-2007,06:41,SPECI,,100,6,,,9999,,7.0,3.0,29.99,,,,,,,,,,,,,,,,8/8 Overcast,3400.0,,OVC,3500.0,,,,,,
KRDR,10-16-2007,06:00,METAR,,70,5,,,9999,,7.0,2.0,29.99,1016.3,,,,,,,,,,,,,,,8/8 Overcast,3600.0,,BKN,3700.0,OVC,20000.0,,,,
KRDR,10-16-2007,05:00,METAR,,70,6,,,9999,,6.0,2.0,30.00,1016.8,,,,,,,,,,,,,,,8/8 Overcast,20000.0,,FEW,3500.0,FEW,8400.0,OVC,20000.0,,
KRDR,10-16-2007,04:00,METAR,,60,8,,,9999,,7.0,3.0,30.02,1017.2,,,,,,,,,,,,,,,8/8 Overcast,20000.0,,FEW,3500.0,OVC,20000.0,,,,
KRDR,10-16-2007,03:00,METAR,,50,6,,,9999,,7.0,2.0,30.03,1017.7,,,,,,,,,,,,,,,8/8 Overcast,20000.0,,FEW,4000.0,OVC,20000.0,,,,
KRDR,10-16-2007,02:00,METAR,,60,6,,,9999,,9.0,2.0,30.04,1018.2,,,,,,,,,,,,,,,8/8 Overcast,20000.0,,FEW,4000.0,OVC,20000.0,,,,
KRDR,10-16-2007,01:00,METAR,,50,7,,,9999,,9.0,2.0,30.05,1018.5,,,,,,,,,,,,,,,8/8 Overcast,20000.0,,FEW,4000.0,OVC,20000.0,,,,
KRDR,10-16-2007,00:00,METAR,,90,7,,,9999,,11.0,1.0,30.05,1018.5,,,,,,,,,,,,,,,7/8 Mostly Cloudy,20000.0,,FEW,7900.0,BKN,20000.0,,,,
KRDR,10-15-2007,23:00,METAR,,60,9,,,9999,,13.0,1.0,30.05,1018.3,,,,,,,,,,,,,,,7/8 Mostly Cloudy,20000.0,,FEW,7900.0,BKN,20000.0,,,,
KRDR,10-15-2007,22:00,METAR,,60,10,18.0,,9999,,13.0,1.0,30.06,1018.7,,,,,,,,,,,,,,,7/8 Mostly Cloudy,20000.0,,FEW,7900.0,BKN,20000.0,,,,
KRDR,10-15-2007,21:00,METAR,,70,11,17.0,,9999,,14.0,2.0,30.08,1019.2,,,,,,,,,,,,,,,7/8 Mostly Cloudy,20000.0,,FEW,9900.0,BKN,20000.0,,,,
KRDR,10-15-2007,20:00,METAR,,80,14,19.0,,9999,,14.0,2.0,30.10,1020.0,,,,,,,,,,,,,,,7/8 Mostly Cloudy,20000.0,,BKN,20000.0,,,,,,
KRDR,10-15-2007,19:00,METAR,,70,14,18.0,,9999,,13.0,3.0,30.12,1020.8,,,,,,,,,,,,,,,7/8 Mostly Cloudy,20000.0,,BKN,20000.0,,,,,,
KRDR,10-15-2007,18:00,METAR,,70,10,,,9999,,12.0,4.0,30.15,1021.6,,,,,,,,,,,,,,,7/8 Mostly Cloudy,20000.0,,BKN,20000.0,,,,,,
KRDR,10-15-2007,17:00,METAR,,60,10,15.0,,9999,,10.0,3.0,30.15,1021.6,,,,,,,,,,,,,,,7/8 Mostly Cloudy,20000.0,,BKN,20000.0,,,,,,
KRDR,10-15-2007,16:00,METAR,,50,4,,,9999,,7.0,4.0,30.17,1022.3,,,,,,,,,,,,,,,7/8 Mostly Cloudy,20000.0,,BKN,20000.0,,,,,,
KRDR,10-15-2007,15:00,METAR,,20,5,,,9999,,4.0,3.0,30.17,1022.3,,,,,,,,,,,,,,,7/8 Mostly Cloudy,20000.0,,BKN,20000.0,,,,,,
KRDR,10-15-2007,14:00,METAR,,10,3,,,4800,Mist,1.0,1.0,30.17,1022.4,,,,10,,,,,,,,,,,2/8 Mostly Clear,72000.0,,FEW,20000.0,,,,,,
KRDR,10-15-2007,13:00,METAR,,360,7,,,3200,Mist,0.0,-1.0,30.17,1022.4,,,,10,,,,,,,,,,,2/8 Mostly Clear,72000.0,,FEW,20000.0,,,,,,
KRDR,10-15-2007,12:00,METAR,,340,6,,,9999,,0.0,-1.0,30.16,1022.2,,,,,,,,,,,,,,,2/8 Mostly Clear,72000.0,,FEW,20000.0,,,,,,
KRDR,10-15-2007,11:00,METAR,,360,4,,,9999,,0.0,0.0,30.15,1022.3,,,,,,,,,,,,,,,4/8 Partly Cloudy,72000.0,,SCT,20000.0,,,,,,
KRDR,10-15-2007,10:00,METAR,,360,5,,,9999,,0.0,-1.0,30.16,1022.4,,,,,,,,,,,,,,,2/8 Mostly Clear,72000.0,,FEW,20000.0,,,,,,
KRDR,10-15-2007,09:00,METAR,,350,4,,,9999,,-1.0,-1.0,30.15,1022.3,,,,,,,,,,,,,,,2/8 Mostly Clear,72000.0,,FEW,20000.0,,,,,,
KRDR,10-15-2007,08:00,METAR,,340,4,,,9999,,0.0,-1.0,30.17,1022.8,,,,,,,,,,,,,,,2/8 Mostly Clear,72000.0,,FEW,20000.0,,,,,,
KRDR,10-15-2007,07:00,METAR,,,2,,,9999,,0.0,-1.0,30.19,1023.3,,,,,,,,,,,,,,,Clear,72000.0,,,73000.0,,,,,,
KRDR,10-15-2007,06:46,SPECI,,210,2,,,2000,Mist,1.0,0.0,30.20,1023.3,,,,10,,,,,,,,,,,Clear,72000.0,,,73000.0,,,,,,
KRDR,10-15-2007,06:41,SPECI,,,0,,,2800,Mist,1.0,0.0,30.20,1023.3,,,,10,,,,,,,,,,,Clear,72000.0,,,73000.0,,,,,,
KRDR,10-15-2007,06:26,SPECI,,310,3,,,3200,Mist,1.0,0.0,30.19,1022.9,,,,10,,,,,,,,,,,Clear,72000.0,,,73000.0,,,,,,
KRDR,10-15-2007,06:00,METAR,,,0,,,3200,Mist,1.0,0.0,30.20,1023.3,,,,10,,,,,,,,,,,Clear,72000.0,,,73000.0,,,,,,
KRDR,10-15-2007,05:50,METAR,,240,2,,,3200,Mist,1.0,0.0,30.20,1023.3,,,,10,,,,,,,,,,,Clear,72000.0,,,73000.0,,,,,,
KRDR,10-15-2007,05:43,SPECI,,,0,,,3200,Mist,1.0,0.0,30.20,1023.3,,,,10,,,,,,,,,,,Clear,72000.0,,,73000.0,,,,,,
KRDR,10-15-2007,05:37,SPECI,,,0,,,2400,Mist,1.0,0.0,30.20,1023.3,,,,10,,,,,,,,,,,Clear,72000.0,,,73000.0,,,,,,
KRDR,10-15-2007,05:27,SPECI,,,0,,,2000,Mist,2.0,1.0,30.19,1023.1,,,,10,,,,,,,,,,,Clear,72000.0,,,73000.0,,,,,,
KRDR,10-15-2007,05:06,SPECI,,10,3,,,2400,Mist,3.0,1.0,30.17,1022.4,,,,10,,,,,,,,,,,Clear,72000.0,,,73000.0,,,,,,
KRDR,10-15-2007,05:00,METAR,,30,4,,,2400,Mist,2.0,1.0,30.17,1022.3,,,,10,,,,,,,,,,,Clear,72000.0,,,73000.0,,,,,,
KRDR,10-15-2007,04:00,METAR,,10,4,,,2400,Mist,3.0,1.0,30.17,1022.4,,,,10,,,,,,,,,,,Clear,72000.0,,,73000.0,,,,,,
KRDR,10-15-2007,03:38,SPECI,,20,3,,,2400,Mist,4.0,2.0,30.18,1022.7,,,,10,,,,,,,,,,,Clear,72000.0,,,73000.0,,,,,,
KRDR,10-15-2007,03:26,SPECI,,20,3,,,2000,Mist,4.0,2.0,30.18,1022.8,,,,10,,,,,,,,,,,Clear,72000.0,,,73000.0,,,,,,
KRDR,10-15-2007,03:00,METAR,,350,5,,,2800,Mist,4.0,2.0,30.18,1022.7,,,,10,,,,,,,,,,,Clear,72000.0,,,73000.0,,,,,,
KRDR,10-15-2007,02:42,SPECI,,350,6,,,2400,Mist,4.0,2.0,30.18,1022.6,,,,10,,,,,,,,,,,Clear,72000.0,,,73000.0,,,,,,
KRDR,10-15-2007,02:33,SPECI,,,0,,,2000,Mist,4.0,3.0,30.17,1022.5,,,,10,,,,,,,,,,,Clear,72000.0,,,73000.0,,,,,,
KRDR,10-15-2007,02:26,SPECI,,20,3,,,1600,Mist,4.0,3.0,30.17,1022.5,,,,10,,,,,,,,,,,Clear,72000.0,,,73000.0,,,,,,
KRDR,10-15-2007,02:00,METAR,,30,5,,,1600,Mist,5.0,3.0,30.16,1022.0,,,,10,,,,,,,,,,,Clear,72000.0,,,73000.0,,,,,,
KRDR,10-15-2007,01:00,METAR,,20,3,,,1600,Mist,6.0,4.0,30.16,1022.1,10,,,,,,,,,,,,,,Clear,72000.0,,,73000.0,,,,,,
KRDR,10-15-2007,00:45,METAR,,,0,,,1600,Haze Smoke or Dust,6.0,4.0,30.16,1022.1,4,,,,,,,,,,,,,,Clear,72000.0,,,73000.0,,,,,,
KRDR,10-15-2007,00:29,SPECI,,40,3,,,1200,Haze Smoke or Dust,7.0,4.0,30.16,1022.0,4,,,,,,,,,,,,,,Clear,72000.0,,,73000.0,,,,,,
KRDR,10-15-2007,00:14,SPECI,,40,3,,,1200,Haze Smoke or Dust,9.0,5.0,30.16,1021.9,4,,,,,,,,,,,,,,Clear,72000.0,,,73000.0,,,,,,
KRDR,10-15-2007,00:05,SPECI,,40,3,,,800,Haze Smoke or Dust,10.0,5.0,30.16,1021.9,5,,,,,,,,,,,,,,Clear,72000.0,,,73000.0,,,,,,
KRDR,10-15-2007,00:00,METAR,,40,3,,,800,Haze Smoke or Dust,10.0,5.0,30.15,1021.8,5,,,,,,,,,,,,,,Clear,72000.0,,,73000.0,,,,,,
KRDR,10-14-2007,23:53,SPECI,,40,3,,,800,Haze Smoke or Dust,10.0,5.0,30.16,1021.8,5,,,,,,,,,,,,,,Clear,72000.0,,,73000.0,,,,,,
KRDR,10-14-2007,23:46,SPECI,,40,3,,,800,Haze Smoke or Dust,11.0,5.0,30.16,1021.8,5,,,,,,,,,,,,,,Clear,72000.0,,,73000.0,,,,,,
KRDR,10-14-2007,23:36,SPECI,,50,4,,,400,Haze Smoke or Dust,11.0,5.0,30.16,1021.8,5,,,,,,,,,,,,,,Clear,72000.0,,,73000.0,,,,,,
KRDR,10-14-2007,23:27,SPECI,,50,5,,,800,Haze Smoke or Dust,12.0,5.0,30.15,1021.8,5,,,,,,,,,,,,,,Clear,72000.0,,,73000.0,,,,,,
KRDR,10-14-2007,23:00,METAR,,40,5,,,800,Haze Smoke or Dust,13.0,4.0,30.15,1021.6,5,,,,,,,,,,,,,,Clear,72000.0,,,73000.0,,,,,,
KRDR,10-14-2007,22:50,METAR,,40,5,,,800,Haze Smoke or Dust,13.0,4.0,30.15,1021.6,5,,,,,,,,,,,,,,Clear,72000.0,,,73000.0,,,,,,
KRDR,10-14-2007,22:05,SPECI,,50,6,,,800,Haze Smoke or Dust,14.0,4.0,30.15,1021.6,5,,,,,,,,,,,,,,Clear,72000.0,,,73000.0,,,,,,
KRDR,10-14-2007,22:02,SPECI,,60,7,,,800,Haze Smoke or Dust,14.0,3.0,30.15,1021.5,5,,,,,,,,,,,,,,Clear,72000.0,,,73000.0,,,,,,
KRDR,10-14-2007,22:00,METAR,,60,7,,,800,Haze Smoke or Dust,13.0,4.0,30.15,1021.5,5,,,,,,,,,,,,,,Clear,72000.0,,,73000.0,,,,,,
KRDR,10-14-2007,21:49,SPECI,,50,6,,,800,Haze Smoke or Dust,13.0,4.0,30.14,1021.5,5,,,,,,,,,,,,,,Clear,72000.0,,,73000.0,,,,,,
KRDR,10-14-2007,21:47,SPECI,,60,6,,,800,Haze Smoke or Dust,13.0,4.0,30.14,1021.5,5,,,,,,,,,,,,,,Clear,72000.0,,,73000.0,,,,,,
KRDR,10-14-2007,21:36,SPECI,,40,6,,,800,Haze Smoke or Dust,13.0,4.0,30.14,1021.4,5,,,,,,,,,,,,,,Clear,72000.0,,,73000.0,,,,,,
KRDR,10-14-2007,21:00,METAR,,50,6,,,400,Haze Smoke or Dust,13.0,6.0,30.15,1021.6,5,,,,,,,,,,,,,,Clear,72000.0,,,73000.0,,,,,,
KRDR,10-14-2007,20:06,SPECI,,100,7,,,400,Haze Smoke or Dust,13.0,6.0,30.16,1021.9,5,,,,,,,,,,,,,,Clear,72000.0,,,73000.0,,,,,,
KRDR,10-14-2007,20:00,METAR,,120,6,,,800,Haze Smoke or Dust,13.0,6.0,30.16,1022.2,5,,,,,,,,,,,,,,Clear,72000.0,,,73000.0,,,,,,
KRDR,10-14-2007,19:48,SPECI,,110,6,,,800,Haze Smoke or Dust,13.0,6.0,30.17,1022.2,5,,,,,,,,,,,,,,Clear,72000.0,,,73000.0,,,,,,
KRDR,10-14-2007,19:32,SPECI,,110,6,,,1200,Haze Smoke or Dust,13.0,6.0,30.17,1022.4,4,,,,,,,,,,,,,,Clear,72000.0,,,73000.0,,,,,,
KRDR,10-14-2007,19:04,SPECI,,100,5,,,1200,Haze Smoke or Dust,13.0,6.0,30.17,1022.4,4,,,,,,,,,,,,,,Clear,72000.0,,,73000.0,,,,,,
KRDR,10-14-2007,19:00,METAR,,100,4,,,1600,Haze Smoke or Dust,13.0,6.0,30.17,1022.5,4,,,,,,,,,,,,,,Clear,72000.0,,,73000.0,,,,,,
KRDR,10-14-2007,18:38,SPECI,,120,4,,,1600,Haze Smoke or Dust,12.0,6.0,30.18,1022.6,4,,,,,,,,,,,,,,Clear,72000.0,,,73000.0,,,,,,
KRDR,10-14-2007,18:30,METAR,,100,4,,,1600,Haze Smoke or Dust,12.0,5.0,30.18,1022.5,4,,,,,,,,,,,,,,Clear,72000.0,,,73000.0,,,,,,
KRDR,10-14-2007,18:23,SPECI,,130,6,,,2000,Haze Smoke or Dust,12.0,5.0,30.18,1022.6,4,,,,,,,,,,,,,,Clear,72000.0,,,73000.0,,,,,,
KRDR,10-14-2007,18:05,SPECI,,150,5,,,2400,Haze Smoke or Dust,12.0,5.0,30.18,1022.7,4,,,,,,,,,,,,,,Clear,72000.0,,,73000.0,,,,,,
KRDR,10-14-2007,18:00,METAR,,150,3,,,2000,Haze Smoke or Dust,11.0,5.0,30.18,1022.7,4,,,,,,,,,,,,,,Clear,72000.0,,,73000.0,,,,,,
KRDR,10-14-2007,17:45,METAR,,120,5,,,2000,Haze Smoke or Dust,12.0,6.0,30.18,1022.6,4,,,,,,,,,,,,,,Clear,72000.0,,,73000.0,,,,,,
KRDR,10-14-2007,17:40,SPECI,,130,5,,,1600,Haze Smoke or Dust,12.0,6.0,30.18,1022.6,4,,,,,,,,,,,,,,Clear,72000.0,,,73000.0,,,,,,
KRDR,10-14-2007,17:35,SPECI,,140,5,,,1200,Haze Smoke or Dust,12.0,6.0,30.18,1022.6,4,,,,,,,,,,,,,,Clear,72000.0,,,73000.0,,,,,,
KRDR,10-14-2007,17:33,SPECI,,140,6,,,1200,Haze Smoke or Dust,12.0,6.0,30.18,1022.7,4,,,,,,,,,,,,,,Clear,72000.0,,,73000.0,,,,,,
KRDR,10-14-2007,17:27,SPECI,,50,3,,,800,Haze Smoke or Dust,12.0,6.0,30.18,1022.6,5,,,,,,,,,,,,,,Clear,72000.0,,,73000.0,,,,,,
KRDR,10-14-2007,17:22,SPECI,,60,6,,,1200,Haze Smoke or Dust,11.0,5.0,30.18,1022.6,4,,,,,,,,,,,,,,Clear,72000.0,,,73000.0,,,,,,
KRDR,10-14-2007,17:17,SPECI,,90,4,,,1200,Haze Smoke or Dust,12.0,5.0,30.18,1022.6,4,,,,,,,,,,,,,,Clear,72000.0,,,73000.0,,,,,,
KRDR,10-14-2007,17:13,SPECI,,,4,,,1600,Haze Smoke or Dust,11.0,5.0,30.18,1022.6,4,,,,,,,,,,,,,,Clear,72000.0,,,73000.0,,,,,,
KRDR,10-14-2007,17:11,SPECI,,100,4,,,2000,Haze Smoke or Dust,11.0,5.0,30.18,1022.6,4,,,,,,,,,,,,,,Clear,72000.0,,,73000.0,,,,,,
KRDR,10-14-2007,17:07,SPECI,,110,4,,,2800,Haze Smoke or Dust,11.0,5.0,30.18,1022.6,4,,,,,,,,,,,,,,Clear,72000.0,,,73000.0,,,,,,
KRDR,10-14-2007,17:00,METAR,,,3,,,2800,Haze Smoke or Dust,10.0,6.0,30.18,1022.5,4,,,,,,,,,,,,,,Clear,72000.0,,,73000.0,,,,,,
KRDR,10-14-2007,16:50,METAR,,80,4,,,2800,Haze Smoke or Dust,10.0,6.0,30.18,1022.6,4,,,,,,,,,,,,,,Clear,72000.0,,,73000.0,,,,,,
KRDR,10-14-2007,16:48,SPECI,,90,4,,,3200,Haze Smoke or Dust,10.0,6.0,30.18,1022.6,4,,,,,,,,,,,,,,Clear,72000.0,,,73000.0,,,,,,
KRDR,10-14-2007,16:28,SPECI,,,0,,,2400,Haze Smoke or Dust,9.0,6.0,30.18,1022.5,4,,,,,,,,,,,,,,Clear,72000.0,,,73000.0,,,,,,
KRDR,10-14-2007,16:26,SPECI,,,2,,,2000,Haze Smoke or Dust,9.0,6.0,30.18,1022.6,4,,,,,,,,,,,,,,Clear,72000.0,,,73000.0,,,,,,
KRDR,10-14-2007,16:21,SPECI,,100,3,,,2800,Haze Smoke or Dust,9.0,6.0,30.18,1022.6,4,,,,,,,,,,,,,,Clear,72000.0,,,73000.0,,,,,,
KRDR,10-14-2007,16:05,SPECI,,80,3,,,4000,Haze Smoke or Dust,9.0,6.0,30.18,1022.5,4,,,,,,,,,,,,,,Clear,72000.0,,,73000.0,,,,,,
KRDR,10-14-2007,16:00,METAR,,10,4,,,9999,Mist,8.0,6.0,30.17,1022.4,10,,,,,,,,,,,,,,Clear,72000.0,,,73000.0,,,,,,
KRDR,10-14-2007,15:00,METAR,,350,5,,,9999,,6.0,6.0,30.16,1022.1,,,,,,,,,,,,,,,Clear,72000.0,,,73000.0,,,,,,
KRDR,10-14-2007,14:00,METAR,,330,4,,,6400,Mist,4.0,4.0,30.17,1022.4,10,,,,,,,,,,,,,,Clear,72000.0,,,73000.0,,,,,,
KRDR,10-14-2007,13:00,METAR,,340,3,,,8000,Mist,3.0,3.0,30.15,1021.8,10,,,,,,,,,,,,,,4/8 Partly Cloudy,72000.0,,SCT,5400.0,,,,,,
KRDR,10-14-2007,12:31,SPECI,,320,3,,,9999,,4.0,3.0,30.14,1021.5,,,,,,,,,,,,,,,4/8 Partly Cloudy,72000.0,,SCT,5400.0,,,,,,
KRDR,10-14-2007,12:00,METAR,,360,4,,,9999,,4.0,4.0,30.14,1021.4,,,,,,,,,,,,,,,7/8 Mostly Cloudy,5500.0,,BKN,5400.0,,,,,,
KRDR,10-14-2007,11:00,METAR,,,0,,,9999,,5.0,5.0,30.14,1021.2,,,,,,,,,,,,,,,8/8 Overcast,4900.0,,OVC,5000.0,,,,,,
KRDR,10-14-2007,10:00,METAR,,340,4,,,9999,Mist,4.0,4.0,30.11,1020.4,10,,,,,,,,,,,,,,8/8 Overcast,4900.0,,OVC,5000.0,,,,,,
KRDR,10-14-2007,09:19,SPECI,,,0,,,8000,Mist,5.0,4.0,30.12,1020.6,10,,,,,,,,,,,,,,8/8 Overcast,4900.0,,OVC,5000.0,,,,,,
KRDR,10-14-2007,09:02,SPECI,,10,4,,,8000,Mist,5.0,4.0,30.12,1020.7,10,,,,,,,,,,,,,,8/8 Overcast,4900.0,,OVC,5000.0,,,,,,
KRDR,10-14-2007,09:00,METAR,,360,4,,,9999,Mist,5.0,5.0,30.12,1020.7,10,,,,,,,,,,,,,,8/8 Overcast,4900.0,,OVC,5000.0,,,,,,
KRDR,10-14-2007,08:00,METAR,,320,3,,,8000,Mist,4.0,3.0,30.13,1020.9,10,,,,,,,,,,,,,,7/8 Mostly Cloudy,4100.0,,BKN,4200.0,,,,,,
KRDR,10-14-2007,07:00,METAR,,290,3,,,9999,Mist,3.0,2.0,30.11,1020.5,10,,,,,,,,,,,,,,Clear,72000.0,,,73000.0,,,,,,
KRDR,10-14-2007,06:00,METAR,,310,4,,,9999,,2.0,2.0,30.10,1020.0,,,,,,,,,,,,,,,7/8 Mostly Cloudy,3300.0,,BKN,3400.0,,,,,,
KRDR,10-14-2007,05:00,METAR,,330,3,,,9999,,3.0,3.0,30.09,1019.6,,,,,,,,,,,,,,,Clear,72000.0,,,73000.0,,,,,,
KRDR,10-14-2007,04:41,SPECI,,330,2,,,4800,Mist,3.0,3.0,30.08,1019.4,10,,,,,,,,,,,,,,Clear,72000.0,,,73000.0,,,,,,
KRDR,10-14-2007,04:39,SPECI,,,0,,,4000,Mist,4.0,3.0,30.08,1019.4,10,,,,,,,,,,,,,,Clear,72000.0,,,73000.0,,,,,,
KRDR,10-14-2007,04:35,SPECI,,,0,,,4000,Mist,4.0,3.0,30.08,1019.3,10,,,,,,,,,,,,,,Clear,72000.0,,,73000.0,,,,,,
KRDR,10-14-2007,04:30,METAR,,,0,,,6400,Mist,4.0,3.0,30.08,1019.2,10,,,,,,,,,,,,,,Clear,72000.0,,,73000.0,,,,,,
KRDR,10-14-2007,04:24,SPECI,,,0,,,9999,Mist,5.0,4.0,30.07,1019.1,10,,,,,,,,,,,,,,Clear,72000.0,,,73000.0,,,,,,
KRDR,10-14-2007,04:00,METAR,,30,4,,,9999,,5.0,4.0,30.07,1019.0,,,,,,,,,,,,,,,Clear,72000.0,,,73000.0,,,,,,
KRDR,10-14-2007,03:00,METAR,,30,5,,,9999,,5.0,4.0,30.07,1018.9,,,,,,,,,,,,,,,Clear,72000.0,,,73000.0,,,,,,
KRDR,10-14-2007,02:00,METAR,,20,4,,,9999,,6.0,5.0,30.07,1018.9,,,,,,,,,,,,,,,Clear,72000.0,,,73000.0,,,,,,
KRDR,10-14-2007,01:00,METAR,,10,3,,,9999,,8.0,6.0,30.05,1018.5,,,,,,,,,,,,,,,Clear,72000.0,,,73000.0,,,,,,
KRDR,10-14-2007,00:00,METAR,,10,5,,,9999,,11.0,7.0,30.05,1018.3,,,,,,,,,,,,,,,7/8 Mostly Cloudy,4200.0,,BKN,4300.0,,,,,,
KRDR,10-13-2007,23:00,METAR,,30,3,,,9999,,13.0,7.0,30.04,1018.0,,,,,,,,,,,,,,,8/8 Overcast,3200.0,,OVC,3300.0,,,,,,
KRDR,10-13-2007,22:00,METAR,,70,5,,,9999,,14.0,7.0,30.03,1017.7,,,,,,,,,,,,,,,4/8 Partly Cloudy,72000.0,,SCT,2900.0,,,,,,
KRDR,10-13-2007,21:41,SPECI,,,3,,,9999,,14.0,7.0,30.03,1017.6,,,,,,,,,,,,,,,7/8 Mostly Cloudy,2900.0,,BKN,2900.0,,,,,,
KRDR,10-13-2007,21:00,METAR,,,0,,,9999,,13.0,7.0,30.02,1017.5,,,,,,,,,,,,,,,Clear,72000.0,,,73000.0,,,,,,
KRDR,10-13-2007,20:00,METAR,,110,4,,,9999,,13.0,7.0,30.03,1017.8,,,,,,,,,,,,,,,4/8 Partly Cloudy,72000.0,,FEW,4000.0,SCT,5000.0,,,,
KRDR,10-13-2007,19:00,METAR,,40,5,,,9999,,12.0,7.0,30.03,1017.8,,,,,,,,,,,,,,,7/8 Mostly Cloudy,3900.0,,BKN,4000.0,,,,,,
KRDR,10-13-2007,18:00,METAR,,20,3,,,9999,,12.0,7.0,30.03,1017.9,,,,,,,,,,,,,,,8/8 Overcast,3100.0,,OVC,3200.0,,,,,,
KRDR,10-13-2007,17:00,METAR,,10,3,,,9999,,10.0,7.0,30.03,1017.7,,,,,,,,,,,,,,,7/8 Mostly Cloudy,3200.0,,BKN,3300.0,,,,,,
KRDR,10-13-2007,16:00,METAR,,350,4,,,9999,,10.0,7.0,30.03,1017.7,,,,,,,,,,,,,,,8/8 Overcast,3100.0,,OVC,3200.0,,,,,,
KRDR,10-13-2007,15:00,METAR,,70,2,,,9999,,8.0,7.0,30.02,1017.5,,,,,,,,,,,,,,,7/8 Mostly Cloudy,3200.0,,BKN,3300.0,,,,,,
KRDR,10-13-2007,14:00,METAR,,20,4,,,9999,,7.0,7.0,30.01,1017.0,,,,,,,,,,,,,,,7/8 Mostly Cloudy,3600.0,,BKN,3700.0,,,,,,
KRDR,10-13-2007,13:00,METAR,,20,3,,,9999,,6.0,5.0,30.00,1016.6,,,,,,,,,,,,,,,7/8 Mostly Cloudy,3800.0,,BKN,3900.0,,,,,,
KRDR,10-13-2007,12:00,METAR,,50,4,,,9999,,7.0,6.0,29.98,1016.2,,,,,,,,,,,,,,,7/8 Mostly Cloudy,4900.0,,FEW,4000.0,BKN,5900.0,,,,
KRDR,10-13-2007,11:35,SPECI,,30,4,,,9999,,6.0,6.0,29.98,1016.0,,,,,,,,,,,,,,,8/8 Overcast,4300.0,,FEW,4000.0,OVC,5900.0,,,,
KRDR,10-13-2007,11:00,METAR,,10,4,,,9999,,6.0,6.0,29.97,1015.8,,,,,,,,,,,,,,,7/8 Mostly Cloudy,4100.0,,BKN,4900.0,,,,,,
KRDR,10-13-2007,10:00,METAR,,350,5,,,9999,,3.0,3.0,29.96,1015.5,,,,,,,,,,,,,,,7/8 Mostly Cloudy,4500.0,,BKN,4600.0,,,,,,
KRDR,10-13-2007,09:00,METAR,,10,3,,,9999,,4.0,4.0,29.95,1015.2,,,,,,,,,,,,,,,Clear,72000.0,,,73000.0,,,,,,
KRDR,10-13-2007,08:24,SPECI,,10,5,,,9999,,4.0,4.0,29.95,1015.2,,,,,,,,,,,,,,,Clear,72000.0,,,73000.0,,,,,,
KRDR,10-13-2007,08:00,METAR,,40,3,,,9999,,5.0,4.0,29.95,1015.2,,,,,,,,,,,,,,,Clear,72000.0,,,73000.0,,,,,,
KRDR,10-13-2007,07:00,METAR,,40,3,,,9999,,7.0,6.0,29.95,1015.0,,,,,,,,,,,,,,,2/8 Mostly Clear,72000.0,,FEW,6400.0,,,,,,
KRDR,10-13-2007,06:00,METAR,,80,5,,,9999,,8.0,6.0,29.94,1014.7,,,,,,,,,,,,,,,8/8 Overcast,6500.0,,OVC,6400.0,,,,,,
KRDR,10-13-2007,05:00,METAR,,90,5,,,9999,,9.0,7.0,29.93,1014.4,,,,,,,,,,,,,,,8/8 Overcast,6500.0,,OVC,6400.0,,,,,,
KRDR,10-13-2007,04:00,METAR,,110,4,,,9999,,9.0,7.0,29.92,1014.2,,,,,,,,,,,,,,,8/8 Overcast,6000.0,,SCT,4000.0,BKN,5900.0,OVC,25000.0,,
KRDR,10-13-2007,03:00,METAR,,100,4,,,9999,,10.0,7.0,29.92,1014.2,,,,,,,,,,,,,,,8/8 Overcast,6000.0,,SCT,4000.0,BKN,5900.0,OVC,25000.0,,
KRDR,10-13-2007,02:00,METAR,,90,4,,,9999,,10.0,7.0,29.91,1013.9,,,,,,,,,,,,,,,8/8 Overcast,6000.0,,BKN,5900.0,OVC,25000.0,,,,
KRDR,10-13-2007,01:00,METAR,,80,4,,,9999,,11.0,7.0,29.90,1013.5,,,,,,,,,,,,,,,8/8 Overcast,4900.0,,BKN,5000.0,OVC,25000.0,,,,
KRDR,10-13-2007,00:00,METAR,,100,6,,,9999,,11.0,7.0,29.90,1013.6,,,,,,,,,,,,,,,8/8 Overcast,4900.0,,OVC,5000.0,,,,,,
KRDR,10-12-2007,23:00,METAR,,120,9,,,9999,,12.0,7.0,29.90,1013.6,,,,,,,,,,,,,,,8/8 Overcast,4900.0,,BKN,5000.0,OVC,25000.0,,,,
KRDR,10-12-2007,22:00,METAR,,110,8,,,9999,,13.0,7.0,29.90,1013.6,,,,,,,,,,,,,,,8/8 Overcast,4400.0,,OVC,4500.0,,,,,,
KRDR,10-12-2007,21:00,METAR,,140,5,,,9999,,14.0,7.0,29.92,1014.0,,,,,,,,,,,,,,,7/8 Mostly Cloudy,3600.0,,FEW,2700.0,BKN,3700.0,,,,
KRDR,10-12-2007,20:00,METAR,,160,6,,,9999,,14.0,7.0,29.93,1014.3,,,,,,,,,,,,,,,7/8 Mostly Cloudy,5500.0,,FEW,2700.0,BKN,5400.0,,,,
KRDR,10-12-2007,19:00,METAR,,170,6,,,9999,,12.0,6.0,29.94,1014.7,,,,,,,,,,,,,,,7/8 Mostly Cloudy,6000.0,,BKN,5900.0,,,,,,
KRDR,10-12-2007,18:00,METAR,,160,6,,,9999,,11.0,6.0,29.95,1015.2,,,,,,,,,,,,,,,7/8 Mostly Cloudy,6000.0,,BKN,5900.0,,,,,,
KRDR,10-12-2007,17:00,METAR,,160,6,,,9999,,9.0,5.0,29.97,1015.7,,,,,,,,,,,,,,,8/8 Overcast,6000.0,,OVC,5900.0,,,,,,
KRDR,10-12-2007,16:00,METAR,,160,6,,,9999,,8.0,5.0,29.98,1016.0,,,,,,,,,,,,,,,8/8 Overcast,3500.0,,OVC,3600.0,,,,,,
KRDR,10-12-2007,13:00,METAR,,150,6,,,9999,,6.0,4.0,29.99,1016.4,,,,,,,,,,,,,,,8/8 Overcast,3100.0,,OVC,3100.0,,,,,,
KRDR,10-12-2007,12:10,SPECI,,150,4,,,9999,,6.0,4.0,29.99,,,,,,,,,,,,,,,,8/8 Overcast,3000.0,,OVC,3000.0,,,,,,
KRDR,10-12-2007,12:00,METAR,,160,5,,,9999,,6.0,4.0,30.00,1016.6,,,,,,,,,,,,,,,8/8 Overcast,2900.0,,BKN,2900.0,OVC,5900.0,,,,
KRDR,10-12-2007,11:00,METAR,,170,6,,,9999,,6.0,4.0,30.00,1016.6,,,,,,,,,,,,,,,8/8 Overcast,2900.0,,OVC,2900.0,,,,,,
KRDR,10-12-2007,10:00,METAR,,150,6,,,9999,,6.0,4.0,29.99,,,,,,,,,,,,,,,,8/8 Overcast,2800.0,,BKN,2800.0,OVC,5400.0,,,,
KRDR,10-12-2007,09:55,METAR,,150,6,,,9999,,6.0,4.0,29.99,1016.4,,,,,,,,,,,,,,,7/8 Mostly Cloudy,2500.0,,FEW,2800.0,BKN,5400.0,,,,
KRDR,10-12-2007,09:26,SPECI,,130,6,,,9999,,6.0,4.0,30.00,1016.7,,,,,,,,,,,,,,,7/8 Mostly Cloudy,3000.0,,BKN,3000.0,,,,,,
KRDR,10-12-2007,09:00,METAR,,140,5,,,9999,,6.0,4.0,30.01,1017.1,,,,,,,,,,,,,,,8/8 Overcast,2500.0,,OVC,2500.0,,,,,,
KRDR,10-12-2007,08:00,METAR,,170,7,,,9999,,6.0,4.0,30.02,1017.3,,,,,,,,,,,,,,,8/8 Overcast,2700.0,,OVC,2700.0,,,,,,
KRDR,10-12-2007,07:34,SPECI,,160,6,,,9999,,6.0,4.0,30.02,1017.4,,,,,,,,,,,,,,,8/8 Overcast,2900.0,,FEW,1700.0,OVC,2900.0,,,,
KRDR,10-12-2007,07:19,SPECI,,150,6,,,9999,,6.0,4.0,30.02,1017.5,,,,,,,,,,,,,,,7/8 Mostly Cloudy,3000.0,,BKN,3000.0,,,,,,
KRDR,10-12-2007,07:13,SPECI,,150,4,,,9999,,6.0,4.0,30.02,1017.5,,,,,,,,,,,,,,,7/8 Mostly Cloudy,2900.0,,BKN,2900.0,,,,,,
KRDR,10-12-2007,07:11,SPECI,,150,5,,,9999,,6.0,4.0,30.02,1017.5,,,,,,,,,,,,,,,7/8 Mostly Cloudy,3000.0,,BKN,3000.0,,,,,,
KRDR,10-12-2007,07:07,SPECI,,150,5,,,9999,,6.0,4.0,30.02,1017.5,,,,,,,,,,,,,,,7/8 Mostly Cloudy,2900.0,,BKN,2900.0,,,,,,
KRDR,10-12-2007,07:00,METAR,,150,6,,,9999,,6.0,4.0,30.03,1017.6,,,,,,,,,,,,,,,2/8 Mostly Clear,72000.0,,FEW,2500.0,,,,,,
KRDR,10-12-2007,06:05,SPECI,,150,5,,,9999,,6.0,4.0,30.04,1018.2,,,,,,,,,,,,,,,4/8 Partly Cloudy,72000.0,,SCT,2500.0,,,,,,
KRDR,10-12-2007,06:00,METAR,,150,4,,,9999,,6.0,4.0,30.05,1018.3,,,,,,,,,,,,,,,8/8 Overcast,2000.0,,OVC,2500.0,,,,,,
KRDR,10-12-2007,05:00,METAR,,140,5,,,9999,,6.0,4.0,30.05,1018.5,,,,,,,,,,,,,,,8/8 Overcast,2400.0,,OVC,2400.0,,,,,,
KRDR,10-12-2007,04:00,METAR,,130,6,,,9999,,6.0,4.0,30.05,1018.5,,,,,,,,,,,,,,,8/8 Overcast,2400.0,,OVC,2400.0,,,,,,
KRDR,10-12-2007,03:00,METAR,,120,5,,,9999,,6.0,4.0,30.06,1018.7,,,,,,,,,,,,,,,8/8 Overcast,2300.0,,OVC,2300.0,,,,,,
KRDR,10-12-2007,02:00,METAR,,130,7,,,9999,,6.0,4.0,30.07,1019.1,,,,,,,,,,,,,,,8/8 Overcast,1900.0,,OVC,1900.0,,,,,,
KRDR,10-12-2007,01:00,METAR,,130,7,,,9999,,6.0,4.0,30.08,1019.2,,,,,,,,,,,,,,,8/8 Overcast,1800.0,,OVC,1800.0,,,,,,
KRDR,10-12-2007,00:00,METAR,,130,4,,,9999,,7.0,4.0,30.08,1019.3,,,,,,,,,,,TRACE,,TRACE,,8/8 Overcast,1900.0,,OVC,1900.0,,,,,,
KRDR,10-11-2007,23:10,SPECI,,130,7,,,9999,,7.0,4.0,30.07,,,,,,,,,,,,,,,,8/8 Overcast,1900.0,,OVC,1900.0,,,,,,
KRDR,10-11-2007,23:01,SPECI,,110,5,,,9999,Rain,7.0,4.0,30.08,,,,,61,,,,,,,,,,,8/8 Overcast,1900.0,,OVC,1900.0,,,,,,
KRDR,10-11-2007,23:00,METAR,,120,5,,,9999,,7.0,4.0,30.09,1019.6,,,,,,,,,,,,,,,8/8 Overcast,1900.0,,OVC,1900.0,,,,,,
KRDR,10-11-2007,22:00,METAR,,110,7,,,9999,,7.0,4.0,30.09,1019.7,,,,,,,,,,,,,,,8/8 Overcast,2000.0,,OVC,2000.0,,,,,,
KRDR,10-11-2007,21:00,METAR,,130,8,,,9999,,7.0,4.0,30.10,1020.0,,,,,,,,,,,,,,,8/8 Overcast,1500.0,,OVC,1500.0,,,,,,
KRDR,10-11-2007,20:00,METAR,,140,7,,,9999,,7.0,4.0,30.11,1020.5,,,,,,,,,,,,,,,8/8 Overcast,1700.0,,OVC,1700.0,,,,,,
KRDR,10-11-2007,19:00,METAR,,120,9,,,9999,,7.0,3.0,30.13,1020.9,,,,,,,,,,,,,,,8/8 Overcast,1600.0,,OVC,1600.0,,,,,,
KRDR,10-11-2007,18:00,METAR,,150,11,,,9999,,7.0,3.0,30.16,1021.8,,,,,,,,,,,TRACE,,TRACE,,8/8 Overcast,1800.0,,OVC,1800.0,,,,,,
KRDR,10-11-2007,17:00,METAR,,160,9,,,9999,,6.0,4.0,30.19,1023.0,,,,,,,,,,,,,,,8/8 Overcast,1900.0,,SCT,1000.0,OVC,1900.0,,,,
KRDR,10-11-2007,16:00,METAR,,130,10,,,9999,,6.0,4.0,30.20,1023.2,,,,,,,,,,,,,,,8/8 Overcast,1000.0,,BKN,1000.0,OVC,1900.0,,,,
KRDR,10-11-2007,15:00,METAR,,120,10,,,9999,Mist,5.0,4.0,30.21,1023.7,,,,10,,,,,,,TRACE,TRACE,,,8/8 Overcast,500.0,,OVC,1000.0,,,,,,
KRDR,10-11-2007,14:12,SPECI,,130,11,,,9999,,5.0,4.0,30.21,,,,,,,,,,,,,,,,8/8 Overcast,2200.0,,SCT,600.0,OVC,2200.0,,,,
KRDR,10-11-2007,14:00,METAR,,130,10,,,9999,,5.0,4.0,30.21,1023.8,,,,,,,,,,,TRACE,,,,8/8 Overcast,2000.0,,FEW,600.0,OVC,2000.0,,,,
KRDR,10-11-2007,13:06,SPECI,,130,8,,,9999,,5.0,4.0,30.22,,,,,,,,,,,,,,,,7/8 Mostly Cloudy,1600.0,,BKN,1600.0,,,,,,
KRDR,10-11-2007,13:00,METAR,,140,8,,,8000,Drizzle/Mist,5.0,4.0,30.22,1024.0,,,,51,10,,,,,,TRACE,,,,8/8 Overcast,1200.0,,FEW,700.0,BKN,1200.0,OVC,2000.0,,
KRDR,10-11-2007,12:45,METAR,,140,8,,,4800,Drizzle/Mist,5.0,4.0,30.22,,,,,51,10,,,,,,,,,,8/8 Overcast,2000.0,,FEW,200.0,SCT,1200.0,OVC,2000.0,,
KRDR,10-11-2007,12:00,METAR,,110,6,,,9999,,5.0,4.0,30.22,1024.0,,,,,,,,,,,,,TRACE,,8/8 Overcast,1900.0,,OVC,1900.0,,,,,,
KRDR,10-11-2007,11:00,METAR,,120,6,,,9999,Drizzle,5.0,4.0,30.24,1024.6,,,,51,,,,,,,,,,,8/8 Overcast,1700.0,,OVC,1700.0,,,,,,
KRDR,10-11-2007,10:08,SPECI,,130,5,,,9999,,5.0,4.0,30.24,1024.8,,,,,,,,,,,,,,,8/8 Overcast,400.0,,OVC,1500.0,,,,,,
KRDR,10-11-2007,10:00,METAR,,140,5,,,9999,,5.0,3.0,30.25,1024.9,,,,,,,,,,,,,,,8/8 Overcast,1500.0,,FEW,700.0,OVC,1500.0,,,,
KRDR,10-11-2007,09:54,SPECI,,140,5,,,9999,,5.0,3.0,30.25,1024.8,,,,,,,,,,,,,,,8/8 Overcast,1800.0,,FEW,600.0,SCT,1100.0,OVC,1800.0,,
KRDR,10-11-2007,09:00,METAR,,140,5,,,9999,,5.0,3.0,30.24,1024.8,,,,,,,,,,,,TRACE,,,8/8 Overcast,1700.0,,OVC,1700.0,,,,,,
KRDR,10-11-2007,08:00,METAR,,130,5,,,9999,,5.0,3.0,30.26,1025.2,,,,,,,,,,,TRACE,,,,8/8 Overcast,1600.0,,OVC,1600.0,,,,,,
KRDR,10-11-2007,07:17,SPECI,,130,3,,,9999,,5.0,3.0,30.26,1025.4,,,,,,,,,,,,,,,8/8 Overcast,1500.0,,OVC,1500.0,,,,,,
KRDR,10-11-2007,07:07,SPECI,,110,4,,,9999,Unknown Precipitation,5.0,3.0,30.26,1025.3,40,,,,,,,,,,,,,,8/8 Overcast,1500.0,,OVC,1500.0,,,,,,
KRDR,10-11-2007,07:00,METAR,,110,4,,,9999,,6.0,3.0,30.26,1025.4,,,,,,,,,,,,,,,8/8 Overcast,1500.0,,OVC,1500.0,,,,,,
KRDR,10-11-2007,06:21,SPECI,,120,6,,,9999,,6.0,3.0,30.26,1025.3,,,,,,,,,,,,,,,8/8 Overcast,1600.0,,FEW,600.0,OVC,1600.0,,,,
KRDR,10-11-2007,06:00,METAR,,110,5,,,9999,,6.0,2.0,30.26,1025.2,,,,,,,,,,,,,,,8/8 Overcast,1600.0,,OVC,1600.0,,,,,,
KRDR,10-11-2007,05:00,METAR,,110,4,,,9999,,6.0,2.0,30.27,1025.5,,,,,,,,,,,,,,,8/8 Overcast,1800.0,,OVC,1800.0,,,,,,
KRDR,10-11-2007,04:00,METAR,,110,8,,,9999,,6.0,2.0,30.27,1025.6,,,,,,,,,,,,,,,8/8 Overcast,2000.0,,OVC,2000.0,,,,,,
KRDR,10-11-2007,03:00,METAR,,90,10,,,9999,,5.0,2.0,30.27,1025.8,,,,,,,,,,,,,,,8/8 Overcast,2100.0,,OVC,2100.0,,,,,,
KRDR,10-11-2007,02:00,METAR,,50,5,,,9999,,5.0,2.0,30.29,1026.2,,,,,,,,,,,,,,,8/8 Overcast,2300.0,,OVC,2300.0,,,,,,
KRDR,10-11-2007,01:00,METAR,,30,5,,,9999,,5.0,2.0,30.30,1026.6,,,,,,,,,,,,,,,8/8 Overcast,1800.0,,OVC,1800.0,,,,,,
KRDR,10-11-2007,00:00,METAR,,40,8,,,9999,,5.0,1.0,30.30,1026.7,,,,,,,,,,,,,,,8/8 Overcast,1900.0,,OVC,1900.0,,,,,,
KRDR,10-10-2007,23:00,METAR,,30,7,,,9999,,5.0,1.0,30.31,1027.0,,,,,,,,,,,,,,,8/8 Overcast,1600.0,,OVC,1600.0,,,,,,
KRDR,10-10-2007,22:00,METAR,,30,11,,,9999,,5.0,1.0,30.31,1027.1,,,,,,,,,,,,,,,8/8 Overcast,1600.0,,OVC,1600.0,,,,,,
KRDR,10-10-2007,21:00,METAR,,20,10,,,9999,,4.0,1.0,30.32,1027.3,,,,,,,,,,,,,,,8/8 Overcast,1400.0,,OVC,1400.0,,,,,,
KRDR,10-10-2007,20:00,METAR,,10,11,,,9999,,4.0,1.0,30.33,1027.5,,,,,,,,,,,,,,,8/8 Overcast,1300.0,,OVC,1300.0,,,,,,
KRDR,10-10-2007,19:32,SPECI,,20,11,,,9999,,5.0,1.0,30.32,,,,,,,,,,,,,,,,8/8 Overcast,1200.0,,OVC,1200.0,,,,,,
KRDR,10-10-2007,19:00,METAR,,10,12,,,9999,,5.0,1.0,30.33,1027.7,,,,,,,,,,,,,,,8/8 Overcast,1200.0,,OVC,1200.0,,,,,,
KRDR,10-10-2007,18:00,METAR,,360,11,,,9999,,5.0,2.0,30.34,1028.0,,,,,,,,,,,,,TRACE,,8/8 Overcast,1300.0,,OVC,1300.0,,,,,,
KRDR,10-10-2007,17:00,METAR,,20,14,,,9999,,5.0,1.0,30.35,1028.2,,,,,,,,,,,,,,,8/8 Overcast,1600.0,,OVC,1600.0,,,,,,
KRDR,10-10-2007,16:00,METAR,,20,12,,,9999,,4.0,1.0,30.35,1028.4,,,,,,,,,,,,,,,8/8 Overcast,1200.0,,OVC,1200.0,,,,,,
KRDR,10-10-2007,15:00,METAR,,360,13,,,9999,,4.0,1.0,30.35,1028.3,,,,,,,,,,,,TRACE,,,8/8 Overcast,1300.0,,OVC,1300.0,,,,,,
KRDR,10-10-2007,14:00,METAR,,10,11,,,9999,,4.0,1.0,30.35,1028.1,,,,,,,,,,,,,,,8/8 Overcast,1400.0,,OVC,1400.0,,,,,,
KRDR,10-10-2007,13:00,METAR,,10,11,17.0,,9999,,4.0,1.0,30.34,1027.9,,,,,,,,,,,TRACE,,,,8/8 Overcast,1500.0,,OVC,1500.0,,,,,,
KRDR,10-10-2007,12:18,SPECI,,10,13,20.0,,9999,,4.0,1.0,30.34,,,,,,,,,,,,,,,,8/8 Overcast,1700.0,,OVC,1700.0,,,,,,
KRDR,10-10-2007,12:09,SPECI,,10,16,20.0,,9999,Rain,4.0,1.0,30.34,,,,,61,,,,,,,,,,,8/8 Overcast,1700.0,,OVC,1700.0,,,,,,
KRDR,10-10-2007,12:00,METAR,,360,12,,,9999,,4.0,1.0,30.34,1027.8,,,,,,,,,,,,,TRACE,,7/8 Mostly Cloudy,1700.0,,BKN,1700.0,,,,,,
KRDR,10-10-2007,11:00,METAR,,360,12,18.0,,9999,,5.0,2.0,30.33,1027.6,,,,,,,,,,,,,,,8/8 Overcast,1700.0,,OVC,1700.0,,,,,,
KRDR,10-10-2007,10:00,METAR,,350,12,,,9999,,5.0,2.0,30.32,1027.3,,,,,,,,,,,,,,,8/8 Overcast,2000.0,,OVC,2000.0,,,,,,
KRDR,10-10-2007,09:00,METAR,,350,12,17.0,,9999,,5.0,2.0,30.32,1027.3,,,,,,,,,,,TRACE,TRACE,,,8/8 Overcast,1800.0,,OVC,1800.0,,,,,,
KRDR,10-10-2007,08:08,SPECI,,350,13,20.0,,9999,,5.0,2.0,30.32,1027.2,,,,,,,,,,,,,,,8/8 Overcast,1800.0,,OVC,1800.0,,,,,,
KRDR,10-10-2007,08:00,METAR,,350,12,22.0,,9999,,5.0,2.0,30.32,1027.2,,,,,,,,,,,TRACE,,,,8/8 Overcast,1400.0,,OVC,1400.0,,,,,,
KRDR,10-10-2007,07:49,SPECI,,350,15,22.0,,9999,,5.0,2.0,30.32,1027.1,,,,,,,,,,,,,,,8/8 Overcast,1400.0,,OVC,1400.0,,,,,,
KRDR,10-10-2007,07:47,SPECI,,350,12,22.0,,9999,,5.0,2.0,30.32,1027.2,,,,,,,,,,,,,,,8/8 Overcast,1400.0,,OVC,1400.0,,,,,,
KRDR,10-10-2007,07:00,METAR,,340,11,,,9999,,5.0,2.0,30.31,1026.8,,,,,,,,,,,,,,,8/8 Overcast,2200.0,,OVC,2200.0,,,,,,
KRDR,10-10-2007,06:14,SPECI,,350,11,,,9999,,4.0,1.0,30.30,1026.6,,,,,,,,,,,,,,,7/8 Mostly Cloudy,2600.0,,BKN,2600.0,,,,,,
KRDR,10-10-2007,06:00,METAR,,350,11,,,9999,,4.0,1.0,30.30,1026.6,,,,,,,,,,,,,TRACE,,Clear,72000.0,,,73000.0,,,,,,
KRDR,10-10-2007,05:00,METAR,,350,13,21.0,,9999,,5.0,2.0,30.29,1026.3,,,,,,,,,,,,,,,Clear,72000.0,,,73000.0,,,,,,
KRDR,10-10-2007,04:00,METAR,,360,12,17.0,,9999,,5.0,3.0,30.28,1026.1,,,,,,,,,,,,,,,7/8 Mostly Cloudy,3500.0,,BKN,3600.0,,,,,,
KRDR,10-10-2007,03:00,METAR,,350,14,21.0,,9999,,6.0,4.0,30.28,1025.9,,,,,,,,,,,TRACE,TRACE,,,7/8 Mostly Cloudy,3300.0,,FEW,400.0,SCT,2800.0,BKN,3400.0,,
KRDR,10-10-2007,02:46,SPECI,,350,15,21.0,,9999,,6.0,5.0,30.28,,,,,,,,,,,,,,,,7/8 Mostly Cloudy,3200.0,,FEW,400.0,SCT,2700.0,BKN,3300.0,,
KRDR,10-10-2007,02:34,SPECI,,360,15,20.0,,9999,Rain/Mist,6.0,5.0,30.28,,,,,61,10,,,,,,,,,,8/8 Overcast,3000.0,,SCT,400.0,SCT,1400.0,OVC,3000.0,,
KRDR,10-10-2007,02:23,SPECI,,10,17,21.0,,9999,,6.0,5.0,30.28,,,,,,,,,,,,,,,,7/8 Mostly Cloudy,3000.0,,SCT,1100.0,BKN,3000.0,,,,
KRDR,10-10-2007,02:17,SPECI,,20,14,21.0,,9999,Rain,7.0,4.0,30.27,,,,,61,,,,,,,,,,,7/8 Mostly Cloudy,3300.0,,FEW,1500.0,SCT,2900.0,BKN,3400.0,,
KRDR,10-10-2007,02:00,METAR,,10,14,,,9999,,8.0,3.0,30.26,1025.3,,,,,,,,,,,,,,,8/8 Overcast,3300.0,,OVC,3400.0,,,,,,
KRDR,10-10-2007,01:00,METAR,,360,17,23.0,,9999,,8.0,3.0,30.24,1024.7,,,,,,,,,,,,,,,8/8 Overcast,3700.0,,SCT,2700.0,OVC,3800.0,,,,
KRDR,10-09-2007,22:00,METAR,,340,23,26.0,340/30KTS,9999,,11.0,4.0,30.19,1023.2,,,,,,,,,,,,,,,7/8 Mostly Cloudy,3600.0,,SCT,2800.0,BKN,3700.0,,,,
KRDR,10-09-2007,21:00,METAR,,340,15,21.0,,9999,,10.0,4.0,30.18,1023.1,,,,,,,,,,,,,,,7/8 Mostly Cloudy,3300.0,,SCT,2800.0,BKN,3400.0,,,,
KRDR,10-09-2007,20:26,SPECI,,340,20,,,9999,,10.0,4.0,30.19,,,,,,,,,,,,,,,,7/8 Mostly Cloudy,2900.0,,BKN,2900.0,BKN,3500.0,,,,
KRDR,10-09-2007,20:00,METAR,,340,21,28.0,350/28KTS,9999,,10.0,3.0,30.19,1023.2,,,,,,,,,,,,,,,7/8 Mostly Cloudy,2800.0,,BKN,2800.0,BKN,3500.0,,,,
KRDR,10-09-2007,18:00,METAR,,330,16,22.0,330/26KTS,9999,,8.0,3.0,30.17,1022.4,,,,,,,,,,,,,,,7/8 Mostly Cloudy,2800.0,,SCT,2000.0,BKN,2800.0,,,,
KRDR,10-09-2007,17:00,METAR,,320,18,26.0,340/26KTS,9999,,8.0,3.0,30.16,1022.4,,,,,,,,,,,,,,,7/8 Mostly Cloudy,2700.0,,SCT,2000.0,BKN,2700.0,,,,
KRDR,10-09-2007,16:00,METAR,,320,15,23.0,330/26KTS,9999,,7.0,3.0,30.14,1021.9,,,,,,,,,,,,,,,7/8 Mostly Cloudy,2200.0,,BKN,2200.0,BKN,3000.0,,,,
KRDR,10-09-2007,15:00,METAR,,330,16,25.0,,9999,,6.0,2.0,30.11,1020.7,,,,,,,,,,,,,,,7/8 Mostly Cloudy,2000.0,,BKN,2000.0,BKN,2600.0,,,,
KRDR,10-09-2007,14:00,METAR,,320,16,25.0,340/28KTS,9999,,6.0,2.0,30.09,1020.0,,,,,,,,,,,,,,,7/8 Mostly Cloudy,2000.0,,BKN,2000.0,BKN,2600.0,,,,
KRDR,10-09-2007,13:00,METAR,,330,14,,330/27KTS,9999,,5.0,2.0,30.06,1018.6,,,,,,,,,,,,,,,8/8 Overcast,2100.0,,OVC,2100.0,,,,,,
KRDR,10-09-2007,12:00,METAR,,320,15,24.0,,9999,,5.0,2.0,30.02,1017.5,,,,,,,,,,,,,,.85 IN,7/8 Mostly Cloudy,1900.0,,BKN,1900.0,,,,,,
KRDR,10-09-2007,11:45,METAR,,310,16,24.0,,9999,,5.0,2.0,30.02,1017.2,,,,,,,,,,,,,,,7/8 Mostly Cloudy,2000.0,,BKN,2000.0,,,,,,
KRDR,10-09-2007,11:00,METAR,,310,16,22.0,,9999,,4.0,1.0,29.99,1016.5,,,,,,,,,,,,,,,2/8 Mostly Clear,72000.0,,FEW,3000.0,FEW,5900.0,,,,
KRDR,10-09-2007,10:00,METAR,,320,16,22.0,,9999,,4.0,1.0,29.97,1015.8,,,,,,,,,,,,,,,2/8 Mostly Clear,72000.0,,FEW,2000.0,FEW,20000.0,,,,
KRDR,10-09-2007,09:00,METAR,,320,15,21.0,320/26KTS,9999,,4.0,1.0,29.94,1014.7,,,,,,,,,,,,,,,Clear,72000.0,,,73000.0,,,,,,
KRDR,10-09-2007,08:28,SPECI,,320,17,26.0,320/26KTS,9999,,4.0,2.0,29.93,1014.4,,,,,,,,,,,,,,,4/8 Partly Cloudy,72000.0,,SCT,1700.0,,,,,,
KRDR,10-09-2007,08:00,METAR,,310,15,24.0,,9999,,5.0,2.0,29.92,1014.0,,,,,,,,,,,,,,,8/8 Overcast,1300.0,,OVC,1500.0,,,,,,
KRDR,10-09-2007,07:46,SPECI,,310,17,23.0,,9999,,5.0,2.0,29.92,1013.9,,,,,,,,,,,,,,,8/8 Overcast,1300.0,,OVC,1500.0,,,,,,
KRDR,10-09-2007,07:40,SPECI,,320,13,21.0,,9999,,5.0,3.0,29.92,1013.9,,,,,,,,,,,,,,,8/8 Overcast,1300.0,,OVC,1400.0,,,,,,
KRDR,10-09-2007,07:08,SPECI,,310,18,23.0,,9999,,5.0,2.0,29.90,1013.4,,,,,,,,,,,,,,,8/8 Overcast,2300.0,,OVC,2900.0,,,,,,
KRDR,10-09-2007,07:00,METAR,,300,12,17.0,,9999,,5.0,3.0,29.90,1013.4,,,,,,,,,,,,,,,8/8 Overcast,1400.0,,OVC,2500.0,,,,,,
KRDR,10-09-2007,06:36,SPECI,,310,12,20.0,,9999,,5.0,3.0,29.90,1013.3,,,,,,,,,,,,,,,7/8 Mostly Cloudy,2000.0,,BKN,2600.0,,,,,,
KRDR,10-09-2007,06:07,SPECI,,300,15,19.0,,9999,,5.0,3.0,29.88,1012.8,,,,,,,,,,,,,,,8/8 Overcast,2500.0,,OVC,3600.0,,,,,,
KRDR,10-09-2007,06:03,SPECI,,310,15,19.0,,9999,,5.0,3.0,29.88,1012.8,,,,,,,,,,,,,,,8/8 Overcast,1200.0,,OVC,1500.0,,,,,,
KRDR,10-09-2007,06:00,METAR,,310,12,,,9999,,5.0,3.0,29.88,1012.7,,,,,,,,,,,TRACE,,.35 IN,,8/8 Overcast,1300.0,,OVC,1300.0,,,,,,
KRDR,10-09-2007,05:47,SPECI,,310,11,,,9999,,5.0,3.0,29.88,1012.7,,,,,,,,,,,,,,,8/8 Overcast,1100.0,,OVC,1100.0,,,,,,
KRDR,10-09-2007,05:31,SPECI,,320,11,,,9999,Drizzle,5.0,3.0,29.88,1012.7,,,,51,,,,,,,,,,,8/8 Overcast,1100.0,,OVC,1400.0,,,,,,
KRDR,10-09-2007,05:03,SPECI,,310,13,21.0,,9999,,5.0,3.0,29.87,1012.3,,,,,,,,,,,,,,,8/8 Overcast,2300.0,,OVC,2900.0,,,,,,
KRDR,10-09-2007,05:00,METAR,,310,15,21.0,,9999,,5.0,3.0,29.87,1012.3,,,,,,,,,,,,,,,8/8 Overcast,2200.0,,OVC,3000.0,,,,,,
KRDR,10-09-2007,04:55,METAR,,310,11,,,9999,Drizzle,5.0,3.0,29.87,1012.3,,,,51,,,,,,,,,,,8/8 Overcast,1300.0,,OVC,2800.0,,,,,,
KRDR,10-09-2007,04:53,SPECI,,310,10,,,9999,,5.0,3.0,29.87,1012.3,,,,,,,,,,,,,,,8/8 Overcast,1200.0,,OVC,2900.0,,,,,,
KRDR,10-09-2007,04:00,METAR,,310,7,,,9999,,5.0,4.0,29.85,1011.9,,,,,,,,,,,.03 IN,,,,8/8 Overcast,3100.0,,OVC,3200.0,,,,,,
KRDR,10-09-2007,03:44,SPECI,,300,8,,,9999,,5.0,4.0,29.85,1011.8,,,,,,,,,,,,,,,8/8 Overcast,3100.0,,OVC,3200.0,,,,,,
KRDR,10-09-2007,03:36,SPECI,,310,9,,,9999,Rain,5.0,4.0,29.85,1011.7,,,,61,,,,,,,,,,,7/8 Mostly Cloudy,900.0,,BKN,1700.0,,,,,,
KRDR,10-09-2007,03:32,SPECI,,310,9,,,9999,Rain,5.0,4.0,29.85,1011.8,,,,61,,,,,,,,,,,7/8 Mostly Cloudy,1100.0,,BKN,1100.0,,,,,,
KRDR,10-09-2007,03:00,METAR,,320,8,,,9999,Rain,5.0,4.0,29.85,1011.7,,,,63,,,,,,,.09 IN,.32 IN,,,2/8 Mostly Clear,72000.0,,FEW,1100.0,,,,,,
KRDR,10-09-2007,02:15,SPECI,,330,10,,,9999,Rain,6.0,4.0,29.84,1011.4,,,,63,,,,,,,,,,,2/8 Mostly Clear,72000.0,,FEW,1100.0,,,,,,
KRDR,10-09-2007,02:04,SPECI,,320,10,,,9999,Rain,6.0,5.0,29.84,1011.3,,,,63,,,,,,,,,,,8/8 Overcast,800.0,,OVC,2400.0,,,,,,
KRDR,10-09-2007,02:01,SPECI,,320,9,,,9999,Rain,6.0,5.0,29.84,1011.3,,,,63,,,,,,,,,,,2/8 Mostly Clear,72000.0,,FEW,800.0,,,,,,
KRDR,10-09-2007,02:00,METAR,,320,8,,,9999,Rain,6.0,5.0,29.84,1011.3,,,,63,,,,,,,.15 IN,,,,7/8 Mostly Cloudy,1800.0,,BKN,1800.0,,,,,,
KRDR,10-09-2007,01:54,SPECI,,320,9,,,9999,Rain,6.0,5.0,29.84,1011.3,,,,63,,,,,,,,,,,2/8 Mostly Clear,72000.0,,FEW,1000.0,,,,,,
KRDR,10-09-2007,01:32,SPECI,,320,12,16.0,,9999,Rain,6.0,5.0,29.84,1011.4,,,,63,,,,,,,,,,,7/8 Mostly Cloudy,800.0,,BKN,1800.0,,,,,,
KRDR,10-09-2007,01:25,METAR,,310,12,16.0,,9999,Rain,7.0,6.0,29.84,1011.3,,,,63,,,,,,,,,,,2/8 Mostly Clear,72000.0,,FEW,1000.0,,,,,,
KRDR,10-09-2007,01:20,METAR,,320,8,,,9999,Rain,7.0,6.0,29.83,1011.3,,,,63,,,,,,,,,,,2/8 Mostly Clear,72000.0,,FEW,1000.0,,,,,,
KRDR,10-09-2007,01:11,SPECI,,310,8,,,9999,Rain,7.0,6.0,29.83,1011.2,,,,63,,,,,,,,,,,2/8 Mostly Clear,72000.0,,FEW,800.0,,,,,,
KRDR,10-09-2007,01:07,SPECI,,310,9,,,9999,Rain,7.0,6.0,29.83,1011.1,,,,63,,,,,,,,,,,2/8 Mostly Clear,72000.0,,FEW,1900.0,,,,,,
KRDR,10-09-2007,01:04,SPECI,,310,7,,,9999,Rain,7.0,6.0,29.83,1011.1,,,,63,,,,,,,,,,,2/8 Mostly Clear,72000.0,,FEW,800.0,,,,,,
KRDR,10-09-2007,01:01,SPECI,,310,8,,,9999,Rain,7.0,6.0,29.83,1011.1,,,,63,,,,,,,,,,,2/8 Mostly Clear,72000.0,,FEW,700.0,,,,,,
KRDR,10-09-2007,01:00,METAR,,300,6,,,9999,Rain,7.0,6.0,29.83,1011.1,,,,61,,,,,,,.08 IN,,,,2/8 Mostly Clear,72000.0,,FEW,2100.0,,,,,,
KRDR,10-09-2007,00:46,SPECI,,300,6,,,9999,Rain,7.0,6.0,29.83,1011.0,,,,63,,,,,,,,,,,2/8 Mostly Clear,72000.0,,FEW,1200.0,,,,,,
KRDR,10-09-2007,00:44,SPECI,,300,7,,,9999,Rain,7.0,6.0,29.83,1011.0,,,,63,,,,,,,,,,,2/8 Mostly Clear,72000.0,,FEW,1200.0,,,,,,
KRDR,10-09-2007,00:30,METAR,,300,9,,,9999,Rain,7.0,6.0,29.82,1010.8,,,,63,,,,,,,,,,,8/8 Overcast,2600.0,,OVC,2600.0,,,,,,
KRDR,10-09-2007,00:21,SPECI,,300,7,,,9999,Rain,7.0,6.0,29.82,1010.7,,,,63,,,,,,,,,,,8/8 Overcast,2600.0,,OVC,2600.0,,,,,,
KRDR,10-09-2007,00:03,SPECI,,300,9,,,9999,Rain,7.0,6.0,29.81,1010.5,,,,63,,,,,,,,,,,8/8 Overcast,2700.0,,OVC,2700.0,,,,,,
KRDR,10-09-2007,00:00,METAR,,300,7,,,9999,Rain,7.0,6.0,29.81,1010.5,,,,61,,,,,,,.06 IN,,.1 IN,,2/8 Mostly Clear,72000.0,,FEW,1600.0,,,,,,
KRDR,10-08-2007,23:00,METAR,,290,9,,,9999,Rain,7.0,6.0,29.80,1010.3,,,,61,,,,,,,.03 IN,,,,2/8 Mostly Clear,72000.0,,FEW,3500.0,,,,,,
KRDR,10-08-2007,22:03,SPECI,,290,11,17.0,,9999,Rain,8.0,6.0,29.81,1010.3,,,,61,,,,,,,,,,,4/8 Partly Cloudy,72000.0,,SCT,1500.0,,,,,,
KRDR,10-08-2007,22:00,METAR,,280,13,,,9999,Rain,8.0,5.0,29.81,1010.3,,,,61,,,,,,,.01 IN,,,,8/8 Overcast,1400.0,,OVC,1400.0,,,,,,
KRDR,10-08-2007,21:20,METAR,,280,13,,,9999,Drizzle,8.0,6.0,29.79,1010.0,,,,51,,,,,,,,,,,8/8 Overcast,1100.0,,OVC,1400.0,,,,,,
KRDR,10-08-2007,21:13,SPECI,,290,12,,,9999,Drizzle,8.0,6.0,29.79,1009.9,,,,51,,,,,,,,,,,8/8 Overcast,1200.0,,OVC,1600.0,,,,,,
KRDR,10-08-2007,21:00,METAR,,290,15,,,9999,,8.0,6.0,29.79,1009.8,,,,,,,,,,,,TRACE,,,7/8 Mostly Cloudy,2200.0,,BKN,3300.0,,,,,,
KRDR,10-08-2007,20:46,SPECI,,300,15,,,9999,,8.0,5.0,29.79,1009.8,,,,,,,,,,,,,,,8/8 Overcast,3000.0,,OVC,3000.0,,,,,,
KRDR,10-08-2007,20:41,SPECI,,290,12,,,9999,,8.0,5.0,29.79,1009.8,,,,,,,,,,,,,,,8/8 Overcast,1400.0,,OVC,2900.0,,,,,,
KRDR,10-08-2007,20:22,SPECI,,290,12,,,9999,,8.0,6.0,29.78,1009.6,,,,,,,,,,,,,,,8/8 Overcast,3100.0,,OVC,3100.0,,,,,,
KRDR,10-08-2007,20:19,SPECI,,280,10,,,9999,,8.0,6.0,29.78,1009.5,,,,,,,,,,,,,,,8/8 Overcast,1100.0,,OVC,2900.0,,,,,,
KRDR,10-08-2007,20:15,SPECI,,290,12,,,9999,,8.0,5.0,29.78,1009.5,,,,,,,,,,,,,,,8/8 Overcast,3100.0,,OVC,3200.0,,,,,,
KRDR,10-08-2007,20:01,SPECI,,290,13,,,9999,,8.0,5.0,29.79,1009.9,,,,,,,,,,,,,,,8/8 Overcast,1100.0,,OVC,2900.0,,,,,,
KRDR,10-08-2007,20:00,METAR,,290,9,,,9999,,8.0,6.0,29.80,1010.1,,,,,,,,,,,,,,,8/8 Overcast,4000.0,,OVC,4100.0,,,,,,
KRDR,10-08-2007,19:00,METAR,,300,11,19.0,,9999,,8.0,6.0,29.81,1010.3,,,,,,,,,,,TRACE,,,,7/8 Mostly Cloudy,1100.0,,FEW,800.0,BKN,1900.0,,,,
KRDR,10-08-2007,18:40,SPECI,,300,13,20.0,,9999,,8.0,6.0,29.81,1010.3,,,,,,,,,,,,,,,8/8 Overcast,1100.0,,FEW,500.0,OVC,1100.0,,,,
KRDR,10-08-2007,18:33,SPECI,,290,13,18.0,,9999,,8.0,6.0,29.80,1010.2,,,,,,,,,,,,,,,8/8 Overcast,1100.0,,FEW,500.0,OVC,1100.0,,,,
KRDR,10-08-2007,18:30,METAR,,290,11,,,9999,Drizzle,8.0,6.0,29.80,1010.2,,,,51,,,,,,,,,,,8/8 Overcast,1100.0,,OVC,1100.0,,,,,,
KRDR,10-08-2007,18:24,SPECI,,280,11,19.0,,9999,,7.0,6.0,29.80,1010.2,,,,,,,,,,,,,,,8/8 Overcast,900.0,,OVC,900.0,,,,,,
KRDR,10-08-2007,18:09,SPECI,,280,12,,,9999,,7.0,6.0,29.81,1010.5,,,,,,,,,,,,,,,8/8 Overcast,900.0,,OVC,900.0,,,,,,
KRDR,10-08-2007,18:00,METAR,,270,10,,,9999,Drizzle,7.0,6.0,29.80,1010.1,,,,51,,,,,,,,,.4 IN,,8/8 Overcast,1000.0,,BKN,1000.0,OVC,2000.0,,,,
KRDR,10-08-2007,17:39,SPECI,,290,8,,,9999,,7.0,6.0,29.81,1010.4,,,,,,,,,,,,,,,7/8 Mostly Cloudy,800.0,,BKN,800.0,,,,,,
KRDR,10-08-2007,17:31,SPECI,,300,9,,,9999,Rain,7.0,6.0,29.80,1010.1,,,,61,,,,,,,,,,,2/8 Mostly Clear,72000.0,,FEW,700.0,,,,,,
KRDR,10-08-2007,17:16,SPECI,,330,11,16.0,,9999,Fog or Ice Fog,7.0,6.0,29.79,1009.9,,,,40,,,,,,,,,,,8/8 Overcast,2600.0,,OVC,2600.0,,,,,,
KRDR,10-08-2007,17:00,METAR,,290,13,,,9999,Rain/Mist,7.0,6.0,29.81,1010.3,,,,61,10,,,,,,,,,,8/8 Overcast,1200.0,,FEW,600.0,BKN,1200.0,OVC,2000.0,,
KRDR,10-08-2007,16:48,SPECI,,310,9,,,9999,Rain,7.0,6.0,29.82,1010.6,,,,63,,,,,,,,,,,4/8 Partly Cloudy,72000.0,,SCT,500.0,,,,,,
KRDR,10-08-2007,16:42,SPECI,,310,9,,,9999,Rain,7.0,6.0,29.82,1010.9,,,,63,,,,,,,,,,,7/8 Mostly Cloudy,500.0,,BKN,500.0,,,,,,
KRDR,10-08-2007,16:39,SPECI,,310,11,,,9999,Rain,7.0,6.0,29.83,1011.0,,,,63,,,,,,,,,,,4/8 Partly Cloudy,72000.0,,SCT,500.0,,,,,,
KRDR,10-08-2007,16:36,SPECI,,300,8,,,9999,Rain,7.0,6.0,29.83,1011.0,,,,61,,,,,,,,,,,7/8 Mostly Cloudy,500.0,,BKN,500.0,,,,,,
KRDR,10-08-2007,16:33,SPECI,,310,10,,,9999,Rain,7.0,6.0,29.82,1010.9,,,,61,,,,,,,,,,,4/8 Partly Cloudy,72000.0,,SCT,500.0,,,,,,
KRDR,10-08-2007,16:27,SPECI,,300,10,,,9999,Rain,7.0,6.0,29.83,1011.0,,,,61,,,,,,,,,,,7/8 Mostly Cloudy,500.0,,BKN,500.0,,,,,,
KRDR,10-08-2007,16:24,SPECI,,300,9,,,9999,Rain,7.0,6.0,29.83,1011.1,,,,61,,,,,,,,,,,7/8 Mostly Cloudy,300.0,,BKN,400.0,,,,,,
KRDR,10-08-2007,16:00,METAR,,280,10,,,9999,Rain/Mist,7.0,6.0,29.92,1014.3,,,,61,10,,,,,,,,,,8/8 Overcast,800.0,,FEW,400.0,BKN,800.0,OVC,1200.0,,
KRDR,10-08-2007,15:32,SPECI,,290,8,,,9999,Rain,7.0,6.0,29.82,1010.9,62,,,,,,,,,,,,,,2/8 Mostly Clear,72000.0,,FEW,500.0,,,,,,
KRDR,10-08-2007,15:25,METAR,,300,10,,,9999,Rain,7.0,6.0,29.82,1010.7,62,,,,,,,,,,,,,,2/8 Mostly Clear,72000.0,,FEW,800.0,,,,,,
KRDR,10-08-2007,15:18,SPECI,,300,10,,,9999,Rain,7.0,6.0,29.81,1010.5,62,,,,,,,,,,,,,,2/8 Mostly Clear,72000.0,,FEW,800.0,,,,,,
KRDR,10-08-2007,15:00,METAR,,300,9,,,9999,Light Rain,7.0,7.0,29.81,1010.5,61,,,,,,,,,,.04 IN,.23 IN,,,2/8 Mostly Clear,72000.0,,FEW,400.0,,,,,,
KRDR,10-08-2007,14:42,SPECI,,290,11,,,9999,Light Rain,7.0,7.0,29.82,1010.8,61,,,,,,,,,,,,,,4/8 Partly Cloudy,72000.0,,SCT,600.0,,,,,,
KRDR,10-08-2007,14:21,SPECI,,290,10,,,9999,Light Rain,7.0,7.0,29.82,1010.8,61,,,,,,,,,,,,,,Sky Obscured (Unable to Estimate),100.0,100.0,,700.0,,,,,,
KRDR,10-08-2007,14:16,SPECI,,310,7,,,9999,Light Rain/Mist,7.0,6.0,29.82,1010.7,61,10,,,,,,,,,,,,,4/8 Partly Cloudy,72000.0,,SCT,200.0,,,,,,
KRDR,10-08-2007,14:07,SPECI,,290,8,,,9999,Light Rain,7.0,7.0,29.83,1011.1,61,,,,,,,,,,,,,,8/8 Overcast,300.0,,OVC,300.0,,,,,,
KRDR,10-08-2007,14:00,METAR,,270,10,,,8000,Rain/Mist,7.0,7.0,29.84,1011.5,62,10,,,,,,,,,.1 IN,,,,8/8 Overcast,100.0,,OVC,100.0,,,,,,
KRDR,10-08-2007,13:43,SPECI,,290,9,,,6400,Rain/Mist,7.0,7.0,29.83,1011.2,62,10,,,,,,,,,,,,,8/8 Overcast,100.0,,OVC,100.0,,,,,,
KRDR,10-08-2007,13:19,SPECI,,330,8,,,9999,Light Rain,7.0,7.0,29.81,1010.5,61,,,,,,,,,,,,,,8/8 Overcast,200.0,,OVC,200.0,,,,,,
KRDR,10-08-2007,13:00,METAR,,300,6,,,9999,Light Rain,7.0,7.0,29.84,1011.4,61,,,,,,,,,,.09 IN,,,,8/8 Overcast,100.0,,OVC,100.0,,,,,,
KRDR,10-08-2007,12:27,SPECI,,330,9,,,9999,Rain,7.0,7.0,29.82,1010.9,62,,,,,,,,,,,,,,7/8 Mostly Cloudy,100.0,,BKN,100.0,,,,,,
KRDR,10-08-2007,12:14,SPECI,,330,9,,,9999,Rain,7.0,7.0,29.83,1011.2,62,,,,,,,,,,,,,,4/8 Partly Cloudy,72000.0,,SCT,200.0,,,,,,
KRDR,10-08-2007,12:00,METAR,,340,9,,,9999,Rain/Mist,7.0,7.0,29.84,1011.5,62,10,,,,,,,,,.02 IN,,.07 IN,.08 IN,2/8 Mostly Clear,72000.0,,FEW,100.0,,,,,,
KRDR,10-08-2007,11:23,SPECI,,350,8,,,9999,Light Rain/Mist,7.0,7.0,29.86,1012.1,61,10,,,,,,,,,,,,,4/8 Partly Cloudy,72000.0,,SCT,100.0,,,,,,
KRDR,10-08-2007,11:18,SPECI,,340,7,,,9999,Light Rain,7.0,7.0,29.87,1012.4,61,,,,,,,,,,,,,,4/8 Partly Cloudy,72000.0,,SCT,100.0,,,,,,
KRDR,10-08-2007,11:00,METAR,,330,6,,,9999,Light Drizzle,7.0,7.0,29.90,1013.3,51,,,,,,,,,,TRACE,,,,7/8 Mostly Cloudy,100.0,,BKN,100.0,,,,,,
KRDR,10-08-2007,10:46,SPECI,,310,3,,,9999,Light Drizzle,7.0,7.0,29.91,1013.7,51,,,,,,,,,,,,,,7/8 Mostly Cloudy,100.0,,BKN,100.0,,,,,,
KRDR,10-08-2007,10:42,SPECI,,320,5,,,9999,,7.0,7.0,29.91,1013.6,,,,,,,,,,,,,,,4/8 Partly Cloudy,72000.0,,SCT,100.0,,,,,,
KRDR,10-08-2007,10:04,SPECI,,10,7,,,9999,,7.0,7.0,29.87,1012.4,,,,,,,,,,,,,,,2/8 Mostly Clear,72000.0,,FEW,100.0,,,,,,
KRDR,10-08-2007,10:00,METAR,,350,7,,,9999,Light Rain,7.0,7.0,29.88,1012.7,61,,,,,,,,,,.01 IN,,,,2/8 Mostly Clear,72000.0,,FEW,200.0,,,,,,
KRDR,10-08-2007,09:54,SPECI,,350,10,,,9999,Light Rain,7.0,7.0,29.87,1012.3,61,,,,,,,,,,,,,,2/8 Mostly Clear,72000.0,,FEW,200.0,,,,,,
KRDR,10-08-2007,09:43,SPECI,,340,9,,,9999,Unknown Precipitation,7.0,7.0,29.90,1013.5,40,,,,,,,,,,,,,,2/8 Mostly Clear,72000.0,,FEW,200.0,,,,,,
KRDR,10-08-2007,09:16,SPECI,,320,9,,,8000,Mist,7.0,7.0,29.91,1013.9,,10,,,,,,,,,,,,,Clear,400.0,,,73000.0,,,,,,
KRDR,10-08-2007,09:10,SPECI,,320,7,,,8000,Mist,7.0,7.0,29.92,1014.1,10,,,,,,,,,,,,,,2/8 Mostly Clear,72000.0,,FEW,100.0,,,,,,
KRDR,10-08-2007,09:00,METAR,,330,5,,,9999,,7.0,7.0,29.93,1014.3,,,,,,,,,,,TRACE,.04 IN,,,4/8 Partly Cloudy,72000.0,,SCT,100.0,,,,,,
KRDR,10-08-2007,08:50,METAR,,350,5,,,9999,Light Drizzle,7.0,7.0,29.92,1014.2,51,,,,,,,,,,,,,,4/8 Partly Cloudy,72000.0,,SCT,100.0,,,,,,
KRDR,10-08-2007,08:42,SPECI,,330,7,,,9999,Unknown Precipitation,7.0,7.0,29.92,1014.2,40,,,,,,,,,,,,,,7/8 Mostly Cloudy,100.0,,BKN,100.0,,,,,,
KRDR,10-08-2007,08:38,SPECI,,320,7,,,9999,,7.0,7.0,29.93,1014.4,,,,,,,,,,,,,,,7/8 Mostly Cloudy,100.0,,BKN,100.0,,,,,,
KRDR,10-08-2007,08:21,SPECI,,320,8,,,9999,,7.0,7.0,29.93,1014.3,,,,,,,,,,,,,,,2/8 Mostly Clear,72000.0,,FEW,100.0,,,,,,
KRDR,10-08-2007,08:17,SPECI,,330,7,,,9999,,7.0,7.0,29.93,1014.3,,,,,,,,,,,,,,,2/8 Mostly Clear,72000.0,,FEW,100.0,,,,,,
KRDR,10-08-2007,08:00,METAR,,10,9,,,9999,,7.0,7.0,29.91,1013.6,,,,,,,,,,,TRACE,,,,4/8 Partly Cloudy,72000.0,,SCT,200.0,,,,,,
KRDR,10-08-2007,07:47,SPECI,,10,9,,,9999,,7.0,7.0,29.91,1013.9,,,,,,,,,,,,,,,4/8 Partly Cloudy,72000.0,,SCT,300.0,,,,,,
KRDR,10-08-2007,07:41,SPECI,,360,8,,,9999,,7.0,7.0,29.93,1014.4,,,,,,,,,,,,,,,7/8 Mostly Cloudy,300.0,,BKN,300.0,,,,,,
KRDR,10-08-2007,07:19,SPECI,,350,9,,,9999,Light Rain,7.0,7.0,29.94,1014.8,61,,,,,,,,,,,,,,7/8 Mostly Cloudy,200.0,,BKN,200.0,,,,,,
KRDR,10-08-2007,07:00,METAR,,320,7,,,9999,Light Rain,7.0,7.0,29.97,1015.8,61,,,,,,,,,,.04 IN,,,,7/8 Mostly Cloudy,400.0,,BKN,400.0,,,,,,
KRDR,10-08-2007,06:53,SPECI,,320,7,,,9999,Light Rain,7.0,7.0,29.97,1015.8,61,,,,,,,,,,,,,,7/8 Mostly Cloudy,300.0,,BKN,300.0,,,,,,
KRDR,10-08-2007,06:36,SPECI,,330,6,,,9999,Unknown Precipitation,7.0,7.0,29.97,1015.7,40,,,,,,,,,,,,,,7/8 Mostly Cloudy,400.0,,BKN,400.0,,,,,,
KRDR,10-08-2007,06:30,METAR,,330,5,,,9999,Unknown Precipitation,7.0,7.0,29.98,1016.0,40,,,,,,,,,,,,,,Sky Obscured (Unable to Estimate),100.0,100.0,,400.0,,,,,,
KRDR,10-08-2007,06:15,SPECI,,310,4,,,8000,Rain/Mist,7.0,7.0,29.99,1016.4,62,10,,,,,,,,,,,,,Sky Obscured (Unable to Estimate),100.0,100.0,,300.0,,,,,,
KRDR,10-08-2007,06:11,SPECI,,320,6,,,8000,Rain/Mist,7.0,7.0,29.99,1016.3,62,10,,,,,,,,,,,,,Sky Obscured (Unable to Estimate),100.0,100.0,,400.0,,,,,,
KRDR,10-08-2007,06:02,SPECI,,340,5,,,9999,Light Drizzle,7.0,6.0,29.98,1016.2,51,,,,,,,,,,,,,,7/8 Mostly Cloudy,400.0,,BKN,400.0,,,,,,
KRDR,10-08-2007,06:00,METAR,,340,5,,,9999,,7.0,6.0,29.98,1016.1,,,,,,,,,,,TRACE,,TRACE,,7/8 Mostly Cloudy,800.0,,BKN,800.0,BKN,1300.0,,,,
KRDR,10-08-2007,05:50,METAR,,350,5,,,9999,,7.0,6.0,29.98,1016.2,,,,,,,,,,,,,,,7/8 Mostly Cloudy,900.0,,BKN,900.0,,,,,,
KRDR,10-08-2007,05:47,SPECI,,360,4,,,9999,,7.0,6.0,29.98,1016.1,,,,,,,,,,,,,,,4/8 Partly Cloudy,72000.0,,SCT,1000.0,,,,,,
KRDR,10-08-2007,05:20,METAR,,350,8,,,9999,Light Rain,7.0,6.0,29.96,1015.5,61,,,,,,,,,,,,,,4/8 Partly Cloudy,72000.0,,SCT,1200.0,,,,,,
KRDR,10-08-2007,05:15,SPECI,,350,8,,,9999,Light Rain,7.0,6.0,29.97,1015.7,61,,,,,,,,,,,,,,7/8 Mostly Cloudy,1000.0,,FEW,200.0,BKN,1400.0,,,,
KRDR,10-08-2007,05:06,SPECI,,350,8,,,9999,,7.0,7.0,29.97,1015.9,,,,,,,,,,,,,,,8/8 Overcast,1100.0,,SCT,200.0,OVC,1400.0,,,,
KRDR,10-08-2007,05:01,SPECI,,340,6,,,9999,,7.0,7.0,29.98,1016.2,,,,,,,,,,,,,,,8/8 Overcast,100.0,,OVC,1200.0,,,,,,
KRDR,10-08-2007,05:00,METAR,,350,9,,,9999,,7.0,7.0,29.98,1016.2,,,,,,,,,,,,,,,8/8 Overcast,100.0,,OVC,1200.0,,,,,,
KRDR,10-08-2007,04:38,SPECI,,350,7,,,9999,,7.0,7.0,29.98,1016.2,,,,,,,,,,,,,,,8/8 Overcast,100.0,,OVC,1400.0,,,,,,
KRDR,10-08-2007,04:34,SPECI,,350,7,,,9999,,7.0,7.0,29.99,1016.3,,,,,,,,,,,,,,,7/8 Mostly Cloudy,900.0,,BKN,1500.0,,,,,,
KRDR,10-08-2007,04:32,SPECI,,350,7,,,9999,,7.0,7.0,29.99,1016.4,,,,,,,,,,,,,,,7/8 Mostly Cloudy,100.0,,BKN,1200.0,,,,,,
KRDR,10-08-2007,04:29,SPECI,,350,7,,,9999,,7.0,7.0,29.99,1016.4,,,,,,,,,,,,,,,7/8 Mostly Cloudy,100.0,,BKN,900.0,,,,,,
KRDR,10-08-2007,04:27,SPECI,,350,10,,,9999,,7.0,7.0,29.99,1016.4,,,,,,,,,,,,,,,7/8 Mostly Cloudy,100.0,,BKN,600.0,,,,,,
KRDR,10-08-2007,04:25,METAR,,350,10,,,9999,,7.0,7.0,29.99,1016.4,,,,,,,,,,,,,,,7/8 Mostly Cloudy,100.0,,BKN,100.0,BKN,1400.0,,,,
KRDR,10-08-2007,04:18,SPECI,,350,8,,,9999,,7.0,7.0,29.99,1016.5,,,,,,,,,,,,,,,7/8 Mostly Cloudy,100.0,,BKN,300.0,,,,,,
KRDR,10-08-2007,04:15,SPECI,,350,7,,,9999,,7.0,7.0,29.99,1016.4,,,,,,,,,,,,,,,7/8 Mostly Cloudy,100.0,,BKN,400.0,,,,,,
KRDR,10-08-2007,04:12,SPECI,,350,8,,,9999,,7.0,7.0,29.99,1016.3,,,,,,,,,,,,,,,7/8 Mostly Cloudy,100.0,,BKN,500.0,,,,,,
KRDR,10-08-2007,04:10,SPECI,,350,9,,,9999,,7.0,7.0,29.99,1016.3,,,,,,,,,,,,,,,7/8 Mostly Cloudy,100.0,,BKN,300.0,,,,,,
KRDR,10-08-2007,04:07,SPECI,,350,9,,,9999,,7.0,7.0,29.99,1016.4,,,,,,,,,,,,,,,7/8 Mostly Cloudy,100.0,,BKN,400.0,,,,,,
KRDR,10-08-2007,04:03,SPECI,,350,8,,,9999,,7.0,6.0,30.00,1016.6,,,,,,,,,,,,,,,7/8 Mostly Cloudy,100.0,,BKN,500.0,,,,,,
KRDR,10-08-2007,04:00,METAR,,350,7,,,9999,,7.0,6.0,30.01,1016.9,,,,,,,,,,,,,,,7/8 Mostly Cloudy,100.0,,BKN,1000.0,,,,,,
KRDR,10-08-2007,03:54,SPECI,,350,8,,,9999,,7.0,6.0,30.00,1016.8,,,,,,,,,,,,,,,7/8 Mostly Cloudy,1600.0,,SCT,100.0,BKN,1600.0,,,,
KRDR,10-08-2007,03:42,SPECI,,350,6,,,9999,,7.0,7.0,30.01,1017.1,,,,,,,,,,,,,,,7/8 Mostly Cloudy,100.0,,BKN,1400.0,,,,,,
KRDR,10-08-2007,03:39,SPECI,,350,7,,,9999,,7.0,7.0,30.01,1017.1,,,,,,,,,,,,,,,7/8 Mostly Cloudy,1900.0,,FEW,200.0,BKN,1900.0,,,,
KRDR,10-08-2007,03:35,SPECI,,350,8,,,9999,,7.0,7.0,30.01,1017.2,,,,,,,,,,,,,,,7/8 Mostly Cloudy,1800.0,,FEW,200.0,BKN,1800.0,,,,
KRDR,10-08-2007,03:10,SPECI,,330,8,,,9999,,7.0,7.0,30.02,1017.4,,,,,,,,,,,,,,,8/8 Overcast,1500.0,,SCT,200.0,SCT,900.0,OVC,1500.0,,
KRDR,10-08-2007,03:07,SPECI,,330,8,,,9999,,7.0,7.0,30.02,1017.5,,,,,,,,,,,,,,,8/8 Overcast,900.0,,SCT,200.0,BKN,900.0,OVC,1500.0,,
KRDR,10-08-2007,03:00,METAR,,340,8,,,9999,,7.0,6.0,30.03,1017.7,,,,,,,,,,,,,,,7/8 Mostly Cloudy,100.0,,BKN,500.0,,,,,,
KRDR,10-08-2007,02:50,METAR,,340,6,,,9999,,7.0,6.0,30.03,1017.6,,,,,,,,,,,,,,,7/8 Mostly Cloudy,100.0,,BKN,300.0,,,,,,
KRDR,10-08-2007,02:38,SPECI,,340,6,,,9999,,7.0,6.0,30.03,1017.6,,,,,,,,,,,,,,,2/8 Mostly Clear,72000.0,,FEW,700.0,,,,,,
KRDR,10-08-2007,02:21,SPECI,,350,6,,,9999,,7.0,6.0,30.03,1017.6,,,,,,,,,,,,,,,4/8 Partly Cloudy,72000.0,,SCT,1500.0,,,,,,
KRDR,10-08-2007,02:00,METAR,,340,7,,,9999,,7.0,6.0,30.03,1017.8,,,,,,,,,,,,,,,8/8 Overcast,1600.0,,OVC,1600.0,,,,,,
KRDR,10-08-2007,01:44,SPECI,,330,7,,,9999,,7.0,6.0,30.04,1017.9,,,,,,,,,,,,,,,8/8 Overcast,1600.0,,OVC,1600.0,,,,,,
KRDR,10-08-2007,01:41,SPECI,,340,7,,,9999,,8.0,6.0,30.03,1017.8,,,,,,,,,,,,,,,8/8 Overcast,1400.0,,OVC,1400.0,,,,,,
KRDR,10-08-2007,01:38,SPECI,,340,7,,,9999,,8.0,6.0,30.03,1017.9,,,,,,,,,,,,,,,8/8 Overcast,1600.0,,FEW,700.0,OVC,1600.0,,,,
KRDR,10-08-2007,01:21,SPECI,,340,6,,,9999,,8.0,6.0,30.04,1018.0,,,,,,,,,,,,,,,8/8 Overcast,700.0,,OVC,1000.0,,,,,,
KRDR,10-08-2007,01:00,METAR,,360,8,,,9999,,8.0,6.0,30.03,1017.8,,,,,,,,,,,,,,,8/8 Overcast,900.0,,OVC,900.0,,,,,,
KRDR,10-08-2007,00:53,SPECI,,360,6,,,9999,,8.0,6.0,30.03,1017.8,,,,,,,,,,,,,,,8/8 Overcast,800.0,,OVC,800.0,,,,,,
KRDR,10-08-2007,00:26,SPECI,,360,7,,,9999,,8.0,6.0,30.03,1017.7,,,,,,,,,,,,,,,8/8 Overcast,900.0,,OVC,900.0,,,,,,
KRDR,10-08-2007,00:03,SPECI,,10,8,,,9999,,8.0,6.0,30.03,1017.6,,,,,,,,,,,,,,,8/8 Overcast,800.0,,OVC,800.0,,,,,,
KRDR,10-08-2007,00:00,METAR,,10,9,,,9999,,8.0,6.0,30.03,1017.6,,,,,,,,,,,,,,,8/8 Overcast,900.0,,OVC,900.0,,,,,,
KRDR,10-07-2007,23:18,SPECI,,10,7,,,9999,,8.0,6.0,30.02,1017.5,,,,,,,,,,,,,,,8/8 Overcast,900.0,,OVC,900.0,,,,,,
KRDR,10-07-2007,23:00,METAR,,360,8,,,9999,,8.0,6.0,30.03,1017.6,,,,,,,,,,,,,,,8/8 Overcast,1000.0,,OVC,1000.0,,,,,,
KRDR,10-07-2007,22:00,METAR,,10,10,,,9999,,8.0,6.0,30.03,1017.7,,,,,,,,,,,,,,,8/8 Overcast,1100.0,,OVC,1100.0,,,,,,
KRDR,10-07-2007,21:00,METAR,,350,9,,,9999,,9.0,6.0,30.03,1017.8,,,,,,,,,,,,,,,8/8 Overcast,1100.0,,OVC,1100.0,,,,,,
KRDR,10-07-2007,20:00,METAR,,10,10,,,9999,,9.0,6.0,30.04,1017.9,,,,,,,,,,,,,,,8/8 Overcast,1100.0,,OVC,1100.0,,,,,,
KRDR,10-07-2007,19:00,METAR,,350,10,,,9999,,9.0,6.0,30.02,1017.5,,,,,,,,,,,,,,,8/8 Overcast,1000.0,,OVC,1300.0,,,,,,
KRDR,10-07-2007,18:00,METAR,,360,10,,,9999,,9.0,6.0,30.03,1017.6,,,,,,,,,,,,,.01 IN,,8/8 Overcast,1000.0,,OVC,1500.0,,,,,,
KRDR,10-07-2007,17:54,SPECI,,350,8,,,9999,,9.0,6.0,30.03,1017.6,,,,,,,,,,,,,,,8/8 Overcast,900.0,,OVC,1400.0,,,,,,
KRDR,10-07-2007,17:40,SPECI,,350,11,,,9999,,9.0,6.0,30.02,1017.3,,,,,,,,,,,,,,,8/8 Overcast,900.0,,OVC,1500.0,,,,,,
KRDR,10-07-2007,17:17,SPECI,,350,11,,,9999,,8.0,6.0,30.01,1017.1,,,,,,,,,,,,,,,8/8 Overcast,800.0,,OVC,1100.0,,,,,,
KRDR,10-07-2007,17:15,SPECI,,350,12,,,9999,,8.0,6.0,30.01,1017.0,,,,,,,,,,,,,,,8/8 Overcast,800.0,,OVC,900.0,,,,,,
KRDR,10-07-2007,17:08,SPECI,,350,9,,,9999,,8.0,6.0,30.01,1017.0,,,,,,,,,,,,,,,8/8 Overcast,800.0,,OVC,1400.0,,,,,,
KRDR,10-07-2007,17:00,METAR,,360,9,,,9999,,8.0,6.0,30.01,1017.0,,,,,,,,,,,,,,,8/8 Overcast,700.0,,OVC,1700.0,,,,,,
KRDR,10-07-2007,16:37,SPECI,,360,10,,,9999,,8.0,6.0,30.01,1017.1,,,,,,,,,,,,,,,8/8 Overcast,800.0,,OVC,1600.0,,,,,,
KRDR,10-07-2007,16:33,SPECI,,360,10,,,9999,,8.0,6.0,30.01,1017.0,,,,,,,,,,,,,,,8/8 Overcast,800.0,,OVC,1400.0,,,,,,
KRDR,10-07-2007,16:00,METAR,,10,11,,,9999,,8.0,6.0,30.00,1016.8,,,,,,,,,,,TRACE,,,,7/8 Mostly Cloudy,700.0,,BKN,1900.0,,,,,,
KRDR,10-07-2007,15:50,METAR,,10,11,,,9999,,8.0,6.0,30.00,1016.8,,,,,,,,,,,,,,,7/8 Mostly Cloudy,700.0,,BKN,2100.0,,,,,,
KRDR,10-07-2007,15:45,METAR,,10,11,,,9999,,8.0,6.0,30.00,1016.7,,,,,,,,,,,,,,,7/8 Mostly Cloudy,2800.0,,SCT,800.0,BKN,3500.0,,,,
KRDR,10-07-2007,15:43,SPECI,,360,10,15.0,,9999,,8.0,6.0,30.00,1016.7,,,,,,,,,,,,,,,7/8 Mostly Cloudy,700.0,,BKN,1800.0,,,,,,
KRDR,10-07-2007,15:00,METAR,,360,10,,,9999,,7.0,6.0,29.99,1016.5,,,,,,,,,,,.01 IN,.01 IN,,,Clear,1200.0,,,73000.0,,,,,,
KRDR,10-07-2007,14:42,SPECI,,360,10,,,9999,,7.0,7.0,29.99,1016.3,,,,,,,,,,,,,,,Clear,800.0,,,73000.0,,,,,,
KRDR,10-07-2007,14:00,METAR,,350,11,,,9999,,7.0,6.0,29.97,1015.8,,,,,,,,,,,TRACE,,,,Clear,72000.0,,,73000.0,,,,,,
KRDR,10-07-2007,13:53,SPECI,,350,10,,,9999,,7.0,6.0,29.97,1015.8,,,,,,,,,,,,,,,Clear,72000.0,,,73000.0,,,,,,
KRDR,10-07-2007,13:37,SPECI,,350,10,,,9999,Light Rain,7.0,6.0,29.97,1015.7,61,,,,,,,,,,,,,,2/8 Mostly Clear,72000.0,,FEW,800.0,,,,,,
KRDR,10-07-2007,13:16,SPECI,,340,8,,,9999,Light Drizzle,8.0,7.0,29.97,1015.7,51,,,,,,,,,,,,,,4/8 Partly Cloudy,72000.0,,SCT,1400.0,,,,,,
KRDR,10-07-2007,13:07,SPECI,,340,8,,,9999,Light Drizzle,8.0,6.0,29.97,1015.6,51,,,,,,,,,,,,,,7/8 Mostly Cloudy,600.0,,BKN,1400.0,,,,,,
KRDR,10-07-2007,13:02,SPECI,,340,7,,,9999,,8.0,6.0,29.96,1015.5,,,,,,,,,,,,,,,8/8 Overcast,1000.0,,FEW,700.0,OVC,1600.0,,,,
KRDR,10-07-2007,13:00,METAR,,340,6,,,9999,,8.0,6.0,29.96,1015.3,,,,,,,,,,,,,,,8/8 Overcast,900.0,,OVC,2000.0,,,,,,
KRDR,10-07-2007,12:00,METAR,,320,8,,,9999,,8.0,7.0,29.91,1013.8,,,,,,,,,,,TRACE,,.6 IN,.62 IN,8/8 Overcast,2400.0,,OVC,2400.0,,,,,,
KRDR,10-07-2007,11:37,SPECI,,330,9,,,9999,,8.0,7.0,29.89,1013.0,,,,,,,,,,,,,,,7/8 Mostly Cloudy,2400.0,,BKN,2400.0,,,,,,
KRDR,10-07-2007,11:16,SPECI,,330,8,,,9999,,8.0,7.0,29.89,1013.0,,,,,,,,,,,,,,,4/8 Partly Cloudy,72000.0,,SCT,2500.0,,,,,,
KRDR,10-07-2007,11:08,SPECI,,320,8,,,9999,Light Rain,8.0,7.0,29.89,1013.2,61,,,,,,,,,,,,,,4/8 Partly Cloudy,72000.0,,SCT,2400.0,,,,,,
KRDR,10-07-2007,11:00,METAR,,320,6,,,9999,,8.0,7.0,29.88,1012.8,,,,,,,,,,,TRACE,,,,7/8 Mostly Cloudy,2500.0,,BKN,2500.0,,,,,,
KRDR,10-07-2007,10:39,SPECI,,320,6,,,9999,,8.0,7.0,29.89,1013.2,,,,,,,,,,,,,,,7/8 Mostly Cloudy,2300.0,,BKN,2300.0,,,,,,
KRDR,10-07-2007,10:33,SPECI,,300,8,,,9999,,8.0,7.0,29.90,1013.5,,,,,,,,,,,,,,,4/8 Partly Cloudy,72000.0,,SCT,2100.0,,,,,,
KRDR,10-07-2007,10:30,METAR,,290,7,,,9999,Light Rain,8.0,7.0,29.91,1013.6,61,,,,,,,,,,,,,,4/8 Partly Cloudy,72000.0,,SCT,2100.0,,,,,,
KRDR,10-07-2007,10:01,SPECI,,310,9,,,9999,Light Rain,8.0,7.0,29.89,1013.1,61,,,,,,,,,,,,,,7/8 Mostly Cloudy,1600.0,,BKN,1600.0,,,,,,
KRDR,10-07-2007,10:00,METAR,,330,7,20.0,,9999,Light Rain,8.0,7.0,29.86,1012.3,61,,,,,,,,,,.17 IN,,,,4/8 Partly Cloudy,72000.0,,SCT,1000.0,,,,,,
KRDR,10-07-2007,09:47,SPECI,,350,12,20.0,,9999,Light Rain,8.0,7.0,29.82,1010.8,61,,,,,,,,,,,,,,4/8 Partly Cloudy,72000.0,,SCT,1000.0,,,,,,
KRDR,10-07-2007,09:34,SPECI,,310,9,,,9999,Rain/Mist,8.0,7.0,29.89,1013.2,62,10,,,,,,,,,,,,,7/8 Mostly Cloudy,800.0,,BKN,800.0,,,,,,
KRDR,10-07-2007,09:25,METAR,,340,7,,,9999,Heavy Rain/Mist,8.0,7.0,29.85,1011.8,63,10,,,,,,,,,,,,,7/8 Mostly Cloudy,800.0,,BKN,800.0,,,,,,
KRDR,10-07-2007,09:21,SPECI,,340,8,,,9999,Heavy Rain,8.0,7.0,29.86,1012.1,63,,,,,,,,,,,,,,7/8 Mostly Cloudy,900.0,,BKN,900.0,,,,,,
KRDR,10-07-2007,09:17,SPECI,,350,8,,,9999,Rain,8.0,7.0,29.87,1012.3,62,,,,,,,,,,,,,,7/8 Mostly Cloudy,1000.0,,BKN,1000.0,,,,,,
KRDR,10-07-2007,09:11,SPECI,,300,9,,,9999,Rain,8.0,7.0,29.90,1013.3,62,,,,,,,,,,,,,,7/8 Mostly Cloudy,1000.0,,BKN,1000.0,,,,,,
KRDR,10-07-2007,09:00,METAR,,320,10,,,9999,Rain,8.0,7.0,29.88,1012.7,,,,61,,,,,,,.06 IN,.43 IN,,,8/8 Overcast,1200.0,,SCT,600.0,BKN,1200.0,OVC,4000.0,,
KRDR,10-07-2007,08:06,SPECI,,330,16,22.0,,9999,Rain,9.0,8.0,29.79,1009.8,,,,63,,,,,,,,,,,8/8 Overcast,3900.0,,SCT,800.0,SCT,1200.0,OVC,4000.0,,
KRDR,10-07-2007,08:00,METAR,,340,13,,,9999,Rain,9.0,8.0,29.80,1010.3,,,,61,,,,,,,.11 IN,,,,8/8 Overcast,3900.0,,SCT,1200.0,OVC,4000.0,,,,
KRDR,10-07-2007,07:38,SPECI,,350,10,,,9999,Rain,9.0,8.0,29.81,1010.5,,,,61,,,,,,,,,,,7/8 Mostly Cloudy,1200.0,,BKN,1200.0,,,,,,
KRDR,10-07-2007,07:21,SPECI,,10,13,,,9999,Rain,9.0,8.0,29.81,1010.4,,,,61,,,,,,,,,,,7/8 Mostly Cloudy,2000.0,,SCT,1200.0,BKN,2000.0,,,,
KRDR,10-07-2007,07:00,METAR,,310,13,22.0,330/33KTS,9999,Thunderstorm with Rain or Snow/Rain Showers,9.0,8.0,29.85,1011.7,,,,95,81,,,,,,.26 IN,,,,8/8 Overcast,2800.0,,SCT,1700.0,OVC,2800.0,,,,
KRDR,10-07-2007,06:29,SPECI,,300,16,20.0,330/33KTS,6400,Thunderstorm with Rain or Snow/Rain Showers,10.0,9.0,29.83,1011.3,,,,95,81,,,,,,,,,,7/8 Mostly Cloudy,2000.0,,FEW,400.0,BKN,2000.0,,,,
KRDR,10-07-2007,06:16,SPECI,,210,18,33.0,330/33KTS,9999,Thunderstorm with Rain or Snow/Light Rain Showers/Mist,10.0,9.0,,,,,,95,80,10,,,,,,,,,7/8 Mostly Cloudy,2000.0,,SCT,500.0,BKN,2000.0,,,,
KRDR,10-07-2007,06:06,SPECI,,330,25,,330/28KTS,8000,Heavy Thunderstorm with Rain or Snow/Heavy Rain Showers,11.0,10.0,29.73,1007.7,,,,97,82,,,,,,,,,,7/8 Mostly Cloudy,2000.0,,BKN,2000.0,,,,,,
KRDR,10-07-2007,06:00,METAR,,260,8,15.0,,9999,Rain,11.0,10.0,29.84,1011.5,,,,61,,,,,,,.01 IN,,.01 IN,,2/8 Mostly Clear,72000.0,,FEW,800.0,,,,,,
KRDR,10-07-2007,05:19,SPECI,,330,12,,,9999,Fog or Ice Fog,12.0,10.0,29.76,1008.8,,,,40,,,,,,,,,,,4/8 Partly Cloudy,72000.0,,SCT,2200.0,,,,,,
KRDR,10-07-2007,05:16,SPECI,,330,12,,,9999,,12.0,10.0,29.76,1008.7,,,,,,,,,,,,,,,4/8 Partly Cloudy,72000.0,,SCT,2200.0,,,,,,
KRDR,10-07-2007,05:00,METAR,,320,8,,,9999,,12.0,11.0,29.76,1008.7,,,,,,,,,,,,,,,7/8 Mostly Cloudy,200.0,,BKN,1600.0,,,,,,
KRDR,10-07-2007,04:32,SPECI,,330,9,,,9999,,12.0,11.0,29.74,1008.1,,,,,,,,,,,,,,,7/8 Mostly Cloudy,1000.0,,FEW,300.0,BKN,2100.0,,,,
KRDR,10-07-2007,04:16,SPECI,,320,10,,,9999,,12.0,12.0,29.74,1008.1,,,,,,,,,,,,,,,8/8 Overcast,600.0,,OVC,1000.0,,,,,,
KRDR,10-07-2007,04:14,SPECI,,330,9,,,9999,,12.0,12.0,29.74,1008.0,,,,,,,,,,,,,,,8/8 Overcast,200.0,,OVC,800.0,,,,,,
KRDR,10-07-2007,04:11,SPECI,,330,9,,,9999,,12.0,12.0,29.73,1008.0,,,,,,,,,,,,,,,8/8 Overcast,200.0,,OVC,600.0,,,,,,
KRDR,10-07-2007,04:02,SPECI,,330,9,,,9999,,12.0,12.0,29.73,1007.8,,,,,,,,,,,,,,,8/8 Overcast,200.0,,OVC,500.0,,,,,,
KRDR,10-07-2007,04:00,METAR,,330,10,,,9999,,12.0,12.0,29.72,1007.7,,,,,,,,,,,,,,,8/8 Overcast,200.0,,OVC,800.0,,,,,,
KRDR,10-07-2007,03:41,SPECI,,330,10,,,9999,,13.0,12.0,29.72,1007.6,,,,,,,,,,,,,,,8/8 Overcast,100.0,,OVC,800.0,,,,,,
KRDR,10-07-2007,03:37,SPECI,,330,10,,,9999,,13.0,12.0,29.72,1007.5,,,,,,,,,,,,,,,8/8 Overcast,500.0,,OVC,900.0,,,,,,
KRDR,10-07-2007,03:32,SPECI,,320,10,,,9999,,13.0,12.0,29.73,1007.7,,,,,,,,,,,,,,,8/8 Overcast,100.0,,OVC,700.0,,,,,,
KRDR,10-07-2007,03:29,SPECI,,320,9,,,9999,,13.0,12.0,29.73,1007.7,,,,,,,,,,,,,,,8/8 Overcast,100.0,,OVC,500.0,,,,,,
KRDR,10-07-2007,03:24,SPECI,,320,9,,,9999,,13.0,12.0,29.73,1007.9,,,,,,,,,,,,,,,8/8 Overcast,100.0,,OVC,300.0,,,,,,
KRDR,10-07-2007,03:00,METAR,,320,11,,,9999,,13.0,12.0,29.73,1007.8,,,,,,,,,,,,,,,8/8 Overcast,100.0,,OVC,100.0,,,,,,
KRDR,10-07-2007,02:00,METAR,,320,9,,,9999,,13.0,13.0,29.72,1007.4,,,,,,,,,,,,,,,8/8 Overcast,200.0,,OVC,200.0,,,,,,
KRDR,10-07-2007,01:54,SPECI,,320,9,,,9999,,13.0,13.0,29.72,1007.5,,,,,,,,,,,,,,,8/8 Overcast,100.0,,OVC,100.0,,,,,,
KRDR,10-07-2007,01:49,SPECI,,320,9,,,9999,,13.0,13.0,29.72,1007.4,,,,,,,,,,,,,,,8/8 Overcast,200.0,,OVC,200.0,,,,,,
KRDR,10-07-2007,01:30,METAR,,320,11,,,9999,,13.0,13.0,29.72,1007.4,,,,,,,,,,,,,,,7/8 Mostly Cloudy,100.0,,BKN,100.0,,,,,,
KRDR,10-07-2007,01:19,SPECI,,320,10,,,9999,,13.0,13.0,29.71,1007.2,,,,,,,,,,,,,,,2/8 Mostly Clear,72000.0,,FEW,100.0,,,,,,
KRDR,10-07-2007,01:14,SPECI,,310,10,,,9999,,13.0,13.0,29.71,1007.3,,,,,,,,,,,,,,,Clear,300.0,,,73000.0,,,,,,
KRDR,10-07-2007,01:00,METAR,,320,10,,,9999,,13.0,13.0,29.70,1006.9,,,,,,,,,,,,,,,4/8 Partly Cloudy,72000.0,,SCT,100.0,,,,,,
KRDR,10-07-2007,00:47,SPECI,,320,8,,,9999,,13.0,13.0,29.70,1006.7,,,,,,,,,,,,,,,4/8 Partly Cloudy,72000.0,,SCT,100.0,,,,,,
KRDR,10-07-2007,00:32,SPECI,,330,7,,,9999,,13.0,13.0,29.69,1006.4,,,,,,,,,,,,,,,7/8 Mostly Cloudy,100.0,,BKN,100.0,,,,,,
KRDR,10-07-2007,00:09,SPECI,,340,8,,,9999,,14.0,13.0,29.68,1006.2,,,,,,,,,,,,,,,4/8 Partly Cloudy,72000.0,,FEW,100.0,SCT,5400.0,,,,
KRDR,10-07-2007,00:00,METAR,,360,9,,,9999,,14.0,13.0,29.67,1006.0,,,,,,,,,,,,,,,4/8 Partly Cloudy,72000.0,,FEW,100.0,SCT,4800.0,,,,
KRDR,10-06-2007,23:35,SPECI,,340,10,17.0,,9999,,14.0,13.0,29.68,1006.1,,,,,,,,,,,,,,,2/8 Mostly Clear,72000.0,,FEW,100.0,,,,,,
KRDR,10-06-2007,23:13,SPECI,,320,14,,,9999,,14.0,14.0,29.67,1005.9,,,,,,,,,,,,,,,4/8 Partly Cloudy,72000.0,,SCT,100.0,,,,,,
KRDR,10-06-2007,23:02,SPECI,,330,14,,,9999,,15.0,14.0,29.66,1005.7,,,,,,,,,,,,,,,7/8 Mostly Cloudy,100.0,,BKN,100.0,,,,,,
KRDR,10-06-2007,23:00,METAR,,320,13,,,9999,,15.0,14.0,29.66,1005.5,,,,,,,,,,,,,,,8/8 Overcast,100.0,,OVC,800.0,,,,,,
KRDR,10-06-2007,22:54,SPECI,,320,14,,,9999,,15.0,14.0,29.66,1005.6,,,,,,,,,,,,,,,8/8 Overcast,100.0,,OVC,500.0,,,,,,
KRDR,10-06-2007,22:51,SPECI,,320,12,,,9999,,15.0,14.0,29.66,1005.5,,,,,,,,,,,,,,,8/8 Overcast,100.0,,OVC,800.0,,,,,,
KRDR,10-06-2007,22:47,SPECI,,320,11,17.0,,9999,,16.0,14.0,29.66,1005.5,,,,,,,,,,,,,,,8/8 Overcast,500.0,,OVC,1200.0,,,,,,
KRDR,10-06-2007,22:46,SPECI,,320,11,17.0,,9999,,16.0,14.0,29.66,1005.5,,,,,,,,,,,,,,,8/8 Overcast,100.0,,BKN,100.0,OVC,4900.0,,,,
KRDR,10-06-2007,22:43,SPECI,,310,12,17.0,,9999,,16.0,15.0,29.66,1005.5,,,,,,,,,,,,,,,7/8 Mostly Cloudy,500.0,,BKN,1800.0,,,,,,
KRDR,10-06-2007,22:29,SPECI,,320,10,,,9999,,17.0,15.0,29.65,1005.1,,,,,,,,,,,,,,,7/8 Mostly Cloudy,4900.0,,FEW,200.0,BKN,5000.0,,,,
KRDR,10-06-2007,22:00,METAR,,10,7,,,9999,,19.0,16.0,29.63,1004.6,,,,,,,,,,,,,,,7/8 Mostly Cloudy,4900.0,,BKN,5000.0,,,,,,
KRDR,10-06-2007,21:04,SPECI,,10,8,,,9999,,17.0,15.0,29.64,1005.0,,,,,,,,,,,,,,,4/8 Partly Cloudy,72000.0,,SCT,400.0,,,,,,
KRDR,10-06-2007,21:00,METAR,,10,8,,,9999,,17.0,15.0,29.64,1005.0,,,,,,,,,,,,,,,7/8 Mostly Cloudy,300.0,,BKN,300.0,,,,,,
KRDR,10-06-2007,20:13,SPECI,,360,9,,,9999,,16.0,15.0,29.65,1005.2,,,,,,,,,,,,,,,8/8 Overcast,200.0,,OVC,200.0,,,,,,
KRDR,10-06-2007,20:00,METAR,,10,8,,,8000,Mist,16.0,15.0,29.66,1005.6,,,,10,,,,,,,,,,,7/8 Mostly Cloudy,500.0,,BKN,500.0,,,,,,
KRDR,10-06-2007,19:38,SPECI,,360,7,,,8000,Mist,15.0,15.0,29.67,,,,,10,,,,,,,,,,,8/8 Overcast,500.0,,OVC,500.0,,,,,,
KRDR,10-06-2007,19:00,METAR,,40,7,,,6400,Mist,14.0,14.0,29.67,1006.0,,,,10,,,,,,,,,,,8/8 Overcast,400.0,,OVC,400.0,,,,,,
KRDR,10-06-2007,18:32,SPECI,,60,6,,,8000,Mist,14.0,14.0,29.69,,,,,10,,,,,,,,,,,8/8 Overcast,400.0,,OVC,400.0,,,,,,
KRDR,10-06-2007,18:29,SPECI,,50,6,,,9999,Mist,14.0,14.0,29.69,1006.5,10,,,,,,,,,,,,,,8/8 Overcast,200.0,,OVC,400.0,,,,,,
KRDR,10-06-2007,18:18,SPECI,,50,7,,,8000,Mist,14.0,14.0,29.70,1006.9,10,,,,,,,,,,,,,,8/8 Overcast,500.0,,OVC,500.0,,,,,,
KRDR,10-06-2007,18:14,SPECI,,50,7,,,6400,Mist,14.0,14.0,29.70,1006.9,10,,,,,,,,,,,,,,Sky Obscured (Unable to Estimate),200.0,100.0,,800.0,,,,,,
KRDR,10-06-2007,18:08,SPECI,,50,7,,,4800,Mist,13.0,13.0,29.71,1007.1,10,,,,,,,,,,,,,,Sky Obscured (Unable to Estimate),300.0,100.0,,900.0,,,,,,
KRDR,10-06-2007,18:04,SPECI,,40,7,,,4000,Mist,13.0,13.0,29.71,1007.1,10,,,,,,,,,,,,,,Sky Obscured (Unable to Estimate),300.0,100.0,,1100.0,,,,,,
KRDR,10-06-2007,18:00,METAR,,50,7,,,4000,Mist,13.0,13.0,29.71,1007.3,10,,,,,,,,,,,,.01 IN,,Sky Obscured (Unable to Estimate),200.0,100.0,,900.0,,,,,,
KRDR,10-06-2007,17:48,SPECI,,50,6,,,4000,Mist,13.0,13.0,29.71,1007.3,10,,,,,,,,,,,,,,Sky Obscured (Unable to Estimate),200.0,100.0,,900.0,,,,,,
KRDR,10-06-2007,17:46,SPECI,,60,7,,,4000,Mist,13.0,13.0,29.71,1007.3,10,,,,,,,,,,,,,,Sky Obscured (Unable to Estimate),200.0,100.0,,600.0,,,,,,
KRDR,10-06-2007,17:36,SPECI,,50,8,,,3200,Mist,13.0,12.0,29.71,1007.2,10,,,,,,,,,,,,,,Sky Obscured (Unable to Estimate),200.0,100.0,,700.0,,,,,,
KRDR,10-06-2007,17:22,SPECI,,50,7,,,2400,Mist,12.0,12.0,29.72,1007.4,10,,,,,,,,,,,,,,Sky Obscured (Unable to Estimate),500.0,100.0,,500.0,,,,,,
KRDR,10-06-2007,17:02,SPECI,,50,8,,,2000,Mist,12.0,12.0,29.72,1007.6,10,,,,,,,,,,,,,,Sky Obscured (Unable to Estimate),200.0,100.0,,600.0,,,,,,
KRDR,10-06-2007,17:00,METAR,,50,8,,,2000,Mist,12.0,11.0,29.73,1007.7,10,,,,,,,,,,.01 IN,,,,Sky Obscured (Unable to Estimate),200.0,100.0,,700.0,,,,,,
KRDR,10-06-2007,16:47,SPECI,,50,10,,,2000,Mist,11.0,11.0,29.73,1007.8,10,,,,,,,,,,,,,,7/8 Mostly Cloudy,500.0,,BKN,500.0,,,,,,
KRDR,10-06-2007,16:44,SPECI,,60,8,,,1600,Mist,11.0,11.0,29.73,1007.8,10,,,,,,,,,,,,,,7/8 Mostly Cloudy,500.0,,BKN,500.0,,,,,,
KRDR,10-06-2007,16:27,SPECI,,50,9,,,1600,Mist,11.0,11.0,29.74,1008.1,10,,,,,,,,,,,,,,7/8 Mostly Cloudy,500.0,,BKN,500.0,,,,,,
KRDR,10-06-2007,16:25,METAR,,50,8,,,1600,Mist,11.0,11.0,29.74,1008.2,10,,,,,,,,,,,,,,7/8 Mostly Cloudy,400.0,,BKN,400.0,,,,,,
KRDR,10-06-2007,16:20,METAR,,50,7,,,2000,Mist,11.0,11.0,29.74,1008.3,10,,,,,,,,,,,,,,7/8 Mostly Cloudy,400.0,,BKN,400.0,,,,,,
KRDR,10-06-2007,16:16,SPECI,,50,9,,,2000,Mist,11.0,11.0,29.74,1008.3,10,,,,,,,,,,,,,,7/8 Mostly Cloudy,500.0,,BKN,500.0,,,,,,
KRDR,10-06-2007,16:00,METAR,,40,8,,,2800,Mist,11.0,11.0,29.75,1008.6,10,,,,,,,,,,,,,,Sky Obscured (Unable to Estimate),500.0,100.0,,500.0,,,,,,
KRDR,10-06-2007,15:00,METAR,,50,8,,,2800,Mist,10.0,10.0,29.78,1009.6,10,,,,,,,,,,,TRACE,,,Sky Obscured (Unable to Estimate),500.0,100.0,,500.0,,,,,,
KRDR,10-06-2007,14:25,METAR,,50,7,,,2800,Mist,10.0,10.0,29.80,1010.0,10,,,,,,,,,,,,,,Sky Obscured (Unable to Estimate),600.0,100.0,,600.0,,,,,,
KRDR,10-06-2007,14:15,SPECI,,50,8,,,3200,Mist,10.0,10.0,29.80,1010.2,10,,,,,,,,,,,,,,Sky Obscured (Unable to Estimate),600.0,100.0,,600.0,,,,,,
KRDR,10-06-2007,14:00,METAR,,60,8,,,2400,Mist,10.0,10.0,29.81,1010.4,10,,,,,,,,,,TRACE,,,,Sky Obscured (Unable to Estimate),600.0,100.0,,600.0,,,,,,
KRDR,10-06-2007,13:42,SPECI,,60,9,,,2400,Mist,10.0,10.0,29.81,1010.4,10,,,,,,,,,,,,,,Sky Obscured (Unable to Estimate),600.0,100.0,,600.0,,,,,,
KRDR,10-06-2007,13:32,SPECI,,60,8,,,2000,Mist,10.0,10.0,29.81,1010.5,10,,,,,,,,,,,,,,Sky Obscured (Unable to Estimate),600.0,100.0,,600.0,,,,,,
KRDR,10-06-2007,13:25,METAR,,60,8,,,1600,Mist,10.0,10.0,29.81,1010.6,10,,,,,,,,,,,,,,Sky Obscured (Unable to Estimate),600.0,100.0,,600.0,,,,,,
KRDR,10-06-2007,13:00,METAR,,40,8,,,1600,Mist,10.0,10.0,29.82,1010.9,10,,,,,,,,,,,,,,Sky Obscured (Unable to Estimate),600.0,100.0,,600.0,,,,,,
KRDR,10-06-2007,12:55,METAR,,30,8,,,1600,Unknown Precipitation/Mist,10.0,10.0,29.82,1010.8,40,10,,,,,,,,,,,,,Sky Obscured (Unable to Estimate),600.0,100.0,,600.0,,,,,,
KRDR,10-06-2007,12:45,METAR,,30,8,,,2000,Mist,10.0,10.0,29.82,1010.9,10,,,,,,,,,,,,,,Sky Obscured (Unable to Estimate),600.0,100.0,,600.0,,,,,,
KRDR,10-06-2007,12:39,SPECI,,30,7,,,2800,Mist,10.0,9.0,29.83,1011.1,10,,,,,,,,,,,,,,Sky Obscured (Unable to Estimate),600.0,100.0,,600.0,,,,,,
KRDR,10-06-2007,12:37,SPECI,,30,8,,,3200,Mist,10.0,9.0,29.83,1011.1,10,,,,,,,,,,,,,,Sky Obscured (Unable to Estimate),600.0,100.0,,600.0,,,,,,
KRDR,10-06-2007,12:31,SPECI,,30,8,,,4000,Mist,10.0,9.0,29.82,1010.9,10,,,,,,,,,,,,,,Sky Obscured (Unable to Estimate),600.0,100.0,,600.0,,,,,,
KRDR,10-06-2007,12:28,SPECI,,20,7,,,4000,Mist,10.0,9.0,29.82,1010.9,10,,,,,,,,,,,,,,Sky Obscured (Unable to Estimate),600.0,100.0,,600.0,,,,,,
KRDR,10-06-2007,12:00,METAR,,30,7,,,4800,Mist,10.0,9.0,29.81,1010.5,10,,,,,,,,,,,,.01 IN,.1 IN,Sky Obscured (Unable to Estimate),600.0,100.0,,600.0,,,,,,
KRDR,10-06-2007,11:00,METAR,,30,8,,,4800,Mist,10.0,9.0,29.84,1011.4,10,,,,,,,,,,,,,,Sky Obscured (Unable to Estimate),500.0,100.0,,500.0,,,,,,
KRDR,10-06-2007,10:31,SPECI,,30,7,,,6400,Mist,9.0,9.0,29.85,1011.6,10,,,,,,,,,,,,,,Sky Obscured (Unable to Estimate),500.0,100.0,,500.0,,,,,,
KRDR,10-06-2007,10:25,METAR,,40,8,,,6400,Mist,9.0,9.0,29.85,1011.7,10,,,,,,,,,,,,,,Sky Obscured (Unable to Estimate),400.0,100.0,,400.0,,,,,,
KRDR,10-06-2007,10:07,SPECI,,40,8,,,4800,Mist,9.0,9.0,29.85,1011.7,10,,,,,,,,,,,,,,Sky Obscured (Unable to Estimate),500.0,100.0,,500.0,,,,,,
KRDR,10-06-2007,10:00,METAR,,50,8,,,4800,Mist,9.0,9.0,29.85,1011.7,10,,,,,,,,,,.01 IN,,,,8/8 Overcast,400.0,,OVC,400.0,,,,,,
KRDR,10-06-2007,09:45,METAR,,50,9,,,4800,Mist,9.0,9.0,29.84,1011.5,10,,,,,,,,,,,,,,8/8 Overcast,400.0,,OVC,400.0,,,,,,
KRDR,10-06-2007,09:04,SPECI,,30,8,,,6400,Mist,9.0,9.0,29.85,1011.8,10,,,,,,,,,,,,,,Sky Obscured (Unable to Estimate),500.0,100.0,,500.0,,,,,,
KRDR,10-06-2007,09:00,METAR,,20,10,,,6400,Mist,9.0,9.0,29.85,1011.9,10,,,,,,,,,,TRACE,TRACE,,,Sky Obscured (Unable to Estimate),500.0,100.0,,500.0,,,,,,
KRDR,10-06-2007,08:50,METAR,,20,11,,,8000,Mist,9.0,9.0,29.85,1011.9,10,,,,,,,,,,,,,,Sky Obscured (Unable to Estimate),500.0,100.0,,500.0,,,,,,
KRDR,10-06-2007,08:47,SPECI,,10,10,,,8000,Mist,9.0,9.0,29.86,1012.0,10,,,,,,,,,,,,,,Sky Obscured (Unable to Estimate),500.0,100.0,,500.0,,,,,,
KRDR,10-06-2007,08:44,SPECI,,10,10,,,8000,Mist,9.0,9.0,29.86,1012.1,10,,,,,,,,,,,,,,8/8 Overcast,700.0,,SCT,300.0,OVC,700.0,,,,
KRDR,10-06-2007,08:36,SPECI,,20,9,,,8000,Mist,9.0,9.0,29.86,1012.1,10,,,,,,,,,,,,,,Sky Obscured (Unable to Estimate),500.0,100.0,,500.0,,,,,,
KRDR,10-06-2007,08:25,METAR,,20,9,,,6400,Mist,9.0,9.0,29.86,1012.1,10,,,,,,,,,,,,,,Sky Obscured (Unable to Estimate),600.0,100.0,,600.0,,,,,,
KRDR,10-06-2007,08:15,SPECI,,20,10,,,4800,Mist,9.0,9.0,29.86,1012.1,10,,,,,,,,,,,,,,Sky Obscured (Unable to Estimate),500.0,100.0,,500.0,,,,,,
KRDR,10-06-2007,08:13,SPECI,,30,8,,,4800,Light Drizzle/Mist,9.0,9.0,29.86,1012.1,51,10,,,,,,,,,,,,,Sky Obscured (Unable to Estimate),500.0,100.0,,500.0,,,,,,
KRDR,10-06-2007,08:00,METAR,,30,9,,,4800,Light Drizzle/Mist,9.0,9.0,29.86,1012.1,51,10,,,,,,,,,,,,,8/8 Overcast,700.0,,SCT,300.0,OVC,700.0,,,,
KRDR,10-06-2007,07:44,SPECI,,30,8,,,4800,Mist,9.0,9.0,29.86,1012.2,10,,,,,,,,,,,,,,8/8 Overcast,700.0,,SCT,300.0,OVC,700.0,,,,
KRDR,10-06-2007,07:22,SPECI,,30,9,,,6400,Mist,9.0,9.0,29.87,1012.3,10,,,,,,,,,,,,,,8/8 Overcast,500.0,,OVC,500.0,,,,,,
KRDR,10-06-2007,07:16,SPECI,,30,9,,,4800,Mist,9.0,9.0,29.87,1012.4,10,,,,,,,,,,,,,,Sky Obscured (Unable to Estimate),400.0,100.0,,400.0,,,,,,
KRDR,10-06-2007,07:14,SPECI,,30,10,,,4800,Mist,9.0,9.0,29.87,1012.4,10,,,,,,,,,,,,,,Sky Obscured (Unable to Estimate),500.0,100.0,,500.0,,,,,,
KRDR,10-06-2007,07:11,SPECI,,40,8,,,4000,Mist,9.0,9.0,29.87,1012.4,10,,,,,,,,,,,,,,Sky Obscured (Unable to Estimate),500.0,100.0,,500.0,,,,,,
KRDR,10-06-2007,07:06,SPECI,,40,9,,,4000,Mist,9.0,9.0,29.87,1012.4,10,,,,,,,,,,,,,,Sky Obscured (Unable to Estimate),500.0,100.0,,500.0,,,,,,
KRDR,10-06-2007,07:00,METAR,,30,9,,,4000,Mist,9.0,9.0,29.87,1012.6,10,,,,,,,,,,,,,,8/8 Overcast,700.0,,SCT,300.0,OVC,700.0,,,,
KRDR,10-06-2007,06:46,SPECI,,40,10,,,4000,Mist,9.0,9.0,29.87,1012.6,10,,,,,,,,,,,,,,8/8 Overcast,400.0,,OVC,400.0,,,,,,
KRDR,10-06-2007,06:41,SPECI,,30,9,,,4000,Mist,9.0,9.0,29.87,1012.5,10,,,,,,,,,,,,,,8/8 Overcast,300.0,,OVC,300.0,,,,,,
KRDR,10-06-2007,06:37,SPECI,,30,9,,,4000,Mist,9.0,9.0,29.87,1012.5,10,,,,,,,,,,,,,,8/8 Overcast,300.0,,BKN,300.0,OVC,700.0,,,,
KRDR,10-06-2007,06:33,SPECI,,30,11,,,4800,Mist,9.0,9.0,29.87,1012.3,10,,,,,,,,,,,,,,8/8 Overcast,300.0,,OVC,300.0,,,,,,
KRDR,10-06-2007,06:21,SPECI,,30,11,,,9999,,9.0,9.0,29.87,1012.6,,,,,,,,,,,,,,,8/8 Overcast,300.0,,OVC,300.0,,,,,,
KRDR,10-06-2007,06:00,METAR,,40,10,,,9999,,9.0,9.0,29.87,1012.4,,,,,,,,,,,,,.03 IN,,8/8 Overcast,300.0,,OVC,300.0,,,,,,
KRDR,10-06-2007,05:08,SPECI,,40,9,,,9999,,9.0,9.0,29.89,1013.0,,,,,,,,,,,,,,,8/8 Overcast,300.0,,OVC,300.0,,,,,,
KRDR,10-06-2007,05:00,METAR,,50,9,,,6400,Mist,9.0,9.0,29.90,1013.4,10,,,,,,,,,,.01 IN,,,,8/8 Overcast,400.0,,OVC,400.0,,,,,,
KRDR,10-06-2007,04:53,SPECI,,40,9,,,6400,Mist,9.0,9.0,29.90,1013.3,10,,,,,,,,,,,,,,8/8 Overcast,300.0,,OVC,300.0,,,,,,
KRDR,10-06-2007,04:49,SPECI,,40,9,,,6400,Mist,9.0,9.0,29.90,1013.4,10,,,,,,,,,,,,,,8/8 Overcast,400.0,,OVC,400.0,,,,,,
KRDR,10-06-2007,04:40,SPECI,,50,10,,,6400,Light Rain/Mist,9.0,9.0,29.90,1013.6,61,10,,,,,,,,,,,,,8/8 Overcast,300.0,,OVC,300.0,,,,,,
KRDR,10-06-2007,04:34,SPECI,,40,11,,,4800,Unknown Precipitation/Mist,9.0,9.0,29.91,1013.7,40,10,,,,,,,,,,,,,8/8 Overcast,400.0,,OVC,400.0,,,,,,
KRDR,10-06-2007,04:28,SPECI,,40,10,,,4800,Mist,9.0,9.0,29.91,1013.9,10,,,,,,,,,,,,,,8/8 Overcast,400.0,,OVC,400.0,,,,,,
KRDR,10-06-2007,04:14,SPECI,,30,10,,,6400,Mist,9.0,9.0,29.92,1014.0,10,,,,,,,,,,,,,,8/8 Overcast,300.0,,OVC,300.0,,,,,,
KRDR,10-06-2007,04:10,SPECI,,30,9,,,8000,Mist,9.0,9.0,29.92,1014.0,10,,,,,,,,,,,,,,8/8 Overcast,300.0,,OVC,300.0,,,,,,
KRDR,10-06-2007,04:00,METAR,,30,9,,,9999,,9.0,9.0,29.92,1014.0,,,,,,,,,,,TRACE,,,,8/8 Overcast,300.0,,OVC,300.0,,,,,,
KRDR,10-06-2007,03:40,SPECI,,30,10,,,9999,,9.0,9.0,29.92,1014.2,,,,,,,,,,,,,,,8/8 Overcast,300.0,,OVC,300.0,,,,,,
KRDR,10-06-2007,03:28,SPECI,,20,12,,,6400,Mist,9.0,9.0,29.93,1014.4,10,,,,,,,,,,,,,,8/8 Overcast,300.0,,OVC,300.0,,,,,,
KRDR,10-06-2007,03:17,SPECI,,20,11,,,6400,Light Rain/Mist,9.0,9.0,29.93,1014.3,61,10,,,,,,,,,,,,,8/8 Overcast,300.0,,OVC,300.0,,,,,,
KRDR,10-06-2007,03:14,SPECI,,20,12,,,6400,Mist,9.0,9.0,29.93,1014.4,10,,,,,,,,,,,,,,8/8 Overcast,400.0,,OVC,400.0,,,,,,
KRDR,10-06-2007,03:00,METAR,,30,11,,,6400,Mist,9.0,9.0,29.92,1014.2,10,,,,,,,,,,,.02 IN,,,8/8 Overcast,300.0,,OVC,300.0,,,,,,
KRDR,10-06-2007,02:06,SPECI,,30,12,,,6400,Mist,9.0,9.0,29.92,1014.1,10,,,,,,,,,,,,,,8/8 Overcast,300.0,,OVC,300.0,,,,,,
KRDR,10-06-2007,02:00,METAR,,30,10,,,6400,Mist,9.0,9.0,29.92,1014.0,10,,,,,,,,,,.01 IN,,,,8/8 Overcast,400.0,,OVC,400.0,,,,,,
KRDR,10-06-2007,01:19,SPECI,,30,11,,,6400,Mist,9.0,9.0,29.93,1014.3,10,,,,,,,,,,,,,,8/8 Overcast,300.0,,OVC,300.0,,,,,,
KRDR,10-06-2007,01:00,METAR,,20,12,,,8000,Unknown Precipitation/Mist,9.0,9.0,29.92,1014.2,40,10,,,,,,,,,.01 IN,,,,8/8 Overcast,300.0,,OVC,300.0,,,,,,
KRDR,10-06-2007,00:50,METAR,,20,12,,,8000,Fog or Ice Fog/Mist,9.0,9.0,29.92,1014.2,,,,40,10,,,,,,,,,,8/8 Overcast,300.0,,OVC,300.0,,,,,,
KRDR,10-06-2007,00:48,SPECI,,20,11,,,8000,Fog or Ice Fog/Mist,9.0,9.0,29.92,1014.2,,,,40,10,,,,,,,,,,8/8 Overcast,400.0,,OVC,400.0,,,,,,
KRDR,10-06-2007,00:46,SPECI,,30,12,,,8000,Fog or Ice Fog/Mist,9.0,9.0,29.92,1014.2,,,,40,10,,,,,,,,,,8/8 Overcast,400.0,,OVC,400.0,,,,,,
KRDR,10-06-2007,00:39,SPECI,,30,12,,,6400,Mist,9.0,9.0,29.92,1014.1,,,,10,,,,,,,,,,,8/8 Overcast,400.0,,OVC,400.0,,,,,,
KRDR,10-06-2007,00:12,SPECI,,30,11,,,4800,Rain/Mist,9.0,9.0,29.92,1014.2,,,,61,10,,,,,,,,,,8/8 Overcast,400.0,,OVC,400.0,,,,,,
KRDR,10-06-2007,00:00,METAR,,30,13,,,2800,Light Rain/Mist,9.0,9.0,29.92,1014.0,61,10,,,,,,,,,TRACE,,.06 IN,,2/8 Mostly Clear,72000.0,,FEW,300.0,,,,,,
KRDR,10-05-2007,23:50,METAR,,40,13,,,2800,Light Rain/Mist,9.0,9.0,29.92,1014.0,61,10,,,,,,,,,,,,,2/8 Mostly Clear,72000.0,,FEW,100.0,,,,,,
KRDR,10-05-2007,23:42,SPECI,,40,13,,,2800,Light Rain/Mist,9.0,9.0,29.91,1013.9,61,10,,,,,,,,,,,,,2/8 Mostly Clear,72000.0,,FEW,200.0,,,,,,
KRDR,10-05-2007,23:27,SPECI,,30,11,,,2800,Mist,9.0,9.0,29.92,1014.0,,10,,,,,,,,,,,,,Clear,400.0,,,73000.0,,,,,,
KRDR,10-05-2007,23:18,SPECI,,40,12,,,2800,Mist,9.0,9.0,29.91,1013.9,10,,,,,,,,,,,,,,Clear,400.0,,,73000.0,,,,,,
KRDR,10-05-2007,23:00,METAR,,40,12,,,4000,Mist,9.0,9.0,29.92,1014.0,10,,,,,,,,,,.01 IN,,,,2/8 Mostly Clear,72000.0,,FEW,300.0,,,,,,
KRDR,10-05-2007,22:43,SPECI,,40,12,,,4000,Mist,10.0,9.0,29.91,1013.9,10,,,,,,,,,,,,,,2/8 Mostly Clear,72000.0,,FEW,100.0,,,,,,
KRDR,10-05-2007,22:36,SPECI,,40,11,,,4000,Mist,10.0,9.0,29.92,1014.0,10,,,,,,,,,,,,,,2/8 Mostly Clear,72000.0,,FEW,100.0,,,,,,
KRDR,10-05-2007,22:26,SPECI,,50,9,,,4000,Light Rain/Mist,10.0,9.0,29.92,1014.0,61,10,,,,,,,,,,,,,2/8 Mostly Clear,72000.0,,FEW,100.0,,,,,,
KRDR,10-05-2007,22:17,SPECI,,40,10,,,4000,Mist,10.0,9.0,29.92,1014.0,10,,,,,,,,,,,,,,4/8 Partly Cloudy,72000.0,,SCT,100.0,,,,,,
KRDR,10-05-2007,22:00,METAR,,50,10,,,3200,Light Drizzle/Mist,10.0,9.0,29.92,1014.0,51,10,,,,,,,,,.01 IN,,,,8/8 Overcast,200.0,,OVC,200.0,,,,,,
KRDR,10-05-2007,21:54,SPECI,,50,9,,,4000,Light Drizzle/Mist,10.0,9.0,29.92,1014.0,51,10,,,,,,,,,,,,,8/8 Overcast,100.0,,OVC,100.0,,,,,,
KRDR,10-05-2007,21:32,SPECI,,70,12,,,3200,Light Rain/Mist,10.0,9.0,29.92,1014.1,61,10,,,,,,,,,,,,,7/8 Mostly Cloudy,100.0,,BKN,200.0,,,,,,
KRDR,10-05-2007,21:29,SPECI,,70,11,,,2800,Light Rain/Mist,10.0,9.0,29.92,1014.1,61,10,,,,,,,,,,,,,7/8 Mostly Cloudy,100.0,,BKN,200.0,,,,,,
KRDR,10-05-2007,21:18,SPECI,,60,11,,,4000,Light Drizzle/Mist,10.0,9.0,29.92,1014.1,51,10,,,,,,,,,,,,,8/8 Overcast,100.0,,OVC,300.0,,,,,,
KRDR,10-05-2007,21:10,SPECI,,60,10,,,4000,Light Rain/Mist,10.0,9.0,29.92,1014.2,61,10,,,,,,,,,,,,,8/8 Overcast,100.0,,OVC,400.0,,,,,,
KRDR,10-05-2007,21:06,SPECI,,60,10,,,4000,Light Rain/Mist,10.0,9.0,29.93,1014.3,61,10,,,,,,,,,,,,,8/8 Overcast,100.0,,OVC,500.0,,,,,,
KRDR,10-05-2007,21:00,METAR,,60,11,,,4800,Mist,10.0,9.0,29.93,1014.3,10,,,,,,,,,,.01 IN,.04 IN,,,8/8 Overcast,100.0,,OVC,600.0,,,,,,
KRDR,10-05-2007,20:53,SPECI,,60,11,,,4800,Mist,10.0,9.0,29.93,1014.4,10,,,,,,,,,,,,,,8/8 Overcast,100.0,,OVC,500.0,,,,,,
KRDR,10-05-2007,20:38,SPECI,,60,12,,,6400,Mist,10.0,9.0,29.93,1014.3,10,,,,,,,,,,,,,,7/8 Mostly Cloudy,200.0,,BKN,600.0,,,,,,
KRDR,10-05-2007,20:36,SPECI,,60,11,,,6400,Light Drizzle/Mist,10.0,9.0,29.93,1014.3,51,10,,,,,,,,,,,,,7/8 Mostly Cloudy,200.0,,BKN,600.0,,,,,,
KRDR,10-05-2007,20:34,SPECI,,60,13,,,6400,Light Drizzle/Mist,10.0,9.0,29.92,1014.2,51,10,,,,,,,,,,,,,7/8 Mostly Cloudy,200.0,,BKN,700.0,,,,,,
KRDR,10-05-2007,20:28,SPECI,,60,13,,,8000,Light Drizzle/Mist,10.0,9.0,29.93,1014.3,51,10,,,,,,,,,,,,,8/8 Overcast,100.0,,OVC,600.0,,,,,,
KRDR,10-05-2007,20:26,SPECI,,60,13,,,9999,Mist,10.0,9.0,29.93,1014.4,10,,,,,,,,,,,,,,8/8 Overcast,100.0,,OVC,600.0,,,,,,
KRDR,10-05-2007,20:22,SPECI,,60,12,,,8000,Mist,10.0,9.0,29.93,1014.5,10,,,,,,,,,,,,,,8/8 Overcast,200.0,,OVC,700.0,,,,,,
KRDR,10-05-2007,20:14,SPECI,,60,13,,,8000,Mist,10.0,9.0,29.93,1014.5,10,,,,,,,,,,,,,,8/8 Overcast,100.0,,OVC,500.0,,,,,,
KRDR,10-05-2007,20:00,METAR,,60,13,,,8000,Light Drizzle/Mist,10.0,9.0,29.93,1014.5,51,10,,,,,,,,,.01 IN,,,,8/8 Overcast,200.0,,OVC,200.0,,,,,,
KRDR,10-05-2007,19:45,METAR,,50,12,20.0,,8000,Mist,9.0,9.0,29.93,1014.5,,10,,,,,,,,,,,,,8/8 Overcast,200.0,,OVC,200.0,,,,,,
KRDR,10-05-2007,19:29,SPECI,,50,12,,,4800,Light Rain/Mist,9.0,9.0,29.94,1014.8,61,10,,,,,,,,,,,,,7/8 Mostly Cloudy,100.0,,BKN,100.0,,,,,,
KRDR,10-05-2007,19:08,SPECI,,40,12,,,3200,Drizzle/Mist,9.0,8.0,29.95,,,,,51,10,,,,,,,,,,8/8 Overcast,1800.0,,FEW,700.0,BKN,1800.0,OVC,2500.0,,
KRDR,10-05-2007,19:00,METAR,,50,13,,,4800,Drizzle/Mist,9.0,8.0,29.95,1015.1,,,,51,10,,,,,,.02 IN,,,,8/8 Overcast,1700.0,,BKN,1700.0,OVC,2800.0,,,,
KRDR,10-05-2007,18:48,SPECI,,50,13,,,4800,Light Rain Showers/Mist,9.0,8.0,29.95,,,,,80,10,,,,,,,,,,8/8 Overcast,1700.0,,BKN,1700.0,OVC,2800.0,,,,
KRDR,10-05-2007,18:37,SPECI,,40,16,,,4000,Light Rain Showers/Mist,9.0,8.0,29.96,,,,,80,10,,,,,,,,,,8/8 Overcast,1700.0,,BKN,1700.0,OVC,2800.0,,,,
KRDR,10-05-2007,18:00,METAR,,50,10,,,9999,Light Rain Showers,10.0,7.0,29.99,1016.4,,,,80,,,,,,,TRACE,,TRACE,,8/8 Overcast,2100.0,,OVC,2100.0,,,,,,
KRDR,10-05-2007,17:33,SPECI,,70,10,,,9999,Light Rain Showers,10.0,7.0,30.00,,,,,80,,,,,,,,,,,8/8 Overcast,2400.0,,BKN,2400.0,OVC,3300.0,,,,
KRDR,10-05-2007,17:24,SPECI,,90,11,19.0,,9999,,10.0,7.0,29.99,1016.2,,,,,,,,,,,,,,,4/8 Partly Cloudy,72000.0,,SCT,2800.0,,,,,,
KRDR,10-05-2007,17:17,SPECI,,80,10,23.0,,9999,Light Rain Showers,11.0,7.0,29.98,,,,,80,,,,,,,,,,,8/8 Overcast,3000.0,,OVC,3000.0,,,,,,
KRDR,10-05-2007,17:07,SPECI,,80,18,23.0,,9999,Light Rain Showers,11.0,5.0,29.98,,,,,80,,,,,,,,,,,8/8 Overcast,3000.0,,OVC,3000.0,,,,,,
KRDR,10-05-2007,17:00,METAR,,80,17,22.0,,9999,,11.0,5.0,29.98,1016.0,,,,,,,,,,,TRACE,,,,8/8 Overcast,3100.0,,OVC,3100.0,,,,,,
KRDR,10-05-2007,16:41,SPECI,,70,18,24.0,,9999,,11.0,6.0,29.98,,,,,,,,,,,,,,,,8/8 Overcast,3000.0,,OVC,3000.0,,,,,,
KRDR,10-05-2007,16:31,SPECI,,70,13,24.0,,9999,Rain,11.0,5.0,30.00,,,,,61,,,,,,,,,,,8/8 Overcast,3000.0,,OVC,3000.0,,,,,,
KRDR,10-05-2007,16:00,METAR,,80,13,17.0,,9999,,12.0,3.0,30.02,1017.5,,,,,,,,,,,,,,,8/8 Overcast,3100.0,,OVC,3200.0,,,,,,
KRDR,10-05-2007,15:00,METAR,,60,14,,,9999,,11.0,2.0,30.04,1018.0,,,,,,,,,,,,,,,8/8 Overcast,4400.0,,OVC,4500.0,,,,,,
KRDR,10-05-2007,14:00,METAR,,50,12,,,9999,,11.0,2.0,30.05,1018.5,,,,,,,,,,,,,,,8/8 Overcast,4800.0,,OVC,4900.0,,,,,,
KRDR,10-05-2007,13:00,METAR,,40,10,,,9999,,10.0,3.0,30.06,1018.8,,,,,,,,,,,,,,,8/8 Overcast,7500.0,,OVC,7400.0,,,,,,
KRDR,10-05-2007,12:00,METAR,,70,10,,,9999,,11.0,1.0,30.06,1018.8,,,,,,,,,,,,,,,8/8 Overcast,9500.0,,BKN,9400.0,OVC,15000.0,,,,
KRDR,10-05-2007,11:00,METAR,,50,10,,,9999,,11.0,0.0,30.06,1018.6,,,,,,,,,,,,,,,8/8 Overcast,11000.0,,SCT,8900.0,OVC,11000.0,,,,
KRDR,10-05-2007,10:00,METAR,,60,8,,,9999,,11.0,1.0,30.07,1019.0,,,,,,,,,,,,,,,8/8 Overcast,9000.0,,OVC,8900.0,,,,,,
KRDR,10-05-2007,09:00,METAR,,20,8,,,9999,,9.0,7.0,30.06,1018.5,,,,,,,,,,,,,,,8/8 Overcast,10000.0,,BKN,9900.0,OVC,15000.0,,,,
KRDR,10-05-2007,08:00,METAR,,10,5,,,9999,,9.0,4.0,30.07,1019.0,,,,,,,,,,,,,,,7/8 Mostly Cloudy,25000.0,,SCT,13000.0,BKN,25000.0,,,,
KRDR,10-05-2007,07:00,METAR,,20,3,,,9999,,7.0,3.0,30.07,1018.9,,,,,,,,,,,,,,,7/8 Mostly Cloudy,12000.0,,BKN,12000.0,BKN,25000.0,,,,
KRDR,10-05-2007,06:00,METAR,,350,4,,,9999,,7.0,3.0,30.06,1018.6,,,,,,,,,,,,,,,4/8 Partly Cloudy,72000.0,,FEW,12000.0,SCT,25000.0,,,,
KRDR,10-05-2007,05:00,METAR,,350,3,,,9999,,9.0,5.0,30.06,1018.7,,,,,,,,,,,,,,,8/8 Overcast,12000.0,,OVC,12000.0,,,,,,
KRDR,10-05-2007,04:00,METAR,,10,2,,,9999,,10.0,5.0,30.07,1019.0,,,,,,,,,,,,,,,8/8 Overcast,12000.0,,OVC,12000.0,,,,,,
KRDR,10-05-2007,03:00,METAR,,,0,,,9999,,11.0,4.0,30.06,1018.8,,,,,,,,,,,,,,,7/8 Mostly Cloudy,12000.0,,BKN,12000.0,,,,,,
KRDR,10-05-2007,02:00,METAR,,,0,,,9999,,11.0,5.0,30.05,1018.0,,,,,,,,,,,,,,,7/8 Mostly Cloudy,11000.0,,BKN,11000.0,,,,,,
KRDR,10-05-2007,01:45,METAR,,,0,,,9999,Haze,12.0,5.0,30.05,1018.5,,,,5,,,,,,,,,,,8/8 Overcast,11000.0,,OVC,11000.0,,,,,,
KRDR,10-05-2007,01:43,SPECI,,,0,,,9999,Haze,12.0,5.0,30.05,1018.4,,,,5,,,,,,,,,,,8/8 Overcast,11000.0,,OVC,11000.0,,,,,,
KRDR,10-05-2007,01:00,METAR,,,0,,,9999,,13.0,4.0,30.04,1018.0,,,,,,,,,,,,,,,8/8 Overcast,11000.0,,OVC,11000.0,,,,,,
KRDR,10-05-2007,00:00,METAR,,,0,,,9999,,14.0,3.0,30.01,1017.1,,,,,,,,,,,,,,,8/8 Overcast,12000.0,,OVC,12000.0,,,,,,
KRDR,10-04-2007,23:00,METAR,,30,3,,,9999,,16.0,2.0,30.00,1016.6,,,,,,,,,,,,,,,7/8 Mostly Cloudy,12000.0,,BKN,12000.0,BKN,25000.0,,,,
KRDR,10-04-2007,22:00,METAR,,,0,,,9999,,16.0,1.0,29.99,1016.4,,,,,,,,,,,,,,,7/8 Mostly Cloudy,12000.0,,BKN,12000.0,BKN,25000.0,,,,
KRDR,10-04-2007,21:00,METAR,,350,3,,,9999,,16.0,2.0,29.98,1016.1,,,,,,,,,,,,,,,7/8 Mostly Cloudy,12000.0,,BKN,12000.0,BKN,25000.0,,,,
KRDR,10-04-2007,20:00,METAR,,,0,,,9999,,16.0,2.0,29.98,1016.0,,,,,,,,,,,,,,,8/8 Overcast,12000.0,,BKN,12000.0,OVC,25000.0,,,,
KRDR,10-04-2007,19:00,METAR,,,3,,,9999,,16.0,3.0,29.97,1015.6,,,,,,,,,,,,,,,8/8 Overcast,12000.0,,BKN,12000.0,OVC,25000.0,,,,
KRDR,10-04-2007,18:00,METAR,,330,4,,,9999,,16.0,3.0,29.96,1015.2,,,,,,,,,,,,,,,8/8 Overcast,12000.0,,BKN,12000.0,OVC,25000.0,,,,
KRDR,10-04-2007,17:00,METAR,,320,6,,,9999,,15.0,4.0,29.93,1014.6,,,,,,,,,,,,,,,7/8 Mostly Cloudy,12000.0,,BKN,12000.0,BKN,25000.0,,,,
KRDR,10-04-2007,16:00,METAR,,340,5,,,9999,,14.0,5.0,29.93,1014.3,,,,,,,,,,,,,,,7/8 Mostly Cloudy,12000.0,,BKN,12000.0,BKN,25000.0,,,,
KRDR,10-04-2007,15:00,METAR,,290,6,,,9999,,12.0,4.0,29.92,1014.0,,,,,,,,,,,,,,,7/8 Mostly Cloudy,12000.0,,BKN,12000.0,BKN,25000.0,,,,
KRDR,10-04-2007,14:00,METAR,,280,5,,,9999,,9.0,4.0,29.89,1013.1,,,,,,,,,,,,,,,7/8 Mostly Cloudy,12000.0,,BKN,12000.0,,,,,,
KRDR,10-04-2007,13:00,METAR,,280,5,,,9999,,8.0,3.0,29.86,1012.2,,,,,,,,,,,,,,,7/8 Mostly Cloudy,12000.0,,BKN,12000.0,,,,,,
KRDR,10-04-2007,12:00,METAR,,280,6,,,9999,,8.0,4.0,29.83,1011.0,,,,,,,,,,,,,,,7/8 Mostly Cloudy,15000.0,,BKN,15000.0,,,,,,
KRDR,10-04-2007,11:00,METAR,,280,5,,,9999,,8.0,4.0,29.79,1009.7,,,,,,,,,,,,,,,7/8 Mostly Cloudy,15000.0,,BKN,15000.0,,,,,,
KRDR,10-04-2007,10:00,METAR,,330,5,,,9999,,10.0,5.0,29.75,1008.5,,,,,,,,,,,,,,,Clear,72000.0,,,73000.0,,,,,,
KRDR,10-04-2007,09:00,METAR,,300,6,,,9999,,11.0,5.0,29.73,1007.8,,,,,,,,,,,,,,,Clear,72000.0,,,73000.0,,,,,,
KRDR,10-04-2007,08:00,METAR,,280,7,,,9999,,14.0,6.0,29.71,1007.3,,,,,,,,,,,,,,,Clear,72000.0,,,73000.0,,,,,,
KRDR,10-04-2007,07:00,METAR,,270,9,,,9999,,16.0,6.0,29.69,1006.4,,,,,,,,,,,,,,,Clear,72000.0,,,73000.0,,,,,,
KRDR,10-04-2007,06:00,METAR,,290,14,,,9999,,18.0,6.0,29.66,1005.6,,,,,,,,,,,,,,,Clear,72000.0,,,73000.0,,,,,,
KRDR,10-04-2007,05:00,METAR,,290,10,,,9999,,17.0,5.0,29.64,1004.7,,,,,,,,,,,,,,,2/8 Mostly Clear,72000.0,,FEW,12000.0,,,,,,
KRDR,10-04-2007,04:00,METAR,,300,9,,,9999,,15.0,3.0,29.63,1004.7,,,,,,,,,,,,,,,2/8 Mostly Clear,72000.0,,FEW,11000.0,,,,,,
KRDR,10-04-2007,03:00,METAR,,250,6,,,9999,,13.0,3.0,29.61,1004.0,,,,,,,,,,,,,,,7/8 Mostly Cloudy,20000.0,,FEW,12000.0,BKN,20000.0,,,,
KRDR,10-04-2007,02:00,METAR,,180,8,,,9999,,14.0,3.0,29.59,1003.1,,,,,,,,,,,,,,,4/8 Partly Cloudy,72000.0,,SCT,12000.0,SCT,25000.0,,,,
KRDR,10-04-2007,01:00,METAR,,170,9,,,9999,,16.0,3.0,29.58,1003.0,,,,,,,,,,,,,,,7/8 Mostly Cloudy,25000.0,,SCT,12000.0,BKN,25000.0,,,,
KRDR,10-04-2007,00:00,METAR,,160,10,,,9999,,18.0,3.0,29.57,1002.6,,,,,,,,,,,,,,,7/8 Mostly Cloudy,25000.0,,SCT,12000.0,BKN,25000.0,,,,
KRDR,10-03-2007,23:00,METAR,,160,12,,,9999,,22.0,3.0,29.57,1002.7,,,,,,,,,,,,,,,4/8 Partly Cloudy,72000.0,,FEW,9900.0,FEW,18000.0,SCT,25000.0,,
KRDR,10-03-2007,22:00,METAR,,200,9,,,9999,,23.0,2.0,29.57,1002.6,,,,,,,,,,,,,,,4/8 Partly Cloudy,72000.0,,FEW,9900.0,FEW,18000.0,SCT,25000.0,,
KRDR,10-03-2007,21:00,METAR,,220,12,,,9999,,22.0,1.0,29.59,1003.1,,,,,,,,,,,,,,,7/8 Mostly Cloudy,25000.0,,FEW,12000.0,SCT,18000.0,BKN,25000.0,,
KRDR,10-03-2007,20:00,METAR,,230,16,20.0,,9999,,23.0,1.0,29.60,1003.7,,,,,,,,,,,,,,,7/8 Mostly Cloudy,25000.0,,FEW,12000.0,SCT,18000.0,BKN,25000.0,,
KRDR,10-03-2007,19:00,METAR,,230,16,21.0,,9999,,22.0,2.0,29.62,1004.1,,,,,,,,,,,,,,,7/8 Mostly Cloudy,25000.0,,SCT,13000.0,SCT,18000.0,BKN,25000.0,,
KRDR,10-03-2007,18:00,METAR,,240,15,21.0,,9999,,22.0,1.0,29.63,1004.6,,,,,,,,,,,,,,,7/8 Mostly Cloudy,25000.0,,SCT,13000.0,BKN,25000.0,,,,
KRDR,10-03-2007,17:00,METAR,,210,10,,,9999,,19.0,2.0,29.65,1005.1,,,,,,,,,,,,,,,7/8 Mostly Cloudy,25000.0,,SCT,14000.0,BKN,25000.0,,,,
KRDR,10-03-2007,16:00,METAR,,220,11,,,9999,,18.0,2.0,29.66,1005.6,,,,,,,,,,,,,,,4/8 Partly Cloudy,72000.0,,FEW,15000.0,SCT,25000.0,,,,
KRDR,10-03-2007,15:00,METAR,,220,12,,,9999,,14.0,1.0,29.66,1005.6,,,,,,,,,,,,,,,4/8 Partly Cloudy,72000.0,,SCT,25000.0,,,,,,
KRDR,10-03-2007,14:00,METAR,,230,9,,,9999,,11.0,1.0,29.66,1005.6,,,,,,,,,,,,,,,2/8 Mostly Clear,72000.0,,FEW,25000.0,,,,,,
KRDR,10-03-2007,13:00,METAR,,230,8,,,9999,,8.0,1.0,29.67,1005.8,,,,,,,,,,,,,,,2/8 Mostly Clear,72000.0,,FEW,25000.0,,,,,,
KRDR,10-03-2007,12:00,METAR,,230,7,,,9999,,7.0,1.0,29.66,1005.6,,,,,,,,,,,,,,,2/8 Mostly Clear,72000.0,,FEW,25000.0,,,,,,
KRDR,10-03-2007,11:00,METAR,,230,7,,,9999,,7.0,1.0,29.66,1005.7,,,,,,,,,,,,,,,Clear,72000.0,,,73000.0,,,,,,
KRDR,10-03-2007,10:00,METAR,,230,7,,,9999,,6.0,1.0,29.66,1005.6,,,,,,,,,,,,,,,Clear,72000.0,,,73000.0,,,,,,
KRDR,10-03-2007,09:00,METAR,,230,7,,,9999,,6.0,1.0,29.67,1005.9,,,,,,,,,,,,,,,Clear,72000.0,,,73000.0,,,,,,
KRDR,10-03-2007,08:00,METAR,,240,6,,,9999,,6.0,1.0,29.68,1006.3,,,,,,,,,,,,,,,Clear,72000.0,,,73000.0,,,,,,
KRDR,10-03-2007,07:00,METAR,,230,5,,,9999,,6.0,2.0,29.69,1006.5,,,,,,,,,,,,,,,Clear,72000.0,,,73000.0,,,,,,
KRDR,10-03-2007,06:00,METAR,,230,4,,,9999,,5.0,2.0,29.70,1006.9,,,,,,,,,,,,,,,Clear,72000.0,,,73000.0,,,,,,
KRDR,10-03-2007,05:00,METAR,,250,7,,,9999,,5.0,1.0,29.71,1007.0,,,,,,,,,,,,,,,Clear,72000.0,,,73000.0,,,,,,
KRDR,10-03-2007,04:00,METAR,,260,6,,,9999,,9.0,2.0,29.71,1007.0,,,,,,,,,,,,,,,Clear,72000.0,,,73000.0,,,,,,
KRDR,10-03-2007,03:00,METAR,,290,6,,,9999,,10.0,2.0,29.70,1006.8,,,,,,,,,,,,,,,Clear,72000.0,,,73000.0,,,,,,
KRDR,10-03-2007,02:00,METAR,,310,7,,,9999,,10.0,2.0,29.69,1006.4,,,,,,,,,,,,,,,Clear,72000.0,,,73000.0,,,,,,
KRDR,10-03-2007,01:00,METAR,,310,7,,,9999,,14.0,1.0,29.67,1005.9,,,,,,,,,,,,,,,2/8 Mostly Clear,72000.0,,FEW,20000.0,,,,,,
KRDR,10-03-2007,00:00,METAR,,330,11,,,9999,,17.0,0.0,29.65,1005.3,,,,,,,,,,,,,,,2/8 Mostly Clear,72000.0,,FEW,12000.0,FEW,20000.0,,,,
KRDR,10-02-2007,23:00,METAR,,320,16,24.0,,9999,,19.0,0.0,29.64,1004.9,,,,,,,,,,,,,,,2/8 Mostly Clear,72000.0,,FEW,12000.0,FEW,20000.0,,,,
KRDR,10-02-2007,22:00,METAR,,320,14,24.0,,9999,,20.0,2.0,29.62,1004.2,,,,,,,,,,,,,,,4/8 Partly Cloudy,72000.0,,FEW,7900.0,FEW,15000.0,SCT,20000.0,,
KRDR,10-02-2007,21:00,METAR,,320,17,25.0,330/26KTS,9999,,20.0,4.0,29.61,1004.0,,,,,,,,,,,,,,,7/8 Mostly Cloudy,20000.0,,FEW,7900.0,SCT,15000.0,BKN,20000.0,,
KRDR,10-02-2007,20:00,METAR,,320,11,,,9999,,19.0,7.0,29.61,1003.8,,,,,,,,,,,,,,,7/8 Mostly Cloudy,20000.0,,SCT,7400.0,SCT,15000.0,BKN,20000.0,,
KRDR,10-02-2007,19:00,METAR,,330,13,23.0,,9999,,18.0,5.0,29.60,1003.6,,,,,,,,,,,,,,,8/8 Overcast,15000.0,,FEW,7900.0,BKN,15000.0,OVC,20000.0,,
KRDR,10-02-2007,18:00,METAR,,320,10,,,9999,,17.0,8.0,29.60,1003.4,,,,,,,,,,,TRACE,,TRACE,,8/8 Overcast,15000.0,,SCT,7900.0,BKN,15000.0,OVC,20000.0,,
KRDR,10-02-2007,17:47,SPECI,,330,10,,,9999,,16.0,8.0,29.60,1003.4,,,,,,,,,,,,,,,8/8 Overcast,15000.0,,SCT,7900.0,BKN,15000.0,OVC,20000.0,,
KRDR,10-02-2007,17:00,METAR,,310,10,25.0,,9999,Rain,15.0,8.0,29.58,1002.9,,,,61,,,,,,,TRACE,,,,8/8 Overcast,10000.0,,FEW,4900.0,BKN,9900.0,OVC,18000.0,,
KRDR,10-02-2007,16:41,SPECI,,290,15,20.0,,9999,Rain,15.0,8.0,29.57,1002.6,,,,61,,,,,,,,,,,8/8 Overcast,9500.0,,SCT,4000.0,BKN,9400.0,OVC,18000.0,,
KRDR,10-02-2007,16:25,METAR,,320,12,,,9999,,15.0,9.0,29.56,1002.1,,,,,,,,,,,,,,,8/8 Overcast,18000.0,,SCT,9900.0,OVC,18000.0,,,,
KRDR,10-02-2007,16:12,SPECI,,320,15,23.0,,9999,,15.0,9.0,29.54,1001.5,,,,,,,,,,,,,,,8/8 Overcast,11000.0,,BKN,11000.0,OVC,25000.0,,,,
KRDR,10-02-2007,16:00,METAR,,320,17,22.0,,9999,,15.0,10.0,29.53,1001.4,,,,,,,,,,,TRACE,,,,8/8 Overcast,18000.0,,SCT,12000.0,BKN,18000.0,OVC,25000.0,,
KRDR,10-02-2007,15:43,SPECI,,320,16,,,9999,,15.0,10.0,29.54,1001.4,,,,,,,,,,,,,,,8/8 Overcast,18000.0,,SCT,11000.0,BKN,18000.0,OVC,25000.0,,
KRDR,10-02-2007,15:18,SPECI,,310,13,19.0,,9999,Rain,15.0,10.0,29.53,1001.3,,,,61,,,,,,,,,,,8/8 Overcast,11000.0,,BKN,11000.0,OVC,25000.0,,,,
KRDR,10-02-2007,15:00,METAR,,290,12,15.0,,9999,,15.0,10.0,29.52,1000.8,,,,,,,,,,,,,,,8/8 Overcast,12000.0,,FEW,3000.0,BKN,12000.0,OVC,25000.0,,
KRDR,10-02-2007,14:00,METAR,,280,8,,,9999,,14.0,10.0,29.53,1001.1,,,,,,,,,,,,,,,8/8 Overcast,10000.0,,SCT,3900.0,OVC,9900.0,,,,
KRDR,10-02-2007,13:00,METAR,,240,5,,,9999,,12.0,9.0,29.53,1001.2,,,,,,,,,,,,,,,8/8 Overcast,12000.0,,SCT,4000.0,BKN,12000.0,OVC,25000.0,,
KRDR,10-02-2007,12:00,METAR,,180,5,,,9999,,15.0,10.0,29.50,1000.3,,,,,,,,,,,,,,,8/8 Overcast,15000.0,,BKN,15000.0,OVC,25000.0,,,,
KRDR,10-02-2007,11:00,METAR,,180,10,,,9999,,16.0,10.0,29.53,1001.2,,,,,,,,,,,,,,,8/8 Overcast,15000.0,,SCT,9900.0,BKN,15000.0,OVC,25000.0,,
KRDR,10-02-2007,10:00,METAR,,160,13,,,9999,,16.0,10.0,29.53,1001.1,,,,,,,,,,,,,,,Clear,72000.0,,,73000.0,,,,,,
KRDR,10-02-2007,09:00,METAR,,160,12,,,9999,,15.0,10.0,29.55,1001.9,,,,,,,,,,,,,,,Clear,72000.0,,,73000.0,,,,,,
KRDR,10-02-2007,08:00,METAR,,160,13,,,9999,,15.0,10.0,29.57,1002.5,,,,,,,,,,,,,,,Clear,72000.0,,,73000.0,,,,,,
KRDR,10-02-2007,07:00,METAR,,160,14,,,9999,,15.0,9.0,29.60,1003.6,,,,,,,,,,,,,,,Clear,72000.0,,,73000.0,,,,,,
KRDR,10-02-2007,06:00,METAR,,150,13,,,9999,,15.0,9.0,29.63,1004.6,,,,,,,,,,,,,,,Clear,72000.0,,,73000.0,,,,,,
KRDR,10-02-2007,05:00,METAR,,150,15,,,9999,,15.0,9.0,29.67,1006.0,,,,,,,,,,,,,,,7/8 Mostly Cloudy,25000.0,,BKN,25000.0,,,,,,
KRDR,10-02-2007,04:00,METAR,,140,14,,,9999,,14.0,8.0,29.71,1007.3,,,,,,,,,,,,,,,7/8 Mostly Cloudy,25000.0,,BKN,25000.0,,,,,,
KRDR,10-02-2007,03:00,METAR,,140,12,,,9999,,14.0,8.0,29.75,1008.5,,,,,,,,,,,,,,,7/8 Mostly Cloudy,25000.0,,BKN,25000.0,,,,,,
KRDR,10-02-2007,02:00,METAR,,140,9,,,9999,,15.0,7.0,29.78,1009.4,,,,,,,,,,,,,,,7/8 Mostly Cloudy,25000.0,,SCT,18000.0,BKN,25000.0,,,,
KRDR,10-02-2007,01:00,METAR,,150,9,,,9999,,16.0,7.0,29.79,1009.9,,,,,,,,,,,,,,,7/8 Mostly Cloudy,25000.0,,SCT,18000.0,BKN,25000.0,,,,
KRDR,10-02-2007,00:00,METAR,,140,12,,,9999,,19.0,7.0,29.80,1010.3,,,,,,,,,,,,,,,4/8 Partly Cloudy,72000.0,,SCT,18000.0,SCT,25000.0,,,,
KRDR,10-01-2007,23:00,METAR,,150,13,22.0,,9999,,19.0,8.0,29.84,1011.4,,,,,,,,,,,,,,,4/8 Partly Cloudy,72000.0,,SCT,18000.0,SCT,25000.0,,,,
KRDR,10-01-2007,22:00,METAR,,150,17,21.0,,9999,,21.0,8.0,29.86,1012.2,,,,,,,,,,,,,,,2/8 Mostly Clear,72000.0,,FEW,18000.0,FEW,25000.0,,,,
KRDR,10-01-2007,21:00,METAR,,160,17,20.0,,9999,,21.0,7.0,29.89,1013.3,,,,,,,,,,,,,,,4/8 Partly Cloudy,72000.0,,FEW,18000.0,SCT,25000.0,,,,
KRDR,10-01-2007,20:00,METAR,,150,15,22.0,,9999,,21.0,6.0,29.91,1013.8,,,,,,,,,,,,,,,4/8 Partly Cloudy,72000.0,,FEW,18000.0,SCT,25000.0,,,,
KRDR,10-01-2007,19:00,METAR,,170,13,21.0,,9999,,21.0,3.0,29.95,1015.1,,,,,,,,,,,,,,,7/8 Mostly Cloudy,25000.0,,BKN,25000.0,,,,,,
KRDR,10-01-2007,18:00,METAR,,180,11,,,9999,,20.0,2.0,30.02,1017.2,,,,,,,,,,,,,,,7/8 Mostly Cloudy,25000.0,,BKN,25000.0,,,,,,
KRDR,10-01-2007,17:00,METAR,,180,11,,,9999,,19.0,4.0,30.04,1018.0,,,,,,,,,,,,,,,7/8 Mostly Cloudy,25000.0,,BKN,25000.0,,,,,,
KRDR,10-01-2007,16:00,METAR,,170,6,,,9999,,16.0,8.0,30.06,1018.7,,,,,,,,,,,,,,,7/8 Mostly Cloudy,25000.0,,BKN,25000.0,,,,,,
KRDR,10-01-2007,15:00,METAR,,180,6,,,9999,,13.0,8.0,30.07,1019.1,,,,,,,,,,,,,,,7/8 Mostly Cloudy,25000.0,,BKN,25000.0,,,,,,
KRDR,10-01-2007,14:00,METAR,,170,3,,,9999,,7.0,5.0,30.08,1019.5,,,,,,,,,,,,,,,4/8 Partly Cloudy,72000.0,,SCT,25000.0,,,,,,
KRDR,10-01-2007,13:00,METAR,,140,1,,,9999,,1.0,0.0,30.08,1019.4,,,,,,,,,,,,,,,4/8 Partly Cloudy,72000.0,,SCT,25000.0,,,,,,
KRDR,10-01-2007,12:00,METAR,,220,2,,,9999,,1.0,0.0,30.08,1019.2,,,,,,,,,,,,,,,Clear,72000.0,,,73000.0,,,,,,
KRDR,10-01-2007,11:00,METAR,,,0,,,9999,,1.0,0.0,30.07,1019.0,,,,,,,,,,,,,,,Clear,72000.0,,,73000.0,,,,,,
KRDR,10-01-2007,10:00,METAR,,220,3,,,9999,,2.0,0.0,30.08,1019.3,,,,,,,,,,,,,,,Clear,72000.0,,,73000.0,,,,,,
KRDR,10-01-2007,09:00,METAR,,220,2,,,9999,,2.0,0.0,30.09,1019.7,,,,,,,,,,,,,,,Clear,72000.0,,,73000.0,,,,,,
KRDR,10-01-2007,08:00,METAR,,,0,,,9999,,3.0,1.0,30.08,1019.4,,,,,,,,,,,,,,,Clear,72000.0,,,73000.0,,,,,,
KRDR,10-01-2007,07:00,METAR,,,0,,,9999,,4.0,2.0,30.07,1019.1,,,,,,,,,,,,,,,Clear,72000.0,,,73000.0,,,,,,
KRDR,10-01-2007,06:00,METAR,,310,3,,,9999,,5.0,2.0,30.05,1018.3,,,,,,,,,,,,,,,Clear,72000.0,,,73000.0,,,,,,
KRDR,10-01-2007,05:00,METAR,,320,4,,,9999,,7.0,4.0,30.03,1017.8,,,,,,,,,,,,,,,Clear,72000.0,,,73000.0,,,,,,
KRDR,10-01-2007,04:00,METAR,,300,5,,,9999,,6.0,4.0,30.03,1017.7,,,,,,,,,,,,,,,Clear,72000.0,,,73000.0,,,,,,
KRDR,10-01-2007,03:00,METAR,,250,3,,,9999,,7.0,5.0,30.02,1017.4,,,,,,,,,,,,,,,Clear,72000.0,,,73000.0,,,,,,
KRDR,10-01-2007,02:00,METAR,,,0,,,9999,,9.0,6.0,30.00,1016.6,,,,,,,,,,,,,,,Clear,72000.0,,,73000.0,,,,,,
KRDR,10-01-2007,01:00,METAR,,350,3,,,9999,,11.0,7.0,29.98,1016.2,,,,,,,,,,,,,,,Clear,72000.0,,,73000.0,,,,,,
KRDR,10-01-2007,00:00,METAR,,10,7,,,9999,,15.0,8.0,29.97,1015.8,,,,,,,,,,,,,,,Clear,72000.0,,,73000.0,,,,,,
KRDR,09-30-2007,23:00,METAR,,340,13,16.0,,9999,,17.0,8.0,29.95,1015.2,,,,,,,,,,,,,,,Clear,72000.0,,,73000.0,,,,,,
KRDR,09-30-2007,22:00,METAR,,360,11,18.0,,9999,,18.0,8.0,29.93,1014.5,,,,,,,,,,,,,,,2/8 Mostly Clear,72000.0,,FEW,3600.0,,,,,,
KRDR,09-30-2007,21:00,METAR,,320,11,17.0,,9999,,18.0,9.0,29.93,1014.3,,,,,,,,,,,,,,,2/8 Mostly Clear,72000.0,,FEW,3600.0,,,,,,
KRDR,09-30-2007,20:00,METAR,,300,10,16.0,,9999,,18.0,9.0,29.91,1013.7,,,,,,,,,,,,,,,4/8 Partly Cloudy,72000.0,,SCT,3000.0,,,,,,
KRDR,09-30-2007,19:00,METAR,,320,12,16.0,,9999,,18.0,9.0,29.89,1013.0,,,,,,,,,,,,,,,4/8 Partly Cloudy,72000.0,,SCT,2800.0,,,,,,
KRDR,09-30-2007,18:00,METAR,,350,12,19.0,,9999,,17.0,9.0,29.86,1012.3,,,,,,,,,,,,,,,2/8 Mostly Clear,72000.0,,FEW,2500.0,FEW,25000.0,,,,
KRDR,09-30-2007,17:00,METAR,,330,16,21.0,320/27KTS,9999,,16.0,9.0,29.86,1012.2,,,,,,,,,,,,,,,7/8 Mostly Cloudy,25000.0,,FEW,2100.0,SCT,12000.0,BKN,25000.0,,
KRDR,09-30-2007,16:00,METAR,,320,18,23.0,,9999,,15.0,9.0,29.82,1010.9,,,,,,,,,,,,,,,7/8 Mostly Cloudy,25000.0,,FEW,3500.0,SCT,12000.0,BKN,25000.0,,
KRDR,09-30-2007,15:00,METAR,,320,14,24.0,,9999,,13.0,9.0,29.79,1009.8,,,,,,,,,,,,,,,8/8 Overcast,12000.0,,FEW,4000.0,OVC,12000.0,,,,
KRDR,09-30-2007,14:00,METAR,,310,13,21.0,,9999,,13.0,8.0,29.75,1008.4,,,,,,,,,,,,,,,8/8 Overcast,12000.0,,FEW,4300.0,OVC,12000.0,,,,
KRDR,09-30-2007,13:00,METAR,,290,15,21.0,,9999,,14.0,9.0,29.73,1007.8,,,,,,,,,,,,,,,8/8 Overcast,12000.0,,SCT,4300.0,OVC,12000.0,,,,
KRDR,09-30-2007,12:00,METAR,,280,14,,,9999,,15.0,9.0,29.70,1006.8,,,,,,,,,,,,,,,7/8 Mostly Cloudy,12000.0,,BKN,12000.0,,,,,,
KRDR,09-30-2007,11:00,METAR,,290,9,,,9999,,15.0,10.0,29.68,1006.3,,,,,,,,,,,,,,,Clear,72000.0,,,73000.0,,,,,,
KRDR,09-30-2007,10:00,METAR,,280,8,,,9999,,16.0,10.0,29.65,1005.3,,,,,,,,,,,,,,,Clear,72000.0,,,73000.0,,,,,,
KRDR,09-30-2007,09:00,METAR,,300,5,,,9999,,16.0,10.0,29.60,1003.6,,,,,,,,,,,,,,,Clear,72000.0,,,73000.0,,,,,,
KRDR,09-30-2007,08:00,METAR,,280,9,,,9999,,16.0,10.0,29.58,1002.8,,,,,,,,,,,,,,,Clear,72000.0,,,73000.0,,,,,,
KRDR,09-30-2007,07:00,METAR,,270,9,,,9999,,19.0,11.0,29.57,1002.4,,,,,,,,,,,,,,,Clear,72000.0,,,73000.0,,,,,,
KRDR,09-30-2007,06:38,SPECI,,270,12,,,9999,,21.0,14.0,29.56,1002.1,,,,,,,,,,,,,,,Clear,72000.0,,,73000.0,,,,,,
KRDR,09-30-2007,06:00,METAR,,190,10,,,9999,,21.0,17.0,29.54,1001.5,,,,,,,,,,,,,,,Clear,72000.0,,,73000.0,,,,,,
KRDR,09-30-2007,05:00,METAR,,180,15,,,9999,,22.0,17.0,29.51,1000.7,,,,,,,,,,,,,,,Clear,72000.0,,,73000.0,,,,,,
KRDR,09-30-2007,04:00,METAR,,180,14,,,9999,,23.0,17.0,29.51,1000.6,,,,,,,,,,,,,,,Clear,72000.0,,,73000.0,,,,,,
KRDR,09-30-2007,03:00,METAR,,160,10,,,9999,,21.0,16.0,29.52,1001.0,,,,,,,,,,,,,,,Clear,72000.0,,,73000.0,,,,,,
KRDR,09-30-2007,02:00,METAR,,150,15,,,9999,,23.0,16.0,29.52,1000.8,,,,,,,,,,,,,,,Clear,72000.0,,,73000.0,,,,,,
KRDR,09-30-2007,01:00,METAR,,160,15,,,9999,,23.0,16.0,29.52,1001.0,,,,,,,,,,,,,,,Clear,72000.0,,,73000.0,,,,,,
KRDR,09-30-2007,00:00,METAR,,160,18,23.0,170/26KTS,9999,,25.0,16.0,29.52,1000.8,,,,,,,,,,,,,,,Clear,72000.0,,,73000.0,,,,,,
KRDR,09-29-2007,23:00,METAR,,170,20,28.0,170/28KTS,9999,,27.0,16.0,29.50,1000.3,,,,,,,,,,,,,,,Clear,72000.0,,,73000.0,,,,,,
KRDR,09-29-2007,22:00,METAR,,160,19,25.0,170/30KTS,9999,,28.0,16.0,29.50,1000.3,,,,,,,,,,,,,,,Clear,72000.0,,,73000.0,,,,,,
KRDR,09-29-2007,21:00,METAR,,180,20,29.0,190/31KTS,9999,,28.0,16.0,29.52,1000.8,,,,,,,,,,,,,,,Clear,72000.0,,,73000.0,,,,,,
KRDR,09-29-2007,20:00,METAR,,180,23,28.0,180/35KTS,9999,,28.0,16.0,29.52,1001.0,,,,,,,,,,,,,,,4/8 Partly Cloudy,72000.0,,SCT,4700.0,,,,,,
KRDR,09-29-2007,19:00,METAR,,180,25,31.0,180/35KTS,9999,,27.0,16.0,29.53,1001.2,,,,,,,,,,,,,,,7/8 Mostly Cloudy,4400.0,,BKN,4500.0,,,,,,
KRDR,09-29-2007,18:00,METAR,,180,28,33.0,170/35KTS,9999,,27.0,16.0,29.53,1001.4,,,,,,,,,,,,,,,2/8 Mostly Clear,72000.0,,FEW,4100.0,,,,,,
KRDR,09-29-2007,17:00,METAR,,180,22,32.0,170/32KTS,9999,,24.0,15.0,29.56,1002.1,,,,,,,,,,,,,,,4/8 Partly Cloudy,72000.0,,SCT,15000.0,SCT,25000.0,,,,
KRDR,09-29-2007,16:00,METAR,,170,22,29.0,170/32KTS,9999,,22.0,13.0,29.58,1003.0,,,,,,,,,,,,,,,7/8 Mostly Cloudy,25000.0,,SCT,15000.0,BKN,25000.0,,,,
KRDR,09-29-2007,15:00,METAR,,160,20,26.0,170/28KTS,9999,,19.0,10.0,29.60,1003.4,,,,,,,,,,,,,,,4/8 Partly Cloudy,72000.0,,SCT,12000.0,SCT,25000.0,,,,
KRDR,09-29-2007,14:00,METAR,,160,19,28.0,160/28KTS,9999,,17.0,9.0,29.61,1003.8,,,,,,,,,,,,,,,4/8 Partly Cloudy,72000.0,,SCT,12000.0,SCT,25000.0,,,,
KRDR,09-29-2007,13:00,METAR,,160,16,23.0,150/28KTS,9999,,15.0,8.0,29.62,1004.3,,,,,,,,,,,,,,,4/8 Partly Cloudy,72000.0,,SCT,12000.0,SCT,25000.0,,,,
KRDR,09-29-2007,12:00,METAR,,160,17,,,9999,,15.0,8.0,29.62,1004.3,,,,,,,,,,,,,,,4/8 Partly Cloudy,72000.0,,SCT,15000.0,SCT,25000.0,,,,
KRDR,09-29-2007,11:00,METAR,,160,14,,,9999,,15.0,7.0,29.63,1004.4,,,,,,,,,,,,,,,4/8 Partly Cloudy,72000.0,,SCT,25000.0,,,,,,
KRDR,09-29-2007,10:00,METAR,,160,15,,,9999,,16.0,7.0,29.63,1004.7,,,,,,,,,,,,,,,Clear,72000.0,,,73000.0,,,,,,
KRDR,09-29-2007,09:00,METAR,,160,14,,,9999,,16.0,6.0,29.65,1005.2,,,,,,,,,,,,,,,Clear,72000.0,,,73000.0,,,,,,
KRDR,09-29-2007,08:00,METAR,,160,13,,,9999,,17.0,5.0,29.67,1005.7,,,,,,,,,,,,,,,Clear,72000.0,,,73000.0,,,,,,
KRDR,09-29-2007,07:00,METAR,,160,15,20.0,,9999,,16.0,5.0,29.69,1006.4,,,,,,,,,,,,,,,Clear,72000.0,,,73000.0,,,,,,
KRDR,09-29-2007,06:00,METAR,,150,14,20.0,,9999,,16.0,5.0,29.70,1006.8,,,,,,,,,,,,,,,Clear,72000.0,,,73000.0,,,,,,
KRDR,09-29-2007,05:00,METAR,,160,16,,,9999,,16.0,5.0,29.72,1007.6,,,,,,,,,,,,,,,Clear,72000.0,,,73000.0,,,,,,
KRDR,09-29-2007,04:00,METAR,,140,13,,,9999,,15.0,5.0,29.74,1008.3,,,,,,,,,,,,,,,Clear,72000.0,,,73000.0,,,,,,
KRDR,09-29-2007,03:00,METAR,,140,16,,,9999,,16.0,5.0,29.76,1009.0,,,,,,,,,,,,,,,4/8 Partly Cloudy,72000.0,,SCT,25000.0,,,,,,
KRDR,09-29-2007,02:00,METAR,,130,13,,,9999,,16.0,6.0,29.79,1009.7,,,,,,,,,,,,,,,7/8 Mostly Cloudy,25000.0,,BKN,25000.0,,,,,,
KRDR,09-29-2007,01:00,METAR,,130,12,,,9999,,16.0,6.0,29.80,1010.1,,,,,,,,,,,,,,,7/8 Mostly Cloudy,25000.0,,BKN,25000.0,,,,,,
KRDR,09-29-2007,00:00,METAR,,130,12,19.0,,9999,,18.0,6.0,29.82,1010.7,,,,,,,,,,,,,,,7/8 Mostly Cloudy,25000.0,,SCT,6900.0,BKN,25000.0,,,,
KRDR,09-28-2007,23:00,METAR,,140,16,23.0,150/28KTS,9999,,20.0,5.0,29.84,1011.4,,,,,,,,,,,,,,,7/8 Mostly Cloudy,25000.0,,FEW,5900.0,SCT,15000.0,BKN,25000.0,,
KRDR,09-28-2007,22:00,METAR,,140,16,25.0,150/26KTS,9999,,20.0,5.0,29.86,1011.9,,,,,,,,,,,,,,,8/8 Overcast,6000.0,,BKN,5900.0,BKN,15000.0,OVC,25000.0,,
KRDR,09-28-2007,21:00,METAR,,130,18,25.0,150/29KTS,9999,,19.0,4.0,29.86,1012.3,,,,,,,,,,,,,,,8/8 Overcast,7000.0,,BKN,6900.0,OVC,25000.0,,,,
KRDR,09-28-2007,20:00,METAR,,150,14,26.0,150/27KTS,9999,,20.0,5.0,29.90,1013.5,,,,,,,,,,,,,,,7/8 Mostly Cloudy,8500.0,,BKN,8400.0,BKN,25000.0,,,,
KRDR,09-28-2007,19:00,METAR,,140,18,,,9999,,20.0,5.0,29.95,1015.1,,,,,,,,,,,,,,,7/8 Mostly Cloudy,25000.0,,SCT,9900.0,BKN,25000.0,,,,
KRDR,09-28-2007,18:00,METAR,,150,17,22.0,,9999,,19.0,4.0,30.00,1016.8,,,,,,,,,,,,,,,4/8 Partly Cloudy,72000.0,,SCT,15000.0,SCT,25000.0,,,,
KRDR,09-28-2007,17:00,METAR,,160,15,22.0,,9999,,17.0,6.0,30.03,1017.9,,,,,,,,,,,,,,,4/8 Partly Cloudy,72000.0,,SCT,12000.0,SCT,25000.0,,,,
KRDR,09-28-2007,16:00,METAR,,160,13,18.0,,9999,,15.0,6.0,30.07,1019.0,,,,,,,,,,,,,,,4/8 Partly Cloudy,72000.0,,SCT,12000.0,SCT,25000.0,,,,
KRDR,09-28-2007,15:00,METAR,,160,10,,,9999,,10.0,6.0,30.09,1019.7,,,,,,,,,,,,,,,4/8 Partly Cloudy,72000.0,,SCT,18000.0,SCT,25000.0,,,,
KRDR,09-28-2007,13:00,METAR,,150,5,,,9999,,2.0,2.0,30.11,1020.2,,,,,,,,,,,,,,,4/8 Partly Cloudy,72000.0,,SCT,15000.0,SCT,25000.0,,,,
KRDR,09-28-2007,12:00,METAR,,140,3,,,9999,,2.0,1.0,30.10,1020.0,,,,,,,,,,,,,,,2/8 Mostly Clear,72000.0,,FEW,25000.0,,,,,,
KRDR,09-28-2007,11:00,METAR,,120,3,,,9999,,3.0,2.0,30.10,1020.0,,,,,,,,,,,,,,,2/8 Mostly Clear,72000.0,,FEW,15000.0,,,,,,
KRDR,09-28-2007,10:00,METAR,,190,5,,,9999,,1.0,1.0,30.10,1020.0,,,,,,,,,,,,,,,Clear,72000.0,,,73000.0,,,,,,
KRDR,09-28-2007,09:00,METAR,,190,3,,,9999,,2.0,1.0,30.09,1019.8,,,,,,,,,,,,,,,Clear,72000.0,,,73000.0,,,,,,
KRDR,09-28-2007,08:00,METAR,,200,3,,,9999,,2.0,1.0,30.11,1020.2,,,,,,,,,,,,,,,Clear,72000.0,,,73000.0,,,,,,
KRDR,09-28-2007,07:00,METAR,,220,3,,,9999,,3.0,1.0,30.10,1020.2,,,,,,,,,,,,,,,Clear,72000.0,,,73000.0,,,,,,
KRDR,09-28-2007,06:00,METAR,,240,5,,,9999,,2.0,1.0,30.10,1020.2,,,,,,,,,,,,,,,Clear,72000.0,,,73000.0,,,,,,
KRDR,09-28-2007,05:00,METAR,,220,2,,,9999,,4.0,2.0,30.10,1019.9,,,,,,,,,,,,,,,Clear,72000.0,,,73000.0,,,,,,
KRDR,09-28-2007,04:00,METAR,,330,1,,,9999,,5.0,2.0,30.09,1019.7,,,,,,,,,,,,,,,Clear,72000.0,,,73000.0,,,,,,
KRDR,09-28-2007,03:00,METAR,,320,5,,,9999,,6.0,3.0,30.07,1019.1,,,,,,,,,,,,,,,Clear,72000.0,,,73000.0,,,,,,
KRDR,09-28-2007,02:00,METAR,,280,5,,,9999,,6.0,3.0,30.05,1018.5,,,,,,,,,,,,,,,2/8 Mostly Clear,72000.0,,FEW,5000.0,,,,,,
KRDR,09-28-2007,01:00,METAR,,310,5,,,9999,,10.0,4.0,30.05,1018.2,,,,,,,,,,,,,,,2/8 Mostly Clear,72000.0,,FEW,5000.0,,,,,,
KRDR,09-28-2007,00:00,METAR,,310,6,,,9999,,14.0,5.0,30.04,1018.0,,,,,,,,,,,,,,,2/8 Mostly Clear,72000.0,,FEW,5000.0,,,,,,
KRDR,09-27-2007,23:00,METAR,,330,12,18.0,,9999,,16.0,5.0,30.03,1017.8,,,,,,,,,,,,,,,4/8 Partly Cloudy,72000.0,,FEW,4500.0,SCT,25000.0,,,,
KRDR,09-27-2007,22:00,METAR,,320,11,18.0,,9999,,17.0,5.0,30.01,1017.2,,,,,,,,,,,,,,,4/8 Partly Cloudy,72000.0,,SCT,4600.0,SCT,25000.0,,,,
KRDR,09-27-2007,21:00,METAR,,320,16,,,9999,,17.0,5.0,30.00,1016.8,,,,,,,,,,,,,,,4/8 Partly Cloudy,72000.0,,SCT,5000.0,,,,,,
KRDR,09-27-2007,20:00,METAR,,320,17,23.0,,9999,,17.0,4.0,29.99,1016.3,,,,,,,,,,,,,,,4/8 Partly Cloudy,72000.0,,SCT,4900.0,,,,,,
KRDR,09-27-2007,19:00,METAR,,330,17,21.0,,9999,,16.0,5.0,29.98,1015.9,,,,,,,,,,,,,,,7/8 Mostly Cloudy,4900.0,,BKN,5000.0,,,,,,
KRDR,09-27-2007,18:00,METAR,,330,17,21.0,,9999,,16.0,6.0,29.97,1015.8,,,,,,,,,,,,,,,4/8 Partly Cloudy,72000.0,,SCT,4000.0,,,,,,
KRDR,09-27-2007,17:00,METAR,,300,17,24.0,,9999,,16.0,6.0,29.96,1015.5,,,,,,,,,,,,,,,2/8 Mostly Clear,72000.0,,FEW,5900.0,,,,,,
KRDR,09-27-2007,16:00,METAR,,310,14,20.0,,9999,,14.0,6.0,29.94,1014.8,,,,,,,,,,,,,,,Clear,72000.0,,,73000.0,,,,,,
KRDR,09-27-2007,15:00,METAR,,300,12,,,9999,,13.0,6.0,29.92,1014.2,,,,,,,,,,,,,,,2/8 Mostly Clear,72000.0,,FEW,15000.0,,,,,,
KRDR,09-27-2007,14:00,METAR,,310,12,,,9999,,12.0,6.0,29.90,1013.4,,,,,,,,,,,,,,,2/8 Mostly Clear,72000.0,,FEW,15000.0,,,,,,
KRDR,09-27-2007,13:00,METAR,,270,8,,,9999,,10.0,7.0,29.87,1012.5,,,,,,,,,,,,,,,4/8 Partly Cloudy,72000.0,,FEW,11000.0,SCT,15000.0,,,,
KRDR,09-27-2007,12:00,METAR,,250,6,,,9999,,9.0,7.0,29.86,1012.3,,,,,,,,,,,TRACE,,TRACE,.01 IN,7/8 Mostly Cloudy,25000.0,,SCT,11000.0,BKN,25000.0,,,,
KRDR,09-27-2007,11:00,METAR,,270,6,,,9999,,12.0,7.0,29.86,1012.0,,,,,,,,,,,TRACE,,,,8/8 Overcast,8000.0,,BKN,7900.0,OVC,25000.0,,,,
KRDR,09-27-2007,10:00,METAR,,270,10,,,9999,,10.0,6.0,29.84,1011.5,,,,,,,,,,,,,,,8/8 Overcast,10000.0,,SCT,7900.0,BKN,9900.0,OVC,25000.0,,
KRDR,09-27-2007,09:38,SPECI,,250,6,,,9999,Fog or Ice Fog,9.0,6.0,29.83,1011.2,,,,40,,,,,,,,,,,2/8 Mostly Clear,72000.0,,FEW,7900.0,,,,,,
KRDR,09-27-2007,09:00,METAR,,250,6,,,9999,,7.0,5.0,29.83,1011.1,,,,,,,,,,,,,,,2/8 Mostly Clear,72000.0,,FEW,12000.0,,,,,,
KRDR,09-27-2007,08:00,METAR,,270,7,,,9999,,9.0,5.0,29.83,1011.2,,,,,,,,,,,,,,,Clear,72000.0,,,73000.0,,,,,,
KRDR,09-27-2007,07:00,METAR,,270,7,,,9999,,10.0,6.0,29.83,1011.1,,,,,,,,,,,,,,,Clear,72000.0,,,73000.0,,,,,,
KRDR,09-27-2007,06:00,METAR,,250,6,,,9999,,9.0,5.0,29.83,1011.0,,,,,,,,,,,,,.01 IN,,Clear,72000.0,,,73000.0,,,,,,
KRDR,09-27-2007,05:00,METAR,,250,6,,,9999,,9.0,6.0,29.82,1010.8,,,,,,,,,,,,,,,Clear,72000.0,,,73000.0,,,,,,
KRDR,09-27-2007,04:00,METAR,,240,6,,,9999,,8.0,6.0,29.82,1010.8,,,,,,,,,,,,,,,4/8 Partly Cloudy,72000.0,,FEW,11000.0,SCT,25000.0,,,,
KRDR,09-27-2007,03:00,METAR,,210,5,,,9999,,9.0,7.0,29.82,1010.7,,,,,,,,,,,,.01 IN,,,4/8 Partly Cloudy,72000.0,,SCT,25000.0,,,,,,
KRDR,09-27-2007,02:00,METAR,,240,7,,,9999,,10.0,8.0,29.81,1010.5,,,,,,,,,,,,,,,7/8 Mostly Cloudy,11000.0,,BKN,11000.0,BKN,25000.0,,,,
KRDR,09-27-2007,01:00,METAR,,240,6,,,9999,,13.0,9.0,29.80,1010.2,,,,,,,,,,,.01 IN,,,,7/8 Mostly Cloudy,9000.0,,FEW,5900.0,BKN,8900.0,BKN,25000.0,,
KRDR,09-27-2007,00:44,SPECI,,250,6,,,9999,,14.0,8.0,29.80,,,,,,,,,,,,,,,,7/8 Mostly Cloudy,8000.0,,FEW,5900.0,BKN,7900.0,BKN,25000.0,,
KRDR,09-27-2007,00:21,SPECI,,270,17,21.0,,9999,Light Rain Showers,15.0,7.0,29.81,,,,,80,,,,,,,,,,,7/8 Mostly Cloudy,7000.0,,BKN,6900.0,BKN,9900.0,,,,
KRDR,09-27-2007,00:00,METAR,,160,5,,,9999,,14.0,9.0,29.79,1009.7,,,,,,,,,,,,,TRACE,,7/8 Mostly Cloudy,10000.0,,SCT,7900.0,BKN,9900.0,BKN,25000.0,,
KRDR,09-26-2007,23:00,METAR,,170,6,,,9999,,17.0,9.0,29.79,1009.8,,,,,,,,,,,,,,,7/8 Mostly Cloudy,25000.0,,SCT,7900.0,BKN,25000.0,,,,
KRDR,09-26-2007,22:00,METAR,,180,7,,,9999,,17.0,8.0,29.79,1009.8,,,,,,,,,,,,,,,7/8 Mostly Cloudy,25000.0,,SCT,7900.0,BKN,25000.0,,,,
KRDR,09-26-2007,21:00,METAR,,,2,,,9999,,17.0,10.0,29.78,1009.5,,,,,,,,,,,TRACE,TRACE,,,7/8 Mostly Cloudy,8000.0,,FEW,4000.0,BKN,7900.0,BKN,25000.0,,
KRDR,09-26-2007,20:40,SPECI,,250,4,,,9999,,16.0,10.0,29.79,,,,,,,,,,,,,,,,7/8 Mostly Cloudy,8000.0,,FEW,4000.0,BKN,7900.0,BKN,25000.0,,
KRDR,09-26-2007,20:25,METAR,,280,4,,,9999,Rain,15.0,10.0,29.79,,,,,61,,,,,,,,,,,7/8 Mostly Cloudy,8000.0,,FEW,4000.0,BKN,7900.0,BKN,25000.0,,
KRDR,09-26-2007,20:00,METAR,,230,7,,,9999,,15.0,9.0,29.79,1009.9,,,,,,,,,,,TRACE,,,,7/8 Mostly Cloudy,25000.0,,SCT,7900.0,BKN,25000.0,,,,
KRDR,09-26-2007,19:45,METAR,,270,6,,,9999,Rain,16.0,8.0,29.79,,,,,61,,,,,,,,,,,7/8 Mostly Cloudy,8500.0,,BKN,8400.0,BKN,25000.0,,,,
KRDR,09-26-2007,19:00,METAR,,250,10,,,9999,,15.0,8.0,29.80,1010.1,,,,,,,,,,,TRACE,,,,7/8 Mostly Cloudy,8500.0,,BKN,8400.0,BKN,25000.0,,,,
KRDR,09-26-2007,18:36,SPECI,,240,9,,,9999,,15.0,8.0,29.80,,,,,,,,,,,,,,,,8/8 Overcast,8500.0,,BKN,8400.0,OVC,25000.0,,,,
KRDR,09-26-2007,18:00,METAR,,250,9,,,9999,Rain,16.0,8.0,29.81,1010.3,,,,61,,,,,,,TRACE,,TRACE,,8/8 Overcast,10000.0,,BKN,9900.0,OVC,25000.0,,,,
KRDR,09-26-2007,17:41,SPECI,,260,8,,,9999,Rain,17.0,7.0,29.80,,,,,61,,,,,,,,,,,8/8 Overcast,10000.0,,BKN,9900.0,OVC,25000.0,,,,
KRDR,09-26-2007,17:00,METAR,,240,12,,,9999,,18.0,7.0,29.81,1010.3,,,,,,,,,,,,,,,7/8 Mostly Cloudy,11000.0,,BKN,11000.0,BKN,25000.0,,,,
KRDR,09-26-2007,16:00,METAR,,250,11,,,9999,,17.0,7.0,29.81,1010.4,,,,,,,,,,,,,,,7/8 Mostly Cloudy,10000.0,,BKN,9900.0,BKN,25000.0,,,,
KRDR,09-26-2007,15:00,METAR,,220,11,,,9999,,14.0,7.0,29.81,1010.4,,,,,,,,,,,,,,,7/8 Mostly Cloudy,10000.0,,BKN,9900.0,BKN,25000.0,,,,
KRDR,09-26-2007,14:00,METAR,,210,7,,,9999,,9.0,6.0,29.82,1010.7,,,,,,,,,,,,,,,7/8 Mostly Cloudy,10000.0,,BKN,9900.0,BKN,25000.0,,,,
KRDR,09-26-2007,13:00,METAR,,190,7,,,9999,,8.0,5.0,29.82,1010.9,,,,,,,,,,,,,,,7/8 Mostly Cloudy,9000.0,,BKN,8900.0,BKN,25000.0,,,,
KRDR,09-26-2007,12:00,METAR,,180,9,,,9999,,7.0,4.0,29.83,1011.3,,,,,,,,,,,,,,,7/8 Mostly Cloudy,9000.0,,BKN,8900.0,,,,,,
KRDR,09-26-2007,11:00,METAR,,180,9,,,9999,,6.0,4.0,29.85,1011.8,,,,,,,,,,,,,,,4/8 Partly Cloudy,72000.0,,SCT,9900.0,,,,,,
KRDR,09-26-2007,10:00,METAR,,180,9,,,9999,,6.0,5.0,29.87,1012.3,,,,,,,,,,,,,,,Clear,72000.0,,,73000.0,,,,,,
KRDR,09-26-2007,09:00,METAR,,170,10,,,9999,,7.0,5.0,29.88,1012.7,,,,,,,,,,,,,,,Clear,72000.0,,,73000.0,,,,,,
KRDR,09-26-2007,08:00,METAR,,180,8,,,9999,,8.0,5.0,29.91,1013.7,,,,,,,,,,,,,,,2/8 Mostly Clear,72000.0,,FEW,8900.0,,,,,,
KRDR,09-26-2007,07:00,METAR,,180,11,,,9999,,8.0,6.0,29.93,1014.4,,,,,,,,,,,,,,,8/8 Overcast,9000.0,,OVC,8900.0,,,,,,
KRDR,09-26-2007,06:00,METAR,,170,8,,,9999,,7.0,5.0,29.94,1014.8,,,,,,,,,,,,,,,4/8 Partly Cloudy,72000.0,,SCT,9400.0,,,,,,
KRDR,09-26-2007,05:00,METAR,,190,8,,,9999,,7.0,5.0,29.96,1015.3,,,,,,,,,,,,,,,Clear,72000.0,,,73000.0,,,,,,
KRDR,09-26-2007,04:00,METAR,,180,7,,,9999,,7.0,4.0,29.97,1015.7,,,,,,,,,,,,,,,Clear,72000.0,,,73000.0,,,,,,
KRDR,09-26-2007,03:00,METAR,,170,7,,,9999,,7.0,4.0,29.97,1015.8,,,,,,,,,,,,,,,Clear,72000.0,,,73000.0,,,,,,
KRDR,09-26-2007,02:00,METAR,,170,7,,,9999,,8.0,5.0,29.99,1016.3,,,,,,,,,,,,,,,Clear,72000.0,,,73000.0,,,,,,
KRDR,09-26-2007,01:00,METAR,,170,5,,,9999,,10.0,5.0,29.99,1016.3,,,,,,,,,,,,,,,2/8 Mostly Clear,72000.0,,FEW,5000.0,,,,,,
KRDR,09-26-2007,00:00,METAR,,240,4,,,9999,,13.0,5.0,29.99,1016.4,,,,,,,,,,,,,,,2/8 Mostly Clear,72000.0,,FEW,5000.0,,,,,,
KRDR,09-25-2007,23:00,METAR,,260,6,,,9999,,14.0,4.0,29.99,1016.4,,,,,,,,,,,,,,,4/8 Partly Cloudy,72000.0,,SCT,4600.0,,,,,,
KRDR,09-25-2007,22:00,METAR,,290,6,,,9999,,13.0,4.0,30.00,1016.7,,,,,,,,,,,,,,,7/8 Mostly Cloudy,4400.0,,BKN,4500.0,,,,,,
KRDR,09-25-2007,20:00,METAR,,280,8,,,9999,,13.0,4.0,30.02,1017.3,,,,,,,,,,,,,,,8/8 Overcast,4100.0,,FEW,3000.0,OVC,4200.0,,,,
KRDR,09-25-2007,18:00,METAR,,310,9,,,9999,,12.0,4.0,30.05,1018.3,,,,,,,,,,,,,,,8/8 Overcast,3200.0,,OVC,3300.0,,,,,,
KRDR,09-25-2007,17:00,METAR,,310,9,,,9999,,11.0,5.0,30.05,1018.5,,,,,,,,,,,,,,,8/8 Overcast,3300.0,,FEW,2400.0,OVC,3400.0,,,,
KRDR,09-25-2007,16:32,SPECI,,340,7,,,9999,,11.0,5.0,30.05,1018.5,,,,,,,,,,,,,,,8/8 Overcast,3000.0,,OVC,3000.0,,,,,,
KRDR,09-25-2007,16:00,METAR,,340,12,,,9999,,12.0,5.0,30.05,1018.2,,,,,,,,,,,,,,,7/8 Mostly Cloudy,3100.0,,FEW,2700.0,BKN,3100.0,,,,
KRDR,09-25-2007,15:00,METAR,,310,11,,,9999,,11.0,5.0,30.05,1018.2,,,,,,,,,,,,,,,7/8 Mostly Cloudy,12000.0,,SCT,3500.0,BKN,12000.0,,,,
KRDR,09-25-2007,14:00,METAR,,330,10,,,9999,,9.0,5.0,30.04,1018.0,,,,,,,,,,,,,,,7/8 Mostly Cloudy,12000.0,,SCT,3500.0,BKN,12000.0,,,,
KRDR,09-25-2007,13:00,METAR,,320,8,,,9999,,8.0,5.0,30.04,1017.9,,,,,,,,,,,,,,,7/8 Mostly Cloudy,7500.0,,FEW,2500.0,SCT,5400.0,BKN,7400.0,BKN,12000.0
KRDR,09-25-2007,12:27,SPECI,,320,8,,,9999,,8.0,5.0,30.03,,,,,,,,,,,,,,,,7/8 Mostly Cloudy,3300.0,,SCT,2500.0,BKN,3400.0,BKN,5400.0,,
KRDR,09-25-2007,12:00,METAR,,320,7,,,9999,,8.0,6.0,30.02,1017.3,,,,,,,,,,,,,,.06 IN,8/8 Overcast,1700.0,,OVC,1700.0,,,,,,
KRDR,09-25-2007,11:31,SPECI,,320,9,,,9999,,8.0,6.0,30.01,1017.2,,,,,,,,,,,,,,,8/8 Overcast,1600.0,,OVC,1600.0,,,,,,
KRDR,09-25-2007,11:15,SPECI,,320,7,,,9999,,8.0,6.0,30.01,1017.1,,,,,,,,,,,,,,,8/8 Overcast,1200.0,,OVC,1400.0,,,,,,
KRDR,09-25-2007,11:00,METAR,,320,10,,,9999,,8.0,6.0,30.00,1016.7,,,,,,,,,,,,,,,8/8 Overcast,1200.0,,SCT,1500.0,OVC,4000.0,,,,
KRDR,09-25-2007,10:40,SPECI,,320,6,,,9999,,8.0,6.0,30.00,1016.8,,,,,,,,,,,,,,,8/8 Overcast,3800.0,,SCT,1500.0,BKN,3900.0,OVC,5000.0,,
KRDR,09-25-2007,10:37,SPECI,,310,7,,,9999,,8.0,6.0,30.00,1016.7,,,,,,,,,,,,,,,8/8 Overcast,1500.0,,BKN,1500.0,OVC,5000.0,,,,
KRDR,09-25-2007,10:01,SPECI,,330,10,,,9999,,8.0,6.0,29.97,1015.7,,,,,,,,,,,,,,,8/8 Overcast,3300.0,,FEW,1200.0,OVC,3400.0,,,,
KRDR,09-25-2007,10:00,METAR,,330,9,,,9999,,8.0,6.0,29.97,1015.8,,,,,,,,,,,,,,,8/8 Overcast,1100.0,,OVC,2900.0,,,,,,
KRDR,09-25-2007,09:57,METAR,,330,9,,,9999,,8.0,6.0,29.97,1015.8,,,,,,,,,,,,,,,8/8 Overcast,3300.0,,FEW,1400.0,SCT,2400.0,OVC,3400.0,,
KRDR,09-25-2007,09:55,METAR,,320,8,,,9999,,8.0,6.0,29.98,1015.9,,,,,,,,,,,,,,,8/8 Overcast,3400.0,,FEW,1700.0,OVC,3500.0,,,,
KRDR,09-25-2007,09:00,METAR,,310,9,,,9999,,8.0,6.0,29.99,1016.2,,,,,,,,,,,,,,,7/8 Mostly Cloudy,4600.0,,FEW,1500.0,BKN,4700.0,,,,
KRDR,09-25-2007,08:20,METAR,,320,12,,,9999,,8.0,6.0,29.98,1016.2,,,,,,,,,,,,,,,8/8 Overcast,2400.0,,SCT,1500.0,OVC,3600.0,,,,
KRDR,09-25-2007,08:00,METAR,,310,10,,,9999,,8.0,5.0,29.99,1016.3,,,,,,,,,,,,,,,8/8 Overcast,1200.0,,BKN,1500.0,OVC,4500.0,,,,
KRDR,09-25-2007,07:12,SPECI,,310,9,,,9999,,8.0,5.0,29.98,1016.0,,,,,,,,,,,,,,,8/8 Overcast,1500.0,,BKN,1500.0,OVC,3400.0,,,,
KRDR,09-25-2007,07:00,METAR,,320,9,,,9999,,8.0,5.0,29.97,1015.8,,,,,,,,,,,,,,,8/8 Overcast,3300.0,,SCT,1500.0,OVC,3400.0,,,,
KRDR,09-25-2007,06:22,SPECI,,310,9,,,9999,,8.0,5.0,29.97,1015.9,,,,,,,,,,,,,,,8/8 Overcast,1100.0,,BKN,1500.0,OVC,3400.0,,,,
KRDR,09-25-2007,06:00,METAR,,320,9,,,9999,,8.0,5.0,29.96,1015.4,,,,,,,,,,,,,TRACE,,8/8 Overcast,1000.0,,OVC,1400.0,,,,,,
KRDR,09-25-2007,05:50,METAR,,320,9,,,9999,,8.0,5.0,29.96,1015.4,,,,,,,,,,,,,,,8/8 Overcast,1000.0,,OVC,1400.0,,,,,,
KRDR,09-25-2007,05:00,METAR,,330,9,,,9999,,8.0,6.0,29.94,1014.7,,,,,,,,,,,,,,,8/8 Overcast,1100.0,,OVC,2000.0,,,,,,
KRDR,09-25-2007,04:43,SPECI,,330,13,17.0,,9999,,8.0,6.0,29.93,1014.5,,,,,,,,,,,,,,,8/8 Overcast,2300.0,,OVC,2300.0,,,,,,
KRDR,09-25-2007,04:02,SPECI,,330,8,,,9999,,8.0,6.0,29.93,1014.5,,,,,,,,,,,,,,,8/8 Overcast,3100.0,,FEW,2000.0,OVC,3100.0,,,,
KRDR,09-25-2007,04:00,METAR,,330,12,,,9999,,8.0,6.0,29.93,1014.5,,,,,,,,,,,,,,,8/8 Overcast,2800.0,,BKN,2800.0,OVC,3500.0,,,,
KRDR,09-25-2007,03:00,METAR,,340,13,17.0,,9999,,9.0,7.0,29.91,1013.9,,,,,,,,,,,TRACE,TRACE,,,8/8 Overcast,700.0,,BKN,2300.0,OVC,3400.0,,,,
KRDR,09-25-2007,02:47,SPECI,,330,13,,,9999,,9.0,7.0,29.91,1013.9,,,,,,,,,,,,,,,8/8 Overcast,1500.0,,FEW,600.0,OVC,2000.0,,,,
KRDR,09-25-2007,02:28,SPECI,,330,12,18.0,,9999,,9.0,8.0,29.91,1013.8,,,,,,,,,,,,,,,8/8 Overcast,1200.0,,SCT,600.0,BKN,1200.0,OVC,3400.0,,
KRDR,09-25-2007,02:15,SPECI,,330,13,,,9999,Drizzle,9.0,7.0,29.90,1013.5,,,,51,,,,,,,,,,,8/8 Overcast,700.0,,FEW,400.0,OVC,1100.0,,,,
KRDR,09-25-2007,02:02,SPECI,,340,12,19.0,,9999,,10.0,7.0,29.90,1013.4,,,,,,,,,,,,,,,8/8 Overcast,1200.0,,OVC,1200.0,,,,,,
KRDR,09-25-2007,02:00,METAR,,330,14,18.0,,9999,,10.0,7.0,29.89,1013.2,,,,,,,,,,,,,,,8/8 Overcast,800.0,,OVC,1200.0,,,,,,
KRDR,09-25-2007,01:00,METAR,,340,12,,,9999,,10.0,9.0,29.85,1011.9,,,,,,,,,,,,,,,8/8 Overcast,400.0,,SCT,800.0,OVC,1100.0,,,,
KRDR,09-25-2007,00:00,METAR,,350,11,,,9999,,11.0,9.0,29.83,1011.2,,,,,,,,,,,TRACE,,TRACE,,8/8 Overcast,2000.0,,FEW,800.0,BKN,2000.0,OVC,3000.0,,
KRDR,09-24-2007,23:24,SPECI,,340,12,,,9999,,11.0,10.0,29.82,,,,,,,,,,,,,,,,8/8 Overcast,1900.0,,SCT,700.0,BKN,1900.0,OVC,3300.0,,
KRDR,09-24-2007,23:10,SPECI,,340,12,,,6400,Rain/Mist,11.0,10.0,29.82,,,,,61,10,,,,,,,,,,8/8 Overcast,1200.0,,SCT,700.0,BKN,1200.0,OVC,2200.0,,
KRDR,09-24-2007,23:00,METAR,,350,12,16.0,,9999,,12.0,10.0,29.81,1010.4,,,,,,,,,,,TRACE,,,,8/8 Overcast,1300.0,,BKN,1300.0,OVC,2300.0,,,,
KRDR,09-24-2007,22:00,METAR,,350,14,19.0,,9999,,12.0,11.0,29.77,1009.1,,,,,,,,,,,TRACE,,,,8/8 Overcast,800.0,,BKN,800.0,OVC,1200.0,,,,
KRDR,09-24-2007,21:39,SPECI,,360,17,20.0,,9999,,12.0,11.0,29.76,,,,,,,,,,,,,,,,8/8 Overcast,800.0,,OVC,800.0,,,,,,
KRDR,09-24-2007,21:00,METAR,,360,15,21.0,,8000,Mist,13.0,13.0,29.73,1007.7,,,,,10,,,,,,TRACE,TRACE,,,8/8 Overcast,400.0,,OVC,400.0,,,,,,
KRDR,09-24-2007,20:03,SPECI,,10,19,,,4800,Drizzle/Mist,16.0,15.0,29.70,,,,,51,10,,,,,,,,,,8/8 Overcast,400.0,,OVC,400.0,,,,,,
KRDR,09-24-2007,20:00,METAR,,20,13,,,9999,,17.0,16.0,29.69,1006.6,,,,,,,,,,,,,,,8/8 Overcast,500.0,,OVC,500.0,,,,,,
KRDR,09-24-2007,19:00,METAR,,110,3,,,9999,,18.0,17.0,29.69,1006.4,,,,,,,,,,,,,,,8/8 Overcast,500.0,,BKN,500.0,OVC,3300.0,,,,
KRDR,09-24-2007,18:00,METAR,,130,4,,,9999,Drizzle,17.0,17.0,29.68,1006.1,,,,51,,,,,,,TRACE,,.06 IN,,8/8 Overcast,400.0,,OVC,400.0,,,,,,
KRDR,09-24-2007,17:00,METAR,,110,2,,,9999,Rain,17.0,16.0,29.69,1006.5,,,,61,,,,,,,.02 IN,,,,8/8 Overcast,500.0,,OVC,500.0,,,,,,
KRDR,09-24-2007,16:00,METAR,,70,2,,,9999,Rain/Mist,16.0,16.0,29.69,1006.7,,,,61,10,,,,,,.02 IN,,,,8/8 Overcast,500.0,,OVC,500.0,,,,,,
KRDR,09-24-2007,15:00,METAR,,10,3,,,9999,Rain/Mist,16.0,16.0,29.68,1006.2,,,,61,10,,,,,,.01 IN,.02 IN,,,8/8 Overcast,400.0,,BKN,400.0,OVC,2200.0,,,,
KRDR,09-24-2007,14:00,METAR,,330,5,,,9999,Rain,17.0,16.0,29.68,1006.1,,,,61,,,,,,,.01 IN,,,,8/8 Overcast,800.0,,BKN,800.0,OVC,2200.0,,,,
KRDR,09-24-2007,13:40,SPECI,,330,5,,,9999,Drizzle,17.0,16.0,29.67,,,,,51,,,,,,,,,,,8/8 Overcast,2200.0,,SCT,500.0,BKN,2200.0,OVC,3700.0,,
KRDR,09-24-2007,13:00,METAR,,330,4,,,9999,Rain,17.0,16.0,29.66,1005.6,,,,61,,,,,,,TRACE,,,,8/8 Overcast,12000.0,,SCT,6400.0,BKN,12000.0,OVC,25000.0,,
KRDR,09-24-2007,12:31,SPECI,,340,5,,,9999,,17.0,16.0,29.67,,,,,,,,,,,,,,,,8/8 Overcast,7000.0,,BKN,6900.0,OVC,12000.0,,,,
KRDR,09-24-2007,12:00,METAR,,280,4,,,9999,Rain,17.0,16.0,29.64,1004.9,,,,61,,,,,,,TRACE,,TRACE,.1 IN,7/8 Mostly Cloudy,9000.0,,BKN,8900.0,,,,,,
KRDR,09-24-2007,11:00,METAR,,180,4,,,9999,,16.0,16.0,29.64,1004.8,,,,,,,,,,,,,,,8/8 Overcast,7500.0,,OVC,7400.0,,,,,,
KRDR,09-24-2007,10:00,METAR,,,0,,,9999,,16.0,15.0,29.62,1004.3,,,,,,,,,,,,,,,7/8 Mostly Cloudy,11000.0,,BKN,11000.0,,,,,,
KRDR,09-24-2007,09:00,METAR,,10,4,,,9999,,17.0,16.0,29.61,1004.0,,,,,,,,,,,,,,,4/8 Partly Cloudy,72000.0,,SCT,11000.0,,,,,,
KRDR,09-24-2007,08:00,METAR,,280,6,,,9999,,18.0,17.0,29.62,1004.1,,,,,,,,,,,,,,,4/8 Partly Cloudy,72000.0,,FEW,4500.0,SCT,9900.0,,,,
KRDR,09-24-2007,07:00,METAR,,270,7,,,9999,,20.0,17.0,29.62,1004.3,,,,,,,,,,,,,,,8/8 Overcast,4900.0,,OVC,5000.0,,,,,,
KRDR,09-24-2007,06:00,METAR,,240,8,,,9999,,22.0,19.0,29.61,1004.0,,,,,,,,,,,,,.1 IN,,7/8 Mostly Cloudy,6000.0,,BKN,5900.0,,,,,,
KRDR,09-24-2007,05:00,METAR,,210,11,,,9999,,24.0,20.0,29.59,1003.1,,,,,,,,,,,,,,,4/8 Partly Cloudy,72000.0,,SCT,5900.0,,,,,,
KRDR,09-24-2007,04:00,METAR,,170,9,,,9999,,23.0,20.0,29.57,1002.4,,,,,,,,,,,.06 IN,,,,4/8 Partly Cloudy,72000.0,,SCT,6900.0,,,,,,
KRDR,09-24-2007,03:15,SPECI,,260,5,,,9999,,23.0,20.0,29.58,1002.7,,,,,,,,,,,,,,,4/8 Partly Cloudy,72000.0,,SCT,6400.0,,,,,,
KRDR,09-24-2007,03:00,METAR,,190,14,24.0,210/37KTS,9999,Dry Thunderstorm/Light Rain,23.0,20.0,29.59,1003.2,91,61,,,,,,,,,.04 IN,.04 IN,,,2/8 Mostly Clear,72000.0,,FEW,7900.0,,,,,,
KRDR,09-24-2007,02:35,SPECI,,200,15,37.0,210/37KTS,4800,Dry Thunderstorm/Light Rain/Haze Smoke or Dust,24.0,21.0,29.59,1003.1,91,61,4,,,,,,,,,,,,4/8 Partly Cloudy,72000.0,,SCT,7900.0,,,,,,
KRDR,09-24-2007,02:32,SPECI,,200,19,37.0,210/37KTS,4000,Dry Thunderstorm/Light Rain,25.0,21.0,29.59,1003.1,91,61,,,,,,,,,,,,,4/8 Partly Cloudy,72000.0,,SCT,6900.0,,,,,,
KRDR,09-24-2007,02:20,METAR,,170,15,,,9999,Dry Thunderstorm/Light Drizzle,29.0,19.0,29.56,1002.3,91,51,,,,,,,,,,,,,4/8 Partly Cloudy,72000.0,,SCT,6900.0,,,,,,
KRDR,09-24-2007,02:00,METAR,,160,14,,,9999,,29.0,19.0,29.55,1001.8,,,,,,,,,,,,,,,4/8 Partly Cloudy,72000.0,,SCT,7900.0,,,,,,
KRDR,09-24-2007,01:00,METAR,,180,12,,,9999,,30.0,19.0,29.55,1001.9,,,,,,,,,,,,,,,7/8 Mostly Cloudy,7500.0,,BKN,7400.0,,,,,,
KRDR,09-24-2007,00:00,METAR,,180,13,,,9999,,31.0,19.0,29.56,1002.1,,,,,,,,,,,,,,,7/8 Mostly Cloudy,8000.0,,BKN,7900.0,,,,,,
KRDR,09-23-2007,23:00,METAR,,200,18,26.0,200/31KTS,9999,,31.0,19.0,29.56,1002.2,,,,,,,,,,,,,,,7/8 Mostly Cloudy,25000.0,,SCT,6900.0,BKN,25000.0,,,,
KRDR,09-23-2007,22:00,METAR,,220,19,28.0,200/33KTS,9999,,33.0,19.0,29.55,1001.8,,,,,,,,,,,,,,,7/8 Mostly Cloudy,25000.0,,FEW,5000.0,BKN,25000.0,,,,
KRDR,09-23-2007,21:00,METAR,,190,17,28.0,180/31KTS,9999,,33.0,19.0,29.55,1001.7,,,,,,,,,,,,,,,7/8 Mostly Cloudy,25000.0,,FEW,5000.0,BKN,25000.0,,,,
KRDR,09-23-2007,20:00,METAR,,200,19,27.0,180/31KTS,9999,,32.0,19.0,29.57,1002.7,,,,,,,,,,,,,,,Clear,72000.0,,,73000.0,,,,,,
KRDR,09-23-2007,19:00,METAR,,190,20,26.0,200/30KTS,9999,,30.0,19.0,29.59,1003.4,,,,,,,,,,,,,,,Clear,72000.0,,,73000.0,,,,,,
KRDR,09-23-2007,18:00,METAR,,200,21,29.0,190/31KTS,9999,,29.0,18.0,29.62,1004.2,,,,,,,,,,,,,,,Clear,72000.0,,,73000.0,,,,,,
KRDR,09-23-2007,17:00,METAR,,190,16,,,9999,,26.0,17.0,29.64,1004.8,,,,,,,,,,,,,,,Clear,72000.0,,,73000.0,,,,,,
KRDR,09-23-2007,16:00,METAR,,190,15,23.0,180/26KTS,9999,,23.0,15.0,29.66,1005.5,,,,,,,,,,,,,,,Clear,72000.0,,,73000.0,,,,,,
KRDR,09-23-2007,15:00,METAR,,180,17,21.0,,9999,,21.0,14.0,29.67,1006.0,,,,,,,,,,,,,,,Clear,72000.0,,,73000.0,,,,,,
KRDR,09-23-2007,14:00,METAR,,170,15,20.0,,9999,,18.0,13.0,29.68,1006.1,,,,,,,,,,,,,,,Clear,72000.0,,,73000.0,,,,,,
KRDR,09-23-2007,13:00,METAR,,170,15,,,9999,,16.0,11.0,29.69,1006.4,,,,,,,,,,,,,,,Clear,72000.0,,,73000.0,,,,,,
KRDR,09-23-2007,12:00,METAR,,170,13,,,9999,,16.0,10.0,29.70,1006.8,,,,,,,,,,,,,,,Clear,72000.0,,,73000.0,,,,,,
KRDR,09-23-2007,11:00,METAR,,170,11,,,9999,,16.0,10.0,29.71,1007.0,,,,,,,,,,,,,,,Clear,72000.0,,,73000.0,,,,,,
KRDR,09-23-2007,10:00,METAR,,170,10,,,9999,,16.0,9.0,29.72,1007.4,,,,,,,,,,,,,,,Clear,72000.0,,,73000.0,,,,,,
KRDR,09-23-2007,09:00,METAR,,170,9,,,9999,,16.0,9.0,29.72,1007.6,,,,,,,,,,,,,,,Clear,72000.0,,,73000.0,,,,,,
KRDR,09-23-2007,08:00,METAR,,170,10,,,9999,,16.0,9.0,29.73,1007.9,,,,,,,,,,,,,,,Clear,72000.0,,,73000.0,,,,,,
KRDR,09-23-2007,07:00,METAR,,180,10,,,9999,,16.0,9.0,29.74,1008.2,,,,,,,,,,,,,,,Clear,72000.0,,,73000.0,,,,,,
KRDR,09-23-2007,06:00,METAR,,180,11,,,9999,,17.0,9.0,29.75,1008.3,,,,,,,,,,,,,,,Clear,72000.0,,,73000.0,,,,,,
KRDR,09-23-2007,05:00,METAR,,180,10,,,9999,,18.0,9.0,29.75,1008.5,,,,,,,,,,,,,,,Clear,72000.0,,,73000.0,,,,,,
KRDR,09-23-2007,04:00,METAR,,170,9,,,9999,,17.0,9.0,29.76,1008.9,,,,,,,,,,,,,,,Clear,72000.0,,,73000.0,,,,,,
KRDR,09-23-2007,03:00,METAR,,170,8,,,9999,,17.0,10.0,29.76,1008.7,,,,,,,,,,,,,,,Clear,72000.0,,,73000.0,,,,,,
KRDR,09-23-2007,02:00,METAR,,160,11,,,9999,,19.0,10.0,29.76,1008.8,,,,,,,,,,,,,,,Clear,72000.0,,,73000.0,,,,,,
KRDR,09-23-2007,01:00,METAR,,160,7,,,9999,,20.0,10.0,29.76,1008.7,,,,,,,,,,,,,,,Clear,72000.0,,,73000.0,,,,,,
KRDR,09-23-2007,00:00,METAR,,180,9,,,9999,,24.0,10.0,29.75,1008.6,,,,,,,,,,,,,,,Clear,72000.0,,,73000.0,,,,,,
KRDR,09-22-2007,23:00,METAR,,190,15,,,9999,,26.0,9.0,29.75,1008.6,,,,,,,,,,,,,,,Clear,72000.0,,,73000.0,,,,,,
KRDR,09-22-2007,22:00,METAR,,190,16,23.0,170/29KTS,9999,,27.0,9.0,29.75,1008.5,,,,,,,,,,,,,,,Clear,72000.0,,,73000.0,,,,,,
KRDR,09-22-2007,21:00,METAR,,170,15,25.0,180/26KTS,9999,,26.0,8.0,29.77,1009.1,,,,,,,,,,,,,,,Clear,72000.0,,,73000.0,,,,,,
KRDR,09-22-2007,20:00,METAR,,160,18,22.0,,9999,,26.0,8.0,29.78,1009.5,,,,,,,,,,,,,,,Clear,72000.0,,,73000.0,,,,,,
KRDR,09-22-2007,19:00,METAR,,170,19,,,9999,,25.0,7.0,29.81,1010.4,,,,,,,,,,,,,,,Clear,72000.0,,,73000.0,,,,,,
KRDR,09-22-2007,18:00,METAR,,180,15,23.0,,9999,,23.0,7.0,29.83,1011.1,,,,,,,,,,,,,,,Clear,72000.0,,,73000.0,,,,,,
KRDR,09-22-2007,17:00,METAR,,190,13,,,9999,,22.0,7.0,29.86,1012.1,,,,,,,,,,,,,,,Clear,72000.0,,,73000.0,,,,,,
KRDR,09-22-2007,16:00,METAR,,190,13,,,9999,,19.0,7.0,29.88,1012.7,,,,,,,,,,,,,,,Clear,72000.0,,,73000.0,,,,,,
KRDR,09-22-2007,15:00,METAR,,200,7,,,9999,,16.0,6.0,29.90,1013.4,,,,,,,,,,,,,,,Clear,72000.0,,,73000.0,,,,,,
KRDR,09-22-2007,14:00,METAR,,220,6,,,9999,,12.0,6.0,29.91,1013.7,,,,,,,,,,,,,,,Clear,72000.0,,,73000.0,,,,,,
KRDR,09-22-2007,13:00,METAR,,230,5,,,9999,,7.0,4.0,29.92,1013.9,,,,,,,,,,,,,,,Clear,72000.0,,,73000.0,,,,,,
KRDR,09-22-2007,11:00,METAR,,230,5,,,9999,,6.0,4.0,29.90,1013.4,,,,,,,,,,,,,,,Clear,72000.0,,,73000.0,,,,,,
KRDR,09-22-2007,10:00,METAR,,240,7,,,9999,,6.0,4.0,29.89,1013.1,,,,,,,,,,,,,,,Clear,72000.0,,,73000.0,,,,,,
KRDR,09-22-2007,09:00,METAR,,220,6,,,9999,,7.0,3.0,29.87,1012.6,,,,,,,,,,,,,,,Clear,72000.0,,,73000.0,,,,,,
KRDR,09-22-2007,08:00,METAR,,250,5,,,9999,,7.0,3.0,29.87,1012.5,,,,,,,,,,,,,,,Clear,72000.0,,,73000.0,,,,,,
KRDR,09-22-2007,07:00,METAR,,260,7,,,9999,,9.0,4.0,29.87,1012.4,,,,,,,,,,,,,,,Clear,72000.0,,,73000.0,,,,,,
KRDR,09-22-2007,06:00,METAR,,250,8,,,9999,,8.0,4.0,29.86,1012.0,,,,,,,,,,,,,,,Clear,72000.0,,,73000.0,,,,,,
KRDR,09-22-2007,05:00,METAR,,260,8,,,9999,,8.0,5.0,29.84,1011.5,,,,,,,,,,,,,,,Clear,72000.0,,,73000.0,,,,,,
KRDR,09-22-2007,04:00,METAR,,240,8,,,9999,,8.0,5.0,29.84,1011.3,,,,,,,,,,,,,,,Clear,72000.0,,,73000.0,,,,,,
KRDR,09-22-2007,03:00,METAR,,260,8,,,9999,,12.0,5.0,29.82,1010.8,,,,,,,,,,,,,,,Clear,72000.0,,,73000.0,,,,,,
KRDR,09-22-2007,02:00,METAR,,260,8,,,9999,,13.0,5.0,29.79,1009.9,,,,,,,,,,,,,,,Clear,72000.0,,,73000.0,,,,,,
KRDR,09-22-2007,01:00,METAR,,270,9,,,9999,,15.0,4.0,29.76,1008.9,,,,,,,,,,,,,,,2/8 Mostly Clear,72000.0,,FEW,5900.0,,,,,,
KRDR,09-22-2007,00:00,METAR,,290,12,17.0,,9999,,17.0,4.0,29.75,1008.5,,,,,,,,,,,,,,,2/8 Mostly Clear,72000.0,,FEW,5900.0,,,,,,
KRDR,09-21-2007,23:00,METAR,,300,14,20.0,,9999,,18.0,5.0,29.74,1008.2,,,,,,,,,,,,,,,2/8 Mostly Clear,72000.0,,FEW,5900.0,,,,,,
KRDR,09-21-2007,22:00,METAR,,300,17,25.0,310/28KTS,9999,,18.0,6.0,29.73,1007.7,,,,,,,,,,,,,,,4/8 Partly Cloudy,72000.0,,SCT,5900.0,,,,,,
KRDR,09-21-2007,21:00,METAR,,300,21,28.0,320/30KTS,9999,,18.0,6.0,29.71,1007.3,,,,,,,,,,,,,,,7/8 Mostly Cloudy,4600.0,,BKN,4700.0,BKN,9900.0,,,,
KRDR,09-21-2007,20:00,METAR,,310,16,24.0,290/26KTS,9999,,16.0,8.0,29.69,1006.6,,,,,,,,,,,,,,,7/8 Mostly Cloudy,10000.0,,SCT,5000.0,BKN,9900.0,,,,
KRDR,09-21-2007,19:00,METAR,,300,16,24.0,,9999,,16.0,8.0,29.66,1005.7,,,,,,,,,,,,,,,7/8 Mostly Cloudy,3400.0,,BKN,3500.0,BKN,9900.0,,,,
KRDR,09-21-2007,18:00,METAR,,300,14,19.0,,9999,,14.0,9.0,29.66,1005.4,,,,,,,,,,,,,TRACE,,7/8 Mostly Cloudy,9000.0,,FEW,2100.0,BKN,8900.0,,,,
KRDR,09-21-2007,17:00,METAR,,300,14,19.0,,9999,,12.0,9.0,29.64,1004.7,,,,,,,,,,,TRACE,,,,7/8 Mostly Cloudy,6000.0,,SCT,4000.0,BKN,5900.0,,,,
KRDR,09-21-2007,16:26,SPECI,,310,11,21.0,,9999,Light Rain Showers,11.0,9.0,29.62,,,,,80,,,,,,,,,,,7/8 Mostly Cloudy,7500.0,,FEW,3100.0,BKN,7400.0,,,,
KRDR,09-21-2007,16:08,SPECI,,300,15,20.0,,9999,,11.0,9.0,29.63,1004.4,,,,,,,,,,,,,,,7/8 Mostly Cloudy,7000.0,,FEW,1300.0,BKN,6900.0,,,,
KRDR,09-21-2007,16:00,METAR,,300,15,22.0,,9999,Rain,11.0,9.0,29.63,1004.4,,,,61,,,,,,,TRACE,,,,7/8 Mostly Cloudy,4700.0,,FEW,2900.0,BKN,4800.0,,,,
KRDR,09-21-2007,15:34,SPECI,,300,16,23.0,,9999,Rain,12.0,9.0,29.61,,,,,61,,,,,,,,,,,8/8 Overcast,6000.0,,OVC,5900.0,,,,,,
KRDR,09-21-2007,15:00,METAR,,310,16,19.0,,9999,,13.0,9.0,29.59,1003.3,,,,,,,,,,,,TRACE,,,8/8 Overcast,6000.0,,OVC,5900.0,,,,,,
KRDR,09-21-2007,14:00,METAR,,320,8,,,9999,,13.0,9.0,29.56,1002.2,,,,,,,,,,,,,,,8/8 Overcast,4500.0,,FEW,2500.0,OVC,4600.0,,,,
KRDR,09-21-2007,13:39,SPECI,,320,12,,,9999,,13.0,9.0,29.55,,,,,,,,,,,,,,,,8/8 Overcast,4200.0,,SCT,2500.0,OVC,4300.0,,,,
KRDR,09-21-2007,13:00,METAR,,340,13,22.0,340/28KTS,9999,,14.0,14.0,29.55,1001.8,,,,,,,,,,,TRACE,,,,8/8 Overcast,2500.0,,FEW,1900.0,BKN,2500.0,OVC,3300.0,,
KRDR,09-21-2007,12:38,SPECI,,330,18,26.0,,9999,,14.0,14.0,29.55,,,,,,,,,,,,,,,,7/8 Mostly Cloudy,1800.0,,BKN,1800.0,BKN,2400.0,,,,
KRDR,09-21-2007,12:30,METAR,,340,20,28.0,,9999,Light Rain Showers,14.0,14.0,29.54,,,,,80,,,,,,,,,,,7/8 Mostly Cloudy,1800.0,,FEW,200.0,BKN,1800.0,BKN,2400.0,,
KRDR,09-21-2007,12:00,METAR,,330,11,,,1200,Mist,15.0,15.0,29.54,1001.6,,,,10,,,,,,,,,,.01 IN,Clear,72000.0,,,73000.0,,,,,,
KRDR,09-21-2007,11:00,METAR,,310,8,,,400,Fog or Ice Fog,15.0,15.0,29.53,1001.3,,,,45,,,,,,,,,,,Sky Obscured (Unable to Estimate),100.0,100.0,,100.0,,,,,,
KRDR,09-21-2007,10:39,SPECI,,40,2,,,400,Fog,15.0,15.0,29.51,1000.6,30,,,,,,,,,,,,,,Clear,72000.0,,,73000.0,,,,,,
KRDR,09-21-2007,10:37,SPECI,,50,2,,,400,Fog,15.0,15.0,29.51,1000.6,30,,,,,,,,,,,,,,Clear,72000.0,,,73000.0,,,,,,
KRDR,09-21-2007,10:17,SPECI,,10,3,,,800,Fog,15.0,15.0,29.53,1001.2,30,,,,,,,,,,,,,,4/8 Partly Cloudy,72000.0,,SCT,500.0,,,,,,
KRDR,09-21-2007,10:15,SPECI,,360,4,,,1200,Mist,15.0,15.0,29.53,1001.3,10,,,,,,,,,,,,,,4/8 Partly Cloudy,72000.0,,SCT,500.0,,,,,,
KRDR,09-21-2007,10:12,SPECI,,340,4,,,1200,Mist,15.0,15.0,29.53,1001.2,10,,,,,,,,,,,,,,7/8 Mostly Cloudy,500.0,,BKN,500.0,,,,,,
KRDR,09-21-2007,10:02,SPECI,,30,3,,,1600,Mist,15.0,15.0,29.53,1001.2,10,,,,,,,,,,,,,,7/8 Mostly Cloudy,500.0,,BKN,500.0,,,,,,
KRDR,09-21-2007,10:00,METAR,,60,6,,,2000,Mist,15.0,15.0,29.50,1000.3,10,,,,,,,,,,,,,,7/8 Mostly Cloudy,500.0,,BKN,500.0,,,,,,
KRDR,09-21-2007,09:54,SPECI,,60,6,,,1600,Mist,15.0,15.0,29.51,1000.4,10,,,,,,,,,,,,,,7/8 Mostly Cloudy,500.0,,BKN,500.0,,,,,,
KRDR,09-21-2007,09:48,SPECI,,40,2,,,2400,Mist,15.0,15.0,29.53,1001.1,10,,,,,,,,,,,,,,7/8 Mostly Cloudy,600.0,,BKN,600.0,,,,,,
KRDR,09-21-2007,09:43,SPECI,,,0,,,2400,Mist,15.0,15.0,29.54,1001.5,10,,,,,,,,,,,,,,7/8 Mostly Cloudy,500.0,,BKN,500.0,,,,,,
KRDR,09-21-2007,09:33,SPECI,,110,4,,,2000,Mist,15.0,15.0,29.52,1000.9,10,,,,,,,,,,,,,,7/8 Mostly Cloudy,500.0,,BKN,500.0,,,,,,
KRDR,09-21-2007,09:29,SPECI,,110,6,,,2000,Mist,15.0,15.0,29.52,1001.0,10,,,,,,,,,,,,,,4/8 Partly Cloudy,72000.0,,SCT,400.0,,,,,,
KRDR,09-21-2007,09:24,SPECI,,120,6,,,1600,Mist,15.0,15.0,29.53,1001.2,10,,,,,,,,,,,,,,2/8 Mostly Clear,72000.0,,FEW,400.0,,,,,,
KRDR,09-21-2007,09:23,SPECI,,120,6,,,1600,Mist,15.0,15.0,29.53,1001.2,10,,,,,,,,,,,,,,Clear,72000.0,,,73000.0,,,,,,
KRDR,09-21-2007,09:16,SPECI,,130,7,,,1200,Mist,15.0,15.0,29.53,1001.3,10,,,,,,,,,,,,,,Clear,72000.0,,,73000.0,,,,,,
KRDR,09-21-2007,09:08,SPECI,,140,9,,,800,Fog,15.0,15.0,29.54,1001.7,30,,,,,,,,,,,,,,Clear,72000.0,,,73000.0,,,,,,
KRDR,09-21-2007,09:00,METAR,,120,6,,,800,Fog,15.0,15.0,29.55,1001.9,30,,,,,,,,,,,,,,Clear,72000.0,,,73000.0,,,,,,
KRDR,09-21-2007,08:39,SPECI,,50,3,,,800,Fog,15.0,15.0,29.52,1001.0,30,,,,,,,,,,,,,,4/8 Partly Cloudy,72000.0,,SCT,600.0,,,,,,
KRDR,09-21-2007,08:31,SPECI,,,0,,,1200,Mist,15.0,15.0,29.53,1001.1,10,,,,,,,,,,,,,,4/8 Partly Cloudy,72000.0,,SCT,600.0,,,,,,
KRDR,09-21-2007,08:27,SPECI,,,0,,,1600,Mist,15.0,15.0,29.53,1001.1,10,,,,,,,,,,,,,,4/8 Partly Cloudy,72000.0,,SCT,600.0,,,,,,
KRDR,09-21-2007,08:24,SPECI,,20,2,,,1600,Mist,15.0,15.0,29.53,1001.1,10,,,,,,,,,,,,,,4/8 Partly Cloudy,72000.0,,SCT,600.0,,,,,,
KRDR,09-21-2007,08:21,SPECI,,20,3,,,1600,Mist,15.0,15.0,29.52,1001.0,10,,,,,,,,,,,,,,7/8 Mostly Cloudy,600.0,,BKN,600.0,,,,,,
KRDR,09-21-2007,08:19,SPECI,,20,3,,,2000,Mist,15.0,15.0,29.52,1001.0,10,,,,,,,,,,,,,,7/8 Mostly Cloudy,600.0,,BKN,600.0,,,,,,
KRDR,09-21-2007,08:09,SPECI,,10,5,,,1600,Mist,15.0,15.0,29.52,1000.9,10,,,,,,,,,,,,,,2/8 Mostly Clear,72000.0,,FEW,600.0,,,,,,
KRDR,09-21-2007,08:05,SPECI,,10,5,,,2000,Mist,15.0,15.0,29.51,1000.7,10,,,,,,,,,,,,,,4/8 Partly Cloudy,72000.0,,SCT,600.0,,,,,,
KRDR,09-21-2007,08:00,METAR,,10,4,,,1600,Mist,15.0,15.0,29.53,1001.1,10,,,,,,,,,,,,,,7/8 Mostly Cloudy,600.0,,BKN,600.0,,,,,,
KRDR,09-21-2007,07:56,SPECI,,350,5,,,2000,Mist,15.0,15.0,29.52,1000.9,10,,,,,,,,,,,,,,7/8 Mostly Cloudy,600.0,,BKN,600.0,,,,,,
KRDR,09-21-2007,07:51,SPECI,,10,5,,,1600,Mist,15.0,15.0,29.53,1001.1,10,,,,,,,,,,,,,,7/8 Mostly Cloudy,600.0,,BKN,600.0,,,,,,
KRDR,09-21-2007,07:43,SPECI,,30,5,,,1600,Mist,15.0,15.0,29.53,1001.3,10,,,,,,,,,,,,,,Sky Obscured (Unable to Estimate),700.0,100.0,,700.0,,,,,,
KRDR,09-21-2007,07:36,SPECI,,20,5,,,2000,Mist,15.0,15.0,29.54,1001.7,10,,,,,,,,,,,,,,Sky Obscured (Unable to Estimate),700.0,100.0,,700.0,,,,,,
KRDR,09-21-2007,07:28,SPECI,,10,4,,,2800,Mist,15.0,15.0,29.56,1002.3,10,,,,,,,,,,,,,,Sky Obscured (Unable to Estimate),700.0,100.0,,700.0,,,,,,
KRDR,09-21-2007,07:25,METAR,,360,4,,,3200,Mist,15.0,15.0,29.57,1002.6,10,,,,,,,,,,,,,,Sky Obscured (Unable to Estimate),700.0,100.0,,700.0,,,,,,
KRDR,09-21-2007,07:12,SPECI,,,0,,,4000,Mist,15.0,15.0,29.59,1003.1,10,,,,,,,,,,,,,,Sky Obscured (Unable to Estimate),600.0,100.0,,600.0,,,,,,
KRDR,09-21-2007,07:11,SPECI,,,0,,,4000,Mist,15.0,15.0,29.59,1003.2,10,,,,,,,,,,,,,,Sky Obscured (Unable to Estimate),500.0,100.0,,500.0,,,,,,
KRDR,09-21-2007,07:00,METAR,,240,2,,,4800,Mist,15.0,15.0,29.61,1003.8,10,,,,,,,,,,,,,,8/8 Overcast,500.0,,OVC,500.0,,,,,,
KRDR,09-21-2007,06:46,SPECI,,200,3,,,4800,Mist,15.0,15.0,29.61,1004.0,10,,,,,,,,,,,,,,8/8 Overcast,500.0,,OVC,500.0,,,,,,
KRDR,09-21-2007,06:40,SPECI,,180,5,,,4000,Mist,15.0,15.0,29.61,1004.0,10,,,,,,,,,,,,,,8/8 Overcast,500.0,,OVC,500.0,,,,,,
KRDR,09-21-2007,06:37,SPECI,,180,5,,,3200,Mist,15.0,15.0,29.61,1004.0,10,,,,,,,,,,,,,,Sky Obscured (Unable to Estimate),500.0,100.0,,500.0,,,,,,
KRDR,09-21-2007,06:35,SPECI,,180,5,,,2400,Mist,15.0,15.0,29.61,1004.0,10,,,,,,,,,,,,,,Sky Obscured (Unable to Estimate),600.0,100.0,,600.0,,,,,,
KRDR,09-21-2007,06:33,SPECI,,170,6,,,2000,Mist,15.0,15.0,29.62,1004.0,10,,,,,,,,,,,,,,Sky Obscured (Unable to Estimate),500.0,100.0,,500.0,,,,,,
KRDR,09-21-2007,06:30,METAR,,170,6,,,1600,Mist,15.0,15.0,29.61,1004.0,10,,,,,,,,,,,,,,Sky Obscured (Unable to Estimate),500.0,100.0,,500.0,,,,,,
KRDR,09-21-2007,06:19,SPECI,,150,5,,,1200,Mist,15.0,15.0,29.61,1003.9,10,,,,,,,,,,,,,,7/8 Mostly Cloudy,500.0,,BKN,500.0,,,,,,
KRDR,09-21-2007,06:14,SPECI,,,0,,,800,Fog,15.0,15.0,29.59,1003.4,30,,,,,,,,,,,,,,7/8 Mostly Cloudy,500.0,,BKN,500.0,,,,,,
KRDR,09-21-2007,06:12,SPECI,,80,3,,,800,Fog,15.0,15.0,29.59,1003.2,30,,,,,,,,,,,,,,7/8 Mostly Cloudy,600.0,,BKN,600.0,,,,,,
KRDR,09-21-2007,06:07,SPECI,,90,3,,,800,Fog,15.0,15.0,29.59,1003.2,30,,,,,,,,,,,,,,7/8 Mostly Cloudy,600.0,,BKN,600.0,,,,,,
KRDR,09-21-2007,06:04,SPECI,,110,3,,,400,Fog,15.0,15.0,29.59,1003.3,30,,,,,,,,,,,,,,7/8 Mostly Cloudy,600.0,,BKN,600.0,,,,,,
KRDR,09-21-2007,06:00,METAR,,120,4,,,800,Fog,15.0,14.0,29.60,1003.6,30,,,,,,,,,,,,,,7/8 Mostly Cloudy,700.0,,BKN,700.0,,,,,,
KRDR,09-21-2007,05:54,SPECI,,100,3,,,400,Fog,15.0,14.0,29.60,1003.6,30,,,,,,,,,,,,,,7/8 Mostly Cloudy,700.0,,BKN,700.0,,,,,,
KRDR,09-21-2007,05:44,SPECI,,120,4,,,800,Fog,15.0,14.0,29.61,1003.7,30,,,,,,,,,,,,,,7/8 Mostly Cloudy,700.0,,BKN,700.0,,,,,,
KRDR,09-21-2007,05:41,SPECI,,130,3,,,800,Fog,15.0,14.0,29.61,1003.9,30,,,,,,,,,,,,,,7/8 Mostly Cloudy,600.0,,BKN,600.0,,,,,,
KRDR,09-21-2007,05:40,SPECI,,120,3,,,800,Fog,15.0,14.0,29.61,1004.0,30,,,,,,,,,,,,,,7/8 Mostly Cloudy,600.0,,BKN,600.0,,,,,,
KRDR,09-21-2007,05:36,SPECI,,120,3,,,1200,Mist,15.0,14.0,29.62,1004.1,10,,,,,,,,,,,,,,7/8 Mostly Cloudy,600.0,,BKN,600.0,,,,,,
KRDR,09-21-2007,05:34,SPECI,,120,3,,,1600,Mist,15.0,14.0,29.62,1004.0,10,,,,,,,,,,,,,,7/8 Mostly Cloudy,500.0,,BKN,500.0,,,,,,
KRDR,09-21-2007,05:32,SPECI,,120,2,,,2000,Mist,15.0,14.0,29.62,1004.1,10,,,,,,,,,,,,,,7/8 Mostly Cloudy,500.0,,BKN,500.0,,,,,,
KRDR,09-21-2007,05:30,METAR,,,0,,,2800,Mist,15.0,14.0,29.62,1004.1,10,,,,,,,,,,,,,,7/8 Mostly Cloudy,500.0,,BKN,500.0,,,,,,
KRDR,09-21-2007,05:26,SPECI,,,0,,,4000,Mist,15.0,14.0,29.62,1004.2,10,,,,,,,,,,,,,,Sky Obscured (Unable to Estimate),500.0,100.0,,500.0,,,,,,
KRDR,09-21-2007,05:17,SPECI,,110,2,,,1200,Mist,15.0,14.0,29.63,,,,,10,,,,,,,,,,,8/8 Overcast,200.0,,BKN,200.0,OVC,600.0,,,,
KRDR,09-21-2007,05:00,METAR,,110,2,,,3200,Mist,15.0,14.0,29.63,1004.6,,,,10,,,,,,,,,,,8/8 Overcast,200.0,,BKN,200.0,OVC,600.0,,,,
KRDR,09-21-2007,04:39,SPECI,,120,2,,,3200,Mist,14.0,14.0,29.63,,,,,10,,,,,,,,,,,7/8 Mostly Cloudy,200.0,,BKN,200.0,,,,,,
KRDR,09-21-2007,04:08,SPECI,Normal,220,0,,,4800,Mist,13.0,13.0,29.64,,,,,10,,,,,,,,,,,2/8 Mostly Clear,72000.0,,FEW,1000.0,,,,,,
KRDR,09-21-2007,04:00,METAR,,270,3,,,6400,Mist,14.0,14.0,29.64,1005.0,,,,10,,,,,,,,,,,2/8 Mostly Clear,72000.0,,FEW,1000.0,,,,,,
KRDR,09-21-2007,03:38,SPECI,,200,4,,,6400,Mist,15.0,15.0,29.65,,,,,10,,,,,,,,,,,4/8 Partly Cloudy,72000.0,,SCT,900.0,,,,,,
KRDR,09-21-2007,03:00,METAR,,200,4,,,6400,Mist,15.0,15.0,29.65,1005.3,,,,10,,,,,,,,,,,8/8 Overcast,900.0,,OVC,900.0,,,,,,
KRDR,09-21-2007,02:07,SPECI,,150,4,,,8000,Mist,15.0,15.0,29.65,,,,,10,,,,,,,,,,,8/8 Overcast,600.0,,BKN,600.0,OVC,1200.0,,,,
KRDR,09-21-2007,02:00,METAR,,150,5,,,8000,Mist,15.0,15.0,29.65,1005.2,,,,10,,,,,,,,,,,7/8 Mostly Cloudy,100.0,,BKN,500.0,,,,,,
KRDR,09-21-2007,01:41,SPECI,,150,5,,,6400,Mist,15.0,15.0,29.65,,,,,10,,,,,,,,,,,8/8 Overcast,400.0,,OVC,400.0,,,,,,
KRDR,09-21-2007,01:22,SPECI,,150,5,,,4000,Mist,15.0,15.0,29.65,,,,,10,,,,,,,,,,,8/8 Overcast,300.0,,OVC,300.0,,,,,,
KRDR,09-21-2007,01:00,METAR,,170,5,,,1200,Mist,15.0,15.0,29.66,1005.4,,,,10,,,,,,,,,,,8/8 Overcast,200.0,,OVC,200.0,,,,,,
KRDR,09-21-2007,00:37,SPECI,,190,5,,,1200,Mist,15.0,15.0,29.66,,,,,10,,,,,,,,,,,8/8 Overcast,200.0,,OVC,200.0,,,,,,
KRDR,09-21-2007,00:19,SPECI,,190,6,,,1600,Mist,15.0,15.0,29.66,,,,,10,,,,,,,,,,,8/8 Overcast,300.0,,OVC,300.0,,,,,,
KRDR,09-21-2007,00:00,METAR,,180,8,,,2400,Mist,15.0,15.0,29.65,1005.3,,,,10,,,,,,,,,.01 IN,,8/8 Overcast,300.0,,OVC,300.0,,,,,,
KRDR,09-20-2007,23:45,METAR,,180,8,,,4000,Mist,15.0,15.0,29.65,1005.2,,,,10,,,,,,,,,,,8/8 Overcast,300.0,,OVC,300.0,,,,,,
KRDR,09-20-2007,23:00,METAR,,190,9,,,8000,Mist,15.0,15.0,29.66,1005.4,,,,10,,,,,,,,,,,8/8 Overcast,400.0,,OVC,400.0,,,,,,
KRDR,09-20-2007,22:00,METAR,,180,12,,,8000,Mist,15.0,15.0,29.66,1005.5,,,,10,,,,,,,,,,,8/8 Overcast,400.0,,OVC,400.0,,,,,,
KRDR,09-20-2007,21:31,SPECI,,180,11,,,8000,Mist,15.0,14.0,29.67,1005.9,,,,10,,,,,,,,,,,8/8 Overcast,400.0,,OVC,400.0,,,,,,
KRDR,09-20-2007,21:00,METAR,,180,12,,,8000,Mist,15.0,14.0,29.68,1006.1,,,,10,,,,,,,,.01 IN,,,8/8 Overcast,500.0,,OVC,500.0,,,,,,
KRDR,09-20-2007,20:00,METAR,,180,11,,,3200,Mist,15.0,14.0,29.69,1006.5,,,,10,,,,,,,.01 IN,,,,8/8 Overcast,400.0,,OVC,400.0,,,,,,
KRDR,09-20-2007,19:29,SPECI,,170,12,20.0,,3200,Mist,15.0,14.0,29.70,1006.8,,,,10,,,,,,,,,,,8/8 Overcast,400.0,,OVC,400.0,,,,,,
KRDR,09-20-2007,19:17,SPECI,,170,14,18.0,,3200,Mist,15.0,14.0,29.71,1007.0,,,,,10,,,,,,,,,,8/8 Overcast,400.0,,OVC,400.0,,,,,,
KRDR,09-20-2007,19:09,SPECI,,170,12,,,4800,Mist,15.0,14.0,29.71,1007.1,,,,10,,,,,,,,,,,8/8 Overcast,400.0,,OVC,400.0,,,,,,
KRDR,09-20-2007,19:00,METAR,,170,14,,,4800,Mist,15.0,14.0,29.72,1007.4,,,,10,,,,,,,,,,,8/8 Overcast,500.0,,OVC,500.0,,,,,,
KRDR,09-20-2007,18:41,SPECI,,170,15,21.0,,6400,Mist,15.0,14.0,29.72,1007.6,,,,10,,,,,,,,,,,8/8 Overcast,600.0,,OVC,600.0,,,,,,
KRDR,09-20-2007,18:18,SPECI,,160,13,18.0,,8000,Mist,15.0,14.0,29.73,1007.8,,,,10,,,,,,,,,,,8/8 Overcast,500.0,,OVC,500.0,,,,,,
KRDR,09-20-2007,18:09,SPECI,,160,14,,,8000,Mist,14.0,14.0,29.74,1008.0,,,,10,,,,,,,,,,,8/8 Overcast,600.0,,OVC,600.0,,,,,,
KRDR,09-20-2007,18:04,SPECI,,160,14,,,6400,Mist,14.0,13.0,29.74,1008.2,,,,10,,,,,,,,,,,8/8 Overcast,700.0,,OVC,700.0,,,,,,
KRDR,09-20-2007,18:00,METAR,,170,11,20.0,,9999,,14.0,13.0,29.75,1008.5,,,,,,,,,,,,,TRACE,,8/8 Overcast,1000.0,,SCT,800.0,OVC,1000.0,,,,
KRDR,09-20-2007,17:00,METAR,,150,14,,,9999,,13.0,12.0,29.80,1010.1,,,,,,,,,,,,,,,8/8 Overcast,1000.0,,SCT,800.0,OVC,1000.0,,,,
KRDR,09-20-2007,16:00,METAR,,150,14,,,9999,,13.0,11.0,29.83,1012.2,,,,,,,,,,,,,,,8/8 Overcast,1100.0,,BKN,1100.0,OVC,2100.0,,,,
KRDR,09-20-2007,15:16,SPECI,,150,14,,,9999,,12.0,10.0,29.86,1012.2,,,,,,,,,,,,,,,8/8 Overcast,1200.0,,BKN,1200.0,OVC,4000.0,,,,
KRDR,09-20-2007,15:00,METAR,,150,15,20.0,,9999,,12.0,10.0,29.86,1012.2,,,,,,,,,,,,TRACE,,,8/8 Overcast,3900.0,,SCT,1200.0,OVC,4000.0,,,,
KRDR,09-20-2007,14:00,METAR,,140,13,,,9999,,11.0,9.0,29.91,1013.8,,,,,,,,,,,TRACE,,,,8/8 Overcast,4700.0,,FEW,2000.0,OVC,4800.0,,,,
KRDR,09-20-2007,13:29,SPECI,,150,14,,,9999,,11.0,9.0,29.93,1014.5,,,,,,,,,,,,,,,8/8 Overcast,6000.0,,FEW,2000.0,OVC,5900.0,,,,
KRDR,09-20-2007,13:19,SPECI,,150,13,,,9999,Rain,11.0,9.0,29.93,1014.5,,,,61,,,,,,,,,,,8/8 Overcast,6000.0,,FEW,2000.0,OVC,5900.0,,,,
KRDR,09-20-2007,13:00,METAR,,130,14,,,9999,,11.0,9.0,29.95,1015.0,,,,,,,,,,,TRACE,,,,8/8 Overcast,6000.0,,OVC,5900.0,,,,,,
KRDR,09-20-2007,12:35,SPECI,,150,14,19.0,,9999,Rain,11.0,9.0,29.98,1016.0,,,,61,,,,,,,,,,,8/8 Overcast,6500.0,,OVC,6400.0,,,,,,
KRDR,09-20-2007,12:00,METAR,,140,11,,,9999,,10.0,9.0,29.99,1016.3,,,,,,,,,,,TRACE,,.14 IN,.14 IN,8/8 Overcast,7000.0,,OVC,6900.0,,,,,,
KRDR,09-20-2007,11:03,SPECI,,140,9,,,9999,,10.0,9.0,30.02,,,,,,,,,,,,,,,,8/8 Overcast,7500.0,,OVC,7400.0,,,,,,
KRDR,09-20-2007,11:00,METAR,,130,11,,,9999,Rain,10.0,9.0,30.02,1017.5,,,,61,,,,,,,,,,,8/8 Overcast,8000.0,,OVC,7900.0,,,,,,
KRDR,09-20-2007,10:00,METAR,,130,12,,,9999,,10.0,9.0,30.07,1019.1,,,,,,,,,,,.04 IN,,,,8/8 Overcast,8500.0,,FEW,4900.0,OVC,8400.0,,,,
KRDR,09-20-2007,09:26,SPECI,,130,13,,,9999,,10.0,9.0,30.09,1019.5,,,,,,,,,,,,,,,7/8 Mostly Cloudy,8000.0,,BKN,7900.0,,,,,,
KRDR,09-20-2007,09:07,SPECI,,130,14,,,9999,Light Rain,10.0,9.0,30.10,1020.2,61,,,,,,,,,,,,,,2/8 Mostly Clear,72000.0,,FEW,8900.0,,,,,,
KRDR,09-20-2007,09:04,SPECI,,130,14,,,9999,Light Rain,10.0,9.0,30.11,1020.3,61,,,,,,,,,,,,,,4/8 Partly Cloudy,72000.0,,SCT,8400.0,,,,,,
KRDR,09-20-2007,09:00,METAR,,130,10,,,9999,Light Rain,10.0,9.0,30.12,1020.6,61,,,,,,,,,,.01 IN,.1 IN,,,7/8 Mostly Cloudy,8500.0,,BKN,8400.0,,,,,,
KRDR,09-20-2007,08:41,SPECI,,120,9,,,9999,Light Drizzle,10.0,9.0,30.12,1020.7,51,,,,,,,,,,,,,,7/8 Mostly Cloudy,8000.0,,FEW,4200.0,BKN,7900.0,,,,
KRDR,09-20-2007,08:38,SPECI,,120,10,,,9999,,10.0,9.0,30.13,1020.8,,,,,,,,,,,,,,,7/8 Mostly Cloudy,8000.0,,FEW,4200.0,BKN,7900.0,,,,
KRDR,09-20-2007,08:22,SPECI,,120,9,,,9999,Light Drizzle,10.0,9.0,30.14,1021.3,51,,,,,,,,,,,,,,8/8 Overcast,8000.0,,SCT,4300.0,OVC,7900.0,,,,
KRDR,09-20-2007,08:00,METAR,,160,6,,,9999,,10.0,9.0,30.18,1022.7,,,,,,,,,,,.08 IN,,,,7/8 Mostly Cloudy,9500.0,,FEW,4300.0,BKN,9400.0,,,,
KRDR,09-20-2007,07:38,SPECI,,160,7,,,9999,,10.0,8.0,30.20,1023.3,,,,,,,,,,,,,,,7/8 Mostly Cloudy,10000.0,,FEW,4300.0,BKN,9900.0,,,,
KRDR,09-20-2007,07:24,SPECI,,150,7,,,9999,Light Rain/Mist,10.0,8.0,30.20,1023.4,61,10,,,,,,,,,,,,,8/8 Overcast,5500.0,,OVC,5400.0,,,,,,
KRDR,09-20-2007,07:02,SPECI,,120,4,,,9999,Rain,11.0,8.0,30.20,1023.3,62,,,,,,,,,,,,,,2/8 Mostly Clear,72000.0,,FEW,7900.0,,,,,,
KRDR,09-20-2007,07:00,METAR,,100,3,,,9999,Light Rain,11.0,8.0,30.20,1023.3,61,,,,,,,,,,.01 IN,,,,2/8 Mostly Clear,72000.0,,FEW,8400.0,,,,,,
KRDR,09-20-2007,06:31,SPECI,,110,4,,,9999,Light Drizzle,11.0,8.0,30.19,1023.0,51,,,,,,,,,,,,,,4/8 Partly Cloudy,72000.0,,SCT,9900.0,,,,,,
KRDR,09-20-2007,06:20,METAR,,150,4,,,9999,,10.0,8.0,30.21,1023.5,,,,,,,,,,,,,,,7/8 Mostly Cloudy,10000.0,,FEW,500.0,BKN,9900.0,,,,
KRDR,09-20-2007,06:07,SPECI,,180,5,,,9999,Light Rain,10.0,7.0,30.21,1023.8,61,,,,,,,,,,,,,,7/8 Mostly Cloudy,9000.0,,FEW,500.0,BKN,8900.0,,,,
KRDR,09-20-2007,06:00,METAR,,160,4,,,9999,Light Rain,11.0,7.0,30.20,1023.3,61,,,,,,,,,,TRACE,,TRACE,,7/8 Mostly Cloudy,10000.0,,BKN,9900.0,,,,,,
KRDR,09-20-2007,05:42,SPECI,,150,4,,,9999,,11.0,6.0,30.19,1023.1,,,,,,,,,,,,,,,7/8 Mostly Cloudy,11000.0,,BKN,11000.0,,,,,,
KRDR,09-20-2007,05:00,METAR,,150,5,,,9999,,12.0,6.0,30.21,1023.5,,,,,,,,,,,TRACE,,,,7/8 Mostly Cloudy,10000.0,,BKN,9900.0,,,,,,
KRDR,09-20-2007,04:49,SPECI,,150,5,,,9999,,12.0,6.0,30.21,1023.5,,,,,,,,,,,,,,,7/8 Mostly Cloudy,9500.0,,BKN,9400.0,,,,,,
KRDR,09-20-2007,04:39,SPECI,,160,6,,,9999,Unknown Precipitation,11.0,5.0,30.21,1023.7,40,,,,,,,,,,,,,,8/8 Overcast,9500.0,,OVC,9400.0,,,,,,
KRDR,09-20-2007,04:00,METAR,,130,4,,,9999,,11.0,5.0,30.21,1023.7,,,,,,,,,,,,,,,8/8 Overcast,9500.0,,OVC,9400.0,,,,,,
KRDR,09-20-2007,03:00,METAR,,120,3,,,9999,,11.0,4.0,30.21,1023.6,,,,,,,,,,,,,,,8/8 Overcast,10000.0,,OVC,9900.0,,,,,,
KRDR,09-20-2007,02:00,METAR,,100,4,,,9999,,13.0,4.0,30.20,1023.5,,,,,,,,,,,,,,,8/8 Overcast,25000.0,,OVC,25000.0,,,,,,
KRDR,09-20-2007,01:00,METAR,,120,3,,,9999,,14.0,4.0,30.21,1023.5,,,,,,,,,,,,,,,7/8 Mostly Cloudy,25000.0,,BKN,25000.0,,,,,,
KRDR,09-20-2007,00:00,METAR,,90,6,,,9999,,16.0,5.0,30.20,1023.2,,,,,,,,,,,,,,,7/8 Mostly Cloudy,25000.0,,BKN,25000.0,,,,,,
KRDR,09-19-2007,23:00,METAR,,80,7,,,9999,,17.0,4.0,30.21,1023.8,,,,,,,,,,,,,,,7/8 Mostly Cloudy,25000.0,,BKN,25000.0,,,,,,
KRDR,09-19-2007,22:00,METAR,,70,8,,,9999,,18.0,4.0,30.22,1024.1,,,,,,,,,,,,,,,7/8 Mostly Cloudy,25000.0,,BKN,25000.0,,,,,,
KRDR,09-19-2007,21:00,METAR,,60,7,,,9999,,18.0,4.0,30.23,1024.4,,,,,,,,,,,,,,,2/8 Mostly Clear,72000.0,,FEW,25000.0,,,,,,
KRDR,09-19-2007,20:00,METAR,,40,12,,,9999,,18.0,4.0,30.23,1024.4,,,,,,,,,,,,,,,2/8 Mostly Clear,72000.0,,FEW,25000.0,,,,,,
KRDR,09-19-2007,19:00,METAR,,360,9,14.0,,9999,,16.0,5.0,30.25,1024.8,,,,,,,,,,,,,,,2/8 Mostly Clear,72000.0,,FEW,25000.0,,,,,,
KRDR,09-19-2007,18:00,METAR,,20,9,,,9999,,15.0,5.0,30.25,1025.0,,,,,,,,,,,,,,,2/8 Mostly Clear,72000.0,,FEW,4000.0,FEW,12000.0,,,,
KRDR,09-19-2007,16:00,METAR,,10,11,,,9999,,12.0,5.0,30.24,1024.6,,,,,,,,,,,,,,,2/8 Mostly Clear,72000.0,,FEW,2100.0,,,,,,
KRDR,09-19-2007,15:11,SPECI,,350,12,,,9999,,11.0,5.0,30.23,1024.5,,,,,,,,,,,,,,,4/8 Partly Cloudy,72000.0,,SCT,2000.0,,,,,,
KRDR,09-19-2007,15:00,METAR,,340,8,,,9999,,11.0,5.0,30.23,1024.3,,,,,,,,,,,,,,,4/8 Partly Cloudy,72000.0,,SCT,2400.0,,,,,,
KRDR,09-19-2007,14:14,SPECI,,320,8,,,9999,,10.0,5.0,30.23,1024.2,,,,,,,,,,,,,,,7/8 Mostly Cloudy,2400.0,,BKN,2400.0,,,,,,
KRDR,09-19-2007,14:00,METAR,,320,7,,,9999,,9.0,5.0,30.22,1024.0,,,,,,,,,,,,,,,7/8 Mostly Cloudy,2800.0,,BKN,2800.0,,,,,,
KRDR,09-19-2007,13:00,METAR,,320,8,,,9999,,9.0,5.0,30.19,1023.1,,,,,,,,,,,,,,,7/8 Mostly Cloudy,2700.0,,BKN,2700.0,,,,,,
KRDR,09-19-2007,12:00,METAR,,330,8,,,9999,,9.0,5.0,30.16,1022.1,,,,,,,,,,,,,,,8/8 Overcast,2300.0,,OVC,2300.0,,,,,,
KRDR,09-19-2007,11:00,METAR,,340,8,,,9999,,9.0,5.0,30.14,1021.4,,,,,,,,,,,,,,,8/8 Overcast,2300.0,,OVC,2300.0,,,,,,
KRDR,09-19-2007,10:00,METAR,,350,10,,,9999,,9.0,5.0,30.11,1020.5,,,,,,,,,,,,,,,8/8 Overcast,2000.0,,OVC,2000.0,,,,,,
KRDR,09-19-2007,09:00,METAR,,350,12,,,9999,,9.0,5.0,30.09,1019.5,,,,,,,,,,,,,,,8/8 Overcast,2100.0,,OVC,2100.0,,,,,,
KRDR,09-19-2007,08:00,METAR,,340,8,,,9999,,9.0,5.0,30.07,1019.1,,,,,,,,,,,,,,,8/8 Overcast,1900.0,,OVC,1900.0,,,,,,
KRDR,09-19-2007,07:00,METAR,,350,9,,,9999,,10.0,5.0,30.07,1018.9,,,,,,,,,,,,,,,8/8 Overcast,1800.0,,OVC,1800.0,,,,,,
KRDR,09-19-2007,06:33,SPECI,,350,7,,,9999,,10.0,5.0,30.06,1018.9,,,,,,,,,,,,,,,8/8 Overcast,1800.0,,OVC,2700.0,,,,,,
KRDR,09-19-2007,06:30,METAR,,350,9,,,9999,,10.0,5.0,30.06,1018.8,,,,,,,,,,,,,,,8/8 Overcast,2400.0,,OVC,3400.0,,,,,,
KRDR,09-19-2007,06:19,SPECI,,350,8,,,9999,,9.0,5.0,30.07,1018.9,,,,,,,,,,,,,,,8/8 Overcast,2000.0,,BKN,2000.0,OVC,9900.0,,,,
KRDR,09-19-2007,06:00,METAR,,350,8,,,9999,,10.0,5.0,30.07,1019.0,,,,,,,,,,,,,,,8/8 Overcast,7500.0,,OVC,7400.0,,,,,,
KRDR,09-19-2007,05:34,SPECI,,360,8,,,9999,,10.0,5.0,30.06,1018.7,,,,,,,,,,,,,,,8/8 Overcast,3100.0,,OVC,3100.0,,,,,,
KRDR,09-19-2007,05:00,METAR,,10,11,,,9999,,10.0,6.0,30.05,1018.3,,,,,,,,,,,,,,,8/8 Overcast,1700.0,,OVC,1700.0,,,,,,
KRDR,09-19-2007,04:00,METAR,,30,13,,,9999,,11.0,7.0,30.02,1017.4,,,,,,,,,,,,,,,8/8 Overcast,20000.0,,SCT,2500.0,OVC,20000.0,,,,
KRDR,09-19-2007,03:00,METAR,,30,10,,,9999,,12.0,8.0,29.99,1016.4,,,,,,,,,,,,,,,8/8 Overcast,3100.0,,BKN,3100.0,OVC,20000.0,,,,
KRDR,09-19-2007,02:00,METAR,,360,8,,,9999,,13.0,8.0,29.97,1015.6,,,,,,,,,,,,,,,8/8 Overcast,20000.0,,SCT,2800.0,OVC,20000.0,,,,
KRDR,09-19-2007,01:00,METAR,,350,8,,,9999,,13.0,8.0,29.96,1015.3,,,,,,,,,,,,,,,8/8 Overcast,20000.0,,SCT,3400.0,OVC,20000.0,,,,
KRDR,09-19-2007,00:27,SPECI,,350,11,,,9999,,13.0,8.0,29.95,,,,,,,,,,,,,,,,8/8 Overcast,20000.0,,FEW,2700.0,OVC,20000.0,,,,
KRDR,09-19-2007,00:00,METAR,,340,15,,,9999,,13.0,8.0,29.94,1014.8,,,,,,,,,,,,,,,8/8 Overcast,2200.0,,BKN,2200.0,OVC,20000.0,,,,
KRDR,09-18-2007,23:00,METAR,,330,13,,,9999,,14.0,9.0,29.94,1014.8,,,,,,,,,,,,,,,8/8 Overcast,2400.0,,OVC,2400.0,,,,,,
KRDR,09-18-2007,22:00,METAR,,340,12,,,9999,,14.0,9.0,29.92,1014.1,,,,,,,,,,,,,,,8/8 Overcast,2200.0,,OVC,2200.0,,,,,,
KRDR,09-18-2007,21:00,METAR,,340,11,,,9999,,14.0,9.0,29.89,1013.2,,,,,,,,,,,,,,,8/8 Overcast,1900.0,,OVC,1900.0,,,,,,
KRDR,09-18-2007,20:00,METAR,,320,11,16.0,,9999,,14.0,9.0,29.89,1013.0,,,,,,,,,,,,,,,8/8 Overcast,1700.0,,OVC,1700.0,,,,,,
KRDR,09-18-2007,18:00,METAR,,340,10,,,9999,,14.0,10.0,29.85,1011.9,,,,,,,,,,,,,,,8/8 Overcast,1700.0,,OVC,1700.0,,,,,,
KRDR,09-18-2007,17:00,METAR,,340,12,,,9999,,14.0,10.0,29.83,1011.1,,,,,,,,,,,,,,,8/8 Overcast,1700.0,,OVC,1700.0,,,,,,
KRDR,09-18-2007,16:00,METAR,,330,13,,,9999,,14.0,10.0,29.82,1010.8,,,,,,,,,,,,,,,8/8 Overcast,1600.0,,BKN,1600.0,OVC,20000.0,,,,
KRDR,09-18-2007,15:15,SPECI,,320,10,,,9999,,13.0,10.0,29.81,,,,,,,,,,,,,,,,8/8 Overcast,1400.0,,BKN,1400.0,OVC,20000.0,,,,
KRDR,09-18-2007,15:00,METAR,,310,8,,,9999,,12.0,10.0,29.81,1010.4,,,,,,,,,,,,,,,8/8 Overcast,20000.0,,SCT,2000.0,OVC,20000.0,,,,
KRDR,09-18-2007,14:00,METAR,,310,11,,,9999,,11.0,9.0,29.79,1009.8,,,,,,,,,,,,,,,8/8 Overcast,20000.0,,FEW,2000.0,OVC,20000.0,,,,
KRDR,09-18-2007,13:00,METAR,,320,7,,,9999,,9.0,9.0,29.78,1009.3,,,,,,,,,,,,,,,8/8 Overcast,20000.0,,FEW,2000.0,OVC,20000.0,,,,
KRDR,09-18-2007,12:00,METAR,,300,6,,,9999,,10.0,10.0,29.74,1008.2,,,,,,,,,,,,,,,,,,,,,,,,,
KRDR,09-18-2007,11:00,METAR,,290,9,,,9999,,10.0,10.0,29.71,1007.3,,,,,,,,,,,,,,,8/8 Overcast,20000.0,,OVC,20000.0,,,,,,
KRDR,09-18-2007,10:00,METAR,,280,5,,,6400,Mist,8.0,8.0,29.70,1006.7,,,,10,,,,,,,,,,,Clear,72000.0,,,73000.0,,,,,,
KRDR,09-18-2007,09:18,SPECI,,290,7,,,9999,,9.0,9.0,29.68,1006.3,,,,,,,,,,,,,,,Clear,72000.0,,,73000.0,,,,,,
KRDR,09-18-2007,09:14,SPECI,,290,7,,,4800,Mist,9.0,9.0,29.68,1006.2,,,,10,,,,,,,,,,,Clear,72000.0,,,73000.0,,,,,,
KRDR,09-18-2007,09:10,SPECI,,280,5,,,4000,Mist,9.0,9.0,29.68,1006.1,,,,10,,,,,,,,,,,Clear,72000.0,,,73000.0,,,,,,
KRDR,09-18-2007,09:05,SPECI,,250,5,,,4000,Mist,9.0,9.0,29.68,1006.2,,,,10,,,,,,,,,,,Clear,72000.0,,,73000.0,,,,,,
KRDR,09-18-2007,09:01,SPECI,,240,5,,,4800,Mist,10.0,10.0,29.68,1006.2,,,,10,,,,,,,,,,,Clear,72000.0,,,73000.0,,,,,,
KRDR,09-18-2007,09:00,METAR,,210,5,,,1200,Mist,10.0,10.0,29.68,1006.0,,,,10,,,,,,,,,,,Clear,72000.0,,,73000.0,,,,,,
KRDR,09-18-2007,08:56,SPECI,,220,4,,,4000,Mist,10.0,10.0,29.68,1006.1,,,,10,,,,,,,,,,,Clear,72000.0,,,73000.0,,,,,,
KRDR,09-18-2007,08:54,SPECI,,220,4,,,2000,Mist,10.0,10.0,29.68,1006.0,,,,10,,,,,,,,,,,Clear,72000.0,,,73000.0,,,,,,
KRDR,09-18-2007,08:49,SPECI,,210,5,,,800,Fog or Ice Fog,10.0,10.0,29.68,1006.1,,,,44,,,,,,,,,,,Clear,72000.0,,,73000.0,,,,,,
KRDR,09-18-2007,08:43,SPECI,,200,4,,,400,Fog or Ice Fog,10.0,10.0,29.67,1006.0,,,,44,,,,,,,,,,,Clear,72000.0,,,73000.0,,,,,,
KRDR,09-18-2007,08:40,SPECI,,190,4,,,800,Fog or Ice Fog,10.0,10.0,29.67,1005.9,,,,44,,,,,,,,,,,Clear,72000.0,,,73000.0,,,,,,
KRDR,09-18-2007,08:38,SPECI,,190,4,,,1200,Mist,10.0,10.0,29.67,1005.9,,,,10,,,,,,,,,,,Clear,72000.0,,,73000.0,,,,,,
KRDR,09-18-2007,08:35,SPECI,,220,3,,,1600,Mist,10.0,10.0,29.67,1005.9,,,,10,,,,,,,,,,,Clear,72000.0,,,73000.0,,,,,,
KRDR,09-18-2007,08:29,SPECI,,240,3,,,2000,Mist,10.0,10.0,29.67,1005.7,,,,10,,,,,,,,,,,Clear,72000.0,,,73000.0,,,,,,
KRDR,09-18-2007,08:27,SPECI,,250,3,,,2800,Mist,10.0,10.0,29.66,1005.6,,,,10,,,,,,,,,,,Clear,72000.0,,,73000.0,,,,,,
KRDR,09-18-2007,08:15,SPECI,,270,5,,,4800,Mist,10.0,10.0,29.65,1005.3,,,,10,,,,,,,,,,,Clear,72000.0,,,73000.0,,,,,,
KRDR,09-18-2007,08:00,METAR,,260,5,,,4800,Mist,10.0,10.0,29.66,1005.4,,,,10,,,,,,,,,,,Clear,72000.0,,,73000.0,,,,,,
KRDR,09-18-2007,07:50,METAR,,250,5,,,4800,Mist,10.0,10.0,29.66,1005.4,,,,10,,,,,,,,,,,Clear,72000.0,,,73000.0,,,,,,
KRDR,09-18-2007,07:47,SPECI,,250,6,,,3200,Mist,10.0,10.0,29.66,1005.5,,,,10,,,,,,,,,,,Clear,72000.0,,,73000.0,,,,,,
KRDR,09-18-2007,07:45,METAR,,240,6,,,2400,Mist,11.0,10.0,29.66,1005.5,,,,10,,,,,,,,,,,Clear,72000.0,,,73000.0,,,,,,
KRDR,09-18-2007,07:44,SPECI,,240,6,,,2000,Mist,11.0,11.0,29.66,1005.5,,,,10,,,,,,,,,,,Clear,72000.0,,,73000.0,,,,,,
KRDR,09-18-2007,07:41,SPECI,,240,5,,,1200,Mist,11.0,11.0,29.66,1005.6,,,,10,,,,,,,,,,,Clear,72000.0,,,73000.0,,,,,,
KRDR,09-18-2007,07:36,SPECI,,250,5,,,800,Fog or Ice Fog,11.0,10.0,29.66,1005.6,,,,44,,,,,,,,,,,Clear,72000.0,,,73000.0,,,,,,
KRDR,09-18-2007,07:00,METAR,,200,3,,,400,Fog or Ice Fog,12.0,11.0,29.65,1005.3,,,,44,,,,,,,,,,,Clear,72000.0,,,73000.0,,,,,,
KRDR,09-18-2007,06:15,SPECI,,220,4,,,400,Fog or Ice Fog,11.0,11.0,29.65,1005.3,,,,44,,,,,,,,,,,Clear,72000.0,,,73000.0,,,,,,
KRDR,09-18-2007,06:11,SPECI,,210,5,,,400,Fog or Ice Fog,12.0,11.0,29.65,1005.3,,,,44,,,,,,,,,,,Clear,72000.0,,,73000.0,,,,,,
KRDR,09-18-2007,06:08,SPECI,,200,4,,,800,Fog or Ice Fog,12.0,12.0,29.65,1005.3,,,,44,,,,,,,,,,,Clear,72000.0,,,73000.0,,,,,,
KRDR,09-18-2007,06:06,SPECI,,190,4,,,1600,Mist,12.0,11.0,29.65,1005.3,,,,10,,,,,,,,,,,Clear,72000.0,,,73000.0,,,,,,
KRDR,09-18-2007,06:04,SPECI,,200,3,,,2800,Mist,12.0,11.0,29.65,1005.3,,,,10,,,,,,,,,,,Clear,72000.0,,,73000.0,,,,,,
KRDR,09-18-2007,06:01,SPECI,,200,3,,,4800,Mist,12.0,12.0,29.66,1005.4,,,,10,,,,,,,,,,,Clear,72000.0,,,73000.0,,,,,,
KRDR,09-18-2007,06:00,METAR,,,0,,,400,Fog or Ice Fog,12.0,12.0,29.65,1005.3,,,,44,,,,,,,,,,,Clear,72000.0,,,73000.0,,,,,,
KRDR,09-18-2007,05:55,METAR,,,0,,,800,Fog or Ice Fog,12.0,12.0,29.65,1005.3,,,,44,,,,,,,,,,,Clear,72000.0,,,73000.0,,,,,,
KRDR,09-18-2007,05:49,SPECI,,,0,,,400,Fog or Ice Fog,12.0,12.0,29.65,1005.3,,,,44,,,,,,,,,,,Clear,72000.0,,,73000.0,,,,,,
KRDR,09-18-2007,05:44,SPECI,,160,2,,,400,Fog or Ice Fog,13.0,13.0,29.66,1005.4,,,,44,,,,,,,,,,,Clear,72000.0,,,73000.0,,,,,,
KRDR,09-18-2007,05:20,METAR,,180,3,,,800,Fog or Ice Fog,13.0,13.0,29.66,1005.4,,,,44,,,,,,,,,,,Clear,72000.0,,,73000.0,,,,,,
KRDR,09-18-2007,05:18,SPECI,,150,3,,,800,Fog or Ice Fog,14.0,13.0,29.66,1005.4,,,,44,,,,,,,,,,,Clear,72000.0,,,73000.0,,,,,,
KRDR,09-18-2007,05:12,SPECI,,150,4,,,400,Fog or Ice Fog,14.0,13.0,29.65,1005.3,,,,44,,,,,,,,,,,Clear,72000.0,,,73000.0,,,,,,
KRDR,09-18-2007,05:09,SPECI,,,0,,,400,Fog or Ice Fog,14.0,13.0,29.66,1005.4,,,,44,,,,,,,,,,,Clear,72000.0,,,73000.0,,,,,,
KRDR,09-18-2007,05:03,SPECI,,230,3,,,800,Fog or Ice Fog,14.0,13.0,29.65,1005.2,,,,44,,,,,,,,,,,Clear,72000.0,,,73000.0,,,,,,
KRDR,09-18-2007,05:00,METAR,,,0,,,1600,Mist,14.0,14.0,29.65,1005.2,,,,10,,,,,,,,,,,Clear,72000.0,,,73000.0,,,,,,
KRDR,09-18-2007,04:53,SPECI,,,0,,,1600,Mist,14.0,14.0,29.65,1005.1,,,,10,,,,,,,,,,,Clear,72000.0,,,73000.0,,,,,,
KRDR,09-18-2007,04:48,SPECI,,,0,,,2000,Mist,14.0,13.0,29.64,1004.8,,,,10,,,,,,,,,,,Clear,72000.0,,,73000.0,,,,,,
KRDR,09-18-2007,04:46,SPECI,,,0,,,2800,Mist,14.0,14.0,29.64,1005.0,,,,10,,,,,,,,,,,Clear,72000.0,,,73000.0,,,,,,
KRDR,09-18-2007,04:27,SPECI,,280,4,,,4800,Mist,14.0,14.0,29.64,1004.9,,,,10,,,,,,,,,,,Clear,72000.0,,,73000.0,,,,,,
KRDR,09-18-2007,04:25,METAR,,280,4,,,4000,Mist,14.0,14.0,29.64,1004.9,,,,10,,,,,,,,,,,Clear,72000.0,,,73000.0,,,,,,
KRDR,09-18-2007,04:23,SPECI,,280,4,,,2400,Mist,14.0,14.0,29.64,1005.0,,,,10,,,,,,,,,,,Clear,1100.0,,,73000.0,,,,,,
KRDR,09-18-2007,04:22,SPECI,,280,4,,,2000,Mist,14.0,13.0,29.64,1005.0,,,,10,,,,,,,,,,,Clear,1100.0,,,73000.0,,,,,,
KRDR,09-18-2007,04:20,METAR,,270,5,,,1200,Mist,13.0,13.0,29.65,1005.0,,,,10,,,,,,,,,,,Clear,72000.0,,,73000.0,,,,,,
KRDR,09-18-2007,04:14,SPECI,,280,6,,,800,Fog or Ice Fog,14.0,13.0,29.64,1005.0,,,,44,,,,,,,,,,,Clear,72000.0,,,73000.0,,,,,,
KRDR,09-18-2007,04:09,SPECI,,280,5,,,400,Fog or Ice Fog,14.0,14.0,29.64,1004.8,,,,44,,,,,,,,,,,Clear,72000.0,,,73000.0,,,,,,
KRDR,09-18-2007,04:04,SPECI,,280,5,,,800,Fog or Ice Fog,14.0,13.0,29.63,1004.7,,,,44,,,,,,,,,,,Clear,72000.0,,,73000.0,,,,,,
KRDR,09-18-2007,04:02,SPECI,,290,6,,,1600,Mist,13.0,13.0,29.64,1004.7,,,,10,,,,,,,,,,,Clear,72000.0,,,73000.0,,,,,,
KRDR,09-18-2007,04:00,METAR,,290,4,,,4800,Mist,14.0,13.0,29.62,1004.3,,,,10,,,,,,,,,,,4/8 Partly Cloudy,72000.0,,SCT,20000.0,,,,,,
KRDR,09-18-2007,03:00,METAR,,150,2,,,8000,Mist,16.0,16.0,29.63,1004.4,,,,10,,,,,,,,,,,7/8 Mostly Cloudy,20000.0,,BKN,20000.0,,,,,,
KRDR,09-18-2007,02:00,METAR,,160,3,,,9999,,18.0,17.0,29.65,1005.1,,,,,,,,,,,,,,,8/8 Overcast,20000.0,,FEW,2100.0,OVC,20000.0,,,,
KRDR,09-18-2007,01:00,METAR,,280,4,,,9999,,19.0,17.0,29.64,1004.9,,,,,,,,,,,,,,,8/8 Overcast,2100.0,,BKN,2100.0,OVC,15000.0,,,,
KRDR,09-18-2007,00:00,METAR,,120,4,,,9999,,20.0,18.0,29.62,1004.2,,,,,,,,,,,,,,,8/8 Overcast,2200.0,,BKN,2200.0,OVC,15000.0,,,,
KRDR,09-17-2007,23:00,METAR,,120,2,,,9999,,21.0,18.0,29.61,1003.8,,,,,,,,,,,,,,,8/8 Overcast,1600.0,,BKN,1600.0,OVC,1900.0,,,,
KRDR,09-17-2007,22:00,METAR,,130,5,,,6400,Mist,21.0,17.0,29.61,1004.0,,,,10,,,,,,,,,,,8/8 Overcast,2500.0,,SCT,2100.0,OVC,2500.0,,,,
KRDR,09-17-2007,21:00,METAR,,120,4,,,6400,Mist,21.0,17.0,29.61,1004.0,,,,10,,,,,,,,,,,8/8 Overcast,1900.0,,BKN,1900.0,OVC,2400.0,,,,
KRDR,09-17-2007,20:00,METAR,,140,6,,,6400,Mist,19.0,17.0,29.62,1004.1,,,,10,,,,,,,,,,,8/8 Overcast,1700.0,,SCT,1300.0,OVC,1700.0,,,,
KRDR,09-17-2007,19:00,METAR,,170,4,,,9999,,20.0,17.0,29.62,1004.2,,,,,,,,,,,,,,,8/8 Overcast,1500.0,,OVC,1500.0,,,,,,
KRDR,09-17-2007,18:00,METAR,,150,7,,,9999,,19.0,17.0,29.64,1004.7,,,,,,,,,,,,,,,7/8 Mostly Cloudy,1600.0,,SCT,900.0,BKN,1600.0,,,,
KRDR,09-17-2007,17:00,METAR,,160,7,,,9999,,19.0,16.0,29.63,1004.5,,,,,,,,,,,,,,,8/8 Overcast,1500.0,,FEW,600.0,OVC,1500.0,,,,
KRDR,09-17-2007,16:00,METAR,,150,8,,,9999,,18.0,16.0,29.63,1004.6,,,,,,,,,,,,,,,8/8 Overcast,1600.0,,SCT,900.0,OVC,1600.0,,,,
KRDR,09-17-2007,15:13,SPECI,,140,8,,,9999,,18.0,15.0,29.63,,,,,,,,,,,,,,,,7/8 Mostly Cloudy,1600.0,,FEW,900.0,BKN,1600.0,BKN,3500.0,,
KRDR,09-17-2007,15:00,METAR,,120,6,,,9999,,17.0,15.0,29.63,1004.6,,,,,,,,,,,,,,,7/8 Mostly Cloudy,3400.0,,SCT,1000.0,BKN,3500.0,BKN,12000.0,,
KRDR,09-17-2007,14:00,METAR,,90,3,,,9999,,14.0,12.0,29.63,1004.5,,,,,,,,,,,,,,,7/8 Mostly Cloudy,900.0,,FEW,900.0,SCT,1300.0,BKN,3500.0,BKN,12000.0
KRDR,09-17-2007,13:00,METAR,,60,1,,,9999,,9.0,8.0,29.64,1004.9,,,,,,,,,,,,,,,7/8 Mostly Cloudy,3400.0,,FEW,1500.0,BKN,3500.0,BKN,12000.0,,
KRDR,09-17-2007,12:00,METAR,,270,3,,,9999,,9.0,8.0,29.63,1004.4,,,,,,,,,,,,,,,4/8 Partly Cloudy,72000.0,,FEW,12000.0,SCT,25000.0,,,,
KRDR,09-17-2007,11:00,METAR,,,2,,,9999,,10.0,9.0,29.61,1003.7,,,,,,,,,,,,,,,4/8 Partly Cloudy,72000.0,,FEW,12000.0,SCT,25000.0,,,,
KRDR,09-17-2007,10:00,METAR,,170,3,,,9999,,12.0,11.0,29.60,1003.6,,,,,,,,,,,,,,,Clear,72000.0,,,73000.0,,,,,,
KRDR,09-17-2007,09:00,METAR,,140,10,,,9999,,14.0,11.0,29.58,1002.8,,,,,,,,,,,,,,,Clear,72000.0,,,73000.0,,,,,,
KRDR,09-17-2007,08:00,METAR,,140,11,,,9999,,14.0,10.0,29.63,1004.7,,,,,,,,,,,,,,,Clear,72000.0,,,73000.0,,,,,,
KRDR,09-17-2007,07:00,METAR,,150,8,,,9999,,14.0,10.0,29.67,1005.9,,,,,,,,,,,,,,,Clear,72000.0,,,73000.0,,,,,,
KRDR,09-17-2007,06:00,METAR,,160,9,,,9999,,12.0,9.0,29.70,1006.8,,,,,,,,,,,,,,,Clear,72000.0,,,73000.0,,,,,,
KRDR,09-17-2007,05:00,METAR,,150,6,,,9999,,13.0,9.0,29.71,1007.1,,,,,,,,,,,,,,,Clear,72000.0,,,73000.0,,,,,,
KRDR,09-17-2007,04:00,METAR,,160,8,,,9999,,14.0,8.0,29.72,1007.5,,,,,,,,,,,,,,,Clear,72000.0,,,73000.0,,,,,,
KRDR,09-17-2007,03:00,METAR,,160,7,,,9999,,14.0,8.0,29.73,1007.9,,,,,,,,,,,,,,,Clear,72000.0,,,73000.0,,,,,,
KRDR,09-17-2007,02:00,METAR,,160,9,,,9999,,15.0,7.0,29.74,1008.0,,,,,,,,,,,,,,,Clear,72000.0,,,73000.0,,,,,,
KRDR,09-17-2007,01:00,METAR,,160,7,,,9999,,18.0,7.0,29.74,1008.2,,,,,,,,,,,,,,,Clear,72000.0,,,73000.0,,,,,,
KRDR,09-17-2007,00:00,METAR,,180,11,,,9999,,22.0,7.0,29.75,1008.5,,,,,,,,,,,,,,,Clear,72000.0,,,73000.0,,,,,,
KRDR,09-16-2007,23:00,METAR,,160,14,,,9999,,24.0,7.0,29.76,1008.8,,,,,,,,,,,,,,,Clear,72000.0,,,73000.0,,,,,,
KRDR,09-16-2007,22:00,METAR,,170,15,19.0,,9999,,25.0,7.0,29.77,1009.1,,,,,,,,,,,,,,,Clear,72000.0,,,73000.0,,,,,,
KRDR,09-16-2007,21:00,METAR,,190,15,,,9999,,25.0,7.0,29.79,1009.7,,,,,,,,,,,,,,,Clear,72000.0,,,73000.0,,,,,,
KRDR,09-16-2007,20:00,METAR,,180,13,19.0,,9999,,25.0,8.0,29.81,1010.4,,,,,,,,,,,,,,,Clear,72000.0,,,73000.0,,,,,,
KRDR,09-16-2007,19:00,METAR,,190,15,21.0,,9999,,25.0,8.0,29.83,1011.2,,,,,,,,,,,,,,,Clear,72000.0,,,73000.0,,,,,,
KRDR,09-16-2007,18:00,METAR,,190,13,,,9999,,23.0,9.0,29.86,1012.0,,,,,,,,,,,,,,,Clear,72000.0,,,73000.0,,,,,,
KRDR,09-16-2007,17:00,METAR,,200,9,,,9999,,21.0,9.0,29.88,1012.7,,,,,,,,,,,,,,,Clear,72000.0,,,73000.0,,,,,,
KRDR,09-16-2007,16:00,METAR,,170,9,,,9999,,17.0,10.0,29.88,1012.9,,,,,,,,,,,,,,,Clear,72000.0,,,73000.0,,,,,,
KRDR,09-16-2007,15:00,METAR,,180,8,,,9999,,14.0,9.0,29.89,1013.1,,,,,,,,,,,,,,,Clear,72000.0,,,73000.0,,,,,,
KRDR,09-16-2007,14:00,METAR,,170,8,,,9999,,10.0,8.0,29.89,1013.1,,,,,,,,,,,,,,,Clear,72000.0,,,73000.0,,,,,,
KRDR,09-16-2007,13:00,METAR,,160,6,,,9999,,6.0,5.0,29.89,1013.2,,,,,,,,,,,,,,,2/8 Mostly Clear,72000.0,,FEW,25000.0,,,,,,
KRDR,09-16-2007,12:00,METAR,,170,6,,,9999,,6.0,5.0,29.89,1013.2,,,,,,,,,,,,,,,2/8 Mostly Clear,72000.0,,FEW,25000.0,,,,,,
KRDR,09-16-2007,11:00,METAR,,150,6,,,9999,,6.0,5.0,29.88,1012.9,,,,,,,,,,,,,,,Clear,72000.0,,,73000.0,,,,,,
KRDR,09-16-2007,10:00,METAR,,170,4,,,9999,,6.0,5.0,29.88,1012.6,,,,,,,,,,,,,,,Clear,72000.0,,,73000.0,,,,,,
KRDR,09-16-2007,09:00,METAR,,140,4,,,9999,,7.0,5.0,29.87,1012.5,,,,,,,,,,,,,,,Clear,72000.0,,,73000.0,,,,,,
KRDR,09-16-2007,08:00,METAR,,180,8,,,9999,,8.0,6.0,29.88,1012.7,,,,,,,,,,,,,,,Clear,72000.0,,,73000.0,,,,,,
KRDR,09-16-2007,07:00,METAR,,180,9,,,9999,,9.0,7.0,29.88,1012.7,,,,,,,,,,,,,,,Clear,72000.0,,,73000.0,,,,,,
KRDR,09-16-2007,06:00,METAR,,190,8,,,9999,,11.0,7.0,29.88,1012.7,,,,,,,,,,,,,,,Clear,72000.0,,,73000.0,,,,,,
KRDR,09-16-2007,05:00,METAR,,200,9,,,9999,,11.0,7.0,29.89,1013.1,,,,,,,,,,,,,,,Clear,72000.0,,,73000.0,,,,,,
KRDR,09-16-2007,04:00,METAR,,190,7,,,9999,,10.0,6.0,29.89,1013.2,,,,,,,,,,,,,,,Clear,72000.0,,,73000.0,,,,,,
KRDR,09-16-2007,03:00,METAR,,190,6,,,9999,,11.0,6.0,29.89,1013.1,,,,,,,,,,,,,,,Clear,72000.0,,,73000.0,,,,,,
KRDR,09-16-2007,02:00,METAR,,190,7,,,9999,,12.0,6.0,29.89,1013.2,,,,,,,,,,,,,,,7/8 Mostly Cloudy,25000.0,,BKN,25000.0,,,,,,
KRDR,09-16-2007,01:00,METAR,,200,9,,,9999,,16.0,7.0,29.89,1013.0,,,,,,,,,,,,,,,7/8 Mostly Cloudy,25000.0,,BKN,25000.0,,,,,,
KRDR,09-16-2007,00:00,METAR,,210,12,,,9999,,19.0,6.0,29.90,1013.3,,,,,,,,,,,,,,,7/8 Mostly Cloudy,25000.0,,BKN,25000.0,,,,,,
KRDR,09-15-2007,23:00,METAR,,220,13,18.0,,9999,,20.0,6.0,29.90,1013.3,,,,,,,,,,,,,,,7/8 Mostly Cloudy,25000.0,,BKN,25000.0,,,,,,
KRDR,09-15-2007,22:00,METAR,,230,13,19.0,,9999,,21.0,6.0,29.91,1013.6,,,,,,,,,,,,,,,7/8 Mostly Cloudy,25000.0,,BKN,25000.0,,,,,,
KRDR,09-15-2007,21:00,METAR,,210,16,,,9999,,21.0,5.0,29.92,1014.0,,,,,,,,,,,,,,,7/8 Mostly Cloudy,25000.0,,BKN,25000.0,,,,,,
KRDR,09-15-2007,20:00,METAR,,210,17,25.0,190/26KTS,9999,,20.0,5.0,29.94,1014.7,,,,,,,,,,,,,,,7/8 Mostly Cloudy,25000.0,,BKN,25000.0,,,,,,
KRDR,09-15-2007,19:00,METAR,,210,15,24.0,200/26KTS,9999,,18.0,4.0,29.97,1015.6,,,,,,,,,,,,,,,Clear,72000.0,,,73000.0,,,,,,
KRDR,09-15-2007,18:00,METAR,,180,17,23.0,,9999,,17.0,4.0,29.99,1016.4,,,,,,,,,,,,,,,Clear,72000.0,,,73000.0,,,,,,
KRDR,09-15-2007,17:00,METAR,,200,16,21.0,,9999,,15.0,3.0,30.02,1017.5,,,,,,,,,,,,,,,Clear,72000.0,,,73000.0,,,,,,
KRDR,09-15-2007,16:00,METAR,,210,19,,,9999,,13.0,2.0,30.05,1018.3,,,,,,,,,,,,,,,Clear,72000.0,,,73000.0,,,,,,
KRDR,09-15-2007,15:00,METAR,,200,14,,,9999,,10.0,2.0,30.08,1019.4,,,,,,,,,,,,,,,Clear,72000.0,,,73000.0,,,,,,
KRDR,09-15-2007,14:00,METAR,,190,12,,,9999,,5.0,1.0,30.09,1019.8,,,,,,,,,,,,,,,Clear,72000.0,,,73000.0,,,,,,
KRDR,09-15-2007,13:00,METAR,,180,8,,,9999,,4.0,1.0,30.12,1020.7,,,,,,,,,,,,,,,Clear,72000.0,,,73000.0,,,,,,
KRDR,09-15-2007,12:00,METAR,,190,7,,,9999,,3.0,0.0,30.13,1021.0,,,,,,,,,,,,,,,Clear,72000.0,,,73000.0,,,,,,
KRDR,09-15-2007,11:00,METAR,,190,6,,,9999,,2.0,-1.0,30.14,1021.3,,,,,,,,,,,,,,,Clear,72000.0,,,73000.0,,,,,,
KRDR,09-15-2007,10:00,METAR,,190,6,,,9999,,2.0,-1.0,30.15,1021.7,,,,,,,,,,,,,,,Clear,72000.0,,,73000.0,,,,,,
KRDR,09-15-2007,09:00,METAR,,180,8,,,9999,,0.0,-2.0,30.17,1022.4,,,,,,,,,,,,,,,Clear,72000.0,,,73000.0,,,,,,
KRDR,09-15-2007,08:00,METAR,,200,6,,,9999,,2.0,-1.0,30.19,1022.9,,,,,,,,,,,,,,,Clear,72000.0,,,73000.0,,,,,,
KRDR,09-15-2007,07:00,METAR,,230,5,,,9999,,0.0,-2.0,30.20,1023.4,,,,,,,,,,,,,,,Clear,72000.0,,,73000.0,,,,,,
KRDR,09-15-2007,06:00,METAR,,220,5,,,9999,,0.0,-2.0,30.21,1023.8,,,,,,,,,,,,,,,Clear,72000.0,,,73000.0,,,,,,
KRDR,09-15-2007,04:00,METAR,,230,4,,,9999,,2.0,-1.0,30.23,1024.2,,,,,,,,,,,,,,,Clear,72000.0,,,73000.0,,,,,,
KRDR,09-15-2007,03:00,METAR,,210,5,,,9999,,3.0,-1.0,30.22,1024.0,,,,,,,,,,,,,,,Clear,72000.0,,,73000.0,,,,,,
KRDR,09-15-2007,02:00,METAR,,230,4,,,9999,,4.0,0.0,30.23,1024.3,,,,,,,,,,,,,,,Clear,72000.0,,,73000.0,,,,,,
KRDR,09-15-2007,01:00,METAR,,240,6,,,9999,,7.0,0.0,30.22,1024.0,,,,,,,,,,,,,,,Clear,72000.0,,,73000.0,,,,,,
KRDR,09-15-2007,00:00,METAR,,260,7,,,9999,,12.0,-1.0,30.23,1024.4,,,,,,,,,,,,,,,Clear,72000.0,,,73000.0,,,,,,
KRDR,09-14-2007,23:00,METAR,,310,5,,,9999,,13.0,-2.0,30.24,1024.7,,,,,,,,,,,,,,,Clear,72000.0,,,73000.0,,,,,,
KRDR,09-14-2007,22:00,METAR,,300,8,,,9999,,12.0,-2.0,30.25,1025.0,,,,,,,,,,,,,,,Clear,72000.0,,,73000.0,,,,,,
KRDR,09-14-2007,21:00,METAR,,320,12,16.0,,9999,,12.0,-2.0,30.26,1025.4,,,,,,,,,,,,,,,4/8 Partly Cloudy,72000.0,,SCT,4800.0,,,,,,
KRDR,09-14-2007,20:00,METAR,,340,9,,,9999,,12.0,-2.0,30.28,1025.8,,,,,,,,,,,,,,,4/8 Partly Cloudy,72000.0,,SCT,4800.0,,,,,,
KRDR,09-14-2007,19:00,METAR,,310,7,,,9999,,10.0,-1.0,30.29,1026.4,,,,,,,,,,,,,,,7/8 Mostly Cloudy,4200.0,,BKN,4300.0,,,,,,
KRDR,09-14-2007,18:00,METAR,,340,7,,,9999,,10.0,-1.0,30.30,1026.6,,,,,,,,,,,,,,,7/8 Mostly Cloudy,4200.0,,BKN,4300.0,,,,,,
KRDR,09-14-2007,17:00,METAR,,320,11,16.0,,9999,,9.0,0.0,30.30,1026.7,,,,,,,,,,,,,,,7/8 Mostly Cloudy,4100.0,,FEW,2900.0,BKN,4200.0,,,,
KRDR,09-14-2007,16:00,METAR,,330,11,,,9999,,8.0,1.0,30.30,1026.7,,,,,,,,,,,,,,,7/8 Mostly Cloudy,3900.0,,SCT,2500.0,BKN,4000.0,,,,
KRDR,09-14-2007,15:00,METAR,,320,13,17.0,,9999,,6.0,1.0,30.29,1026.3,,,,,,,,,,,,,,,7/8 Mostly Cloudy,4100.0,,FEW,1500.0,BKN,4200.0,,,,
KRDR,09-14-2007,14:00,METAR,,320,8,,,9999,,4.0,1.0,30.27,1025.8,,,,,,,,,,,,,,,7/8 Mostly Cloudy,4400.0,,FEW,1800.0,BKN,4500.0,BKN,13000.0,,
KRDR,09-14-2007,13:00,METAR,,310,6,,,9999,,2.0,0.0,30.26,1025.3,,,,,,,,,,,,,,,7/8 Mostly Cloudy,4400.0,,FEW,1800.0,BKN,4500.0,BKN,15000.0,,
KRDR,09-14-2007,12:00,METAR,,320,9,,,9999,,0.0,-1.0,30.24,1024.7,,,,,,,,,,,,,,,4/8 Partly Cloudy,72000.0,,FEW,5000.0,SCT,15000.0,,,,
KRDR,09-14-2007,11:00,METAR,,330,9,,,9999,,1.0,-1.0,30.22,1024.0,,,,,,,,,,,,,,,4/8 Partly Cloudy,72000.0,,SCT,5900.0,SCT,15000.0,,,,
KRDR,09-14-2007,10:00,METAR,,340,9,,,9999,,2.0,0.0,30.20,1023.2,,,,,,,,,,,,,,,4/8 Partly Cloudy,72000.0,,FEW,1600.0,SCT,5900.0,,,,
KRDR,09-14-2007,09:00,METAR,,350,15,,,9999,,4.0,1.0,30.17,1022.4,,,,,,,,,,,,,,,7/8 Mostly Cloudy,1300.0,,BKN,1600.0,BKN,5900.0,,,,
KRDR,09-14-2007,08:00,METAR,,340,9,,,9999,,3.0,0.0,30.15,1021.6,,,,,,,,,,,,,,,7/8 Mostly Cloudy,7500.0,,SCT,2500.0,BKN,7400.0,,,,
KRDR,09-14-2007,07:00,METAR,,350,13,18.0,,9999,,4.0,0.0,30.12,1020.8,,,,,,,,,,,,,,,7/8 Mostly Cloudy,6000.0,,SCT,2500.0,BKN,5900.0,,,,
KRDR,09-14-2007,06:00,METAR,,340,12,,,9999,,5.0,2.0,30.09,1019.8,,,,,,,,,,,TRACE,,TRACE,,8/8 Overcast,2500.0,,FEW,900.0,SCT,1900.0,OVC,2500.0,,
KRDR,09-14-2007,05:36,SPECI,,340,12,18.0,,9999,,5.0,3.0,30.09,1019.8,,,,,,,,,,,,,,,7/8 Mostly Cloudy,1600.0,,SCT,1000.0,BKN,1600.0,BKN,2200.0,,
KRDR,09-14-2007,05:21,SPECI,,350,12,,,9999,,5.0,3.0,30.09,1019.6,,,,,,,,,,,,,,,8/8 Overcast,1700.0,,OVC,1700.0,,,,,,
KRDR,09-14-2007,05:01,SPECI,,330,15,23.0,,9999,,6.0,2.0,30.08,1019.3,,,,,,,,,,,,,,,8/8 Overcast,1400.0,,SCT,1400.0,OVC,2100.0,,,,
KRDR,09-14-2007,05:00,METAR,,330,17,21.0,,9999,,6.0,2.0,30.08,1019.2,,,,,,,,,,,,,,,8/8 Overcast,1600.0,,FEW,1600.0,OVC,2400.0,,,,
KRDR,09-14-2007,04:00,METAR,,330,12,,,9999,,6.0,2.0,30.05,1018.4,,,,,,,,,,,,,,,7/8 Mostly Cloudy,3900.0,,FEW,1900.0,BKN,4000.0,BKN,8900.0,,
KRDR,09-14-2007,03:00,METAR,,330,12,26.0,340/26KTS,9999,,7.0,2.0,30.03,1017.9,,,,,,,,,,,,,,,7/8 Mostly Cloudy,7500.0,,FEW,3000.0,BKN,7400.0,,,,
KRDR,09-14-2007,02:00,METAR,,340,15,20.0,,9999,,8.0,2.0,30.00,1016.8,,,,,,,,,,,,,,,8/8 Overcast,5500.0,,FEW,3100.0,OVC,5400.0,,,,
KRDR,09-14-2007,01:00,METAR,,330,13,20.0,,9999,,9.0,1.0,29.97,1015.6,,,,,,,,,,,,,,,8/8 Overcast,6000.0,,SCT,3400.0,OVC,5900.0,,,,
KRDR,09-14-2007,00:00,METAR,,310,15,24.0,310/27KTS,9999,,10.0,2.0,29.94,1014.7,,,,,,,,,,,,,,,8/8 Overcast,7000.0,,FEW,3700.0,OVC,6900.0,,,,
KRDR,09-13-2007,23:00,METAR,,310,14,24.0,300/27KTS,9999,,11.0,3.0,29.92,1014.0,,,,,,,,,,,,,,,7/8 Mostly Cloudy,6500.0,,FEW,3700.0,BKN,6400.0,,,,
KRDR,09-13-2007,22:00,METAR,,300,16,24.0,310/29KTS,9999,,12.0,3.0,29.90,1013.4,,,,,,,,,,,,,,,7/8 Mostly Cloudy,4400.0,,BKN,4500.0,,,,,,
KRDR,09-13-2007,21:00,METAR,,300,18,27.0,290/29KTS,9999,,12.0,3.0,29.90,1013.5,,,,,,,,,,,,,,,7/8 Mostly Cloudy,3800.0,,BKN,3900.0,,,,,,
KRDR,09-13-2007,20:00,METAR,,300,22,28.0,290/31KTS,9999,,11.0,3.0,29.89,1013.2,,,,,,,,,,,,,,,8/8 Overcast,3900.0,,OVC,4000.0,,,,,,
KRDR,09-13-2007,19:00,METAR,,290,19,31.0,280/31KTS,9999,,11.0,1.0,29.89,1013.0,,,,,,,,,,,,,,,7/8 Mostly Cloudy,3900.0,,BKN,4000.0,,,,,,
KRDR,09-13-2007,18:00,METAR,,290,20,30.0,300/32KTS,9999,,11.0,2.0,29.88,1012.7,,,,,,,,,,,,,,,7/8 Mostly Cloudy,3600.0,,BKN,3700.0,,,,,,
KRDR,09-13-2007,17:00,METAR,,290,19,27.0,290/28KTS,9999,,10.0,2.0,29.87,1012.3,,,,,,,,,,,,,,,7/8 Mostly Cloudy,3500.0,,BKN,3600.0,,,,,,
KRDR,09-13-2007,16:00,METAR,,310,19,28.0,310/31KTS,9999,,10.0,3.0,29.85,1011.7,,,,,,,,,,,,,,,7/8 Mostly Cloudy,3100.0,,BKN,3200.0,,,,,,
KRDR,09-13-2007,15:00,METAR,,300,22,30.0,300/35KTS,9999,,9.0,2.0,29.82,1010.9,,,,,,,,,,,,,,,7/8 Mostly Cloudy,3000.0,,BKN,3000.0,BKN,6900.0,,,,
KRDR,09-13-2007,14:00,METAR,,290,22,30.0,290/30KTS,9999,,9.0,2.0,29.82,1010.8,,,,,,,,,,,,,,,7/8 Mostly Cloudy,7000.0,,FEW,3000.0,BKN,6900.0,,,,
KRDR,09-13-2007,13:00,METAR,,300,15,22.0,,9999,,8.0,2.0,29.83,1011.0,,,,,,,,,,,,,,,2/8 Mostly Clear,72000.0,,FEW,2500.0,,,,,,
KRDR,09-13-2007,12:00,METAR,,280,11,,290/28KTS,9999,,7.0,3.0,29.81,1010.4,,,,,,,,,,,,,,,2/8 Mostly Clear,72000.0,,FEW,2500.0,,,,,,
KRDR,09-13-2007,11:00,METAR,,290,17,23.0,300/26KTS,9999,,9.0,4.0,29.79,1009.9,,,,,,,,,,,,,,,4/8 Partly Cloudy,72000.0,,SCT,3100.0,,,,,,
KRDR,09-13-2007,10:42,SPECI,,290,15,23.0,,9999,,9.0,4.0,29.79,,,,,,,,,,,,,,,,4/8 Partly Cloudy,72000.0,,SCT,2500.0,,,,,,
KRDR,09-13-2007,10:00,METAR,,280,18,26.0,290/27KTS,9999,,12.0,6.0,29.78,1009.6,,,,,,,,,,,,,,,8/8 Overcast,2500.0,,OVC,2500.0,,,,,,
KRDR,09-13-2007,09:00,METAR,,310,11,20.0,,9999,,12.0,8.0,29.74,1008.2,,,,,,,,,,,,,,,8/8 Overcast,2200.0,,OVC,2200.0,,,,,,
KRDR,09-13-2007,08:41,SPECI,,300,12,,,9999,,12.0,7.0,29.75,1008.4,,,,,,,,,,,,,,,8/8 Overcast,2100.0,,BKN,2100.0,OVC,3000.0,,,,
KRDR,09-13-2007,08:38,SPECI,,300,13,,,9999,,12.0,7.0,29.75,1008.3,,,,,,,,,,,,,,,8/8 Overcast,3000.0,,SCT,2100.0,OVC,3000.0,,,,
KRDR,09-13-2007,08:31,SPECI,,300,11,,,9999,,12.0,7.0,29.75,1008.3,,,,,,,,,,,,,,,7/8 Mostly Cloudy,2900.0,,BKN,2900.0,,,,,,
KRDR,09-13-2007,08:00,METAR,,310,11,20.0,300/29KTS,9999,,12.0,8.0,29.72,1007.5,,,,,,,,,,,,,,,4/8 Partly Cloudy,72000.0,,FEW,6400.0,SCT,25000.0,,,,
KRDR,09-13-2007,07:00,METAR,,310,15,29.0,320/29KTS,9999,,14.0,9.0,29.68,1006.0,,,,,,,,,,,,,,,7/8 Mostly Cloudy,20000.0,,FEW,6900.0,BKN,20000.0,,,,
KRDR,09-13-2007,06:13,SPECI,,310,17,25.0,,9999,,14.0,9.0,29.65,1005.2,,,,,,,,,,,,,,,7/8 Mostly Cloudy,20000.0,,SCT,6900.0,BKN,20000.0,,,,
KRDR,09-13-2007,06:00,METAR,,250,6,,,9999,,12.0,9.0,29.64,1004.8,,,,,,,,,,,,,,,4/8 Partly Cloudy,72000.0,,FEW,2300.0,FEW,6900.0,SCT,25000.0,,
KRDR,09-13-2007,05:00,METAR,,200,5,,,9999,,11.0,7.0,29.64,1004.8,,,,,,,,,,,,,,,2/8 Mostly Clear,72000.0,,FEW,6900.0,FEW,25000.0,,,,
KRDR,09-13-2007,04:00,METAR,,160,3,,,9999,,11.0,7.0,29.65,1005.3,,,,,,,,,,,,,,,4/8 Partly Cloudy,72000.0,,SCT,7900.0,SCT,25000.0,,,,
KRDR,09-13-2007,03:00,METAR,,150,6,,,9999,,13.0,7.0,29.67,1005.8,,,,,,,,,,,,,,,4/8 Partly Cloudy,72000.0,,FEW,7900.0,SCT,25000.0,,,,
KRDR,09-13-2007,02:00,METAR,,140,4,,,9999,,15.0,7.0,29.70,1006.8,,,,,,,,,,,,,,,2/8 Mostly Clear,72000.0,,FEW,6900.0,FEW,25000.0,,,,
KRDR,09-13-2007,01:00,METAR,,150,6,,,9999,,16.0,7.0,29.69,1006.5,,,,,,,,,,,,,,,2/8 Mostly Clear,72000.0,,FEW,6900.0,FEW,25000.0,,,,
KRDR,09-13-2007,00:00,METAR,,160,12,,,9999,,19.0,6.0,29.72,1007.3,,,,,,,,,,,,,,,2/8 Mostly Clear,72000.0,,FEW,25000.0,,,,,,
KRDR,09-12-2007,23:00,METAR,,180,18,24.0,160/26KTS,9999,,20.0,5.0,29.73,1007.9,,,,,,,,,,,,,,,2/8 Mostly Clear,72000.0,,FEW,25000.0,,,,,,
KRDR,09-12-2007,22:00,METAR,,180,19,26.0,160/30KTS,9999,,20.0,5.0,29.76,1008.7,,,,,,,,,,,,,,,2/8 Mostly Clear,72000.0,,FEW,25000.0,,,,,,
KRDR,09-12-2007,21:00,METAR,,160,19,28.0,150/28KTS,9999,,19.0,4.0,29.78,1009.3,,,,,,,,,,,,,,,2/8 Mostly Clear,72000.0,,FEW,25000.0,,,,,,
KRDR,09-12-2007,20:00,METAR,,140,18,23.0,150/25KTS,9999,,19.0,3.0,29.80,1010.3,,,,,,,,,,,,,,,2/8 Mostly Clear,72000.0,,FEW,25000.0,,,,,,
KRDR,09-12-2007,19:00,METAR,,160,15,,170/26KTS,9999,,18.0,3.0,29.85,1011.9,,,,,,,,,,,,,,,2/8 Mostly Clear,72000.0,,FEW,25000.0,,,,,,
KRDR,09-12-2007,18:00,METAR,,170,21,25.0,170/26KTS,9999,,16.0,3.0,29.89,1013.1,,,,,,,,,,,,,,,2/8 Mostly Clear,72000.0,,FEW,25000.0,,,,,,
KRDR,09-12-2007,17:00,METAR,,160,17,22.0,,9999,,15.0,3.0,29.93,1014.4,,,,,,,,,,,,,,,2/8 Mostly Clear,72000.0,,FEW,25000.0,,,,,,
KRDR,09-12-2007,16:00,METAR,,170,15,,170/26KTS,9999,,12.0,2.0,29.96,1015.4,,,,,,,,,,,,,,,2/8 Mostly Clear,72000.0,,FEW,7900.0,,,,,,
KRDR,09-12-2007,15:00,METAR,,170,18,,,9999,,10.0,3.0,29.98,1016.2,,,,,,,,,,,,,,,2/8 Mostly Clear,72000.0,,FEW,7900.0,,,,,,
KRDR,09-12-2007,14:00,METAR,,160,11,,,9999,,7.0,2.0,30.01,1017.2,,,,,,,,,,,,,,,4/8 Partly Cloudy,72000.0,,SCT,7900.0,,,,,,
KRDR,09-12-2007,13:00,METAR,,150,9,,,9999,,4.0,1.0,30.04,1017.9,,,,,,,,,,,,,,,2/8 Mostly Clear,72000.0,,FEW,9900.0,,,,,,
KRDR,09-12-2007,12:00,METAR,,150,7,,,9999,,2.0,0.0,30.05,1018.4,,,,,,,,,,,,,,,2/8 Mostly Clear,72000.0,,FEW,9900.0,,,,,,
KRDR,09-12-2007,11:00,METAR,,160,7,,,9999,,2.0,0.0,30.06,1018.7,,,,,,,,,,,,,,,Clear,72000.0,,,73000.0,,,,,,
KRDR,09-12-2007,10:00,METAR,,170,7,,,9999,,2.0,0.0,30.08,1019.3,,,,,,,,,,,,,,,Clear,72000.0,,,73000.0,,,,,,
KRDR,09-12-2007,09:00,METAR,,170,6,,,9999,,2.0,-1.0,30.10,1020.0,,,,,,,,,,,,,,,Clear,72000.0,,,73000.0,,,,,,
KRDR,09-12-2007,08:00,METAR,,170,6,,,9999,,2.0,-1.0,30.12,1020.5,,,,,,,,,,,,,,,Clear,72000.0,,,73000.0,,,,,,
KRDR,09-12-2007,07:00,METAR,,180,2,,,9999,,0.0,-1.0,30.13,1021.0,,,,,,,,,,,,,,,Clear,72000.0,,,73000.0,,,,,,
KRDR,09-12-2007,06:00,METAR,,,0,,,9999,,1.0,-1.0,30.13,1021.1,,,,,,,,,,,,,,,Clear,72000.0,,,73000.0,,,,,,
KRDR,09-12-2007,05:00,METAR,,210,2,,,9999,,1.0,0.0,30.15,1021.5,,,,,,,,,,,,,,,Clear,72000.0,,,73000.0,,,,,,
KRDR,09-12-2007,04:00,METAR,,,0,,,9999,,2.0,0.0,30.15,1021.6,,,,,,,,,,,,,,,Clear,72000.0,,,73000.0,,,,,,
KRDR,09-12-2007,03:00,METAR,,,0,,,9999,,3.0,0.0,30.16,1022.0,,,,,,,,,,,,,,,2/8 Mostly Clear,72000.0,,FEW,25000.0,,,,,,
KRDR,09-12-2007,02:00,METAR,,,0,,,9999,,5.0,0.0,30.16,1021.9,,,,,,,,,,,,,,,2/8 Mostly Clear,72000.0,,FEW,25000.0,,,,,,
KRDR,09-12-2007,01:00,METAR,,40,5,,,9999,,8.0,0.0,30.16,1021.8,,,,,,,,,,,,,,,2/8 Mostly Clear,72000.0,,FEW,25000.0,,,,,,
KRDR,09-12-2007,00:00,METAR,,30,10,,,9999,,11.0,0.0,30.16,1022.0,,,,,,,,,,,,,,,2/8 Mostly Clear,72000.0,,FEW,25000.0,,,,,,
KRDR,09-11-2007,23:00,METAR,,360,10,,,9999,,12.0,-1.0,30.17,1022.2,,,,,,,,,,,,,,,Clear,72000.0,,,73000.0,,,,,,
KRDR,09-11-2007,22:00,METAR,,360,12,20.0,,9999,,13.0,-1.0,30.17,1022.3,,,,,,,,,,,,,,,2/8 Mostly Clear,72000.0,,FEW,20000.0,,,,,,
KRDR,09-11-2007,21:00,METAR,,10,10,18.0,,9999,,12.0,0.0,30.18,1022.6,,,,,,,,,,,,,,,2/8 Mostly Clear,72000.0,,FEW,20000.0,,,,,,
KRDR,09-11-2007,20:00,METAR,,10,11,19.0,,9999,,12.0,0.0,30.19,1022.9,,,,,,,,,,,,,,,2/8 Mostly Clear,72000.0,,FEW,4000.0,FEW,20000.0,,,,
KRDR,09-11-2007,19:00,METAR,,10,9,18.0,,9999,,11.0,1.0,30.19,1023.0,,,,,,,,,,,,,,,4/8 Partly Cloudy,72000.0,,FEW,4200.0,SCT,20000.0,,,,
KRDR,09-11-2007,18:00,METAR,,20,14,23.0,010/26KTS,9999,,11.0,1.0,30.18,1022.7,,,,,,,,,,,,,,,7/8 Mostly Cloudy,3600.0,,BKN,3700.0,BKN,20000.0,,,,
KRDR,09-11-2007,17:00,METAR,,10,14,23.0,,9999,,10.0,1.0,30.18,1022.7,,,,,,,,,,,,,,,7/8 Mostly Cloudy,3300.0,,BKN,3400.0,BKN,20000.0,,,,
KRDR,09-11-2007,16:43,SPECI,,360,18,24.0,,9999,,9.0,0.0,30.18,,,,,,,,,,,,,,,,7/8 Mostly Cloudy,3300.0,,BKN,3400.0,BKN,25000.0,,,,
KRDR,09-11-2007,16:00,METAR,,360,16,23.0,,9999,,8.0,1.0,30.17,1022.4,,,,,,,,,,,,,,,7/8 Mostly Cloudy,2800.0,,BKN,2800.0,BKN,25000.0,,,,
KRDR,09-11-2007,15:00,METAR,,360,17,23.0,350/27KTS,9999,,8.0,1.0,30.15,1021.7,,,,,,,,,,,,,,,7/8 Mostly Cloudy,2200.0,,BKN,2200.0,BKN,25000.0,,,,
KRDR,09-11-2007,14:14,SPECI,,340,15,20.0,,9999,,7.0,2.0,30.14,,,,,,,,,,,,,,,,7/8 Mostly Cloudy,2300.0,,BKN,2300.0,BKN,25000.0,,,,
KRDR,09-11-2007,14:00,METAR,,350,12,23.0,000/26KTS,9999,,6.0,1.0,30.14,1021.2,,,,,,,,,,,,,,,7/8 Mostly Cloudy,25000.0,,SCT,2300.0,BKN,25000.0,,,,
KRDR,09-11-2007,13:00,METAR,,340,18,22.0,,9999,,6.0,2.0,30.11,1020.2,,,,,,,,,,,,,,,7/8 Mostly Cloudy,25000.0,,SCT,2100.0,BKN,25000.0,,,,
KRDR,09-11-2007,12:00,METAR,,340,16,26.0,340/26KTS,9999,,5.0,1.0,30.08,1019.2,,,,,,,,,,,,,,,7/8 Mostly Cloudy,12000.0,,SCT,2500.0,BKN,12000.0,BKN,25000.0,,
KRDR,09-11-2007,11:00,METAR,,340,13,24.0,,9999,,6.0,1.0,30.05,1018.2,,,,,,,,,,,,,,,4/8 Partly Cloudy,72000.0,,SCT,3200.0,,,,,,
KRDR,09-11-2007,10:00,METAR,,330,13,20.0,,9999,,6.0,1.0,30.03,1017.7,,,,,,,,,,,,,,,2/8 Mostly Clear,72000.0,,FEW,3500.0,,,,,,
KRDR,09-11-2007,09:00,METAR,,330,14,21.0,,9999,,7.0,2.0,30.00,1016.7,,,,,,,,,,,,,,,Clear,72000.0,,,73000.0,,,,,,
KRDR,09-11-2007,08:00,METAR,,330,13,21.0,330/28KTS,9999,,8.0,2.0,29.99,1016.3,,,,,,,,,,,,,,,2/8 Mostly Clear,72000.0,,FEW,4300.0,,,,,,
KRDR,09-11-2007,07:00,METAR,,340,14,27.0,330/27KTS,9999,,11.0,5.0,29.96,1015.4,,,,,,,,,,,,,,,2/8 Mostly Clear,72000.0,,FEW,4500.0,,,,,,
KRDR,09-11-2007,06:00,METAR,,330,13,22.0,,9999,,11.0,6.0,29.94,1014.6,,,,,,,,,,,,,TRACE,,2/8 Mostly Clear,72000.0,,FEW,5000.0,,,,,,
KRDR,09-11-2007,05:00,METAR,,320,6,,,9999,,11.0,7.0,29.92,1014.0,,,,,,,,,,,,,,,2/8 Mostly Clear,72000.0,,FEW,5900.0,,,,,,
KRDR,09-11-2007,04:00,METAR,,350,9,,,9999,,13.0,7.0,29.90,1013.5,,,,,,,,,,,,,,,7/8 Mostly Cloudy,8000.0,,SCT,3900.0,BKN,7900.0,,,,
KRDR,09-11-2007,03:00,METAR,,320,19,,,9999,,14.0,7.0,29.87,1012.4,,,,,,,,,,,,TRACE,,,2/8 Mostly Clear,72000.0,,FEW,7400.0,,,,,,
KRDR,09-11-2007,02:00,METAR,,310,11,19.0,,9999,,16.0,6.0,29.84,1011.6,,,,,,,,,,,,,,,2/8 Mostly Clear,72000.0,,FEW,9900.0,,,,,,
KRDR,09-11-2007,01:00,METAR,,290,12,,,9999,,15.0,10.0,29.82,1010.8,,,,,,,,,,,TRACE,,,,7/8 Mostly Cloudy,10000.0,,SCT,5900.0,BKN,9900.0,,,,
KRDR,09-11-2007,00:44,SPECI,,290,11,,,9999,,15.0,10.0,29.82,,,,,,,,,,,,,,,,8/8 Overcast,10000.0,,SCT,5900.0,OVC,9900.0,,,,
KRDR,09-11-2007,00:33,SPECI,,270,13,20.0,,9999,Rain,16.0,8.0,29.82,,,,,61,,,,,,,,,,,8/8 Overcast,9500.0,,FEW,5400.0,OVC,9400.0,,,,
KRDR,09-11-2007,00:00,METAR,,250,11,16.0,260/31KTS,9999,,17.0,7.0,29.82,1010.6,,,,,,,,,,,TRACE,,TRACE,,8/8 Overcast,10000.0,,FEW,5000.0,OVC,9900.0,,,,
KRDR,09-10-2007,23:21,SPECI,,260,9,18.0,,9999,,16.0,7.0,29.83,,,,,,,,,,,,,,,,7/8 Mostly Cloudy,8500.0,,FEW,6400.0,BKN,8400.0,,,,
KRDR,09-10-2007,23:00,METAR,,260,14,31.0,270/34KTS,9999,Light Rain Showers,16.0,7.0,29.84,1011.4,,,,80,,,,,,,,,,,7/8 Mostly Cloudy,7000.0,,FEW,3800.0,BKN,6900.0,,,,
KRDR,09-10-2007,22:54,SPECI,,260,22,34.0,,9999,Light Rain Showers,19.0,6.0,29.85,,,,,80,,,,,,,,,,,8/8 Overcast,7000.0,,OVC,6900.0,,,,,,
KRDR,09-10-2007,22:00,METAR,,240,17,25.0,240/27KTS,9999,,20.0,6.0,29.84,1011.4,,,,,,,,,,,,,,,7/8 Mostly Cloudy,12000.0,,SCT,8900.0,BKN,12000.0,,,,
KRDR,09-10-2007,21:00,METAR,,240,14,22.0,240/26KTS,9999,,19.0,6.0,29.88,1012.6,,,,,,,,,,,,,,,7/8 Mostly Cloudy,11000.0,,SCT,7900.0,BKN,11000.0,BKN,25000.0,,
KRDR,09-10-2007,20:00,METAR,,240,16,20.0,,9999,,20.0,6.0,29.92,1014.2,,,,,,,,,,,,,,,7/8 Mostly Cloudy,11000.0,,SCT,5900.0,BKN,11000.0,BKN,25000.0,,
KRDR,09-10-2007,19:00,METAR,,230,14,22.0,,9999,,20.0,7.0,29.97,1015.7,,,,,,,,,,,,,,,7/8 Mostly Cloudy,11000.0,,SCT,5000.0,BKN,11000.0,BKN,25000.0,,
KRDR,09-10-2007,18:00,METAR,,240,12,23.0,,9999,,20.0,7.0,30.00,1016.8,,,,,,,,,,,,,,,7/8 Mostly Cloudy,11000.0,,FEW,6900.0,BKN,11000.0,BKN,25000.0,,
KRDR,09-10-2007,17:00,METAR,,230,13,,,9999,,19.0,8.0,30.04,1018.1,,,,,,,,,,,,,,,7/8 Mostly Cloudy,25000.0,,SCT,9900.0,BKN,25000.0,,,,
KRDR,09-10-2007,16:00,METAR,,230,12,,,9999,,17.0,9.0,30.07,1019.1,,,,,,,,,,,,,,,7/8 Mostly Cloudy,12000.0,,BKN,12000.0,BKN,25000.0,,,,
KRDR,09-10-2007,15:00,METAR,,240,11,,,9999,,15.0,9.0,30.10,1019.9,,,,,,,,,,,,,,,7/8 Mostly Cloudy,12000.0,,BKN,12000.0,BKN,25000.0,,,,
KRDR,09-10-2007,14:00,METAR,,220,10,,,9999,,10.0,7.0,30.12,1020.6,,,,,,,,,,,,,,,7/8 Mostly Cloudy,11000.0,,BKN,11000.0,,,,,,
KRDR,09-10-2007,13:00,METAR,,220,8,,,9999,,9.0,7.0,30.13,1021.1,,,,,,,,,,,,,,,7/8 Mostly Cloudy,11000.0,,BKN,11000.0,,,,,,
KRDR,09-10-2007,12:00,METAR,,220,8,,,9999,,8.0,7.0,30.14,1021.5,,,,,,,,,,,,,,,8/8 Overcast,11000.0,,OVC,11000.0,,,,,,
KRDR,09-10-2007,11:00,METAR,,230,6,,,9999,,8.0,7.0,30.16,1021.8,,,,,,,,,,,,,,,Clear,72000.0,,,73000.0,,,,,,
KRDR,09-10-2007,10:00,METAR,,230,6,,,9999,,8.0,7.0,30.16,1022.1,,,,,,,,,,,,,,,Clear,72000.0,,,73000.0,,,,,,
KRDR,09-10-2007,09:00,METAR,,230,5,,,9999,,10.0,8.0,30.17,1022.3,,,,,,,,,,,,,,,8/8 Overcast,10000.0,,OVC,9900.0,,,,,,
KRDR,09-10-2007,08:00,METAR,,250,6,,,9999,,10.0,7.0,30.18,1022.8,,,,,,,,,,,,,,,Clear,72000.0,,,73000.0,,,,,,
KRDR,09-10-2007,07:00,METAR,,240,7,,,9999,,9.0,7.0,30.20,1023.3,,,,,,,,,,,,,,,7/8 Mostly Cloudy,12000.0,,BKN,12000.0,,,,,,
KRDR,09-10-2007,06:00,METAR,,230,6,,,9999,,10.0,7.0,30.21,1023.7,,,,,,,,,,,,,,,Clear,72000.0,,,73000.0,,,,,,
KRDR,09-10-2007,05:00,METAR,,220,7,,,9999,,11.0,8.0,30.22,1024.0,,,,,,,,,,,,,,,2/8 Mostly Clear,72000.0,,FEW,7900.0,,,,,,
KRDR,09-10-2007,04:00,METAR,,220,8,,,9999,,13.0,7.0,30.23,1024.4,,,,,,,,,,,,,,,8/8 Overcast,9000.0,,OVC,8900.0,,,,,,
KRDR,09-10-2007,03:00,METAR,,210,7,,,9999,,13.0,7.0,30.24,1024.6,,,,,,,,,,,,,,,Clear,72000.0,,,73000.0,,,,,,
KRDR,09-10-2007,02:00,METAR,,190,7,,,9999,,12.0,8.0,30.23,1024.4,,,,,,,,,,,,,,,Clear,72000.0,,,73000.0,,,,,,
KRDR,09-10-2007,01:00,METAR,,190,7,,,9999,,13.0,8.0,30.22,1024.0,,,,,,,,,,,,,,,Clear,72000.0,,,73000.0,,,,,,
KRDR,09-10-2007,00:00,METAR,,200,7,,,9999,,16.0,8.0,30.23,1024.2,,,,,,,,,,,,,,,Clear,72000.0,,,73000.0,,,,,,
KRDR,09-09-2007,23:00,METAR,,180,8,,,9999,,17.0,7.0,30.23,1024.3,,,,,,,,,,,,,,,2/8 Mostly Clear,72000.0,,FEW,4700.0,,,,,,
KRDR,09-09-2007,22:00,METAR,,200,4,,,9999,,17.0,7.0,30.24,1024.6,,,,,,,,,,,,,,,4/8 Partly Cloudy,72000.0,,FEW,4500.0,SCT,6900.0,,,,
KRDR,09-09-2007,21:00,METAR,,240,7,,,9999,,18.0,7.0,30.26,1025.3,,,,,,,,,,,,,,,Clear,72000.0,,,73000.0,,,,,,
KRDR,09-09-2007,20:00,METAR,,250,5,,,9999,,18.0,7.0,30.28,1026.0,,,,,,,,,,,,,,,2/8 Mostly Clear,72000.0,,FEW,4600.0,,,,,,
KRDR,09-09-2007,19:00,METAR,,,3,,,9999,,16.0,7.0,30.31,1026.8,,,,,,,,,,,,,,,7/8 Mostly Cloudy,5500.0,,FEW,3800.0,BKN,5400.0,,,,
KRDR,09-09-2007,18:00,METAR,,270,5,,,9999,,16.0,7.0,30.33,1027.6,,,,,,,,,,,,,,,7/8 Mostly Cloudy,4200.0,,BKN,4300.0,,,,,,
KRDR,09-09-2007,17:00,METAR,,,4,,,9999,,15.0,6.0,30.34,1028.1,,,,,,,,,,,,,,,4/8 Partly Cloudy,72000.0,,SCT,5000.0,SCT,15000.0,,,,
KRDR,09-09-2007,16:00,METAR,,230,6,,,9999,,15.0,5.0,30.35,1028.4,,,,,,,,,,,,,,,2/8 Mostly Clear,72000.0,,FEW,7900.0,FEW,15000.0,,,,
KRDR,09-09-2007,15:00,METAR,,210,4,,,9999,,13.0,8.0,30.35,1028.3,,,,,,,,,,,,,,,2/8 Mostly Clear,72000.0,,FEW,9900.0,FEW,25000.0,,,,
KRDR,09-09-2007,14:00,METAR,,200,2,,,9999,,8.0,7.0,30.35,1028.2,,,,,,,,,,,,,,,2/8 Mostly Clear,72000.0,,FEW,9900.0,,,,,,
KRDR,09-09-2007,13:00,METAR,,220,2,,,9999,,3.0,3.0,30.35,1028.2,,,,,,,,,,,,,,,2/8 Mostly Clear,72000.0,,FEW,9900.0,,,,,,
KRDR,09-09-2007,12:00,METAR,,,0,,,1600,Mist,3.0,2.0,30.34,1027.8,,,,10,,,,,,,,,,.28 IN,Clear,72000.0,,,73000.0,,,,,,
KRDR,09-09-2007,11:48,SPECI,,,0,,,2000,Mist,2.0,2.0,30.34,1027.8,,,,10,,,,,,,,,,,Clear,72000.0,,,73000.0,,,,,,
KRDR,09-09-2007,11:45,METAR,,,0,,,4000,Mist,2.0,2.0,30.33,1027.7,,,,10,,,,,,,,,,,Clear,72000.0,,,73000.0,,,,,,
KRDR,09-09-2007,11:28,SPECI,,,0,,,9999,,2.0,2.0,30.33,1027.6,,,,,,,,,,,,,,,Clear,72000.0,,,73000.0,,,,,,
KRDR,09-09-2007,11:00,METAR,,,0,,,8000,Mist,3.0,2.0,30.33,1027.5,,,,10,,,,,,,,,,,Clear,72000.0,,,73000.0,,,,,,
KRDR,09-09-2007,10:24,SPECI,,290,3,,,9999,,3.0,3.0,30.32,1027.4,,,,,,,,,,,,,,,Clear,72000.0,,,73000.0,,,,,,
KRDR,09-09-2007,10:14,SPECI,,280,3,,,9999,,2.0,2.0,30.32,1027.4,,,,,,,,,,,,,,,Clear,72000.0,,,73000.0,,,,,,
KRDR,09-09-2007,10:00,METAR,,280,4,,,9999,,2.0,2.0,30.32,1027.4,,,,,,,,,,,,,,,Clear,72000.0,,,73000.0,,,,,,
KRDR,09-09-2007,09:14,SPECI,,270,3,,,6400,Mist,3.0,3.0,30.32,1027.3,,,,10,,,,,,,,,,,Clear,72000.0,,,73000.0,,,,,,
KRDR,09-09-2007,09:00,METAR,,310,3,,,9999,,3.0,3.0,30.32,1027.3,,,,,,,,,,,,,,,Clear,72000.0,,,73000.0,,,,,,
KRDR,09-09-2007,08:45,METAR,,310,4,,,4800,Mist,3.0,3.0,30.32,1027.3,,,,10,,,,,,,,,,,Clear,72000.0,,,73000.0,,,,,,
KRDR,09-09-2007,08:43,SPECI,,310,3,,,3200,Mist,3.0,3.0,30.32,1027.3,,,,10,,,,,,,,,,,Clear,72000.0,,,73000.0,,,,,,
KRDR,09-09-2007,08:41,SPECI,,310,3,,,2400,Mist,3.0,2.0,30.32,1027.3,,,,10,,,,,,,,,,,Clear,72000.0,,,73000.0,,,,,,
KRDR,09-09-2007,08:38,SPECI,,310,3,,,1600,Mist,2.0,2.0,30.32,1027.4,,,,10,,,,,,,,,,,Clear,72000.0,,,73000.0,,,,,,
KRDR,09-09-2007,08:36,SPECI,,310,3,,,1600,Mist,2.0,2.0,30.32,1027.4,,,,10,,,,,,,,,,,Clear,72000.0,,,73000.0,,,,,,
KRDR,09-09-2007,08:34,SPECI,,310,3,,,2000,Mist,3.0,2.0,30.32,1027.4,,,,10,,,,,,,,,,,Clear,72000.0,,,73000.0,,,,,,
KRDR,09-09-2007,08:32,SPECI,,300,3,,,2800,Mist,3.0,2.0,30.32,1027.4,,,,10,,,,,,,,,,,Clear,72000.0,,,73000.0,,,,,,
KRDR,09-09-2007,08:00,METAR,,,0,,,9999,,4.0,3.0,30.32,1027.4,,,,,,,,,,,,,,,Clear,72000.0,,,73000.0,,,,,,
KRDR,09-09-2007,07:46,SPECI,,260,2,,,9999,,4.0,3.0,30.32,1027.4,,,,,,,,,,,,,,,Clear,72000.0,,,73000.0,,,,,,
KRDR,09-09-2007,07:34,SPECI,,260,3,,,9999,,4.0,3.0,30.32,1027.4,,,,,,,,,,,,,,,Clear,72000.0,,,73000.0,,,,,,
KRDR,09-09-2007,07:15,SPECI,,280,3,,,9999,,4.0,3.0,30.32,1027.3,,,,,,,,,,,,,,,Clear,72000.0,,,73000.0,,,,,,
KRDR,09-09-2007,07:00,METAR,,310,5,,,9999,,4.0,4.0,30.32,1027.2,,,,,,,,,,,,,,,Clear,72000.0,,,73000.0,,,,,,
KRDR,09-09-2007,06:46,SPECI,,310,4,,,9999,,4.0,3.0,30.32,1027.1,,,,,,,,,,,,,,,Clear,72000.0,,,73000.0,,,,,,
KRDR,09-09-2007,06:02,SPECI,,290,6,,,9999,,5.0,5.0,30.32,1027.1,,,,,,,,,,,,,,,Clear,72000.0,,,73000.0,,,,,,
KRDR,09-09-2007,06:00,METAR,,300,6,,,9999,,5.0,4.0,30.31,1027.1,,,,,,,,,,,,,,,Clear,72000.0,,,73000.0,,,,,,
KRDR,09-09-2007,05:49,SPECI,,300,5,,,9999,,4.0,4.0,30.31,1027.0,,,,,,,,,,,,,,,Clear,72000.0,,,73000.0,,,,,,
KRDR,09-09-2007,05:47,SPECI,,300,5,,,6400,Mist,4.0,4.0,30.31,1027.0,,,,10,,,,,,,,,,,Clear,72000.0,,,73000.0,,,,,,
KRDR,09-09-2007,05:45,METAR,,300,5,,,3200,Mist,4.0,4.0,30.31,1027.0,,,,10,,,,,,,,,,,Clear,72000.0,,,73000.0,,,,,,
KRDR,09-09-2007,05:39,SPECI,,290,4,,,2800,Mist,4.0,4.0,30.31,1027.0,,,,10,,,,,,,,,,,Clear,72000.0,,,73000.0,,,,,,
KRDR,09-09-2007,05:36,SPECI,,290,3,,,4000,Mist,4.0,4.0,30.31,1027.0,,,,10,,,,,,,,,,,Clear,72000.0,,,73000.0,,,,,,
KRDR,09-09-2007,05:06,SPECI,,280,3,,,9999,,5.0,4.0,30.31,1027.0,,,,,,,,,,,,,,,Clear,72000.0,,,73000.0,,,,,,
KRDR,09-09-2007,05:00,METAR,,300,5,,,9999,,5.0,5.0,30.31,1026.9,,,,,,,,,,,,,,,Clear,72000.0,,,73000.0,,,,,,
KRDR,09-09-2007,04:17,SPECI,,300,4,,,6400,Mist,5.0,4.0,30.30,1026.7,,,,10,,,,,,,,,,,Clear,72000.0,,,73000.0,,,,,,
KRDR,09-09-2007,04:15,SPECI,,300,3,,,3200,Mist,5.0,5.0,30.30,1026.7,,,,10,,,,,,,,,,,Clear,72000.0,,,73000.0,,,,,,
KRDR,09-09-2007,04:13,SPECI,,300,3,,,2400,Mist,5.0,5.0,30.30,1026.7,,,,10,,,,,,,,,,,Clear,72000.0,,,73000.0,,,,,,
KRDR,09-09-2007,04:11,SPECI,,300,4,,,1600,Mist,5.0,5.0,30.30,1026.7,,,,10,,,,,,,,,,,Clear,72000.0,,,73000.0,,,,,,
KRDR,09-09-2007,04:07,SPECI,,300,3,,,1200,Mist,4.0,4.0,30.30,1026.7,,,,10,,,,,,,,,,,Clear,72000.0,,,73000.0,,,,,,
KRDR,09-09-2007,04:00,METAR,,,0,,,800,Fog or Ice Fog,4.0,4.0,30.29,1026.4,,,,44,,,,,,,,,,,Clear,72000.0,,,73000.0,,,,,,
KRDR,09-09-2007,03:40,SPECI,,,0,,,800,Fog or Ice Fog,5.0,5.0,30.29,1026.3,,,,44,,,,,,,,,,,Clear,72000.0,,,73000.0,,,,,,
KRDR,09-09-2007,03:24,SPECI,,,0,,,1200,Mist,5.0,5.0,30.29,1026.3,,,,10,,,,,,,,,,,Clear,72000.0,,,73000.0,,,,,,
KRDR,09-09-2007,03:22,SPECI,,,0,,,1600,Mist,6.0,5.0,30.29,1026.2,,,,10,,,,,,,,,,,Clear,72000.0,,,73000.0,,,,,,
KRDR,09-09-2007,03:20,METAR,,,0,,,2000,Mist,6.0,6.0,30.29,1026.2,,,,10,,,,,,,,,,,Clear,72000.0,,,73000.0,,,,,,
KRDR,09-09-2007,03:18,SPECI,,,0,,,2800,Mist,6.0,6.0,30.29,1026.3,,,,10,,,,,,,,,,,Clear,72000.0,,,73000.0,,,,,,
KRDR,09-09-2007,03:14,SPECI,,,0,,,3200,Mist,7.0,6.0,30.29,1026.3,,,,10,,,,,,,,,,,Clear,72000.0,,,73000.0,,,,,,
KRDR,09-09-2007,03:08,SPECI,,,0,,,4000,Mist,7.0,6.0,30.29,1026.2,,,,10,,,,,,,,,,,Clear,72000.0,,,73000.0,,,,,,
KRDR,09-09-2007,03:00,METAR,,,0,,,9999,,6.0,6.0,30.29,1026.3,,,,,,,,,,,,,,,Clear,72000.0,,,73000.0,,,,,,
KRDR,09-09-2007,02:00,METAR,,320,4,,,9999,,8.0,7.0,30.27,1025.7,,,,,,,,,,,,,,,Clear,72000.0,,,73000.0,,,,,,
KRDR,09-09-2007,01:00,METAR,,340,4,,,9999,,10.0,9.0,30.26,1025.2,,,,,,,,,,,,,,,Clear,72000.0,,,73000.0,,,,,,
KRDR,09-09-2007,00:00,METAR,,340,6,,,9999,,11.0,9.0,30.25,1024.9,,,,,,,,,,,TRACE,,.07 IN,,7/8 Mostly Cloudy,10000.0,,BKN,9900.0,,,,,,
KRDR,09-08-2007,23:23,SPECI,,340,6,,,9999,,11.0,10.0,30.25,1024.8,,,,,,,,,,,,,,,2/8 Mostly Clear,72000.0,,FEW,1000.0,,,,,,
KRDR,09-08-2007,23:10,SPECI,,350,6,,,9999,Rain,11.0,10.0,30.24,1024.7,,,,61,,,,,,,,,,,2/8 Mostly Clear,72000.0,,FEW,800.0,,,,,,
KRDR,09-08-2007,23:00,METAR,,350,7,,,9999,Rain,11.0,9.0,30.24,1024.5,,,,61,,,,,,,.01 IN,,,,2/8 Mostly Clear,72000.0,,FEW,800.0,,,,,,
KRDR,09-08-2007,22:48,SPECI,,350,7,,,9999,Rain,11.0,9.0,30.24,1024.5,,,,61,,,,,,,,,,,2/8 Mostly Clear,72000.0,,FEW,800.0,,,,,,
KRDR,09-08-2007,22:06,SPECI,,360,6,,,9999,Rain,11.0,10.0,30.23,1024.2,,,,61,,,,,,,,,,,4/8 Partly Cloudy,72000.0,,FEW,500.0,SCT,2600.0,,,,
KRDR,09-08-2007,22:00,METAR,,360,8,,,9999,Rain,11.0,10.0,30.22,1024.1,,,,61,,,,,,,.01 IN,,,,4/8 Partly Cloudy,72000.0,,FEW,600.0,SCT,1800.0,,,,
KRDR,09-08-2007,21:39,SPECI,,350,7,,,9999,Rain,11.0,10.0,30.23,1024.2,,,,61,,,,,,,,,,,7/8 Mostly Cloudy,1900.0,,FEW,700.0,SCT,1500.0,BKN,2400.0,,
KRDR,09-08-2007,21:37,SPECI,,360,6,,,9999,Rain,11.0,10.0,30.23,1024.3,,,,61,,,,,,,,,,,4/8 Partly Cloudy,72000.0,,FEW,700.0,SCT,2400.0,,,,
KRDR,09-08-2007,21:32,SPECI,,360,7,,,9999,Rain,11.0,10.0,30.23,1024.3,,,,61,,,,,,,,,,,4/8 Partly Cloudy,72000.0,,FEW,700.0,SCT,1900.0,,,,
KRDR,09-08-2007,21:23,SPECI,,10,7,,,9999,Rain,11.0,10.0,30.22,1024.1,,,,61,,,,,,,,,,,4/8 Partly Cloudy,72000.0,,FEW,700.0,SCT,1800.0,,,,
KRDR,09-08-2007,21:13,SPECI,,360,8,,,9999,Rain,11.0,10.0,30.22,1023.9,,,,61,,,,,,,,,,,4/8 Partly Cloudy,72000.0,,FEW,600.0,SCT,1500.0,,,,
KRDR,09-08-2007,21:00,METAR,,350,5,,,9999,Rain,11.0,10.0,30.22,1024.0,,,,61,,,,,,,.01 IN,.05 IN,,,4/8 Partly Cloudy,72000.0,,FEW,500.0,SCT,900.0,SCT,1700.0,,
KRDR,09-08-2007,20:15,SPECI,,350,6,,,9999,Rain,11.0,10.0,30.22,1023.9,,,,61,,,,,,,,,,,2/8 Mostly Clear,72000.0,,FEW,600.0,,,,,,
KRDR,09-08-2007,20:00,METAR,,360,7,,,9999,Rain,11.0,10.0,30.21,1023.8,,,,61,,,,,,,.02 IN,,,,2/8 Mostly Clear,72000.0,,FEW,4400.0,,,,,,
KRDR,09-08-2007,19:32,SPECI,,10,7,,,9999,Rain,11.0,10.0,30.21,1023.6,,,,61,,,,,,,,,,,4/8 Partly Cloudy,72000.0,,SCT,500.0,SCT,1200.0,,,,
KRDR,09-08-2007,19:29,SPECI,,10,8,,,9999,Rain,11.0,10.0,30.21,1023.7,,,,61,,,,,,,,,,,7/8 Mostly Cloudy,2700.0,,SCT,500.0,SCT,1200.0,BKN,2700.0,,
KRDR,09-08-2007,19:23,SPECI,,10,7,,,9999,Rain,11.0,10.0,30.21,1023.8,,,,61,,,,,,,,,,,7/8 Mostly Cloudy,1000.0,,SCT,500.0,BKN,1000.0,BKN,2700.0,,
KRDR,09-08-2007,19:05,SPECI,,360,6,,,9999,Drizzle,11.0,10.0,30.22,1023.8,,,,51,,,,,,,,,,,8/8 Overcast,200.0,,OVC,1400.0,,,,,,
KRDR,09-08-2007,19:01,SPECI,,360,6,,,9999,Rain,11.0,10.0,30.21,1023.8,,,,61,,,,,,,,,,,8/8 Overcast,400.0,,BKN,400.0,BKN,900.0,OVC,2600.0,,
KRDR,09-08-2007,19:00,METAR,,10,6,,,9999,Rain,11.0,10.0,30.21,1023.5,,,,61,,,,,,,.02 IN,,,,8/8 Overcast,200.0,,OVC,700.0,,,,,,
KRDR,09-08-2007,18:50,METAR,,10,8,,,9999,Rain,11.0,10.0,30.20,1023.4,,,,61,,,,,,,,,,,8/8 Overcast,100.0,,OVC,700.0,,,,,,
KRDR,09-08-2007,18:48,SPECI,,10,8,,,9999,Rain,11.0,10.0,30.20,1023.4,,,,61,,,,,,,,,,,8/8 Overcast,300.0,,OVC,300.0,,,,,,
KRDR,09-08-2007,18:43,SPECI,,10,7,,,9999,Rain,11.0,10.0,30.20,1023.4,,,,61,,,,,,,,,,,8/8 Overcast,100.0,,OVC,400.0,,,,,,
KRDR,09-08-2007,18:37,SPECI,,10,6,,,9999,Rain,11.0,10.0,30.20,1023.4,,,,61,,,,,,,,,,,8/8 Overcast,100.0,,OVC,300.0,,,,,,
KRDR,09-08-2007,18:27,SPECI,,360,5,,,9999,Rain,11.0,10.0,30.20,1023.3,,,,61,,,,,,,,,,,8/8 Overcast,100.0,,OVC,400.0,,,,,,
KRDR,09-08-2007,18:08,SPECI,,20,5,,,9999,Rain,11.0,10.0,30.21,1023.5,,,,61,,,,,,,,,,,8/8 Overcast,100.0,,OVC,500.0,,,,,,
KRDR,09-08-2007,18:03,SPECI,,10,4,,,9999,Rain,11.0,10.0,30.20,1023.4,,,,61,,,,,,,,,,,8/8 Overcast,100.0,,OVC,300.0,,,,,,
KRDR,09-08-2007,18:00,METAR,,10,4,,,9999,Rain,11.0,10.0,30.21,1023.5,,,,61,,,,,,,.03 IN,,.21 IN,,8/8 Overcast,1800.0,,SCT,600.0,OVC,1800.0,,,,
KRDR,09-08-2007,17:00,METAR,,360,5,,,8000,Rain,10.0,9.0,30.20,1023.2,,,,61,,,,,,,.06 IN,,,,8/8 Overcast,1800.0,,SCT,100.0,OVC,1800.0,,,,
KRDR,09-08-2007,16:00,METAR,,20,4,,,9999,Rain,10.0,9.0,30.19,1022.9,,,,61,,,,,,,.04 IN,,,,8/8 Overcast,2700.0,,SCT,200.0,SCT,2500.0,OVC,2700.0,,
KRDR,09-08-2007,15:39,SPECI,,20,4,,,9999,Rain,10.0,9.0,30.19,,,,,61,,,,,,,,,,,8/8 Overcast,2700.0,,FEW,200.0,SCT,2400.0,OVC,2700.0,,
KRDR,09-08-2007,15:00,METAR,,,0,,,9999,Rain,10.0,8.0,30.18,1022.6,,,,61,,,,,,,.03 IN,.08 IN,,,7/8 Mostly Cloudy,4900.0,,BKN,5000.0,,,,,,
KRDR,09-08-2007,14:00,METAR,,310,2,,,9999,Rain,10.0,8.0,30.17,1022.5,,,,61,,,,,,,.01 IN,,,,8/8 Overcast,4900.0,,OVC,5000.0,,,,,,
KRDR,09-08-2007,13:00,METAR,,,0,,,9999,Rain,9.0,8.0,30.16,1022.1,,,,61,,,,,,,.04 IN,,,,8/8 Overcast,5500.0,,OVC,5400.0,,,,,,
KRDR,09-08-2007,12:00,METAR,,330,5,,,9999,Light Rain,9.0,7.0,30.15,1021.6,61,,,,,,,,,,TRACE,,TRACE,,8/8 Overcast,4400.0,,OVC,4500.0,,,,,,
KRDR,09-08-2007,11:00,METAR,,,0,,,9999,,9.0,7.0,30.13,1021.0,,,,,,,,,,,,,,,4/8 Partly Cloudy,72000.0,,SCT,5900.0,,,,,,
KRDR,09-08-2007,10:00,METAR,,340,5,,,9999,,8.0,7.0,30.10,1020.0,,,,,,,,,,,,,,,8/8 Overcast,9500.0,,OVC,9400.0,,,,,,
KRDR,09-08-2007,09:00,METAR,,350,2,,,9999,,7.0,6.0,30.06,1018.6,,,,,,,,,,,,,,,7/8 Mostly Cloudy,10000.0,,BKN,9900.0,,,,,,
KRDR,09-08-2007,08:00,METAR,,,0,,,9999,,6.0,4.0,30.06,1018.7,,,,,,,,,,,,,,,Clear,72000.0,,,73000.0,,,,,,
KRDR,09-08-2007,07:00,METAR,,,0,,,9999,,7.0,5.0,30.06,1018.6,,,,,,,,,,,,,,,Clear,72000.0,,,73000.0,,,,,,
KRDR,09-08-2007,06:00,METAR,,350,3,,,9999,,8.0,5.0,30.05,1018.4,,,,,,,,,,,,,,,Clear,72000.0,,,73000.0,,,,,,
KRDR,09-08-2007,05:00,METAR,,300,4,,,9999,,8.0,5.0,30.05,1018.4,,,,,,,,,,,,,,,Clear,72000.0,,,73000.0,,,,,,
KRDR,09-08-2007,04:00,METAR,,300,5,,,9999,,8.0,6.0,30.03,1017.8,,,,,,,,,,,,,,,Clear,72000.0,,,73000.0,,,,,,
KRDR,09-08-2007,03:00,METAR,,320,4,,,9999,,10.0,6.0,30.02,1017.5,,,,,,,,,,,,,,,2/8 Mostly Clear,72000.0,,FEW,5900.0,,,,,,
KRDR,09-08-2007,02:00,METAR,,320,5,,,9999,,14.0,6.0,30.01,1017.0,,,,,,,,,,,,,,,2/8 Mostly Clear,72000.0,,FEW,5900.0,FEW,25000.0,,,,
KRDR,09-08-2007,01:00,METAR,,310,6,,,9999,,16.0,7.0,29.98,1016.2,,,,,,,,,,,,,,,4/8 Partly Cloudy,72000.0,,FEW,5900.0,SCT,25000.0,,,,
KRDR,09-08-2007,00:00,METAR,,320,10,,,9999,,19.0,6.0,29.96,1015.5,,,,,,,,,,,,,,,4/8 Partly Cloudy,72000.0,,FEW,5000.0,SCT,25000.0,,,,
KRDR,09-07-2007,23:00,METAR,,330,14,19.0,,9999,,20.0,5.0,29.95,1014.9,,,,,,,,,,,,,,,4/8 Partly Cloudy,72000.0,,FEW,5000.0,SCT,25000.0,,,,
KRDR,09-07-2007,22:00,METAR,,330,16,22.0,,9999,,20.0,7.0,29.93,1014.5,,,,,,,,,,,,,,,4/8 Partly Cloudy,72000.0,,FEW,5000.0,SCT,25000.0,,,,
KRDR,09-07-2007,21:00,METAR,,300,14,23.0,,9999,,20.0,9.0,29.92,1014.2,,,,,,,,,,,,,,,4/8 Partly Cloudy,72000.0,,SCT,4500.0,SCT,25000.0,,,,
KRDR,09-07-2007,20:00,METAR,,310,14,27.0,320/27KTS,9999,,20.0,10.0,29.92,1014.2,,,,,,,,,,,,,,,7/8 Mostly Cloudy,3900.0,,BKN,4000.0,,,,,,
KRDR,09-07-2007,19:00,METAR,,310,17,27.0,300/27KTS,9999,,19.0,10.0,29.91,1013.7,,,,,,,,,,,,,,,7/8 Mostly Cloudy,3600.0,,BKN,3700.0,,,,,,
KRDR,09-07-2007,18:00,METAR,,320,18,24.0,,9999,,18.0,10.0,29.90,1013.6,,,,,,,,,,,,,,,7/8 Mostly Cloudy,3100.0,,BKN,3200.0,,,,,,
KRDR,09-07-2007,17:00,METAR,,300,16,26.0,300/26KTS,9999,,17.0,10.0,29.88,1012.8,,,,,,,,,,,,,,,7/8 Mostly Cloudy,2900.0,,BKN,2900.0,,,,,,
KRDR,09-07-2007,16:00,METAR,,320,17,23.0,,9999,,17.0,11.0,29.87,1012.4,,,,,,,,,,,,,,,7/8 Mostly Cloudy,1900.0,,BKN,2600.0,BKN,4000.0,,,,
KRDR,09-07-2007,15:00,METAR,,300,15,25.0,,9999,,16.0,12.0,29.84,1011.6,,,,,,,,,,,,,,,7/8 Mostly Cloudy,2200.0,,BKN,2200.0,BKN,9900.0,,,,
KRDR,09-07-2007,14:34,SPECI,,310,16,,,9999,,16.0,12.0,29.83,,,,,,,,,,,,,,,,7/8 Mostly Cloudy,2200.0,,BKN,2200.0,BKN,9900.0,,,,
KRDR,09-07-2007,14:00,METAR,,300,12,16.0,,9999,,16.0,12.0,29.82,1010.8,,,,,,,,,,,,,,,7/8 Mostly Cloudy,6500.0,,SCT,2000.0,BKN,6400.0,BKN,9900.0,,
KRDR,09-07-2007,13:00,METAR,,290,10,,,9999,,16.0,12.0,29.82,1010.7,,,,,,,,,,,,,,,7/8 Mostly Cloudy,10000.0,,FEW,2000.0,SCT,7400.0,BKN,9900.0,,
KRDR,09-07-2007,12:00,METAR,,310,7,,,9999,,16.0,11.0,29.80,1010.2,,,,,,,,,,,,,,,7/8 Mostly Cloudy,7000.0,,BKN,6900.0,,,,,,
KRDR,09-07-2007,11:00,METAR,,300,5,,,9999,,15.0,11.0,29.80,1010.0,,,,,,,,,,,,,,,8/8 Overcast,8000.0,,OVC,7900.0,,,,,,
KRDR,09-07-2007,10:00,METAR,,290,6,,,9999,,14.0,11.0,29.79,1009.8,,,,,,,,,,,,,,,7/8 Mostly Cloudy,9000.0,,BKN,8900.0,,,,,,
KRDR,09-07-2007,09:00,METAR,,300,7,,,9999,,15.0,11.0,29.78,1009.5,,,,,,,,,,,,,,,7/8 Mostly Cloudy,9000.0,,BKN,8900.0,,,,,,
KRDR,09-07-2007,08:00,METAR,,290,5,,,9999,,15.0,12.0,29.77,1009.2,,,,,,,,,,,,,,,8/8 Overcast,9000.0,,OVC,8900.0,,,,,,
KRDR,09-07-2007,07:00,METAR,,310,5,,,9999,,15.0,12.0,29.76,1008.8,,,,,,,,,,,,,,,4/8 Partly Cloudy,72000.0,,SCT,11000.0,,,,,,
KRDR,09-07-2007,06:00,METAR,,300,5,,,9999,,15.0,13.0,29.77,1009.1,,,,,,,,,,,,,,,8/8 Overcast,11000.0,,OVC,11000.0,,,,,,
KRDR,09-07-2007,05:00,METAR,,330,4,,,9999,,15.0,13.0,29.76,1009.0,,,,,,,,,,,,,,,Clear,72000.0,,,73000.0,,,,,,
KRDR,09-07-2007,04:00,METAR,,330,5,,,9999,,15.0,13.0,29.77,1009.3,,,,,,,,,,,,,,,8/8 Overcast,12000.0,,OVC,12000.0,,,,,,
KRDR,09-07-2007,03:00,METAR,,330,5,,,9999,,15.0,14.0,29.77,1009.2,,,,,,,,,,,,,,,7/8 Mostly Cloudy,15000.0,,FEW,12000.0,BKN,15000.0,,,,
KRDR,09-07-2007,02:00,METAR,,360,4,,,9999,,16.0,14.0,29.77,1009.2,,,,,,,,,,,,,,,7/8 Mostly Cloudy,15000.0,,SCT,11000.0,BKN,15000.0,,,,
KRDR,09-07-2007,01:00,METAR,,30,5,,,9999,,19.0,14.0,29.76,1008.8,,,,,,,,,,,,,,,7/8 Mostly Cloudy,11000.0,,BKN,11000.0,BKN,15000.0,,,,
KRDR,09-07-2007,00:00,METAR,,360,5,,,9999,,19.0,14.0,29.75,1008.4,,,,,,,,,,,,,TRACE,,7/8 Mostly Cloudy,11000.0,,BKN,11000.0,,,,,,
KRDR,09-06-2007,23:00,METAR,,360,6,,,9999,,19.0,14.0,29.74,1008.2,,,,,,,,,,,,,,,8/8 Overcast,12000.0,,BKN,12000.0,OVC,25000.0,,,,
KRDR,09-06-2007,22:00,METAR,,350,6,,,9999,,19.0,15.0,29.75,1008.4,,,,,,,,,,,TRACE,,,,8/8 Overcast,12000.0,,BKN,12000.0,OVC,25000.0,,,,
KRDR,09-06-2007,21:15,SPECI,,350,6,,,9999,,20.0,14.0,29.76,,,,,,,,,,,,,,,,8/8 Overcast,12000.0,,BKN,12000.0,OVC,25000.0,,,,
KRDR,09-06-2007,21:06,SPECI,,350,5,,,9999,Light Rain Showers,20.0,14.0,29.76,,,,,80,,,,,,,,,,,8/8 Overcast,12000.0,,BKN,12000.0,OVC,25000.0,,,,
KRDR,09-06-2007,21:00,METAR,,350,5,,,9999,,19.0,14.0,29.75,1008.6,,,,,,,,,,,,TRACE,,,8/8 Overcast,12000.0,,BKN,12000.0,OVC,25000.0,,,,
KRDR,09-06-2007,20:00,METAR,,20,7,,,9999,,20.0,14.0,29.74,1008.2,,,,,,,,,,,TRACE,,,,8/8 Overcast,12000.0,,BKN,12000.0,OVC,25000.0,,,,
KRDR,09-06-2007,19:19,SPECI,,10,6,,,9999,,20.0,14.0,29.74,,,,,,,,,,,,,,,,8/8 Overcast,12000.0,,BKN,12000.0,OVC,25000.0,,,,
KRDR,09-06-2007,19:06,SPECI,,360,7,,,9999,Light Rain Showers,20.0,14.0,29.74,,,,,80,,,,,,,,,,,8/8 Overcast,12000.0,,BKN,12000.0,OVC,25000.0,,,,
KRDR,09-06-2007,19:00,METAR,,360,6,,,9999,,19.0,14.0,29.75,1008.6,,,,,,,,,,,,,,,8/8 Overcast,11000.0,,BKN,11000.0,OVC,25000.0,,,,
KRDR,09-06-2007,18:00,METAR,,350,7,,,9999,,20.0,14.0,29.76,1008.9,,,,,,,,,,,,,,,8/8 Overcast,15000.0,,FEW,7900.0,BKN,15000.0,OVC,25000.0,,
KRDR,09-06-2007,17:00,METAR,,20,8,,,9999,,19.0,14.0,29.77,1009.2,,,,,,,,,,,,,,,8/8 Overcast,15000.0,,BKN,15000.0,OVC,25000.0,,,,
KRDR,09-06-2007,16:00,METAR,,340,4,,,9999,,18.0,13.0,29.79,1009.7,,,,,,,,,,,,,,,7/8 Mostly Cloudy,25000.0,,SCT,15000.0,BKN,25000.0,,,,
KRDR,09-06-2007,15:00,METAR,,20,5,,,9999,,15.0,12.0,29.78,1009.5,,,,,,,,,,,,,,,7/8 Mostly Cloudy,25000.0,,SCT,15000.0,BKN,25000.0,,,,
KRDR,09-06-2007,14:00,METAR,,10,8,,,9999,,14.0,11.0,29.77,1009.0,,,,,,,,,,,,,,,7/8 Mostly Cloudy,25000.0,,SCT,15000.0,BKN,25000.0,,,,
KRDR,09-06-2007,13:00,METAR,,340,5,,,9999,,13.0,11.0,29.77,1009.1,,,,,,,,,,,,,,,4/8 Partly Cloudy,72000.0,,FEW,11000.0,SCT,25000.0,,,,
KRDR,09-06-2007,12:00,METAR,,350,6,,,9999,,12.0,10.0,29.76,1008.8,,,,,,,,,,,,,,.31 IN,4/8 Partly Cloudy,72000.0,,FEW,11000.0,SCT,25000.0,,,,
KRDR,09-06-2007,11:00,METAR,,340,7,,,9999,,14.0,12.0,29.75,1008.4,,,,,,,,,,,,,,,4/8 Partly Cloudy,72000.0,,SCT,12000.0,,,,,,
KRDR,09-06-2007,10:00,METAR,,330,4,,,9999,,13.0,12.0,29.74,1008.2,,,,,,,,,,,,,,,Clear,72000.0,,,73000.0,,,,,,
KRDR,09-06-2007,09:00,METAR,,330,4,,,9999,,15.0,12.0,29.74,1008.2,,,,,,,,,,,,,,,7/8 Mostly Cloudy,11000.0,,BKN,11000.0,,,,,,
KRDR,09-06-2007,08:00,METAR,,330,5,,,9999,,15.0,13.0,29.74,1008.0,,,,,,,,,,,,,,,Clear,72000.0,,,73000.0,,,,,,
KRDR,09-06-2007,07:00,METAR,,280,4,,,9999,,15.0,14.0,29.75,1008.5,,,,,,,,,,,,,,,4/8 Partly Cloudy,72000.0,,SCT,11000.0,,,,,,
KRDR,09-06-2007,05:13,SPECI,,90,3,,,9999,,16.0,13.0,29.75,,,,,,,,,,,,,,,,7/8 Mostly Cloudy,9000.0,,BKN,8900.0,,,,,,
KRDR,09-06-2007,05:00,METAR,,50,5,,,9999,Thunderstorm with Rain or Snow/Light Rain Showers,16.0,14.0,29.74,1008.1,,,,95,80,,,,,,.08 IN,,,,8/8 Overcast,6500.0,,FEW,4500.0,OVC,6400.0,,,,
KRDR,09-06-2007,04:39,SPECI,,30,8,,,9999,Thunderstorm,16.0,13.0,29.74,,,,,17,,,,,,,,,,,8/8 Overcast,6500.0,,FEW,4500.0,OVC,6400.0,,,,
KRDR,09-06-2007,04:26,SPECI,,40,11,,,9999,Thunderstorm with Rain or Snow/Light Rain Showers,16.0,13.0,29.75,,,,,95,80,,,,,,,,,,8/8 Overcast,6500.0,,FEW,4800.0,OVC,6400.0,,,,
KRDR,09-06-2007,04:20,METAR,,30,8,,,6400,Thunderstorm with Rain or Snow/Rain Showers,16.0,13.0,29.76,,,,,95,81,,,,,,,,,,4/8 Partly Cloudy,72000.0,,FEW,4800.0,SCT,8400.0,,,,
KRDR,09-06-2007,04:13,SPECI,,360,8,,,9999,Light Rain Showers,16.0,13.0,29.75,,,,,80,,,,,,,,,,,7/8 Mostly Cloudy,8500.0,,FEW,1800.0,SCT,6400.0,BKN,8400.0,,
KRDR,09-06-2007,04:00,METAR,,20,9,,,9999,Thunderstorm with Rain or Snow/Light Rain Showers,16.0,12.0,29.74,1008.1,,,,95,80,,,,,,.23 IN,,,,8/8 Overcast,6000.0,,FEW,700.0,BKN,5900.0,OVC,11000.0,,
KRDR,09-06-2007,03:37,SPECI,,,5,,,9999,Thunderstorm with Rain or Snow/Light Rain Showers,16.0,13.0,29.73,,,,,95,80,,,,,,,,,,8/8 Overcast,5500.0,,FEW,2300.0,OVC,5400.0,,,,
KRDR,09-06-2007,03:29,SPECI,,360,8,,,9999,Heavy Thunderstorm with Rain or Snow/Heavy Rain Showers,17.0,13.0,29.73,,,,,97,82,,,,,,,,,,8/8 Overcast,5500.0,,FEW,500.0,OVC,5400.0,,,,
KRDR,09-06-2007,03:10,SPECI,,360,11,,,9999,Thunderstorm with Rain or Snow/Light Rain Showers,19.0,13.0,29.72,,,,,95,80,,,,,,,,,,8/8 Overcast,5500.0,,FEW,2300.0,OVC,5400.0,,,,
KRDR,09-06-2007,03:00,METAR,,20,12,,,9999,Thunderstorm,20.0,13.0,29.71,1007.1,,,,17,,,,,,,,,,,8/8 Overcast,5500.0,,OVC,5400.0,,,,,,
KRDR,09-06-2007,02:29,SPECI,,20,10,,,9999,Thunderstorm,20.0,13.0,29.71,,,,,17,,,,,,,,,,,8/8 Overcast,6000.0,,BKN,5900.0,OVC,12000.0,,,,
KRDR,09-06-2007,02:00,METAR,,10,11,,,9999,,21.0,13.0,29.70,1006.8,,,,,,,,,,,TRACE,,,,7/8 Mostly Cloudy,7000.0,,BKN,6900.0,BKN,12000.0,,,,
KRDR,09-06-2007,01:00,METAR,,20,8,,,9999,,22.0,14.0,29.67,1006.0,,,,,,,,,,,,,,,7/8 Mostly Cloudy,8000.0,,BKN,7900.0,BKN,12000.0,,,,
KRDR,09-06-2007,00:00,METAR,,10,19,27.0,010/27KTS,9999,,24.0,16.0,29.66,1005.4,,,,,,,,,,,,,,,8/8 Overcast,7500.0,,BKN,7400.0,BKN,12000.0,OVC,25000.0,,
KRDR,09-05-2007,23:00,METAR,,10,16,26.0,350/26KTS,9999,,26.0,18.0,29.64,1004.8,,,,,,,,,,,,,,,7/8 Mostly Cloudy,12000.0,,FEW,6900.0,BKN,12000.0,BKN,25000.0,,
KRDR,09-05-2007,22:00,METAR,,10,16,,,9999,,28.0,19.0,29.61,1003.7,,,,,,,,,,,,,,,7/8 Mostly Cloudy,12000.0,,FEW,6900.0,BKN,12000.0,BKN,25000.0,,
KRDR,09-05-2007,21:00,METAR,,,3,,,9999,,31.0,19.0,29.60,1003.4,,,,,,,,,,,,,,,7/8 Mostly Cloudy,25000.0,,FEW,6900.0,SCT,12000.0,BKN,25000.0,,
KRDR,09-05-2007,20:00,METAR,,240,7,,,9999,,32.0,19.0,29.61,1003.7,,,,,,,,,,,,,,,7/8 Mostly Cloudy,25000.0,,FEW,5900.0,SCT,12000.0,BKN,25000.0,,
KRDR,09-05-2007,18:00,METAR,,180,10,,,9999,,29.0,19.0,29.60,1003.6,,,,,,,,,,,,,,,4/8 Partly Cloudy,72000.0,,FEW,12000.0,SCT,25000.0,,,,
KRDR,09-05-2007,17:00,METAR,,210,9,,,9999,,28.0,18.0,29.62,1004.3,,,,,,,,,,,,,,,4/8 Partly Cloudy,72000.0,,FEW,12000.0,SCT,25000.0,,,,
KRDR,09-05-2007,16:00,METAR,,190,11,,,9999,,25.0,18.0,29.62,1004.2,,,,,,,,,,,,,,,4/8 Partly Cloudy,72000.0,,FEW,12000.0,SCT,25000.0,,,,
KRDR,09-05-2007,14:00,METAR,,180,10,,,9999,,21.0,17.0,29.62,1004.1,,,,,,,,,,,,,,,4/8 Partly Cloudy,72000.0,,SCT,25000.0,,,,,,
KRDR,09-05-2007,13:00,METAR,,180,11,,,9999,,19.0,17.0,29.62,1004.2,,,,,,,,,,,,,,,4/8 Partly Cloudy,72000.0,,SCT,25000.0,,,,,,
KRDR,09-05-2007,12:00,METAR,,180,9,,,9999,,18.0,16.0,29.62,1004.3,,,,,,,,,,,,,,,2/8 Mostly Clear,72000.0,,FEW,25000.0,,,,,,
KRDR,09-05-2007,11:00,METAR,,170,7,,,9999,,18.0,17.0,29.62,1004.2,,,,,,,,,,,,,,,2/8 Mostly Clear,72000.0,,FEW,25000.0,,,,,,
KRDR,09-05-2007,10:00,METAR,,160,7,,,9999,,16.0,16.0,29.62,1004.3,,,,,,,,,,,,,,,Clear,72000.0,,,73000.0,,,,,,
KRDR,09-05-2007,09:46,SPECI,,160,7,,,9999,,15.0,15.0,29.63,1004.4,,,,,,,,,,,,,,,Clear,72000.0,,,73000.0,,,,,,
KRDR,09-05-2007,09:36,SPECI,,160,6,,,4800,Mist,15.0,14.0,29.63,1004.6,10,,,,,,,,,,,,,,Clear,72000.0,,,73000.0,,,,,,
KRDR,09-05-2007,09:33,SPECI,,160,5,,,3200,Mist,15.0,15.0,29.63,1004.6,10,,,,,,,,,,,,,,Clear,72000.0,,,73000.0,,,,,,
KRDR,09-05-2007,09:30,METAR,,160,5,,,2000,Mist,15.0,15.0,29.63,1004.7,10,,,,,,,,,,,,,,Clear,72000.0,,,73000.0,,,,,,
KRDR,09-05-2007,09:28,SPECI,,170,5,,,1600,Mist,15.0,15.0,29.63,1004.6,10,,,,,,,,,,,,,,Clear,72000.0,,,73000.0,,,,,,
KRDR,09-05-2007,09:24,SPECI,,170,5,,,1200,Mist,15.0,15.0,29.63,1004.7,10,,,,,,,,,,,,,,Clear,72000.0,,,73000.0,,,,,,
KRDR,09-05-2007,09:19,SPECI,,180,4,,,800,Fog,15.0,15.0,29.64,1004.8,30,,,,,,,,,,,,,,Clear,72000.0,,,73000.0,,,,,,
KRDR,09-05-2007,09:14,SPECI,,180,4,,,1200,Mist,15.0,14.0,29.64,1004.8,10,,,,,,,,,,,,,,Clear,72000.0,,,73000.0,,,,,,
KRDR,09-05-2007,09:11,SPECI,,170,4,,,1600,Mist,14.0,14.0,29.64,1004.8,10,,,,,,,,,,,,,,Clear,72000.0,,,73000.0,,,,,,
KRDR,09-05-2007,09:09,SPECI,,170,3,,,2000,Mist,14.0,14.0,29.64,1004.8,10,,,,,,,,,,,,,,Clear,72000.0,,,73000.0,,,,,,
KRDR,09-05-2007,09:02,SPECI,,150,3,,,1600,Mist,14.0,14.0,29.64,1004.8,10,,,,,,,,,,,,,,Clear,72000.0,,,73000.0,,,,,,
KRDR,09-05-2007,09:00,METAR,,140,3,,,800,Fog,15.0,14.0,29.64,1005.0,30,,,,,,,,,,,,,,Clear,72000.0,,,73000.0,,,,,,
KRDR,09-05-2007,08:54,SPECI,,140,3,,,800,Fog,15.0,14.0,29.64,1004.9,30,,,,,,,,,,,,,,Clear,72000.0,,,73000.0,,,,,,
KRDR,09-05-2007,08:50,METAR,,140,3,,,800,Fog,15.0,14.0,29.64,1005.0,30,,,,,,,,,,,,,,Clear,72000.0,,,73000.0,,,,,,
KRDR,09-05-2007,08:45,METAR,,,0,,,1200,Mist,15.0,15.0,29.65,1005.0,10,,,,,,,,,,,,,,Clear,72000.0,,,73000.0,,,,,,
KRDR,09-05-2007,08:42,SPECI,,,0,,,1600,Mist,15.0,14.0,29.65,1005.0,10,,,,,,,,,,,,,,Clear,72000.0,,,73000.0,,,,,,
KRDR,09-05-2007,08:37,SPECI,,140,3,,,1600,Mist,14.0,13.0,29.64,1005.0,10,,,,,,,,,,,,,,Clear,72000.0,,,73000.0,,,,,,
KRDR,09-05-2007,08:34,SPECI,,,0,,,2000,Mist,14.0,13.0,29.65,1005.1,10,,,,,,,,,,,,,,Clear,72000.0,,,73000.0,,,,,,
KRDR,09-05-2007,08:32,SPECI,,,0,,,1600,Mist,14.0,14.0,29.65,1005.1,10,,,,,,,,,,,,,,Clear,72000.0,,,73000.0,,,,,,
KRDR,09-05-2007,08:28,SPECI,,,0,,,1600,Mist,15.0,14.0,29.65,1005.2,10,,,,,,,,,,,,,,Clear,72000.0,,,73000.0,,,,,,
KRDR,09-05-2007,08:25,METAR,,,0,,,2800,Mist,15.0,15.0,29.65,1005.2,10,,,,,,,,,,,,,,Clear,72000.0,,,73000.0,,,,,,
KRDR,09-05-2007,08:05,SPECI,,140,3,,,9999,Mist,15.0,14.0,29.65,1005.2,10,,,,,,,,,,,,,,Clear,72000.0,,,73000.0,,,,,,
KRDR,09-05-2007,08:00,METAR,,140,6,,,9999,,15.0,15.0,29.65,1005.3,,,,,,,,,,,,,,,Clear,72000.0,,,73000.0,,,,,,
KRDR,09-05-2007,07:40,SPECI,,120,3,,,4800,Mist,16.0,15.0,29.65,1005.3,10,,,,,,,,,,,,,,Clear,72000.0,,,73000.0,,,,,,
KRDR,09-05-2007,07:37,SPECI,,,0,,,4000,Mist,15.0,15.0,29.66,1005.4,10,,,,,,,,,,,,,,Clear,72000.0,,,73000.0,,,,,,
KRDR,09-05-2007,07:32,SPECI,,,0,,,4800,Mist,16.0,15.0,29.66,1005.5,10,,,,,,,,,,,,,,Clear,72000.0,,,73000.0,,,,,,
KRDR,09-05-2007,07:11,SPECI,,320,2,,,9999,,16.0,15.0,29.67,1005.9,,,,,,,,,,,,,,,Clear,72000.0,,,73000.0,,,,,,
KRDR,09-05-2007,07:00,METAR,,,0,,,9999,,18.0,17.0,29.67,1005.9,,,,,,,,,,,,,,,Clear,72000.0,,,73000.0,,,,,,
KRDR,09-05-2007,06:00,METAR,,110,5,,,9999,,18.0,17.0,29.69,1006.4,,,,,,,,,,,TRACE,,TRACE,,Clear,72000.0,,,73000.0,,,,,,
KRDR,09-05-2007,05:42,SPECI,,80,5,,,9999,,19.0,17.0,29.70,1006.8,,,,,,,,,,,,,,,Clear,72000.0,,,73000.0,,,,,,
KRDR,09-05-2007,05:34,SPECI,,70,3,,,9999,,19.0,17.0,29.70,1006.9,,,,,,,,,,,,,,,Clear,72000.0,,,73000.0,,,,,,
KRDR,09-05-2007,05:00,METAR,,140,4,,,9999,,19.0,17.0,29.71,1007.0,,,,,,,,,,,,,,,Clear,72000.0,,,73000.0,,,,,,
KRDR,09-05-2007,04:00,METAR,,100,7,,,9999,,20.0,17.0,29.73,1007.8,,,,,,,,,,,,,,,4/8 Partly Cloudy,72000.0,,SCT,25000.0,,,,,,
KRDR,09-05-2007,03:00,METAR,,80,9,,,9999,,21.0,17.0,29.75,1008.4,,,,,,,,,,,,,,,4/8 Partly Cloudy,72000.0,,SCT,25000.0,,,,,,
KRDR,09-05-2007,02:00,METAR,,80,8,,,9999,,22.0,17.0,29.74,1008.3,,,,,,,,,,,,,,,4/8 Partly Cloudy,72000.0,,SCT,25000.0,,,,,,
KRDR,09-05-2007,01:00,METAR,,90,9,,,9999,,24.0,17.0,29.74,1008.2,,,,,,,,,,,,,,,4/8 Partly Cloudy,72000.0,,SCT,25000.0,,,,,,
KRDR,09-05-2007,00:00,METAR,,110,12,,,9999,,27.0,17.0,29.75,1008.5,,,,,,,,,,,,,,,2/8 Mostly Clear,72000.0,,FEW,25000.0,,,,,,
KRDR,09-04-2007,23:00,METAR,,90,8,,,9999,,28.0,16.0,29.77,1009.0,,,,,,,,,,,,,,,4/8 Partly Cloudy,72000.0,,FEW,9900.0,SCT,25000.0,,,,
KRDR,09-04-2007,22:00,METAR,,90,7,,,9999,,28.0,17.0,29.79,1009.7,,,,,,,,,,,,,,,4/8 Partly Cloudy,72000.0,,FEW,9900.0,SCT,25000.0,,,,
KRDR,09-04-2007,21:00,METAR,,70,7,,,9999,,27.0,16.0,29.81,1010.3,,,,,,,,,,,,,,,4/8 Partly Cloudy,72000.0,,FEW,9900.0,SCT,25000.0,,,,
KRDR,09-04-2007,20:00,METAR,,70,8,,,9999,,26.0,16.0,29.82,1010.9,,,,,,,,,,,,,,,4/8 Partly Cloudy,72000.0,,SCT,9900.0,SCT,25000.0,,,,
KRDR,09-04-2007,19:00,METAR,,50,6,,,9999,,24.0,16.0,29.84,1011.5,,,,,,,,,,,,,,,4/8 Partly Cloudy,72000.0,,SCT,9900.0,SCT,25000.0,,,,
KRDR,09-04-2007,18:00,METAR,,60,7,,,9999,,23.0,15.0,29.86,1012.0,,,,,,,,,,,,,,,4/8 Partly Cloudy,72000.0,,SCT,9900.0,SCT,25000.0,,,,
KRDR,09-04-2007,17:00,METAR,,40,9,,,9999,,20.0,14.0,29.88,1012.7,,,,,,,,,,,,,,,4/8 Partly Cloudy,72000.0,,SCT,9900.0,SCT,25000.0,,,,
KRDR,09-04-2007,16:00,METAR,,360,9,,,9999,,18.0,13.0,29.89,1013.0,,,,,,,,,,,,,,,4/8 Partly Cloudy,72000.0,,SCT,9900.0,SCT,25000.0,,,,
KRDR,09-04-2007,15:00,METAR,,20,7,,,9999,,15.0,12.0,29.89,1013.2,,,,,,,,,,,,,,,4/8 Partly Cloudy,72000.0,,FEW,9900.0,SCT,25000.0,,,,
KRDR,09-04-2007,14:00,METAR,,10,7,,,9999,,13.0,11.0,29.89,1013.3,,,,,,,,,,,,,,,4/8 Partly Cloudy,72000.0,,FEW,1000.0,FEW,9900.0,SCT,25000.0,,
KRDR,09-04-2007,13:00,METAR,,360,8,,,9999,,11.0,11.0,29.90,1013.4,,,,,,,,,,,,,,,4/8 Partly Cloudy,72000.0,,FEW,1000.0,SCT,25000.0,,,,
KRDR,09-04-2007,12:00,METAR,,350,8,,,9999,,11.0,10.0,29.89,1013.2,,,,,,,,,,,,,,,4/8 Partly Cloudy,72000.0,,SCT,25000.0,,,,,,
KRDR,09-04-2007,11:00,METAR,,350,9,,,9999,,12.0,11.0,29.88,1012.9,,,,,,,,,,,,,,,Clear,72000.0,,,73000.0,,,,,,
KRDR,09-04-2007,10:00,METAR,,350,7,,,9999,,12.0,11.0,29.88,1012.8,,,,,,,,,,,,,,,Clear,72000.0,,,73000.0,,,,,,
KRDR,09-04-2007,09:00,METAR,,360,10,,,9999,,13.0,12.0,29.87,1012.5,,,,,,,,,,,,,,,2/8 Mostly Clear,72000.0,,FEW,5900.0,,,,,,
KRDR,09-04-2007,08:00,METAR,,350,7,,,9999,,14.0,12.0,29.88,1012.7,,,,,,,,,,,,,,,4/8 Partly Cloudy,72000.0,,SCT,5900.0,,,,,,
KRDR,09-04-2007,07:00,METAR,,360,9,,,9999,,15.0,13.0,29.88,1012.8,,,,,,,,,,,,,,,4/8 Partly Cloudy,72000.0,,SCT,6400.0,,,,,,
KRDR,09-04-2007,06:00,METAR,,360,9,,,9999,,16.0,13.0,29.87,1012.5,,,,,,,,,,,,,,,4/8 Partly Cloudy,72000.0,,SCT,5900.0,,,,,,
KRDR,09-04-2007,05:00,METAR,,350,7,,,9999,,16.0,14.0,29.87,1012.5,,,,,,,,,,,,,,,Clear,72000.0,,,73000.0,,,,,,
KRDR,09-04-2007,04:00,METAR,,350,7,,,9999,,19.0,14.0,29.87,1012.6,,,,,,,,,,,,,,,Clear,72000.0,,,73000.0,,,,,,
KRDR,09-04-2007,03:00,METAR,,30,6,,,9999,,20.0,14.0,29.86,1012.2,,,,,,,,,,,,,,,Clear,72000.0,,,73000.0,,,,,,
KRDR,09-04-2007,02:00,METAR,,30,9,,,9999,,22.0,15.0,29.86,1012.0,,,,,,,,,,,,,,,Clear,72000.0,,,73000.0,,,,,,
KRDR,09-04-2007,01:00,METAR,,10,11,,,9999,,24.0,19.0,29.83,1011.3,,,,,,,,,,,,,,,Clear,72000.0,,,73000.0,,,,,,
KRDR,09-04-2007,00:00,METAR,,10,5,,,9999,,27.0,18.0,29.85,1011.8,,,,,,,,,,,,,,,Clear,72000.0,,,73000.0,,,,,,
KRDR,09-03-2007,23:00,METAR,,,0,,,9999,,28.0,17.0,29.84,1011.4,,,,,,,,,,,,,,,7/8 Mostly Cloudy,25000.0,,SCT,9900.0,BKN,25000.0,,,,
KRDR,09-03-2007,22:00,METAR,,190,5,,,9999,,28.0,18.0,29.85,1011.9,,,,,,,,,,,,,,,7/8 Mostly Cloudy,25000.0,,SCT,9900.0,BKN,25000.0,,,,
KRDR,09-03-2007,21:00,METAR,,170,6,,,9999,,28.0,18.0,29.85,1011.7,,,,,,,,,,,,,,,4/8 Partly Cloudy,72000.0,,SCT,9900.0,SCT,25000.0,,,,
KRDR,09-03-2007,18:00,METAR,,120,11,,,9999,,25.0,15.0,29.90,1013.5,,,,,,,,,,,,,,,Clear,72000.0,,,73000.0,,,,,,
KRDR,09-03-2007,17:00,METAR,,150,9,,,9999,,24.0,13.0,29.93,,,,,,,,,,,,,,,,Clear,72000.0,,,73000.0,,,,,,
KRDR,09-03-2007,16:00,METAR,,160,17,22.0,,9999,,22.0,12.0,29.95,1015.0,,,,,,,,,,,,,,,4/8 Partly Cloudy,72000.0,,SCT,25000.0,,,,,,
KRDR,09-03-2007,15:00,METAR,,150,16,,,9999,,20.0,11.0,29.99,1016.2,,,,,,,,,,,,,,,Clear,72000.0,,,73000.0,,,,,,
KRDR,09-03-2007,14:00,METAR,,120,12,,,9999,,18.0,11.0,30.01,1016.9,,,,,,,,,,,,,,,4/8 Partly Cloudy,72000.0,,SCT,3700.0,,,,,,
KRDR,09-03-2007,13:00,METAR,,120,9,,,9999,,16.0,11.0,30.03,1017.7,,,,,,,,,,,,,,,8/8 Overcast,3600.0,,OVC,3700.0,,,,,,
KRDR,09-03-2007,12:00,METAR,,120,6,,,9999,,15.0,11.0,30.03,1017.9,,,,,,,,,,,,,TRACE,,8/8 Overcast,3600.0,,OVC,3700.0,,,,,,
KRDR,09-03-2007,11:00,METAR,,110,6,,,9999,,15.0,11.0,30.05,1018.5,,,,,,,,,,,,,,,7/8 Mostly Cloudy,4800.0,,BKN,4900.0,,,,,,
KRDR,09-03-2007,10:00,METAR,,130,6,,,9999,,15.0,11.0,30.07,1018.9,,,,,,,,,,,,,,,7/8 Mostly Cloudy,8000.0,,BKN,7900.0,,,,,,
KRDR,09-03-2007,09:00,METAR,,170,5,,,9999,,15.0,12.0,30.08,1019.5,,,,,,,,,,,TRACE,TRACE,,,8/8 Overcast,11000.0,,OVC,11000.0,,,,,,
KRDR,09-03-2007,08:49,SPECI,,160,5,,,9999,,15.0,12.0,30.08,1019.5,,,,,,,,,,,,,,,7/8 Mostly Cloudy,11000.0,,BKN,11000.0,,,,,,
KRDR,09-03-2007,08:38,SPECI,,190,3,,,9999,,15.0,12.0,30.09,1019.7,,,,,,,,,,,,,,,7/8 Mostly Cloudy,10000.0,,BKN,9900.0,,,,,,
KRDR,09-03-2007,08:28,SPECI,,130,3,,,9999,Light Rain,15.0,12.0,30.08,1019.3,61,,,,,,,,,,,,,,7/8 Mostly Cloudy,10000.0,,BKN,9900.0,,,,,,
KRDR,09-03-2007,08:24,SPECI,,130,4,,,9999,Light Rain,16.0,11.0,30.07,1019.1,61,,,,,,,,,,,,,,7/8 Mostly Cloudy,11000.0,,BKN,11000.0,,,,,,
KRDR,09-03-2007,08:22,SPECI,,130,6,,,9999,,16.0,12.0,30.07,1018.9,,,,,,,,,,,,,,,7/8 Mostly Cloudy,11000.0,,BKN,11000.0,,,,,,
KRDR,09-03-2007,08:10,SPECI,,110,4,,,9999,Light Rain,16.0,11.0,30.07,1019.1,61,,,,,,,,,,,,,,7/8 Mostly Cloudy,11000.0,,BKN,11000.0,,,,,,
KRDR,09-03-2007,08:00,METAR,,80,7,,,9999,,16.0,11.0,30.06,1018.5,,,,,,,,,,,,,,,4/8 Partly Cloudy,72000.0,,SCT,12000.0,,,,,,
KRDR,09-03-2007,07:00,METAR,,120,5,,,9999,,16.0,11.0,30.08,1019.2,,,,,,,,,,,,,,,Clear,72000.0,,,73000.0,,,,,,
KRDR,09-03-2007,06:00,METAR,,180,4,,,9999,,15.0,11.0,30.09,1019.7,,,,,,,,,,,,,,,2/8 Mostly Clear,72000.0,,FEW,11000.0,,,,,,
KRDR,09-03-2007,05:00,METAR,,150,5,,,9999,,16.0,11.0,30.08,1019.5,,,,,,,,,,,,,,,Clear,72000.0,,,73000.0,,,,,,
KRDR,09-03-2007,04:00,METAR,,120,3,,,9999,,17.0,11.0,30.08,1019.4,,,,,,,,,,,,,,,Clear,72000.0,,,73000.0,,,,,,
KRDR,09-03-2007,03:00,METAR,,110,5,,,9999,,18.0,10.0,30.08,1019.3,,,,,,,,,,,,,,,2/8 Mostly Clear,72000.0,,FEW,12000.0,,,,,,
KRDR,09-03-2007,02:00,METAR,,130,4,,,9999,,18.0,10.0,30.08,1019.5,,,,,,,,,,,,,,,Clear,72000.0,,,73000.0,,,,,,
KRDR,09-03-2007,01:00,METAR,,130,4,,,9999,,21.0,11.0,30.08,1019.3,,,,,,,,,,,,,,,4/8 Partly Cloudy,72000.0,,SCT,12000.0,,,,,,
KRDR,09-03-2007,00:00,METAR,,120,3,,,9999,,23.0,10.0,30.09,1019.6,,,,,,,,,,,TRACE,,TRACE,,4/8 Partly Cloudy,72000.0,,SCT,12000.0,,,,,,
KRDR,09-02-2007,23:00,METAR,,310,3,,,9999,,23.0,10.0,30.10,1020.0,,,,,,,,,,,,,,,4/8 Partly Cloudy,72000.0,,SCT,15000.0,,,,,,
KRDR,09-02-2007,22:00,METAR,,,0,,,9999,,23.0,9.0,30.11,1020.3,,,,,,,,,,,,,,,4/8 Partly Cloudy,72000.0,,SCT,15000.0,,,,,,
KRDR,09-02-2007,21:00,METAR,,350,7,,,9999,,23.0,9.0,30.11,1020.5,,,,,,,,,,,,,,,4/8 Partly Cloudy,72000.0,,SCT,15000.0,,,,,,
KRDR,09-02-2007,20:00,METAR,,20,5,,,9999,,23.0,9.0,30.12,1020.8,,,,,,,,,,,,,,,Clear,72000.0,,,73000.0,,,,,,
KRDR,09-02-2007,19:00,METAR,,40,5,,,9999,,22.0,10.0,30.13,1020.9,,,,,,,,,,,,,,,Clear,72000.0,,,73000.0,,,,,,
KRDR,09-02-2007,18:00,METAR,,20,8,,,9999,,21.0,10.0,30.13,1021.1,,,,,,,,,,,,,,,Clear,72000.0,,,73000.0,,,,,,
KRDR,09-02-2007,17:00,METAR,,350,8,,,9999,,21.0,10.0,30.13,1020.9,,,,,,,,,,,,,,,Clear,72000.0,,,73000.0,,,,,,
KRDR,09-02-2007,16:00,METAR,,10,11,,,9999,,19.0,11.0,30.12,1020.7,,,,,,,,,,,,,,,Clear,72000.0,,,73000.0,,,,,,
KRDR,09-02-2007,15:00,METAR,,10,12,,,9999,,18.0,11.0,30.10,1019.9,,,,,,,,,,,,,,,Clear,72000.0,,,73000.0,,,,,,
KRDR,09-02-2007,14:00,METAR,,350,14,,,9999,,17.0,11.0,30.09,1019.6,,,,,,,,,,,,,,,Clear,72000.0,,,73000.0,,,,,,
KRDR,09-02-2007,13:00,METAR,,310,6,,,9999,,15.0,11.0,30.06,1018.8,,,,,,,,,,,,,,,Clear,72000.0,,,73000.0,,,,,,
KRDR,09-02-2007,12:00,METAR,,320,7,,,9999,,14.0,11.0,30.04,1017.9,,,,,,,,,,,,,,,Clear,72000.0,,,73000.0,,,,,,
KRDR,09-02-2007,11:00,METAR,,300,6,,,9999,,15.0,10.0,30.00,1016.9,,,,,,,,,,,,,,,Clear,72000.0,,,73000.0,,,,,,
KRDR,09-02-2007,10:00,METAR,,290,5,,,9999,,15.0,11.0,29.98,1016.0,,,,,,,,,,,,,,,Clear,72000.0,,,73000.0,,,,,,
KRDR,09-02-2007,09:00,METAR,,300,7,,,9999,,17.0,12.0,29.95,1015.0,,,,,,,,,,,,,,,Clear,72000.0,,,73000.0,,,,,,
KRDR,09-02-2007,08:00,METAR,,320,8,,,9999,,19.0,12.0,29.92,1014.0,,,,,,,,,,,,,,,Clear,72000.0,,,73000.0,,,,,,
KRDR,09-02-2007,07:00,METAR,,290,6,,,9999,,18.0,13.0,29.88,1012.8,,,,,,,,,,,,,,,Clear,72000.0,,,73000.0,,,,,,
KRDR,09-02-2007,06:00,METAR,,330,7,,,9999,,22.0,14.0,29.86,1012.1,,,,,,,,,,,,,,,2/8 Mostly Clear,72000.0,,FEW,11000.0,,,,,,
KRDR,09-02-2007,05:00,METAR,,300,7,,,9999,,24.0,18.0,29.84,1011.4,,,,,,,,,,,,,,,2/8 Mostly Clear,72000.0,,FEW,8900.0,,,,,,
KRDR,09-02-2007,04:00,METAR,,200,9,,,9999,,25.0,19.0,29.79,1009.8,,,,,,,,,,,,,,,2/8 Mostly Clear,72000.0,,FEW,8400.0,,,,,,
KRDR,09-02-2007,03:00,METAR,,190,11,,,9999,,26.0,19.0,29.77,1009.2,,,,,,,,,,,,,,,Clear,72000.0,,,73000.0,,,,,,
KRDR,09-02-2007,02:00,METAR,,190,10,,,9999,,27.0,19.0,29.77,1009.0,,,,,,,,,,,,,,,7/8 Mostly Cloudy,12000.0,,BKN,12000.0,BKN,25000.0,,,,
KRDR,09-02-2007,01:00,METAR,,180,12,,,9999,,27.0,19.0,29.75,1008.6,,,,,,,,,,,,,,,7/8 Mostly Cloudy,12000.0,,BKN,12000.0,BKN,25000.0,,,,
KRDR,09-02-2007,00:00,METAR,,180,14,,,9999,,28.0,19.0,29.76,1008.7,,,,,,,,,,,,,TRACE,,7/8 Mostly Cloudy,12000.0,,BKN,12000.0,BKN,25000.0,,,,
KRDR,09-01-2007,23:00,METAR,,190,19,24.0,180/27KTS,9999,,29.0,18.0,29.75,1008.6,,,,,,,,,,,TRACE,,,,7/8 Mostly Cloudy,12000.0,,BKN,12000.0,BKN,25000.0,,,,
KRDR,09-01-2007,22:00,METAR,,200,14,18.0,200/29KTS,9999,Precipitation in the Vicinity,28.0,18.0,29.78,1009.4,,,,16,,,,,,,TRACE,,,,7/8 Mostly Cloudy,12000.0,,BKN,12000.0,BKN,25000.0,,,,
KRDR,09-01-2007,21:00,METAR,,190,19,27.0,180/29KTS,9999,,29.0,19.0,29.78,1009.3,,,,,,,,,,,,TRACE,,,7/8 Mostly Cloudy,12000.0,,BKN,12000.0,BKN,25000.0,,,,
KRDR,09-01-2007,20:00,METAR,,180,17,24.0,,9999,,28.0,19.0,29.78,1008.3,,,,,,,,,,,,,,,7/8 Mostly Cloudy,12000.0,,FEW,7900.0,BKN,12000.0,BKN,25000.0,,
KRDR,09-01-2007,19:44,SPECI,,180,16,26.0,200/30KTS,9999,Light Rain Showers,28.0,19.0,29.78,1009.6,,,,80,,,,,,,,,,,7/8 Mostly Cloudy,12000.0,,FEW,7900.0,BKN,12000.0,BKN,25000.0,,
KRDR,09-01-2007,19:00,METAR,,200,19,24.0,180/27KTS,9999,,30.0,19.0,29.80,1010.2,,,,,,,,,,,,,,,7/8 Mostly Cloudy,25000.0,,SCT,12000.0,BKN,25000.0,,,,
KRDR,09-01-2007,18:00,METAR,,200,19,25.0,180/27KTS,9999,,30.0,19.0,29.82,1010.6,,,,,,,,,,,,,,,7/8 Mostly Cloudy,25000.0,,FEW,5900.0,SCT,15000.0,BKN,25000.0,,
KRDR,09-01-2007,17:00,METAR,,190,18,25.0,190/29KTS,9999,,28.0,19.0,29.81,1010.6,,,,,,,,,,,,,,,4/8 Partly Cloudy,72000.0,,FEW,5900.0,SCT,25000.0,,,,
KRDR,09-01-2007,16:00,METAR,,180,17,26.0,190/26KTS,9999,,26.0,19.0,29.82,1010.9,,,,,,,,,,,,,,,4/8 Partly Cloudy,72000.0,,FEW,5900.0,SCT,25000.0,,,,
KRDR,09-01-2007,15:00,METAR,,180,17,23.0,,9999,,23.0,18.0,29.86,1012.0,,,,,,,,,,,,,,,4/8 Partly Cloudy,72000.0,,SCT,25000.0,,,,,,
KRDR,09-01-2007,14:00,METAR,,170,14,21.0,,9999,,21.0,18.0,29.86,1012.0,,,,,,,,,,,,,,,4/8 Partly Cloudy,72000.0,,FEW,12000.0,SCT,25000.0,,,,
KRDR,09-01-2007,13:00,METAR,,170,13,,,9999,,19.0,17.0,29.87,1012.5,,,,,,,,,,,,,,,4/8 Partly Cloudy,72000.0,,SCT,25000.0,,,,,,
KRDR,09-01-2007,12:00,METAR,,180,11,,,9999,,19.0,17.0,29.89,1013.0,,,,,,,,,,,,,,,Clear,72000.0,,,73000.0,,,,,,
KRDR,09-01-2007,11:00,METAR,,170,11,,,9999,,20.0,18.0,29.90,1013.3,,,,,,,,,,,,,,,Clear,72000.0,,,73000.0,,,,,,
KRDR,09-01-2007,10:00,METAR,,160,9,,,9999,,19.0,18.0,29.92,1014.0,,,,,,,,,,,,,,,Clear,72000.0,,,73000.0,,,,,,
KRDR,09-01-2007,09:00,METAR,,170,10,,,9999,,19.0,18.0,29.94,1014.8,,,,,,,,,,,,,,,Clear,72000.0,,,73000.0,,,,,,
KRDR,09-01-2007,08:00,METAR,,170,8,,,9999,,19.0,18.0,29.96,1015.4,,,,,,,,,,,,,,,Clear,72000.0,,,73000.0,,,,,,
KRDR,09-01-2007,07:00,METAR,,170,8,,,9999,,20.0,18.0,29.97,1015.9,,,,,,,,,,,,,,,Clear,72000.0,,,73000.0,,,,,,
KRDR,09-01-2007,06:00,METAR,,160,8,,,9999,,19.0,18.0,29.98,1016.0,,,,,,,,,,,,,,,Clear,72000.0,,,73000.0,,,,,,
KRDR,09-01-2007,05:00,METAR,,130,7,,,9999,,19.0,18.0,29.99,1016.5,,,,,,,,,,,,,,,Clear,72000.0,,,73000.0,,,,,,
KRDR,09-01-2007,04:00,METAR,,130,6,,,9999,,20.0,18.0,30.00,1016.8,,,,,,,,,,,,,,,Clear,72000.0,,,73000.0,,,,,,
KRDR,09-01-2007,03:00,METAR,,130,7,,,9999,,22.0,19.0,30.01,1016.9,,,,,,,,,,,,,,,Clear,72000.0,,,73000.0,,,,,,
KRDR,09-01-2007,02:00,METAR,,130,6,,,9999,,23.0,20.0,30.01,1017.2,,,,,,,,,,,,,,,Clear,72000.0,,,73000.0,,,,,,
KRDR,09-01-2007,01:00,METAR,,120,5,,,9999,,25.0,20.0,30.02,1017.5,,,,,,,,,,,,,,,Clear,72000.0,,,73000.0,,,,,,
KRDR,09-01-2007,00:00,METAR,,130,5,,,9999,,27.0,20.0,30.04,1018.1,,,,,,,,,,,,,,,Clear,72000.0,,,73000.0,,,,,,
KRDR,08-31-2007,23:00,METAR,,140,9,,,9999,,27.0,19.0,30.05,1018.3,,,,,,,,,,,,,,,Clear,72000.0,,,73000.0,,,,,,
KRDR,08-31-2007,22:00,METAR,,130,7,,,9999,,27.0,19.0,30.06,1018.7,,,,,,,,,,,,,,,Clear,72000.0,,,73000.0,,,,,,
KRDR,08-31-2007,21:00,METAR,,140,8,,,9999,,26.0,18.0,30.08,1019.3,,,,,,,,,,,,,,,Clear,72000.0,,,73000.0,,,,,,
KRDR,08-31-2007,20:00,METAR,,100,7,,,9999,,25.0,18.0,30.10,1019.9,,,,,,,,,,,,,,,Clear,72000.0,,,73000.0,,,,,,
KRDR,08-31-2007,19:00,METAR,,70,7,,,9999,,23.0,17.0,30.11,1020.4,,,,,,,,,,,,,,,Clear,72000.0,,,73000.0,,,,,,
KRDR,08-31-2007,18:00,METAR,,90,7,,,9999,,21.0,17.0,30.13,1021.2,,,,,,,,,,,,,,,2/8 Mostly Clear,72000.0,,FEW,1100.0,,,,,,
KRDR,08-31-2007,17:38,SPECI,,100,9,,,9999,,21.0,16.0,30.14,1021.3,,,,,,,,,,,,,,,4/8 Partly Cloudy,72000.0,,SCT,1000.0,,,,,,
KRDR,08-31-2007,17:36,SPECI,,90,7,,,9999,,21.0,16.0,30.14,1021.4,,,,,,,,,,,,,,,7/8 Mostly Cloudy,1000.0,,BKN,1000.0,,,,,,
KRDR,08-31-2007,17:29,SPECI,,60,6,,,9999,,21.0,16.0,30.15,1021.6,,,,,,,,,,,,,,,7/8 Mostly Cloudy,900.0,,BKN,900.0,,,,,,
KRDR,08-31-2007,17:01,SPECI,,70,7,,,9999,,20.0,16.0,30.15,1021.7,,,,,,,,,,,,,,,7/8 Mostly Cloudy,800.0,,BKN,800.0,,,,,,
KRDR,08-31-2007,17:00,METAR,,70,8,,,9999,,20.0,16.0,30.15,1021.8,,,,,,,,,,,,,,,4/8 Partly Cloudy,72000.0,,SCT,900.0,,,,,,
KRDR,08-31-2007,16:53,SPECI,,70,8,,,9999,,20.0,16.0,30.15,1021.7,,,,,,,,,,,,,,,7/8 Mostly Cloudy,900.0,,BKN,900.0,,,,,,
KRDR,08-31-2007,16:31,SPECI,,100,6,,,9999,,19.0,16.0,30.16,1022.0,,,,,,,,,,,,,,,7/8 Mostly Cloudy,900.0,,BKN,900.0,,,,,,
KRDR,08-31-2007,16:00,METAR,,80,7,,,9999,,18.0,15.0,30.16,1022.0,,,,,,,,,,,,,,,8/8 Overcast,800.0,,OVC,800.0,,,,,,
KRDR,08-31-2007,15:33,SPECI,,90,9,,,9999,,18.0,15.0,30.16,1021.9,,,,,,,,,,,,,,,8/8 Overcast,700.0,,OVC,700.0,,,,,,
KRDR,08-31-2007,15:04,SPECI,,80,6,,,9999,,18.0,15.0,30.16,1022.0,,,,,,,,,,,,,,,8/8 Overcast,600.0,,OVC,600.0,,,,,,
KRDR,08-31-2007,15:00,METAR,,70,8,,,9999,,17.0,15.0,30.16,1021.9,,,,,,,,,,,,,,,8/8 Overcast,500.0,,OVC,500.0,,,,,,
KRDR,08-31-2007,14:36,SPECI,,80,7,,,9999,,17.0,15.0,30.16,1021.9,,,,,,,,,,,,,,,8/8 Overcast,500.0,,OVC,500.0,,,,,,
KRDR,08-31-2007,14:00,METAR,,70,7,,,9999,,16.0,15.0,30.16,1021.8,,,,,,,,,,,,,,,8/8 Overcast,300.0,,OVC,300.0,,,,,,
KRDR,08-31-2007,13:02,SPECI,,60,6,,,9999,,16.0,15.0,30.14,1021.5,,,,,,,,,,,,,,,8/8 Overcast,200.0,,OVC,200.0,,,,,,
KRDR,08-31-2007,13:00,METAR,,50,5,,,9999,,16.0,15.0,30.14,1021.5,,,,,,,,,,,,,,,7/8 Mostly Cloudy,100.0,,BKN,100.0,,,,,,
KRDR,08-31-2007,12:44,SPECI,,60,6,,,9999,,15.0,15.0,30.14,1021.3,,,,,,,,,,,,,,,7/8 Mostly Cloudy,100.0,,BKN,100.0,,,,,,
KRDR,08-31-2007,12:31,SPECI,,80,7,,,9999,,15.0,15.0,30.14,1021.5,,,,,,,,,,,,,,,2/8 Mostly Clear,72000.0,,FEW,100.0,,,,,,
KRDR,08-31-2007,12:05,SPECI,,70,6,,,4800,,15.0,15.0,30.14,,,,,,,,,,,,,,,,8/8 Overcast,500.0,,OVC,500.0,,,,,,
KRDR,08-31-2007,12:00,METAR,,80,5,,,2800,Drizzle/Mist,15.0,15.0,30.14,1021.4,,,,51,10,,,,,,,,,,8/8 Overcast,500.0,,OVC,500.0,,,,,,
KRDR,08-31-2007,11:32,SPECI,,50,7,,,6400,Mist,15.0,15.0,30.13,1021.1,,,,10,,,,,,,,,,,Sky Obscured (Unable to Estimate),400.0,100.0,,400.0,,,,,,
KRDR,08-31-2007,11:16,SPECI,,40,7,,,4800,Mist,15.0,15.0,30.13,1021.1,10,,,,,,,,,,,,,,Sky Obscured (Unable to Estimate),400.0,100.0,,400.0,,,,,,
KRDR,08-31-2007,11:12,SPECI,,30,7,,,4000,Mist,15.0,15.0,30.13,1021.1,10,,,,,,,,,,,,,,7/8 Mostly Cloudy,400.0,,BKN,400.0,,,,,,
KRDR,08-31-2007,11:06,SPECI,,40,7,,,4000,Mist,15.0,15.0,30.13,1021.2,10,,,,,,,,,,,,,,Sky Obscured (Unable to Estimate),500.0,100.0,,500.0,,,,,,
KRDR,08-31-2007,11:00,METAR,,50,6,,,4000,Mist,15.0,15.0,30.13,1021.0,10,,,,,,,,,,,,,,Sky Obscured (Unable to Estimate),500.0,100.0,,500.0,,,,,,
KRDR,08-31-2007,10:54,SPECI,,40,5,,,4800,Mist,15.0,15.0,30.13,1021.0,10,,,,,,,,,,,,,,Sky Obscured (Unable to Estimate),400.0,100.0,,400.0,,,,,,
KRDR,08-31-2007,10:50,METAR,,40,7,,,4000,Mist,15.0,15.0,30.13,1021.0,10,,,,,,,,,,,,,,Sky Obscured (Unable to Estimate),500.0,100.0,,500.0,,,,,,
KRDR,08-31-2007,10:42,SPECI,,40,8,,,9999,Mist,15.0,15.0,30.13,1021.0,10,,,,,,,,,,,,,,Sky Obscured (Unable to Estimate),500.0,100.0,,500.0,,,,,,
KRDR,08-31-2007,10:19,SPECI,,50,9,,,9999,,15.0,15.0,30.12,1020.8,,,,,,,,,,,,,,,8/8 Overcast,400.0,,OVC,400.0,,,,,,
KRDR,08-31-2007,10:09,SPECI,,50,8,,,9999,,15.0,15.0,30.13,1020.9,,,,,,,,,,,,,,,8/8 Overcast,300.0,,OVC,300.0,,,,,,
KRDR,08-31-2007,10:00,METAR,,50,6,,,9999,,16.0,15.0,30.13,1020.9,,,,,,,,,,,,,,,7/8 Mostly Cloudy,300.0,,BKN,300.0,,,,,,
KRDR,08-31-2007,09:50,METAR,,50,7,,,9999,Mist,15.0,15.0,30.12,1020.8,10,,,,,,,,,,,,,,7/8 Mostly Cloudy,300.0,,BKN,300.0,,,,,,
KRDR,08-31-2007,09:47,SPECI,,50,6,,,4800,Mist,15.0,15.0,30.13,1020.9,10,,,,,,,,,,,,,,4/8 Partly Cloudy,72000.0,,SCT,400.0,,,,,,
KRDR,08-31-2007,09:45,METAR,,50,7,,,3200,Mist,15.0,15.0,30.13,1020.9,10,,,,,,,,,,,,,,4/8 Partly Cloudy,72000.0,,SCT,400.0,,,,,,
KRDR,08-31-2007,09:43,SPECI,,30,5,,,2400,Mist,15.0,15.0,30.13,1020.9,10,,,,,,,,,,,,,,2/8 Mostly Clear,72000.0,,FEW,400.0,,,,,,
KRDR,08-31-2007,09:41,SPECI,,20,6,,,2000,Mist,15.0,15.0,30.13,1020.9,10,,,,,,,,,,,,,,2/8 Mostly Clear,72000.0,,FEW,500.0,,,,,,
KRDR,08-31-2007,09:38,SPECI,,360,7,,,1600,Mist,15.0,15.0,30.12,1020.8,10,,,,,,,,,,,,,,Clear,72000.0,,,73000.0,,,,,,
KRDR,08-31-2007,09:23,SPECI,,360,9,,,1200,Mist,16.0,15.0,30.12,1020.5,10,,,,,,,,,,,,,,Clear,72000.0,,,73000.0,,,,,,
KRDR,08-31-2007,09:14,SPECI,,350,9,,,1200,Mist,16.0,15.0,30.11,1020.5,10,,,,,,,,,,,,,,Clear,72000.0,,,73000.0,,,,,,
KRDR,08-31-2007,09:00,METAR,,350,9,,,1600,Mist,16.0,15.0,30.11,1020.5,10,,,,,,,,,,,,,,4/8 Partly Cloudy,72000.0,,SCT,400.0,,,,,,
KRDR,08-31-2007,08:54,SPECI,,350,10,,,1600,Mist,16.0,15.0,30.12,1020.5,10,,,,,,,,,,,,,,4/8 Partly Cloudy,72000.0,,SCT,400.0,,,,,,
KRDR,08-31-2007,08:48,SPECI,,350,10,,,1600,Mist,16.0,15.0,30.11,1020.5,10,,,,,,,,,,,,,,4/8 Partly Cloudy,72000.0,,SCT,400.0,,,,,,
KRDR,08-31-2007,08:43,SPECI,,350,10,,,2000,Mist,16.0,15.0,30.12,1020.5,10,,,,,,,,,,,,,,4/8 Partly Cloudy,72000.0,,SCT,400.0,,,,,,
KRDR,08-31-2007,08:12,SPECI,,340,9,,,2000,Mist,16.0,15.0,30.12,1020.5,10,,,,,,,,,,,,,,7/8 Mostly Cloudy,400.0,,BKN,400.0,,,,,,
KRDR,08-31-2007,08:07,SPECI,,340,8,,,1600,Mist,16.0,15.0,30.11,1020.5,10,,,,,,,,,,,,,,7/8 Mostly Cloudy,400.0,,BKN,400.0,,,,,,
KRDR,08-31-2007,08:04,SPECI,,340,9,,,1600,Mist,16.0,15.0,30.12,1020.5,10,,,,,,,,,,,,,,7/8 Mostly Cloudy,400.0,,BKN,400.0,,,,,,
KRDR,08-31-2007,08:00,METAR,,340,10,,,1600,Mist,16.0,15.0,30.11,1020.5,10,,,,,,,,,,,,,,7/8 Mostly Cloudy,500.0,,BKN,500.0,,,,,,
KRDR,08-31-2007,07:56,SPECI,,350,10,,,1600,Mist,16.0,15.0,30.11,1020.5,10,,,,,,,,,,,,,,7/8 Mostly Cloudy,500.0,,BKN,500.0,,,,,,
KRDR,08-31-2007,07:49,SPECI,,340,9,,,2000,Mist,16.0,15.0,30.11,1020.5,10,,,,,,,,,,,,,,Sky Obscured (Unable to Estimate),400.0,100.0,,400.0,,,,,,
KRDR,08-31-2007,07:42,SPECI,,350,10,,,2800,Mist,16.0,15.0,30.11,1020.5,10,,,,,,,,,,,,,,Sky Obscured (Unable to Estimate),400.0,100.0,,400.0,,,,,,
KRDR,08-31-2007,07:38,SPECI,,350,9,,,4000,Mist,16.0,15.0,30.11,1020.5,10,,,,,,,,,,,,,,Sky Obscured (Unable to Estimate),500.0,100.0,,500.0,,,,,,
KRDR,08-31-2007,07:35,SPECI,,340,11,,,4000,Mist,16.0,15.0,30.11,1020.4,10,,,,,,,,,,,,,,Sky Obscured (Unable to Estimate),400.0,100.0,,400.0,,,,,,
KRDR,08-31-2007,07:33,SPECI,,350,9,,,4000,Mist,16.0,15.0,30.11,1020.4,10,,,,,,,,,,,,,,Sky Obscured (Unable to Estimate),400.0,100.0,,400.0,,,,,,
KRDR,08-31-2007,07:26,SPECI,,350,11,,,8000,Mist,16.0,15.0,30.11,1020.4,10,,,,,,,,,,,,,,8/8 Overcast,400.0,,OVC,400.0,,,,,,
KRDR,08-31-2007,07:11,SPECI,,360,10,,,9999,,16.0,15.0,30.11,1020.3,,,,,,,,,,,,,,,8/8 Overcast,400.0,,OVC,400.0,,,,,,
KRDR,08-31-2007,07:02,SPECI,,350,10,,,9999,,17.0,15.0,30.11,1020.3,,,,,,,,,,,,,,,8/8 Overcast,500.0,,OVC,500.0,,,,,,
KRDR,08-31-2007,07:00,METAR,,360,10,,,9999,,17.0,15.0,30.11,1020.3,,,,,,,,,,,,,,,8/8 Overcast,700.0,,OVC,700.0,,,,,,
KRDR,08-31-2007,06:43,SPECI,,360,10,,,9999,,17.0,15.0,30.11,1020.2,,,,,,,,,,,,,,,8/8 Overcast,600.0,,OVC,800.0,,,,,,
KRDR,08-31-2007,06:37,SPECI,,350,8,,,9999,,17.0,15.0,30.10,1020.1,,,,,,,,,,,,,,,8/8 Overcast,500.0,,OVC,1400.0,,,,,,
KRDR,08-31-2007,06:23,SPECI,,350,11,,,9999,,17.0,15.0,30.10,1020.0,,,,,,,,,,,,,,,8/8 Overcast,1200.0,,OVC,2800.0,,,,,,
KRDR,08-31-2007,06:14,SPECI,,350,10,,,9999,,17.0,15.0,30.10,1020.0,,,,,,,,,,,,,,,8/8 Overcast,2100.0,,FEW,800.0,OVC,4600.0,,,,
KRDR,08-31-2007,06:00,METAR,,350,11,,,9999,,18.0,15.0,30.09,1019.8,,,,,,,,,,,,,,,8/8 Overcast,4400.0,,FEW,1000.0,OVC,4500.0,,,,
KRDR,08-31-2007,05:07,SPECI,,340,7,,,9999,,18.0,16.0,30.09,1019.6,,,,,,,,,,,,,,,7/8 Mostly Cloudy,4400.0,,SCT,1100.0,BKN,4500.0,,,,
KRDR,08-31-2007,05:01,SPECI,,350,8,,,9999,,18.0,16.0,30.09,1019.6,,,,,,,,,,,,,,,7/8 Mostly Cloudy,1100.0,,BKN,2700.0,,,,,,
KRDR,08-31-2007,05:00,METAR,,350,6,,,9999,,18.0,16.0,30.09,1019.5,,,,,,,,,,,,,,,2/8 Mostly Clear,72000.0,,FEW,2800.0,,,,,,
KRDR,08-31-2007,04:00,METAR,,360,8,,,9999,,19.0,17.0,30.08,1019.2,,,,,,,,,,,,,,,2/8 Mostly Clear,72000.0,,FEW,4600.0,,,,,,
KRDR,08-31-2007,03:00,METAR,,350,8,,,9999,,22.0,18.0,30.05,1018.5,,,,,,,,,,,,,,,7/8 Mostly Cloudy,4200.0,,BKN,4300.0,,,,,,
KRDR,08-31-2007,02:00,METAR,,210,13,,,9999,,23.0,17.0,29.99,1016.4,,,,,,,,,,,,,,,4/8 Partly Cloudy,72000.0,,SCT,6900.0,,,,,,
KRDR,08-31-2007,01:00,METAR,,200,13,,,9999,,24.0,17.0,29.99,1016.5,,,,,,,,,,,,,,,2/8 Mostly Clear,72000.0,,FEW,7900.0,,,,,,
KRDR,08-31-2007,00:00,METAR,,200,14,,,9999,,26.0,16.0,30.01,1017.0,,,,,,,,,,,,,,,2/8 Mostly Clear,72000.0,,FEW,7900.0,,,,,,
KRDR,08-30-2007,23:00,METAR,,210,14,20.0,200/26KTS,9999,,27.0,16.0,30.03,1017.6,,,,,,,,,,,,,,,2/8 Mostly Clear,72000.0,,FEW,7900.0,,,,,,
KRDR,08-30-2007,22:00,METAR,,210,17,22.0,,9999,,27.0,15.0,30.05,1018.4,,,,,,,,,,,,,,,2/8 Mostly Clear,72000.0,,FEW,7900.0,,,,,,
KRDR,08-30-2007,21:00,METAR,,190,18,23.0,,9999,,27.0,14.0,30.07,1019.1,,,,,,,,,,,,,,,2/8 Mostly Clear,72000.0,,FEW,7900.0,,,,,,
KRDR,08-30-2007,20:00,METAR,,200,19,24.0,,9999,,27.0,14.0,30.10,1019.9,,,,,,,,,,,,,,,2/8 Mostly Clear,72000.0,,FEW,7900.0,,,,,,
KRDR,08-30-2007,19:00,METAR,,210,19,25.0,210/26KTS,9999,,26.0,13.0,30.12,1020.6,,,,,,,,,,,,,,,2/8 Mostly Clear,72000.0,,FEW,7900.0,,,,,,
KRDR,08-30-2007,18:00,METAR,,210,18,,,9999,,25.0,13.0,30.14,1021.5,,,,,,,,,,,,,,,2/8 Mostly Clear,72000.0,,FEW,7900.0,,,,,,
KRDR,08-30-2007,17:00,METAR,,200,17,22.0,,9999,,24.0,13.0,30.17,1022.3,,,,,,,,,,,,,,,Clear,72000.0,,,73000.0,,,,,,
KRDR,08-30-2007,16:00,METAR,,200,13,,,9999,,22.0,12.0,30.19,1023.1,,,,,,,,,,,,,,,Clear,72000.0,,,73000.0,,,,,,
KRDR,08-30-2007,15:00,METAR,,200,15,,,9999,,20.0,11.0,30.21,1023.5,,,,,,,,,,,,,,,Clear,72000.0,,,73000.0,,,,,,
KRDR,08-30-2007,14:00,METAR,,190,9,,,9999,,16.0,10.0,30.23,1024.2,,,,,,,,,,,,,,,Clear,72000.0,,,73000.0,,,,,,
KRDR,08-30-2007,13:00,METAR,,180,6,,,9999,,14.0,9.0,30.23,1024.4,,,,,,,,,,,,,,,2/8 Mostly Clear,72000.0,,FEW,12000.0,,,,,,
KRDR,08-30-2007,12:00,METAR,,190,5,,,9999,,11.0,7.0,30.23,1024.4,,,,,,,,,,,,,,,2/8 Mostly Clear,72000.0,,FEW,8900.0,,,,,,
KRDR,08-30-2007,11:00,METAR,,190,7,,,9999,,10.0,7.0,30.23,1024.3,,,,,,,,,,,,,,,Clear,72000.0,,,73000.0,,,,,,
KRDR,08-30-2007,09:00,METAR,,190,7,,,9999,,11.0,7.0,30.24,1024.6,,,,,,,,,,,,,,,Clear,72000.0,,,73000.0,,,,,,
KRDR,08-30-2007,08:00,METAR,,200,6,,,9999,,11.0,7.0,30.24,1024.7,,,,,,,,,,,,,,,Clear,72000.0,,,73000.0,,,,,,
KRDR,08-30-2007,07:00,METAR,,210,8,,,9999,,11.0,7.0,30.25,1025.1,,,,,,,,,,,,,,,Clear,72000.0,,,73000.0,,,,,,
KRDR,08-30-2007,06:00,METAR,,200,7,,,9999,,11.0,8.0,30.25,1025.0,,,,,,,,,,,,,,,Clear,72000.0,,,73000.0,,,,,,
KRDR,08-30-2007,05:00,METAR,,210,5,,,9999,,12.0,7.0,30.25,1024.9,,,,,,,,,,,,,,,Clear,72000.0,,,73000.0,,,,,,
KRDR,08-30-2007,04:00,METAR,,190,7,,,9999,,11.0,7.0,30.25,1025.0,,,,,,,,,,,,,,,Clear,72000.0,,,73000.0,,,,,,
KRDR,08-30-2007,03:00,METAR,,180,6,,,9999,,11.0,7.0,30.25,1025.0,,,,,,,,,,,,,,,2/8 Mostly Clear,72000.0,,FEW,5900.0,,,,,,
KRDR,08-30-2007,02:00,METAR,,220,6,,,9999,,14.0,10.0,30.25,1025.0,,,,,,,,,,,,,,,2/8 Mostly Clear,72000.0,,FEW,5900.0,,,,,,
KRDR,08-30-2007,01:00,METAR,,230,4,,,9999,,18.0,10.0,30.24,1024.6,,,,,,,,,,,,,,,2/8 Mostly Clear,72000.0,,FEW,3000.0,FEW,25000.0,,,,
KRDR,08-30-2007,00:00,METAR,,280,5,,,9999,,21.0,7.0,30.24,1024.6,,,,,,,,,,,,,,,2/8 Mostly Clear,72000.0,,FEW,5900.0,FEW,25000.0,,,,
KRDR,08-29-2007,23:00,METAR,,280,2,,,9999,,22.0,5.0,30.24,1024.7,,,,,,,,,,,,,,,2/8 Mostly Clear,72000.0,,FEW,6400.0,,,,,,
KRDR,08-29-2007,22:00,METAR,,280,6,,,9999,,22.0,6.0,30.25,1024.8,,,,,,,,,,,,,,,2/8 Mostly Clear,72000.0,,FEW,6400.0,,,,,,
KRDR,08-29-2007,21:00,METAR,,270,6,,,9999,,22.0,5.0,30.26,1025.2,,,,,,,,,,,,,,,2/8 Mostly Clear,72000.0,,FEW,6400.0,,,,,,
KRDR,08-29-2007,20:00,METAR,,310,8,,,9999,,22.0,5.0,30.27,1025.6,,,,,,,,,,,,,,,2/8 Mostly Clear,72000.0,,FEW,6400.0,,,,,,
KRDR,08-29-2007,19:00,METAR,,,0,,,9999,,21.0,5.0,30.27,1025.8,,,,,,,,,,,,,,,2/8 Mostly Clear,72000.0,,FEW,4000.0,,,,,,
KRDR,08-29-2007,18:00,METAR,,310,5,,,9999,,21.0,6.0,30.29,1026.2,,,,,,,,,,,,,,,2/8 Mostly Clear,72000.0,,FEW,4000.0,,,,,,
KRDR,08-29-2007,17:00,METAR,,360,8,,,9999,,20.0,7.0,30.29,1026.2,,,,,,,,,,,,,,,2/8 Mostly Clear,72000.0,,FEW,4000.0,,,,,,
KRDR,08-29-2007,16:00,METAR,,330,9,,,9999,,19.0,8.0,30.29,1026.1,,,,,,,,,,,,,,,Clear,72000.0,,,73000.0,,,,,,
KRDR,08-29-2007,15:00,METAR,,320,8,,,9999,,17.0,8.0,30.27,1025.6,,,,,,,,,,,,,,,Clear,72000.0,,,73000.0,,,,,,
KRDR,08-29-2007,14:00,METAR,,310,5,,,9999,,14.0,9.0,30.25,1025.1,,,,,,,,,,,,,,,Clear,72000.0,,,73000.0,,,,,,
KRDR,08-29-2007,13:00,METAR,,300,6,,,9999,,10.0,7.0,30.25,1025.0,,,,,,,,,,,,,,,2/8 Mostly Clear,72000.0,,FEW,20000.0,,,,,,
KRDR,08-29-2007,12:00,METAR,,280,5,,,9999,,8.0,6.0,30.24,1024.6,,,,,,,,,,,,,,.01 IN,2/8 Mostly Clear,72000.0,,FEW,20000.0,,,,,,
KRDR,08-29-2007,11:00,METAR,,290,6,,,9999,,8.0,7.0,30.22,1023.9,,,,,,,,,,,,,,,Clear,72000.0,,,73000.0,,,,,,
KRDR,08-29-2007,10:00,METAR,,270,6,,,9999,,9.0,7.0,30.20,1023.3,,,,,,,,,,,,,,,Clear,72000.0,,,73000.0,,,,,,
KRDR,08-29-2007,09:00,METAR,,280,6,,,9999,,10.0,8.0,30.18,1022.7,,,,,,,,,,,,,,,Clear,72000.0,,,73000.0,,,,,,
KRDR,08-29-2007,08:00,METAR,,300,8,,,9999,,11.0,9.0,30.17,1022.2,,,,,,,,,,,,,,,2/8 Mostly Clear,72000.0,,FEW,8900.0,,,,,,
KRDR,08-29-2007,07:00,METAR,,250,6,,,9999,,10.0,9.0,30.16,1022.1,,,,,,,,,,,,,,,Clear,72000.0,,,73000.0,,,,,,
KRDR,08-29-2007,06:00,METAR,,210,7,,,9999,,11.0,9.0,30.16,1021.9,,,,,,,,,,,,,,,2/8 Mostly Clear,72000.0,,FEW,4400.0,,,,,,
KRDR,08-29-2007,05:00,METAR,,200,6,,,9999,,10.0,9.0,30.14,1021.5,,,,,,,,,,,,,,,Clear,72000.0,,,73000.0,,,,,,
KRDR,08-28-2007,20:00,METAR,,350,9,,,9999,Light Rain Showers,14.0,11.0,30.11,1020.4,,,,80,,,,,,,.01 IN,,,,8/8 Overcast,9500.0,,BKN,9400.0,OVC,12000.0,,,,
KRDR,08-28-2007,19:42,SPECI,,340,8,,,9999,Light Rain Showers,14.0,11.0,30.11,,,,,80,,,,,,,,,,,8/8 Overcast,9500.0,,BKN,9400.0,OVC,12000.0,,,,
KRDR,08-28-2007,18:22,SPECI,,350,6,,,9999,,14.0,10.0,30.08,,,,,,,,,,,,,,,,8/8 Overcast,9000.0,,OVC,8900.0,,,,,,
KRDR,08-28-2007,03:00,METAR,,10,8,,,9999,,15.0,13.0,29.95,1015.2,,,,,,,,,,,,,,,8/8 Overcast,11000.0,,OVC,11000.0,,,,,,
KRDR,08-28-2007,02:00,METAR,,360,10,,,9999,,16.0,13.0,29.95,1014.9,,,,,,,,,,,,,,,8/8 Overcast,7000.0,,FEW,1400.0,BKN,8900.0,OVC,15000.0,,
KRDR,08-28-2007,01:00,METAR,,20,12,,,9999,,16.0,13.0,29.92,1013.9,,,,,,,,,,,,,,,8/8 Overcast,8500.0,,BKN,8400.0,OVC,15000.0,,,,
KRDR,08-28-2007,00:00,METAR,,30,13,,,9999,,16.0,13.0,29.89,1013.2,,,,,,,,,,,,,TRACE,,8/8 Overcast,8500.0,,BKN,8400.0,OVC,15000.0,,,,
KRDR,08-27-2007,23:00,METAR,,20,14,,,9999,,16.0,12.0,29.91,1013.7,,,,,,,,,,,,,,,8/8 Overcast,8000.0,,BKN,7900.0,OVC,20000.0,,,,
KRDR,08-27-2007,22:00,METAR,,10,17,,,9999,,16.0,11.0,29.89,1013.1,,,,,,,,,,,,,,,8/8 Overcast,12000.0,,FEW,7900.0,BKN,12000.0,OVC,20000.0,,
KRDR,08-27-2007,21:00,METAR,,20,16,23.0,,9999,,17.0,13.0,29.89,1013.0,,,,,,,,,,,,TRACE,,,8/8 Overcast,10000.0,,FEW,5900.0,BKN,9900.0,OVC,20000.0,,
KRDR,08-27-2007,20:00,METAR,,360,13,,,9999,,18.0,13.0,29.90,1013.5,,,,,,,,,,,TRACE,,,,8/8 Overcast,12000.0,,SCT,6900.0,BKN,12000.0,OVC,20000.0,,
KRDR,08-27-2007,19:33,SPECI,,360,13,20.0,,9999,,19.0,13.0,29.89,,,,,,,,,,,,,,,,7/8 Mostly Cloudy,12000.0,,SCT,5000.0,BKN,12000.0,BKN,20000.0,,
KRDR,08-27-2007,19:04,SPECI,,360,10,20.0,,9999,Light Rain Showers,18.0,13.0,29.92,,,,,80,,,,,,,,,,,7/8 Mostly Cloudy,12000.0,,SCT,5000.0,BKN,12000.0,BKN,20000.0,,
KRDR,08-27-2007,19:00,METAR,,20,14,,,9999,,19.0,13.0,29.92,1014.0,,,,,,,,,,,,,,,7/8 Mostly Cloudy,12000.0,,SCT,5000.0,BKN,12000.0,BKN,20000.0,,
KRDR,08-27-2007,18:00,METAR,,360,12,,,9999,,18.0,13.0,29.93,1014.6,,,,,,,,,,,,,TRACE,,8/8 Overcast,12000.0,,SCT,2000.0,BKN,12000.0,OVC,25000.0,,
KRDR,08-27-2007,17:00,METAR,,20,13,,,9999,,17.0,13.0,29.91,1013.7,,,,,,,,,,,,,,,7/8 Mostly Cloudy,14000.0,,SCT,2000.0,BKN,14000.0,,,,
KRDR,08-27-2007,16:21,SPECI,,20,10,,,9999,,16.0,13.0,29.93,1014.5,,,,,,,,,,,,,,,7/8 Mostly Cloudy,1500.0,,BKN,1500.0,BKN,14000.0,,,,
KRDR,08-27-2007,16:00,METAR,,50,9,,,9999,,15.0,13.0,29.92,1014.1,,,,,,,,,,,TRACE,,,,8/8 Overcast,1200.0,,OVC,1200.0,,,,,,
KRDR,08-27-2007,15:38,SPECI,,80,9,,,9999,Light Rain Showers,15.0,12.0,29.94,,,,,80,,,,,,,,,,,8/8 Overcast,1200.0,,OVC,1200.0,,,,,,
KRDR,08-27-2007,15:18,SPECI,,10,10,,,9999,Thunderstorm with Rain or Snow/Light Rain Showers,15.0,12.0,29.94,1014.9,,,,95,80,,,,,,,,,,8/8 Overcast,1100.0,,OVC,1100.0,,,,,,
KRDR,08-27-2007,15:00,METAR,,20,12,,,9999,,15.0,12.0,29.87,1012.3,,,,,,,,,,,,,,,8/8 Overcast,1000.0,,OVC,1000.0,,,,,,
KRDR,08-27-2007,14:00,METAR,,30,18,,050/26KTS,9999,,15.0,12.0,29.83,1011.3,,,,,,,,,,,,,,,7/8 Mostly Cloudy,700.0,,BKN,1200.0,,,,,,
KRDR,08-27-2007,13:30,METAR,,10,15,20.0,050/26KTS,9999,,14.0,12.0,29.79,1009.8,,,,,,,,,,,,,,,4/8 Partly Cloudy,72000.0,,FEW,800.0,SCT,2400.0,,,,
KRDR,08-27-2007,13:00,METAR,,30,15,,,9999,,15.0,12.0,29.81,1010.5,,,,,,,,,,,,,,,8/8 Overcast,3000.0,,SCT,1900.0,OVC,3000.0,,,,
KRDR,08-27-2007,12:00,METAR,,10,5,,,9999,,15.0,14.0,29.89,1013.1,,,,,,,,,,,TRACE,,TRACE,1.05 IN,8/8 Overcast,3000.0,,SCT,2200.0,OVC,3000.0,,,,
KRDR,08-27-2007,11:25,METAR,,20,9,,,9999,Light Rain Showers,15.0,13.0,29.89,,,,,80,,,,,,,,,,,8/8 Overcast,3000.0,,FEW,2600.0,OVC,3000.0,,,,
KRDR,08-27-2007,11:00,METAR,,330,4,,,9999,,15.0,14.0,29.90,1013.4,,,,,,,,,,,,,,,8/8 Overcast,3000.0,,OVC,3000.0,,,,,,
KRDR,08-27-2007,10:21,SPECI,,360,8,,,9999,,16.0,14.0,29.85,1011.9,,,,,,,,,,,,,,,4/8 Partly Cloudy,72000.0,,FEW,600.0,SCT,3000.0,,,,
KRDR,08-27-2007,10:08,SPECI,,20,12,,,9999,,16.0,14.0,29.85,1011.6,,,,,,,,,,,,,,,4/8 Partly Cloudy,72000.0,,SCT,600.0,,,,,,
KRDR,08-27-2007,10:00,METAR,,20,13,,,9999,,16.0,14.0,29.84,1011.5,,,,,,,,,,,,,,,8/8 Overcast,500.0,,OVC,500.0,,,,,,
KRDR,08-27-2007,09:15,SPECI,,20,13,17.0,,9999,,16.0,14.0,29.78,1009.6,,,,,,,,,,,,,,,8/8 Overcast,400.0,,OVC,500.0,,,,,,
KRDR,08-27-2007,09:05,SPECI,,10,9,,,9999,,16.0,14.0,29.81,1010.4,,,,,,,,,,,,,,,8/8 Overcast,500.0,,OVC,600.0,,,,,,
KRDR,08-27-2007,09:00,METAR,,10,10,,,9999,,16.0,14.0,29.81,1010.6,,,,,,,,,,,,,,,8/8 Overcast,500.0,,OVC,600.0,,,,,,
KRDR,08-27-2007,08:39,SPECI,,10,10,,,9999,,16.0,14.0,29.81,1010.5,,,,,,,,,,,,,,,8/8 Overcast,600.0,,OVC,600.0,,,,,,
KRDR,08-27-2007,08:26,SPECI,,360,11,,,9999,,16.0,14.0,29.80,1010.2,,,,,,,,,,,,,,,8/8 Overcast,600.0,,OVC,800.0,,,,,,
KRDR,08-27-2007,08:18,SPECI,,10,10,,,9999,,16.0,14.0,29.80,1010.2,,,,,,,,,,,,,,,8/8 Overcast,600.0,,OVC,1400.0,,,,,,
KRDR,08-27-2007,08:16,SPECI,,10,10,,,9999,,16.0,14.0,29.81,1010.3,,,,,,,,,,,,,,,8/8 Overcast,600.0,,OVC,1500.0,,,,,,
KRDR,08-27-2007,08:11,SPECI,,10,13,,,9999,,16.0,14.0,29.80,1010.2,,,,,,,,,,,,,,,8/8 Overcast,700.0,,BKN,700.0,OVC,3300.0,,,,
KRDR,08-27-2007,08:00,METAR,,360,11,,,9999,,16.0,14.0,29.81,1010.3,,,,,,,,,,,,,,,8/8 Overcast,3300.0,,OVC,3400.0,,,,,,
KRDR,08-27-2007,07:00,METAR,,10,7,,,9999,,18.0,15.0,29.80,1010.1,,,,,,,,,,,,,,,8/8 Overcast,3000.0,,OVC,3000.0,,,,,,
KRDR,08-27-2007,06:38,SPECI,,10,10,,,9999,,18.0,15.0,29.79,1009.7,,,,,,,,,,,,,,,8/8 Overcast,2900.0,,OVC,2900.0,,,,,,
KRDR,08-27-2007,06:00,METAR,,350,12,,,9999,,19.0,15.0,29.75,1008.4,,,,,,,,,,,,,1.05 IN,,Clear,72000.0,,,73000.0,,,,,,
KRDR,08-27-2007,05:00,METAR,,300,6,,,9999,,21.0,16.0,29.71,1007.1,,,,,,,,,,,,,,,8/8 Overcast,7500.0,,OVC,7400.0,,,,,,
KRDR,08-27-2007,04:35,SPECI,,140,12,19.0,,9999,,20.0,16.0,29.71,1007.3,,,,,,,,,,,,,,,7/8 Mostly Cloudy,8000.0,,BKN,7900.0,,,,,,
KRDR,08-27-2007,04:00,METAR,,220,11,,,9999,Thunderstorm,21.0,17.0,29.65,1005.1,,,,17,,,,,,,TRACE,,,,Clear,72000.0,,,73000.0,,,,,,
KRDR,08-27-2007,03:22,SPECI,,210,10,,,9999,Thunderstorm,20.0,17.0,29.64,1005.0,,,,17,,,,,,,,,,,Clear,72000.0,,,73000.0,,,,,,
KRDR,08-27-2007,03:00,METAR,,180,15,26.0,140/28KTS,9999,Rain/Thunderstorm,20.0,17.0,29.64,1005.0,,,,17,61,,,,,,.48 IN,1.05 IN,,,4/8 Partly Cloudy,72000.0,,SCT,3500.0,,,,,,
KRDR,08-27-2007,02:36,SPECI,,140,24,28.0,140/28KTS,9999,Rain/Thunderstorm,20.0,17.0,29.62,1004.1,,,,17,63,,,,,,,,,,8/8 Overcast,2400.0,,OVC,4800.0,,,,,,
KRDR,08-27-2007,02:22,SPECI,,160,15,,,8000,Rain/Thunderstorm/Mist,20.0,18.0,29.66,1005.4,,,,17,63,10,,,,,,,,,7/8 Mostly Cloudy,5500.0,,BKN,5400.0,,,,,,
KRDR,08-27-2007,02:09,SPECI,,150,8,,,4800,Rain/Thunderstorm/Mist,20.0,18.0,29.67,1005.8,,,,17,61,10,,,,,,,,,4/8 Partly Cloudy,72000.0,,SCT,4900.0,,,,,,
KRDR,08-27-2007,02:07,SPECI,,,0,,,3200,Rain/Thunderstorm/Mist,20.0,19.0,29.67,1005.9,,,,17,61,10,,,,,,,,,4/8 Partly Cloudy,72000.0,,SCT,4700.0,,,,,,
KRDR,08-27-2007,02:05,SPECI,,,0,,,2400,Rain/Thunderstorm/Mist,20.0,19.0,29.67,1005.9,,,,17,63,10,,,,,,,,,2/8 Mostly Clear,72000.0,,FEW,4400.0,,,,,,
KRDR,08-27-2007,02:04,SPECI,,,0,,,1600,Rain/Thunderstorm/Mist,20.0,19.0,29.67,1006.0,,,,17,63,10,,,,,,,,,2/8 Mostly Clear,72000.0,,FEW,4500.0,,,,,,
KRDR,08-27-2007,02:00,METAR,,170,7,28.0,,1200,Heavy Rain/Thunderstorm,21.0,18.0,29.70,1006.8,,,,17,65,,,,,,,,,,2/8 Mostly Clear,72000.0,,FEW,3700.0,,,,,,
KRDR,08-27-2007,01:55,METAR,,220,9,28.0,,800,Heavy Rain/Thunderstorm,21.0,18.0,29.72,1007.4,,,,17,65,,,,,,,,,,2/8 Mostly Clear,72000.0,,FEW,4700.0,,,,,,
KRDR,08-27-2007,01:53,SPECI,,240,20,28.0,,1200,Heavy Rain/Thunderstorm,21.0,19.0,29.74,1008.1,,,,17,65,,,,,,,,,,4/8 Partly Cloudy,72000.0,,SCT,4400.0,,,,,,
KRDR,08-27-2007,01:47,SPECI,,250,15,26.0,200/37KTS,1600,Heavy Rain/Thunderstorm,23.0,18.0,29.73,1007.9,,,,17,65,,,,,,,,,,4/8 Partly Cloudy,72000.0,,SCT,4800.0,,,,,,
KRDR,08-27-2007,01:41,SPECI,,210,19,36.0,200/37KTS,2000,Heavy Rain/Thunderstorm,24.0,18.0,29.67,1005.8,,,,17,65,,,,,,,,,,7/8 Mostly Cloudy,3200.0,,BKN,4700.0,,,,,,
KRDR,08-27-2007,01:39,SPECI,,210,21,36.0,200/37KTS,2400,Heavy Rain/Thunderstorm,24.0,18.0,29.66,1005.4,,,,65,17,,,,,,,,,,7/8 Mostly Cloudy,4400.0,,BKN,4500.0,,,,,,
KRDR,08-27-2007,01:36,SPECI,,190,28,36.0,200/37KTS,2800,Heavy Rain/Thunderstorm,24.0,19.0,29.65,1005.1,,,,17,65,,,,,,,,,,7/8 Mostly Cloudy,3900.0,,BKN,4000.0,,,,,,
KRDR,08-27-2007,01:32,SPECI,,200,27,37.0,200/37KTS,4000,Rain/Thunderstorm,25.0,22.0,29.63,1004.5,,,,17,63,,,,,,,,,,8/8 Overcast,3600.0,,OVC,3700.0,,,,,,
KRDR,08-27-2007,01:22,SPECI,,210,29,37.0,200/37KTS,9999,Rain/Thunderstorm,26.0,23.0,29.59,1003.1,,,,17,61,,,,,,,,,,7/8 Mostly Cloudy,3000.0,,BKN,3000.0,,,,,,
KRDR,08-27-2007,01:16,SPECI,,210,21,33.0,210/35KTS,9999,Rain/Thunderstorm,27.0,22.0,29.59,1003.2,,,,17,61,,,,,,,,,,7/8 Mostly Cloudy,2100.0,,BKN,2100.0,,,,,,
KRDR,08-27-2007,01:11,SPECI,,210,27,35.0,210/35KTS,9999,Thunderstorm,27.0,22.0,29.58,1003.0,,,,17,,,,,,,,,,,4/8 Partly Cloudy,72000.0,,SCT,1100.0,,,,,,
KRDR,08-27-2007,01:00,METAR,,200,16,25.0,,9999,,29.0,21.0,29.57,1002.5,,,,,,,,,,,,,,,Clear,72000.0,,,73000.0,,,,,,
KRDR,08-27-2007,00:39,SPECI,,190,17,22.0,,9999,,29.0,21.0,29.57,1002.4,,,,,,,,,,,,,,,Clear,72000.0,,,73000.0,,,,,,
KRDR,08-27-2007,00:00,METAR,,210,18,28.0,190/29KTS,9999,,30.0,21.0,29.59,1003.3,,,,,,,,,,,,,,,Clear,72000.0,,,73000.0,,,,,,
KRDR,08-26-2007,23:00,METAR,,180,22,28.0,190/30KTS,9999,,32.0,21.0,29.58,1002.8,,,,,,,,,,,,,,,Clear,72000.0,,,73000.0,,,,,,
KRDR,08-26-2007,22:00,METAR,,180,22,29.0,180/30KTS,9999,,32.0,21.0,29.60,1003.5,,,,,,,,,,,,,,,Clear,72000.0,,,73000.0,,,,,,
KRDR,08-26-2007,21:00,METAR,,190,21,26.0,170/27KTS,9999,,32.0,21.0,29.62,1004.2,,,,,,,,,,,,,,,Clear,72000.0,,,73000.0,,,,,,
KRDR,08-26-2007,20:00,METAR,,170,16,,170/29KTS,9999,,31.0,20.0,29.64,1004.8,,,,,,,,,,,,,,,Clear,72000.0,,,73000.0,,,,,,
KRDR,08-26-2007,19:00,METAR,,180,14,22.0,,9999,,29.0,20.0,29.66,1005.5,,,,,,,,,,,,,,,Clear,72000.0,,,73000.0,,,,,,
KRDR,08-26-2007,18:00,METAR,,180,16,23.0,,9999,,27.0,19.0,29.67,1005.9,,,,,,,,,,,,,,,Clear,72000.0,,,73000.0,,,,,,
KRDR,08-26-2007,17:00,METAR,,180,14,,,9999,,25.0,18.0,29.69,1006.6,,,,,,,,,,,,,,,Clear,72000.0,,,73000.0,,,,,,
KRDR,08-26-2007,16:00,METAR,,180,15,21.0,,9999,,22.0,16.0,29.71,1007.3,,,,,,,,,,,,,,,Clear,72000.0,,,73000.0,,,,,,
KRDR,08-26-2007,15:00,METAR,,180,16,,,9999,,20.0,15.0,29.73,1008.0,,,,,,,,,,,,,,,Clear,72000.0,,,73000.0,,,,,,
KRDR,08-26-2007,14:00,METAR,,160,13,,,9999,,18.0,13.0,29.75,1008.6,,,,,,,,,,,,,,,Clear,72000.0,,,73000.0,,,,,,
KRDR,08-26-2007,13:00,METAR,,160,8,,,9999,,14.0,12.0,29.78,1009.4,,,,,,,,,,,,,,,Clear,72000.0,,,73000.0,,,,,,
KRDR,08-26-2007,12:00,METAR,,160,9,,,9999,,13.0,11.0,29.79,1009.8,,,,,,,,,,,,,,,Clear,72000.0,,,73000.0,,,,,,
KRDR,08-26-2007,11:00,METAR,,150,9,,,9999,,12.0,10.0,29.80,1010.2,,,,,,,,,,,,,,,Clear,72000.0,,,73000.0,,,,,,
KRDR,08-26-2007,10:00,METAR,,160,8,,,9999,,12.0,10.0,29.83,1011.2,,,,,,,,,,,,,,,Clear,72000.0,,,73000.0,,,,,,
KRDR,08-26-2007,09:00,METAR,,150,7,,,9999,,13.0,11.0,29.85,1011.7,,,,,,,,,,,,,,,Clear,72000.0,,,73000.0,,,,,,
KRDR,08-26-2007,08:00,METAR,,160,7,,,9999,,13.0,10.0,29.86,1012.1,,,,,,,,,,,,,,,Clear,72000.0,,,73000.0,,,,,,
KRDR,08-26-2007,07:00,METAR,,170,7,,,9999,,14.0,11.0,29.87,1012.4,,,,,,,,,,,,,,,7/8 Mostly Cloudy,4400.0,,BKN,4500.0,,,,,,
KRDR,08-26-2007,06:00,METAR,,180,6,,,9999,,12.0,10.0,29.88,1012.9,,,,,,,,,,,,,,,Clear,72000.0,,,73000.0,,,,,,
KRDR,08-26-2007,05:00,METAR,,190,7,,,9999,,13.0,10.0,29.89,1013.0,,,,,,,,,,,,,,,Clear,72000.0,,,73000.0,,,,,,
KRDR,08-26-2007,04:00,METAR,,190,8,,,9999,,15.0,10.0,29.89,1013.2,,,,,,,,,,,,,,,Clear,72000.0,,,73000.0,,,,,,
KRDR,08-26-2007,03:00,METAR,,150,7,,,9999,,17.0,9.0,29.90,1013.5,,,,,,,,,,,,,,,Clear,72000.0,,,73000.0,,,,,,
KRDR,08-26-2007,02:00,METAR,,150,8,,,9999,,18.0,9.0,29.90,1013.3,,,,,,,,,,,,,,,Clear,72000.0,,,73000.0,,,,,,
KRDR,08-26-2007,01:00,METAR,,150,8,,,9999,,20.0,8.0,29.90,1013.4,,,,,,,,,,,,,,,Clear,72000.0,,,73000.0,,,,,,
KRDR,08-26-2007,00:00,METAR,,180,7,,,9999,,23.0,7.0,29.91,1013.8,,,,,,,,,,,,,,,Clear,72000.0,,,73000.0,,,,,,
KRDR,08-25-2007,23:00,METAR,,180,9,,,9999,,22.0,7.0,29.93,1014.3,,,,,,,,,,,,,,,Clear,72000.0,,,73000.0,,,,,,
KRDR,08-25-2007,22:00,METAR,,240,7,,,9999,,24.0,7.0,29.94,1014.8,,,,,,,,,,,,,,,Clear,72000.0,,,73000.0,,,,,,
KRDR,08-25-2007,21:00,METAR,,,5,,,9999,,23.0,7.0,29.95,1015.2,,,,,,,,,,,,,,,Clear,72000.0,,,73000.0,,,,,,
KRDR,08-25-2007,20:00,METAR,,,5,,,9999,,23.0,7.0,29.96,1015.5,,,,,,,,,,,,,,,Clear,72000.0,,,73000.0,,,,,,
KRDR,08-25-2007,19:00,METAR,,,0,,,9999,,22.0,7.0,29.98,1016.2,,,,,,,,,,,,,,,Clear,72000.0,,,73000.0,,,,,,
KRDR,08-25-2007,18:00,METAR,,240,7,,,9999,,21.0,9.0,30.00,1016.8,,,,,,,,,,,,,,,Clear,72000.0,,,73000.0,,,,,,
KRDR,08-25-2007,17:00,METAR,,210,7,,,9999,,20.0,8.0,30.02,1017.5,,,,,,,,,,,,,,,4/8 Partly Cloudy,72000.0,,SCT,4600.0,SCT,25000.0,,,,
KRDR,08-25-2007,16:00,METAR,,,3,,,9999,,19.0,11.0,30.03,1017.6,,,,,,,,,,,,,,,Clear,72000.0,,,73000.0,,,,,,
KRDR,08-25-2007,15:00,METAR,,290,4,,,9999,,18.0,11.0,30.04,1018.0,,,,,,,,,,,,,,,Clear,72000.0,,,73000.0,,,,,,
KRDR,08-25-2007,14:00,METAR,,,3,,,9999,,15.0,12.0,30.03,1011.7,,,,,,,,,,,,,,,Clear,72000.0,,,73000.0,,,,,,
KRDR,08-25-2007,13:55,METAR,,240,3,,,9999,,15.0,12.0,30.03,1017.7,,,,,,,,,,,,,,,Clear,72000.0,,,73000.0,,,,,,
KRDR,08-25-2007,13:00,METAR,,,0,,,9999,,10.0,9.0,30.02,1017.5,,,,,,,,,,,,,,,Clear,72000.0,,,73000.0,,,,,,
KRDR,08-25-2007,12:00,METAR,,220,3,,,9999,,8.0,8.0,30.02,1017.4,,,,,,,,,,,,,,,Clear,72000.0,,,73000.0,,,,,,
KRDR,08-25-2007,11:08,SPECI,,,0,,,9999,,7.0,7.0,30.01,1017.0,,,,,,,,,,,,,,,Clear,72000.0,,,73000.0,,,,,,
KRDR,08-25-2007,11:05,SPECI,,270,2,,,4800,Mist,7.0,7.0,30.01,1017.0,10,,,,,,,,,,,,,,Clear,72000.0,,,73000.0,,,,,,
KRDR,08-25-2007,11:03,SPECI,,270,2,,,2800,Mist,7.0,7.0,30.01,1017.0,10,,,,,,,,,,,,,,Clear,72000.0,,,73000.0,,,,,,
KRDR,08-25-2007,11:01,SPECI,,270,3,,,1600,Mist,7.0,7.0,30.01,1017.0,10,,,,,,,,,,,,,,Clear,72000.0,,,73000.0,,,,,,
KRDR,08-25-2007,11:00,METAR,,270,3,,,400,Fog,7.0,7.0,30.01,1017.0,30,,,,,,,,,,,,,,Clear,72000.0,,,73000.0,,,,,,
KRDR,08-25-2007,10:54,SPECI,,270,3,,,800,Fog,7.0,7.0,30.01,1017.0,30,,,,,,,,,,,,,,Clear,72000.0,,,73000.0,,,,,,
KRDR,08-25-2007,10:37,SPECI,,280,2,,,400,Fog,7.0,7.0,30.01,1016.9,30,,,,,,,,,,,,,,Clear,72000.0,,,73000.0,,,,,,
KRDR,08-25-2007,10:35,SPECI,,280,2,,,800,Fog,7.0,7.0,30.00,1016.9,30,,,,,,,,,,,,,,Clear,72000.0,,,73000.0,,,,,,
KRDR,08-25-2007,10:30,METAR,,,0,,,800,Fog,7.0,7.0,30.00,1016.8,30,,,,,,,,,,,,,,Clear,72000.0,,,73000.0,,,,,,
KRDR,08-25-2007,10:28,SPECI,,,0,,,1200,Mist,7.0,7.0,30.00,1016.8,10,,,,,,,,,,,,,,Clear,72000.0,,,73000.0,,,,,,
KRDR,08-25-2007,10:26,SPECI,,,0,,,2000,Mist,7.0,7.0,30.00,1016.8,10,,,,,,,,,,,,,,Clear,72000.0,,,73000.0,,,,,,
KRDR,08-25-2007,10:25,METAR,,,0,,,2800,Mist,7.0,7.0,30.00,1016.8,10,,,,,,,,,,,,,,Clear,72000.0,,,73000.0,,,,,,
KRDR,08-25-2007,10:01,SPECI,,260,3,,,9999,Mist,8.0,8.0,30.00,1016.9,10,,,,,,,,,,,,,,Clear,72000.0,,,73000.0,,,,,,
KRDR,08-25-2007,10:00,METAR,,270,3,,,2000,Mist,9.0,8.0,30.00,1016.8,10,,,,,,,,,,,,,,Clear,72000.0,,,73000.0,,,,,,
KRDR,08-25-2007,09:53,SPECI,,260,3,,,2400,Mist,9.0,8.0,30.00,1016.8,10,,,,,,,,,,,,,,Clear,72000.0,,,73000.0,,,,,,
KRDR,08-25-2007,09:49,SPECI,,,0,,,1600,Mist,9.0,8.0,30.00,1016.8,10,,,,,,,,,,,,,,Clear,72000.0,,,73000.0,,,,,,
KRDR,08-25-2007,09:43,SPECI,,,0,,,1200,Mist,9.0,8.0,30.00,1016.7,10,,,,,,,,,,,,,,Clear,72000.0,,,73000.0,,,,,,
KRDR,08-25-2007,09:40,SPECI,,280,2,,,1600,Mist,9.0,8.0,30.00,1016.7,10,,,,,,,,,,,,,,Clear,72000.0,,,73000.0,,,,,,
KRDR,08-25-2007,09:38,SPECI,,290,3,,,2000,Mist,9.0,8.0,30.00,1016.7,10,,,,,,,,,,,,,,Clear,72000.0,,,73000.0,,,,,,
KRDR,08-25-2007,09:37,SPECI,,290,3,,,2400,Mist,9.0,8.0,30.00,1016.7,10,,,,,,,,,,,,,,Clear,72000.0,,,73000.0,,,,,,
KRDR,08-25-2007,09:34,SPECI,,290,3,,,4000,Mist,9.0,8.0,30.00,1016.6,10,,,,,,,,,,,,,,Clear,72000.0,,,73000.0,,,,,,
KRDR,08-25-2007,09:22,SPECI,,,0,,,8000,Mist,9.0,9.0,30.00,1016.6,10,,,,,,,,,,,,,,Clear,72000.0,,,73000.0,,,,,,
KRDR,08-25-2007,09:17,SPECI,,,0,,,8000,Mist,10.0,9.0,30.00,1016.7,10,,,,,,,,,,,,,,Clear,72000.0,,,73000.0,,,,,,
KRDR,08-25-2007,09:00,METAR,,,0,,,9999,,11.0,10.0,29.99,1016.5,,,,,,,,,,,,,,,2/8 Mostly Clear,72000.0,,FEW,6400.0,,,,,,
KRDR,08-25-2007,08:00,METAR,,310,4,,,9999,,12.0,11.0,30.00,1016.7,,,,,,,,,,,,,,,7/8 Mostly Cloudy,7500.0,,BKN,7400.0,,,,,,
KRDR,08-25-2007,07:00,METAR,,320,2,,,9999,,12.0,10.0,30.00,1016.6,,,,,,,,,,,,,,,7/8 Mostly Cloudy,8000.0,,BKN,7900.0,,,,,,
KRDR,08-25-2007,06:00,METAR,,,0,,,9999,,12.0,10.0,30.01,1016.9,,,,,,,,,,,,,,,8/8 Overcast,7500.0,,OVC,7400.0,,,,,,
KRDR,08-25-2007,05:00,METAR,,300,4,,,9999,,12.0,10.0,30.01,1017.1,,,,,,,,,,,,,,,8/8 Overcast,8000.0,,OVC,7900.0,,,,,,
KRDR,08-25-2007,04:00,METAR,,,0,,,9999,,14.0,11.0,30.01,1017.1,,,,,,,,,,,,,,,7/8 Mostly Cloudy,8000.0,,BKN,7900.0,,,,,,
KRDR,08-25-2007,03:00,METAR,,10,3,,,9999,,14.0,11.0,30.00,1016.8,,,,,,,,,,,,,,,7/8 Mostly Cloudy,8000.0,,BKN,7900.0,BKN,25000.0,,,,
KRDR,08-25-2007,02:00,METAR,,20,4,,,9999,,14.0,11.0,29.99,1016.3,,,,,,,,,,,,,,,7/8 Mostly Cloudy,8000.0,,BKN,7900.0,BKN,25000.0,,,,
KRDR,08-25-2007,01:00,METAR,,30,5,,,9999,,17.0,11.0,29.97,1015.7,,,,,,,,,,,,,,,8/8 Overcast,8000.0,,FEW,4500.0,BKN,7900.0,BKN,12000.0,OVC,25000.0
KRDR,08-25-2007,00:00,METAR,,10,8,,,9999,,19.0,11.0,29.96,1015.5,,,,,,,,,,,,,,,8/8 Overcast,8000.0,,FEW,3500.0,BKN,7900.0,BKN,12000.0,OVC,25000.0
KRDR,08-24-2007,23:00,METAR,,350,6,,,9999,,19.0,11.0,29.96,1015.4,,,,,,,,,,,,,,,8/8 Overcast,8000.0,,FEW,5000.0,OVC,7900.0,,,,
KRDR,08-24-2007,22:00,METAR,,320,5,,,9999,,19.0,10.0,29.95,1015.0,,,,,,,,,,,,,,,8/8 Overcast,8000.0,,FEW,5000.0,OVC,7900.0,,,,
KRDR,08-24-2007,21:00,METAR,,280,5,,,9999,,18.0,10.0,29.95,1015.2,,,,,,,,,,,,,,,8/8 Overcast,4900.0,,BKN,5000.0,OVC,7900.0,,,,
KRDR,08-24-2007,20:48,SPECI,,290,7,,,9999,Rain,18.0,11.0,29.95,,,,,61,,,,,,,,,,,8/8 Overcast,4900.0,,BKN,5000.0,OVC,7900.0,,,,
KRDR,08-24-2007,20:00,METAR,,,3,,,9999,,19.0,10.0,29.95,1015.0,,,,,,,,,,,,,,,8/8 Overcast,8000.0,,SCT,5000.0,OVC,7900.0,,,,
KRDR,08-24-2007,19:00,METAR,,290,6,,,9999,,20.0,9.0,29.95,1015.0,,,,,,,,,,,,,,,7/8 Mostly Cloudy,7500.0,,SCT,3000.0,BKN,7400.0,,,,
KRDR,08-24-2007,18:00,METAR,,310,7,,,9999,,18.0,11.0,29.97,1015.7,,,,,,,,,,,,,,,8/8 Overcast,7500.0,,SCT,3000.0,OVC,7400.0,,,,
KRDR,08-24-2007,17:00,METAR,,,0,,,9999,,18.0,10.0,29.98,1016.2,,,,,,,,,,,,,,,8/8 Overcast,7500.0,,FEW,3000.0,OVC,7400.0,,,,
KRDR,08-24-2007,16:00,METAR,,330,4,,,9999,,17.0,11.0,29.99,1016.3,,,,,,,,,,,,,,,8/8 Overcast,6500.0,,OVC,6400.0,,,,,,
KRDR,08-24-2007,15:00,METAR,,340,3,,,9999,,16.0,11.0,29.97,1015.8,,,,,,,,,,,,,,,8/8 Overcast,6500.0,,OVC,6400.0,,,,,,
KRDR,08-24-2007,14:00,METAR,,350,5,,,9999,,15.0,11.0,29.96,1015.5,,,,,,,,,,,,,,,8/8 Overcast,6500.0,,OVC,6400.0,,,,,,
KRDR,08-24-2007,13:00,METAR,,350,5,,,9999,,14.0,11.0,29.95,1015.1,,,,,,,,,,,,,,,7/8 Mostly Cloudy,6500.0,,BKN,6400.0,,,,,,
KRDR,08-24-2007,12:00,METAR,,310,4,,,9999,,12.0,10.0,29.94,1014.7,,,,,,,,,,,,,,.02 IN,8/8 Overcast,6500.0,,FEW,4500.0,OVC,6400.0,,,,
KRDR,08-24-2007,11:00,METAR,,280,3,,,9999,,12.0,10.0,29.93,1014.6,,,,,,,,,,,,,,,7/8 Mostly Cloudy,6500.0,,SCT,4500.0,BKN,6400.0,,,,
KRDR,08-24-2007,10:00,METAR,,310,5,,,9999,,12.0,10.0,29.91,1013.8,,,,,,,,,,,,,,,7/8 Mostly Cloudy,5500.0,,BKN,5400.0,,,,,,
KRDR,08-24-2007,09:00,METAR,,310,4,,,9999,,12.0,10.0,29.91,1013.6,,,,,,,,,,,,,,,7/8 Mostly Cloudy,3900.0,,BKN,4000.0,,,,,,
KRDR,08-24-2007,08:00,METAR,,310,4,,,9999,,13.0,11.0,29.91,1013.6,,,,,,,,,,,,,,,8/8 Overcast,6000.0,,OVC,5900.0,,,,,,
KRDR,08-24-2007,07:00,METAR,,310,4,,,9999,,13.0,11.0,29.90,1013.5,,,,,,,,,,,,,,,8/8 Overcast,4100.0,,OVC,4200.0,,,,,,
KRDR,08-24-2007,06:00,METAR,,320,5,,,9999,,13.0,11.0,29.90,1013.5,,,,,,,,,,,,,,,7/8 Mostly Cloudy,6000.0,,FEW,4100.0,BKN,5900.0,,,,
KRDR,08-24-2007,05:00,METAR,,290,5,,,9999,,12.0,10.0,29.90,1013.6,,,,,,,,,,,,,,,7/8 Mostly Cloudy,4800.0,,BKN,4900.0,,,,,,
KRDR,08-24-2007,04:00,METAR,,290,6,,,9999,,14.0,11.0,29.91,1013.7,,,,,,,,,,,,,,,4/8 Partly Cloudy,72000.0,,SCT,5900.0,,,,,,
KRDR,08-24-2007,03:00,METAR,,290,5,,,9999,,16.0,12.0,29.91,1013.7,,,,,,,,,,,,,,,7/8 Mostly Cloudy,7000.0,,SCT,5400.0,BKN,6900.0,,,,
KRDR,08-24-2007,02:00,METAR,,290,4,,,9999,,17.0,12.0,29.89,1013.3,,,,,,,,,,,,,,,7/8 Mostly Cloudy,4100.0,,BKN,4200.0,BKN,5400.0,,,,
KRDR,08-24-2007,01:00,METAR,,310,6,,,9999,,19.0,11.0,29.88,1012.9,,,,,,,,,,,,,,,7/8 Mostly Cloudy,3800.0,,BKN,3900.0,BKN,5200.0,,,,
KRDR,08-24-2007,00:00,METAR,,300,9,,,9999,,20.0,11.0,29.87,1012.6,,,,,,,,,,,,,,,7/8 Mostly Cloudy,4000.0,,BKN,4100.0,,,,,,
KRDR,08-23-2007,23:00,METAR,,290,10,,,9999,,20.0,11.0,29.87,1012.6,,,,,,,,,,,,,,,7/8 Mostly Cloudy,4600.0,,SCT,3700.0,BKN,4700.0,,,,
KRDR,08-23-2007,22:00,METAR,,310,6,,,9999,,19.0,11.0,29.87,1012.5,,,,,,,,,,,,,,,7/8 Mostly Cloudy,3600.0,,BKN,3700.0,,,,,,
KRDR,08-23-2007,21:00,METAR,,330,8,,,9999,,19.0,11.0,29.86,1012.1,,,,,,,,,,,,,,,7/8 Mostly Cloudy,3200.0,,BKN,3300.0,,,,,,
KRDR,08-23-2007,20:00,METAR,,330,12,16.0,,9999,,20.0,11.0,29.86,1012.0,,,,,,,,,,,,,,,7/8 Mostly Cloudy,3500.0,,BKN,3600.0,,,,,,
KRDR,08-23-2007,19:00,METAR,,310,8,,,9999,,19.0,11.0,29.86,1012.1,,,,,,,,,,,,,,,7/8 Mostly Cloudy,10000.0,,SCT,3200.0,BKN,9900.0,,,,
KRDR,08-23-2007,18:00,METAR,,290,9,,,9999,,19.0,11.0,29.87,1012.3,,,,,,,,,,,,,.02 IN,,7/8 Mostly Cloudy,10000.0,,SCT,3000.0,BKN,9900.0,BKN,25000.0,,
KRDR,08-23-2007,17:00,METAR,,290,8,,,9999,,17.0,11.0,29.89,1013.0,,,,,,,,,,,,,,,7/8 Mostly Cloudy,11000.0,,SCT,2200.0,BKN,11000.0,BKN,25000.0,,
KRDR,08-23-2007,16:00,METAR,,310,7,,,9999,,15.0,11.0,29.89,1013.2,,,,,,,,,,,,,,,7/8 Mostly Cloudy,12000.0,,BKN,12000.0,BKN,25000.0,,,,
KRDR,08-23-2007,15:00,METAR,,290,5,,,9999,,15.0,11.0,29.90,1013.4,,,,,,,,,,,,.02 IN,,,7/8 Mostly Cloudy,12000.0,,BKN,12000.0,BKN,25000.0,,,,
KRDR,08-23-2007,14:00,METAR,,290,4,,,9999,,14.0,11.0,29.89,1013.1,,,,,,,,,,,,,,,7/8 Mostly Cloudy,12000.0,,SCT,8900.0,BKN,12000.0,BKN,25000.0,,
KRDR,08-23-2007,13:00,METAR,,,0,,,9999,,,,29.89,1012.7,,,,,,,,,,,.02 IN,,,,7/8 Mostly Cloudy,12000.0,,SCT,8900.0,BKN,12000.0,BKN,25000.0,,
KRDR,08-23-2007,12:00,METAR,,340,3,,,9999,,11.0,9.0,29.85,1011.7,,,,,,,,,,,,,,,7/8 Mostly Cloudy,25000.0,,SCT,12000.0,BKN,25000.0,,,,
KRDR,08-23-2007,11:00,METAR,,,0,,,9999,,12.0,10.0,29.83,1011.3,,,,,,,,,,,,,,,7/8 Mostly Cloudy,22000.0,,FEW,9900.0,BKN,22000.0,,,,
KRDR,08-23-2007,10:00,METAR,,310,3,,,9999,,10.0,9.0,29.83,1011.2,,,,,,,,,,,,,,,4/8 Partly Cloudy,72000.0,,SCT,22000.0,,,,,,
KRDR,08-23-2007,09:00,METAR,,300,4,,,9999,,10.0,9.0,29.82,1010.7,,,,,,,,,,,,,,,Clear,72000.0,,,73000.0,,,,,,
KRDR,08-23-2007,08:00,METAR,,,0,,,9999,,11.0,9.0,29.83,1011.2,,,,,,,,,,,,,,,Clear,72000.0,,,73000.0,,,,,,
KRDR,08-23-2007,07:00,METAR,,300,5,,,9999,,14.0,10.0,29.83,1011.2,,,,,,,,,,,,,,,Clear,72000.0,,,73000.0,,,,,,
KRDR,08-23-2007,06:00,METAR,,310,6,,,9999,,14.0,11.0,29.82,1010.8,,,,,,,,,,,,,,,Clear,72000.0,,,73000.0,,,,,,
KRDR,08-23-2007,05:00,METAR,,300,8,,,9999,,16.0,11.0,29.81,1010.3,,,,,,,,,,,,,,,Clear,72000.0,,,73000.0,,,,,,
KRDR,08-23-2007,04:00,METAR,,270,6,,,9999,,15.0,11.0,29.82,1010.6,,,,,,,,,,,,,,,Clear,72000.0,,,73000.0,,,,,,
KRDR,08-23-2007,03:00,METAR,,240,4,,,9999,,16.0,12.0,29.81,1010.4,,,,,,,,,,,,,,,2/8 Mostly Clear,72000.0,,FEW,18000.0,,,,,,
KRDR,08-23-2007,02:00,METAR,,230,3,,,9999,,19.0,12.0,29.79,1010.0,,,,,,,,,,,,,,,2/8 Mostly Clear,72000.0,,FEW,5000.0,FEW,18000.0,,,,
KRDR,08-23-2007,01:00,METAR,,310,4,,,9999,,23.0,12.0,29.78,1009.6,,,,,,,,,,,,,,,2/8 Mostly Clear,72000.0,,FEW,12000.0,,,,,,
KRDR,08-23-2007,00:00,METAR,,280,6,,,9999,,27.0,10.0,29.80,1010.0,,,,,,,,,,,,,,,2/8 Mostly Clear,72000.0,,FEW,7900.0,,,,,,
KRDR,08-22-2007,23:00,METAR,,260,13,16.0,,9999,,27.0,9.0,29.79,1009.8,,,,,,,,,,,,,,,2/8 Mostly Clear,72000.0,,FEW,5000.0,FEW,25000.0,,,,
KRDR,08-22-2007,22:00,METAR,,270,17,23.0,,9999,,28.0,9.0,29.81,1010.6,,,,,,,,,,,,,,,4/8 Partly Cloudy,72000.0,,SCT,5000.0,,,,,,
KRDR,08-22-2007,21:00,METAR,,260,15,20.0,,9999,,28.0,10.0,29.83,1011.0,,,,,,,,,,,,,,,2/8 Mostly Clear,72000.0,,FEW,6900.0,,,,,,
KRDR,08-22-2007,20:00,METAR,,270,14,20.0,,9999,,27.0,10.0,29.83,1011.2,,,,,,,,,,,,,,,Clear,72000.0,,,73000.0,,,,,,
KRDR,08-22-2007,19:00,METAR,,290,15,19.0,,9999,,27.0,10.0,29.83,1011.0,,,,,,,,,,,,,,,Clear,72000.0,,,73000.0,,,,,,
KRDR,08-22-2007,18:00,METAR,,290,16,23.0,,9999,,27.0,10.0,29.81,1010.6,,,,,,,,,,,,,,,Clear,72000.0,,,73000.0,,,,,,
KRDR,08-22-2007,17:00,METAR,,280,11,18.0,,9999,,27.0,11.0,29.81,1010.6,,,,,,,,,,,,,,,Clear,72000.0,,,73000.0,,,,,,
KRDR,08-22-2007,16:00,METAR,,270,12,,,9999,,25.0,11.0,29.82,1010.7,,,,,,,,,,,,,,,Clear,72000.0,,,73000.0,,,,,,
KRDR,08-22-2007,15:00,METAR,,260,12,,,9999,,22.0,12.0,29.81,1010.5,,,,,,,,,,,,,,,Clear,72000.0,,,73000.0,,,,,,
KRDR,08-22-2007,14:00,METAR,,260,10,,,9999,,19.0,11.0,29.81,1010.5,,,,,,,,,,,,,,,Clear,72000.0,,,73000.0,,,,,,
KRDR,08-22-2007,13:00,METAR,,240,9,,,9999,,18.0,11.0,29.81,1010.4,,,,,,,,,,,,,,,Clear,72000.0,,,73000.0,,,,,,
KRDR,08-22-2007,12:00,METAR,,260,11,,,9999,,16.0,11.0,29.80,1010.2,,,,,,,,,,,,,,,Clear,72000.0,,,73000.0,,,,,,
KRDR,08-22-2007,11:00,METAR,,240,7,,,9999,,16.0,12.0,29.80,1010.1,,,,,,,,,,,,,,,Clear,72000.0,,,73000.0,,,,,,
KRDR,08-22-2007,10:00,METAR,,230,11,,,9999,,17.0,12.0,29.80,1010.2,,,,,,,,,,,,,,,Clear,72000.0,,,73000.0,,,,,,
KRDR,08-22-2007,09:00,METAR,,220,12,,,9999,,17.0,13.0,29.81,1010.4,,,,,,,,,,,,,,,Clear,72000.0,,,73000.0,,,,,,
KRDR,08-22-2007,08:00,METAR,,200,12,,,9999,,18.0,13.0,29.81,1010.5,,,,,,,,,,,,,,,2/8 Mostly Clear,72000.0,,FEW,11000.0,,,,,,
KRDR,08-22-2007,07:00,METAR,,230,9,,,9999,,18.0,13.0,29.81,1010.5,,,,,,,,,,,,,,,4/8 Partly Cloudy,72000.0,,SCT,11000.0,,,,,,
KRDR,08-22-2007,06:00,METAR,,210,13,,,9999,,17.0,13.0,29.81,1010.5,,,,,,,,,,,,,,,2/8 Mostly Clear,72000.0,,FEW,9900.0,,,,,,
KRDR,08-22-2007,05:00,METAR,,210,11,,,9999,,17.0,13.0,29.81,1010.4,,,,,,,,,,,,,,,Clear,72000.0,,,73000.0,,,,,,
KRDR,08-22-2007,04:00,METAR,,210,10,,,9999,,18.0,15.0,29.79,1009.9,,,,,,,,,,,,,,,Clear,72000.0,,,73000.0,,,,,,
KRDR,08-22-2007,03:00,METAR,,200,10,,,9999,,19.0,14.0,29.79,1009.8,,,,,,,,,,,,,,,2/8 Mostly Clear,72000.0,,FEW,9900.0,,,,,,
KRDR,08-22-2007,02:00,METAR,,190,6,,,9999,,19.0,12.0,29.79,1009.8,,,,,,,,,,,,,,,2/8 Mostly Clear,72000.0,,FEW,9900.0,,,,,,
KRDR,08-22-2007,01:00,METAR,,210,8,,,9999,,23.0,13.0,29.78,1009.6,,,,,,,,,,,,,,,2/8 Mostly Clear,72000.0,,FEW,9900.0,,,,,,
KRDR,08-22-2007,00:00,METAR,,230,10,,,9999,,25.0,12.0,29.78,1009.5,,,,,,,,,,,,,TRACE,,2/8 Mostly Clear,72000.0,,FEW,9900.0,,,,,,
KRDR,08-21-2007,23:00,METAR,,240,15,,,9999,,26.0,10.0,29.79,1009.7,,,,,,,,,,,,,,,2/8 Mostly Clear,72000.0,,FEW,9900.0,,,,,,
KRDR,08-21-2007,22:00,METAR,,220,12,18.0,,9999,,27.0,11.0,29.78,1009.6,,,,,,,,,,,,,,,4/8 Partly Cloudy,72000.0,,SCT,9900.0,,,,,,
KRDR,08-21-2007,21:00,METAR,,230,13,,,9999,,26.0,11.0,29.80,1010.0,,,,,,,,,,,,TRACE,,,4/8 Partly Cloudy,72000.0,,SCT,9900.0,,,,,,
KRDR,08-21-2007,20:00,METAR,,230,10,,,9999,,23.0,12.0,29.81,1010.5,,,,,,,,,,,,,,,4/8 Partly Cloudy,72000.0,,SCT,9900.0,,,,,,
KRDR,08-21-2007,19:00,METAR,,230,8,,,9999,,20.0,12.0,29.81,1010.4,,,,,,,,,,,TRACE,,,,7/8 Mostly Cloudy,9500.0,,BKN,9400.0,,,,,,
KRDR,08-21-2007,18:00,METAR,,240,13,18.0,,9999,,20.0,12.0,29.81,1010.3,,,,,,,,,,,,,,,7/8 Mostly Cloudy,10000.0,,BKN,9900.0,,,,,,
KRDR,08-21-2007,17:00,METAR,,240,16,21.0,,9999,,21.0,13.0,29.80,1010.1,,,,,,,,,,,,,,,7/8 Mostly Cloudy,10000.0,,SCT,7900.0,BKN,9900.0,,,,
KRDR,08-21-2007,16:00,METAR,,210,5,,,9999,,21.0,15.0,29.80,1010.2,,,,,,,,,,,,,,,8/8 Overcast,10000.0,,SCT,7900.0,OVC,9900.0,,,,
KRDR,08-21-2007,15:00,METAR,,200,6,,,9999,,20.0,15.0,29.80,1010.0,,,,,,,,,,,,,,,8/8 Overcast,12000.0,,SCT,7900.0,OVC,12000.0,,,,
KRDR,08-21-2007,14:00,METAR,,240,7,,,9999,,19.0,15.0,29.80,1010.0,,,,,,,,,,,,,,,7/8 Mostly Cloudy,25000.0,,SCT,12000.0,BKN,25000.0,,,,
KRDR,08-21-2007,13:00,METAR,,190,4,,,9999,,16.0,16.0,29.78,1009.4,,,,,,,,,,,,,,,4/8 Partly Cloudy,72000.0,,SCT,12000.0,SCT,25000.0,,,,
KRDR,08-21-2007,12:00,METAR,,200,5,,,9999,,16.0,16.0,29.77,1009.0,,,,,,,,,,,,,,.02 IN,7/8 Mostly Cloudy,12000.0,,BKN,12000.0,,,,,,
KRDR,08-21-2007,11:00,METAR,,200,6,,,9999,,17.0,17.0,29.77,1009.1,,,,,,,,,,,,,,,7/8 Mostly Cloudy,700.0,,BKN,700.0,BKN,9900.0,,,,
KRDR,08-21-2007,10:11,SPECI,,200,8,,,9999,,18.0,17.0,29.76,1008.8,,,,,,,,,,,,,,,7/8 Mostly Cloudy,300.0,,BKN,700.0,,,,,,
KRDR,08-21-2007,10:00,METAR,,190,5,,,9999,Mist,18.0,17.0,29.76,1008.9,,,,10,,,,,,,,,,,8/8 Overcast,500.0,,OVC,500.0,,,,,,
KRDR,08-21-2007,09:50,METAR,,200,6,,,9999,Mist,18.0,17.0,29.76,1008.9,,,,10,,,,,,,,,,,8/8 Overcast,500.0,,OVC,500.0,,,,,,
KRDR,08-21-2007,09:10,SPECI,,200,9,,,9999,Mist,18.0,17.0,29.77,1009.3,,,,10,,,,,,,,,,,8/8 Overcast,400.0,,OVC,400.0,,,,,,
KRDR,08-21-2007,09:00,METAR,,200,8,,,8000,Mist,18.0,17.0,29.77,1009.1,,,,10,,,,,,,,,,,Sky Obscured (Unable to Estimate),500.0,100.0,,500.0,,,,,,
KRDR,08-21-2007,08:29,SPECI,,200,8,,,6400,Mist,18.0,17.0,29.77,1009.0,,,,10,,,,,,,,,,,Sky Obscured (Unable to Estimate),500.0,100.0,,500.0,,,,,,
KRDR,08-21-2007,08:00,METAR,,210,6,,,9999,,18.0,17.0,29.76,1008.8,,,,,,,,,,,,,,,8/8 Overcast,300.0,,OVC,300.0,,,,,,
KRDR,08-21-2007,07:24,SPECI,,210,6,,,9999,,18.0,17.0,29.77,1009.0,,,,,,,,,,,,,,,8/8 Overcast,300.0,,OVC,300.0,,,,,,
KRDR,08-21-2007,07:00,METAR,,190,6,,,9999,,18.0,17.0,29.77,1009.0,,,,,,,,,,,,,,,8/8 Overcast,400.0,,OVC,400.0,,,,,,
KRDR,08-21-2007,06:24,SPECI,,180,6,,,9999,,18.0,17.0,29.77,1009.1,,,,,,,,,,,,,,,8/8 Overcast,400.0,,OVC,400.0,,,,,,
KRDR,08-21-2007,06:16,SPECI,,180,7,,,9999,,18.0,17.0,29.77,1009.2,,,,,,,,,,,,,,,8/8 Overcast,500.0,,OVC,500.0,,,,,,
KRDR,08-21-2007,06:00,METAR,,190,6,,,9999,,18.0,17.0,29.78,1009.4,,,,,,,,,,,,,.01 IN,,8/8 Overcast,700.0,,OVC,700.0,,,,,,
KRDR,08-21-2007,05:33,SPECI,,190,6,,,9999,,18.0,17.0,29.77,1009.2,,,,,,,,,,,,,,,8/8 Overcast,700.0,,OVC,700.0,,,,,,
KRDR,08-21-2007,05:00,METAR,,210,7,,,9999,,18.0,17.0,29.77,1009.0,,,,,,,,,,,,,,,8/8 Overcast,500.0,,OVC,500.0,,,,,,
KRDR,08-21-2007,04:26,SPECI,,200,7,,,9999,,18.0,17.0,29.76,1008.9,,,,,,,,,,,,,,,8/8 Overcast,500.0,,OVC,500.0,,,,,,
KRDR,08-21-2007,04:10,SPECI,,200,7,,,9999,,18.0,17.0,29.77,1009.1,,,,,,,,,,,,,,,8/8 Overcast,600.0,,OVC,600.0,,,,,,
KRDR,08-21-2007,04:00,METAR,,190,8,,,9999,,18.0,17.0,29.77,1009.0,,,,,,,,,,,,,,,8/8 Overcast,600.0,,OVC,600.0,,,,,,
KRDR,08-21-2007,03:00,METAR,,170,6,,,9999,,18.0,17.0,29.77,1009.2,,,,,,,,,,,,.01 IN,,,8/8 Overcast,500.0,,OVC,500.0,,,,,,
KRDR,08-21-2007,02:00,METAR,,170,6,,,9999,Mist,18.0,17.0,29.76,1008.9,,,,10,,,,,,,,,,,8/8 Overcast,300.0,,OVC,400.0,,,,,,
KRDR,08-21-2007,01:31,SPECI,,160,6,,,8000,Mist,18.0,17.0,29.76,,,,,10,,,,,,,,,,,8/8 Overcast,400.0,,OVC,400.0,,,,,,
KRDR,08-21-2007,01:00,METAR,,150,7,,,4800,Drizzle/Mist,17.0,17.0,29.76,1008.9,,,,51,10,,,,,,.01 IN,,,,8/8 Overcast,300.0,,OVC,400.0,,,,,,
KRDR,08-21-2007,00:00,METAR,,170,8,,,4800,Rain/Mist,17.0,17.0,29.77,1009.0,,,,61,10,,,,,,.01 IN,,.01 IN,,8/8 Overcast,300.0,,OVC,400.0,,,,,,
KRDR,08-20-2007,23:17,SPECI,,170,8,,,4800,Rain/Mist,17.0,17.0,29.77,,,,,61,10,,,,,,,,,,8/8 Overcast,600.0,,OVC,600.0,,,,,,
KRDR,08-20-2007,23:00,METAR,,170,7,,,4000,Drizzle/Mist,18.0,16.0,29.76,1008.8,,,,51,10,,,,,,TRACE,,,,8/8 Overcast,800.0,,BKN,800.0,OVC,1300.0,,,,
KRDR,08-20-2007,22:00,METAR,,140,9,,,9999,,18.0,16.0,29.75,1008.4,,,,,,,,,,,,,,,8/8 Overcast,900.0,,OVC,900.0,,,,,,
KRDR,08-20-2007,21:00,METAR,,140,10,,,9999,,18.0,15.0,29.76,1008.8,,,,,,,,,,,,,,,8/8 Overcast,900.0,,OVC,900.0,,,,,,
KRDR,08-20-2007,20:00,METAR,,150,8,,,9999,,18.0,15.0,29.78,1009.4,,,,,,,,,,,,,,,8/8 Overcast,900.0,,OVC,900.0,,,,,,
KRDR,08-20-2007,19:00,METAR,,130,8,,,9999,,16.0,15.0,29.79,1009.8,,,,,,,,,,,,,,,8/8 Overcast,700.0,,BKN,700.0,OVC,1200.0,,,,
KRDR,08-20-2007,18:00,METAR,,150,10,,,9999,,16.0,15.0,29.80,1010.1,,,,,,,,,,,,,TRACE,,8/8 Overcast,600.0,,OVC,600.0,,,,,,
KRDR,08-20-2007,17:50,METAR,,140,9,,,9999,,16.0,15.0,29.80,,,,,,,,,,,,,,,,8/8 Overcast,600.0,,OVC,600.0,,,,,,
KRDR,08-20-2007,17:00,METAR,,140,7,,,9999,,16.0,14.0,29.79,1009.9,,,,,,,,,,,,,,,8/8 Overcast,1100.0,,OVC,1100.0,,,,,,
KRDR,08-20-2007,16:00,METAR,,130,9,,,9999,,16.0,13.0,29.78,1009.4,,,,,,,,,,,,,,,8/8 Overcast,1100.0,,OVC,1100.0,,,,,,
KRDR,08-20-2007,15:00,METAR,,120,11,,,9999,,15.0,13.0,29.79,1009.8,,,,,,,,,,,,TRACE,,,8/8 Overcast,1000.0,,OVC,1000.0,,,,,,
KRDR,08-20-2007,14:00,METAR,,130,12,,,9999,,15.0,12.0,29.80,1010.1,,,,,,,,,,,,,,,8/8 Overcast,1100.0,,OVC,1100.0,,,,,,
KRDR,08-20-2007,13:00,METAR,,120,12,16.0,,9999,,15.0,12.0,29.81,1010.6,,,,,,,,,,,TRACE,,,,8/8 Overcast,1300.0,,OVC,1300.0,,,,,,
KRDR,08-20-2007,12:06,SPECI,,120,10,,,9999,Drizzle,15.0,13.0,29.83,,,,,51,,,,,,,,,,,8/8 Overcast,1400.0,,OVC,1400.0,,,,,,
KRDR,08-20-2007,12:00,METAR,,110,7,,,9999,,15.0,12.0,29.83,1011.1,,,,,,,,,,,,,,,8/8 Overcast,1800.0,,OVC,1800.0,,,,,,
KRDR,08-20-2007,11:00,METAR,,130,5,,,9999,,16.0,12.0,29.84,1011.5,,,,,,,,,,,,,,,8/8 Overcast,1700.0,,OVC,1700.0,,,,,,
KRDR,08-20-2007,10:00,METAR,,130,7,,,9999,,16.0,13.0,29.85,1011.8,,,,,,,,,,,,,,,8/8 Overcast,1800.0,,OVC,1800.0,,,,,,
KRDR,08-20-2007,09:00,METAR,,150,8,,,9999,,16.0,13.0,29.87,1012.4,,,,,,,,,,,,,,,8/8 Overcast,2200.0,,OVC,2200.0,,,,,,
KRDR,08-20-2007,08:00,METAR,,110,8,,,9999,,17.0,13.0,29.86,1012.0,,,,,,,,,,,,,,,8/8 Overcast,1500.0,,OVC,2000.0,,,,,,
KRDR,08-20-2007,07:00,METAR,,120,8,,,9999,,17.0,13.0,29.89,1013.1,,,,,,,,,,,,,,,8/8 Overcast,2200.0,,OVC,2200.0,,,,,,
KRDR,08-20-2007,06:00,METAR,,130,10,,,9999,,17.0,13.0,29.91,1013.8,,,,,,,,,,,,,,,8/8 Overcast,2000.0,,OVC,2500.0,,,,,,
KRDR,08-20-2007,05:00,METAR,,120,6,,,9999,,18.0,13.0,29.92,1014.1,,,,,,,,,,,,,,,8/8 Overcast,2800.0,,OVC,2800.0,,,,,,
KRDR,08-20-2007,04:32,SPECI,,120,8,,,9999,,18.0,13.0,29.92,1014.2,,,,,,,,,,,,,,,8/8 Overcast,2900.0,,OVC,2900.0,,,,,,
KRDR,08-20-2007,04:00,METAR,,130,10,,,9999,,18.0,13.0,29.93,1014.5,,,,,,,,,,,,,,,7/8 Mostly Cloudy,3300.0,,BKN,3400.0,,,,,,
KRDR,08-20-2007,03:00,METAR,,140,9,,,9999,,18.0,13.0,29.94,1014.8,,,,,,,,,,,,,,,8/8 Overcast,3200.0,,OVC,3300.0,,,,,,
KRDR,08-20-2007,02:00,METAR,,140,11,,,9999,,19.0,13.0,29.94,1014.6,,,,,,,,,,,,,,,8/8 Overcast,3400.0,,OVC,3500.0,,,,,,
KRDR,08-20-2007,01:00,METAR,,120,6,,,9999,,20.0,13.0,29.94,1014.7,,,,,,,,,,,,,,,8/8 Overcast,3300.0,,OVC,3400.0,,,,,,
KRDR,08-20-2007,00:00,METAR,,110,9,,,9999,,20.0,13.0,29.94,1014.7,,,,,,,,,,,,,,,8/8 Overcast,3400.0,,OVC,3500.0,,,,,,
KRDR,08-19-2007,23:00,METAR,,130,10,,,9999,,20.0,14.0,29.95,1014.9,,,,,,,,,,,,,,,8/8 Overcast,3200.0,,OVC,3300.0,,,,,,
KRDR,08-19-2007,22:00,METAR,,120,9,,,9999,,20.0,14.0,29.95,1015.2,,,,,,,,,,,,,,,8/8 Overcast,2500.0,,OVC,3000.0,,,,,,
KRDR,08-19-2007,21:15,SPECI,,120,12,,,9999,,20.0,14.0,29.96,1015.3,,,,,,,,,,,,,,,8/8 Overcast,2500.0,,OVC,3000.0,,,,,,
KRDR,08-19-2007,21:00,METAR,,130,9,,,9999,,20.0,14.0,29.95,1015.1,,,,,,,,,,,,,,,8/8 Overcast,2900.0,,OVC,2900.0,,,,,,
KRDR,08-19-2007,20:03,SPECI,,130,8,,,9999,,20.0,14.0,29.96,1015.4,,,,,,,,,,,,,,,8/8 Overcast,2900.0,,OVC,2900.0,,,,,,
KRDR,08-19-2007,20:00,METAR,,100,12,16.0,,9999,,20.0,14.0,29.96,1015.5,,,,,,,,,,,,,,,8/8 Overcast,2500.0,,OVC,3000.0,,,,,,
KRDR,08-19-2007,19:00,METAR,,110,10,,,9999,,21.0,14.0,29.97,1015.7,,,,,,,,,,,,,,,8/8 Overcast,3000.0,,OVC,3000.0,,,,,,
KRDR,08-19-2007,18:00,METAR,,100,7,15.0,,9999,,20.0,14.0,30.00,1016.7,,,,,,,,,,,,,,,8/8 Overcast,2700.0,,OVC,2700.0,,,,,,
KRDR,08-19-2007,17:09,SPECI,,100,9,,,9999,,20.0,13.0,30.00,1016.8,,,,,,,,,,,,,,,7/8 Mostly Cloudy,2400.0,,BKN,2400.0,,,,,,
KRDR,08-19-2007,17:00,METAR,,100,12,17.0,,9999,,20.0,13.0,30.00,1016.8,,,,,,,,,,,,,,,2/8 Mostly Clear,72000.0,,FEW,2300.0,,,,,,
KRDR,08-19-2007,16:00,METAR,,80,9,,,9999,,18.0,13.0,30.00,1016.8,,,,,,,,,,,,,,,2/8 Mostly Clear,72000.0,,FEW,1800.0,,,,,,
KRDR,08-19-2007,15:00,METAR,,70,7,,,9999,,16.0,12.0,30.01,1017.1,,,,,,,,,,,,,,,Clear,72000.0,,,73000.0,,,,,,
KRDR,08-19-2007,14:15,SPECI,,70,8,,,9999,,15.0,12.0,30.02,1017.2,,,,,,,,,,,,,,,4/8 Partly Cloudy,72000.0,,SCT,1900.0,,,,,,
KRDR,08-19-2007,14:00,METAR,,70,6,,,9999,,15.0,12.0,30.02,1017.4,,,,,,,,,,,,,,,8/8 Overcast,1500.0,,OVC,1500.0,,,,,,
KRDR,08-19-2007,13:00,METAR,,80,6,,,9999,,14.0,11.0,30.02,1017.4,,,,,,,,,,,,,,,8/8 Overcast,1500.0,,OVC,1500.0,,,,,,
KRDR,08-19-2007,12:15,SPECI,,70,6,,,9999,,14.0,11.0,30.02,1017.5,,,,,,,,,,,,,,,8/8 Overcast,1000.0,,OVC,1500.0,,,,,,
KRDR,08-19-2007,12:00,METAR,,70,5,,,9999,,13.0,11.0,30.02,1017.4,,,,,,,,,,,,,,,7/8 Mostly Cloudy,1300.0,,BKN,1300.0,,,,,,
KRDR,08-19-2007,11:00,METAR,,80,5,,,9999,,13.0,11.0,30.01,1017.1,,,,,,,,,,,,,,,8/8 Overcast,9000.0,,OVC,8900.0,,,,,,
KRDR,08-19-2007,10:00,METAR,,90,4,,,9999,,14.0,11.0,30.02,1017.5,,,,,,,,,,,,,,,8/8 Overcast,6000.0,,OVC,7900.0,,,,,,
KRDR,08-19-2007,09:00,METAR,,70,4,,,9999,,13.0,11.0,30.00,1016.6,,,,,,,,,,,,,,,Clear,72000.0,,,73000.0,,,,,,
KRDR,08-19-2007,08:00,METAR,,90,4,,,9999,,15.0,12.0,30.00,1016.6,,,,,,,,,,,,,,,Clear,72000.0,,,73000.0,,,,,,
KRDR,08-19-2007,07:00,METAR,,110,6,,,9999,,16.0,12.0,30.00,1016.8,,,,,,,,,,,,,,,4/8 Partly Cloudy,72000.0,,SCT,7900.0,,,,,,
KRDR,08-19-2007,06:00,METAR,,120,5,,,9999,,17.0,13.0,30.02,1017.4,,,,,,,,,,,,,,,8/8 Overcast,3400.0,,OVC,3500.0,,,,,,
KRDR,08-19-2007,05:00,METAR,,110,2,,,9999,,17.0,13.0,30.02,1017.5,,,,,,,,,,,,,,,8/8 Overcast,3000.0,,OVC,5000.0,,,,,,
KRDR,08-19-2007,04:00,METAR,,150,4,,,9999,,17.0,13.0,30.02,1017.3,,,,,,,,,,,,,,,8/8 Overcast,3900.0,,OVC,5000.0,,,,,,
KRDR,08-19-2007,03:00,METAR,,150,5,,,9999,,18.0,13.0,30.00,1016.9,,,,,,,,,,,,,,,8/8 Overcast,7000.0,,OVC,6900.0,,,,,,
KRDR,08-19-2007,02:00,METAR,,160,9,,,9999,,18.0,13.0,29.99,1016.3,,,,,,,,,,,,,,,8/8 Overcast,7000.0,,OVC,6900.0,,,,,,
KRDR,08-19-2007,01:00,METAR,,150,9,,,9999,,20.0,13.0,29.98,1015.9,,,,,,,,,,,,,,,8/8 Overcast,7000.0,,OVC,6900.0,,,,,,
KRDR,08-19-2007,00:00,METAR,,120,9,,,9999,,22.0,13.0,29.98,1016.0,,,,,,,,,,,,,,,8/8 Overcast,7000.0,,OVC,6900.0,,,,,,
KRDR,08-18-2007,23:00,METAR,,120,10,,,9999,,23.0,11.0,29.97,1015.8,,,,,,,,,,,,,,,Clear,7000.0,,,73000.0,,,,,,
KRDR,08-18-2007,22:00,METAR,,130,10,,,9999,,24.0,11.0,29.98,1016.0,,,,,,,,,,,,,,,2/8 Mostly Clear,72000.0,,FEW,8900.0,,,,,,
KRDR,08-18-2007,21:00,METAR,,120,12,15.0,,9999,,23.0,11.0,29.99,1016.5,,,,,,,,,,,,,,,7/8 Mostly Cloudy,9000.0,,BKN,8900.0,,,,,,
KRDR,08-18-2007,20:00,METAR,,70,9,,,9999,,23.0,10.0,30.01,1017.2,,,,,,,,,,,,,,,7/8 Mostly Cloudy,10000.0,,BKN,9900.0,,,,,,
KRDR,08-18-2007,19:00,METAR,,130,11,,,9999,,22.0,11.0,30.02,1017.5,,,,,,,,,,,,,,,7/8 Mostly Cloudy,10000.0,,BKN,9900.0,,,,,,
KRDR,08-18-2007,18:00,METAR,,110,9,,,9999,,22.0,11.0,30.04,1018.0,,,,,,,,,,,,,,,7/8 Mostly Cloudy,9000.0,,BKN,8900.0,,,,,,
KRDR,08-18-2007,17:00,METAR,,140,10,,,9999,,21.0,10.0,30.04,1017.9,,,,,,,,,,,,,,,4/8 Partly Cloudy,72000.0,,SCT,8900.0,,,,,,
KRDR,08-18-2007,16:00,METAR,,120,6,,,9999,,20.0,10.0,30.05,1018.3,,,,,,,,,,,,,,,4/8 Partly Cloudy,72000.0,,SCT,8900.0,,,,,,
KRDR,08-18-2007,15:00,METAR,,120,6,,,9999,,17.0,10.0,30.06,1018.5,,,,,,,,,,,,,,,4/8 Partly Cloudy,72000.0,,SCT,7400.0,,,,,,
KRDR,08-18-2007,14:00,METAR,,130,8,,,9999,,13.0,9.0,30.06,1018.8,,,,,,,,,,,,,,,8/8 Overcast,7000.0,,OVC,6900.0,,,,,,
KRDR,08-18-2007,13:00,METAR,,50,5,,,9999,,11.0,8.0,30.09,1019.6,,,,,,,,,,,,,,,8/8 Overcast,7500.0,,OVC,7400.0,,,,,,
KRDR,08-18-2007,12:00,METAR,,50,3,,,9999,,11.0,8.0,30.09,1019.8,,,,,,,,,,,,,,,8/8 Overcast,7500.0,,OVC,7400.0,,,,,,
KRDR,08-18-2007,11:00,METAR,,,0,,,9999,,8.0,7.0,30.10,1020.1,,,,,,,,,,,,,,,7/8 Mostly Cloudy,7000.0,,BKN,6900.0,,,,,,
KRDR,08-18-2007,10:00,METAR,,,0,,,9999,,8.0,7.0,30.12,1020.6,,,,,,,,,,,,,,,Clear,72000.0,,,73000.0,,,,,,
KRDR,08-18-2007,09:00,METAR,,60,4,,,9999,,10.0,7.0,30.11,1020.2,,,,,,,,,,,,,,,Clear,72000.0,,,73000.0,,,,,,
KRDR,08-18-2007,08:00,METAR,,100,3,,,9999,,8.0,7.0,30.13,1020.9,,,,,,,,,,,,,,,Clear,72000.0,,,73000.0,,,,,,
KRDR,08-18-2007,07:00,METAR,,90,3,,,9999,,10.0,7.0,30.14,1021.4,,,,,,,,,,,,,,,Clear,72000.0,,,73000.0,,,,,,
KRDR,08-18-2007,06:00,METAR,,60,3,,,9999,,12.0,9.0,30.16,1022.0,,,,,,,,,,,,,,,Clear,72000.0,,,73000.0,,,,,,
KRDR,08-18-2007,05:00,METAR,,,0,,,9999,,11.0,9.0,30.15,1021.7,,,,,,,,,,,,,,,Clear,72000.0,,,73000.0,,,,,,
KRDR,08-18-2007,04:00,METAR,,,0,,,9999,,11.0,8.0,30.15,1021.8,,,,,,,,,,,,,,,7/8 Mostly Cloudy,25000.0,,BKN,25000.0,,,,,,
KRDR,08-18-2007,03:00,METAR,,50,5,,,9999,,14.0,9.0,30.16,1022.0,,,,,,,,,,,,,,,7/8 Mostly Cloudy,25000.0,,BKN,25000.0,,,,,,
KRDR,08-18-2007,02:00,METAR,,210,2,,,9999,,15.0,10.0,30.15,1021.8,,,,,,,,,,,,,,,7/8 Mostly Cloudy,25000.0,,BKN,25000.0,,,,,,
KRDR,08-18-2007,01:00,METAR,,180,6,,,9999,,18.0,10.0,30.16,1021.9,,,,,,,,,,,,,,,7/8 Mostly Cloudy,25000.0,,BKN,25000.0,,,,,,
KRDR,08-18-2007,00:00,METAR,,80,5,,,9999,,21.0,7.0,30.15,1021.8,,,,,,,,,,,,,,,7/8 Mostly Cloudy,25000.0,,FEW,9900.0,BKN,25000.0,,,,
KRDR,08-17-2007,23:00,METAR,,80,7,,,9999,,21.0,7.0,30.18,1022.5,,,,,,,,,,,,,,,4/8 Partly Cloudy,72000.0,,FEW,9900.0,SCT,20000.0,,,,
KRDR,08-17-2007,22:00,METAR,,60,6,,,9999,,21.0,7.0,30.19,1023.0,,,,,,,,,,,,,,,4/8 Partly Cloudy,72000.0,,SCT,12000.0,SCT,20000.0,,,,
KRDR,08-17-2007,21:00,METAR,,,3,,,9999,,20.0,7.0,30.23,1024.1,,,,,,,,,,,,,,,4/8 Partly Cloudy,72000.0,,SCT,12000.0,SCT,20000.0,,,,
KRDR,08-17-2007,20:00,METAR,,,5,,,9999,,19.0,7.0,30.25,1024.9,,,,,,,,,,,,,,,7/8 Mostly Cloudy,20000.0,,FEW,5000.0,SCT,9900.0,BKN,20000.0,,
KRDR,08-17-2007,19:00,METAR,,,6,,,9999,,19.0,8.0,30.27,1025.7,,,,,,,,,,,,,,,7/8 Mostly Cloudy,20000.0,,FEW,5000.0,SCT,12000.0,BKN,20000.0,,
KRDR,08-17-2007,18:00,METAR,,110,6,,,9999,,19.0,7.0,30.27,1025.7,,,,,,,,,,,,,,,7/8 Mostly Cloudy,20000.0,,FEW,5900.0,SCT,12000.0,BKN,20000.0,,
KRDR,08-17-2007,17:00,METAR,,50,4,,,9999,,18.0,6.0,30.27,1025.6,,,,,,,,,,,,,,,7/8 Mostly Cloudy,20000.0,,SCT,12000.0,BKN,20000.0,,,,
KRDR,08-17-2007,16:00,METAR,,40,5,,,9999,,17.0,8.0,30.28,1025.8,,,,,,,,,,,,,,,7/8 Mostly Cloudy,20000.0,,SCT,9900.0,BKN,20000.0,,,,
KRDR,08-17-2007,15:00,METAR,,70,4,,,9999,,15.0,8.0,30.26,1025.2,,,,,,,,,,,,,,,7/8 Mostly Cloudy,20000.0,,FEW,5900.0,SCT,9900.0,BKN,20000.0,,
KRDR,08-17-2007,14:00,METAR,,30,6,,,9999,,13.0,9.0,30.26,1025.4,,,,,,,,,,,,,,,7/8 Mostly Cloudy,25000.0,,SCT,18000.0,BKN,25000.0,,,,
KRDR,08-17-2007,13:00,METAR,,330,3,,,9999,,10.0,8.0,30.24,1024.7,,,,,,,,,,,,,,,4/8 Partly Cloudy,72000.0,,FEW,9900.0,SCT,25000.0,,,,
KRDR,08-17-2007,12:00,METAR,,320,4,,,9999,,6.0,4.0,30.22,1024.1,,,,,,,,,,,,,,,2/8 Mostly Clear,72000.0,,FEW,9900.0,FEW,25000.0,,,,
KRDR,08-17-2007,11:00,METAR,,310,2,,,9999,,6.0,4.0,30.20,1023.5,,,,,,,,,,,,,,,2/8 Mostly Clear,72000.0,,FEW,9900.0,,,,,,
KRDR,08-17-2007,10:00,METAR,,320,3,,,9999,,7.0,5.0,30.21,1023.6,,,,,,,,,,,,,,,Clear,72000.0,,,73000.0,,,,,,
KRDR,08-17-2007,09:00,METAR,,290,4,,,9999,,7.0,5.0,30.19,1023.1,,,,,,,,,,,,,,,Clear,72000.0,,,73000.0,,,,,,
KRDR,08-17-2007,08:00,METAR,,310,5,,,9999,,8.0,6.0,30.18,1022.6,,,,,,,,,,,,,,,Clear,72000.0,,,73000.0,,,,,,
KRDR,08-17-2007,07:00,METAR,,320,4,,,9999,,8.0,6.0,30.17,1022.2,,,,,,,,,,,,,,,Clear,72000.0,,,73000.0,,,,,,
KRDR,08-17-2007,06:00,METAR,,330,3,,,9999,,11.0,7.0,30.16,1021.9,,,,,,,,,,,,,,,Clear,72000.0,,,73000.0,,,,,,
KRDR,08-17-2007,05:00,METAR,,350,6,,,9999,,11.0,8.0,30.14,1021.2,,,,,,,,,,,,,,,Clear,72000.0,,,73000.0,,,,,,
KRDR,08-17-2007,04:00,METAR,,270,5,,,9999,,10.0,8.0,30.11,1020.4,,,,,,,,,,,,,,,Clear,72000.0,,,73000.0,,,,,,
KRDR,08-17-2007,03:00,METAR,,290,3,,,9999,,12.0,8.0,30.10,1020.1,,,,,,,,,,,,,,,Clear,72000.0,,,73000.0,,,,,,
KRDR,08-17-2007,02:00,METAR,,350,4,,,9999,,16.0,9.0,30.08,1019.5,,,,,,,,,,,,,,,2/8 Mostly Clear,72000.0,,FEW,9900.0,,,,,,
KRDR,08-17-2007,01:00,METAR,,350,5,,,9999,,20.0,9.0,30.07,1019.1,,,,,,,,,,,,,,,Clear,72000.0,,,73000.0,,,,,,
KRDR,08-17-2007,00:00,METAR,,330,8,,,9999,,22.0,7.0,30.07,1019.0,,,,,,,,,,,,,,,2/8 Mostly Clear,72000.0,,FEW,6900.0,,,,,,
KRDR,08-16-2007,23:00,METAR,,320,13,,,9999,,22.0,7.0,30.08,1019.2,,,,,,,,,,,,,,,2/8 Mostly Clear,72000.0,,FEW,5900.0,FEW,15000.0,,,,
KRDR,08-16-2007,22:00,METAR,,300,7,,,9999,,23.0,8.0,30.07,1019.1,,,,,,,,,,,,,,,4/8 Partly Cloudy,72000.0,,SCT,5900.0,SCT,20000.0,,,,
KRDR,08-16-2007,21:00,METAR,,320,10,,,9999,,23.0,9.0,30.08,1019.5,,,,,,,,,,,,,,,4/8 Partly Cloudy,72000.0,,SCT,5900.0,SCT,20000.0,,,,
KRDR,08-16-2007,20:00,METAR,,300,9,,,9999,,21.0,8.0,30.10,1020.0,,,,,,,,,,,,,,,4/8 Partly Cloudy,72000.0,,SCT,5000.0,,,,,,
KRDR,08-16-2007,19:00,METAR,,270,9,17.0,,9999,,21.0,8.0,30.12,1020.6,,,,,,,,,,,,,,,4/8 Partly Cloudy,72000.0,,SCT,5000.0,,,,,,
KRDR,08-16-2007,18:00,METAR,,280,13,,,9999,,21.0,7.0,30.12,1020.8,,,,,,,,,,,,,,,2/8 Mostly Clear,72000.0,,FEW,5000.0,,,,,,
KRDR,08-16-2007,17:00,METAR,,280,12,,,9999,,20.0,6.0,30.14,1021.2,,,,,,,,,,,,,,,2/8 Mostly Clear,72000.0,,FEW,5000.0,FEW,25000.0,,,,
KRDR,08-16-2007,16:00,METAR,,280,8,,,9999,,19.0,6.0,30.14,1021.3,,,,,,,,,,,,,,,2/8 Mostly Clear,72000.0,,FEW,5000.0,FEW,25000.0,,,,
KRDR,08-16-2007,15:00,METAR,,250,5,,,9999,,18.0,8.0,30.14,1021.2,,,,,,,,,,,,,,,2/8 Mostly Clear,72000.0,,FEW,25000.0,,,,,,
KRDR,08-16-2007,14:00,METAR,,300,4,,,9999,,14.0,8.0,30.13,1021.1,,,,,,,,,,,,,,,2/8 Mostly Clear,72000.0,,FEW,25000.0,,,,,,
KRDR,08-16-2007,13:00,METAR,,280,3,,,9999,,11.0,8.0,30.12,1020.8,,,,,,,,,,,,,,,Clear,72000.0,,,73000.0,,,,,,
KRDR,08-16-2007,12:00,METAR,,280,2,,,9999,,6.0,5.0,30.11,1020.4,,,,,,,,,,,,,,,Clear,72000.0,,,73000.0,,,,,,
KRDR,08-16-2007,11:00,METAR,,270,4,,,9999,,6.0,5.0,30.10,1020.0,,,,,,,,,,,,,,,Clear,72000.0,,,73000.0,,,,,,
KRDR,08-16-2007,10:00,METAR,,300,4,,,9999,,8.0,6.0,30.08,1019.5,,,,,,,,,,,,,,,Clear,72000.0,,,73000.0,,,,,,
KRDR,08-16-2007,09:00,METAR,,320,4,,,9999,,8.0,6.0,30.08,1019.4,,,,,,,,,,,,,,,Clear,72000.0,,,73000.0,,,,,,
KRDR,08-16-2007,08:00,METAR,,340,6,,,9999,,11.0,7.0,30.08,1019.3,,,,,,,,,,,,,,,Clear,72000.0,,,73000.0,,,,,,
KRDR,08-16-2007,07:00,METAR,,350,7,,,9999,,10.0,8.0,30.07,1019.2,,,,,,,,,,,,,,,Clear,72000.0,,,73000.0,,,,,,
KRDR,08-16-2007,06:00,METAR,,350,8,,,9999,,13.0,9.0,30.06,1018.8,,,,,,,,,,,,,,,Clear,72000.0,,,73000.0,,,,,,
KRDR,08-16-2007,05:00,METAR,,360,9,,,9999,,14.0,10.0,30.03,1017.7,,,,,,,,,,,,,,,Clear,72000.0,,,73000.0,,,,,,
KRDR,08-16-2007,04:00,METAR,,10,14,,,9999,,17.0,11.0,29.99,1016.5,,,,,,,,,,,,,,,Clear,72000.0,,,73000.0,,,,,,
KRDR,08-16-2007,03:00,METAR,,320,6,,,9999,,17.0,10.0,29.94,1014.9,,,,,,,,,,,,,,,Clear,72000.0,,,73000.0,,,,,,
KRDR,08-16-2007,02:00,METAR,,330,5,,,9999,,19.0,11.0,29.91,1013.8,,,,,,,,,,,,,,,2/8 Mostly Clear,72000.0,,FEW,6900.0,,,,,,
KRDR,08-16-2007,01:00,METAR,,350,7,,,9999,,23.0,12.0,29.88,1012.9,,,,,,,,,,,,,,,4/8 Partly Cloudy,72000.0,,SCT,6900.0,,,,,,
KRDR,08-16-2007,00:00,METAR,,330,10,,,9999,,25.0,11.0,29.87,1012.3,,,,,,,,,,,,,,,2/8 Mostly Clear,72000.0,,FEW,4000.0,FEW,12000.0,,,,
KRDR,08-15-2007,23:00,METAR,,310,10,17.0,,9999,,25.0,11.0,29.86,1012.2,,,,,,,,,,,,,,,2/8 Mostly Clear,72000.0,,FEW,4000.0,FEW,12000.0,,,,
KRDR,08-15-2007,22:00,METAR,,340,10,,,9999,,26.0,10.0,29.85,1011.9,,,,,,,,,,,,,,,2/8 Mostly Clear,72000.0,,FEW,4000.0,FEW,12000.0,,,,
KRDR,08-15-2007,21:00,METAR,,320,14,18.0,,9999,,26.0,12.0,29.85,1011.7,,,,,,,,,,,,,,,4/8 Partly Cloudy,72000.0,,FEW,4000.0,SCT,12000.0,,,,
KRDR,08-15-2007,20:00,METAR,,330,10,,,9999,,26.0,14.0,29.85,1011.7,,,,,,,,,,,,,,,2/8 Mostly Clear,72000.0,,FEW,3000.0,,,,,,
KRDR,08-15-2007,19:00,METAR,,300,13,18.0,,9999,,25.0,15.0,29.84,1011.6,,,,,,,,,,,,,,,2/8 Mostly Clear,72000.0,,FEW,3000.0,,,,,,
KRDR,08-15-2007,18:00,METAR,,280,17,,,9999,,24.0,16.0,29.84,1011.5,,,,,,,,,,,,,,,4/8 Partly Cloudy,72000.0,,FEW,3100.0,SCT,12000.0,,,,
KRDR,08-15-2007,17:00,METAR,,260,13,18.0,,9999,,24.0,16.0,29.84,1011.5,,,,,,,,,,,,,,,4/8 Partly Cloudy,72000.0,,SCT,3100.0,,,,,,
KRDR,08-15-2007,16:00,METAR,,230,12,,,9999,,22.0,15.0,29.84,1011.6,,,,,,,,,,,,,,,2/8 Mostly Clear,72000.0,,FEW,12000.0,,,,,,
KRDR,08-15-2007,15:00,METAR,,200,5,,,9999,,19.0,15.0,29.86,1012.1,,,,,,,,,,,,,,,2/8 Mostly Clear,72000.0,,FEW,9900.0,FEW,25000.0,,,,
KRDR,08-15-2007,14:00,METAR,,190,3,,,9999,,17.0,15.0,29.89,1013.0,,,,,,,,,,,,,,,2/8 Mostly Clear,72000.0,,FEW,25000.0,,,,,,
KRDR,08-15-2007,13:00,METAR,,170,4,,,9999,,15.0,14.0,29.89,1013.0,,,,,,,,,,,,,,,2/8 Mostly Clear,72000.0,,FEW,9900.0,,,,,,
KRDR,08-15-2007,12:00,METAR,,,0,,,9999,,13.0,12.0,29.91,1013.9,,,,,,,,,,,,,,,7/8 Mostly Cloudy,9000.0,,BKN,8900.0,,,,,,
KRDR,08-15-2007,11:00,METAR,,,0,,,9999,Shallow Fog or Ice Fog,13.0,13.0,29.90,1013.5,,,,12,,,,,,,,,,,7/8 Mostly Cloudy,10000.0,,BKN,9900.0,,,,,,
KRDR,08-15-2007,10:25,METAR,,210,2,,,9999,Patchy Fog or Ice Fog,12.0,11.0,29.91,,,,,41,,,,,,,,,,,7/8 Mostly Cloudy,10000.0,,FEW,200.0,BKN,9900.0,,,,
KRDR,08-15-2007,10:00,METAR,,,0,,,9999,Patchy Fog or Ice Fog,12.0,11.0,29.91,1013.9,,,,41,,,,,,,,,,,4/8 Partly Cloudy,72000.0,,FEW,11000.0,SCT,25000.0,,,,
KRDR,08-15-2007,09:00,METAR,,,0,,,9999,,14.0,14.0,29.91,1013.8,,,,,,,,,,,,,,,4/8 Partly Cloudy,72000.0,,FEW,11000.0,SCT,25000.0,,,,
KRDR,08-15-2007,08:00,METAR,,210,4,,,9999,,15.0,14.0,29.93,1014.4,,,,,,,,,,,,,,,7/8 Mostly Cloudy,25000.0,,SCT,11000.0,BKN,25000.0,,,,
KRDR,08-15-2007,07:00,METAR,,210,3,,,9999,,16.0,15.0,29.94,1014.8,,,,,,,,,,,,,,,7/8 Mostly Cloudy,11000.0,,BKN,11000.0,,,,,,
KRDR,08-15-2007,06:00,METAR,,220,5,,,9999,,16.0,15.0,29.96,1015.5,,,,,,,,,,,,,,,8/8 Overcast,11000.0,,OVC,11000.0,,,,,,
KRDR,08-15-2007,05:00,METAR,,220,3,,,9999,,17.0,16.0,29.96,1015.5,,,,,,,,,,,,,,,8/8 Overcast,12000.0,,OVC,12000.0,,,,,,
KRDR,08-15-2007,04:00,METAR,,250,4,,,9999,,17.0,16.0,29.97,1015.9,,,,,,,,,,,,,,,7/8 Mostly Cloudy,25000.0,,SCT,15000.0,BKN,25000.0,,,,
KRDR,08-15-2007,03:00,METAR,,230,5,,,9999,,18.0,16.0,29.98,1016.0,,,,,,,,,,,,,,,8/8 Overcast,12000.0,,BKN,12000.0,OVC,25000.0,,,,
KRDR,08-15-2007,01:00,METAR,,250,2,,,9999,,20.0,16.0,29.97,1015.8,,,,,,,,,,,,,,,8/8 Overcast,15000.0,,FEW,4000.0,BKN,15000.0,OVC,25000.0,,
KRDR,08-15-2007,00:00,METAR,,240,4,,,9999,,21.0,16.0,30.00,1016.8,,,,,,,,,,,,,,,8/8 Overcast,25000.0,,FEW,3000.0,SCT,15000.0,OVC,25000.0,,
KRDR,08-14-2007,23:00,METAR,,250,6,,,9999,,22.0,15.0,30.03,1017.7,,,,,,,,,,,,,,,8/8 Overcast,25000.0,,FEW,3000.0,SCT,15000.0,OVC,25000.0,,
KRDR,08-14-2007,22:00,METAR,,260,3,,,9999,,22.0,14.0,30.03,1017.8,,,,,,,,,,,,,,,8/8 Overcast,25000.0,,FEW,3000.0,SCT,11000.0,OVC,25000.0,,
KRDR,08-14-2007,21:00,METAR,,300,2,,,9999,,22.0,15.0,30.05,1018.4,,,,,,,,,,,,,,,8/8 Overcast,25000.0,,FEW,3000.0,FEW,15000.0,OVC,25000.0,,
KRDR,08-14-2007,20:00,METAR,,290,4,,,9999,,22.0,15.0,30.05,1018.4,,,,,,,,,,,,,,,8/8 Overcast,25000.0,,FEW,3000.0,OVC,25000.0,,,,
KRDR,08-14-2007,19:00,METAR,,,0,,,9999,,22.0,15.0,30.05,1018.5,,,,,,,,,,,,,,,7/8 Mostly Cloudy,25000.0,,SCT,2600.0,BKN,25000.0,,,,
KRDR,08-14-2007,18:00,METAR,,,3,,,9999,,21.0,15.0,30.06,1018.8,,,,,,,,,,,,,,,7/8 Mostly Cloudy,25000.0,,FEW,5000.0,BKN,25000.0,,,,
KRDR,08-14-2007,17:00,METAR,,,3,,,9999,,20.0,14.0,30.05,1018.2,,,,,,,,,,,,,,,7/8 Mostly Cloudy,25000.0,,SCT,12000.0,BKN,25000.0,,,,
KRDR,08-14-2007,16:00,METAR,,50,5,,,9999,,20.0,15.0,30.04,1017.9,,,,,,,,,,,,,,,8/8 Overcast,25000.0,,OVC,25000.0,,,,,,
KRDR,08-14-2007,15:00,METAR,,10,7,,,9999,,18.0,15.0,30.04,1018.1,,,,,,,,,,,,,,,8/8 Overcast,25000.0,,OVC,25000.0,,,,,,
KRDR,08-14-2007,14:00,METAR,,330,7,,,9999,,16.0,14.0,30.07,1018.9,,,,,,,,,,,,,,,8/8 Overcast,25000.0,,OVC,25000.0,,,,,,
KRDR,08-14-2007,13:00,METAR,,290,5,,,9999,,15.0,14.0,30.07,1019.1,,,,,,,,,,,,,,,8/8 Overcast,25000.0,,OVC,25000.0,,,,,,
KRDR,08-14-2007,12:00,METAR,,330,4,,,9999,,14.0,13.0,30.06,1018.6,,,,,,,,,,,,,,.28 IN,7/8 Mostly Cloudy,25000.0,,BKN,25000.0,,,,,,
KRDR,08-14-2007,11:00,METAR,,320,5,,,9999,,15.0,14.0,30.04,1017.9,,,,,,,,,,,,,,,7/8 Mostly Cloudy,25000.0,,BKN,25000.0,,,,,,
KRDR,08-14-2007,10:00,METAR,,320,5,,,9999,,15.0,14.0,30.01,1017.0,,,,,,,,,,,,,,,Clear,72000.0,,,73000.0,,,,,,
KRDR,08-14-2007,09:00,METAR,,360,8,,,9999,,16.0,15.0,29.97,1015.7,,,,,,,,,,,,,,,Clear,72000.0,,,73000.0,,,,,,
KRDR,08-14-2007,08:00,METAR,,340,9,,,9999,,17.0,16.0,29.95,1015.2,,,,,,,,,,,,,,,Clear,72000.0,,,73000.0,,,,,,
KRDR,08-14-2007,07:00,METAR,,350,9,,,9999,,19.0,17.0,29.93,1014.4,,,,,,,,,,,,,,,Clear,72000.0,,,73000.0,,,,,,
KRDR,08-14-2007,06:00,METAR,,320,11,,,9999,,20.0,18.0,29.91,1013.6,,,,,,,,,,,,,,,Clear,72000.0,,,73000.0,,,,,,
KRDR,08-14-2007,05:00,METAR,,280,4,,,9999,,19.0,18.0,29.88,1012.7,,,,,,,,,,,,,,,2/8 Mostly Clear,72000.0,,FEW,25000.0,,,,,,
KRDR,08-14-2007,04:00,METAR,,260,5,,,9999,,17.0,17.0,29.87,1012.5,,,,,,,,,,,,,,,4/8 Partly Cloudy,72000.0,,SCT,25000.0,,,,,,
KRDR,08-14-2007,03:00,METAR,,220,5,,,9999,Shallow Fog or Ice Fog,17.0,17.0,29.87,1012.3,,,,12,,,,,,,,,,,7/8 Mostly Cloudy,25000.0,,BKN,25000.0,,,,,,
KRDR,08-14-2007,02:00,METAR,,,0,,,9999,,20.0,19.0,29.86,1012.0,,,,,,,,,,,,,,,7/8 Mostly Cloudy,25000.0,,FEW,3000.0,BKN,25000.0,,,,
KRDR,08-14-2007,01:00,METAR,,,0,,,9999,,21.0,20.0,29.87,1012.3,,,,,,,,,,,,,,,7/8 Mostly Cloudy,3000.0,,FEW,2500.0,BKN,3000.0,,,,
KRDR,08-14-2007,00:00,METAR,,250,2,,,9999,,21.0,19.0,29.87,1012.5,,,,,,,,,,,,,.27 IN,,8/8 Overcast,3000.0,,OVC,3000.0,,,,,,
KRDR,08-13-2007,23:00,METAR,,180,3,,,9999,,21.0,19.0,29.87,1012.4,,,,,,,,,,,,,,,8/8 Overcast,3000.0,,BKN,3000.0,OVC,9900.0,,,,
KRDR,08-13-2007,22:00,METAR,,180,3,,,9999,,22.0,19.0,29.87,1012.3,,,,,,,,,,,.14 IN,,,,8/8 Overcast,10000.0,,FEW,4200.0,OVC,9900.0,,,,
KRDR,08-13-2007,21:27,SPECI,,180,9,,,9999,Thunderstorm,21.0,19.0,29.87,,,,,17,,,,,,,,,,,8/8 Overcast,10000.0,,FEW,900.0,SCT,3000.0,OVC,9900.0,,
KRDR,08-13-2007,21:12,SPECI,,330,9,,,9999,Thunderstorm with Rain or Snow/Light Rain Showers,20.0,18.0,29.85,,,,,95,80,,,,,,,,,,8/8 Overcast,10000.0,,FEW,900.0,SCT,3000.0,OVC,9900.0,,
KRDR,08-13-2007,21:06,SPECI,,130,13,23.0,,3200,Thunderstorm with Rain or Snow/Rain Showers,20.0,18.0,29.81,,,,,95,81,,,,,,,,,,8/8 Overcast,3000.0,,FEW,300.0,BKN,3000.0,OVC,9900.0,,
KRDR,08-13-2007,21:01,SPECI,,140,21,,,1200,Thunderstorm with Rain or Snow/Rain Showers,20.0,18.0,29.82,,,,,95,81,,,,,,,,,,8/8 Overcast,6000.0,,FEW,1900.0,BKN,5900.0,OVC,9900.0,,
KRDR,08-13-2007,21:00,METAR,,230,10,,,3200,Thunderstorm with Rain or Snow/Rain Showers,20.0,18.0,29.92,1014.1,,,,95,81,,,,,,.13 IN,.13 IN,,,8/8 Overcast,10000.0,,SCT,8400.0,BKN,9900.0,OVC,20000.0,,
KRDR,08-13-2007,20:45,METAR,,,2,,,3200,Thunderstorm with Rain or Snow/Rain Showers,21.0,18.0,29.90,,,,,95,81,,,,,,,,,,7/8 Mostly Cloudy,3900.0,,BKN,4000.0,BKN,8900.0,,,,
KRDR,08-13-2007,20:25,METAR,,,3,,,9999,Thunderstorm with Rain or Snow/Light Rain Showers,23.0,17.0,29.90,,,,,95,80,,,,,,,,,,7/8 Mostly Cloudy,15000.0,,SCT,3000.0,SCT,8900.0,BKN,15000.0,,
KRDR,08-13-2007,20:00,METAR,,160,10,,,9999,Thunderstorm,24.0,16.0,29.90,1013.5,,,,17,,,,,,,,,,,8/8 Overcast,8000.0,,BKN,7900.0,BKN,9900.0,OVC,18000.0,,
KRDR,08-13-2007,19:49,SPECI,,150,9,,,9999,Thunderstorm,24.0,16.0,29.90,,,,,17,,,,,,,,,,,8/8 Overcast,8000.0,,BKN,7900.0,BKN,9900.0,OVC,18000.0,,
KRDR,08-13-2007,19:00,METAR,,160,20,26.0,160/28KTS,9999,,23.0,16.0,29.87,1012.3,,,,,,,,,,,TRACE,,,,8/8 Overcast,10000.0,,BKN,9900.0,OVC,15000.0,,,,
KRDR,08-13-2007,18:00,METAR,,140,22,28.0,140/28KTS,9999,,17.0,15.0,29.88,1012.6,,,,,,,,,,,.01 IN,,.01 IN,,8/8 Overcast,10000.0,,FEW,3000.0,BKN,9900.0,OVC,15000.0,,
KRDR,08-13-2007,17:00,METAR,,310,5,,,9999,Light Rain Showers/Thunderstorm,16.0,14.0,30.09,1019.6,,,,80,17,,,,,,TRACE,,,,7/8 Mostly Cloudy,3900.0,,SCT,3000.0,BKN,4000.0,BKN,9900.0,,
KRDR,08-13-2007,16:36,SPECI,,,0,,,9999,Thunderstorm with Rain or Snow/Light Rain Showers,16.0,14.0,30.08,,,,,95,80,,,,,,,,,,8/8 Overcast,8000.0,,FEW,3300.0,SCT,5900.0,BKN,7900.0,OVC,15000.0
KRDR,08-13-2007,16:25,METAR,,30,3,,,9999,Thunderstorm,16.0,14.0,30.06,,,,,17,,,,,,,,,,,8/8 Overcast,8000.0,,FEW,3300.0,SCT,5900.0,BKN,7900.0,OVC,15000.0
KRDR,08-13-2007,16:00,METAR,,110,8,,,9999,,17.0,13.0,30.03,1017.7,,,,,,,,,,,,,,,8/8 Overcast,12000.0,,BKN,12000.0,OVC,20000.0,,,,
KRDR,08-13-2007,15:00,METAR,,180,6,,,9999,,16.0,13.0,30.05,1018.4,,,,,,,,,,,,,,,8/8 Overcast,15000.0,,BKN,15000.0,OVC,25000.0,,,,
KRDR,08-13-2007,14:00,METAR,,120,4,,,9999,,14.0,12.0,30.04,1018.1,,,,,,,,,,,,,,,8/8 Overcast,12000.0,,BKN,12000.0,OVC,25000.0,,,,
KRDR,08-13-2007,13:00,METAR,,150,5,,,9999,,13.0,11.0,30.07,1019.0,,,,,,,,,,,,,,,7/8 Mostly Cloudy,25000.0,,SCT,9900.0,BKN,25000.0,,,,
KRDR,08-13-2007,12:00,METAR,,120,3,,,9999,,12.0,11.0,30.07,1019.0,,,,,,,,,,,,,,,7/8 Mostly Cloudy,25000.0,,SCT,9900.0,BKN,25000.0,,,,
KRDR,08-13-2007,11:00,METAR,,150,9,,,9999,,12.0,10.0,30.06,1018.8,,,,,,,,,,,,,,,7/8 Mostly Cloudy,25000.0,,FEW,12000.0,BKN,25000.0,,,,
KRDR,08-13-2007,10:00,METAR,,140,7,,,9999,,12.0,11.0,30.10,1020.0,,,,,,,,,,,,,,,Clear,72000.0,,,73000.0,,,,,,
KRDR,08-13-2007,09:00,METAR,,150,6,,,9999,,11.0,10.0,30.13,1020.9,,,,,,,,,,,,,,,Clear,72000.0,,,73000.0,,,,,,
KRDR,08-13-2007,08:00,METAR,,140,5,,,9999,,13.0,11.0,30.13,1021.0,,,,,,,,,,,,,,,Clear,72000.0,,,73000.0,,,,,,
KRDR,08-13-2007,07:00,METAR,,150,6,,,9999,,13.0,11.0,30.13,1021.0,,,,,,,,,,,,,,,Clear,72000.0,,,73000.0,,,,,,
KRDR,08-13-2007,06:00,METAR,,120,5,,,9999,,14.0,11.0,30.14,1021.2,,,,,,,,,,,,,,,Clear,72000.0,,,73000.0,,,,,,
KRDR,08-13-2007,05:00,METAR,,140,5,,,9999,,13.0,11.0,30.16,1021.9,,,,,,,,,,,,,,,Clear,72000.0,,,73000.0,,,,,,
KRDR,08-13-2007,04:00,METAR,,140,5,,,9999,,14.0,11.0,30.16,1022.1,,,,,,,,,,,,,,,Clear,72000.0,,,73000.0,,,,,,
KRDR,08-13-2007,03:00,METAR,,130,5,,,9999,,17.0,11.0,30.16,1021.9,,,,,,,,,,,,,,,Clear,72000.0,,,73000.0,,,,,,
KRDR,08-13-2007,02:00,METAR,,100,4,,,9999,,19.0,12.0,30.16,1021.9,,,,,,,,,,,,,,,Clear,72000.0,,,73000.0,,,,,,
KRDR,08-13-2007,01:00,METAR,,140,5,,,9999,,20.0,11.0,30.18,1022.5,,,,,,,,,,,,,,,Clear,72000.0,,,73000.0,,,,,,
KRDR,08-13-2007,00:00,METAR,,150,6,,,9999,,21.0,11.0,30.19,1022.8,,,,,,,,,,,,,,,Clear,72000.0,,,73000.0,,,,,,
KRDR,08-12-2007,23:00,METAR,,150,5,,,9999,,22.0,11.0,30.21,1023.5,,,,,,,,,,,,,,,Clear,72000.0,,,73000.0,,,,,,
KRDR,08-12-2007,22:00,METAR,,130,7,,,9999,,22.0,10.0,30.22,1024.0,,,,,,,,,,,,,,,Clear,72000.0,,,73000.0,,,,,,
KRDR,08-12-2007,21:00,METAR,,160,6,,,9999,,21.0,10.0,30.23,1024.2,,,,,,,,,,,,,,,Clear,72000.0,,,73000.0,,,,,,
KRDR,08-12-2007,20:00,METAR,,100,8,17.0,,9999,,21.0,11.0,30.23,1024.3,,,,,,,,,,,,,,,Clear,72000.0,,,73000.0,,,,,,
KRDR,08-12-2007,19:00,METAR,,,5,,,9999,,19.0,11.0,30.26,1025.4,,,,,,,,,,,,,,,Clear,72000.0,,,73000.0,,,,,,
KRDR,08-12-2007,18:00,METAR,,100,5,,,9999,,18.0,11.0,30.29,1026.2,,,,,,,,,,,,,,,Clear,72000.0,,,73000.0,,,,,,
KRDR,08-12-2007,17:00,METAR,,100,3,,,9999,,18.0,11.0,30.29,1026.4,,,,,,,,,,,,,,,Clear,72000.0,,,73000.0,,,,,,
KRDR,08-12-2007,16:00,METAR,,,0,,,9999,,16.0,11.0,30.32,1027.2,,,,,,,,,,,,,,,Clear,72000.0,,,73000.0,,,,,,
KRDR,08-12-2007,15:00,METAR,,90,4,,,9999,,15.0,11.0,30.31,1027.0,,,,,,,,,,,,,,,Clear,72000.0,,,73000.0,,,,,,
KRDR,08-12-2007,14:00,METAR,,20,4,,,9999,,14.0,11.0,30.31,1027.0,,,,,,,,,,,,,,,Clear,72000.0,,,73000.0,,,,,,
KRDR,08-12-2007,13:00,METAR,,10,7,,,9999,,11.0,10.0,30.28,1026.1,,,,,,,,,,,,,,,Clear,72000.0,,,73000.0,,,,,,
KRDR,08-12-2007,12:00,METAR,,20,6,,,9999,,10.0,9.0,30.27,1025.7,,,,,,,,,,,,,,.03 IN,Clear,72000.0,,,73000.0,,,,,,
KRDR,08-12-2007,11:00,METAR,,270,4,,,9999,,8.0,8.0,30.26,1025.4,,,,,,,,,,,,,,,Clear,72000.0,,,73000.0,,,,,,
KRDR,08-12-2007,10:00,METAR,,330,5,,,9999,,10.0,9.0,30.23,1024.3,,,,,,,,,,,,,,,Clear,72000.0,,,73000.0,,,,,,
KRDR,08-12-2007,09:00,METAR,,320,5,,,9999,,11.0,9.0,30.22,1024.0,,,,,,,,,,,,,,,Clear,72000.0,,,73000.0,,,,,,
KRDR,08-12-2007,08:00,METAR,,320,6,,,9999,,11.0,10.0,30.21,1023.6,,,,,,,,,,,,,,,Clear,72000.0,,,73000.0,,,,,,
KRDR,08-12-2007,07:00,METAR,,310,5,,,9999,,12.0,10.0,30.19,1022.9,,,,,,,,,,,,,,,Clear,72000.0,,,73000.0,,,,,,
KRDR,08-12-2007,06:00,METAR,,330,8,,,9999,,13.0,10.0,30.17,1022.2,,,,,,,,,,,,,,,Clear,72000.0,,,73000.0,,,,,,
KRDR,08-12-2007,05:00,METAR,,330,7,,,9999,,14.0,10.0,30.15,1021.6,,,,,,,,,,,,,,,Clear,72000.0,,,73000.0,,,,,,
KRDR,08-12-2007,04:00,METAR,,340,7,,,9999,,16.0,11.0,30.13,1020.9,,,,,,,,,,,,,,,Clear,72000.0,,,73000.0,,,,,,
KRDR,08-12-2007,03:00,METAR,,330,9,,,9999,,17.0,11.0,30.10,1019.9,,,,,,,,,,,,,,,Clear,72000.0,,,73000.0,,,,,,
KRDR,08-12-2007,02:00,METAR,,330,9,,,9999,,19.0,12.0,30.06,1018.6,,,,,,,,,,,,,,,Clear,72000.0,,,73000.0,,,,,,
KRDR,08-12-2007,01:00,METAR,,340,15,21.0,,9999,,22.0,12.0,30.03,1017.6,,,,,,,,,,,,,,,Clear,72000.0,,,73000.0,,,,,,
KRDR,08-12-2007,00:00,METAR,,300,8,16.0,,9999,,22.0,12.0,30.00,1016.7,,,,,,,,,,,,,,,Clear,72000.0,,,73000.0,,,,,,
KRDR,08-11-2007,23:00,METAR,,300,14,22.0,,9999,,24.0,11.0,29.98,1016.0,,,,,,,,,,,,,,,Clear,72000.0,,,73000.0,,,,,,
KRDR,08-11-2007,22:00,METAR,,320,16,25.0,,9999,,25.0,12.0,29.96,1015.5,,,,,,,,,,,,,,,Clear,72000.0,,,73000.0,,,,,,
KRDR,08-11-2007,21:00,METAR,,300,13,22.0,,9999,,26.0,16.0,29.94,1014.6,,,,,,,,,,,,,,,Clear,72000.0,,,73000.0,,,,,,
KRDR,08-11-2007,20:00,METAR,,310,15,,,9999,,27.0,18.0,29.92,1014.1,,,,,,,,,,,,,,,Clear,72000.0,,,73000.0,,,,,,
KRDR,08-11-2007,19:00,METAR,,290,15,,,9999,,28.0,18.0,29.89,1013.0,,,,,,,,,,,,,,,Clear,72000.0,,,73000.0,,,,,,
KRDR,08-11-2007,18:00,METAR,,300,11,,,9999,,28.0,18.0,29.87,1012.4,,,,,,,,,,,,,.03 IN,,Clear,72000.0,,,73000.0,,,,,,
KRDR,08-11-2007,17:00,METAR,,290,9,,,9999,,27.0,18.0,29.87,1012.3,,,,,,,,,,,,,,,Clear,72000.0,,,73000.0,,,,,,
KRDR,08-11-2007,16:00,METAR,,290,7,,,9999,,25.0,18.0,29.85,1011.8,,,,,,,,,,,,,,,Clear,72000.0,,,73000.0,,,,,,
KRDR,08-11-2007,15:00,METAR,,310,3,,,9999,,22.0,18.0,29.83,1011.2,,,,,,,,,,,,.03 IN,,,Clear,72000.0,,,73000.0,,,,,,
KRDR,08-11-2007,14:00,METAR,,50,3,,,9999,,20.0,18.0,29.78,1009.4,,,,,,,,,,,TRACE,,,,Clear,72000.0,,,73000.0,,,,,,
KRDR,08-11-2007,13:00,METAR,,170,13,20.0,,9999,,20.0,17.0,29.74,,,,,,,,,,,,.03 IN,,,,8/8 Overcast,10000.0,,SCT,5000.0,OVC,9900.0,,,,
KRDR,08-11-2007,12:31,SPECI,,210,13,,,9999,Thunderstorm with Rain or Snow/Light Rain Showers,20.0,18.0,29.84,,,,,95,80,,,,,,,,,,8/8 Overcast,8000.0,,SCT,4600.0,BKN,7900.0,OVC,11000.0,,
KRDR,08-11-2007,12:00,METAR,,240,9,,,9999,Light Rain,20.0,18.0,29.86,1012.3,61,,,,,,,,,,.02 IN,,.02 IN,.14 IN,2/8 Mostly Clear,72000.0,,FEW,11000.0,,,,,,
KRDR,08-11-2007,11:32,SPECI,,270,10,,,9999,Light Rain,21.0,18.0,29.87,1012.4,61,,,,,,,,,,,,,,2/8 Mostly Clear,72000.0,,FEW,700.0,,,,,,
KRDR,08-11-2007,11:19,SPECI,,260,15,23.0,,9999,,21.0,18.0,29.87,1012.3,,,,,,,,,,,,,,,Clear,72000.0,,,73000.0,,,,,,
KRDR,08-11-2007,11:00,METAR,,270,15,,,9999,,21.0,18.0,29.84,1011.6,,,,,,,,,,,,,,,2/8 Mostly Clear,72000.0,,FEW,9900.0,,,,,,
KRDR,08-11-2007,10:00,METAR,,20,3,,,9999,,18.0,17.0,29.77,1009.1,,,,,,,,,,,,,,,Clear,72000.0,,,73000.0,,,,,,
KRDR,08-11-2007,09:00,METAR,,280,16,35.0,260/35KTS,9999,,17.0,17.0,29.79,1009.9,,,,,,,,,,,,,,,2/8 Mostly Clear,72000.0,,FEW,2700.0,,,,,,
KRDR,08-11-2007,08:50,METAR,,280,22,35.0,260/35KTS,9999,,17.0,17.0,29.82,1010.7,,,,,,,,,,,,,,,2/8 Mostly Clear,72000.0,,FEW,200.0,,,,,,
KRDR,08-11-2007,08:00,METAR,,130,5,,,9999,,16.0,16.0,29.72,1007.5,,,,,,,,,,,,,,,Clear,72000.0,,,73000.0,,,,,,
KRDR,08-11-2007,07:00,METAR,,270,3,,,9999,,16.0,16.0,29.75,1008.4,,,,,,,,,,,,,,,Clear,72000.0,,,73000.0,,,,,,
KRDR,08-11-2007,06:35,SPECI,,290,7,,,4800,Mist,16.0,15.0,29.75,1008.4,10,,,,,,,,,,,,,,Clear,72000.0,,,73000.0,,,,,,
KRDR,08-11-2007,06:33,SPECI,,300,6,,,3200,Mist,16.0,15.0,29.75,1008.4,10,,,,,,,,,,,,,,Clear,72000.0,,,73000.0,,,,,,
KRDR,08-11-2007,06:28,SPECI,,300,5,,,3200,Mist,16.0,15.0,29.75,1008.3,10,,,,,,,,,,,,,,Clear,72000.0,,,73000.0,,,,,,
KRDR,08-11-2007,06:19,SPECI,,,0,,,9999,,16.0,15.0,29.74,1008.2,,,,,,,,,,,,,,,Clear,72000.0,,,73000.0,,,,,,
KRDR,08-11-2007,06:00,METAR,,,0,,,9999,,17.0,16.0,29.76,1009.0,,,,,,,,,,,,,,,Clear,72000.0,,,73000.0,,,,,,
KRDR,08-11-2007,05:00,METAR,,20,6,,,9999,,18.0,17.0,29.80,1010.0,,,,,,,,,,,,,,,Clear,72000.0,,,73000.0,,,,,,
KRDR,08-11-2007,04:00,METAR,,,0,,,9999,,17.0,17.0,29.83,1011.1,,,,,,,,,,,,,,,7/8 Mostly Cloudy,25000.0,,SCT,11000.0,BKN,25000.0,,,,
KRDR,08-11-2007,03:00,METAR,,350,5,,,9999,,18.0,16.0,29.81,1010.3,,,,,,,,,,,,,,,7/8 Mostly Cloudy,25000.0,,SCT,6900.0,BKN,25000.0,,,,
KRDR,08-11-2007,02:00,METAR,,130,6,,,9999,,21.0,17.0,29.78,1009.6,,,,,,,,,,,,,,,7/8 Mostly Cloudy,25000.0,,SCT,7900.0,BKN,25000.0,,,,
KRDR,08-11-2007,01:00,METAR,,120,12,,,9999,,22.0,16.0,29.80,1010.1,,,,,,,,,,,,,,,7/8 Mostly Cloudy,25000.0,,SCT,7900.0,BKN,25000.0,,,,
KRDR,08-11-2007,00:00,METAR,,100,14,,,9999,,23.0,16.0,29.82,1010.9,,,,,,,,,,,TRACE,,.12 IN,,4/8 Partly Cloudy,72000.0,,SCT,9900.0,SCT,25000.0,,,,
KRDR,08-10-2007,23:00,METAR,,30,18,23.0,,9999,,21.0,18.0,29.90,1013.6,,,,,,,,,,,TRACE,,,,7/8 Mostly Cloudy,10000.0,,FEW,1900.0,SCT,7900.0,BKN,9900.0,BKN,25000.0
KRDR,08-10-2007,22:40,SPECI,,10,14,22.0,,9999,,21.0,17.0,29.93,,,,,,,,,,,,,,,,7/8 Mostly Cloudy,10000.0,,FEW,7900.0,BKN,9900.0,BKN,25000.0,,
KRDR,08-10-2007,22:27,SPECI,,350,15,,,9999,Light Rain Showers,21.0,18.0,29.94,,,,,80,,,,,,,,,,,7/8 Mostly Cloudy,8000.0,,BKN,7900.0,BKN,9900.0,BKN,25000.0,,
KRDR,08-10-2007,22:00,METAR,,360,11,,,9999,,20.0,18.0,29.93,1014.4,,,,,,,,,,,.03 IN,,,,7/8 Mostly Cloudy,10000.0,,SCT,7900.0,BKN,9900.0,BKN,25000.0,,
KRDR,08-10-2007,21:42,SPECI,,360,10,,,9999,,20.0,18.0,29.92,,,,,,,,,,,,,,,,7/8 Mostly Cloudy,8000.0,,BKN,7900.0,BKN,9900.0,BKN,25000.0,,
KRDR,08-10-2007,21:40,SPECI,,360,9,,,9999,Light Rain Showers,20.0,18.0,29.92,,,,,80,,,,,,,,,,,7/8 Mostly Cloudy,8000.0,,BKN,7900.0,BKN,11000.0,BKN,25000.0,,
KRDR,08-10-2007,21:01,SPECI,,330,21,30.0,,6400,Thunderstorm with Rain or Snow/Light Rain Showers,20.0,18.0,29.92,,,,,95,80,,,,,,,,,,4/8 Partly Cloudy,72000.0,,FEW,1600.0,SCT,6400.0,SCT,8900.0,,
KRDR,08-10-2007,21:00,METAR,,310,25,37.0,300/37KTS,3200,Thunderstorm with Rain or Snow/Light Rain Showers,21.0,18.0,29.94,1014.8,,,,95,80,,,,,,.09 IN,.09 IN,,,7/8 Mostly Cloudy,9000.0,,FEW,1600.0,SCT,2200.0,BKN,8900.0,,
KRDR,08-10-2007,20:50,METAR,,280,24,37.0,,800,Heavy Thunderstorm with Rain or Snow/Heavy Rain Showers,21.0,18.0,29.96,,,,,97,82,,,,,,,,,,7/8 Mostly Cloudy,9000.0,,FEW,1600.0,SCT,2200.0,BKN,8900.0,,
KRDR,08-10-2007,20:45,METAR,,300,21,37.0,300/37KTS,1200,Thunderstorm with Rain or Snow/Rain Showers,22.0,19.0,29.93,,,,,95,81,,,,,,,,,,8/8 Overcast,9000.0,,FEW,1600.0,OVC,8900.0,,,,
KRDR,08-10-2007,20:37,SPECI,,300,21,34.0,,6400,Thunderstorm with Rain or Snow/Light Rain Showers,22.0,19.0,29.88,,,,,95,80,,,,,,,,,,8/8 Overcast,8500.0,,OVC,8400.0,,,,,,
KRDR,08-10-2007,20:27,SPECI,,360,10,15.0,,9999,Thunderstorm,23.0,19.0,29.86,,,,,17,,,,,,,,,,,7/8 Mostly Cloudy,8500.0,,BKN,8400.0,BKN,25000.0,,,,
KRDR,08-10-2007,20:00,METAR,,90,4,,,9999,,26.0,18.0,29.84,1011.6,,,,,,,,,,,TRACE,,,,7/8 Mostly Cloudy,8500.0,,BKN,8400.0,BKN,25000.0,,,,
KRDR,08-10-2007,19:41,SPECI,,80,6,,,9999,,25.0,18.0,29.86,,,,,,,,,,,,,,,,7/8 Mostly Cloudy,8500.0,,BKN,8400.0,BKN,25000.0,,,,
KRDR,08-10-2007,19:25,METAR,,340,9,,,9999,Thunderstorm,25.0,19.0,29.88,,,,,17,,,,,,,,,,,7/8 Mostly Cloudy,9000.0,,BKN,8900.0,BKN,25000.0,,,,
KRDR,08-10-2007,19:12,SPECI,,220,8,,,9999,Thunderstorm with Rain or Snow/Light Rain Showers,27.0,20.0,29.89,,,,,95,80,,,,,,,,,,7/8 Mostly Cloudy,8000.0,,BKN,7900.0,BKN,9900.0,BKN,25000.0,,
KRDR,08-10-2007,19:00,METAR,,140,9,,,9999,Thunderstorm,28.0,19.0,29.86,1012.2,,,,17,,,,,,,,,,,7/8 Mostly Cloudy,8000.0,,BKN,7900.0,BKN,9900.0,BKN,25000.0,,
KRDR,08-10-2007,18:42,SPECI,,120,11,,,9999,,28.0,20.0,29.86,,,,,,,,,,,,,,,,7/8 Mostly Cloudy,8000.0,,BKN,7900.0,BKN,9900.0,BKN,25000.0,,
KRDR,08-10-2007,18:00,METAR,,120,10,,,9999,,28.0,20.0,29.89,1013.0,,,,,,,,,,,,,,,7/8 Mostly Cloudy,10000.0,,BKN,9900.0,BKN,25000.0,,,,
KRDR,08-10-2007,17:00,METAR,,110,7,,,9999,,26.0,20.0,29.91,1013.7,,,,,,,,,,,,,,,7/8 Mostly Cloudy,10000.0,,FEW,5900.0,BKN,9900.0,BKN,25000.0,,
KRDR,08-10-2007,16:00,METAR,,170,5,,,9999,,24.0,19.0,29.93,1014.5,,,,,,,,,,,,,,,8/8 Overcast,10000.0,,BKN,9900.0,OVC,25000.0,,,,
KRDR,08-10-2007,15:00,METAR,,180,8,,,9999,,22.0,18.0,29.95,1015.2,,,,,,,,,,,,,,,8/8 Overcast,10000.0,,BKN,9900.0,OVC,25000.0,,,,
KRDR,08-10-2007,14:00,METAR,,180,8,,,9999,,22.0,18.0,29.95,1015.1,,,,,,,,,,,,,,,7/8 Mostly Cloudy,10000.0,,FEW,5900.0,BKN,9900.0,BKN,25000.0,,
KRDR,08-10-2007,13:00,METAR,,180,10,,,9999,,21.0,18.0,29.93,1014.6,,,,,,,,,,,,,,,7/8 Mostly Cloudy,10000.0,,BKN,9900.0,BKN,25000.0,,,,
KRDR,08-10-2007,12:00,METAR,,150,8,,,9999,,20.0,18.0,29.94,1014.6,,,,,,,,,,,TRACE,,TRACE,,7/8 Mostly Cloudy,10000.0,,SCT,5900.0,BKN,9900.0,,,,
KRDR,08-10-2007,11:00,METAR,,,0,,,9999,Rain,20.0,19.0,29.97,1015.7,,,,61,,,,,,,TRACE,,,,7/8 Mostly Cloudy,12000.0,,SCT,7900.0,BKN,12000.0,,,,
KRDR,08-10-2007,10:58,SPECI,,320,4,,,9999,,20.0,19.0,29.98,1016.0,,,,,,,,,,,,,,,7/8 Mostly Cloudy,12000.0,,SCT,7900.0,BKN,12000.0,,,,
KRDR,08-10-2007,10:49,SPECI,,,0,,,9999,Rain,20.0,19.0,29.97,1015.6,,,,61,,,,,,,,,,,7/8 Mostly Cloudy,10000.0,,SCT,5900.0,BKN,9900.0,,,,
KRDR,08-10-2007,10:00,METAR,,60,5,,,9999,,20.0,18.0,29.95,1015.2,,,,,,,,,,,,,,,7/8 Mostly Cloudy,14000.0,,SCT,6900.0,BKN,14000.0,,,,
KRDR,08-10-2007,09:00,METAR,,,0,,,9999,,20.0,19.0,29.93,1014.3,,,,,,,,,,,TRACE,TRACE,,,7/8 Mostly Cloudy,15000.0,,SCT,6900.0,BKN,15000.0,,,,
KRDR,08-10-2007,08:29,SPECI,,120,4,,,9999,Rain,20.0,18.0,29.92,1014.1,,,,61,,,,,,,,,,,7/8 Mostly Cloudy,14000.0,,SCT,6900.0,BKN,14000.0,,,,
KRDR,08-10-2007,08:00,METAR,,180,4,,,9999,,20.0,18.0,29.91,1013.8,,,,,,,,,,,,,,,Clear,72000.0,,,73000.0,,,,,,
KRDR,08-10-2007,07:00,METAR,,190,4,,,9999,,20.0,18.0,29.92,1014.1,,,,,,,,,,,,,,,Clear,72000.0,,,73000.0,,,,,,
KRDR,08-10-2007,06:00,METAR,,170,8,,,9999,,21.0,19.0,29.89,1013.0,,,,,,,,,,,,,,,Clear,72000.0,,,73000.0,,,,,,
KRDR,08-10-2007,05:00,METAR,,190,5,,,9999,,21.0,18.0,29.90,1013.3,,,,,,,,,,,,,,,Clear,72000.0,,,73000.0,,,,,,
KRDR,08-10-2007,04:00,METAR,,200,3,,,9999,,20.0,19.0,29.90,1013.3,,,,,,,,,,,,,,,4/8 Partly Cloudy,72000.0,,SCT,25000.0,,,,,,
KRDR,08-10-2007,03:00,METAR,,200,4,,,9999,,22.0,20.0,29.90,1013.4,,,,,,,,,,,,,,,4/8 Partly Cloudy,72000.0,,SCT,25000.0,,,,,,
KRDR,08-10-2007,02:00,METAR,,130,4,,,9999,,26.0,20.0,29.89,1013.1,,,,,,,,,,,,,,,4/8 Partly Cloudy,72000.0,,SCT,25000.0,,,,,,
KRDR,08-10-2007,01:00,METAR,,70,5,,,9999,,29.0,20.0,29.90,1013.3,,,,,,,,,,,,,,,Clear,72000.0,,,73000.0,,,,,,
KRDR,08-10-2007,00:00,METAR,,50,5,,,9999,,30.0,19.0,29.88,1012.9,,,,,,,,,,,,,,,Clear,72000.0,,,73000.0,,,,,,
KRDR,08-09-2007,23:00,METAR,,10,5,,,9999,,30.0,20.0,29.88,1012.9,,,,,,,,,,,,,,,2/8 Mostly Clear,72000.0,,FEW,4100.0,,,,,,
KRDR,08-09-2007,22:00,METAR,,330,6,,,9999,,31.0,20.0,29.88,1012.8,,,,,,,,,,,,,,,2/8 Mostly Clear,72000.0,,FEW,4100.0,,,,,,
KRDR,08-09-2007,21:00,METAR,,340,9,,,9999,,30.0,21.0,29.88,1012.6,,,,,,,,,,,,,,,2/8 Mostly Clear,72000.0,,FEW,4100.0,,,,,,
KRDR,08-09-2007,20:00,METAR,,300,10,,,9999,,30.0,21.0,29.87,1012.5,,,,,,,,,,,,,,,4/8 Partly Cloudy,72000.0,,SCT,3500.0,,,,,,
KRDR,08-09-2007,19:00,METAR,,320,8,,,9999,,29.0,21.0,29.87,1012.4,,,,,,,,,,,,,,,Clear,72000.0,,,73000.0,,,,,,
KRDR,08-09-2007,18:00,METAR,,330,11,,,9999,,28.0,20.0,29.87,1012.5,,,,,,,,,,,,,,,2/8 Mostly Clear,72000.0,,FEW,3000.0,,,,,,
KRDR,08-09-2007,17:00,METAR,,280,9,,,9999,,27.0,20.0,29.87,1012.4,,,,,,,,,,,,,,,Clear,72000.0,,,73000.0,,,,,,
KRDR,08-09-2007,16:00,METAR,,270,5,,,9999,,26.0,20.0,29.86,1012.2,,,,,,,,,,,,,,,Clear,72000.0,,,73000.0,,,,,,
KRDR,08-09-2007,15:00,METAR,,310,3,,,9999,,23.0,18.0,29.85,1011.7,,,,,,,,,,,,,,,Clear,72000.0,,,73000.0,,,,,,
KRDR,08-09-2007,14:00,METAR,,270,4,,,9999,,21.0,18.0,29.83,1011.3,,,,,,,,,,,,,,,Clear,72000.0,,,73000.0,,,,,,
KRDR,08-09-2007,13:00,METAR,,220,3,,,9999,,17.0,17.0,29.82,1010.9,,,,,,,,,,,,,,,Clear,72000.0,,,73000.0,,,,,,
KRDR,08-09-2007,12:00,METAR,,,0,,,9999,,15.0,15.0,29.81,1010.5,,,,,,,,,,,,,,.26 IN,2/8 Mostly Clear,72000.0,,FEW,25000.0,,,,,,
KRDR,08-09-2007,11:43,SPECI,,210,4,,,9999,Shallow Fog or Ice Fog,14.0,14.0,29.81,,,,,12,,,,,,,,,,,2/8 Mostly Clear,72000.0,,FEW,25000.0,,,,,,
KRDR,08-09-2007,11:00,METAR,,,0,,,2400,Mist,14.0,14.0,29.80,1010.2,,,,10,,,,,,,,,,,Clear,72000.0,,,73000.0,,,,,,
KRDR,08-09-2007,10:42,SPECI,,,4,,,800,Fog or Ice Fog,14.0,14.0,29.80,,,,,44,,,,,,,,,,,Clear,72000.0,,,73000.0,,,,,,
KRDR,08-09-2007,10:17,SPECI,,210,5,,,1200,Mist,14.0,14.0,29.79,,,,,10,,,,,,,,,,,Clear,72000.0,,,73000.0,,,,,,
KRDR,08-09-2007,10:13,SPECI,,180,2,,,800,Fog or Ice Fog,14.0,14.0,29.79,,,,,44,,,,,,,,,,,Clear,72000.0,,,73000.0,,,,,,
KRDR,08-09-2007,10:00,METAR,,110,3,,,1200,Mist,15.0,15.0,29.78,1009.4,,,,10,,,,,,,,,,,Clear,72000.0,,,73000.0,,,,,,
KRDR,08-09-2007,09:06,SPECI,,,0,,,3200,Mist,16.0,16.0,29.79,,,,,10,,,,,,,,,,,Clear,72000.0,,,73000.0,,,,,,
KRDR,08-09-2007,09:00,METAR,,110,2,,,2400,Mist,15.0,15.0,29.78,1009.4,,,,10,,,,,,,,,,,Clear,72000.0,,,73000.0,,,,,,
KRDR,08-09-2007,08:37,SPECI,,,0,,,2800,Mist,15.0,14.0,29.77,,,,,10,,,,,,,,,,,Clear,72000.0,,,73000.0,,,,,,
KRDR,08-09-2007,08:00,METAR,,,0,,,9999,Mist,15.0,15.0,29.77,1009.2,,,,10,,,,,,,,,,,Clear,72000.0,,,73000.0,,,,,,
KRDR,08-09-2007,07:00,METAR,,310,3,,,9999,,16.0,16.0,29.77,1009.2,,,,,,,,,,,,,,,Clear,72000.0,,,73000.0,,,,,,
KRDR,08-09-2007,06:00,METAR,,280,3,,,9999,,17.0,16.0,29.78,1009.5,,,,,,,,,,,,,.23 IN,,2/8 Mostly Clear,72000.0,,FEW,4000.0,,,,,,
KRDR,08-09-2007,05:00,METAR,,160,3,,,9999,,18.0,17.0,29.78,1009.4,,,,,,,,,,,,,,,7/8 Mostly Cloudy,6000.0,,BKN,5900.0,,,,,,
KRDR,08-09-2007,04:00,METAR,,100,8,,,9999,,19.0,18.0,29.77,1009.1,,,,,,,,,,,,,,,2/8 Mostly Clear,72000.0,,FEW,5400.0,,,,,,
KRDR,08-09-2007,03:00,METAR,,100,3,,,9999,,19.0,18.0,29.77,1009.3,,,,,,,,,,,TRACE,.23 IN,,,7/8 Mostly Cloudy,25000.0,,SCT,7900.0,BKN,25000.0,,,,
KRDR,08-09-2007,02:00,METAR,,110,4,,,9999,,19.0,19.0,29.78,1009.3,,,,,,,,,,,.05 IN,,,,7/8 Mostly Cloudy,10000.0,,FEW,2500.0,SCT,7900.0,BKN,9900.0,BKN,25000.0
KRDR,08-09-2007,01:36,SPECI,,100,5,,,9999,,19.0,18.0,29.79,,,,,,,,,,,,,,,,8/8 Overcast,7000.0,,FEW,3000.0,BKN,6900.0,BKN,9900.0,OVC,25000.0
KRDR,08-09-2007,01:00,METAR,,330,5,,,9999,Rain/Mist,19.0,19.0,29.79,1009.8,,,,63,10,,,,,,.18 IN,,,,8/8 Overcast,8000.0,,FEW,300.0,SCT,3100.0,BKN,7900.0,OVC,12000.0
KRDR,08-09-2007,00:11,SPECI,,270,7,,,8000,Thunderstorm with Rain or Snow/Light Rain Showers/Mist,21.0,19.0,29.80,,,,,95,80,10,,,,,,,,,8/8 Overcast,8000.0,,SCT,3500.0,BKN,7900.0,OVC,12000.0,,
KRDR,08-09-2007,00:00,METAR,,40,3,,,9999,,21.0,19.0,29.75,1008.5,,,,,,,,,,,.01 IN,,.02 IN,,8/8 Overcast,25000.0,,SCT,9900.0,OVC,25000.0,,,,
KRDR,08-08-2007,23:30,METAR,,340,5,,,9999,,21.0,19.0,29.76,,,,,,,,,,,,,,,,8/8 Overcast,11000.0,,BKN,11000.0,OVC,25000.0,,,,
KRDR,08-08-2007,23:00,METAR,,130,2,,,9999,Rain,22.0,18.0,29.74,1008.0,,,,61,,,,,,,,,,,8/8 Overcast,12000.0,,FEW,5900.0,BKN,12000.0,OVC,25000.0,,
KRDR,08-08-2007,22:00,METAR,,200,9,17.0,,9999,Precipitation in the Vicinity,23.0,18.0,29.77,1009.0,,,,16,,,,,,,TRACE,,,,8/8 Overcast,9000.0,,FEW,5900.0,BKN,8900.0,OVC,25000.0,,
KRDR,08-08-2007,21:00,METAR,,150,16,,,9999,,21.0,18.0,29.73,1007.7,,,,,,,,,,,.01 IN,.01 IN,,,8/8 Overcast,9500.0,,BKN,9400.0,OVC,25000.0,,,,
KRDR,08-08-2007,20:25,METAR,,160,11,,,9999,,21.0,19.0,29.75,,,,,,,,,,,,,,,,8/8 Overcast,10000.0,,BKN,9900.0,OVC,25000.0,,,,
KRDR,08-08-2007,20:00,METAR,,160,7,,,9999,Rain,22.0,19.0,29.79,1009.9,,,,61,,,,,,,TRACE,,,,8/8 Overcast,7500.0,,BKN,7400.0,OVC,25000.0,,,,
KRDR,08-08-2007,19:20,METAR,,210,10,,,9999,Rain,22.0,18.0,29.81,,,,,61,,,,,,,,,,,8/8 Overcast,10000.0,,BKN,9900.0,OVC,25000.0,,,,
KRDR,08-08-2007,19:00,METAR,,210,8,,,9999,Rain,23.0,17.0,29.81,1010.5,,,,61,,,,,,,TRACE,,,,8/8 Overcast,10000.0,,BKN,9900.0,OVC,25000.0,,,,
KRDR,08-08-2007,18:47,SPECI,,210,9,,,9999,Rain,23.0,17.0,29.81,,,,,61,,,,,,,,,,,8/8 Overcast,10000.0,,BKN,9900.0,OVC,25000.0,,,,
KRDR,08-08-2007,18:00,METAR,,190,11,,,9999,,23.0,17.0,29.78,1009.5,,,,,,,,,,,TRACE,,TRACE,,8/8 Overcast,12000.0,,FEW,6900.0,BKN,12000.0,OVC,25000.0,,
KRDR,08-08-2007,17:00,METAR,,200,14,,,9999,Rain,23.0,17.0,29.80,1010.2,,,,61,,,,,,,,,,,8/8 Overcast,25000.0,,FEW,6900.0,SCT,9400.0,OVC,25000.0,,
KRDR,08-08-2007,16:23,SPECI,,180,13,18.0,,9999,Rain,22.0,17.0,29.79,,,,,61,,,,,,,,,,,8/8 Overcast,8000.0,,BKN,7900.0,BKN,12000.0,OVC,25000.0,,
KRDR,08-08-2007,16:00,METAR,,170,14,,,9999,,22.0,17.0,29.78,1009.6,,,,,,,,,,,,,,,8/8 Overcast,12000.0,,SCT,5000.0,BKN,12000.0,OVC,25000.0,,
KRDR,08-08-2007,15:00,METAR,,170,12,,,9999,,22.0,17.0,29.78,1009.6,,,,,,,,,,,,,,,8/8 Overcast,13000.0,,BKN,13000.0,OVC,25000.0,,,,
KRDR,08-08-2007,14:00,METAR,,210,4,,,9999,,20.0,17.0,29.80,1010.1,,,,,,,,,,,,,,,8/8 Overcast,13000.0,,FEW,5000.0,BKN,13000.0,OVC,25000.0,,
KRDR,08-08-2007,13:00,METAR,,190,4,,,9999,,19.0,16.0,29.78,1009.3,,,,,,,,,,,,,,,8/8 Overcast,13000.0,,BKN,13000.0,OVC,25000.0,,,,
KRDR,08-08-2007,12:00,METAR,,180,4,,,9999,,19.0,16.0,29.78,1009.6,,,,,,,,,,,,,TRACE,,8/8 Overcast,13000.0,,SCT,5900.0,BKN,13000.0,OVC,25000.0,,
KRDR,08-08-2007,11:00,METAR,,230,3,,,9999,,20.0,16.0,29.77,1009.0,,,,,,,,,,,TRACE,,,,7/8 Mostly Cloudy,12000.0,,SCT,5000.0,BKN,12000.0,BKN,25000.0,,
KRDR,08-08-2007,10:32,SPECI,,140,3,,,9999,,20.0,16.0,29.76,1008.7,,,,,,,,,,,,,,,2/8 Mostly Clear,72000.0,,FEW,12000.0,,,,,,
KRDR,08-08-2007,10:06,SPECI,,10,5,,,9999,,18.0,16.0,29.74,1008.2,,,,,,,,,,,,,,,2/8 Mostly Clear,72000.0,,FEW,6900.0,,,,,,
KRDR,08-08-2007,10:00,METAR,,270,4,,,9999,,19.0,16.0,29.74,1008.3,,,,,,,,,,,,,,,Clear,72000.0,,,73000.0,,,,,,
KRDR,08-08-2007,09:00,METAR,,160,5,,,9999,,19.0,16.0,29.74,1008.0,,,,,,,,,,,,,,,Clear,72000.0,,,73000.0,,,,,,
KRDR,08-08-2007,08:00,METAR,,180,9,,,9999,,19.0,16.0,29.76,1008.9,,,,,,,,,,,,,,,Clear,72000.0,,,73000.0,,,,,,
KRDR,08-08-2007,07:00,METAR,,180,9,,,9999,,19.0,16.0,29.78,1009.5,,,,,,,,,,,,,,,Clear,72000.0,,,73000.0,,,,,,
KRDR,08-08-2007,06:00,METAR,,170,6,,,9999,,18.0,16.0,29.80,1010.2,,,,,,,,,,,,,,,2/8 Mostly Clear,72000.0,,FEW,11000.0,,,,,,
KRDR,08-08-2007,05:00,METAR,,180,7,,,9999,,18.0,15.0,29.81,1010.4,,,,,,,,,,,,,,,Clear,72000.0,,,73000.0,,,,,,
KRDR,08-08-2007,04:00,METAR,,170,6,,,9999,,19.0,16.0,29.81,1010.4,,,,,,,,,,,,,,,7/8 Mostly Cloudy,25000.0,,BKN,25000.0,,,,,,
KRDR,08-08-2007,03:00,METAR,,180,6,,,9999,,20.0,16.0,29.81,1010.4,,,,,,,,,,,,,,,7/8 Mostly Cloudy,25000.0,,BKN,25000.0,,,,,,
KRDR,08-08-2007,02:00,METAR,,160,6,,,9999,,22.0,17.0,29.80,1010.1,,,,,,,,,,,,,,,4/8 Partly Cloudy,72000.0,,SCT,25000.0,,,,,,
KRDR,08-08-2007,01:00,METAR,,180,6,,,9999,,25.0,17.0,29.80,1010.0,,,,,,,,,,,,,,,4/8 Partly Cloudy,72000.0,,SCT,25000.0,,,,,,
KRDR,08-08-2007,00:00,METAR,,160,6,,,9999,,27.0,16.0,29.78,1009.6,,,,,,,,,,,,,,,7/8 Mostly Cloudy,25000.0,,BKN,25000.0,,,,,,
KRDR,08-07-2007,23:00,METAR,,,2,,,9999,,27.0,15.0,29.79,1009.9,,,,,,,,,,,,,,,7/8 Mostly Cloudy,25000.0,,BKN,25000.0,,,,,,
KRDR,08-07-2007,22:00,METAR,,,0,,,9999,,27.0,15.0,29.81,1010.4,,,,,,,,,,,,,,,7/8 Mostly Cloudy,25000.0,,BKN,25000.0,,,,,,
KRDR,08-07-2007,21:00,METAR,,,2,,,9999,,26.0,15.0,29.82,1010.7,,,,,,,,,,,,,,,7/8 Mostly Cloudy,25000.0,,BKN,25000.0,,,,,,
KRDR,08-07-2007,20:00,METAR,,,6,,,9999,,25.0,16.0,29.81,1010.5,,,,,,,,,,,,,,,7/8 Mostly Cloudy,25000.0,,FEW,5900.0,BKN,25000.0,,,,
KRDR,08-07-2007,19:00,METAR,,,3,,,9999,,24.0,15.0,29.82,1010.7,,,,,,,,,,,,,,,7/8 Mostly Cloudy,25000.0,,FEW,5900.0,BKN,25000.0,,,,
KRDR,08-07-2007,18:00,METAR,,,6,,,9999,,23.0,15.0,29.81,1010.6,,,,,,,,,,,,,,,4/8 Partly Cloudy,72000.0,,FEW,2000.0,SCT,25000.0,,,,
KRDR,08-07-2007,17:00,METAR,,330,6,,,9999,,21.0,14.0,29.81,1010.4,,,,,,,,,,,,,,,4/8 Partly Cloudy,72000.0,,FEW,2000.0,SCT,25000.0,,,,
KRDR,08-07-2007,16:00,METAR,,330,7,,,9999,,20.0,14.0,29.82,1010.7,,,,,,,,,,,,,,,2/8 Mostly Clear,72000.0,,FEW,1000.0,FEW,25000.0,,,,
KRDR,08-07-2007,15:00,METAR,,350,11,,,9999,,19.0,14.0,29.80,1010.0,,,,,,,,,,,,,,,2/8 Mostly Clear,72000.0,,FEW,1000.0,,,,,,
KRDR,08-07-2007,14:00,METAR,,330,12,,,9999,,18.0,14.0,29.80,1010.0,,,,,,,,,,,,,,,2/8 Mostly Clear,72000.0,,FEW,1000.0,FEW,25000.0,,,,
KRDR,08-07-2007,13:00,METAR,,320,9,,,9999,,16.0,14.0,29.79,1009.6,,,,,,,,,,,,,,,4/8 Partly Cloudy,72000.0,,FEW,1000.0,SCT,25000.0,,,,
KRDR,08-07-2007,12:00,METAR,,310,11,,,9999,,15.0,14.0,29.77,1009.2,,,,,,,,,,,,,,.03 IN,4/8 Partly Cloudy,72000.0,,SCT,800.0,SCT,15000.0,,,,
KRDR,08-07-2007,11:46,SPECI,,300,10,,,9999,,15.0,14.0,29.77,,,,,,,,,,,,,,,,4/8 Partly Cloudy,72000.0,,FEW,800.0,SCT,15000.0,,,,
KRDR,08-07-2007,11:00,METAR,,290,6,,,9999,,16.0,14.0,29.74,1008.0,,,,,,,,,,,,,,,4/8 Partly Cloudy,72000.0,,SCT,1500.0,SCT,12000.0,,,,
KRDR,08-07-2007,10:24,SPECI,,300,7,,,9999,,17.0,15.0,29.72,1007.4,,,,,,,,,,,,,,,4/8 Partly Cloudy,72000.0,,SCT,1300.0,,,,,,
KRDR,08-07-2007,10:00,METAR,,310,10,,,9999,,17.0,15.0,29.70,1007.0,,,,,,,,,,,,,,,8/8 Overcast,900.0,,OVC,1300.0,,,,,,
KRDR,08-07-2007,09:28,SPECI,,320,10,,,9999,,17.0,16.0,29.69,1006.6,,,,,,,,,,,,,,,7/8 Mostly Cloudy,1300.0,,BKN,1300.0,,,,,,
KRDR,08-07-2007,09:04,SPECI,,330,15,,,9999,,19.0,17.0,29.67,1006.0,,,,,,,,,,,,,,,4/8 Partly Cloudy,72000.0,,SCT,1400.0,,,,,,
KRDR,08-07-2007,09:02,SPECI,,330,15,,,9999,,19.0,17.0,29.67,1005.9,,,,,,,,,,,,,,,7/8 Mostly Cloudy,1400.0,,BKN,1400.0,,,,,,
KRDR,08-07-2007,09:00,METAR,,310,13,,,9999,,19.0,17.0,29.67,1005.8,,,,,,,,,,,,,,,7/8 Mostly Cloudy,1600.0,,BKN,1600.0,,,,,,
KRDR,08-07-2007,08:43,SPECI,,300,14,,,9999,,19.0,17.0,29.67,1005.7,,,,,,,,,,,,,,,7/8 Mostly Cloudy,1600.0,,BKN,1600.0,,,,,,
KRDR,08-07-2007,08:04,SPECI,,290,14,,,9999,,19.0,17.0,29.64,1005.0,,,,,,,,,,,,,,,7/8 Mostly Cloudy,1400.0,,BKN,1400.0,,,,,,
KRDR,08-07-2007,08:00,METAR,,280,11,,,9999,,19.0,17.0,29.64,1004.7,,,,,,,,,,,,,,,Clear,72000.0,,,73000.0,,,,,,
KRDR,08-07-2007,07:00,METAR,,190,8,,,9999,,19.0,18.0,29.65,1005.1,,,,,,,,,,,,,,,4/8 Partly Cloudy,72000.0,,SCT,1700.0,,,,,,
KRDR,08-07-2007,06:40,SPECI,,200,8,,,9999,,19.0,17.0,29.65,1005.2,,,,,,,,,,,,,,,4/8 Partly Cloudy,72000.0,,SCT,1800.0,,,,,,
KRDR,08-07-2007,06:09,SPECI,,180,7,,,9999,,18.0,16.0,29.67,1005.7,,,,,,,,,,,,,,,7/8 Mostly Cloudy,2100.0,,BKN,2100.0,,,,,,
KRDR,08-07-2007,06:00,METAR,,180,7,,,9999,,18.0,16.0,29.67,1005.8,,,,,,,,,,,,,,,Clear,72000.0,,,73000.0,,,,,,
KRDR,08-07-2007,05:00,METAR,,170,7,,,9999,,19.0,16.0,29.69,1006.4,,,,,,,,,,,,,,,7/8 Mostly Cloudy,3600.0,,BKN,3700.0,,,,,,
KRDR,08-07-2007,04:46,SPECI,,160,7,,,9999,,19.0,16.0,29.69,1006.4,,,,,,,,,,,,,,,7/8 Mostly Cloudy,3000.0,,BKN,3000.0,,,,,,
KRDR,08-07-2007,04:39,SPECI,,160,7,,,9999,,19.0,16.0,29.69,1006.6,,,,,,,,,,,,,,,8/8 Overcast,1800.0,,OVC,2900.0,,,,,,
KRDR,08-07-2007,04:27,SPECI,,160,6,,,9999,,19.0,16.0,29.70,1006.8,,,,,,,,,,,,,,,8/8 Overcast,3100.0,,OVC,3200.0,,,,,,
KRDR,08-07-2007,04:00,METAR,,150,4,,,9999,,19.0,16.0,29.71,1007.2,,,,,,,,,,,,,,,7/8 Mostly Cloudy,2100.0,,BKN,2100.0,,,,,,
KRDR,08-07-2007,03:00,METAR,,150,5,,,9999,,20.0,16.0,29.72,1007.4,,,,,,,,,,,,,,,4/8 Partly Cloudy,72000.0,,SCT,3500.0,SCT,25000.0,,,,
KRDR,08-07-2007,02:00,METAR,,110,4,,,9999,,21.0,16.0,29.71,1007.3,,,,,,,,,,,,,,,4/8 Partly Cloudy,72000.0,,FEW,3800.0,SCT,8900.0,,,,
KRDR,08-07-2007,01:00,METAR,,50,5,,,9999,,22.0,16.0,29.72,1007.5,,,,,,,,,,,,,,,4/8 Partly Cloudy,72000.0,,SCT,7900.0,SCT,25000.0,,,,
KRDR,08-07-2007,00:00,METAR,,50,6,,,9999,,23.0,15.0,29.74,1008.0,,,,,,,,,,,,,TRACE,,4/8 Partly Cloudy,72000.0,,FEW,5000.0,SCT,9900.0,,,,
KRDR,08-06-2007,23:00,METAR,,70,9,,,9999,,23.0,15.0,29.76,1008.9,,,,,,,,,,,,,,,4/8 Partly Cloudy,72000.0,,FEW,5000.0,SCT,9900.0,,,,
KRDR,08-06-2007,22:00,METAR,,50,6,,,9999,,22.0,15.0,29.79,1009.8,,,,,,,,,,,,,,,7/8 Mostly Cloudy,25000.0,,FEW,3000.0,SCT,9900.0,BKN,25000.0,,
KRDR,08-06-2007,21:00,METAR,,110,7,,,9999,,21.0,15.0,29.80,1010.2,,,,,,,,,,,,TRACE,,,7/8 Mostly Cloudy,10000.0,,BKN,9900.0,BKN,25000.0,,,,
KRDR,08-06-2007,20:00,METAR,,90,10,,,9999,,21.0,15.0,29.83,1011.0,,,,,,,,,,,,,,,7/8 Mostly Cloudy,12000.0,,FEW,3000.0,SCT,7900.0,BKN,12000.0,BKN,25000.0
KRDR,08-06-2007,19:00,METAR,,160,6,,,9999,,18.0,15.0,29.86,1012.0,,,,,,,,,,,TRACE,,,,8/8 Overcast,12000.0,,BKN,12000.0,OVC,25000.0,,,,
KRDR,08-06-2007,18:22,SPECI,,,4,,,9999,,17.0,15.0,29.88,,,,,,,,,,,,,,,,8/8 Overcast,11000.0,,BKN,11000.0,OVC,25000.0,,,,
KRDR,08-06-2007,18:00,METAR,,180,7,,,9999,Rain,17.0,15.0,29.89,1013.1,,,,61,,,,,,,TRACE,,.03 IN,,8/8 Overcast,12000.0,,FEW,3000.0,BKN,12000.0,OVC,25000.0,,
KRDR,08-06-2007,17:00,METAR,,50,11,,,9999,Rain,16.0,15.0,29.81,1010.4,,,,61,,,,,,,.03 IN,,,,8/8 Overcast,15000.0,,FEW,4000.0,SCT,7900.0,OVC,15000.0,,
KRDR,08-06-2007,16:07,SPECI,,100,3,,,9999,Rain,17.0,14.0,29.91,,,,,61,,,,,,,,,,,8/8 Overcast,3900.0,,BKN,4000.0,BKN,15000.0,OVC,25000.0,,
KRDR,08-06-2007,16:00,METAR,,130,6,,,9999,Rain,17.0,14.0,29.91,1013.6,,,,61,,,,,,,TRACE,,,,8/8 Overcast,15000.0,,FEW,4000.0,BKN,15000.0,OVC,25000.0,,
KRDR,08-06-2007,15:46,SPECI,,120,5,,,9999,,17.0,13.0,29.91,,,,,,,,,,,,,,,,8/8 Overcast,15000.0,,FEW,4000.0,BKN,15000.0,OVC,25000.0,,
KRDR,08-06-2007,15:00,METAR,,,3,,,9999,,17.0,14.0,29.95,1015.1,,,,,,,,,,,,,,,8/8 Overcast,18000.0,,FEW,4000.0,BKN,18000.0,OVC,25000.0,,
KRDR,08-06-2007,14:00,METAR,,,3,,,9999,,16.0,14.0,29.96,1015.3,,,,,,,,,,,,,,,8/8 Overcast,18000.0,,FEW,3500.0,BKN,18000.0,OVC,25000.0,,
KRDR,08-06-2007,13:00,METAR,,,3,,,9999,,15.0,13.0,29.91,1013.9,,,,,,,,,,,,,,,8/8 Overcast,18000.0,,BKN,18000.0,OVC,25000.0,,,,
KRDR,08-06-2007,12:00,METAR,,,0,,,9999,,11.0,11.0,29.91,1013.8,,,,,,,,,,,,,,,8/8 Overcast,21000.0,,SCT,5900.0,OVC,21000.0,,,,
KRDR,08-06-2007,11:00,METAR,,340,2,,,9999,,11.0,11.0,29.90,1013.4,,,,,,,,,,,,,,,7/8 Mostly Cloudy,21000.0,,SCT,5900.0,BKN,21000.0,,,,
KRDR,08-06-2007,10:00,METAR,,330,2,,,9999,,11.0,11.0,29.88,1012.9,,,,,,,,,,,,,,,Clear,72000.0,,,73000.0,,,,,,
KRDR,08-06-2007,09:00,METAR,,350,6,,,9999,,13.0,12.0,29.88,1012.9,,,,,,,,,,,,,,,Clear,72000.0,,,73000.0,,,,,,
KRDR,08-06-2007,08:00,METAR,,320,7,,,9999,,13.0,12.0,29.88,1012.9,,,,,,,,,,,,,,,Clear,72000.0,,,73000.0,,,,,,
KRDR,08-06-2007,07:00,METAR,,270,3,,,9999,,13.0,12.0,29.89,1013.1,,,,,,,,,,,,,,,Clear,72000.0,,,73000.0,,,,,,
KRDR,08-06-2007,06:00,METAR,,340,4,,,9999,,15.0,13.0,29.88,1012.7,,,,,,,,,,,,,,,Clear,72000.0,,,73000.0,,,,,,
KRDR,08-06-2007,05:00,METAR,,340,6,,,9999,,16.0,14.0,29.87,1012.4,,,,,,,,,,,,,,,Clear,72000.0,,,73000.0,,,,,,
KRDR,08-06-2007,04:00,METAR,,300,6,,,9999,,17.0,14.0,29.84,1011.6,,,,,,,,,,,,,,,Clear,72000.0,,,73000.0,,,,,,
KRDR,08-06-2007,03:00,METAR,,300,6,,,9999,,18.0,15.0,29.83,1011.0,,,,,,,,,,,,,,,Clear,72000.0,,,73000.0,,,,,,
KRDR,08-06-2007,02:00,METAR,,320,5,,,9999,,21.0,15.0,29.79,1009.9,,,,,,,,,,,,,,,Clear,72000.0,,,73000.0,,,,,,
KRDR,08-06-2007,01:00,METAR,,310,5,,,9999,,24.0,15.0,29.78,1009.6,,,,,,,,,,,,,,,Clear,72000.0,,,73000.0,,,,,,
KRDR,08-06-2007,00:00,METAR,,320,10,,,9999,,26.0,16.0,29.77,1009.3,,,,,,,,,,,,,,,Clear,72000.0,,,73000.0,,,,,,
KRDR,08-05-2007,23:00,METAR,,290,14,,,9999,,28.0,14.0,29.77,1009.1,,,,,,,,,,,,,,,Clear,72000.0,,,73000.0,,,,,,
KRDR,08-05-2007,22:00,METAR,,300,11,,,9999,,28.0,18.0,29.76,1008.8,,,,,,,,,,,,,,,Clear,72000.0,,,73000.0,,,,,,
KRDR,08-05-2007,21:00,METAR,,290,7,,,9999,,27.0,19.0,29.76,1008.9,,,,,,,,,,,,,,,Clear,72000.0,,,73000.0,,,,,,
KRDR,08-05-2007,20:00,METAR,,290,10,,,9999,,28.0,19.0,29.76,1008.8,,,,,,,,,,,,,,,Clear,72000.0,,,73000.0,,,,,,
KRDR,08-05-2007,19:00,METAR,,300,10,17.0,,9999,,27.0,20.0,29.74,1008.3,,,,,,,,,,,,,,,Clear,72000.0,,,73000.0,,,,,,
KRDR,08-05-2007,18:00,METAR,,210,4,,,9999,,24.0,19.0,29.74,1008.2,,,,,,,,,,,,,,,7/8 Mostly Cloudy,25000.0,,FEW,12000.0,BKN,25000.0,,,,
KRDR,08-05-2007,17:06,SPECI,,230,16,,,9999,,22.0,18.0,29.78,,,,,,,,,,,,,,,,7/8 Mostly Cloudy,25000.0,,FEW,1500.0,BKN,25000.0,,,,
KRDR,08-05-2007,17:00,METAR,,240,16,21.0,,9999,,21.0,18.0,29.80,1010.1,,,,,,,,,,,,,,,8/8 Overcast,1500.0,,BKN,1500.0,OVC,2500.0,,,,
KRDR,08-05-2007,16:00,METAR,,230,13,,,9999,,20.0,17.0,29.78,1009.4,,,,,,,,,,,,,,,8/8 Overcast,1300.0,,OVC,1300.0,,,,,,
KRDR,08-05-2007,15:00,METAR,,210,7,,,9999,,20.0,16.0,29.76,1008.9,,,,,,,,,,,,,,,8/8 Overcast,900.0,,OVC,900.0,,,,,,
KRDR,08-05-2007,14:00,METAR,,200,7,,,9999,,18.0,16.0,29.77,1009.3,,,,,,,,,,,,,,,8/8 Overcast,900.0,,OVC,900.0,,,,,,
KRDR,08-05-2007,13:00,METAR,,210,7,,,9999,,18.0,16.0,29.78,1009.4,,,,,,,,,,,,,,,8/8 Overcast,900.0,,OVC,900.0,,,,,,
KRDR,08-05-2007,12:00,METAR,,220,10,,,9999,,18.0,15.0,29.79,1009.9,,,,,,,,,,,,,,,8/8 Overcast,900.0,,OVC,900.0,,,,,,
KRDR,08-05-2007,11:37,SPECI,,220,6,,,9999,,18.0,16.0,29.79,,,,,,,,,,,,,,,,8/8 Overcast,900.0,,OVC,900.0,,,,,,
KRDR,08-05-2007,11:00,METAR,,240,7,,,9999,,18.0,16.0,29.80,1010.0,,,,,,,,,,,,,,,8/8 Overcast,1100.0,,OVC,1100.0,,,,,,
KRDR,08-05-2007,10:00,METAR,,200,6,,,9999,,18.0,16.0,29.78,1009.6,,,,,,,,,,,,,,,8/8 Overcast,700.0,,OVC,1100.0,,,,,,
KRDR,08-05-2007,09:00,METAR,,210,5,,,9999,,18.0,16.0,29.81,1010.3,,,,,,,,,,,,,,,8/8 Overcast,1100.0,,OVC,1100.0,,,,,,
KRDR,08-05-2007,08:03,SPECI,,210,6,,,9999,,18.0,16.0,29.83,1011.0,,,,,,,,,,,,,,,8/8 Overcast,1000.0,,OVC,1400.0,,,,,,
KRDR,08-05-2007,08:00,METAR,,210,5,,,9999,,18.0,16.0,29.83,1011.0,,,,,,,,,,,,,,,8/8 Overcast,1200.0,,OVC,1700.0,,,,,,
KRDR,08-05-2007,07:00,METAR,,170,11,,,9999,,18.0,16.0,29.80,1010.2,,,,,,,,,,,,,,,8/8 Overcast,1800.0,,OVC,1800.0,,,,,,
KRDR,08-05-2007,06:00,METAR,,190,8,,,9999,,19.0,17.0,29.82,1010.7,,,,,,,,,,,,,,,8/8 Overcast,1000.0,,OVC,1600.0,,,,,,
KRDR,08-05-2007,05:00,METAR,,200,9,,,9999,,19.0,17.0,29.83,1011.0,,,,,,,,,,,,,,,8/8 Overcast,1200.0,,OVC,1700.0,,,,,,
KRDR,08-05-2007,04:00,METAR,,180,14,,,9999,,19.0,17.0,29.83,1011.0,,,,,,,,,,,,,,,8/8 Overcast,2600.0,,OVC,2600.0,,,,,,
KRDR,08-05-2007,03:00,METAR,,190,11,,,9999,,20.0,17.0,29.86,1012.1,,,,,,,,,,,,,,,8/8 Overcast,2500.0,,FEW,1900.0,OVC,2500.0,,,,
KRDR,08-05-2007,02:00,METAR,,190,11,,,9999,,20.0,17.0,29.85,1011.8,,,,,,,,,,,,,,,8/8 Overcast,2500.0,,FEW,1500.0,OVC,2500.0,,,,
KRDR,08-05-2007,01:00,METAR,,180,15,,,9999,,21.0,17.0,29.85,1011.8,,,,,,,,,,,,,,,7/8 Mostly Cloudy,2500.0,,BKN,2500.0,,,,,,
KRDR,08-05-2007,00:16,SPECI,,160,14,,,9999,,22.0,17.0,29.85,,,,,,,,,,,,,,,,8/8 Overcast,2500.0,,OVC,2500.0,,,,,,
KRDR,08-05-2007,00:00,METAR,,170,14,,,9999,,22.0,17.0,29.85,1011.8,,,,,,,,,,,,,,,8/8 Overcast,3000.0,,SCT,2500.0,OVC,3000.0,,,,
KRDR,08-04-2007,23:00,METAR,,160,15,,,9999,,23.0,17.0,29.87,1012.4,,,,,,,,,,,,,,,8/8 Overcast,3300.0,,OVC,3400.0,,,,,,
KRDR,08-04-2007,22:00,METAR,,170,17,21.0,,9999,,24.0,17.0,29.88,,,,,,,,,,,,,,,,7/8 Mostly Cloudy,4300.0,,BKN,4400.0,BKN,9900.0,,,,
KRDR,08-04-2007,21:55,METAR,,180,16,,,9999,,24.0,17.0,29.88,1012.7,,,,,,,,,,,,,,,7/8 Mostly Cloudy,4800.0,,BKN,4900.0,,,,,,
KRDR,08-04-2007,21:00,METAR,,190,13,19.0,,9999,,25.0,17.0,29.89,,,,,,,,,,,,,,,,7/8 Mostly Cloudy,3700.0,,BKN,3800.0,,,,,,
KRDR,08-04-2007,20:55,METAR,,180,14,19.0,,9999,,24.0,17.0,29.90,1013.4,,,,,,,,,,,,,,,4/8 Partly Cloudy,72000.0,,SCT,3600.0,,,,,,
KRDR,08-04-2007,20:00,METAR,,190,13,,,9999,,24.0,17.0,29.91,,,,,,,,,,,,,,,,8/8 Overcast,3300.0,,OVC,3400.0,,,,,,
KRDR,08-04-2007,19:55,METAR,,190,12,,,9999,,24.0,17.0,29.91,1013.9,,,,,,,,,,,,,,,8/8 Overcast,3300.0,,OVC,3400.0,,,,,,
KRDR,08-04-2007,19:00,METAR,,200,15,,,9999,,24.0,17.0,29.91,1013.7,,,,,,,,,,,,,,,7/8 Mostly Cloudy,3200.0,,BKN,3300.0,,,,,,
KRDR,08-04-2007,18:00,METAR,,170,15,22.0,,9999,,24.0,18.0,29.90,1013.5,,,,,,,,,,,,,,,4/8 Partly Cloudy,72000.0,,SCT,2900.0,,,,,,
KRDR,08-04-2007,17:00,METAR,,190,14,,,9999,,25.0,17.0,29.91,1013.9,,,,,,,,,,,,,,,4/8 Partly Cloudy,72000.0,,SCT,2900.0,,,,,,
KRDR,08-04-2007,16:49,SPECI,,180,17,,,9999,,25.0,17.0,29.91,1013.9,,,,,,,,,,,,,,,4/8 Partly Cloudy,72000.0,,SCT,2900.0,,,,,,
KRDR,08-04-2007,16:00,METAR,,170,17,,,9999,,23.0,17.0,29.92,1014.1,,,,,,,,,,,,,,,4/8 Partly Cloudy,72000.0,,SCT,2500.0,,,,,,
KRDR,08-04-2007,15:00,METAR,,180,18,21.0,,9999,,22.0,16.0,29.93,1014.5,,,,,,,,,,,,,,,4/8 Partly Cloudy,72000.0,,FEW,2400.0,SCT,9900.0,,,,
KRDR,08-04-2007,14:00,METAR,,170,11,,,9999,,22.0,16.0,29.94,1014.7,,,,,,,,,,,,,,,2/8 Mostly Clear,72000.0,,FEW,9900.0,,,,,,
KRDR,08-04-2007,13:00,METAR,,150,4,,,9999,,18.0,16.0,29.95,1015.2,,,,,,,,,,,,,,,2/8 Mostly Clear,72000.0,,FEW,9900.0,FEW,25000.0,,,,
KRDR,08-04-2007,12:00,METAR,,150,4,,,9999,,17.0,15.0,29.96,1015.4,,,,,,,,,,,,,,,2/8 Mostly Clear,72000.0,,FEW,9900.0,,,,,,
KRDR,08-04-2007,11:00,METAR,,30,3,,,9999,,16.0,14.0,29.96,1015.4,,,,,,,,,,,,,,,4/8 Partly Cloudy,72000.0,,FEW,9900.0,SCT,25000.0,,,,
KRDR,08-04-2007,10:00,METAR,,,0,,,9999,,18.0,15.0,29.96,1015.4,,,,,,,,,,,,,,,Clear,72000.0,,,73000.0,,,,,,
KRDR,08-04-2007,09:00,METAR,,180,6,,,9999,,19.0,16.0,29.93,1014.6,,,,,,,,,,,,,,,Clear,72000.0,,,73000.0,,,,,,
KRDR,08-04-2007,08:00,METAR,,170,10,,,9999,,19.0,17.0,29.95,1015.0,,,,,,,,,,,,,,,Clear,72000.0,,,73000.0,,,,,,
KRDR,08-04-2007,07:00,METAR,,80,5,,,9999,,19.0,17.0,29.94,1014.6,,,,,,,,,,,,,,,Clear,72000.0,,,73000.0,,,,,,
KRDR,08-04-2007,06:00,METAR,,180,8,,,9999,,22.0,17.0,29.93,1014.5,,,,,,,,,,,,,,,Clear,72000.0,,,73000.0,,,,,,
KRDR,08-04-2007,05:00,METAR,,130,7,,,9999,,22.0,17.0,29.93,1014.6,,,,,,,,,,,,,,,Clear,72000.0,,,73000.0,,,,,,
KRDR,08-04-2007,04:00,METAR,,140,8,,,9999,,23.0,17.0,29.94,1014.8,,,,,,,,,,,,,,,8/8 Overcast,12000.0,,OVC,12000.0,,,,,,
KRDR,08-04-2007,03:00,METAR,,170,6,,,9999,,24.0,17.0,29.94,1014.8,,,,,,,,,,,,,,,8/8 Overcast,12000.0,,BKN,12000.0,OVC,25000.0,,,,
KRDR,08-04-2007,02:00,METAR,,130,8,,,9999,,23.0,16.0,29.94,1014.8,,,,,,,,,,,,,,,8/8 Overcast,12000.0,,BKN,12000.0,OVC,25000.0,,,,
KRDR,08-04-2007,01:00,METAR,,120,9,,,9999,,24.0,16.0,29.96,1015.3,,,,,,,,,,,,,,,8/8 Overcast,25000.0,,SCT,9900.0,OVC,25000.0,,,,
KRDR,08-04-2007,00:00,METAR,,110,9,,,9999,,25.0,15.0,29.95,1015.2,,,,,,,,,,,,,,,8/8 Overcast,25000.0,,SCT,9900.0,OVC,25000.0,,,,
KRDR,08-03-2007,23:00,METAR,,110,7,,,9999,,25.0,16.0,29.97,1015.8,,,,,,,,,,,,,,,8/8 Overcast,25000.0,,SCT,9900.0,OVC,25000.0,,,,
KRDR,08-03-2007,22:00,METAR,,130,7,,,9999,,25.0,15.0,30.00,1016.8,,,,,,,,,,,,,,,8/8 Overcast,12000.0,,SCT,8900.0,BKN,12000.0,OVC,25000.0,,
KRDR,08-03-2007,21:00,METAR,,140,7,,,9999,,26.0,15.0,30.01,1017.2,,,,,,,,,,,,,,,7/8 Mostly Cloudy,25000.0,,SCT,9900.0,BKN,25000.0,,,,
KRDR,08-03-2007,20:00,METAR,,160,11,,,9999,,27.0,14.0,30.03,1017.8,,,,,,,,,,,,,,,7/8 Mostly Cloudy,25000.0,,SCT,12000.0,BKN,25000.0,,,,
KRDR,08-03-2007,19:00,METAR,,170,10,,,9999,,27.0,14.0,30.04,1018.1,,,,,,,,,,,,,,,7/8 Mostly Cloudy,25000.0,,SCT,12000.0,BKN,25000.0,,,,
KRDR,08-03-2007,18:00,METAR,,140,7,,,9999,,27.0,14.0,30.06,1018.7,,,,,,,,,,,,,,,7/8 Mostly Cloudy,25000.0,,SCT,11000.0,BKN,25000.0,,,,
KRDR,08-03-2007,17:00,METAR,,120,8,,,9999,,25.0,14.0,30.08,1019.2,,,,,,,,,,,,,,,4/8 Partly Cloudy,72000.0,,FEW,11000.0,SCT,25000.0,,,,
KRDR,08-03-2007,16:00,METAR,,130,8,,,9999,,24.0,13.0,30.09,1019.7,,,,,,,,,,,,,,,4/8 Partly Cloudy,72000.0,,FEW,11000.0,SCT,25000.0,,,,
KRDR,08-03-2007,15:00,METAR,,130,4,,,9999,,21.0,14.0,30.09,1019.8,,,,,,,,,,,,,,,4/8 Partly Cloudy,72000.0,,FEW,11000.0,SCT,25000.0,,,,
KRDR,08-03-2007,14:00,METAR,,,0,,,9999,,18.0,13.0,30.10,1020.0,,,,,,,,,,,,,,,4/8 Partly Cloudy,72000.0,,FEW,11000.0,SCT,25000.0,,,,
KRDR,08-03-2007,13:00,METAR,,,2,,,9999,,15.0,13.0,30.10,1020.0,,,,,,,,,,,,,,,4/8 Partly Cloudy,72000.0,,FEW,11000.0,SCT,25000.0,,,,
KRDR,08-03-2007,12:00,METAR,,,0,,,9999,,12.0,10.0,30.09,1019.7,,,,,,,,,,,,,,,4/8 Partly Cloudy,72000.0,,FEW,7400.0,FEW,9900.0,SCT,20000.0,,
KRDR,08-03-2007,11:00,METAR,,,0,,,9999,,11.0,10.0,30.08,1019.5,,,,,,,,,,,,,,,Clear,72000.0,,,73000.0,,,,,,
KRDR,08-03-2007,10:00,METAR,,,0,,,9999,,12.0,10.0,30.07,1019.1,,,,,,,,,,,,,,,Clear,72000.0,,,73000.0,,,,,,
KRDR,08-03-2007,09:00,METAR,,240,4,,,9999,,12.0,10.0,30.06,1018.8,,,,,,,,,,,,,,,Clear,72000.0,,,73000.0,,,,,,
KRDR,08-03-2007,08:00,METAR,,330,3,,,9999,,13.0,11.0,30.05,1018.5,,,,,,,,,,,,,,,Clear,72000.0,,,73000.0,,,,,,
KRDR,08-03-2007,07:00,METAR,,310,3,,,9999,,15.0,12.0,30.06,1018.8,,,,,,,,,,,,,,,Clear,72000.0,,,73000.0,,,,,,
KRDR,08-03-2007,06:00,METAR,,270,5,,,9999,,15.0,12.0,30.05,1018.3,,,,,,,,,,,,,,,Clear,72000.0,,,73000.0,,,,,,
KRDR,08-03-2007,05:00,METAR,,270,5,,,9999,,15.0,12.0,30.04,1018.2,,,,,,,,,,,,,,,Clear,72000.0,,,73000.0,,,,,,
KRDR,08-03-2007,04:00,METAR,,260,5,,,9999,,16.0,13.0,30.04,1018.0,,,,,,,,,,,,,,,Clear,72000.0,,,73000.0,,,,,,
KRDR,08-03-2007,03:00,METAR,,290,4,,,9999,,18.0,12.0,30.03,1017.9,,,,,,,,,,,,,,,Clear,72000.0,,,73000.0,,,,,,
KRDR,08-03-2007,02:00,METAR,,270,6,,,9999,,21.0,13.0,30.03,1017.6,,,,,,,,,,,,,,,Clear,72000.0,,,73000.0,,,,,,
KRDR,08-03-2007,01:00,METAR,,280,7,,,9999,,24.0,13.0,30.03,1017.6,,,,,,,,,,,,,,,Clear,72000.0,,,73000.0,,,,,,
KRDR,08-03-2007,00:00,METAR,,300,10,,,9999,,26.0,12.0,30.03,1017.6,,,,,,,,,,,,,,,Clear,72000.0,,,73000.0,,,,,,
KRDR,08-02-2007,23:00,METAR,,310,10,18.0,,9999,,26.0,11.0,30.03,1017.8,,,,,,,,,,,,,,,Clear,72000.0,,,73000.0,,,,,,
KRDR,08-02-2007,22:00,METAR,,320,11,16.0,,9999,,26.0,11.0,30.04,1017.9,,,,,,,,,,,,,,,Clear,72000.0,,,73000.0,,,,,,
KRDR,08-02-2007,21:00,METAR,,310,14,20.0,,9999,,26.0,10.0,30.04,1017.9,,,,,,,,,,,,,,,Clear,72000.0,,,73000.0,,,,,,
KRDR,08-02-2007,20:00,METAR,,290,17,21.0,,9999,,26.0,10.0,30.04,1018.0,,,,,,,,,,,,,,,2/8 Mostly Clear,72000.0,,FEW,5900.0,,,,,,
KRDR,08-02-2007,19:00,METAR,,320,13,20.0,,9999,,25.0,10.0,30.04,1018.2,,,,,,,,,,,,,,,2/8 Mostly Clear,72000.0,,FEW,5900.0,,,,,,
KRDR,08-02-2007,18:00,METAR,,300,11,20.0,,9999,,25.0,11.0,30.05,1018.3,,,,,,,,,,,,,,,2/8 Mostly Clear,72000.0,,FEW,5900.0,,,,,,
KRDR,08-02-2007,17:00,METAR,,320,13,20.0,,9999,,24.0,11.0,30.06,1018.7,,,,,,,,,,,,,,,2/8 Mostly Clear,72000.0,,FEW,4000.0,,,,,,
KRDR,08-02-2007,16:00,METAR,,330,13,,,9999,,23.0,12.0,30.06,1018.6,,,,,,,,,,,,,,,Clear,72000.0,,,73000.0,,,,,,
KRDR,08-02-2007,15:00,METAR,,310,10,,,9999,,21.0,13.0,30.06,1018.6,,,,,,,,,,,,,,,Clear,72000.0,,,73000.0,,,,,,
KRDR,08-02-2007,14:00,METAR,,290,11,,,9999,,20.0,13.0,30.05,1018.3,,,,,,,,,,,,,,,Clear,72000.0,,,73000.0,,,,,,
KRDR,08-02-2007,13:00,METAR,,310,9,,,9999,,18.0,13.0,30.05,1018.2,,,,,,,,,,,,,,,Clear,72000.0,,,73000.0,,,,,,
KRDR,08-02-2007,12:00,METAR,,300,7,,,9999,,15.0,12.0,30.03,1017.8,,,,,,,,,,,,,,,Clear,72000.0,,,73000.0,,,,,,
KRDR,08-02-2007,11:00,METAR,,280,6,,,9999,,15.0,12.0,30.02,1017.3,,,,,,,,,,,,,,,Clear,72000.0,,,73000.0,,,,,,
KRDR,08-02-2007,10:00,METAR,,260,8,,,9999,,14.0,12.0,30.01,1016.9,,,,,,,,,,,,,,,Clear,72000.0,,,73000.0,,,,,,
KRDR,08-02-2007,09:00,METAR,,240,7,,,9999,,13.0,12.0,30.01,1017.0,,,,,,,,,,,,,,,Clear,72000.0,,,73000.0,,,,,,
KRDR,08-02-2007,08:00,METAR,,250,5,,,9999,,14.0,12.0,30.00,1016.8,,,,,,,,,,,,,,,Clear,72000.0,,,73000.0,,,,,,
KRDR,08-02-2007,07:00,METAR,,250,6,,,9999,,14.0,12.0,30.00,1016.8,,,,,,,,,,,,,,,Clear,72000.0,,,73000.0,,,,,,
KRDR,08-02-2007,06:00,METAR,,270,5,,,9999,,14.0,12.0,30.00,1016.7,,,,,,,,,,,,,,,Clear,72000.0,,,73000.0,,,,,,
KRDR,08-02-2007,05:00,METAR,,290,7,,,9999,,15.0,12.0,29.98,1016.0,,,,,,,,,,,,,,,Clear,72000.0,,,73000.0,,,,,,
KRDR,08-02-2007,04:00,METAR,,290,5,,,9999,,17.0,12.0,29.97,1015.7,,,,,,,,,,,,,,,Clear,72000.0,,,73000.0,,,,,,
KRDR,08-02-2007,03:00,METAR,,290,6,,,9999,,18.0,12.0,29.97,1015.6,,,,,,,,,,,,,,,Clear,72000.0,,,73000.0,,,,,,
KRDR,08-02-2007,02:00,METAR,,290,5,,,9999,,20.0,12.0,29.95,1015.1,,,,,,,,,,,,,,,Clear,72000.0,,,73000.0,,,,,,
KRDR,08-02-2007,01:00,METAR,,300,7,,,9999,,24.0,11.0,29.95,1015.2,,,,,,,,,,,,,,,Clear,72000.0,,,73000.0,,,,,,
KRDR,08-02-2007,00:00,METAR,,320,10,,,9999,,25.0,11.0,29.95,1015.2,,,,,,,,,,,,,,,Clear,72000.0,,,73000.0,,,,,,
KRDR,08-01-2007,23:00,METAR,,300,14,19.0,,9999,,26.0,11.0,29.95,1015.1,,,,,,,,,,,,,,,Clear,72000.0,,,73000.0,,,,,,
KRDR,08-01-2007,22:00,METAR,,310,11,19.0,,9999,,26.0,13.0,29.95,1015.2,,,,,,,,,,,,,,,2/8 Mostly Clear,72000.0,,FEW,25000.0,,,,,,
KRDR,08-01-2007,21:00,METAR,,310,14,22.0,,9999,,26.0,11.0,29.96,1015.4,,,,,,,,,,,,,,,2/8 Mostly Clear,72000.0,,FEW,25000.0,,,,,,
KRDR,08-01-2007,20:00,METAR,,330,14,19.0,,9999,,26.0,13.0,29.96,1015.3,,,,,,,,,,,,,,,2/8 Mostly Clear,72000.0,,FEW,25000.0,,,,,,
KRDR,08-01-2007,19:00,METAR,,340,14,22.0,,9999,,26.0,14.0,29.95,1015.0,,,,,,,,,,,,,,,2/8 Mostly Clear,72000.0,,FEW,25000.0,,,,,,
KRDR,08-01-2007,18:00,METAR,,330,12,20.0,,9999,,26.0,17.0,29.93,1014.4,,,,,,,,,,,,,TRACE,,2/8 Mostly Clear,72000.0,,FEW,4000.0,FEW,25000.0,,,,
KRDR,08-01-2007,17:00,METAR,,350,11,,,9999,,24.0,18.0,29.91,1013.9,,,,,,,,,,,,,,,4/8 Partly Cloudy,72000.0,,FEW,4000.0,SCT,25000.0,,,,
KRDR,08-01-2007,16:00,METAR,,340,11,,,9999,,24.0,19.0,29.89,1013.2,,,,,,,,,,,,,,,8/8 Overcast,25000.0,,FEW,1500.0,FEW,4000.0,OVC,25000.0,,
KRDR,08-01-2007,15:29,SPECI,,330,13,18.0,,9999,,25.0,20.0,29.88,,,,,,,,,,,,,,,,8/8 Overcast,25000.0,,FEW,2000.0,SCT,4000.0,OVC,25000.0,,
KRDR,08-01-2007,15:00,METAR,,350,9,,,9999,,24.0,21.0,29.86,1012.2,,,,,,,,,,,,TRACE,,,8/8 Overcast,2000.0,,BKN,2000.0,BKN,5000.0,OVC,25000.0,,
KRDR,08-01-2007,14:21,SPECI,,320,4,,,9999,,23.0,21.0,29.85,,,,,,,,,,,,,,,,8/8 Overcast,2200.0,,OVC,2200.0,,,,,,
KRDR,08-01-2007,14:00,METAR,,290,8,,,9999,,23.0,21.0,29.84,1011.3,,,,,,,,,,,,,,,8/8 Overcast,3900.0,,FEW,1300.0,OVC,4000.0,,,,
KRDR,08-01-2007,13:00,METAR,,210,8,,,9999,,22.0,20.0,29.80,1010.2,,,,,,,,,,,,,,,7/8 Mostly Cloudy,6000.0,,BKN,5900.0,BKN,25000.0,,,,
KRDR,08-01-2007,12:00,METAR,,190,10,,,9999,,21.0,19.0,29.78,1009.4,,,,,,,,,,,.02 IN,,.53 IN,.53 IN,8/8 Overcast,12000.0,,FEW,500.0,SCT,4000.0,BKN,12000.0,OVC,25000.0
KRDR,08-01-2007,11:33,SPECI,,170,12,,,9999,,21.0,19.0,29.77,,,,,,,,,,,,,,,,8/8 Overcast,10000.0,,FEW,500.0,SCT,5000.0,BKN,9900.0,OVC,25000.0
KRDR,08-01-2007,11:00,METAR,,180,16,21.0,,9999,Thunderstorm with Rain or Snow/Light Rain Showers,22.0,20.0,29.78,1009.3,,,,95,80,,,,,,.04 IN,,,,7/8 Mostly Cloudy,12000.0,,FEW,300.0,SCT,4000.0,BKN,12000.0,,
KRDR,08-01-2007,10:45,METAR,,160,12,,,9999,Thunderstorm,22.0,20.0,29.75,,,,,17,,,,,,,,,,,7/8 Mostly Cloudy,12000.0,,FEW,300.0,SCT,4000.0,BKN,12000.0,,
KRDR,08-01-2007,10:29,SPECI,,170,16,24.0,,9999,Thunderstorm with Rain or Snow/Light Rain Showers,22.0,20.0,29.75,,,,,95,80,,,,,,,,,,7/8 Mostly Cloudy,25000.0,,FEW,300.0,SCT,4000.0,SCT,11000.0,BKN,25000.0
KRDR,08-01-2007,10:18,SPECI,,170,16,,,9999,Thunderstorm with Rain or Snow/Light Rain Showers,22.0,19.0,29.75,,,,,95,80,,,,,,,,,,7/8 Mostly Cloudy,25000.0,,SCT,4000.0,SCT,11000.0,BKN,25000.0,,
KRDR,08-01-2007,10:10,SPECI,,160,15,18.0,,9999,Thunderstorm,22.0,19.0,29.74,,,,,17,,,,,,,,,,,7/8 Mostly Cloudy,25000.0,,SCT,4000.0,SCT,11000.0,BKN,25000.0,,
KRDR,08-01-2007,10:00,METAR,,180,12,,,9999,,21.0,19.0,29.74,,,,,,,,,,,,.03 IN,,,,7/8 Mostly Cloudy,25000.0,,SCT,4000.0,SCT,11000.0,BKN,25000.0,,
KRDR,08-01-2007,09:39,SPECI,,170,13,,,9999,,21.0,19.0,29.74,,,,,,,,,,,,,,,,7/8 Mostly Cloudy,25000.0,,SCT,4000.0,SCT,11000.0,BKN,25000.0,,
KRDR,08-01-2007,09:28,SPECI,,160,14,,,9999,Light Rain Showers,21.0,19.0,29.73,,,,,80,,,,,,,,,,,7/8 Mostly Cloudy,25000.0,,SCT,4000.0,SCT,11000.0,BKN,25000.0,,
KRDR,08-01-2007,09:00,METAR,,220,7,22.0,,9999,Thunderstorm with Rain or Snow/Light Rain Showers/Mist,21.0,19.0,29.76,,,,,95,80,10,,,,,.38 IN,.44 IN,,,8/8 Overcast,3900.0,,FEW,300.0,BKN,4000.0,OVC,9900.0,,
KRDR,08-01-2007,08:44,SPECI,,160,19,,,6400,Thunderstorm with Rain or Snow/Light Rain Showers/Mist,20.0,19.0,29.76,,,,,95,80,10,,,,,,,,,7/8 Mostly Cloudy,10000.0,,FEW,300.0,BKN,9900.0,BKN,25000.0,,
KRDR,08-01-2007,08:41,SPECI,,150,16,,,4800,Heavy Thunderstorm with Rain or Snow/Heavy Rain Showers/Mist,20.0,19.0,29.75,,,,,97,82,10,,,,,,,,,4/8 Partly Cloudy,72000.0,,FEW,300.0,SCT,9900.0,,,,
KRDR,08-01-2007,08:33,SPECI,,210,15,20.0,,2800,Heavy Thunderstorm with Rain or Snow/Heavy Rain Showers/Mist,20.0,18.0,29.80,,,,,97,82,10,,,,,,,,,4/8 Partly Cloudy,72000.0,,FEW,300.0,SCT,9900.0,,,,
KRDR,08-01-2007,08:17,SPECI,,220,11,16.0,,9999,Thunderstorm with Rain or Snow/Light Rain Showers,20.0,18.0,29.83,,,,,95,80,,,,,,,,,,7/8 Mostly Cloudy,10000.0,,FEW,300.0,BKN,9900.0,,,,
KRDR,08-01-2007,08:10,SPECI,,280,9,,,4800,Light Rain Showers/Thunderstorm,20.0,18.0,29.83,,,,,17,80,,,,,,,,,,7/8 Mostly Cloudy,8000.0,,FEW,300.0,SCT,6400.0,BKN,7900.0,,
KRDR,08-01-2007,08:08,SPECI,,280,11,,,4000,Light Rain Showers/Thunderstorm,20.0,18.0,29.83,,,,,17,80,,,,,,,,,,7/8 Mostly Cloudy,7500.0,,FEW,300.0,SCT,5900.0,BKN,7400.0,,
KRDR,08-01-2007,08:00,METAR,,310,18,28.0,310/30KTS,6400,Heavy Rain Showers,22.0,18.0,29.85,1011.8,,,,82,,,,,,,.06 IN,,,,8/8 Overcast,6000.0,,SCT,300.0,BKN,5900.0,OVC,7400.0,,
KRDR,08-01-2007,07:45,METAR,,320,22,30.0,310/30KTS,9999,Light Rain Showers,24.0,16.0,29.86,,,,,80,,,,,,,,,,,8/8 Overcast,6500.0,,SCT,4200.0,OVC,6400.0,,,,
KRDR,08-01-2007,07:00,METAR,,300,9,,,9999,,26.0,20.0,29.81,1010.4,,,,,,,,,,,,,,,7/8 Mostly Cloudy,20000.0,,FEW,4800.0,BKN,20000.0,,,,
KRDR,08-01-2007,06:00,METAR,,190,13,,,9999,,26.0,20.0,29.76,1009.0,,,,,,,,,,,,,,,Clear,72000.0,,,73000.0,,,,,,
KRDR,08-01-2007,05:00,METAR,,170,16,21.0,,9999,,27.0,20.0,29.75,1008.4,,,,,,,,,,,,,,,Clear,72000.0,,,73000.0,,,,,,
KRDR,08-01-2007,04:00,METAR,,180,14,,,9999,,27.0,21.0,29.77,1009.1,,,,,,,,,,,,,,,7/8 Mostly Cloudy,25000.0,,BKN,25000.0,,,,,,
KRDR,08-01-2007,03:00,METAR,,170,13,,,9999,,28.0,21.0,29.76,1008.8,,,,,,,,,,,,,,,7/8 Mostly Cloudy,25000.0,,BKN,25000.0,,,,,,
KRDR,08-01-2007,02:00,METAR,,170,13,,,9999,,29.0,21.0,29.75,1008.6,,,,,,,,,,,,,,,7/8 Mostly Cloudy,25000.0,,BKN,25000.0,,,,,,
KRDR,08-01-2007,01:00,METAR,,180,14,,,9999,,31.0,22.0,29.76,1008.8,,,,,,,,,,,,,,,7/8 Mostly Cloudy,25000.0,,BKN,25000.0,,,,,,
KRDR,08-01-2007,00:00,METAR,,180,17,,,9999,,32.0,22.0,29.78,1009.5,,,,,,,,,,,,,,,4/8 Partly Cloudy,72000.0,,FEW,4800.0,SCT,25000.0,,,,
KRDR,07-31-2007,23:00,METAR,,200,18,23.0,210/27KTS,9999,,33.0,22.0,29.80,1010.0,,,,,,,,,,,,,,,4/8 Partly Cloudy,72000.0,,FEW,4800.0,SCT,25000.0,,,,
KRDR,07-31-2007,22:00,METAR,,180,19,26.0,180/27KTS,9999,,33.0,22.0,29.79,1009.9,,,,,,,,,,,,,,,4/8 Partly Cloudy,72000.0,,FEW,5000.0,SCT,25000.0,,,,
KRDR,07-31-2007,21:00,METAR,,190,17,24.0,,9999,,34.0,21.0,29.81,1010.4,,,,,,,,,,,,,,,4/8 Partly Cloudy,72000.0,,FEW,5400.0,SCT,25000.0,,,,
KRDR,07-31-2007,20:00,METAR,,180,21,26.0,170/29KTS,9999,,33.0,22.0,29.81,1010.6,,,,,,,,,,,,,,,2/8 Mostly Clear,72000.0,,FEW,4500.0,FEW,25000.0,,,,
KRDR,07-31-2007,19:00,METAR,,170,18,24.0,180/31KTS,9999,,33.0,22.0,29.82,1010.9,,,,,,,,,,,,,,,2/8 Mostly Clear,72000.0,,FEW,25000.0,,,,,,
KRDR,07-31-2007,18:00,METAR,,180,18,24.0,,9999,,32.0,22.0,29.84,1011.4,,,,,,,,,,,,,,,2/8 Mostly Clear,72000.0,,FEW,4000.0,FEW,25000.0,,,,
KRDR,07-31-2007,17:00,METAR,,180,20,26.0,190/26KTS,9999,,31.0,22.0,29.85,1011.9,,,,,,,,,,,,,,,2/8 Mostly Clear,72000.0,,FEW,25000.0,,,,,,
KRDR,07-31-2007,16:00,METAR,,190,17,,,9999,,29.0,22.0,29.86,1012.1,,,,,,,,,,,,,,,2/8 Mostly Clear,72000.0,,FEW,25000.0,,,,,,
KRDR,07-31-2007,15:00,METAR,,190,16,,,9999,,27.0,21.0,29.87,1012.5,,,,,,,,,,,,,,,Clear,72000.0,,,73000.0,,,,,,
KRDR,07-31-2007,14:00,METAR,,190,14,19.0,,9999,,25.0,21.0,29.88,1012.7,,,,,,,,,,,,,,,Clear,72000.0,,,73000.0,,,,,,
KRDR,07-31-2007,13:00,METAR,,170,11,,,9999,,23.0,20.0,29.90,1013.3,,,,,,,,,,,,,,,Clear,72000.0,,,73000.0,,,,,,
KRDR,07-31-2007,12:00,METAR,,160,7,,,9999,,21.0,19.0,29.90,1013.4,,,,,,,,,,,,,,,Clear,72000.0,,,73000.0,,,,,,
KRDR,07-31-2007,11:00,METAR,,170,8,,,9999,,21.0,19.0,29.89,1013.1,,,,,,,,,,,,,,,2/8 Mostly Clear,72000.0,,FEW,25000.0,,,,,,
KRDR,07-31-2007,10:00,METAR,,180,9,,,9999,,22.0,19.0,29.89,1013.0,,,,,,,,,,,,,,,Clear,72000.0,,,73000.0,,,,,,
KRDR,07-31-2007,09:00,METAR,,180,10,,,9999,,22.0,19.0,29.89,1013.2,,,,,,,,,,,,,,,Clear,72000.0,,,73000.0,,,,,,
KRDR,07-31-2007,08:00,METAR,,180,11,,,9999,,22.0,19.0,29.90,1013.5,,,,,,,,,,,,,,,Clear,72000.0,,,73000.0,,,,,,
KRDR,07-31-2007,07:00,METAR,,180,9,,,9999,,23.0,19.0,29.91,1013.7,,,,,,,,,,,,,,,Clear,72000.0,,,73000.0,,,,,,
KRDR,07-31-2007,06:00,METAR,,180,9,,,9999,,24.0,19.0,29.91,1013.9,,,,,,,,,,,,,,,Clear,72000.0,,,73000.0,,,,,,
KRDR,07-31-2007,05:00,METAR,,180,12,,,9999,,25.0,19.0,29.92,1014.0,,,,,,,,,,,,,,,Clear,72000.0,,,73000.0,,,,,,
KRDR,07-31-2007,04:00,METAR,,180,11,,,9999,,25.0,19.0,29.92,1013.9,,,,,,,,,,,,,,,Clear,72000.0,,,73000.0,,,,,,
KRDR,07-31-2007,03:00,METAR,,170,10,,,9999,,25.0,20.0,29.92,1013.9,,,,,,,,,,,,,,,2/8 Mostly Clear,72000.0,,FEW,25000.0,,,,,,
KRDR,07-31-2007,02:00,METAR,,160,9,,,9999,,27.0,20.0,29.90,1013.6,,,,,,,,,,,,,,,2/8 Mostly Clear,72000.0,,FEW,25000.0,,,,,,
KRDR,07-31-2007,01:00,METAR,,170,9,,,9999,,29.0,20.0,29.90,1013.5,,,,,,,,,,,,,,,Clear,72000.0,,,73000.0,,,,,,
KRDR,07-31-2007,00:00,METAR,,170,18,,,9999,,31.0,19.0,29.91,1013.7,,,,,,,,,,,,,,,Clear,72000.0,,,73000.0,,,,,,
KRDR,07-30-2007,23:00,METAR,,180,14,,,9999,,31.0,19.0,29.91,1013.8,,,,,,,,,,,,,,,Clear,72000.0,,,73000.0,,,,,,
KRDR,07-30-2007,22:00,METAR,,180,16,,,9999,,32.0,18.0,29.92,1014.0,,,,,,,,,,,,,,,Clear,72000.0,,,73000.0,,,,,,
KRDR,07-30-2007,21:00,METAR,,180,14,,,9999,,32.0,18.0,29.93,1014.3,,,,,,,,,,,,,,,Clear,72000.0,,,73000.0,,,,,,
KRDR,07-30-2007,20:00,METAR,,200,11,,,9999,,32.0,19.0,29.94,1014.6,,,,,,,,,,,,,,,Clear,72000.0,,,73000.0,,,,,,
KRDR,07-30-2007,19:00,METAR,,180,10,,,9999,,32.0,19.0,29.94,1014.9,,,,,,,,,,,,,,,Clear,72000.0,,,73000.0,,,,,,
KRDR,07-30-2007,18:00,METAR,,190,11,,,9999,,32.0,19.0,29.95,1015.1,,,,,,,,,,,,,,,Clear,72000.0,,,73000.0,,,,,,
KRDR,07-30-2007,17:00,METAR,,180,10,,,9999,,31.0,19.0,29.96,1015.3,,,,,,,,,,,,,,,Clear,72000.0,,,73000.0,,,,,,
KRDR,07-30-2007,16:00,METAR,,230,13,,,9999,,30.0,20.0,29.95,1015.1,,,,,,,,,,,,,,,2/8 Mostly Clear,72000.0,,FEW,25000.0,,,,,,
KRDR,07-30-2007,15:00,METAR,,210,11,,,9999,,28.0,20.0,29.94,1014.8,,,,,,,,,,,,,,,2/8 Mostly Clear,72000.0,,FEW,25000.0,,,,,,
KRDR,07-30-2007,14:00,METAR,,210,10,,,9999,,25.0,19.0,29.94,1014.8,,,,,,,,,,,,,,,2/8 Mostly Clear,72000.0,,FEW,25000.0,,,,,,
KRDR,07-30-2007,13:00,METAR,,220,9,,,9999,,22.0,18.0,29.94,1014.8,,,,,,,,,,,,,,,2/8 Mostly Clear,72000.0,,FEW,25000.0,,,,,,
KRDR,07-30-2007,12:00,METAR,,190,7,,,9999,,19.0,17.0,29.93,1014.4,,,,,,,,,,,,,,,2/8 Mostly Clear,72000.0,,FEW,25000.0,,,,,,
KRDR,07-30-2007,11:00,METAR,,190,8,,,9999,,19.0,16.0,29.93,1014.4,,,,,,,,,,,,,,,2/8 Mostly Clear,72000.0,,FEW,25000.0,,,,,,
KRDR,07-30-2007,10:00,METAR,,190,7,,,9999,,20.0,17.0,29.92,1014.0,,,,,,,,,,,,,,,Clear,72000.0,,,73000.0,,,,,,
KRDR,07-30-2007,09:00,METAR,,190,8,,,9999,,19.0,17.0,29.91,1013.7,,,,,,,,,,,,,,,Clear,72000.0,,,73000.0,,,,,,
KRDR,07-30-2007,08:00,METAR,,200,8,,,9999,,20.0,17.0,29.91,1013.8,,,,,,,,,,,,,,,Clear,72000.0,,,73000.0,,,,,,
KRDR,07-30-2007,07:00,METAR,,190,7,,,9999,,21.0,17.0,29.91,1013.7,,,,,,,,,,,,,,,Clear,72000.0,,,73000.0,,,,,,
KRDR,07-30-2007,06:00,METAR,,200,8,,,9999,,22.0,17.0,29.89,1013.2,,,,,,,,,,,,,,,Clear,72000.0,,,73000.0,,,,,,
KRDR,07-30-2007,05:00,METAR,,200,8,,,9999,,23.0,18.0,29.89,1013.2,,,,,,,,,,,,,,,Clear,72000.0,,,73000.0,,,,,,
KRDR,07-30-2007,04:00,METAR,,200,8,,,9999,,24.0,18.0,29.89,1013.1,,,,,,,,,,,,,,,Clear,72000.0,,,73000.0,,,,,,
KRDR,07-30-2007,03:00,METAR,,190,9,,,9999,,25.0,19.0,29.90,1013.5,,,,,,,,,,,,,,,Clear,72000.0,,,73000.0,,,,,,
KRDR,07-30-2007,02:00,METAR,,180,6,,,9999,,27.0,19.0,29.88,1012.7,,,,,,,,,,,,,,,Clear,72000.0,,,73000.0,,,,,,
KRDR,07-30-2007,01:00,METAR,,190,9,,,9999,,30.0,19.0,29.87,1012.6,,,,,,,,,,,,,,,Clear,72000.0,,,73000.0,,,,,,
KRDR,07-30-2007,00:00,METAR,,190,10,,,9999,,32.0,19.0,29.88,1012.6,,,,,,,,,,,,,,,Clear,72000.0,,,73000.0,,,,,,
KRDR,07-29-2007,23:00,METAR,,190,10,,,9999,,33.0,19.0,29.89,1013.0,,,,,,,,,,,,,,,Clear,72000.0,,,73000.0,,,,,,
KRDR,07-29-2007,22:00,METAR,,200,12,,,9999,,33.0,19.0,29.89,1013.1,,,,,,,,,,,,,,,Clear,72000.0,,,73000.0,,,,,,
KRDR,07-29-2007,21:00,METAR,,210,14,,,9999,,33.0,19.0,29.90,1013.4,,,,,,,,,,,,,,,Clear,72000.0,,,73000.0,,,,,,
KRDR,07-29-2007,20:00,METAR,,200,12,,,9999,,33.0,20.0,29.90,1013.4,,,,,,,,,,,,,,,Clear,72000.0,,,73000.0,,,,,,
KRDR,07-29-2007,19:00,METAR,,200,13,18.0,,9999,,32.0,20.0,29.90,1013.6,,,,,,,,,,,,,,,Clear,72000.0,,,73000.0,,,,,,
KRDR,07-29-2007,18:00,METAR,,200,11,,,9999,,31.0,20.0,29.91,1013.9,,,,,,,,,,,,,,,Clear,72000.0,,,73000.0,,,,,,
KRDR,07-29-2007,17:00,METAR,,190,10,,,9999,,30.0,20.0,29.92,1014.0,,,,,,,,,,,,,,,Clear,72000.0,,,73000.0,,,,,,
KRDR,07-29-2007,16:00,METAR,,190,7,,,9999,,29.0,19.0,29.92,1014.0,,,,,,,,,,,,,,,Clear,72000.0,,,73000.0,,,,,,
KRDR,07-29-2007,15:00,METAR,,220,9,,,9999,,26.0,19.0,29.92,1014.1,,,,,,,,,,,,,,,Clear,72000.0,,,73000.0,,,,,,
KRDR,07-29-2007,14:00,METAR,,200,7,,,9999,,23.0,18.0,29.92,1014.2,,,,,,,,,,,,,,,Clear,72000.0,,,73000.0,,,,,,
KRDR,07-29-2007,13:00,METAR,,180,6,,,9999,,20.0,17.0,29.92,1014.2,,,,,,,,,,,,,,,Clear,72000.0,,,73000.0,,,,,,
KRDR,07-29-2007,12:00,METAR,,190,6,,,9999,,16.0,14.0,29.91,1013.7,,,,,,,,,,,,,,,Clear,72000.0,,,73000.0,,,,,,
KRDR,07-29-2007,11:00,METAR,,170,6,,,9999,,16.0,14.0,29.91,1013.8,,,,,,,,,,,,,,,Clear,72000.0,,,73000.0,,,,,,
KRDR,07-29-2007,10:00,METAR,,200,6,,,9999,,16.0,14.0,29.92,1014.0,,,,,,,,,,,,,,,Clear,72000.0,,,73000.0,,,,,,
KRDR,07-29-2007,09:00,METAR,,200,6,,,9999,,16.0,13.0,29.92,1014.2,,,,,,,,,,,,,,,Clear,72000.0,,,73000.0,,,,,,
KRDR,07-29-2007,08:00,METAR,,190,5,,,9999,,17.0,14.0,29.93,1014.3,,,,,,,,,,,,,,,Clear,72000.0,,,73000.0,,,,,,
KRDR,07-29-2007,07:00,METAR,,210,5,,,9999,,16.0,15.0,29.93,1014.4,,,,,,,,,,,,,,,Clear,72000.0,,,73000.0,,,,,,
KRDR,07-29-2007,06:00,METAR,,190,4,,,9999,,18.0,15.0,29.93,1014.3,,,,,,,,,,,,,,,Clear,72000.0,,,73000.0,,,,,,
KRDR,07-29-2007,05:00,METAR,,200,6,,,9999,,17.0,16.0,29.94,1014.7,,,,,,,,,,,,,,,Clear,72000.0,,,73000.0,,,,,,
KRDR,07-29-2007,04:00,METAR,,190,4,,,9999,,18.0,16.0,29.95,1015.0,,,,,,,,,,,,,,,Clear,72000.0,,,73000.0,,,,,,
KRDR,07-29-2007,03:00,METAR,,190,5,,,9999,,22.0,17.0,29.95,1015.0,,,,,,,,,,,,,,,Clear,72000.0,,,73000.0,,,,,,
KRDR,07-29-2007,02:00,METAR,,180,7,,,9999,,24.0,17.0,29.94,1014.9,,,,,,,,,,,,,,,Clear,72000.0,,,73000.0,,,,,,
KRDR,07-29-2007,01:00,METAR,,180,7,,,9999,,26.0,16.0,29.95,1015.0,,,,,,,,,,,,,,,Clear,72000.0,,,73000.0,,,,,,
KRDR,07-29-2007,00:00,METAR,,190,7,,,9999,,27.0,16.0,29.97,1015.7,,,,,,,,,,,,,,,Clear,72000.0,,,73000.0,,,,,,
KRDR,07-28-2007,23:00,METAR,,210,6,,,9999,,28.0,16.0,29.97,1015.8,,,,,,,,,,,,,,,Clear,72000.0,,,73000.0,,,,,,
KRDR,07-28-2007,22:00,METAR,,200,8,,,9999,,28.0,16.0,29.99,1016.3,,,,,,,,,,,,,,,2/8 Mostly Clear,72000.0,,FEW,5000.0,,,,,,
KRDR,07-28-2007,21:00,METAR,,,4,,,9999,,28.0,15.0,30.00,1016.7,,,,,,,,,,,,,,,2/8 Mostly Clear,72000.0,,FEW,5000.0,,,,,,
KRDR,07-28-2007,20:00,METAR,,180,5,,,9999,,27.0,15.0,30.01,1017.2,,,,,,,,,,,,,,,2/8 Mostly Clear,72000.0,,FEW,5000.0,,,,,,
KRDR,07-28-2007,18:00,METAR,,,2,,,9999,,27.0,15.0,30.04,1018.0,,,,,,,,,,,,,,,2/8 Mostly Clear,72000.0,,FEW,5000.0,,,,,,
KRDR,07-28-2007,17:00,METAR,,,3,,,9999,,26.0,14.0,30.04,1018.2,,,,,,,,,,,,,,,2/8 Mostly Clear,72000.0,,FEW,5000.0,,,,,,
KRDR,07-28-2007,16:00,METAR,,,2,,,9999,,25.0,15.0,30.05,1018.5,,,,,,,,,,,,,,,2/8 Mostly Clear,72000.0,,FEW,5000.0,,,,,,
KRDR,07-28-2007,15:00,METAR,,230,3,,,9999,,24.0,15.0,30.06,1018.8,,,,,,,,,,,,,,,Clear,72000.0,,,73000.0,,,,,,
KRDR,07-28-2007,14:00,METAR,,,0,,,9999,,20.0,15.0,30.06,1018.8,,,,,,,,,,,,,,,Clear,72000.0,,,73000.0,,,,,,
KRDR,07-28-2007,13:00,METAR,,,0,,,9999,,17.0,15.0,30.06,1018.7,,,,,,,,,,,,,,,Clear,72000.0,,,73000.0,,,,,,
KRDR,07-28-2007,12:00,METAR,,,0,,,9999,,13.0,12.0,30.05,1018.5,,,,,,,,,,,,,,,Clear,72000.0,,,73000.0,,,,,,
KRDR,07-28-2007,11:00,METAR,,,0,,,9999,,12.0,11.0,30.05,1018.5,,,,,,,,,,,,,,,Clear,72000.0,,,73000.0,,,,,,
KRDR,07-28-2007,10:00,METAR,,300,3,,,9999,,12.0,11.0,30.05,1018.4,,,,,,,,,,,,,,,2/8 Mostly Clear,72000.0,,FEW,25000.0,,,,,,
KRDR,07-28-2007,09:00,METAR,,240,3,,,9999,,13.0,12.0,30.05,1018.4,,,,,,,,,,,,,,,Clear,72000.0,,,73000.0,,,,,,
KRDR,07-28-2007,08:00,METAR,,,0,,,9999,,13.0,12.0,30.05,1018.4,,,,,,,,,,,,,,,Clear,72000.0,,,73000.0,,,,,,
KRDR,07-28-2007,07:00,METAR,,,0,,,9999,,14.0,13.0,30.05,1018.3,,,,,,,,,,,,,,,Clear,72000.0,,,73000.0,,,,,,
KRDR,07-28-2007,06:00,METAR,,,0,,,9999,,14.0,13.0,30.06,1018.7,,,,,,,,,,,,,,,Clear,72000.0,,,73000.0,,,,,,
KRDR,07-28-2007,05:00,METAR,,280,3,,,9999,,15.0,14.0,30.06,1018.7,,,,,,,,,,,,,,,Clear,72000.0,,,73000.0,,,,,,
KRDR,07-28-2007,04:00,METAR,,,0,,,9999,,16.0,15.0,30.06,1018.6,,,,,,,,,,,,,,,Clear,72000.0,,,73000.0,,,,,,
KRDR,07-28-2007,03:00,METAR,,310,2,,,9999,,18.0,15.0,30.06,1018.7,,,,,,,,,,,,,,,4/8 Partly Cloudy,72000.0,,SCT,25000.0,,,,,,
KRDR,07-28-2007,02:00,METAR,,320,4,,,9999,,20.0,17.0,30.05,1018.5,,,,,,,,,,,,,,,7/8 Mostly Cloudy,25000.0,,BKN,25000.0,,,,,,
KRDR,07-28-2007,01:00,METAR,,10,5,,,9999,,23.0,16.0,30.05,1018.5,,,,,,,,,,,,,,,7/8 Mostly Cloudy,25000.0,,BKN,25000.0,,,,,,
KRDR,07-28-2007,00:00,METAR,,360,7,,,9999,,23.0,14.0,30.06,1018.7,,,,,,,,,,,,,,,7/8 Mostly Cloudy,25000.0,,BKN,25000.0,,,,,,
KRDR,07-27-2007,23:00,METAR,,360,9,,,9999,,24.0,13.0,30.07,1019.0,,,,,,,,,,,,,,,8/8 Overcast,25000.0,,FEW,5900.0,OVC,25000.0,,,,
KRDR,07-27-2007,22:00,METAR,,10,8,,,9999,,26.0,13.0,30.07,1019.0,,,,,,,,,,,,,,,7/8 Mostly Cloudy,25000.0,,FEW,5900.0,BKN,25000.0,,,,
KRDR,07-27-2007,21:00,METAR,,10,11,,,9999,,25.0,13.0,30.08,1019.3,,,,,,,,,,,,,,,7/8 Mostly Cloudy,25000.0,,FEW,5900.0,BKN,25000.0,,,,
KRDR,07-27-2007,20:00,METAR,,10,8,,,9999,,26.0,13.0,30.09,1019.6,,,,,,,,,,,,,,,7/8 Mostly Cloudy,25000.0,,BKN,25000.0,,,,,,
KRDR,07-27-2007,19:00,METAR,,360,8,,,9999,,26.0,11.0,30.09,1019.7,,,,,,,,,,,,,,,7/8 Mostly Cloudy,25000.0,,BKN,25000.0,,,,,,
KRDR,07-27-2007,18:00,METAR,,20,8,,,9999,,26.0,13.0,30.09,1019.8,,,,,,,,,,,,,,,4/8 Partly Cloudy,72000.0,,SCT,25000.0,,,,,,
KRDR,07-27-2007,17:00,METAR,,350,10,,,9999,,25.0,14.0,30.10,1020.0,,,,,,,,,,,,,,,4/8 Partly Cloudy,72000.0,,SCT,25000.0,,,,,,
KRDR,07-27-2007,16:00,METAR,,,5,,,9999,,24.0,15.0,30.10,1020.0,,,,,,,,,,,,,,,4/8 Partly Cloudy,72000.0,,SCT,25000.0,,,,,,
KRDR,07-27-2007,15:00,METAR,,320,5,,,9999,,22.0,15.0,30.10,1020.1,,,,,,,,,,,,,,,2/8 Mostly Clear,72000.0,,FEW,25000.0,,,,,,
KRDR,07-27-2007,14:00,METAR,,10,7,,,9999,,20.0,15.0,30.10,1020.0,,,,,,,,,,,,,,,2/8 Mostly Clear,72000.0,,FEW,12000.0,,,,,,
KRDR,07-27-2007,13:00,METAR,,350,5,,,9999,,18.0,14.0,30.09,1019.6,,,,,,,,,,,,,,,Clear,72000.0,,,73000.0,,,,,,
KRDR,07-27-2007,12:00,METAR,,320,5,,,9999,,15.0,13.0,30.08,1019.2,,,,,,,,,,,,,,,Clear,72000.0,,,73000.0,,,,,,
KRDR,07-27-2007,11:00,METAR,,340,5,,,9999,,14.0,13.0,30.06,1018.7,,,,,,,,,,,,,,,Clear,72000.0,,,73000.0,,,,,,
KRDR,07-27-2007,10:00,METAR,,330,4,,,9999,,15.0,13.0,30.05,1018.4,,,,,,,,,,,,,,,Clear,72000.0,,,73000.0,,,,,,
KRDR,07-27-2007,09:00,METAR,,340,5,,,9999,,15.0,13.0,30.04,1018.0,,,,,,,,,,,,,,,Clear,72000.0,,,73000.0,,,,,,
KRDR,07-27-2007,08:00,METAR,,320,6,,,9999,,16.0,13.0,30.04,1018.0,,,,,,,,,,,,,,,Clear,72000.0,,,73000.0,,,,,,
KRDR,07-27-2007,07:00,METAR,,310,3,,,9999,,16.0,13.0,30.04,1017.9,,,,,,,,,,,,,,,Clear,72000.0,,,73000.0,,,,,,
KRDR,07-27-2007,06:00,METAR,,340,7,,,9999,,16.0,13.0,30.03,1017.7,,,,,,,,,,,,,,,Clear,72000.0,,,73000.0,,,,,,
KRDR,07-27-2007,05:00,METAR,,330,5,,,9999,,17.0,13.0,30.01,1017.1,,,,,,,,,,,,,,,Clear,72000.0,,,73000.0,,,,,,
KRDR,07-27-2007,04:00,METAR,,360,8,,,9999,,20.0,13.0,29.99,1016.5,,,,,,,,,,,,,,,Clear,72000.0,,,73000.0,,,,,,
KRDR,07-27-2007,03:00,METAR,,340,9,,,9999,,20.0,14.0,29.97,1015.6,,,,,,,,,,,,,,,2/8 Mostly Clear,72000.0,,FEW,11000.0,,,,,,
KRDR,07-27-2007,02:00,METAR,,350,8,,,9999,,22.0,17.0,29.96,1015.3,,,,,,,,,,,,,,,2/8 Mostly Clear,72000.0,,FEW,5000.0,,,,,,
KRDR,07-27-2007,01:00,METAR,,360,11,,,9999,,25.0,18.0,29.95,1015.2,,,,,,,,,,,,,,,2/8 Mostly Clear,72000.0,,FEW,4000.0,FEW,25000.0,,,,
KRDR,07-27-2007,00:00,METAR,,10,11,,,9999,,27.0,18.0,29.96,1015.3,,,,,,,,,,,,,,,2/8 Mostly Clear,72000.0,,FEW,4000.0,,,,,,
KRDR,07-26-2007,23:00,METAR,,10,10,,,9999,,28.0,18.0,29.95,1015.1,,,,,,,,,,,,,,,4/8 Partly Cloudy,72000.0,,SCT,4200.0,SCT,25000.0,,,,
KRDR,07-26-2007,22:00,METAR,,30,13,17.0,,9999,,27.0,17.0,29.95,1015.0,,,,,,,,,,,,,,,4/8 Partly Cloudy,72000.0,,SCT,5900.0,,,,,,
KRDR,07-26-2007,21:00,METAR,,30,15,19.0,,9999,,27.0,17.0,29.94,1014.8,,,,,,,,,,,,,,,2/8 Mostly Clear,72000.0,,FEW,4000.0,,,,,,
KRDR,07-26-2007,20:00,METAR,,20,15,,,9999,,27.0,17.0,29.94,1014.7,,,,,,,,,,,,,,,2/8 Mostly Clear,72000.0,,FEW,1900.0,FEW,25000.0,,,,
KRDR,07-26-2007,19:00,METAR,,10,16,20.0,,9999,,26.0,17.0,29.94,1014.7,,,,,,,,,,,,,,,2/8 Mostly Clear,72000.0,,FEW,1900.0,FEW,12000.0,,,,
KRDR,07-26-2007,18:00,METAR,,360,13,,,9999,,24.0,18.0,29.95,1015.2,,,,,,,,,,,,,TRACE,,4/8 Partly Cloudy,72000.0,,FEW,1900.0,FEW,12000.0,SCT,25000.0,,
KRDR,07-26-2007,17:00,METAR,,10,8,,,9999,,21.0,19.0,29.94,1014.6,,,,,,,,,,,TRACE,,,,7/8 Mostly Cloudy,3700.0,,SCT,700.0,BKN,3800.0,,,,
KRDR,07-26-2007,16:24,SPECI,,350,12,,,9999,,21.0,19.0,29.93,,,,,,,,,,,,,,,,7/8 Mostly Cloudy,3300.0,,SCT,600.0,BKN,3400.0,BKN,4700.0,,
KRDR,07-26-2007,16:00,METAR,,360,13,,,9999,,21.0,20.0,29.91,1013.8,,,,,,,,,,,TRACE,,,,8/8 Overcast,600.0,,BKN,600.0,OVC,5000.0,,,,
KRDR,07-26-2007,15:33,SPECI,,360,10,,,9999,,21.0,20.0,29.91,,,,,,,,,,,,,,,,8/8 Overcast,600.0,,OVC,600.0,,,,,,
KRDR,07-26-2007,15:17,SPECI,,360,10,,,9999,Rain,21.0,20.0,29.91,1013.7,,,,61,,,,,,,,,,,8/8 Overcast,500.0,,OVC,500.0,,,,,,
KRDR,07-26-2007,15:00,METAR,,360,8,,,9999,,21.0,20.0,29.91,1013.9,,,,,,,,,,,,TRACE,,,8/8 Overcast,500.0,,OVC,500.0,,,,,,
KRDR,07-26-2007,14:00,METAR,,10,10,,,9999,,20.0,20.0,29.90,1013.6,,,,,,,,,,,,,,,8/8 Overcast,500.0,,OVC,500.0,,,,,,
KRDR,07-26-2007,13:00,METAR,,30,8,,,9999,,20.0,20.0,29.89,1013.1,,,,,,,,,,,TRACE,,,,8/8 Overcast,400.0,,OVC,400.0,,,,,,
KRDR,07-26-2007,12:00,METAR,,10,14,,,9999,Drizzle,20.0,20.0,29.84,1011.5,,,,51,,,,,,,.02 IN,,.34 IN,.34 IN,8/8 Overcast,400.0,,OVC,400.0,,,,,,
KRDR,07-26-2007,11:10,SPECI,,360,15,19.0,,9999,Rain,20.0,20.0,29.83,,,,,61,,,,,,,,,,,8/8 Overcast,600.0,,BKN,600.0,OVC,1800.0,,,,
KRDR,07-26-2007,11:00,METAR,,360,10,,,9999,Rain,20.0,20.0,29.83,1011.2,,,,61,,,,,,,.11 IN,,,,8/8 Overcast,3200.0,,SCT,500.0,SCT,2400.0,OVC,3300.0,,
KRDR,07-26-2007,10:00,METAR,,20,5,,,9999,Rain/Mist,21.0,20.0,29.83,1011.0,,,,63,10,,,,,,.14 IN,,,,8/8 Overcast,5500.0,,OVC,5400.0,,,,,,
KRDR,07-26-2007,09:42,SPECI,,10,3,,,9999,Rain/Mist,21.0,20.0,29.84,1011.3,,,,63,10,,,,,,,,,,8/8 Overcast,4300.0,,OVC,4400.0,,,,,,
KRDR,07-26-2007,09:34,SPECI,,10,5,,,9999,Rain/Thunderstorm,21.0,20.0,29.83,1011.3,,,,17,63,,,,,,,,,,8/8 Overcast,4100.0,,OVC,4200.0,,,,,,
KRDR,07-26-2007,09:16,SPECI,,30,8,,,9999,Rain/Thunderstorm,21.0,20.0,29.84,1011.5,,,,17,61,,,,,,,,,,4/8 Partly Cloudy,72000.0,,SCT,5900.0,,,,,,
KRDR,07-26-2007,09:05,SPECI,,30,8,,,8000,Heavy Rain/Thunderstorm/Mist,21.0,20.0,29.86,1012.0,,,,17,65,10,,,,,,,,,7/8 Mostly Cloudy,1700.0,,FEW,300.0,BKN,5900.0,,,,
KRDR,07-26-2007,09:02,SPECI,,10,8,,,9999,Heavy Rain/Thunderstorm/Mist,21.0,20.0,29.86,1012.0,,,,17,65,10,,,,,,,,,7/8 Mostly Cloudy,2100.0,,FEW,300.0,BKN,5900.0,,,,
KRDR,07-26-2007,09:00,METAR,,320,6,,,9999,Rain,21.0,20.0,29.88,1012.9,,,,61,,,,,,,.03 IN,.07 IN,,,7/8 Mostly Cloudy,400.0,,BKN,1100.0,,,,,,
KRDR,07-26-2007,08:53,SPECI,,330,7,,,9999,Rain,21.0,20.0,29.88,1012.9,,,,61,,,,,,,,,,,7/8 Mostly Cloudy,400.0,,BKN,1500.0,,,,,,
KRDR,07-26-2007,08:48,SPECI,,290,7,,,9999,Rain,21.0,20.0,29.88,1012.6,,,,61,,,,,,,,,,,7/8 Mostly Cloudy,600.0,,BKN,600.0,,,,,,
KRDR,07-26-2007,08:45,METAR,,270,7,15.0,,9999,Fog or Ice Fog,21.0,20.0,29.88,1012.8,,,,40,,,,,,,,,,,7/8 Mostly Cloudy,700.0,,BKN,700.0,,,,,,
KRDR,07-26-2007,08:41,SPECI,,310,9,,,9999,,21.0,20.0,29.88,1012.7,,,,,,,,,,,,,,,7/8 Mostly Cloudy,700.0,,BKN,700.0,,,,,,
KRDR,07-26-2007,08:30,METAR,,340,10,,,9999,,21.0,20.0,29.85,1011.7,,,,,,,,,,,,,,,4/8 Partly Cloudy,72000.0,,SCT,800.0,,,,,,
KRDR,07-26-2007,08:15,SPECI,,340,11,,,9999,Rain,21.0,20.0,29.85,1011.9,,,,61,,,,,,,,,,,2/8 Mostly Clear,72000.0,,FEW,800.0,,,,,,
KRDR,07-26-2007,08:00,METAR,,310,7,,,9999,Rain,22.0,20.0,29.83,1011.3,,,,61,,,,,,,,,,,4/8 Partly Cloudy,72000.0,,SCT,6900.0,,,,,,
KRDR,07-26-2007,07:00,METAR,,320,2,,,9999,,21.0,20.0,29.82,1010.7,,,,,,,,,,,.04 IN,,,,8/8 Overcast,7000.0,,OVC,6900.0,,,,,,
KRDR,07-26-2007,06:18,SPECI,,30,9,,,9999,,21.0,20.0,29.84,1011.6,,,,,,,,,,,,,,,7/8 Mostly Cloudy,6500.0,,BKN,6400.0,,,,,,
KRDR,07-26-2007,06:08,SPECI,,10,17,,,8000,Rain/Mist,22.0,20.0,29.85,1011.8,,,,61,10,,,,,,,,,,7/8 Mostly Cloudy,5500.0,,BKN,5400.0,,,,,,
KRDR,07-26-2007,06:05,SPECI,,360,15,,,6400,Rain/Mist,22.0,20.0,29.85,1011.7,,,,61,10,,,,,,,,,,7/8 Mostly Cloudy,5500.0,,BKN,5400.0,,,,,,
KRDR,07-26-2007,06:00,METAR,,360,15,,320/28KTS,9999,,23.0,20.0,29.86,1012.1,,,,,,,,,,,,,TRACE,,8/8 Overcast,5500.0,,FEW,3800.0,OVC,5400.0,,,,
KRDR,07-26-2007,05:53,SPECI,,10,13,,,9999,Rain,23.0,20.0,29.86,1012.0,,,,61,,,,,,,,,,,8/8 Overcast,5500.0,,OVC,5400.0,,,,,,
KRDR,07-26-2007,05:21,SPECI,,330,17,28.0,320/28KTS,9999,,23.0,20.0,29.86,1012.2,,,,,,,,,,,,,,,7/8 Mostly Cloudy,2100.0,,SCT,1600.0,SCT,2500.0,BKN,3300.0,,
KRDR,07-26-2007,05:00,METAR,,100,4,,,9999,,24.0,21.0,29.81,1010.4,,,,,,,,,,,,,,,Clear,72000.0,,,73000.0,,,,,,
KRDR,07-26-2007,04:00,METAR,,60,8,,,9999,,24.0,20.0,29.77,1009.2,,,,,,,,,,,,,,,7/8 Mostly Cloudy,30000.0,,FEW,4800.0,SCT,12000.0,BKN,30000.0,,
KRDR,07-26-2007,03:00,METAR,,360,18,22.0,350/38KTS,9999,Thunderstorm,23.0,21.0,29.82,1010.8,,,,17,,,,,,,TRACE,TRACE,,,7/8 Mostly Cloudy,4400.0,,SCT,3700.0,BKN,4500.0,BKN,25000.0,,
KRDR,07-26-2007,02:41,SPECI,,10,13,23.0,,9999,Light Rain Showers/Thunderstorm,24.0,21.0,29.81,,,,,80,17,,,,,,,,,,7/8 Mostly Cloudy,3700.0,,FEW,2800.0,BKN,3800.0,BKN,25000.0,,
KRDR,07-26-2007,02:00,METAR,,360,23,28.0,,9999,,30.0,26.0,29.73,1007.9,,,,,,,,,,,,,,,7/8 Mostly Cloudy,30000.0,,FEW,5000.0,SCT,12000.0,BKN,30000.0,,
KRDR,07-26-2007,01:00,METAR,,170,11,,,9999,,31.0,26.0,29.71,1007.3,,,,,,,,,,,,,,,4/8 Partly Cloudy,72000.0,,SCT,30000.0,,,,,,
KRDR,07-26-2007,00:00,METAR,,170,13,,,9999,,33.0,26.0,29.71,1007.2,,,,,,,,,,,,,,,2/8 Mostly Clear,72000.0,,FEW,30000.0,,,,,,
KRDR,07-25-2007,23:00,METAR,,170,13,19.0,,9999,,34.0,26.0,29.73,1007.9,,,,,,,,,,,,,,,2/8 Mostly Clear,72000.0,,FEW,25000.0,,,,,,
KRDR,07-25-2007,22:00,METAR,,170,16,21.0,,9999,,34.0,26.0,29.75,1008.3,,,,,,,,,,,,,,,2/8 Mostly Clear,72000.0,,FEW,25000.0,,,,,,
KRDR,07-25-2007,21:00,METAR,,170,17,23.0,,9999,,33.0,25.0,29.76,1008.7,,,,,,,,,,,,,,,2/8 Mostly Clear,72000.0,,FEW,5000.0,,,,,,
KRDR,07-25-2007,20:00,METAR,,150,18,,,9999,,33.0,25.0,29.76,1008.7,,,,,,,,,,,,,,,2/8 Mostly Clear,72000.0,,FEW,5000.0,,,,,,
KRDR,07-25-2007,19:00,METAR,,180,12,19.0,,9999,,32.0,25.0,29.77,1009.1,,,,,,,,,,,,,,,2/8 Mostly Clear,72000.0,,FEW,5000.0,,,,,,
KRDR,07-25-2007,18:00,METAR,,170,13,,,9999,,31.0,25.0,29.77,1009.2,,,,,,,,,,,,,,,Clear,72000.0,,,73000.0,,,,,,
KRDR,07-25-2007,17:00,METAR,,150,11,,,9999,,31.0,25.0,29.77,1009.1,,,,,,,,,,,,,,,Clear,72000.0,,,73000.0,,,,,,
KRDR,07-25-2007,16:00,METAR,,180,11,,,9999,,29.0,24.0,29.79,1009.8,,,,,,,,,,,,,,,Clear,72000.0,,,73000.0,,,,,,
KRDR,07-25-2007,15:00,METAR,,180,13,,,9999,,28.0,24.0,29.79,1009.9,,,,,,,,,,,,,,,Clear,72000.0,,,73000.0,,,,,,
KRDR,07-25-2007,14:00,METAR,,180,13,,,9999,,26.0,23.0,29.80,1010.1,,,,,,,,,,,,,,,Clear,72000.0,,,73000.0,,,,,,
KRDR,07-25-2007,11:00,METAR,,160,9,,,9999,Mist,23.0,23.0,29.80,1010.1,,,,10,,,,,,,,,,,Clear,72000.0,,,73000.0,,,,,,
KRDR,07-25-2007,10:00,METAR,,160,9,,,9999,,23.0,23.0,29.80,1010.1,,,,,,,,,,,,,,,Clear,72000.0,,,73000.0,,,,,,
KRDR,07-25-2007,09:00,METAR,,170,9,,,9999,,24.0,23.0,29.81,1010.3,,,,,,,,,,,,,,,Clear,72000.0,,,73000.0,,,,,,
KRDR,07-25-2007,08:23,SPECI,,170,10,,,9999,,24.0,23.0,29.81,1010.4,,,,,,,,,,,,,,,Clear,72000.0,,,73000.0,,,,,,
KRDR,07-25-2007,08:00,METAR,,160,10,,,9999,,24.0,23.0,29.81,1010.4,,,,,,,,,,,,,,,Clear,72000.0,,,73000.0,,,,,,
KRDR,07-25-2007,07:00,METAR,,170,8,,,9999,,25.0,23.0,29.81,1010.5,,,,,,,,,,,,,,,Clear,72000.0,,,73000.0,,,,,,
KRDR,07-25-2007,06:00,METAR,,160,11,,,9999,,24.0,23.0,29.81,1010.5,,,,,,,,,,,,,,,Clear,72000.0,,,73000.0,,,,,,
KRDR,07-25-2007,05:00,METAR,,160,8,,,9999,,25.0,23.0,29.81,1010.6,,,,,,,,,,,,,,,Clear,72000.0,,,73000.0,,,,,,
KRDR,07-25-2007,04:00,METAR,,160,9,,,9999,,25.0,23.0,29.82,1010.9,,,,,,,,,,,,,,,Clear,72000.0,,,73000.0,,,,,,
KRDR,07-25-2007,03:00,METAR,,150,9,,,9999,,26.0,24.0,29.82,1010.7,,,,,,,,,,,,,,,Clear,72000.0,,,73000.0,,,,,,
KRDR,07-25-2007,02:00,METAR,,160,12,,,9999,,28.0,23.0,29.81,1010.5,,,,,,,,,,,,,,,Clear,72000.0,,,73000.0,,,,,,
KRDR,07-25-2007,01:00,METAR,,180,13,,,9999,,29.0,23.0,29.82,1010.8,,,,,,,,,,,,,,,Clear,72000.0,,,73000.0,,,,,,
KRDR,07-25-2007,00:00,METAR,,170,13,,,9999,,31.0,24.0,29.83,1011.2,,,,,,,,,,,,,,,Clear,72000.0,,,73000.0,,,,,,
KRDR,07-24-2007,23:00,METAR,,170,13,21.0,,9999,,32.0,24.0,29.82,1010.9,,,,,,,,,,,,,,,Clear,72000.0,,,73000.0,,,,,,
KRDR,07-24-2007,22:00,METAR,,180,19,23.0,,9999,,32.0,24.0,29.83,1011.3,,,,,,,,,,,,,,,Clear,72000.0,,,73000.0,,,,,,
KRDR,07-24-2007,21:00,METAR,,180,20,24.0,180/27KTS,9999,,32.0,23.0,29.84,1011.5,,,,,,,,,,,,,,,Clear,72000.0,,,73000.0,,,,,,
KRDR,07-24-2007,20:00,METAR,,180,16,,,9999,,32.0,24.0,29.85,1011.7,,,,,,,,,,,,,,,Clear,72000.0,,,73000.0,,,,,,
KRDR,07-24-2007,19:00,METAR,,180,22,27.0,170/27KTS,9999,,32.0,23.0,29.86,1012.1,,,,,,,,,,,,,,,4/8 Partly Cloudy,72000.0,,SCT,25000.0,,,,,,
KRDR,07-24-2007,18:00,METAR,,180,14,,,9999,,32.0,21.0,29.85,1011.9,,,,,,,,,,,,,.01 IN,,4/8 Partly Cloudy,72000.0,,SCT,25000.0,,,,,,
KRDR,07-24-2007,17:00,METAR,,200,14,,,9999,,30.0,22.0,29.85,1011.9,,,,,,,,,,,,,,,4/8 Partly Cloudy,72000.0,,SCT,25000.0,,,,,,
KRDR,07-24-2007,16:00,METAR,,220,14,,,9999,,28.0,20.0,29.83,1011.2,,,,,,,,,,,,,,,7/8 Mostly Cloudy,25000.0,,BKN,25000.0,,,,,,
KRDR,07-24-2007,15:00,METAR,,190,14,,,9999,,25.0,19.0,29.85,1011.7,,,,,,,,,,,TRACE,.01 IN,,,7/8 Mostly Cloudy,12000.0,,BKN,12000.0,BKN,25000.0,,,,
KRDR,07-24-2007,14:27,SPECI,,200,9,,,9999,,24.0,19.0,29.86,,,,,,,,,,,,,,,,7/8 Mostly Cloudy,12000.0,,BKN,12000.0,BKN,25000.0,,,,
KRDR,07-24-2007,14:07,SPECI,,200,10,,,8000,Rain,24.0,19.0,29.87,,,,,61,,,,,,,,,,,8/8 Overcast,7000.0,,FEW,1200.0,BKN,6900.0,BKN,12000.0,OVC,25000.0
KRDR,07-24-2007,14:00,METAR,,180,10,,,9999,,23.0,19.0,29.87,1012.4,,,,,,,,,,,,,,,8/8 Overcast,12000.0,,BKN,12000.0,OVC,25000.0,,,,
KRDR,07-24-2007,13:00,METAR,,140,8,,,9999,,22.0,19.0,29.91,1013.8,,,,,,,,,,,.01 IN,,,,8/8 Overcast,25000.0,,SCT,12000.0,OVC,25000.0,,,,
KRDR,07-24-2007,12:38,SPECI,,200,8,,,9999,,22.0,19.0,29.91,,,,,,,,,,,,,,,,8/8 Overcast,12000.0,,SCT,3500.0,BKN,12000.0,OVC,25000.0,,
KRDR,07-24-2007,12:28,SPECI,,180,7,,,9999,Drizzle,22.0,19.0,29.92,,,,,51,,,,,,,,,,,7/8 Mostly Cloudy,3400.0,,BKN,3500.0,BKN,12000.0,BKN,25000.0,,
KRDR,07-24-2007,12:00,METAR,,170,6,,,8000,Thunderstorm with Rain or Snow/Light Rain Showers,,,,1013.8,,,,95,80,,,,,,.04 IN,,.12 IN,.12 IN,8/8 Overcast,3400.0,,BKN,3500.0,BKN,12000.0,OVC,25000.0,,
KRDR,07-24-2007,11:31,SPECI,,120,15,20.0,,9999,Thunderstorm with Rain or Snow/Light Rain Showers,23.0,19.0,,,,,,95,80,,,,,,,,,,8/8 Overcast,3400.0,,BKN,3500.0,BKN,12000.0,OVC,25000.0,,
KRDR,07-24-2007,11:00,METAR,,220,14,23.0,280/28KTS,9999,Rain,22.0,19.0,30.00,1016.7,,,,61,,,,,,,.03 IN,,,,8/8 Overcast,12000.0,,SCT,5900.0,BKN,12000.0,OVC,25000.0,,
KRDR,07-24-2007,10:00,METAR,,290,20,29.0,290/29KTS,9999,Rain,24.0,21.0,30.03,1017.7,,,,63,,,,,,,.02 IN,,,,8/8 Overcast,12000.0,,SCT,5900.0,BKN,12000.0,OVC,25000.0,,
KRDR,07-24-2007,09:00,METAR,,180,5,,320/45KTS,9999,Thunderstorm with Rain or Snow/Light Rain Showers,28.0,19.0,29.97,1015.6,,,,95,80,,,,,,.03 IN,.03 IN,,,8/8 Overcast,12000.0,,SCT,5000.0,BKN,12000.0,OVC,25000.0,,
KRDR,07-24-2007,08:44,SPECI,,240,15,32.0,320/45KTS,9999,Thunderstorm with Rain or Snow/Light Rain Showers,29.0,19.0,29.98,,,,,95,80,,,,,,,,,,8/8 Overcast,12000.0,,SCT,5000.0,OVC,12000.0,,,,
KRDR,07-24-2007,08:00,METAR,,250,7,,,9999,Thunderstorm with Rain or Snow/Light Rain Showers,26.0,22.0,29.96,1015.3,,,,95,80,,,,,,,,,,8/8 Overcast,11000.0,,SCT,5000.0,BKN,11000.0,OVC,25000.0,,
KRDR,07-24-2007,07:35,SPECI,,320,15,23.0,,9999,Thunderstorm,24.0,22.0,29.96,,,,,17,,,,,,,,,,,8/8 Overcast,11000.0,,FEW,5000.0,BKN,11000.0,OVC,25000.0,,
KRDR,07-24-2007,07:18,SPECI,,180,4,,,9999,Thunderstorm,24.0,22.0,29.91,,,,,17,,,,,,,,,,,8/8 Overcast,12000.0,,FEW,5000.0,BKN,12000.0,OVC,25000.0,,
KRDR,07-24-2007,07:00,METAR,,150,4,,,9999,,25.0,22.0,29.91,1013.9,,,,,,,,,,,,,,,7/8 Mostly Cloudy,25000.0,,SCT,15000.0,BKN,25000.0,,,,
KRDR,07-24-2007,06:00,METAR,,150,6,,,9999,,25.0,21.0,29.90,1013.4,,,,,,,,,,,,,,,4/8 Partly Cloudy,72000.0,,FEW,15000.0,SCT,25000.0,,,,
KRDR,07-24-2007,05:00,METAR,,150,7,,,9999,,26.0,21.0,29.90,1013.6,,,,,,,,,,,,,,,2/8 Mostly Clear,72000.0,,FEW,25000.0,,,,,,
KRDR,07-24-2007,04:00,METAR,,160,8,,,9999,,26.0,22.0,29.91,1013.9,,,,,,,,,,,,,,,2/8 Mostly Clear,72000.0,,FEW,25000.0,,,,,,
KRDR,07-24-2007,03:00,METAR,,160,10,,,9999,,27.0,23.0,29.92,1014.0,,,,,,,,,,,,,,,4/8 Partly Cloudy,72000.0,,FEW,15000.0,SCT,25000.0,,,,
KRDR,07-24-2007,02:00,METAR,,140,6,,,9999,,29.0,24.0,29.93,1014.3,,,,,,,,,,,,,,,4/8 Partly Cloudy,72000.0,,FEW,15000.0,SCT,25000.0,,,,
KRDR,07-24-2007,01:00,METAR,,140,5,,,9999,,31.0,24.0,29.94,1014.6,,,,,,,,,,,,,,,4/8 Partly Cloudy,72000.0,,FEW,12000.0,SCT,25000.0,,,,
KRDR,07-24-2007,00:00,METAR,,140,7,,,9999,,33.0,25.0,29.95,1015.0,,,,,,,,,,,,,,,4/8 Partly Cloudy,72000.0,,SCT,25000.0,,,,,,
KRDR,07-23-2007,23:00,METAR,,190,10,,,9999,,33.0,23.0,29.95,1015.2,,,,,,,,,,,,,,,7/8 Mostly Cloudy,25000.0,,BKN,25000.0,,,,,,
KRDR,07-23-2007,22:00,METAR,,150,10,,,9999,,34.0,23.0,29.96,1015.4,,,,,,,,,,,,,,,7/8 Mostly Cloudy,25000.0,,BKN,25000.0,,,,,,
KRDR,07-23-2007,21:00,METAR,,190,6,,,9999,,33.0,24.0,29.98,1016.0,,,,,,,,,,,,,,,7/8 Mostly Cloudy,25000.0,,BKN,25000.0,,,,,,
KRDR,07-23-2007,20:00,METAR,,150,6,,,9999,,33.0,24.0,29.99,1016.2,,,,,,,,,,,,,,,7/8 Mostly Cloudy,25000.0,,BKN,25000.0,,,,,,
KRDR,07-23-2007,19:00,METAR,,150,7,,,9999,,33.0,24.0,29.99,1016.4,,,,,,,,,,,,,,,7/8 Mostly Cloudy,25000.0,,BKN,25000.0,,,,,,
KRDR,07-23-2007,18:00,METAR,,150,7,,,9999,,32.0,24.0,30.01,1017.0,,,,,,,,,,,,,,,7/8 Mostly Cloudy,25000.0,,BKN,25000.0,,,,,,
KRDR,07-23-2007,17:00,METAR,,,2,,,9999,,31.0,25.0,30.02,1017.5,,,,,,,,,,,,,,,7/8 Mostly Cloudy,25000.0,,FEW,3000.0,BKN,25000.0,,,,
KRDR,07-23-2007,16:00,METAR,,,4,,,9999,,29.0,26.0,30.03,1017.6,,,,,,,,,,,,,,,7/8 Mostly Cloudy,25000.0,,FEW,3000.0,BKN,25000.0,,,,
KRDR,07-23-2007,15:00,METAR,,160,4,,,9999,,28.0,25.0,30.03,1017.8,,,,,,,,,,,,,,,4/8 Partly Cloudy,72000.0,,FEW,2000.0,SCT,25000.0,,,,
KRDR,07-23-2007,14:00,METAR,,150,3,,,9999,,25.0,24.0,30.02,1017.5,,,,,,,,,,,,,,,4/8 Partly Cloudy,72000.0,,FEW,1000.0,SCT,25000.0,,,,
KRDR,07-23-2007,13:00,METAR,,,0,,,9999,,23.0,22.0,30.01,1017.1,,,,,,,,,,,,,,,4/8 Partly Cloudy,72000.0,,FEW,1000.0,SCT,25000.0,,,,
KRDR,07-23-2007,12:00,METAR,,,0,,,9999,Shallow Fog or Ice Fog,19.0,19.0,30.02,1017.3,,,,12,,,,,,,,,,.03 IN,2/8 Mostly Clear,72000.0,,FEW,25000.0,,,,,,
KRDR,07-23-2007,11:00,METAR,,,0,,,9999,Shallow Fog or Ice Fog,19.0,19.0,30.01,1017.2,,,,12,,,,,,,,,,,2/8 Mostly Clear,72000.0,,FEW,25000.0,,,,,,
KRDR,07-23-2007,10:46,SPECI,,,0,,,6400,Mist,19.0,19.0,30.01,1017.1,10,,,,,,,,,,,,,,Clear,72000.0,,,73000.0,,,,,,
KRDR,07-23-2007,10:45,METAR,,,0,,,4000,Mist,19.0,19.0,30.01,1017.1,10,,,,,,,,,,,,,,Clear,72000.0,,,73000.0,,,,,,
KRDR,07-23-2007,10:36,SPECI,,,0,,,1600,Mist,19.0,19.0,30.01,1017.0,10,,,,,,,,,,,,,,Clear,72000.0,,,73000.0,,,,,,
KRDR,07-23-2007,10:35,SPECI,,,0,,,2000,Mist,19.0,19.0,30.01,1017.0,10,,,,,,,,,,,,,,Clear,72000.0,,,73000.0,,,,,,
KRDR,07-23-2007,10:25,METAR,,,0,,,9999,Mist,19.0,19.0,30.01,1017.1,10,,,,,,,,,,,,,,Clear,72000.0,,,73000.0,,,,,,
KRDR,07-23-2007,10:00,METAR,,250,4,,,9999,Mist,19.0,19.0,30.01,1017.0,10,,,,,,,,,,,,,,Clear,72000.0,,,73000.0,,,,,,
KRDR,07-23-2007,09:31,SPECI,,220,3,,,6400,Mist,19.0,19.0,30.00,1016.8,10,,,,,,,,,,,,,,Clear,72000.0,,,73000.0,,,,,,
KRDR,07-23-2007,09:29,SPECI,,220,3,,,3200,Mist,19.0,19.0,30.00,1016.8,10,,,,,,,,,,,,,,Clear,72000.0,,,73000.0,,,,,,
KRDR,07-23-2007,09:22,SPECI,,220,5,,,2800,Mist,19.0,19.0,30.00,1016.7,10,,,,,,,,,,,,,,Clear,72000.0,,,73000.0,,,,,,
KRDR,07-23-2007,09:21,SPECI,,230,4,,,2800,Mist,20.0,20.0,30.00,1016.7,10,,,,,,,,,,,,,,Clear,72000.0,,,73000.0,,,,,,
KRDR,07-23-2007,09:01,SPECI,,230,3,,,9999,,19.0,19.0,30.00,1016.8,,,,,,,,,,,,,,,Clear,72000.0,,,73000.0,,,,,,
KRDR,07-23-2007,09:00,METAR,,220,2,,,9999,,19.0,19.0,30.00,1016.7,,,,,,,,,,,,TRACE,,,Clear,72000.0,,,73000.0,,,,,,
KRDR,07-23-2007,08:21,SPECI,,,0,,,6400,Mist,19.0,19.0,30.00,1016.7,10,,,,,,,,,,,,,,Clear,72000.0,,,73000.0,,,,,,
KRDR,07-23-2007,08:12,SPECI,,,0,,,4000,Mist,20.0,20.0,30.00,1016.7,10,,,,,,,,,,,,,,Clear,72000.0,,,73000.0,,,,,,
KRDR,07-23-2007,08:00,METAR,,,0,,,9999,,20.0,20.0,30.00,1016.9,,,,,,,,,,,,,,,Clear,72000.0,,,73000.0,,,,,,
KRDR,07-23-2007,07:00,METAR,,,0,,,9999,,21.0,20.0,30.00,1016.9,,,,,,,,,,,TRACE,,,,Clear,72000.0,,,73000.0,,,,,,
KRDR,07-23-2007,06:07,SPECI,,310,3,,,9999,,21.0,21.0,30.01,1017.0,,,,,,,,,,,,,,,Clear,72000.0,,,73000.0,,,,,,
KRDR,07-23-2007,06:02,SPECI,,310,2,,,9999,,21.0,21.0,30.01,1017.0,,,,,,,,,,,,,,,Clear,72000.0,,,73000.0,,,,,,
KRDR,07-23-2007,06:00,METAR,,320,3,,,9999,Mist,21.0,21.0,30.01,1017.0,10,,,,,,,,,,,,,,Clear,72000.0,,,73000.0,,,,,,
KRDR,07-23-2007,05:00,METAR,,330,3,,,9999,,22.0,22.0,30.01,1017.0,,,,,,,,,,,,,,,Clear,72000.0,,,73000.0,,,,,,
KRDR,07-23-2007,04:03,SPECI,,,0,,,8000,Mist,23.0,22.0,30.00,1016.9,10,,,,,,,,,,,,,,Clear,72000.0,,,73000.0,,,,,,
KRDR,07-23-2007,04:00,METAR,,,0,,,6400,Mist,23.0,22.0,30.01,1016.9,10,,,,,,,,,,,,,,Clear,72000.0,,,73000.0,,,,,,
KRDR,07-23-2007,03:44,SPECI,,,0,,,8000,Mist,23.0,23.0,30.00,1016.9,10,,,,,,,,,,,,,,Clear,72000.0,,,73000.0,,,,,,
KRDR,07-23-2007,03:34,SPECI,,,0,,,8000,Mist,23.0,22.0,30.00,1016.8,10,,,,,,,,,,,,,,Clear,72000.0,,,73000.0,,,,,,
KRDR,07-23-2007,03:27,SPECI,,,0,,,4800,Mist,23.0,22.0,30.00,1016.8,10,,,,,,,,,,,,,,Clear,72000.0,,,73000.0,,,,,,
KRDR,07-23-2007,03:18,SPECI,,,0,,,4000,Mist,24.0,22.0,30.00,1016.8,10,,,,,,,,,,,,,,Clear,72000.0,,,73000.0,,,,,,
KRDR,07-23-2007,03:12,SPECI,,,0,,,8000,Mist,24.0,22.0,30.00,1016.8,10,,,,,,,,,,,,,,Clear,72000.0,,,73000.0,,,,,,
KRDR,07-23-2007,03:00,METAR,,,0,,,9999,,26.0,23.0,30.00,1016.7,,,,,,,,,,,,,,,4/8 Partly Cloudy,72000.0,,SCT,25000.0,,,,,,
KRDR,07-23-2007,02:00,METAR,,60,3,,,9999,,29.0,24.0,29.98,1016.2,,,,,,,,,,,,,,,7/8 Mostly Cloudy,25000.0,,BKN,25000.0,,,,,,
KRDR,07-23-2007,01:00,METAR,,40,3,,,9999,,31.0,23.0,29.97,1015.7,,,,,,,,,,,,,,,7/8 Mostly Cloudy,25000.0,,FEW,3000.0,BKN,25000.0,,,,
KRDR,07-23-2007,00:00,METAR,,10,7,,,9999,,32.0,25.0,29.96,1015.3,,,,,,,,,,,,,,,Clear,72000.0,,,73000.0,,,,,,
KRDR,07-22-2007,23:00,METAR,,20,7,,,9999,,33.0,25.0,29.94,1014.8,,,,,,,,,,,,,,,4/8 Partly Cloudy,72000.0,,SCT,4000.0,,,,,,
KRDR,07-22-2007,22:00,METAR,,340,3,,,9999,,33.0,24.0,29.94,1014.8,,,,,,,,,,,,,,,Clear,72000.0,,,73000.0,,,,,,
KRDR,07-22-2007,21:00,METAR,,20,3,,,9999,,33.0,25.0,29.95,1014.9,,,,,,,,,,,,,,,Clear,72000.0,,,73000.0,,,,,,
KRDR,07-22-2007,20:00,METAR,,,3,,,9999,,32.0,25.0,29.95,1015.0,,,,,,,,,,,,,,,Clear,72000.0,,,73000.0,,,,,,
KRDR,07-22-2007,19:00,METAR,,280,4,,,9999,,31.0,25.0,29.96,1015.3,,,,,,,,,,,,,,,Clear,72000.0,,,73000.0,,,,,,
KRDR,07-22-2007,18:00,METAR,,290,6,,,9999,,29.0,25.0,29.96,1015.3,,,,,,,,,,,,,.03 IN,,2/8 Mostly Clear,72000.0,,FEW,1500.0,,,,,,
KRDR,07-22-2007,17:00,METAR,,260,6,,,9999,,26.0,24.0,29.95,1014.9,,,,,,,,,,,,,,,Clear,72000.0,,,73000.0,,,,,,
KRDR,07-22-2007,16:00,METAR,,300,7,,,9999,,24.0,23.0,29.92,1014.0,,,,,,,,,,,,,,,Clear,72000.0,,,73000.0,,,,,,
KRDR,07-22-2007,15:00,METAR,,240,6,,,9999,,24.0,23.0,29.92,1014.1,,,,,,,,,,,.03 IN,.03 IN,,,2/8 Mostly Clear,72000.0,,FEW,1100.0,,,,,,
KRDR,07-22-2007,14:40,SPECI,,230,3,,,4800,Light Rain/Mist,25.0,23.0,29.92,1014.0,61,10,,,,,,,,,,,,,2/8 Mostly Clear,72000.0,,FEW,4000.0,,,,,,
KRDR,07-22-2007,14:31,SPECI,,230,5,,,4000,Light Rain/Mist,25.0,23.0,29.92,1014.0,61,10,,,,,,,,,,,,,4/8 Partly Cloudy,72000.0,,SCT,3900.0,,,,,,
KRDR,07-22-2007,14:25,METAR,,220,6,,,9999,,25.0,22.0,29.93,1014.3,,,,,,,,,,,,,,,7/8 Mostly Cloudy,3700.0,,BKN,3800.0,,,,,,
KRDR,07-22-2007,14:00,METAR,,200,5,,,9999,,25.0,22.0,29.91,1013.9,,,,,,,,,,,,,,,Clear,72000.0,,,73000.0,,,,,,
KRDR,07-22-2007,13:00,METAR,,160,4,,,9999,,23.0,21.0,29.93,1014.3,,,,,,,,,,,,,,,2/8 Mostly Clear,72000.0,,FEW,8900.0,,,,,,
KRDR,07-22-2007,12:00,METAR,,140,2,,,9999,,22.0,20.0,29.90,1013.3,,,,,,,,,,,,,,,Clear,72000.0,,,73000.0,,,,,,
KRDR,07-22-2007,11:00,METAR,,160,6,,,9999,,22.0,20.0,29.87,1012.4,,,,,,,,,,,,,,,Clear,72000.0,,,73000.0,,,,,,
KRDR,07-22-2007,10:00,METAR,,160,11,,,9999,,22.0,20.0,29.86,1012.1,,,,,,,,,,,,,,,Clear,72000.0,,,73000.0,,,,,,
KRDR,07-22-2007,09:00,METAR,,160,11,,,9999,,23.0,20.0,29.86,1012.1,,,,,,,,,,,,,,,Clear,72000.0,,,73000.0,,,,,,
KRDR,07-22-2007,08:00,METAR,,160,13,,,9999,,23.0,20.0,29.86,1012.2,,,,,,,,,,,,,,,Clear,72000.0,,,73000.0,,,,,,
KRDR,07-22-2007,07:00,METAR,,160,14,,,9999,,24.0,20.0,29.87,1012.6,,,,,,,,,,,,,,,Clear,72000.0,,,73000.0,,,,,,
KRDR,07-22-2007,06:00,METAR,,160,11,,,9999,,24.0,20.0,29.89,1013.1,,,,,,,,,,,,,,,Clear,72000.0,,,73000.0,,,,,,
KRDR,07-22-2007,05:00,METAR,,150,10,,,9999,,24.0,20.0,29.91,1013.6,,,,,,,,,,,,,,,2/8 Mostly Clear,72000.0,,FEW,6900.0,,,,,,
KRDR,07-22-2007,04:00,METAR,,130,7,,,9999,,24.0,21.0,29.92,1014.0,,,,,,,,,,,,,,,4/8 Partly Cloudy,72000.0,,SCT,6900.0,,,,,,
KRDR,07-22-2007,03:00,METAR,,140,7,,,9999,,25.0,21.0,29.92,1013.9,,,,,,,,,,,,,,,2/8 Mostly Clear,72000.0,,FEW,5900.0,,,,,,
KRDR,07-22-2007,02:00,METAR,,140,8,,,9999,,27.0,21.0,29.91,1013.9,,,,,,,,,,,,,,,2/8 Mostly Clear,72000.0,,FEW,4400.0,,,,,,
KRDR,07-22-2007,01:00,METAR,,150,9,,,9999,,28.0,21.0,29.92,1014.0,,,,,,,,,,,,,,,8/8 Overcast,3600.0,,OVC,3700.0,,,,,,
KRDR,07-22-2007,00:00,METAR,,160,12,18.0,160/27KTS,9999,,28.0,21.0,29.91,1013.9,,,,,,,,,,,,,,,7/8 Mostly Cloudy,3700.0,,BKN,3800.0,,,,,,
KRDR,07-21-2007,23:00,METAR,,150,21,29.0,160/29KTS,9999,,29.0,21.0,29.91,1013.7,,,,,,,,,,,,,,,7/8 Mostly Cloudy,3400.0,,BKN,3500.0,,,,,,
KRDR,07-21-2007,22:00,METAR,,170,19,26.0,170/26KTS,9999,,29.0,21.0,29.92,1014.1,,,,,,,,,,,,,,,7/8 Mostly Cloudy,3500.0,,BKN,3600.0,,,,,,
KRDR,07-21-2007,21:00,METAR,,160,16,27.0,160/27KTS,9999,,28.0,21.0,29.94,1014.7,,,,,,,,,,,,,,,2/8 Mostly Clear,72000.0,,FEW,3500.0,,,,,,
KRDR,07-21-2007,20:00,METAR,,160,20,27.0,150/29KTS,9999,,28.0,20.0,29.94,1014.9,,,,,,,,,,,,,,,Clear,72000.0,,,73000.0,,,,,,
KRDR,07-21-2007,19:00,METAR,,150,17,24.0,,9999,,29.0,20.0,29.94,1014.8,,,,,,,,,,,,,,,Clear,72000.0,,,73000.0,,,,,,
KRDR,07-21-2007,18:00,METAR,,140,17,23.0,,9999,,27.0,19.0,29.97,1015.8,,,,,,,,,,,,,,,Clear,72000.0,,,73000.0,,,,,,
KRDR,07-21-2007,17:00,METAR,,160,17,21.0,,9999,,26.0,18.0,29.99,1016.5,,,,,,,,,,,,,,,Clear,72000.0,,,73000.0,,,,,,
KRDR,07-21-2007,16:00,METAR,,160,16,22.0,,9999,,24.0,17.0,30.01,1017.1,,,,,,,,,,,,,,,2/8 Mostly Clear,72000.0,,FEW,3400.0,,,,,,
KRDR,07-21-2007,15:00,METAR,,160,17,,,9999,,22.0,16.0,30.03,1017.6,,,,,,,,,,,,,,,2/8 Mostly Clear,72000.0,,FEW,3900.0,,,,,,
KRDR,07-21-2007,14:00,METAR,,170,14,,,9999,,20.0,14.0,30.04,1018.1,,,,,,,,,,,,,,,4/8 Partly Cloudy,72000.0,,FEW,4200.0,SCT,25000.0,,,,
KRDR,07-21-2007,13:00,METAR,,150,13,18.0,,9999,,17.0,13.0,30.04,1018.1,,,,,,,,,,,,,,,2/8 Mostly Clear,72000.0,,FEW,25000.0,,,,,,
KRDR,07-21-2007,12:00,METAR,,150,7,,,9999,,15.0,12.0,30.05,1018.3,,,,,,,,,,,,,,,2/8 Mostly Clear,72000.0,,FEW,25000.0,,,,,,
KRDR,07-21-2007,11:00,METAR,,160,10,,,9999,,15.0,12.0,30.05,1018.3,,,,,,,,,,,,,,,Clear,72000.0,,,73000.0,,,,,,
KRDR,07-21-2007,10:00,METAR,,170,8,,,9999,,15.0,11.0,30.05,1018.3,,,,,,,,,,,,,,,Clear,72000.0,,,73000.0,,,,,,
KRDR,07-21-2007,09:00,METAR,,170,7,,,9999,,15.0,11.0,30.05,1018.2,,,,,,,,,,,,,,,Clear,72000.0,,,73000.0,,,,,,
KRDR,07-21-2007,08:00,METAR,,180,7,,,9999,,15.0,12.0,30.04,1018.2,,,,,,,,,,,,,,,Clear,72000.0,,,73000.0,,,,,,
KRDR,07-21-2007,07:00,METAR,,170,8,,,9999,,16.0,12.0,30.05,1018.3,,,,,,,,,,,,,,,Clear,72000.0,,,73000.0,,,,,,
KRDR,07-21-2007,06:00,METAR,,170,8,,,9999,,16.0,12.0,30.05,1018.3,,,,,,,,,,,,,,,Clear,72000.0,,,73000.0,,,,,,
KRDR,07-21-2007,05:00,METAR,,170,8,,,9999,,17.0,13.0,30.06,1018.7,,,,,,,,,,,,,,,Clear,72000.0,,,73000.0,,,,,,
KRDR,07-21-2007,04:00,METAR,,170,6,,,9999,,18.0,14.0,30.06,1018.8,,,,,,,,,,,,,,,4/8 Partly Cloudy,72000.0,,FEW,12000.0,SCT,25000.0,,,,
KRDR,07-21-2007,03:00,METAR,,160,7,,,9999,,20.0,14.0,30.05,1018.5,,,,,,,,,,,,,,,4/8 Partly Cloudy,72000.0,,SCT,25000.0,,,,,,
KRDR,07-21-2007,02:00,METAR,,170,8,,,9999,,22.0,14.0,30.05,1018.4,,,,,,,,,,,,,,,2/8 Mostly Clear,72000.0,,FEW,25000.0,,,,,,
KRDR,07-20-2007,22:00,METAR,,180,12,18.0,,9999,,27.0,13.0,30.07,1019.0,,,,,,,,,,,,,,,4/8 Partly Cloudy,72000.0,,SCT,25000.0,,,,,,
KRDR,07-20-2007,21:00,METAR,,180,10,18.0,,9999,,27.0,13.0,30.08,1019.5,,,,,,,,,,,,,,,4/8 Partly Cloudy,72000.0,,SCT,25000.0,,,,,,
KRDR,07-20-2007,20:00,METAR,,190,10,,,9999,,27.0,13.0,30.09,1019.7,,,,,,,,,,,,,,,4/8 Partly Cloudy,72000.0,,SCT,25000.0,,,,,,
KRDR,07-20-2007,19:00,METAR,,190,13,,,9999,,26.0,12.0,30.11,1020.2,,,,,,,,,,,,,,,4/8 Partly Cloudy,72000.0,,SCT,25000.0,,,,,,
KRDR,07-20-2007,18:00,METAR,,180,11,,,9999,,25.0,14.0,30.12,1020.7,,,,,,,,,,,,,,,4/8 Partly Cloudy,72000.0,,SCT,25000.0,,,,,,
KRDR,07-20-2007,17:00,METAR,,180,11,,,9999,,24.0,14.0,30.13,1021.0,,,,,,,,,,,,,,,Clear,72000.0,,,73000.0,,,,,,
KRDR,07-20-2007,16:00,METAR,,180,7,,,9999,,23.0,13.0,30.13,1021.1,,,,,,,,,,,,,,,Clear,72000.0,,,73000.0,,,,,,
KRDR,07-20-2007,15:00,METAR,,170,7,,,9999,,20.0,13.0,30.13,1021.1,,,,,,,,,,,,,,,2/8 Mostly Clear,72000.0,,FEW,25000.0,,,,,,
KRDR,07-20-2007,14:00,METAR,,170,7,,,9999,,17.0,13.0,30.14,1021.2,,,,,,,,,,,,,,,2/8 Mostly Clear,72000.0,,FEW,25000.0,,,,,,
KRDR,07-20-2007,13:00,METAR,,150,4,,,9999,,15.0,12.0,30.15,1021.7,,,,,,,,,,,,,,,2/8 Mostly Clear,72000.0,,FEW,25000.0,,,,,,
KRDR,07-20-2007,12:00,METAR,,,0,,,9999,,11.0,10.0,30.15,1021.6,,,,,,,,,,,,,,,2/8 Mostly Clear,72000.0,,FEW,25000.0,,,,,,
KRDR,07-20-2007,11:00,METAR,,120,2,,,9999,Shallow Fog or Ice Fog,9.0,9.0,30.15,1021.7,,,,12,,,,,,,,,,,Clear,72000.0,,,73000.0,,,,,,
KRDR,07-20-2007,10:24,SPECI,,,0,,,4800,Mist,9.0,9.0,30.15,1021.8,10,,,,,,,,,,,,,,Clear,72000.0,,,73000.0,,,,,,
KRDR,07-20-2007,10:19,SPECI,,,0,,,4000,Mist,9.0,9.0,30.15,1021.8,10,,,,,,,,,,,,,,Clear,72000.0,,,73000.0,,,,,,
KRDR,07-20-2007,10:00,METAR,,,0,,,9999,,8.0,8.0,30.15,1021.6,,,,,,,,,,,,,,,Clear,72000.0,,,73000.0,,,,,,
KRDR,07-20-2007,09:37,SPECI,,,0,,,4800,Mist,9.0,8.0,30.15,1021.6,10,,,,,,,,,,,,,,Clear,72000.0,,,73000.0,,,,,,
KRDR,07-20-2007,09:34,SPECI,,,0,,,2400,Mist,9.0,9.0,30.15,1021.6,10,,,,,,,,,,,,,,Clear,72000.0,,,73000.0,,,,,,
KRDR,07-20-2007,09:32,SPECI,,,0,,,2000,Mist,9.0,9.0,30.15,1021.6,10,,,,,,,,,,,,,,Clear,72000.0,,,73000.0,,,,,,
KRDR,07-20-2007,09:28,SPECI,,,0,,,2800,Mist,9.0,8.0,30.15,1021.6,10,,,,,,,,,,,,,,Clear,72000.0,,,73000.0,,,,,,
KRDR,07-20-2007,09:26,SPECI,,,0,,,4000,Mist,9.0,8.0,30.15,1021.6,10,,,,,,,,,,,,,,Clear,72000.0,,,73000.0,,,,,,
KRDR,07-20-2007,09:00,METAR,,,0,,,9999,,9.0,8.0,30.15,1021.6,,,,,,,,,,,,,,,Clear,72000.0,,,73000.0,,,,,,
KRDR,07-20-2007,08:34,SPECI,,,0,,,3200,Mist,9.0,9.0,30.14,1021.4,10,,,,,,,,,,,,,,Clear,72000.0,,,73000.0,,,,,,
KRDR,07-20-2007,08:30,METAR,,,0,,,2400,Mist,9.0,8.0,30.15,1021.5,10,,,,,,,,,,,,,,Clear,72000.0,,,73000.0,,,,,,
KRDR,07-20-2007,08:21,SPECI,,,0,,,2000,Mist,9.0,9.0,30.15,1021.6,10,,,,,,,,,,,,,,Clear,72000.0,,,73000.0,,,,,,
KRDR,07-20-2007,08:20,METAR,,,0,,,2000,Mist,9.0,9.0,30.15,1021.6,10,,,,,,,,,,,,,,Clear,72000.0,,,73000.0,,,,,,
KRDR,07-20-2007,08:16,SPECI,,,0,,,2800,Mist,9.0,9.0,30.15,1021.6,10,,,,,,,,,,,,,,Clear,72000.0,,,73000.0,,,,,,
KRDR,07-20-2007,08:14,SPECI,,,0,,,4000,Mist,9.0,9.0,30.15,1021.6,10,,,,,,,,,,,,,,Clear,72000.0,,,73000.0,,,,,,
KRDR,07-20-2007,08:00,METAR,,,0,,,9999,,10.0,9.0,30.15,1021.7,,,,,,,,,,,,,,,Clear,72000.0,,,73000.0,,,,,,
KRDR,07-20-2007,07:00,METAR,,,0,,,9999,,11.0,10.0,30.15,1021.6,,,,,,,,,,,,,,,Clear,72000.0,,,73000.0,,,,,,
KRDR,07-20-2007,06:00,METAR,,,0,,,9999,,12.0,11.0,30.14,1021.4,,,,,,,,,,,,,,,Clear,72000.0,,,73000.0,,,,,,
KRDR,07-20-2007,05:00,METAR,,100,4,,,9999,,16.0,12.0,30.15,1021.5,,,,,,,,,,,,,,,Clear,72000.0,,,73000.0,,,,,,
KRDR,07-20-2007,04:00,METAR,,180,3,,,9999,,18.0,12.0,30.13,1021.0,,,,,,,,,,,,,,,2/8 Mostly Clear,72000.0,,FEW,25000.0,,,,,,
KRDR,07-20-2007,03:00,METAR,,140,5,,,9999,,20.0,12.0,30.12,1020.7,,,,,,,,,,,,,,,2/8 Mostly Clear,72000.0,,FEW,25000.0,,,,,,
KRDR,07-20-2007,02:00,METAR,,90,5,,,9999,,21.0,12.0,30.11,1020.4,,,,,,,,,,,,,,,2/8 Mostly Clear,72000.0,,FEW,25000.0,,,,,,
KRDR,07-20-2007,01:00,METAR,,90,8,,,9999,,23.0,10.0,30.12,1020.7,,,,,,,,,,,,,,,2/8 Mostly Clear,72000.0,,FEW,25000.0,,,,,,
KRDR,07-20-2007,00:00,METAR,,80,8,,,9999,,24.0,10.0,30.12,1020.7,,,,,,,,,,,,,,,2/8 Mostly Clear,72000.0,,FEW,25000.0,,,,,,
KRDR,07-19-2007,23:00,METAR,,70,8,,,9999,,24.0,11.0,30.13,1020.9,,,,,,,,,,,,,,,2/8 Mostly Clear,72000.0,,FEW,25000.0,,,,,,
KRDR,07-19-2007,22:00,METAR,,50,7,,,9999,,24.0,11.0,30.14,1021.4,,,,,,,,,,,,,,,2/8 Mostly Clear,72000.0,,FEW,25000.0,,,,,,
KRDR,07-19-2007,21:00,METAR,,60,8,,,9999,,25.0,10.0,30.16,1021.9,,,,,,,,,,,,,,,2/8 Mostly Clear,72000.0,,FEW,25000.0,,,,,,
KRDR,07-19-2007,20:00,METAR,,,5,,,9999,,24.0,11.0,30.16,1022.1,,,,,,,,,,,,,,,2/8 Mostly Clear,72000.0,,FEW,25000.0,,,,,,
KRDR,07-19-2007,19:00,METAR,,,3,,,9999,,23.0,10.0,30.17,1022.2,,,,,,,,,,,,,,,2/8 Mostly Clear,72000.0,,FEW,25000.0,,,,,,
KRDR,07-19-2007,18:00,METAR,,70,6,,,9999,,23.0,10.0,30.18,1022.6,,,,,,,,,,,,,,,2/8 Mostly Clear,72000.0,,FEW,25000.0,,,,,,
KRDR,07-19-2007,17:00,METAR,,90,5,,,9999,,22.0,10.0,30.19,1022.9,,,,,,,,,,,,,,,2/8 Mostly Clear,72000.0,,FEW,25000.0,,,,,,
KRDR,07-19-2007,16:00,METAR,,100,8,,,9999,,21.0,10.0,30.19,1023.0,,,,,,,,,,,,,,,2/8 Mostly Clear,72000.0,,FEW,25000.0,,,,,,
KRDR,07-19-2007,15:00,METAR,,80,3,,,9999,,20.0,11.0,30.19,1023.1,,,,,,,,,,,,,,,2/8 Mostly Clear,72000.0,,FEW,25000.0,,,,,,
KRDR,07-19-2007,14:00,METAR,,,5,,,9999,,18.0,12.0,30.19,1022.8,,,,,,,,,,,,,,,2/8 Mostly Clear,72000.0,,FEW,25000.0,,,,,,
KRDR,07-19-2007,13:00,METAR,,20,6,,,9999,,16.0,12.0,30.17,1022.2,,,,,,,,,,,,,,,2/8 Mostly Clear,72000.0,,FEW,25000.0,,,,,,
KRDR,07-19-2007,12:00,METAR,,350,3,,,9999,,13.0,12.0,30.14,1021.5,,,,,,,,,,,,,,,2/8 Mostly Clear,72000.0,,FEW,25000.0,,,,,,
KRDR,07-19-2007,11:00,METAR,,340,4,,,9999,,12.0,11.0,30.11,1020.4,,,,,,,,,,,,,,,2/8 Mostly Clear,72000.0,,FEW,25000.0,,,,,,
KRDR,07-19-2007,10:00,METAR,,350,5,,,9999,,13.0,11.0,30.08,1019.3,,,,,,,,,,,,,,,Clear,72000.0,,,73000.0,,,,,,
KRDR,07-19-2007,09:00,METAR,,340,8,,,9999,,14.0,12.0,30.06,1018.6,,,,,,,,,,,,,,,Clear,72000.0,,,73000.0,,,,,,
KRDR,07-19-2007,08:00,METAR,,360,7,,,9999,,15.0,12.0,30.04,1018.2,,,,,,,,,,,,,,,Clear,72000.0,,,73000.0,,,,,,
KRDR,07-19-2007,07:00,METAR,,350,6,,,9999,,16.0,13.0,30.04,1018.1,,,,,,,,,,,,,,,Clear,72000.0,,,73000.0,,,,,,
KRDR,07-19-2007,06:00,METAR,,10,7,,,9999,,17.0,14.0,30.04,1017.9,,,,,,,,,,,,,,,Clear,72000.0,,,73000.0,,,,,,
KRDR,07-19-2007,05:00,METAR,,360,6,,,9999,,18.0,15.0,30.02,1017.5,,,,,,,,,,,,,,,Clear,72000.0,,,73000.0,,,,,,
KRDR,07-19-2007,04:00,METAR,,360,5,,,9999,,19.0,16.0,30.01,1017.1,,,,,,,,,,,,,,,Clear,72000.0,,,73000.0,,,,,,
KRDR,07-19-2007,03:00,METAR,,340,7,,,9999,,20.0,16.0,30.00,1016.6,,,,,,,,,,,,,,,2/8 Mostly Clear,72000.0,,FEW,25000.0,,,,,,
KRDR,07-19-2007,02:00,METAR,,350,5,,,9999,,22.0,16.0,29.99,1016.3,,,,,,,,,,,,,,,2/8 Mostly Clear,72000.0,,FEW,25000.0,,,,,,
KRDR,07-19-2007,01:00,METAR,,10,8,,,9999,,25.0,15.0,29.98,1016.0,,,,,,,,,,,,,,,2/8 Mostly Clear,72000.0,,FEW,25000.0,,,,,,
KRDR,07-19-2007,00:00,METAR,,20,12,,,9999,,27.0,13.0,29.97,1015.6,,,,,,,,,,,,,,,2/8 Mostly Clear,72000.0,,FEW,25000.0,,,,,,
KRDR,07-18-2007,23:00,METAR,,20,13,,,9999,,28.0,16.0,29.95,1015.2,,,,,,,,,,,,,,,4/8 Partly Cloudy,72000.0,,FEW,5000.0,SCT,25000.0,,,,
KRDR,07-18-2007,22:00,METAR,,20,8,,,9999,,28.0,17.0,29.96,1015.3,,,,,,,,,,,,,,,7/8 Mostly Cloudy,25000.0,,FEW,5000.0,BKN,25000.0,,,,
KRDR,07-18-2007,21:00,METAR,,20,7,,,9999,,27.0,18.0,29.96,1015.3,,,,,,,,,,,,,,,7/8 Mostly Cloudy,25000.0,,FEW,4000.0,SCT,9900.0,BKN,25000.0,,
KRDR,07-18-2007,20:00,METAR,,350,6,,,9999,,25.0,19.0,29.96,1015.3,,,,,,,,,,,,,,,7/8 Mostly Cloudy,10000.0,,FEW,3500.0,BKN,9900.0,BKN,25000.0,,
KRDR,07-18-2007,19:00,METAR,,20,10,,,9999,,27.0,18.0,29.95,1015.2,,,,,,,,,,,,,,,7/8 Mostly Cloudy,25000.0,,FEW,3200.0,SCT,15000.0,BKN,25000.0,,
KRDR,07-18-2007,18:00,METAR,,30,7,,,9999,,26.0,17.0,29.95,1015.0,,,,,,,,,,,,,,,7/8 Mostly Cloudy,25000.0,,FEW,4000.0,BKN,25000.0,,,,
KRDR,07-18-2007,17:00,METAR,,30,7,,,9999,,26.0,17.0,29.96,1015.3,,,,,,,,,,,,,,,7/8 Mostly Cloudy,25000.0,,FEW,5000.0,BKN,25000.0,,,,
KRDR,07-18-2007,16:00,METAR,,30,6,,,9999,,24.0,16.0,29.97,1015.7,,,,,,,,,,,,,,,7/8 Mostly Cloudy,25000.0,,BKN,25000.0,,,,,,
KRDR,07-18-2007,15:00,METAR,,330,4,,,9999,,23.0,17.0,29.98,1015.9,,,,,,,,,,,,,,,7/8 Mostly Cloudy,25000.0,,FEW,12000.0,BKN,25000.0,,,,
KRDR,07-18-2007,14:00,METAR,,330,4,,,9999,,21.0,17.0,29.97,1015.7,,,,,,,,,,,,,,,7/8 Mostly Cloudy,25000.0,,BKN,25000.0,,,,,,
KRDR,07-18-2007,13:00,METAR,,320,3,,,9999,,19.0,17.0,29.95,1015.0,,,,,,,,,,,,,,,7/8 Mostly Cloudy,25000.0,,BKN,25000.0,,,,,,
KRDR,07-18-2007,12:00,METAR,,310,3,,,9999,,17.0,16.0,29.93,1014.5,,,,,,,,,,,,,,,7/8 Mostly Cloudy,25000.0,,BKN,25000.0,,,,,,
KRDR,07-18-2007,11:00,METAR,,320,3,,,9999,,14.0,14.0,29.91,1013.9,,,,,,,,,,,,,,,4/8 Partly Cloudy,72000.0,,SCT,25000.0,,,,,,
KRDR,07-18-2007,10:00,METAR,,340,3,,,9999,,15.0,14.0,29.91,1013.6,,,,,,,,,,,,,,,Clear,72000.0,,,73000.0,,,,,,
KRDR,07-18-2007,09:00,METAR,,,0,,,9999,,15.0,15.0,29.90,1013.5,,,,,,,,,,,,,,,Clear,72000.0,,,73000.0,,,,,,
KRDR,07-18-2007,08:00,METAR,,,0,,,9999,,15.0,15.0,29.91,1013.6,,,,,,,,,,,,,,,Clear,72000.0,,,73000.0,,,,,,
KRDR,07-18-2007,07:00,METAR,,,0,,,9999,,16.0,16.0,29.90,1013.6,,,,,,,,,,,,,,,Clear,72000.0,,,73000.0,,,,,,
KRDR,07-18-2007,06:00,METAR,,,0,,,9999,,17.0,17.0,29.91,1013.6,,,,,,,,,,,,,,,Clear,72000.0,,,73000.0,,,,,,
KRDR,07-18-2007,05:00,METAR,,280,3,,,9999,,18.0,17.0,29.91,1013.7,,,,,,,,,,,,,,,7/8 Mostly Cloudy,25000.0,,BKN,25000.0,,,,,,
KRDR,07-18-2007,04:00,METAR,,,0,,,9999,,19.0,18.0,29.91,1013.8,,,,,,,,,,,,,,,7/8 Mostly Cloudy,25000.0,,BKN,25000.0,,,,,,
KRDR,07-18-2007,03:00,METAR,,310,3,,,9999,,20.0,18.0,29.90,1013.6,,,,,,,,,,,,,,,7/8 Mostly Cloudy,25000.0,,BKN,25000.0,,,,,,
KRDR,07-18-2007,02:00,METAR,,340,3,,,9999,,22.0,20.0,29.90,1013.4,,,,,,,,,,,,,,,7/8 Mostly Cloudy,25000.0,,BKN,25000.0,,,,,,
KRDR,07-18-2007,01:00,METAR,,350,4,,,9999,,25.0,19.0,29.89,1013.0,,,,,,,,,,,,,,,7/8 Mostly Cloudy,25000.0,,BKN,25000.0,,,,,,
KRDR,07-18-2007,00:00,METAR,,340,6,,,9999,,25.0,18.0,29.90,1013.3,,,,,,,,,,,,,,,7/8 Mostly Cloudy,25000.0,,FEW,4000.0,BKN,25000.0,,,,
KRDR,07-17-2007,23:00,METAR,,340,7,,,9999,,26.0,18.0,29.89,1013.1,,,,,,,,,,,,,,,7/8 Mostly Cloudy,25000.0,,FEW,4000.0,BKN,25000.0,,,,
KRDR,07-17-2007,22:00,METAR,,20,6,,,9999,,27.0,18.0,29.89,1013.0,,,,,,,,,,,,,,,7/8 Mostly Cloudy,25000.0,,FEW,3600.0,BKN,25000.0,,,,
KRDR,07-17-2007,21:00,METAR,,350,4,,,9999,,27.0,18.0,29.89,1013.0,,,,,,,,,,,,,,,7/8 Mostly Cloudy,25000.0,,FEW,4000.0,BKN,25000.0,,,,
KRDR,07-17-2007,20:00,METAR,,10,8,,,9999,,26.0,18.0,29.90,1013.4,,,,,,,,,,,,,,,7/8 Mostly Cloudy,25000.0,,SCT,3900.0,BKN,25000.0,,,,
KRDR,07-17-2007,19:00,METAR,,50,5,,,9999,,26.0,17.0,29.91,1013.8,,,,,,,,,,,,,,,7/8 Mostly Cloudy,25000.0,,SCT,4000.0,BKN,25000.0,,,,
KRDR,07-17-2007,18:00,METAR,,40,7,,,9999,,26.0,17.0,29.92,1014.0,,,,,,,,,,,,,,,7/8 Mostly Cloudy,3700.0,,BKN,3800.0,BKN,25000.0,,,,
KRDR,07-17-2007,17:00,METAR,,60,7,,,9999,,25.0,17.0,29.92,1014.1,,,,,,,,,,,,,,,2/8 Mostly Clear,72000.0,,FEW,4000.0,FEW,25000.0,,,,
KRDR,07-17-2007,16:00,METAR,,40,4,,,9999,,24.0,17.0,29.92,1014.1,,,,,,,,,,,,,,,4/8 Partly Cloudy,72000.0,,FEW,3700.0,SCT,25000.0,,,,
KRDR,07-17-2007,15:00,METAR,,10,4,,,9999,,22.0,17.0,29.92,1014.0,,,,,,,,,,,,,,,4/8 Partly Cloudy,72000.0,,SCT,3700.0,,,,,,
KRDR,07-17-2007,14:00,METAR,,360,3,,,9999,,19.0,17.0,29.91,1013.7,,,,,,,,,,,,,,,7/8 Mostly Cloudy,3900.0,,BKN,4000.0,,,,,,
KRDR,07-17-2007,13:00,METAR,,320,3,,,9999,,17.0,17.0,29.91,1013.8,,,,,,,,,,,,,,,7/8 Mostly Cloudy,3000.0,,BKN,3000.0,BKN,25000.0,,,,
KRDR,07-17-2007,12:00,METAR,,320,3,,,9999,,16.0,15.0,29.90,1013.6,,,,,,,,,,,,,,,7/8 Mostly Cloudy,3000.0,,BKN,3000.0,BKN,25000.0,,,,
KRDR,07-17-2007,11:00,METAR,,350,4,,,9999,,14.0,14.0,29.90,1013.6,,,,,,,,,,,,,,,4/8 Partly Cloudy,72000.0,,SCT,25000.0,,,,,,
KRDR,07-17-2007,10:00,METAR,,340,4,,,9999,,15.0,15.0,29.90,1013.4,,,,,,,,,,,,,,,Clear,72000.0,,,73000.0,,,,,,
KRDR,07-17-2007,09:00,METAR,,,0,,,9999,,14.0,14.0,29.89,1013.0,,,,,,,,,,,,,,,Clear,72000.0,,,73000.0,,,,,,
KRDR,07-17-2007,08:00,METAR,,,0,,,9999,,15.0,15.0,29.90,1013.3,,,,,,,,,,,,,,,Clear,72000.0,,,73000.0,,,,,,
KRDR,07-17-2007,07:00,METAR,,,0,,,9999,,15.0,15.0,29.90,1013.5,,,,,,,,,,,,,,,Clear,72000.0,,,73000.0,,,,,,
KRDR,07-17-2007,06:25,METAR,,,0,,,9999,,16.0,15.0,29.89,1013.3,,,,,,,,,,,,,,,Clear,72000.0,,,73000.0,,,,,,
KRDR,07-17-2007,06:15,SPECI,,,0,,,9999,Mist,16.0,16.0,29.89,1013.2,10,,,,,,,,,,,,,,Clear,72000.0,,,73000.0,,,,,,
KRDR,07-17-2007,06:00,METAR,,,0,,,9999,,16.0,15.0,29.89,1013.1,,,,,,,,,,,,,,,Clear,72000.0,,,73000.0,,,,,,
KRDR,07-17-2007,05:00,METAR,,,0,,,9999,,17.0,16.0,29.90,1013.3,,,,,,,,,,,,,,,Clear,72000.0,,,73000.0,,,,,,
KRDR,07-17-2007,04:00,METAR,,10,3,,,9999,,18.0,17.0,29.90,1013.3,,,,,,,,,,,,,,,4/8 Partly Cloudy,72000.0,,SCT,25000.0,,,,,,
KRDR,07-17-2007,03:00,METAR,,,0,,,9999,,20.0,19.0,29.89,1013.2,,,,,,,,,,,,,,,4/8 Partly Cloudy,72000.0,,SCT,7400.0,SCT,25000.0,,,,
KRDR,07-17-2007,02:00,METAR,,,0,,,9999,,23.0,19.0,29.89,1013.1,,,,,,,,,,,,,,,4/8 Partly Cloudy,72000.0,,SCT,4800.0,SCT,25000.0,,,,
KRDR,07-17-2007,01:00,METAR,,140,3,,,9999,,24.0,19.0,29.90,1013.3,,,,,,,,,,,,,,,7/8 Mostly Cloudy,3200.0,,SCT,2500.0,BKN,3300.0,BKN,4500.0,,
KRDR,07-17-2007,00:00,METAR,,,0,,,9999,,24.0,18.0,29.89,1013.2,,,,,,,,,,,,,,,7/8 Mostly Cloudy,4000.0,,SCT,2100.0,BKN,4100.0,,,,
KRDR,07-16-2007,23:00,METAR,,70,3,,,9999,,24.0,18.0,29.90,1013.6,,,,,,,,,,,,,,,8/8 Overcast,3500.0,,FEW,2600.0,BKN,3600.0,OVC,25000.0,,
KRDR,07-16-2007,22:00,METAR,,120,6,,,9999,,23.0,18.0,29.90,1013.6,,,,,,,,,,,,,,,8/8 Overcast,3800.0,,FEW,2800.0,OVC,3900.0,,,,
KRDR,07-16-2007,21:00,METAR,,90,6,,,9999,,24.0,18.0,29.89,1013.2,,,,,,,,,,,,,,,8/8 Overcast,3000.0,,BKN,3000.0,OVC,3900.0,,,,
KRDR,07-16-2007,20:43,SPECI,,100,7,,,9999,,24.0,18.0,29.89,,,,,,,,,,,,,,,,8/8 Overcast,3000.0,,BKN,3000.0,OVC,3900.0,,,,
KRDR,07-16-2007,20:00,METAR,,120,3,,,9999,,23.0,18.0,29.90,1013.5,,,,,,,,,,,,,,,8/8 Overcast,2800.0,,BKN,2800.0,OVC,3800.0,,,,
KRDR,07-16-2007,19:00,METAR,,100,4,,,9999,,23.0,17.0,29.92,1014.1,,,,,,,,,,,,,,,8/8 Overcast,2500.0,,BKN,2500.0,OVC,3500.0,,,,
KRDR,07-16-2007,18:00,METAR,,60,2,,,9999,,22.0,17.0,29.93,1014.4,,,,,,,,,,,,,,,8/8 Overcast,1800.0,,BKN,1800.0,OVC,2500.0,,,,
KRDR,07-16-2007,17:00,METAR,,90,5,,,9999,,21.0,17.0,29.93,1014.5,,,,,,,,,,,,,,,8/8 Overcast,1900.0,,FEW,500.0,OVC,1900.0,,,,
KRDR,07-16-2007,16:00,METAR,,360,3,,,9999,,20.0,17.0,29.93,1014.6,,,,,,,,,,,,,,,8/8 Overcast,1200.0,,SCT,500.0,OVC,1200.0,,,,
KRDR,07-16-2007,15:00,METAR,,70,6,,,9999,,18.0,16.0,29.93,1014.5,,,,,,,,,,,,,,,8/8 Overcast,1400.0,,SCT,500.0,OVC,1400.0,,,,
KRDR,07-16-2007,14:00,METAR,,,3,,,9999,,17.0,16.0,29.92,1014.2,,,,,,,,,,,,,,,8/8 Overcast,1400.0,,SCT,200.0,BKN,1400.0,OVC,3700.0,,
KRDR,07-16-2007,13:00,METAR,,30,4,,,9999,Mist,16.0,15.0,29.93,1014.4,,,,10,,,,,,,,,,,8/8 Overcast,1500.0,,FEW,300.0,BKN,1500.0,OVC,3700.0,,
KRDR,07-16-2007,12:00,METAR,,40,4,,,8000,Mist,15.0,14.0,29.92,1014.1,,,,10,,,,,,,,,,.81 IN,8/8 Overcast,2000.0,,SCT,300.0,OVC,2000.0,,,,
KRDR,07-16-2007,11:44,SPECI,,30,4,,,4800,Mist,15.0,15.0,29.92,,,,,10,,,,,,,,,,,8/8 Overcast,2000.0,,SCT,100.0,OVC,2000.0,,,,
KRDR,07-16-2007,11:00,METAR,,50,5,,,2800,Mist,15.0,14.0,29.91,1013.9,,,,10,,,,,,,,,,,7/8 Mostly Cloudy,2000.0,,SCT,100.0,BKN,2000.0,,,,
KRDR,07-16-2007,10:23,SPECI,,50,6,,,1200,Mist,15.0,14.0,29.91,,,,,10,,,,,,,,,,,8/8 Overcast,200.0,,SCT,100.0,BKN,200.0,OVC,500.0,,
KRDR,07-16-2007,10:00,METAR,,30,6,,,800,Fog or Ice Fog,15.0,15.0,29.91,,,,,45,,,,,,,,,,,Sky Obscured (Unable to Estimate),100.0,100.0,,100.0,,,,,,
KRDR,07-16-2007,09:16,SPECI,,20,3,,,800,Fog or Ice Fog,15.0,15.0,29.92,,,,,45,,,,,,,,,,,Sky Obscured (Unable to Estimate),100.0,0.0,,100.0,,,,,,
KRDR,07-16-2007,09:12,SPECI,,30,4,,,800,Fog or Ice Fog,15.0,15.0,29.91,,,,,45,,,,,,,,,,,Sky Obscured (Unable to Estimate),100.0,100.0,,100.0,,,,,,
KRDR,07-16-2007,09:00,METAR,,50,4,,,4800,Mist,15.0,15.0,29.91,1013.6,,,,10,,,,,,,,,,,8/8 Overcast,300.0,,FEW,100.0,BKN,300.0,OVC,800.0,,
KRDR,07-16-2007,08:00,METAR,,50,3,,,9999,,16.0,15.0,29.91,1013.7,,,,,,,,,,,,,,,2/8 Mostly Clear,72000.0,,FEW,100.0,,,,,,
KRDR,07-16-2007,07:08,SPECI,,50,5,,,9999,,16.0,15.0,29.92,1014.0,,,,,,,,,,,,,,,Clear,400.0,,,73000.0,,,,,,
KRDR,07-16-2007,07:00,METAR,,60,3,,,6400,Mist,16.0,15.0,29.92,1014.1,10,,,,,,,,,,,,,,Clear,72000.0,,,73000.0,,,,,,
KRDR,07-16-2007,06:56,SPECI,,70,3,,,6400,Mist,16.0,15.0,29.92,1014.1,10,,,,,,,,,,,,,,Clear,72000.0,,,73000.0,,,,,,
KRDR,07-16-2007,06:45,METAR,,60,5,,,4800,Mist,16.0,15.0,29.92,1014.1,10,,,,,,,,,,,,,,Clear,72000.0,,,73000.0,,,,,,
KRDR,07-16-2007,06:40,SPECI,,80,6,,,4800,Mist,16.0,15.0,29.92,1014.0,10,,,,,,,,,,,,,,Clear,72000.0,,,73000.0,,,,,,
KRDR,07-16-2007,06:23,SPECI,,50,5,,,4800,Mist,16.0,15.0,29.92,1014.1,10,,,,,,,,,,,,,,Clear,72000.0,,,73000.0,,,,,,
KRDR,07-16-2007,06:11,SPECI,,60,5,,,6400,Mist,16.0,15.0,29.92,1014.1,10,,,,,,,,,,,,,,Clear,72000.0,,,73000.0,,,,,,
KRDR,07-16-2007,06:00,METAR,,70,4,,,9999,,16.0,15.0,29.91,1013.9,,,,,,,,,,,,,.48 IN,,Clear,300.0,,,73000.0,,,,,,
KRDR,07-16-2007,05:24,SPECI,,70,5,,,9999,,16.0,15.0,29.90,1013.5,,,,,,,,,,,,,,,Clear,400.0,,,73000.0,,,,,,
KRDR,07-16-2007,05:16,SPECI,,70,6,,,9999,,16.0,15.0,29.90,1013.4,,,,,,,,,,,,,,,Clear,72000.0,,,73000.0,,,,,,
KRDR,07-16-2007,05:00,METAR,,60,4,,,9999,,16.0,15.0,29.90,1013.4,,,,,,,,,,,,,,,2/8 Mostly Clear,72000.0,,FEW,5000.0,,,,,,
KRDR,07-16-2007,04:41,SPECI,,60,4,,,9999,,15.0,15.0,29.90,1013.4,,,,,,,,,,,,,,,4/8 Partly Cloudy,72000.0,,FEW,300.0,SCT,6400.0,,,,
KRDR,07-16-2007,04:13,SPECI,,50,3,,,9999,,16.0,15.0,29.90,1013.3,,,,,,,,,,,,,,,2/8 Mostly Clear,72000.0,,FEW,100.0,,,,,,
KRDR,07-16-2007,04:00,METAR,,80,6,,,9999,,15.0,15.0,29.88,1012.6,,,,,,,,,,,TRACE,,,,4/8 Partly Cloudy,72000.0,,SCT,8400.0,,,,,,
KRDR,07-16-2007,03:29,SPECI,,,0,,,9999,,16.0,15.0,29.89,1013.0,,,,,,,,,,,,,,,8/8 Overcast,500.0,,FEW,100.0,BKN,5900.0,OVC,8400.0,,
KRDR,07-16-2007,03:25,METAR,,,0,,,9999,,16.0,15.0,29.89,1013.1,,,,,,,,,,,,,,,8/8 Overcast,1000.0,,SCT,100.0,BKN,1000.0,OVC,8900.0,,
KRDR,07-16-2007,03:12,SPECI,,70,2,,,9999,Unknown Precipitation,16.0,15.0,29.89,1013.1,40,,,,,,,,,,,,,,8/8 Overcast,400.0,,FEW,100.0,BKN,1000.0,OVC,5900.0,,
KRDR,07-16-2007,03:10,SPECI,,,0,,,9999,Unknown Precipitation,16.0,15.0,29.89,1013.1,40,,,,,,,,,,,,,,8/8 Overcast,400.0,,FEW,100.0,OVC,2300.0,,,,
KRDR,07-16-2007,03:01,SPECI,,,0,,,9999,,16.0,15.0,29.89,1013.1,,,,,,,,,,,,,,,8/8 Overcast,400.0,,FEW,100.0,OVC,2700.0,,,,
KRDR,07-16-2007,03:00,METAR,,,0,,,9999,,16.0,15.0,29.89,1013.1,,,,,,,,,,,.02 IN,.48 IN,,,8/8 Overcast,400.0,,SCT,100.0,BKN,800.0,OVC,6900.0,,
KRDR,07-16-2007,02:43,SPECI,,,0,,,9999,,16.0,15.0,29.88,1012.9,,,,,,,,,,,,,,,7/8 Mostly Cloudy,100.0,,BKN,100.0,BKN,800.0,BKN,6900.0,,
KRDR,07-16-2007,02:40,SPECI,,,0,,,9999,,16.0,15.0,29.89,1013.0,,,,,,,,,,,,,,,7/8 Mostly Cloudy,800.0,,SCT,100.0,BKN,800.0,BKN,6900.0,,
KRDR,07-16-2007,02:37,SPECI,,,0,,,9999,,16.0,15.0,29.89,1013.0,,,,,,,,,,,,,,,7/8 Mostly Cloudy,100.0,,BKN,100.0,BKN,6400.0,,,,
KRDR,07-16-2007,02:34,SPECI,,,0,,,9999,,16.0,15.0,29.89,1012.9,,,,,,,,,,,,,,,7/8 Mostly Cloudy,100.0,,BKN,1200.0,,,,,,
KRDR,07-16-2007,02:31,SPECI,,,0,,,9999,,16.0,15.0,29.89,1012.9,,,,,,,,,,,,,,,7/8 Mostly Cloudy,100.0,,BKN,500.0,,,,,,
KRDR,07-16-2007,02:29,SPECI,,,0,,,9999,,16.0,15.0,29.89,1013.0,,,,,,,,,,,,,,,7/8 Mostly Cloudy,100.0,,BKN,500.0,,,,,,
KRDR,07-16-2007,02:24,SPECI,,250,4,,,9999,Light Rain,16.0,15.0,29.89,1013.1,61,,,,,,,,,,,,,,7/8 Mostly Cloudy,100.0,,BKN,100.0,BKN,6900.0,,,,
KRDR,07-16-2007,02:05,SPECI,,,0,,,9999,Light Rain,16.0,15.0,29.89,1013.1,61,,,,,,,,,,,,,,8/8 Overcast,8000.0,,FEW,100.0,OVC,7900.0,,,,
KRDR,07-16-2007,02:03,SPECI,,,0,,,9999,,16.0,15.0,29.89,1013.0,,,,,,,,,,,,,,,8/8 Overcast,8000.0,,FEW,100.0,OVC,7900.0,,,,
KRDR,07-16-2007,02:00,METAR,,170,2,,,9999,,16.0,15.0,29.87,1012.5,,,,,,,,,,,.11 IN,,,,7/8 Mostly Cloudy,8000.0,,BKN,7900.0,,,,,,
KRDR,07-16-2007,01:41,SPECI,,140,5,,,9999,,16.0,15.0,29.86,1012.0,,,,,,,,,,,,,,,7/8 Mostly Cloudy,9000.0,,BKN,8900.0,,,,,,
KRDR,07-16-2007,01:09,SPECI,,160,5,,,6400,Light Rain/Mist,16.0,15.0,29.88,1012.9,61,10,,,,,,,,,,,,,7/8 Mostly Cloudy,4600.0,,BKN,4700.0,,,,,,
KRDR,07-16-2007,01:05,SPECI,,150,6,,,3200,Dry Thunderstorm/Light Rain/Mist,16.0,15.0,29.88,1012.7,91,61,10,,,,,,,,,,,,7/8 Mostly Cloudy,4600.0,,BKN,4700.0,,,,,,
KRDR,07-16-2007,01:00,METAR,,90,3,,,2400,Dry Thunderstorm/Heavy Rain/Mist,16.0,15.0,29.91,1013.8,91,63,10,,,,,,,,.35 IN,,,,7/8 Mostly Cloudy,3700.0,,BKN,3800.0,,,,,,
KRDR,07-16-2007,00:44,SPECI,,90,4,,,2400,Dry Thunderstorm/Rain/Mist,16.0,15.0,29.90,1013.6,91,62,10,,,,,,,,,,,,2/8 Mostly Clear,72000.0,,FEW,5900.0,,,,,,
KRDR,07-16-2007,00:42,SPECI,,110,4,,,2000,Dry Thunderstorm/Rain/Mist,16.0,15.0,29.90,1013.5,91,62,10,,,,,,,,,,,,2/8 Mostly Clear,72000.0,,FEW,5900.0,,,,,,
KRDR,07-16-2007,00:39,SPECI,,140,5,,,1200,Dry Thunderstorm/Heavy Rain/Mist,16.0,15.0,29.90,1013.3,91,63,10,,,,,,,,,,,,4/8 Partly Cloudy,72000.0,,SCT,5900.0,,,,,,
KRDR,07-16-2007,00:34,SPECI,,,4,,,800,Dry Thunderstorm/Heavy Rain/Fog,16.0,15.0,29.90,1013.5,91,63,30,,,,,,,,,,,,4/8 Partly Cloudy,72000.0,,SCT,5900.0,,,,,,
KRDR,07-16-2007,00:31,SPECI,,,0,,,1200,Dry Thunderstorm/Heavy Rain/Mist,16.0,15.0,29.91,1013.9,91,63,10,,,,,,,,,,,,4/8 Partly Cloudy,72000.0,,SCT,5900.0,,,,,,
KRDR,07-16-2007,00:30,METAR,,,0,,,1600,Dry Thunderstorm/Heavy Rain/Mist,16.0,15.0,29.91,1013.9,91,63,10,,,,,,,,,,,,7/8 Mostly Cloudy,6000.0,,BKN,5900.0,,,,,,
KRDR,07-16-2007,00:27,SPECI,,,0,,,4000,Dry Thunderstorm/Rain/Mist,16.0,15.0,29.91,1013.6,91,62,10,,,,,,,,,,,,7/8 Mostly Cloudy,6000.0,,BKN,5900.0,,,,,,
KRDR,07-16-2007,00:05,SPECI,,130,9,,,9999,,16.0,15.0,29.88,1012.8,,,,,,,,,,,,,,,8/8 Overcast,6000.0,,OVC,5900.0,,,,,,
KRDR,07-16-2007,00:01,SPECI,,120,8,,,9999,,16.0,15.0,29.88,1012.9,,,,,,,,,,,,,,,8/8 Overcast,6500.0,,OVC,6400.0,,,,,,
KRDR,07-16-2007,00:00,METAR,,130,12,,,9999,Light Rain,17.0,15.0,29.86,1012.2,61,,,,,,,,,,.02 IN,,.3 IN,,7/8 Mostly Cloudy,7000.0,,BKN,6900.0,,,,,,
KRDR,07-15-2007,23:42,SPECI,,100,5,,,9999,Light Rain,17.0,15.0,29.89,1013.2,61,,,,,,,,,,,,,,8/8 Overcast,6500.0,,FEW,800.0,BKN,6400.0,OVC,8900.0,,
KRDR,07-15-2007,23:40,SPECI,,110,7,,,9999,Light Rain,17.0,15.0,29.90,1013.3,61,,,,,,,,,,,,,,7/8 Mostly Cloudy,6500.0,,BKN,6400.0,BKN,8900.0,,,,
KRDR,07-15-2007,23:38,SPECI,,100,9,,,9999,,17.0,15.0,29.89,1013.2,,,,,,,,,,,,,,,7/8 Mostly Cloudy,8500.0,,SCT,6400.0,BKN,8400.0,,,,
KRDR,07-15-2007,23:00,METAR,,130,7,,,9999,Light Rain,16.0,15.0,29.91,1013.8,61,,,,,,,,,,.09 IN,,,,2/8 Mostly Clear,72000.0,,FEW,7900.0,,,,,,
KRDR,07-15-2007,22:40,SPECI,,90,7,,,4800,Light Rain/Mist,16.0,15.0,29.92,1014.1,61,10,,,,,,,,,,,,,4/8 Partly Cloudy,72000.0,,FEW,7400.0,SCT,8900.0,,,,
KRDR,07-15-2007,22:33,SPECI,,120,8,,,4000,Heavy Rain/Mist,16.0,15.0,29.91,1013.8,63,10,,,,,,,,,,,,,4/8 Partly Cloudy,72000.0,,FEW,7400.0,SCT,8900.0,,,,
KRDR,07-15-2007,22:20,METAR,,110,5,,,9999,Light Rain,16.0,15.0,29.93,1014.3,61,,,,,,,,,,,,,,7/8 Mostly Cloudy,8500.0,,BKN,8400.0,,,,,,
KRDR,07-15-2007,22:15,SPECI,,100,7,,,9999,,16.0,15.0,29.92,1014.2,,,,,,,,,,,,,,,7/8 Mostly Cloudy,9500.0,,BKN,9400.0,,,,,,
KRDR,07-15-2007,21:00,METAR,,120,8,,,9999,Light Rain,17.0,14.0,29.94,1014.7,61,,,,,,,,,,.01 IN,.08 IN,,,7/8 Mostly Cloudy,5500.0,,BKN,5400.0,,,,,,
KRDR,07-15-2007,20:45,METAR,,110,7,,,9999,Light Rain,17.0,14.0,29.95,1015.0,61,,,,,,,,,,,,,,8/8 Overcast,5500.0,,FEW,700.0,OVC,5400.0,,,,
KRDR,07-15-2007,20:21,SPECI,,110,8,,,9999,Light Drizzle,17.0,14.0,29.94,1014.6,51,,,,,,,,,,,,,,7/8 Mostly Cloudy,5500.0,,BKN,5400.0,,,,,,
KRDR,07-15-2007,20:00,METAR,,110,10,,,9999,,17.0,14.0,29.94,1014.6,,,,,,,,,,,TRACE,,,,8/8 Overcast,5500.0,,OVC,5400.0,,,,,,
KRDR,07-15-2007,19:31,SPECI,,110,9,,,9999,,17.0,14.0,29.94,1014.7,,,,,,,,,,,,,,,7/8 Mostly Cloudy,5500.0,,BKN,5400.0,,,,,,
KRDR,07-15-2007,19:12,SPECI,,100,11,,,9999,Light Drizzle,18.0,15.0,29.94,1014.9,51,,,,,,,,,,,,,,7/8 Mostly Cloudy,5500.0,,BKN,5400.0,,,,,,
KRDR,07-15-2007,19:10,SPECI,,110,10,,,9999,,18.0,15.0,29.94,1014.8,,,,,,,,,,,,,,,7/8 Mostly Cloudy,5500.0,,BKN,5400.0,,,,,,
KRDR,07-15-2007,19:00,METAR,,110,10,,,9999,Light Rain,18.0,16.0,29.94,1014.9,61,,,,,,,,,,.07 IN,,,,8/8 Overcast,5500.0,,OVC,5400.0,,,,,,
KRDR,07-15-2007,18:00,METAR,,110,9,,,9999,Light Rain,19.0,16.0,29.95,1015.0,61,,,,,,,,,,.03 IN,,.03 IN,,7/8 Mostly Cloudy,5500.0,,BKN,5400.0,,,,,,
KRDR,07-15-2007,17:13,SPECI,,130,8,,,9999,,21.0,15.0,29.94,1014.6,,,,,,,,,,,,,,,8/8 Overcast,7500.0,,FEW,1300.0,SCT,6400.0,OVC,7400.0,,
KRDR,07-15-2007,17:09,SPECI,,130,9,,,9999,,21.0,15.0,29.93,1014.5,,,,,,,,,,,,,,,8/8 Overcast,7500.0,,FEW,2200.0,OVC,7400.0,,,,
KRDR,07-15-2007,17:00,METAR,,130,9,,,9999,,22.0,15.0,29.93,1014.5,,,,,,,,,,,,,,,8/8 Overcast,7500.0,,OVC,7400.0,,,,,,
KRDR,07-15-2007,16:00,METAR,,140,5,,,9999,,23.0,15.0,29.94,1014.7,,,,,,,,,,,,,,,7/8 Mostly Cloudy,9000.0,,BKN,8900.0,,,,,,
KRDR,07-15-2007,15:00,METAR,,170,6,,,9999,,21.0,16.0,29.93,1014.6,,,,,,,,,,,,,,,2/8 Mostly Clear,72000.0,,FEW,5900.0,,,,,,
KRDR,07-15-2007,14:00,METAR,,190,4,,,9999,,20.0,15.0,29.94,1014.6,,,,,,,,,,,,,,,7/8 Mostly Cloudy,5500.0,,BKN,5400.0,,,,,,
KRDR,07-15-2007,13:00,METAR,,,0,,,9999,,19.0,16.0,29.94,1014.8,,,,,,,,,,,,,,,8/8 Overcast,4600.0,,BKN,4700.0,BKN,5400.0,OVC,7400.0,,
KRDR,07-15-2007,12:00,METAR,,220,3,,,9999,,16.0,15.0,29.94,1014.6,,,,,,,,,,,,,,.01 IN,8/8 Overcast,5500.0,,OVC,5400.0,,,,,,
KRDR,07-15-2007,11:00,METAR,,,0,,,9999,,15.0,15.0,29.93,1014.5,,,,,,,,,,,,,,,4/8 Partly Cloudy,72000.0,,SCT,8400.0,,,,,,
KRDR,07-15-2007,10:00,METAR,,,0,,,9999,,15.0,15.0,29.93,1014.4,,,,,,,,,,,,,,,7/8 Mostly Cloudy,6000.0,,BKN,5900.0,,,,,,
KRDR,07-15-2007,08:00,METAR,,270,3,,,9999,,17.0,16.0,29.94,1014.6,,,,,,,,,,,,,,,8/8 Overcast,5500.0,,OVC,5400.0,,,,,,
KRDR,07-15-2007,07:00,METAR,,,0,,,9999,,17.0,16.0,29.92,1014.0,,,,,,,,,,,,,,,7/8 Mostly Cloudy,6500.0,,BKN,6400.0,,,,,,
KRDR,07-15-2007,06:00,METAR,,320,3,,,9999,,17.0,16.0,29.93,1014.4,,,,,,,,,,,,,,,8/8 Overcast,7000.0,,OVC,6900.0,,,,,,
KRDR,07-15-2007,05:00,METAR,,,0,,,9999,,16.0,15.0,29.92,1014.2,,,,,,,,,,,,,,,8/8 Overcast,8500.0,,OVC,8400.0,,,,,,
KRDR,07-15-2007,04:00,METAR,,,0,,,9999,,17.0,16.0,29.91,1013.8,,,,,,,,,,,,,,,2/8 Mostly Clear,72000.0,,FEW,8900.0,,,,,,
KRDR,07-15-2007,03:00,METAR,,,0,,,9999,,18.0,16.0,29.90,1013.6,,,,,,,,,,,,,,,Clear,72000.0,,,73000.0,,,,,,
KRDR,07-15-2007,02:00,METAR,,290,2,,,9999,,20.0,17.0,29.90,1013.5,,,,,,,,,,,,,,,Clear,72000.0,,,73000.0,,,,,,
KRDR,07-15-2007,01:00,METAR,,330,4,,,9999,,22.0,17.0,29.90,1013.6,,,,,,,,,,,,,,,Clear,72000.0,,,73000.0,,,,,,
KRDR,07-15-2007,00:00,METAR,,330,4,,,9999,,21.0,18.0,29.91,1013.7,,,,,,,,,,,.01 IN,,.01 IN,,8/8 Overcast,9000.0,,FEW,4900.0,OVC,8900.0,,,,
KRDR,07-14-2007,23:42,SPECI,,350,4,,,9999,,20.0,17.0,29.91,1013.7,,,,,,,,,,,,,,,8/8 Overcast,8500.0,,FEW,5400.0,OVC,8400.0,,,,
KRDR,07-14-2007,23:18,SPECI,,360,8,,,9999,,23.0,16.0,29.91,1013.9,,,,,,,,,,,,,,,8/8 Overcast,7500.0,,FEW,4500.0,OVC,7400.0,,,,
KRDR,07-14-2007,23:00,METAR,,10,10,,,9999,,25.0,16.0,29.91,1013.6,,,,,,,,,,,,,,,4/8 Partly Cloudy,72000.0,,FEW,5000.0,SCT,8900.0,,,,
KRDR,07-14-2007,21:00,METAR,,10,10,,,9999,,23.0,15.0,29.91,1013.6,,,,,,,,,,,,TRACE,,,8/8 Overcast,8500.0,,OVC,8400.0,,,,,,
KRDR,07-14-2007,20:00,METAR,,10,10,,,9999,,24.0,15.0,29.91,1013.6,,,,,,,,,,,TRACE,,,,2/8 Mostly Clear,72000.0,,FEW,6900.0,,,,,,
KRDR,07-14-2007,19:18,SPECI,,350,8,,,9999,,22.0,16.0,29.91,1013.8,,,,,,,,,,,,,,,8/8 Overcast,6000.0,,FEW,3800.0,SCT,4700.0,OVC,5900.0,,
KRDR,07-14-2007,19:06,SPECI,,360,6,,,9999,,22.0,16.0,29.91,1013.9,,,,,,,,,,,,,,,8/8 Overcast,6000.0,,OVC,5900.0,,,,,,
KRDR,07-14-2007,19:00,METAR,,10,8,,,9999,,23.0,15.0,29.91,1013.9,,,,,,,,,,,,,,,7/8 Mostly Cloudy,7000.0,,FEW,4600.0,BKN,6900.0,,,,
KRDR,07-14-2007,18:00,METAR,,350,8,,,9999,,23.0,15.0,29.92,1014.2,,,,,,,,,,,,,,,4/8 Partly Cloudy,72000.0,,FEW,3800.0,SCT,8900.0,,,,
KRDR,07-14-2007,17:00,METAR,,330,8,,,9999,,23.0,14.0,29.92,1014.1,,,,,,,,,,,,,,,4/8 Partly Cloudy,72000.0,,FEW,6900.0,SCT,25000.0,,,,
KRDR,07-14-2007,16:00,METAR,,,6,,,9999,,21.0,15.0,29.92,1014.0,,,,,,,,,,,,,,,7/8 Mostly Cloudy,25000.0,,FEW,5900.0,BKN,25000.0,,,,
KRDR,07-14-2007,15:00,METAR,,290,4,,,9999,,20.0,15.0,29.92,1014.0,,,,,,,,,,,,,,,7/8 Mostly Cloudy,12000.0,,SCT,5900.0,BKN,12000.0,,,,
KRDR,07-14-2007,14:00,METAR,,330,5,,,9999,,19.0,15.0,29.92,1014.0,,,,,,,,,,,,,,,7/8 Mostly Cloudy,8000.0,,BKN,7900.0,,,,,,
KRDR,07-14-2007,13:00,METAR,,340,3,,,9999,,17.0,14.0,29.91,1013.7,,,,,,,,,,,,,,,7/8 Mostly Cloudy,6500.0,,BKN,6400.0,,,,,,
KRDR,07-14-2007,12:00,METAR,,320,4,,,9999,,16.0,14.0,29.90,1013.3,,,,,,,,,,,,,,.01 IN,8/8 Overcast,6000.0,,OVC,5900.0,,,,,,
KRDR,07-14-2007,11:00,METAR,,350,3,,,9999,,16.0,14.0,29.88,1012.7,,,,,,,,,,,,,,,8/8 Overcast,6500.0,,OVC,6400.0,,,,,,
KRDR,07-14-2007,10:00,METAR,,360,6,,,9999,,15.0,14.0,29.86,1012.2,,,,,,,,,,,,,,,7/8 Mostly Cloudy,9500.0,,BKN,9400.0,,,,,,
KRDR,07-14-2007,09:00,METAR,,340,5,,,9999,,16.0,14.0,29.85,1011.7,,,,,,,,,,,,,,,8/8 Overcast,11000.0,,OVC,11000.0,,,,,,
KRDR,07-14-2007,08:00,METAR,,340,7,,,9999,,16.0,14.0,29.85,1011.8,,,,,,,,,,,,,,,7/8 Mostly Cloudy,11000.0,,BKN,11000.0,,,,,,
KRDR,07-14-2007,07:00,METAR,,360,7,,,9999,,16.0,14.0,29.85,1011.6,,,,,,,,,,,,,,,Clear,72000.0,,,73000.0,,,,,,
KRDR,07-14-2007,06:00,METAR,,330,7,,,9999,,17.0,14.0,29.83,1011.1,,,,,,,,,,,,,TRACE,,Clear,72000.0,,,73000.0,,,,,,
KRDR,07-14-2007,05:00,METAR,,310,4,,,9999,,17.0,15.0,29.82,1010.8,,,,,,,,,,,,,,,Clear,72000.0,,,73000.0,,,,,,
KRDR,07-14-2007,04:00,METAR,,340,5,,,9999,,19.0,16.0,29.82,1010.9,,,,,,,,,,,,,,,7/8 Mostly Cloudy,25000.0,,FEW,9900.0,BKN,25000.0,,,,
KRDR,07-14-2007,03:00,METAR,,320,5,,,9999,,20.0,16.0,29.82,1010.8,,,,,,,,,,,,TRACE,,,7/8 Mostly Cloudy,25000.0,,SCT,9900.0,BKN,25000.0,,,,
KRDR,07-14-2007,02:00,METAR,,300,5,,,9999,,20.0,17.0,29.79,1009.9,,,,,,,,,,,TRACE,,,,7/8 Mostly Cloudy,25000.0,,FEW,6900.0,SCT,12000.0,BKN,25000.0,,
KRDR,07-14-2007,01:31,SPECI,,340,8,,,9999,,21.0,17.0,29.79,,,,,,,,,,,,,,,,7/8 Mostly Cloudy,25000.0,,FEW,5900.0,SCT,12000.0,BKN,25000.0,,
KRDR,07-14-2007,01:16,SPECI,,340,9,,,9999,Light Rain Showers,22.0,17.0,29.79,,,,,80,,,,,,,,,,,7/8 Mostly Cloudy,12000.0,,SCT,5900.0,BKN,12000.0,BKN,25000.0,,
KRDR,07-14-2007,01:00,METAR,,340,8,,,9999,,22.0,17.0,29.78,1009.5,,,,,,,,,,,,,,,7/8 Mostly Cloudy,12000.0,,FEW,3500.0,SCT,5900.0,BKN,12000.0,BKN,25000.0
KRDR,07-14-2007,00:00,METAR,,310,9,,,9999,Thunderstorm,22.0,18.0,29.77,1009.2,,,,17,,,,,,,TRACE,,.01 IN,,7/8 Mostly Cloudy,10000.0,,FEW,3000.0,SCT,5900.0,BKN,9900.0,BKN,25000.0
KRDR,07-13-2007,23:09,SPECI,,300,10,,,9999,,21.0,18.0,29.76,,,,,,,,,,,,,,,,7/8 Mostly Cloudy,10000.0,,SCT,5400.0,BKN,9900.0,,,,
KRDR,07-13-2007,23:00,METAR,,300,9,,,9999,Light Rain Showers/Thunderstorm,21.0,18.0,29.77,1009.1,,,,80,17,,,,,,.01 IN,,,,7/8 Mostly Cloudy,10000.0,,SCT,5400.0,BKN,9900.0,,,,
KRDR,07-13-2007,22:35,SPECI,,320,25,39.0,,8000,Thunderstorm with Rain or Snow/Light Rain Showers,26.0,17.0,29.78,1009.6,,,,95,80,,,,,,,,,,8/8 Overcast,6500.0,,BKN,6400.0,OVC,15000.0,,,,
KRDR,07-13-2007,22:28,SPECI,,300,24,34.0,,8000,Light Rain Showers/Thunderstorm,27.0,17.0,29.76,,,,,80,17,,,,,,,,,,8/8 Overcast,6500.0,,BKN,6400.0,OVC,15000.0,,,,
KRDR,07-13-2007,22:00,METAR,,300,16,23.0,,9999,,29.0,17.0,29.76,1008.7,,,,,,,,,,,,,,,7/8 Mostly Cloudy,6500.0,,BKN,6400.0,BKN,15000.0,,,,
KRDR,07-13-2007,21:00,METAR,,290,14,21.0,,9999,,29.0,17.0,29.78,1009.4,,,,,,,,,,,,,,,7/8 Mostly Cloudy,25000.0,,SCT,5900.0,SCT,8400.0,BKN,25000.0,,
KRDR,07-13-2007,20:00,METAR,,280,15,22.0,,9999,,28.0,16.0,29.80,1010.1,,,,,,,,,,,,,,,7/8 Mostly Cloudy,25000.0,,FEW,5900.0,SCT,15000.0,BKN,25000.0,,
KRDR,07-13-2007,19:00,METAR,,260,13,22.0,,9999,,27.0,15.0,29.83,1011.2,,,,,,,,,,,,,,,7/8 Mostly Cloudy,25000.0,,FEW,15000.0,BKN,25000.0,,,,
KRDR,07-13-2007,18:00,METAR,,260,15,19.0,,9999,,27.0,15.0,29.87,1012.4,,,,,,,,,,,,,,,7/8 Mostly Cloudy,25000.0,,BKN,25000.0,,,,,,
KRDR,07-13-2007,17:00,METAR,,260,11,18.0,,9999,,25.0,13.0,29.90,1013.5,,,,,,,,,,,,,,,7/8 Mostly Cloudy,25000.0,,BKN,25000.0,,,,,,
KRDR,07-13-2007,16:00,METAR,,260,9,17.0,,9999,,23.0,13.0,29.95,1014.9,,,,,,,,,,,,,,,4/8 Partly Cloudy,72000.0,,SCT,15000.0,SCT,25000.0,,,,
KRDR,07-13-2007,15:00,METAR,,250,12,,,9999,,21.0,12.0,29.98,1016.0,,,,,,,,,,,,,,,7/8 Mostly Cloudy,25000.0,,SCT,15000.0,BKN,25000.0,,,,
KRDR,07-13-2007,14:00,METAR,,240,9,,,9999,,19.0,12.0,29.99,1016.5,,,,,,,,,,,,,,,7/8 Mostly Cloudy,25000.0,,BKN,25000.0,,,,,,
KRDR,07-13-2007,13:00,METAR,,240,7,,,9999,,16.0,13.0,30.01,1016.9,,,,,,,,,,,,,,,7/8 Mostly Cloudy,25000.0,,BKN,25000.0,,,,,,
KRDR,07-13-2007,12:00,METAR,,240,6,,,9999,,13.0,11.0,30.03,1017.6,,,,,,,,,,,,,,,7/8 Mostly Cloudy,25000.0,,FEW,12000.0,BKN,25000.0,,,,
KRDR,07-13-2007,11:00,METAR,,240,6,,,9999,,12.0,10.0,30.04,1018.0,,,,,,,,,,,,,,,7/8 Mostly Cloudy,25000.0,,FEW,12000.0,BKN,25000.0,,,,
KRDR,07-13-2007,10:00,METAR,,230,6,,,9999,,12.0,10.0,30.05,1018.3,,,,,,,,,,,,,,,Clear,72000.0,,,73000.0,,,,,,
KRDR,07-13-2007,09:00,METAR,,240,6,,,9999,,11.0,10.0,30.06,1018.6,,,,,,,,,,,,,,,Clear,72000.0,,,73000.0,,,,,,
KRDR,07-13-2007,08:00,METAR,,240,7,,,9999,,12.0,10.0,30.07,1018.9,,,,,,,,,,,,,,,Clear,72000.0,,,73000.0,,,,,,
KRDR,07-13-2007,07:00,METAR,,230,5,,,9999,,11.0,10.0,30.07,1019.2,,,,,,,,,,,,,,,Clear,72000.0,,,73000.0,,,,,,
KRDR,07-13-2007,06:00,METAR,,210,4,,,9999,,12.0,11.0,30.08,1019.4,,,,,,,,,,,,,TRACE,,Clear,72000.0,,,73000.0,,,,,,
KRDR,07-13-2007,05:00,METAR,,260,3,,,9999,,12.0,11.0,30.08,1019.4,,,,,,,,,,,,,,,Clear,72000.0,,,73000.0,,,,,,
KRDR,07-13-2007,04:00,METAR,,290,3,,,9999,,13.0,11.0,30.08,,,,,,,,,,,,,,,,7/8 Mostly Cloudy,25000.0,,BKN,25000.0,,,,,,
KRDR,07-13-2007,03:00,METAR,,330,3,,,9999,,16.0,12.0,30.08,1019.3,,,,,,,,,,,,,,,7/8 Mostly Cloudy,25000.0,,BKN,25000.0,,,,,,
KRDR,07-13-2007,02:00,METAR,,10,5,,,9999,,18.0,13.0,30.07,1019.0,,,,,,,,,,,,,,,7/8 Mostly Cloudy,25000.0,,FEW,5400.0,BKN,25000.0,,,,
KRDR,07-13-2007,01:00,METAR,,10,6,,,9999,,20.0,11.0,30.07,1019.0,,,,,,,,,,,,,,,7/8 Mostly Cloudy,25000.0,,FEW,5400.0,BKN,25000.0,,,,
KRDR,07-13-2007,00:00,METAR,,360,9,,,9999,,22.0,11.0,30.07,1019.0,,,,,,,,,,,,,,,7/8 Mostly Cloudy,25000.0,,FEW,5400.0,BKN,25000.0,,,,
KRDR,07-12-2007,23:00,METAR,,350,9,,,9999,,23.0,11.0,30.07,1019.0,,,,,,,,,,,,,,,7/8 Mostly Cloudy,25000.0,,SCT,5400.0,BKN,25000.0,,,,
KRDR,07-12-2007,22:00,METAR,,350,12,,,9999,,23.0,11.0,30.07,1019.1,,,,,,,,,,,,,,,7/8 Mostly Cloudy,25000.0,,SCT,5400.0,BKN,25000.0,,,,
KRDR,07-12-2007,21:00,METAR,,360,14,20.0,,9999,,23.0,11.0,30.07,1019.0,,,,,,,,,,,,,,,7/8 Mostly Cloudy,25000.0,,SCT,5000.0,BKN,25000.0,,,,
KRDR,07-12-2007,20:00,METAR,,340,14,21.0,,9999,,23.0,12.0,30.06,1018.8,,,,,,,,,,,,,,,7/8 Mostly Cloudy,25000.0,,SCT,4500.0,BKN,25000.0,,,,
KRDR,07-12-2007,19:00,METAR,,340,14,19.0,,9999,,22.0,12.0,30.06,1018.7,,,,,,,,,,,,,,,7/8 Mostly Cloudy,25000.0,,FEW,4500.0,BKN,25000.0,,,,
KRDR,07-12-2007,18:00,METAR,,350,15,20.0,,9999,,22.0,12.0,30.06,1018.7,,,,,,,,,,,,,,,Clear,72000.0,,,73000.0,,,,,,
KRDR,07-12-2007,17:00,METAR,,350,14,,,9999,,22.0,12.0,30.05,1018.5,,,,,,,,,,,,,,,4/8 Partly Cloudy,72000.0,,FEW,5000.0,SCT,25000.0,,,,
KRDR,07-12-2007,16:00,METAR,,330,13,18.0,,9999,,21.0,11.0,30.05,1018.5,,,,,,,,,,,,,,,4/8 Partly Cloudy,72000.0,,SCT,25000.0,,,,,,
KRDR,07-12-2007,15:00,METAR,,340,12,,,9999,,20.0,11.0,30.04,1018.1,,,,,,,,,,,,,,,4/8 Partly Cloudy,72000.0,,SCT,25000.0,,,,,,
KRDR,07-12-2007,14:00,METAR,,330,10,,,9999,,18.0,11.0,30.03,1017.8,,,,,,,,,,,,,,,4/8 Partly Cloudy,72000.0,,SCT,25000.0,,,,,,
KRDR,07-12-2007,13:00,METAR,,310,10,,,9999,,16.0,10.0,30.03,1017.6,,,,,,,,,,,,,,,4/8 Partly Cloudy,72000.0,,SCT,25000.0,,,,,,
KRDR,07-12-2007,12:00,METAR,,300,7,,,9999,,13.0,10.0,30.02,1017.4,,,,,,,,,,,,,,.25 IN,2/8 Mostly Clear,72000.0,,FEW,5000.0,FEW,25000.0,,,,
KRDR,07-12-2007,11:00,METAR,,300,8,,,9999,,11.0,9.0,30.01,1017.0,,,,,,,,,,,,,,,2/8 Mostly Clear,72000.0,,FEW,5000.0,,,,,,
KRDR,07-12-2007,10:00,METAR,,290,7,,,9999,,11.0,10.0,30.00,1016.6,,,,,,,,,,,,,,,2/8 Mostly Clear,72000.0,,FEW,5000.0,,,,,,
KRDR,07-12-2007,09:00,METAR,,290,6,,,9999,,10.0,9.0,29.99,1016.5,,,,,,,,,,,,,,,Clear,72000.0,,,73000.0,,,,,,
KRDR,07-12-2007,08:00,METAR,,280,5,,,9999,,10.0,9.0,30.00,1016.6,,,,,,,,,,,,,,,Clear,72000.0,,,73000.0,,,,,,
KRDR,07-12-2007,07:00,METAR,,290,5,,,9999,,10.0,9.0,30.00,1016.7,,,,,,,,,,,,,,,Clear,72000.0,,,73000.0,,,,,,
KRDR,07-12-2007,06:00,METAR,,280,5,,,9999,,10.0,9.0,30.00,1016.9,,,,,,,,,,,,,,,Clear,72000.0,,,73000.0,,,,,,
KRDR,07-12-2007,05:00,METAR,,270,4,,,9999,,12.0,10.0,30.00,1016.6,,,,,,,,,,,,,,,Clear,72000.0,,,73000.0,,,,,,
KRDR,07-12-2007,04:00,METAR,,280,3,,,9999,,13.0,11.0,29.99,1016.5,,,,,,,,,,,,,,,Clear,72000.0,,,73000.0,,,,,,
KRDR,07-12-2007,03:00,METAR,,20,4,,,9999,,16.0,12.0,29.98,1016.0,,,,,,,,,,,,,,,2/8 Mostly Clear,72000.0,,FEW,5900.0,,,,,,
KRDR,07-12-2007,02:00,METAR,,10,5,,,9999,,17.0,12.0,29.97,1015.6,,,,,,,,,,,,,,,2/8 Mostly Clear,72000.0,,FEW,5900.0,,,,,,
KRDR,07-12-2007,01:00,METAR,,340,7,,,9999,,20.0,11.0,29.96,1015.3,,,,,,,,,,,,,,,4/8 Partly Cloudy,72000.0,,SCT,7900.0,,,,,,
KRDR,07-12-2007,00:00,METAR,,350,13,,,9999,,21.0,11.0,29.95,1015.0,,,,,,,,,,,,,.25 IN,,4/8 Partly Cloudy,72000.0,,SCT,6900.0,,,,,,
KRDR,07-11-2007,23:00,METAR,,360,11,,,9999,,21.0,12.0,29.94,1014.9,,,,,,,,,,,TRACE,,,,7/8 Mostly Cloudy,6500.0,,BKN,6400.0,,,,,,
KRDR,07-11-2007,22:00,METAR,,340,10,,,9999,,20.0,12.0,29.95,1015.2,,,,,,,,,,,TRACE,,,,7/8 Mostly Cloudy,6500.0,,FEW,3800.0,BKN,6400.0,,,,
KRDR,07-11-2007,21:29,SPECI,,300,15,21.0,,8000,Light Rain Showers/Thunderstorm,21.0,11.0,29.95,,,,,80,17,,,,,,,,,,7/8 Mostly Cloudy,6000.0,,BKN,5900.0,BKN,9900.0,,,,
KRDR,07-11-2007,21:00,METAR,,300,14,21.0,300/28KTS,9999,,20.0,12.0,29.96,1015.3,,,,,,,,,,,TRACE,.25 IN,,,7/8 Mostly Cloudy,6000.0,,BKN,5900.0,BKN,9900.0,,,,
KRDR,07-11-2007,20:30,METAR,,300,19,26.0,,9999,,19.0,14.0,29.96,,,,,,,,,,,,,,,,7/8 Mostly Cloudy,5500.0,,BKN,5400.0,BKN,9900.0,,,,
KRDR,07-11-2007,20:22,SPECI,,300,11,,,9999,Light Rain Showers,21.0,13.0,29.96,,,,,80,,,,,,,,,,,7/8 Mostly Cloudy,4900.0,,BKN,5000.0,BKN,9900.0,,,,
KRDR,07-11-2007,20:00,METAR,,320,8,,,9999,,19.0,14.0,29.95,,,,,,,,,,,,,,,,7/8 Mostly Cloudy,5500.0,,BKN,5400.0,,,,,,
KRDR,07-11-2007,19:33,SPECI,,270,8,,320/36KTS,9999,,14.0,11.0,29.96,,,,,,,,,,,,,,,,7/8 Mostly Cloudy,4400.0,,FEW,3800.0,BKN,4500.0,BKN,5000.0,,
KRDR,07-11-2007,19:18,SPECI,,330,25,36.0,,8000,Thunderstorm with Rain or Snow/Snow Pellets or Hail/Light Rain Showers,19.0,12.0,30.00,,,,,95,80,88,,,,,,,,,7/8 Mostly Cloudy,5500.0,,BKN,5400.0,,,,,,
KRDR,07-11-2007,19:05,SPECI,,310,11,,,8000,Rain,21.0,11.0,29.96,,,,,61,,,,,,,,,,,7/8 Mostly Cloudy,7000.0,,SCT,5000.0,BKN,6900.0,,,,
KRDR,07-11-2007,19:00,METAR,,310,17,21.0,,9999,,22.0,10.0,29.96,1015.5,,,,,,,,,,,,,,,7/8 Mostly Cloudy,4900.0,,BKN,5000.0,BKN,6900.0,,,,
KRDR,07-11-2007,18:00,METAR,,320,12,19.0,,9999,,21.0,10.0,29.99,1016.4,,,,,,,,,,,,,,,7/8 Mostly Cloudy,6000.0,,BKN,5900.0,,,,,,
KRDR,07-11-2007,17:00,METAR,,330,13,,,9999,,20.0,11.0,30.00,1016.7,,,,,,,,,,,,,,,4/8 Partly Cloudy,72000.0,,SCT,3600.0,SCT,25000.0,,,,
KRDR,07-11-2007,16:00,METAR,,330,13,16.0,,9999,,19.0,11.0,30.01,1017.1,,,,,,,,,,,,,,,4/8 Partly Cloudy,72000.0,,SCT,4500.0,SCT,25000.0,,,,
KRDR,07-11-2007,15:00,METAR,,310,12,,,9999,,18.0,12.0,30.02,1017.4,,,,,,,,,,,,,,,2/8 Mostly Clear,72000.0,,FEW,5000.0,FEW,25000.0,,,,
KRDR,07-11-2007,14:00,METAR,,320,8,,,9999,,16.0,12.0,30.02,1017.5,,,,,,,,,,,,,,,2/8 Mostly Clear,72000.0,,FEW,25000.0,,,,,,
KRDR,07-11-2007,13:00,METAR,,300,8,,,9999,,14.0,12.0,30.01,1017.1,,,,,,,,,,,,,,,2/8 Mostly Clear,72000.0,,FEW,25000.0,,,,,,
KRDR,07-11-2007,12:00,METAR,,290,7,,,9999,,12.0,11.0,30.01,1016.9,,,,,,,,,,,,,,.08 IN,2/8 Mostly Clear,72000.0,,FEW,8900.0,,,,,,
KRDR,07-11-2007,11:00,METAR,,290,5,,,9999,,11.0,10.0,30.00,1016.8,,,,,,,,,,,,,,,4/8 Partly Cloudy,72000.0,,SCT,5000.0,,,,,,
KRDR,07-11-2007,10:00,METAR,,290,4,,,9999,,10.0,9.0,30.00,1016.7,,,,,,,,,,,,,,,2/8 Mostly Clear,72000.0,,FEW,5000.0,,,,,,
KRDR,07-11-2007,09:00,METAR,,290,6,,,9999,,10.0,9.0,30.00,1016.8,,,,,,,,,,,,,,,Clear,72000.0,,,73000.0,,,,,,
KRDR,07-11-2007,08:00,METAR,,290,7,,,9999,,11.0,10.0,30.00,1016.9,,,,,,,,,,,,,,,Clear,72000.0,,,73000.0,,,,,,
KRDR,07-11-2007,07:00,METAR,,310,8,,,9999,,12.0,10.0,30.00,1016.9,,,,,,,,,,,,,,,Clear,72000.0,,,73000.0,,,,,,
KRDR,07-11-2007,06:00,METAR,,300,6,,,9999,,11.0,10.0,30.01,1017.1,,,,,,,,,,,,,TRACE,,Clear,72000.0,,,73000.0,,,,,,
KRDR,07-11-2007,05:00,METAR,,300,7,,,9999,,12.0,11.0,30.01,1017.2,,,,,,,,,,,,,,,Clear,72000.0,,,73000.0,,,,,,
KRDR,07-11-2007,04:00,METAR,,300,6,,,9999,,13.0,11.0,30.00,1016.8,,,,,,,,,,,,,,,2/8 Mostly Clear,72000.0,,FEW,12000.0,,,,,,
KRDR,07-11-2007,03:00,METAR,,290,5,,,9999,,14.0,12.0,29.99,1016.3,,,,,,,,,,,TRACE,TRACE,,,4/8 Partly Cloudy,72000.0,,SCT,12000.0,,,,,,
KRDR,07-11-2007,02:23,SPECI,,280,7,,,9999,,14.0,12.0,29.99,,,,,,,,,,,,,,,,7/8 Mostly Cloudy,20000.0,,FEW,6900.0,SCT,11000.0,BKN,20000.0,,
KRDR,07-11-2007,02:00,METAR,,290,7,,,9999,Rain,14.0,13.0,29.99,1016.5,,,,61,,,,,,,TRACE,,,,7/8 Mostly Cloudy,7000.0,,BKN,6900.0,BKN,20000.0,,,,
KRDR,07-11-2007,01:00,METAR,,330,8,,,9999,Rain,15.0,12.0,29.99,1016.3,,,,61,,,,,,,TRACE,,,,8/8 Overcast,9000.0,,SCT,4500.0,OVC,8900.0,,,,
KRDR,07-11-2007,00:38,SPECI,,330,6,,,9999,Rain,15.0,12.0,29.99,,,,,61,,,,,,,,,,,8/8 Overcast,7500.0,,SCT,4500.0,OVC,7400.0,,,,
KRDR,07-11-2007,00:25,METAR,,330,8,,,9999,,15.0,12.0,29.98,,,,,,,,,,,,,,,,8/8 Overcast,4700.0,,BKN,4800.0,OVC,7900.0,,,,
KRDR,07-11-2007,00:11,SPECI,,350,9,,,9999,Rain,15.0,13.0,29.98,,,,,61,,,,,,,,,,,7/8 Mostly Cloudy,4700.0,,FEW,2200.0,BKN,4800.0,BKN,7900.0,,
KRDR,07-11-2007,00:00,METAR,,350,11,,,9999,,16.0,13.0,29.99,1016.3,,,,,,,,,,,.02 IN,,.08 IN,,8/8 Overcast,4700.0,,FEW,2200.0,BKN,4800.0,BKN,7400.0,OVC,8900.0
KRDR,07-10-2007,23:22,SPECI,,360,13,17.0,,9999,Rain,15.0,13.0,29.98,1016.2,,,,61,,,,,,,,,,,7/8 Mostly Cloudy,4700.0,,SCT,2200.0,BKN,4800.0,BKN,6400.0,,
KRDR,07-10-2007,23:12,SPECI,,20,13,17.0,,9999,,16.0,13.0,29.98,,,,,,,,,,,,,,,,7/8 Mostly Cloudy,4700.0,,SCT,2100.0,BKN,4800.0,BKN,6400.0,,
KRDR,07-10-2007,23:00,METAR,,10,13,,,8000,Light Rain Showers,18.0,13.0,29.97,1015.8,,,,80,,,,,,,TRACE,,,,7/8 Mostly Cloudy,4800.0,,FEW,2300.0,BKN,4900.0,BKN,6400.0,,
KRDR,07-10-2007,22:00,METAR,,320,5,,,9999,,18.0,14.0,29.94,1014.8,,,,,,,,,,,.05 IN,,,,7/8 Mostly Cloudy,8000.0,,FEW,4100.0,BKN,7900.0,,,,
KRDR,07-10-2007,21:23,SPECI,,290,4,,,9999,,17.0,13.0,29.93,,,,,,,,,,,,,,,,7/8 Mostly Cloudy,4800.0,,BKN,4900.0,BKN,6900.0,BKN,8400.0,,
KRDR,07-10-2007,21:00,METAR,,330,6,,,8000,Rain,17.0,14.0,29.94,1014.6,,,,61,,,,,,,.01 IN,.01 IN,,,7/8 Mostly Cloudy,3600.0,,FEW,1700.0,BKN,3700.0,BKN,5400.0,,
KRDR,07-10-2007,20:46,SPECI,,360,6,,,9999,,16.0,13.0,29.93,,,,,,,,,,,,,,,,7/8 Mostly Cloudy,3600.0,,FEW,2100.0,BKN,3700.0,BKN,5400.0,,
KRDR,07-10-2007,20:23,SPECI,,350,12,23.0,,9999,Rain,19.0,12.0,29.93,,,,,61,,,,,,,,,,,7/8 Mostly Cloudy,3400.0,,FEW,2200.0,BKN,3500.0,BKN,4500.0,,
KRDR,07-10-2007,20:00,METAR,,310,17,,,9999,,21.0,12.0,29.91,1013.9,,,,,,,,,,,,,,,7/8 Mostly Cloudy,3700.0,,BKN,3800.0,BKN,4500.0,,,,
KRDR,07-10-2007,19:16,SPECI,,340,14,22.0,,9999,,21.0,12.0,29.91,,,,,,,,,,,,,,,,7/8 Mostly Cloudy,3400.0,,SCT,2500.0,BKN,3500.0,BKN,5000.0,,
KRDR,07-10-2007,19:00,METAR,,340,12,20.0,,9999,,21.0,13.0,29.90,1013.5,,,,,,,,,,,TRACE,,,,7/8 Mostly Cloudy,2800.0,,BKN,2800.0,BKN,3500.0,BKN,5000.0,,
KRDR,07-10-2007,18:00,METAR,,340,16,23.0,,9999,,20.0,13.0,29.90,1013.3,,,,,,,,,,,,,TRACE,,7/8 Mostly Cloudy,2500.0,,BKN,2500.0,BKN,3900.0,BKN,4600.0,,
KRDR,07-10-2007,17:00,METAR,,340,16,20.0,350/26KTS,9999,,17.0,14.0,29.87,1012.6,,,,,,,,,,,TRACE,,,,7/8 Mostly Cloudy,1800.0,,BKN,1800.0,BKN,2500.0,BKN,5900.0,,
KRDR,07-10-2007,16:39,SPECI,,330,17,23.0,,9999,Rain,18.0,13.0,29.87,,,,,61,,,,,,,,,,,7/8 Mostly Cloudy,1500.0,,BKN,1500.0,BKN,2400.0,BKN,9900.0,,
KRDR,07-10-2007,16:00,METAR,,350,19,26.0,,9999,,18.0,13.0,29.85,1011.7,,,,,,,,,,,,,,,7/8 Mostly Cloudy,1500.0,,BKN,1500.0,BKN,2500.0,BKN,9900.0,,
KRDR,07-10-2007,15:00,METAR,,340,18,26.0,320/26KTS,9999,,15.0,13.0,29.83,1011.1,,,,,,,,,,,TRACE,TRACE,,,7/8 Mostly Cloudy,1400.0,,BKN,1400.0,BKN,2500.0,BKN,9900.0,,
KRDR,07-10-2007,14:31,SPECI,,330,16,22.0,,9999,Rain,15.0,13.0,29.82,1010.8,,,,61,,,,,,,,,,,7/8 Mostly Cloudy,1000.0,,BKN,1000.0,BKN,2800.0,BKN,9400.0,,
KRDR,07-10-2007,14:21,SPECI,,330,14,20.0,,9999,,15.0,13.0,29.82,1010.6,,,,,,,,,,,,,,,7/8 Mostly Cloudy,1000.0,,BKN,1000.0,BKN,3500.0,BKN,9400.0,,
KRDR,07-10-2007,14:00,METAR,,330,12,21.0,,9999,Rain,14.0,13.0,29.81,1010.4,,,,61,,,,,,,TRACE,,,,7/8 Mostly Cloudy,1500.0,,BKN,1500.0,BKN,2500.0,BKN,7900.0,,
KRDR,07-10-2007,13:36,SPECI,,330,16,21.0,,9999,Rain,14.0,13.0,29.80,1010.0,,,,61,,,,,,,,,,,8/8 Overcast,1100.0,,BKN,1100.0,OVC,2500.0,,,,
KRDR,07-10-2007,13:00,METAR,,330,14,,,9999,,14.0,13.0,29.77,1009.1,,,,,,,,,,,,,,,8/8 Overcast,1100.0,,BKN,1100.0,OVC,2500.0,,,,
KRDR,07-10-2007,12:00,METAR,,320,14,22.0,,9999,,14.0,12.0,29.73,1007.8,,,,,,,,,,,.01 IN,,.1 IN,.54 IN,8/8 Overcast,1000.0,,BKN,1000.0,BKN,4000.0,OVC,8400.0,,
KRDR,07-10-2007,11:22,SPECI,,340,15,20.0,,9999,,14.0,13.0,29.70,,,,,,,,,,,,,,,,7/8 Mostly Cloudy,1000.0,,BKN,1000.0,BKN,4000.0,,,,
KRDR,07-10-2007,11:00,METAR,,360,17,26.0,350/36KTS,9999,Rain,14.0,13.0,29.65,1005.2,,,,61,,,,,,,.04 IN,,,,8/8 Overcast,1000.0,,BKN,1000.0,OVC,2000.0,,,,
KRDR,07-10-2007,10:17,SPECI,,330,23,36.0,340/36KTS,9999,Light Rain,14.0,13.0,29.64,1004.8,61,,,,,,,,,,,,,,8/8 Overcast,800.0,,OVC,1000.0,,,,,,
KRDR,07-10-2007,10:14,SPECI,,340,26,36.0,340/36KTS,9999,Light Rain,14.0,13.0,29.64,1004.7,61,,,,,,,,,,,,,,8/8 Overcast,800.0,,OVC,900.0,,,,,,
KRDR,07-10-2007,10:12,SPECI,,340,25,35.0,330/35KTS,9999,,14.0,13.0,29.63,1004.5,,,,,,,,,,,,,,,8/8 Overcast,800.0,,OVC,900.0,,,,,,
KRDR,07-10-2007,10:07,SPECI,,340,26,35.0,330/35KTS,9999,Light Rain,14.0,13.0,29.62,1004.1,61,,,,,,,,,,,,,,8/8 Overcast,500.0,,FEW,400.0,OVC,900.0,,,,
KRDR,07-10-2007,10:02,SPECI,,340,24,35.0,330/35KTS,9999,Light Rain,14.0,13.0,29.61,1003.8,61,,,,,,,,,,,,,,8/8 Overcast,300.0,,OVC,800.0,,,,,,
KRDR,07-10-2007,10:00,METAR,,340,26,39.0,350/39KTS,9999,Mist,14.0,13.0,29.58,1003.0,10,,,,,,,,,,.04 IN,,,,8/8 Overcast,300.0,,OVC,700.0,,,,,,
KRDR,07-10-2007,09:48,SPECI,,350,32,39.0,350/39KTS,6400,Mist,14.0,14.0,29.58,1002.8,10,,,,,,,,,,,,,,8/8 Overcast,300.0,,OVC,500.0,,,,,,
KRDR,07-10-2007,09:45,METAR,,350,31,38.0,340/38KTS,4800,Light Rain/Mist,15.0,14.0,29.56,1002.4,61,10,,,,,,,,,,,,,8/8 Overcast,300.0,,OVC,300.0,,,,,,
KRDR,07-10-2007,09:39,SPECI,,350,26,37.0,350/37KTS,4000,Rain/Mist,15.0,14.0,29.55,1001.9,62,10,,,,,,,,,,,,,8/8 Overcast,300.0,,OVC,300.0,,,,,,
KRDR,07-10-2007,09:26,SPECI,,360,28,37.0,350/37KTS,4800,Rain/Mist,15.0,14.0,29.51,1000.5,62,10,,,,,,,,,,,,,8/8 Overcast,400.0,,OVC,400.0,,,,,,
KRDR,07-10-2007,09:24,SPECI,,360,30,37.0,350/37KTS,4800,Mist,15.0,15.0,29.50,1000.4,10,,,,,,,,,,,,,,8/8 Overcast,300.0,,OVC,400.0,,,,,,
KRDR,07-10-2007,09:22,SPECI,,360,27,34.0,360/34KTS,4800,Mist,16.0,15.0,29.49,1000.0,,10,,,,,,,,,,,,,8/8 Overcast,300.0,,OVC,500.0,,,,,,
KRDR,07-10-2007,09:12,SPECI,,310,13,21.0,,9999,Light Rain,16.0,15.0,29.49,999.8,61,,,,,,,,,,,,,,8/8 Overcast,400.0,,OVC,500.0,,,,,,
KRDR,07-10-2007,09:08,SPECI,,300,10,,,9999,Light Drizzle,16.0,15.0,29.49,999.8,51,,,,,,,,,,,,,,8/8 Overcast,500.0,,OVC,600.0,,,,,,
KRDR,07-10-2007,09:00,METAR,,300,11,,,9999,,16.0,15.0,29.49,999.8,,,,,,,,,,,,.01 IN,,,7/8 Mostly Cloudy,500.0,,BKN,700.0,,,,,,
KRDR,07-10-2007,08:46,SPECI,,310,9,,,9999,,17.0,16.0,29.49,999.8,,,,,,,,,,,,,,,7/8 Mostly Cloudy,800.0,,BKN,800.0,,,,,,
KRDR,07-10-2007,08:42,SPECI,,300,9,,,9999,,17.0,16.0,29.49,999.8,,,,,,,,,,,,,,,4/8 Partly Cloudy,72000.0,,SCT,800.0,,,,,,
KRDR,07-10-2007,08:02,SPECI,,210,7,,,9999,,17.0,16.0,29.51,1000.6,,,,,,,,,,,,,,,7/8 Mostly Cloudy,2100.0,,FEW,1100.0,SCT,1700.0,BKN,5900.0,,
KRDR,07-10-2007,08:00,METAR,,190,8,,,9999,,17.0,16.0,29.51,1000.6,,,,,,,,,,,,,,,7/8 Mostly Cloudy,2100.0,,FEW,1000.0,SCT,1400.0,BKN,5900.0,,
KRDR,07-10-2007,07:27,SPECI,,170,10,,,9999,,17.0,16.0,29.54,1001.5,,,,,,,,,,,,,,,8/8 Overcast,3100.0,,FEW,1600.0,BKN,3200.0,OVC,5400.0,,
KRDR,07-10-2007,07:00,METAR,,140,10,,120/26KTS,9999,,17.0,16.0,29.56,1002.3,,,,,,,,,,,.01 IN,,,,8/8 Overcast,1800.0,,FEW,800.0,OVC,1800.0,,,,
KRDR,07-10-2007,06:39,SPECI,,140,8,19.0,120/26KTS,9999,,17.0,15.0,29.57,1002.6,,,,,,,,,,,,,,,8/8 Overcast,1600.0,,SCT,800.0,SCT,1200.0,OVC,2100.0,,
KRDR,07-10-2007,06:37,SPECI,,130,10,19.0,120/26KTS,9999,,17.0,15.0,29.57,1002.5,,,,,,,,,,,,,,,8/8 Overcast,900.0,,SCT,800.0,OVC,2000.0,,,,
KRDR,07-10-2007,06:33,SPECI,,140,9,17.0,120/26KTS,9999,,17.0,15.0,29.57,1002.7,,,,,,,,,,,,,,,8/8 Overcast,800.0,,SCT,800.0,OVC,2100.0,,,,
KRDR,07-10-2007,06:32,SPECI,,150,7,,120/26KTS,9999,,17.0,15.0,29.58,1002.7,,,,,,,,,,,,,,,8/8 Overcast,800.0,,SCT,800.0,BKN,1300.0,OVC,2300.0,,
KRDR,07-10-2007,06:00,METAR,,110,12,23.0,110/26KTS,9999,,17.0,15.0,29.61,1003.8,,,,,,,,,,,.02 IN,,.44 IN,,8/8 Overcast,2800.0,,FEW,1600.0,OVC,2800.0,,,,
KRDR,07-10-2007,05:34,SPECI,,110,18,26.0,,9999,,17.0,15.0,29.63,1004.6,,,,,,,,,,,,,,,8/8 Overcast,2600.0,,BKN,2600.0,OVC,4900.0,,,,
KRDR,07-10-2007,05:08,SPECI,,90,11,17.0,,9999,,17.0,15.0,29.66,,,,,,,,,,,,,,,,7/8 Mostly Cloudy,3900.0,,SCT,300.0,BKN,4000.0,,,,
KRDR,07-10-2007,05:01,SPECI,,90,12,,,9999,Thunderstorm with Rain or Snow/Light Rain Showers/Mist,17.0,15.0,29.67,,,,,95,80,10,,,,,,,,,8/8 Overcast,4300.0,,SCT,300.0,OVC,4400.0,,,,
KRDR,07-10-2007,05:00,METAR,,90,12,,,4800,Heavy Thunderstorm with Rain or Snow/Heavy Rain Showers/Mist,17.0,15.0,29.68,1006.2,,,,97,82,10,,,,,.32 IN,,,,8/8 Overcast,6000.0,,SCT,600.0,OVC,5900.0,,,,
KRDR,07-10-2007,04:01,SPECI,,90,11,,,8000,Thunderstorm with Rain or Snow/Light Rain Showers,18.0,15.0,29.68,,,,,95,80,,,,,,,,,,8/8 Overcast,6000.0,,OVC,5900.0,,,,,,
KRDR,07-10-2007,04:00,METAR,,100,9,,,8000,Rain,18.0,15.0,29.69,1006.7,,,,63,,,,,,,.1 IN,,,,8/8 Overcast,6500.0,,FEW,300.0,OVC,6400.0,,,,
KRDR,07-10-2007,03:00,METAR,,120,9,,,9999,Light Rain Showers,22.0,13.0,29.73,1007.7,,,,80,,,,,,,TRACE,TRACE,,,8/8 Overcast,6500.0,,BKN,6400.0,OVC,25000.0,,,,
KRDR,07-10-2007,02:00,METAR,,110,8,,,9999,,22.0,12.0,29.73,1007.9,,,,,,,,,,,,,,,8/8 Overcast,6500.0,,BKN,6400.0,OVC,25000.0,,,,
KRDR,07-10-2007,01:00,METAR,,100,11,,,9999,,23.0,12.0,29.76,1008.8,,,,,,,,,,,,,,,8/8 Overcast,25000.0,,SCT,6400.0,OVC,25000.0,,,,
KRDR,07-10-2007,00:00,METAR,,100,9,,,9999,,24.0,13.0,29.79,1009.8,,,,,,,,,,,,,,,7/8 Mostly Cloudy,6500.0,,BKN,6400.0,BKN,25000.0,,,,
KRDR,07-09-2007,23:00,METAR,,80,10,,,9999,,25.0,13.0,29.82,1010.8,,,,,,,,,,,,,,,7/8 Mostly Cloudy,6000.0,,BKN,5900.0,BKN,25000.0,,,,
KRDR,07-09-2007,22:00,METAR,,110,10,,,9999,,25.0,12.0,29.84,1011.4,,,,,,,,,,,,,,,7/8 Mostly Cloudy,25000.0,,SCT,5900.0,BKN,25000.0,,,,
KRDR,07-09-2007,21:00,METAR,,60,3,,,9999,,25.0,12.0,29.88,1012.8,,,,,,,,,,,,,,,7/8 Mostly Cloudy,6000.0,,BKN,5900.0,BKN,25000.0,,,,
KRDR,07-09-2007,20:00,METAR,,100,4,,,9999,,25.0,12.0,29.89,1013.3,,,,,,,,,,,,,,,7/8 Mostly Cloudy,12000.0,,SCT,5900.0,BKN,12000.0,BKN,25000.0,,
KRDR,07-09-2007,19:00,METAR,,,3,,,9999,,24.0,12.0,29.91,1013.7,,,,,,,,,,,,,,,7/8 Mostly Cloudy,25000.0,,SCT,5900.0,BKN,25000.0,,,,
KRDR,07-09-2007,18:00,METAR,,,3,,,9999,,24.0,12.0,29.92,1014.2,,,,,,,,,,,,,,,4/8 Partly Cloudy,72000.0,,SCT,4500.0,SCT,25000.0,,,,
KRDR,07-09-2007,17:00,METAR,,,3,,,9999,,23.0,12.0,29.95,1015.1,,,,,,,,,,,,,,,4/8 Partly Cloudy,72000.0,,FEW,5900.0,SCT,25000.0,,,,
KRDR,07-09-2007,16:00,METAR,,,2,,,9999,,22.0,12.0,29.96,1015.5,,,,,,,,,,,,,,,4/8 Partly Cloudy,72000.0,,FEW,5000.0,SCT,25000.0,,,,
KRDR,07-09-2007,15:00,METAR,,,0,,,9999,,20.0,13.0,29.97,1015.8,,,,,,,,,,,,,,,4/8 Partly Cloudy,72000.0,,FEW,5900.0,SCT,25000.0,,,,
KRDR,07-09-2007,14:00,METAR,,40,4,,,9999,,19.0,13.0,29.96,1015.4,,,,,,,,,,,,,,,4/8 Partly Cloudy,72000.0,,FEW,5400.0,SCT,25000.0,,,,
KRDR,07-09-2007,13:00,METAR,,,3,,,9999,,16.0,13.0,29.96,1015.3,,,,,,,,,,,,,,,2/8 Mostly Clear,72000.0,,FEW,5900.0,,,,,,
KRDR,07-09-2007,12:00,METAR,,330,4,,,9999,,14.0,13.0,29.95,1015.0,,,,,,,,,,,,,TRACE,,4/8 Partly Cloudy,72000.0,,SCT,5900.0,,,,,,
KRDR,07-09-2007,11:00,METAR,,330,5,,,9999,,13.0,11.0,29.93,1014.4,,,,,,,,,,,,,,,4/8 Partly Cloudy,72000.0,,SCT,4900.0,,,,,,
KRDR,07-09-2007,10:00,METAR,,340,5,,,9999,,13.0,12.0,29.91,1013.8,,,,,,,,,,,TRACE,,,,4/8 Partly Cloudy,72000.0,,SCT,5000.0,,,,,,
KRDR,07-09-2007,09:08,SPECI,,320,5,,,9999,,14.0,12.0,29.90,1013.6,,,,,,,,,,,,,,,2/8 Mostly Clear,72000.0,,FEW,5000.0,,,,,,
KRDR,07-09-2007,09:00,METAR,,310,3,,,9999,,14.0,12.0,29.90,1013.5,,,,,,,,,,,,,,,2/8 Mostly Clear,72000.0,,FEW,5000.0,,,,,,
KRDR,07-09-2007,08:00,METAR,,320,5,,,9999,,14.0,13.0,29.90,1013.4,,,,,,,,,,,,,,,Clear,72000.0,,,73000.0,,,,,,
KRDR,07-09-2007,07:00,METAR,,330,3,,,9999,,16.0,14.0,29.90,1013.4,,,,,,,,,,,,,,,7/8 Mostly Cloudy,5500.0,,BKN,5400.0,,,,,,
KRDR,07-09-2007,06:00,METAR,,320,3,,,9999,,15.0,14.0,29.89,1013.2,,,,,,,,,,,,,TRACE,,4/8 Partly Cloudy,72000.0,,SCT,5000.0,,,,,,
KRDR,07-09-2007,05:00,METAR,,290,5,,,9999,,15.0,14.0,29.88,1012.7,,,,,,,,,,,,,,,Clear,72000.0,,,73000.0,,,,,,
KRDR,07-09-2007,04:00,METAR,,250,4,,,9999,,17.0,15.0,29.87,1012.6,,,,,,,,,,,,,,,Clear,72000.0,,,73000.0,,,,,,
KRDR,07-09-2007,03:00,METAR,,,0,,,9999,,18.0,16.0,29.86,1012.1,,,,,,,,,,,,TRACE,,,7/8 Mostly Cloudy,11000.0,,BKN,11000.0,,,,,,
KRDR,07-09-2007,02:00,METAR,,,0,,,9999,,19.0,15.0,29.85,1011.9,,,,,,,,,,,,,,,8/8 Overcast,11000.0,,FEW,6400.0,OVC,11000.0,,,,
KRDR,07-09-2007,01:00,METAR,,10,11,19.0,,9999,,20.0,16.0,29.85,1011.6,,,,,,,,,,,TRACE,,,,4/8 Partly Cloudy,72000.0,,FEW,3100.0,SCT,9900.0,,,,
KRDR,07-09-2007,00:41,SPECI,,360,16,20.0,,9999,,21.0,18.0,29.84,1011.5,,,,,,,,,,,,,,,2/8 Mostly Clear,72000.0,,FEW,7900.0,,,,,,
KRDR,07-09-2007,00:27,SPECI,,360,5,,,9999,,21.0,17.0,29.83,1011.1,,,,,,,,,,,,,,,2/8 Mostly Clear,72000.0,,FEW,9900.0,,,,,,
KRDR,07-09-2007,00:00,METAR,,10,4,,,9999,,21.0,16.0,29.83,1011.0,,,,,,,,,,,TRACE,,TRACE,,2/8 Mostly Clear,72000.0,,FEW,11000.0,,,,,,
KRDR,07-08-2007,23:46,SPECI,,10,4,,,9999,,21.0,16.0,29.82,1010.9,,,,,,,,,,,,,,,Clear,72000.0,,,73000.0,,,,,,
KRDR,07-08-2007,23:23,SPECI,,30,7,,,9999,Unknown Precipitation,21.0,15.0,29.83,1011.0,40,,,,,,,,,,,,,,2/8 Mostly Clear,72000.0,,FEW,9900.0,,,,,,
KRDR,07-08-2007,23:00,METAR,,30,7,,,9999,,21.0,15.0,29.82,1010.9,,,,,,,,,,,,,,,4/8 Partly Cloudy,72000.0,,SCT,5400.0,,,,,,
KRDR,07-08-2007,22:42,SPECI,,20,12,23.0,,9999,,23.0,15.0,29.82,1011.0,,,,,,,,,,,,,,,7/8 Mostly Cloudy,3900.0,,BKN,4000.0,,,,,,
KRDR,07-08-2007,22:00,METAR,,320,7,,,9999,,25.0,17.0,29.82,1010.7,,,,,,,,,,,,,,,Clear,72000.0,,,73000.0,,,,,,
KRDR,07-08-2007,21:00,METAR,,320,5,,,9999,,25.0,17.0,29.82,1010.9,,,,,,,,,,,,,,,Clear,72000.0,,,73000.0,,,,,,
KRDR,07-08-2007,20:00,METAR,,330,7,,,9999,,25.0,17.0,29.83,1011.2,,,,,,,,,,,,,,,Clear,72000.0,,,73000.0,,,,,,
KRDR,07-08-2007,19:00,METAR,,360,10,,,9999,,25.0,16.0,29.82,1010.6,,,,,,,,,,,,,,,Clear,72000.0,,,73000.0,,,,,,
KRDR,07-08-2007,18:00,METAR,,20,11,,,9999,,25.0,16.0,29.81,1010.4,,,,,,,,,,,,,,,Clear,72000.0,,,73000.0,,,,,,
KRDR,07-08-2007,17:00,METAR,,360,13,,,9999,,25.0,16.0,29.79,1009.9,,,,,,,,,,,,,,,Clear,72000.0,,,73000.0,,,,,,
KRDR,07-08-2007,16:00,METAR,,360,13,,,9999,,23.0,16.0,29.78,1009.4,,,,,,,,,,,,,,,Clear,72000.0,,,73000.0,,,,,,
KRDR,07-08-2007,15:00,METAR,,360,12,,,9999,,23.0,16.0,29.78,1009.4,,,,,,,,,,,,,,,Clear,72000.0,,,73000.0,,,,,,
KRDR,07-08-2007,14:00,METAR,,350,10,,,9999,,22.0,17.0,29.76,1008.8,,,,,,,,,,,,,,,Clear,72000.0,,,73000.0,,,,,,
KRDR,07-08-2007,13:00,METAR,,340,8,,,9999,,21.0,16.0,29.76,1008.8,,,,,,,,,,,,,,,Clear,72000.0,,,73000.0,,,,,,
KRDR,07-08-2007,12:00,METAR,,310,4,,,9999,,19.0,16.0,29.75,1008.6,,,,,,,,,,,,,,,7/8 Mostly Cloudy,25000.0,,FEW,15000.0,BKN,25000.0,,,,
KRDR,07-08-2007,11:00,METAR,,330,6,,,9999,,19.0,16.0,29.73,1007.8,,,,,,,,,,,,,,,7/8 Mostly Cloudy,25000.0,,SCT,15000.0,BKN,25000.0,,,,
KRDR,07-08-2007,10:00,METAR,,340,8,,,9999,,20.0,16.0,29.70,1006.9,,,,,,,,,,,,,,,8/8 Overcast,25000.0,,SCT,15000.0,OVC,25000.0,,,,
KRDR,07-08-2007,09:00,METAR,,360,12,,,9999,,20.0,17.0,29.67,1006.0,,,,,,,,,,,,,,,8/8 Overcast,15000.0,,BKN,15000.0,OVC,25000.0,,,,
KRDR,07-08-2007,08:00,METAR,,340,12,,,9999,,22.0,20.0,29.67,1005.8,,,,,,,,,,,,,,,7/8 Mostly Cloudy,15000.0,,BKN,15000.0,BKN,25000.0,,,,
KRDR,07-08-2007,07:00,METAR,,340,10,,,9999,,23.0,21.0,29.65,1005.0,,,,,,,,,,,,,,,8/8 Overcast,15000.0,,BKN,15000.0,OVC,25000.0,,,,
KRDR,07-08-2007,06:00,METAR,,350,15,,,9999,,24.0,21.0,29.62,1004.0,,,,,,,,,,,,,,,8/8 Overcast,15000.0,,BKN,15000.0,OVC,25000.0,,,,
KRDR,07-08-2007,05:00,METAR,,350,17,,,9999,,24.0,21.0,29.60,1003.4,,,,,,,,,,,,,,,7/8 Mostly Cloudy,25000.0,,SCT,15000.0,BKN,25000.0,,,,
KRDR,07-08-2007,04:00,METAR,,350,14,,,9999,,25.0,22.0,29.58,1002.8,,,,,,,,,,,,,,,7/8 Mostly Cloudy,25000.0,,FEW,5000.0,SCT,12000.0,BKN,25000.0,,
KRDR,07-08-2007,03:00,METAR,,350,13,18.0,000/26KTS,9999,,26.0,22.0,29.57,1002.4,,,,,,,,,,,,,,,7/8 Mostly Cloudy,12000.0,,BKN,12000.0,BKN,25000.0,,,,
KRDR,07-08-2007,02:05,SPECI,,360,16,24.0,,9999,,29.0,24.0,29.54,1001.6,,,,,,,,,,,,,,,Clear,72000.0,,,73000.0,,,,,,
KRDR,07-08-2007,02:00,METAR,,340,16,21.0,,9999,,30.0,26.0,29.52,1000.9,,,,,,,,,,,,,,,Clear,72000.0,,,73000.0,,,,,,
KRDR,07-08-2007,01:00,METAR,,290,3,,,9999,,32.0,25.0,29.52,1000.8,,,,,,,,,,,,,,,Clear,72000.0,,,73000.0,,,,,,
KRDR,07-08-2007,00:00,METAR,,220,5,,,9999,,34.0,24.0,29.51,1000.7,,,,,,,,,,,,,,,Clear,72000.0,,,73000.0,,,,,,
KRDR,07-07-2007,23:00,METAR,,200,9,,,9999,,34.0,24.0,29.53,1001.2,,,,,,,,,,,,,,,Clear,72000.0,,,73000.0,,,,,,
KRDR,07-07-2007,22:00,METAR,,190,9,,,9999,,34.0,23.0,29.55,1001.8,,,,,,,,,,,,,,,Clear,72000.0,,,73000.0,,,,,,
KRDR,07-07-2007,21:00,METAR,,190,7,,,9999,,34.0,23.0,29.57,1002.5,,,,,,,,,,,,,,,Clear,72000.0,,,73000.0,,,,,,
KRDR,07-07-2007,20:00,METAR,,190,10,,,9999,,33.0,24.0,29.56,1002.2,,,,,,,,,,,,,,,Clear,72000.0,,,73000.0,,,,,,
KRDR,07-07-2007,19:00,METAR,,190,12,,,9999,,33.0,23.0,29.57,1002.5,,,,,,,,,,,,,,,Clear,72000.0,,,73000.0,,,,,,
KRDR,07-07-2007,17:00,METAR,,180,11,,,9999,,30.0,22.0,29.62,1004.1,,,,,,,,,,,,,,,Clear,72000.0,,,73000.0,,,,,,
KRDR,07-07-2007,16:00,METAR,,180,12,,,9999,,28.0,21.0,29.64,1004.8,,,,,,,,,,,,,,,Clear,72000.0,,,73000.0,,,,,,
KRDR,07-07-2007,15:00,METAR,,190,9,,,9999,,26.0,20.0,29.66,1005.6,,,,,,,,,,,,,,,Clear,72000.0,,,73000.0,,,,,,
KRDR,07-07-2007,14:00,METAR,,190,12,,,9999,,24.0,18.0,29.69,1006.3,,,,,,,,,,,,,,,Clear,72000.0,,,73000.0,,,,,,
KRDR,07-07-2007,13:00,METAR,,190,11,,,9999,,21.0,17.0,29.70,1006.8,,,,,,,,,,,,,,,Clear,72000.0,,,73000.0,,,,,,
KRDR,07-07-2007,12:00,METAR,,180,10,,,9999,,20.0,16.0,29.71,1007.2,,,,,,,,,,,,,,.01 IN,Clear,72000.0,,,73000.0,,,,,,
KRDR,07-07-2007,11:00,METAR,,180,10,,,9999,,19.0,16.0,29.74,1008.1,,,,,,,,,,,,,,,Clear,72000.0,,,73000.0,,,,,,
KRDR,07-07-2007,10:00,METAR,,190,10,,,9999,,19.0,16.0,29.76,1008.8,,,,,,,,,,,,,,,Clear,72000.0,,,73000.0,,,,,,
KRDR,07-07-2007,09:00,METAR,,180,9,,,9999,,19.0,16.0,29.78,1009.6,,,,,,,,,,,,,,,Clear,72000.0,,,73000.0,,,,,,
KRDR,07-07-2007,08:00,METAR,,180,10,,,9999,,20.0,16.0,29.80,1010.0,,,,,,,,,,,,,,,Clear,72000.0,,,73000.0,,,,,,
KRDR,07-07-2007,07:00,METAR,,190,9,,,9999,,20.0,16.0,29.81,1010.5,,,,,,,,,,,,,,,Clear,72000.0,,,73000.0,,,,,,
KRDR,07-07-2007,06:00,METAR,,190,8,,,9999,,21.0,16.0,29.83,1011.1,,,,,,,,,,,,,,,Clear,72000.0,,,73000.0,,,,,,
KRDR,07-07-2007,05:00,METAR,,190,9,,,9999,,22.0,16.0,29.84,1011.3,,,,,,,,,,,,,,,Clear,72000.0,,,73000.0,,,,,,
KRDR,07-07-2007,04:00,METAR,,180,8,,,9999,,22.0,17.0,29.85,1011.9,,,,,,,,,,,,,,,4/8 Partly Cloudy,72000.0,,SCT,25000.0,,,,,,
KRDR,07-07-2007,03:00,METAR,,180,9,,,9999,,22.0,17.0,29.87,1012.3,,,,,,,,,,,,,,,4/8 Partly Cloudy,72000.0,,SCT,25000.0,,,,,,
KRDR,07-07-2007,02:00,METAR,,190,7,,,9999,,26.0,17.0,29.88,1012.9,,,,,,,,,,,,,,,4/8 Partly Cloudy,72000.0,,SCT,25000.0,,,,,,
KRDR,07-07-2007,01:00,METAR,,200,10,,,9999,,29.0,17.0,29.90,1013.4,,,,,,,,,,,,,,,4/8 Partly Cloudy,72000.0,,SCT,25000.0,,,,,,
KRDR,07-07-2007,00:00,METAR,,220,10,,,9999,,30.0,16.0,29.92,1014.0,,,,,,,,,,,,,,,2/8 Mostly Clear,72000.0,,FEW,25000.0,,,,,,
KRDR,07-06-2007,23:00,METAR,,200,10,16.0,,9999,,31.0,16.0,29.94,1014.6,,,,,,,,,,,,,,,2/8 Mostly Clear,72000.0,,FEW,25000.0,,,,,,
KRDR,07-06-2007,22:00,METAR,,220,12,,,9999,,31.0,16.0,29.96,1015.3,,,,,,,,,,,,,,,2/8 Mostly Clear,72000.0,,FEW,25000.0,,,,,,
KRDR,07-06-2007,21:00,METAR,,240,9,,,9999,,30.0,15.0,29.98,1015.9,,,,,,,,,,,,,,,2/8 Mostly Clear,72000.0,,FEW,5900.0,FEW,25000.0,,,,
KRDR,07-06-2007,20:00,METAR,,220,13,,,9999,,30.0,14.0,30.00,1016.7,,,,,,,,,,,,,,,2/8 Mostly Clear,72000.0,,FEW,5900.0,FEW,25000.0,,,,
KRDR,07-06-2007,19:00,METAR,,230,9,,,9999,,29.0,14.0,30.02,1017.5,,,,,,,,,,,,,,,4/8 Partly Cloudy,72000.0,,FEW,5400.0,SCT,25000.0,,,,
KRDR,07-06-2007,18:00,METAR,,220,11,,,9999,,29.0,13.0,30.04,1018.2,,,,,,,,,,,,,,,4/8 Partly Cloudy,72000.0,,FEW,5400.0,SCT,25000.0,,,,
KRDR,07-06-2007,17:00,METAR,,210,9,,,9999,,28.0,15.0,30.06,1018.6,,,,,,,,,,,,,,,4/8 Partly Cloudy,72000.0,,FEW,5000.0,SCT,25000.0,,,,
KRDR,07-06-2007,16:00,METAR,,200,11,,,9999,,27.0,16.0,30.08,1019.3,,,,,,,,,,,,,,,2/8 Mostly Clear,72000.0,,FEW,25000.0,,,,,,
KRDR,07-06-2007,15:00,METAR,,250,8,,,9999,,26.0,17.0,30.10,1019.9,,,,,,,,,,,,,,,2/8 Mostly Clear,72000.0,,FEW,25000.0,,,,,,
KRDR,07-06-2007,14:00,METAR,,240,4,,,9999,,23.0,16.0,30.11,1020.5,,,,,,,,,,,,,,,2/8 Mostly Clear,72000.0,,FEW,25000.0,,,,,,
KRDR,07-06-2007,13:00,METAR,,220,5,,,9999,,21.0,16.0,30.12,1020.7,,,,,,,,,,,,,,,Clear,72000.0,,,73000.0,,,,,,
KRDR,07-06-2007,12:00,METAR,,220,4,,,9999,,17.0,14.0,30.12,1020.6,,,,,,,,,,,,,,,Clear,72000.0,,,73000.0,,,,,,
KRDR,07-06-2007,11:00,METAR,,220,3,,,9999,,14.0,13.0,30.13,1021.0,,,,,,,,,,,,,,,Clear,72000.0,,,73000.0,,,,,,
KRDR,07-06-2007,10:00,METAR,,220,4,,,9999,,14.0,13.0,30.13,1021.0,,,,,,,,,,,,,,,Clear,72000.0,,,73000.0,,,,,,
KRDR,07-06-2007,09:00,METAR,,,0,,,9999,,14.0,13.0,30.14,1021.3,,,,,,,,,,,,,,,Clear,72000.0,,,73000.0,,,,,,
KRDR,07-06-2007,08:00,METAR,,210,2,,,9999,,15.0,13.0,30.14,1021.3,,,,,,,,,,,,,,,Clear,72000.0,,,73000.0,,,,,,
KRDR,07-06-2007,07:00,METAR,,260,3,,,9999,,15.0,13.0,30.14,1021.2,,,,,,,,,,,,,,,Clear,72000.0,,,73000.0,,,,,,
KRDR,07-06-2007,06:00,METAR,,270,2,,,9999,,15.0,14.0,30.14,1021.2,,,,,,,,,,,,,,,Clear,72000.0,,,73000.0,,,,,,
KRDR,07-06-2007,05:00,METAR,,250,3,,,9999,,17.0,14.0,30.13,1021.2,,,,,,,,,,,,,,,Clear,72000.0,,,73000.0,,,,,,
KRDR,07-06-2007,04:00,METAR,,300,3,,,9999,,17.0,15.0,30.13,1020.9,,,,,,,,,,,,,,,Clear,72000.0,,,73000.0,,,,,,
KRDR,07-06-2007,03:00,METAR,,360,3,,,9999,,19.0,15.0,30.12,1020.7,,,,,,,,,,,,,,,Clear,72000.0,,,73000.0,,,,,,
KRDR,07-06-2007,02:00,METAR,,20,4,,,9999,,23.0,15.0,30.11,1020.4,,,,,,,,,,,,,,,2/8 Mostly Clear,72000.0,,FEW,5000.0,,,,,,
KRDR,07-06-2007,01:00,METAR,,20,8,,,9999,,25.0,15.0,30.11,1020.3,,,,,,,,,,,,,,,2/8 Mostly Clear,72000.0,,FEW,5000.0,,,,,,
KRDR,07-06-2007,00:00,METAR,,10,10,,,9999,,26.0,15.0,30.11,1020.2,,,,,,,,,,,,,,,2/8 Mostly Clear,72000.0,,FEW,5000.0,,,,,,
KRDR,07-05-2007,23:00,METAR,,10,11,,,9999,,27.0,15.0,30.11,1020.2,,,,,,,,,,,,,,,4/8 Partly Cloudy,72000.0,,SCT,5000.0,,,,,,
KRDR,07-05-2007,22:00,METAR,,10,10,,,9999,,27.0,15.0,30.12,1020.7,,,,,,,,,,,,,,,4/8 Partly Cloudy,72000.0,,SCT,5000.0,,,,,,
KRDR,07-05-2007,21:00,METAR,,360,11,15.0,,9999,,27.0,15.0,30.12,1020.6,,,,,,,,,,,,,,,4/8 Partly Cloudy,72000.0,,SCT,5000.0,,,,,,
KRDR,07-05-2007,20:00,METAR,,10,10,17.0,,9999,,27.0,15.0,30.12,1020.8,,,,,,,,,,,,,,,4/8 Partly Cloudy,72000.0,,SCT,5000.0,,,,,,
KRDR,07-05-2007,19:00,METAR,,360,12,17.0,,9999,,27.0,15.0,30.13,1020.9,,,,,,,,,,,,,,,2/8 Mostly Clear,72000.0,,FEW,5000.0,,,,,,
KRDR,07-05-2007,18:00,METAR,,360,10,,,9999,,26.0,16.0,30.12,1020.8,,,,,,,,,,,,,,,2/8 Mostly Clear,72000.0,,FEW,5000.0,,,,,,
KRDR,07-05-2007,17:00,METAR,,20,8,,,9999,,26.0,16.0,30.12,1020.7,,,,,,,,,,,,,,,2/8 Mostly Clear,72000.0,,FEW,5000.0,,,,,,
KRDR,07-05-2007,16:00,METAR,,360,10,,,9999,,24.0,16.0,30.11,1020.2,,,,,,,,,,,,,,,Clear,72000.0,,,73000.0,,,,,,
KRDR,07-05-2007,15:00,METAR,,20,11,,,9999,,23.0,16.0,30.10,1020.0,,,,,,,,,,,,,,,Clear,72000.0,,,73000.0,,,,,,
KRDR,07-05-2007,14:00,METAR,,350,10,,,9999,,22.0,16.0,30.09,1019.7,,,,,,,,,,,,,,,2/8 Mostly Clear,72000.0,,FEW,9900.0,,,,,,
KRDR,07-05-2007,13:00,METAR,,340,7,,,9999,,20.0,15.0,30.07,1019.2,,,,,,,,,,,,,,,2/8 Mostly Clear,72000.0,,FEW,7900.0,,,,,,
KRDR,07-05-2007,12:00,METAR,,320,5,,,9999,,18.0,15.0,30.06,1018.8,,,,,,,,,,,,,,,2/8 Mostly Clear,72000.0,,FEW,7900.0,,,,,,
KRDR,07-05-2007,11:00,METAR,,310,4,,,9999,,17.0,15.0,30.04,1018.1,,,,,,,,,,,,,,,2/8 Mostly Clear,72000.0,,FEW,7900.0,,,,,,
KRDR,07-05-2007,10:00,METAR,,290,7,,,9999,,16.0,14.0,30.03,1017.7,,,,,,,,,,,,,,,Clear,72000.0,,,73000.0,,,,,,
KRDR,07-05-2007,09:00,METAR,,280,7,,,9999,,17.0,14.0,30.02,1017.4,,,,,,,,,,,,,,,Clear,72000.0,,,73000.0,,,,,,
KRDR,07-05-2007,08:00,METAR,,250,6,,,9999,,16.0,13.0,30.02,1017.4,,,,,,,,,,,,,,,Clear,72000.0,,,73000.0,,,,,,
KRDR,07-05-2007,07:00,METAR,,250,8,,,9999,,16.0,13.0,30.02,1017.4,,,,,,,,,,,,,,,Clear,72000.0,,,73000.0,,,,,,
KRDR,07-05-2007,06:00,METAR,,240,7,,,9999,,16.0,13.0,30.01,1017.1,,,,,,,,,,,,,,,Clear,72000.0,,,73000.0,,,,,,
KRDR,07-05-2007,05:00,METAR,,250,6,,,9999,,16.0,14.0,30.02,1017.4,,,,,,,,,,,,,,,2/8 Mostly Clear,72000.0,,FEW,11000.0,,,,,,
KRDR,07-05-2007,04:00,METAR,,40,12,,030/29KTS,9999,,19.0,13.0,30.04,1018.0,,,,,,,,,,,,,,,4/8 Partly Cloudy,72000.0,,FEW,5900.0,SCT,11000.0,,,,
KRDR,07-05-2007,03:38,SPECI,,20,16,21.0,030/29KTS,9999,,20.0,13.0,30.05,1018.2,,,,,,,,,,,,,,,7/8 Mostly Cloudy,8000.0,,FEW,5900.0,SCT,9400.0,BKN,11000.0,,
KRDR,07-05-2007,03:00,METAR,,280,3,,,9999,,22.0,16.0,30.00,1016.8,,,,,,,,,,,,,,,Clear,72000.0,,,73000.0,,,,,,
KRDR,07-05-2007,02:00,METAR,,300,3,,,9999,,25.0,17.0,29.98,1016.2,,,,,,,,,,,,,,,Clear,72000.0,,,73000.0,,,,,,
KRDR,07-05-2007,01:00,METAR,,330,6,,,9999,,27.0,16.0,29.98,1016.2,,,,,,,,,,,,,,,Clear,72000.0,,,73000.0,,,,,,
KRDR,07-05-2007,00:00,METAR,,320,9,,,9999,,28.0,15.0,29.98,1016.1,,,,,,,,,,,,,,,Clear,72000.0,,,73000.0,,,,,,
KRDR,07-04-2007,23:00,METAR,,330,10,,,9999,,29.0,13.0,29.99,1016.3,,,,,,,,,,,,,,,Clear,72000.0,,,73000.0,,,,,,
KRDR,07-04-2007,22:00,METAR,,310,10,,,9999,,29.0,15.0,30.00,1016.6,,,,,,,,,,,,,,,Clear,72000.0,,,73000.0,,,,,,
KRDR,07-04-2007,21:00,METAR,,340,13,16.0,,9999,,29.0,12.0,30.00,1016.9,,,,,,,,,,,,,,,Clear,72000.0,,,73000.0,,,,,,
KRDR,07-04-2007,20:00,METAR,,340,11,,,9999,,28.0,13.0,30.01,1017.1,,,,,,,,,,,,,,,Clear,72000.0,,,73000.0,,,,,,
KRDR,07-04-2007,19:00,METAR,,330,11,18.0,,9999,,29.0,13.0,30.01,1017.1,,,,,,,,,,,,,,,Clear,72000.0,,,73000.0,,,,,,
KRDR,07-04-2007,18:00,METAR,,310,12,,,9999,,29.0,14.0,30.01,1017.0,,,,,,,,,,,,,,,Clear,72000.0,,,73000.0,,,,,,
KRDR,07-04-2007,17:00,METAR,,310,11,,,9999,,28.0,15.0,30.01,1016.9,,,,,,,,,,,,,,,Clear,72000.0,,,73000.0,,,,,,
KRDR,07-04-2007,16:00,METAR,,300,6,,,9999,,27.0,16.0,30.01,1016.9,,,,,,,,,,,,,,,Clear,72000.0,,,73000.0,,,,,,
KRDR,07-04-2007,15:00,METAR,,,4,,,9999,,25.0,17.0,30.01,1017.0,,,,,,,,,,,,,,,Clear,72000.0,,,73000.0,,,,,,
KRDR,07-04-2007,14:00,METAR,,290,4,,,9999,,23.0,17.0,30.00,1016.8,,,,,,,,,,,,,,,Clear,72000.0,,,73000.0,,,,,,
KRDR,07-04-2007,13:00,METAR,,320,6,,,9999,,21.0,16.0,29.99,1016.4,,,,,,,,,,,,,,,Clear,72000.0,,,73000.0,,,,,,
KRDR,07-04-2007,12:00,METAR,,310,4,,,9999,,18.0,15.0,29.98,1016.2,,,,,,,,,,,,,,,Clear,72000.0,,,73000.0,,,,,,
KRDR,07-04-2007,11:00,METAR,,320,6,,,9999,,16.0,14.0,29.98,1016.2,,,,,,,,,,,,,,,Clear,72000.0,,,73000.0,,,,,,
KRDR,07-04-2007,10:00,METAR,,310,5,,,9999,,16.0,15.0,29.97,1015.9,,,,,,,,,,,,,,,Clear,72000.0,,,73000.0,,,,,,
KRDR,07-04-2007,09:00,METAR,,330,6,,,9999,,17.0,15.0,29.96,1015.4,,,,,,,,,,,,,,,Clear,72000.0,,,73000.0,,,,,,
KRDR,07-04-2007,08:00,METAR,,330,4,,,9999,,18.0,16.0,29.96,1015.3,,,,,,,,,,,,,,,Clear,72000.0,,,73000.0,,,,,,
KRDR,07-04-2007,07:00,METAR,,320,5,,,9999,,19.0,17.0,29.95,1015.0,,,,,,,,,,,,,,,Clear,72000.0,,,73000.0,,,,,,
KRDR,07-04-2007,06:00,METAR,,310,5,,,9999,,20.0,18.0,29.94,1014.8,,,,,,,,,,,,,,,Clear,72000.0,,,73000.0,,,,,,
KRDR,07-04-2007,05:00,METAR,,310,6,,,9999,,20.0,18.0,29.93,1014.5,,,,,,,,,,,,,,,4/8 Partly Cloudy,72000.0,,SCT,25000.0,,,,,,
KRDR,07-04-2007,04:00,METAR,,300,4,,,9999,,21.0,18.0,29.93,1014.4,,,,,,,,,,,,,,,4/8 Partly Cloudy,72000.0,,SCT,25000.0,,,,,,
KRDR,07-04-2007,03:00,METAR,,330,3,,,9999,,23.0,19.0,29.93,1014.4,,,,,,,,,,,,,,,4/8 Partly Cloudy,72000.0,,SCT,25000.0,,,,,,
KRDR,07-04-2007,02:00,METAR,,310,4,,,9999,,25.0,20.0,29.92,1014.0,,,,,,,,,,,,,,,4/8 Partly Cloudy,72000.0,,SCT,25000.0,,,,,,
KRDR,07-04-2007,01:00,METAR,,320,5,,,9999,,28.0,18.0,29.91,1013.7,,,,,,,,,,,,,,,4/8 Partly Cloudy,72000.0,,FEW,4800.0,SCT,25000.0,,,,
KRDR,07-04-2007,00:00,METAR,,320,7,,,9999,,29.0,18.0,29.91,1013.7,,,,,,,,,,,,,TRACE,,4/8 Partly Cloudy,72000.0,,SCT,4800.0,SCT,25000.0,,,,
KRDR,07-03-2007,23:00,METAR,,330,6,,,9999,,29.0,19.0,29.91,1013.7,,,,,,,,,,,,,,,4/8 Partly Cloudy,72000.0,,SCT,4800.0,SCT,12000.0,,,,
KRDR,07-03-2007,22:00,METAR,,290,5,,,9999,,29.0,18.0,29.91,1013.7,,,,,,,,,,,,,,,4/8 Partly Cloudy,72000.0,,SCT,4200.0,SCT,12000.0,,,,
KRDR,07-03-2007,21:00,METAR,,300,6,,,9999,,28.0,17.0,29.91,1013.6,,,,,,,,,,,,TRACE,,,4/8 Partly Cloudy,72000.0,,SCT,4200.0,,,,,,
KRDR,07-03-2007,20:00,METAR,,260,5,,,9999,,28.0,18.0,29.91,1013.9,,,,,,,,,,,,,,,7/8 Mostly Cloudy,12000.0,,SCT,4300.0,BKN,12000.0,,,,
KRDR,07-03-2007,19:00,METAR,,260,4,,,9999,,25.0,18.0,29.93,1014.5,,,,,,,,,,,TRACE,,,,7/8 Mostly Cloudy,11000.0,,FEW,5000.0,BKN,11000.0,BKN,25000.0,,
KRDR,07-03-2007,18:30,METAR,,240,4,,,9999,,24.0,18.0,29.93,,,,,,,,,,,,,,,,7/8 Mostly Cloudy,11000.0,,FEW,4000.0,BKN,11000.0,BKN,25000.0,,
KRDR,07-03-2007,18:19,SPECI,,220,6,,,9999,Rain,24.0,18.0,29.94,,,,,61,,,,,,,,,,,7/8 Mostly Cloudy,10000.0,,FEW,4000.0,BKN,9900.0,BKN,25000.0,,
KRDR,07-03-2007,18:00,METAR,,240,6,,,9999,,25.0,18.0,29.94,1014.9,,,,,,,,,,,,,,,7/8 Mostly Cloudy,11000.0,,BKN,11000.0,BKN,25000.0,,,,
KRDR,07-03-2007,17:00,METAR,,350,4,,,9999,,23.0,17.0,29.95,1015.0,,,,,,,,,,,,,,,7/8 Mostly Cloudy,10000.0,,BKN,9900.0,BKN,25000.0,,,,
KRDR,07-03-2007,16:00,METAR,,,3,,,9999,,23.0,18.0,29.95,1015.0,,,,,,,,,,,,,,,8/8 Overcast,11000.0,,FEW,5900.0,BKN,11000.0,OVC,25000.0,,
KRDR,07-03-2007,15:00,METAR,,290,4,,,9999,,21.0,18.0,29.95,1015.0,,,,,,,,,,,,,,,8/8 Overcast,9500.0,,BKN,9400.0,OVC,25000.0,,,,
KRDR,07-03-2007,14:00,METAR,,360,4,,,9999,,21.0,18.0,29.92,1014.2,,,,,,,,,,,,,,,8/8 Overcast,10000.0,,FEW,4500.0,BKN,9900.0,OVC,25000.0,,
KRDR,07-03-2007,13:00,METAR,,180,3,,,9999,,20.0,18.0,29.92,1014.2,,,,,,,,,,,,,,,8/8 Overcast,25000.0,,FEW,6900.0,SCT,12000.0,OVC,25000.0,,
KRDR,07-03-2007,12:00,METAR,,250,4,,,9999,,18.0,17.0,29.94,1014.8,,,,,,,,,,,,,,,8/8 Overcast,25000.0,,FEW,2200.0,SCT,6400.0,OVC,25000.0,,
KRDR,07-03-2007,11:00,METAR,,,0,,,9999,,16.0,16.0,29.96,1015.3,,,,,,,,,,,,,,,7/8 Mostly Cloudy,25000.0,,FEW,6400.0,SCT,12000.0,BKN,25000.0,,
KRDR,07-03-2007,10:00,METAR,,270,3,,,9999,,15.0,14.0,29.95,1015.1,,,,,,,,,,,,,,,Clear,72000.0,,,73000.0,,,,,,
KRDR,07-03-2007,09:00,METAR,,350,2,,,9999,,16.0,16.0,29.95,1015.2,,,,,,,,,,,,,,,Clear,72000.0,,,73000.0,,,,,,
KRDR,07-03-2007,08:00,METAR,,,0,,,9999,,15.0,14.0,29.95,1015.1,,,,,,,,,,,,,,,Clear,72000.0,,,73000.0,,,,,,
KRDR,07-03-2007,07:00,METAR,,,0,,,9999,,17.0,16.0,29.96,1015.4,,,,,,,,,,,,,,,Clear,72000.0,,,73000.0,,,,,,
KRDR,07-03-2007,06:00,METAR,,260,3,,,9999,,17.0,16.0,29.98,1016.0,,,,,,,,,,,,,,,Clear,72000.0,,,73000.0,,,,,,
KRDR,07-03-2007,05:00,METAR,,210,3,,,9999,,19.0,16.0,29.97,1015.9,,,,,,,,,,,,,,,Clear,72000.0,,,73000.0,,,,,,
KRDR,07-03-2007,04:00,METAR,,70,5,,,9999,,23.0,17.0,29.98,1015.9,,,,,,,,,,,,,,,7/8 Mostly Cloudy,25000.0,,BKN,25000.0,,,,,,
KRDR,07-03-2007,03:00,METAR,,70,5,,,9999,,25.0,17.0,29.98,1015.9,,,,,,,,,,,,,,,7/8 Mostly Cloudy,25000.0,,BKN,25000.0,,,,,,
KRDR,07-03-2007,02:00,METAR,,20,4,,,9999,,25.0,19.0,29.97,1015.8,,,,,,,,,,,,,,,7/8 Mostly Cloudy,25000.0,,BKN,25000.0,,,,,,
KRDR,07-03-2007,01:00,METAR,,40,3,,,9999,,26.0,19.0,29.96,1015.4,,,,,,,,,,,,,,,7/8 Mostly Cloudy,25000.0,,BKN,25000.0,,,,,,
KRDR,07-03-2007,00:00,METAR,,,5,,,9999,,29.0,17.0,29.95,1015.1,,,,,,,,,,,,,,,4/8 Partly Cloudy,72000.0,,FEW,5000.0,SCT,25000.0,,,,
KRDR,07-02-2007,23:00,METAR,,360,6,,,9999,,29.0,18.0,29.96,1015.4,,,,,,,,,,,,,,,4/8 Partly Cloudy,72000.0,,SCT,25000.0,,,,,,
KRDR,07-02-2007,22:00,METAR,,360,5,,,9999,,28.0,17.0,29.96,1015.5,,,,,,,,,,,,,,,7/8 Mostly Cloudy,25000.0,,FEW,6900.0,BKN,25000.0,,,,
KRDR,07-02-2007,21:00,METAR,,,5,,,9999,,29.0,18.0,29.97,1015.7,,,,,,,,,,,,,,,7/8 Mostly Cloudy,25000.0,,FEW,6900.0,BKN,25000.0,,,,
KRDR,07-02-2007,20:00,METAR,,30,6,,,9999,,28.0,17.0,29.97,1015.8,,,,,,,,,,,,,,,7/8 Mostly Cloudy,25000.0,,FEW,5900.0,BKN,25000.0,,,,
KRDR,07-02-2007,19:00,METAR,,10,7,,,9999,,28.0,18.0,29.97,1015.8,,,,,,,,,,,,,,,7/8 Mostly Cloudy,25000.0,,FEW,5900.0,BKN,25000.0,,,,
KRDR,07-02-2007,18:00,METAR,,30,7,,,9999,,28.0,19.0,29.98,1016.0,,,,,,,,,,,,,,,7/8 Mostly Cloudy,25000.0,,SCT,5000.0,BKN,25000.0,,,,
KRDR,07-02-2007,17:00,METAR,,10,8,,,9999,,26.0,20.0,29.98,1016.0,,,,,,,,,,,,,,,7/8 Mostly Cloudy,25000.0,,SCT,2900.0,BKN,25000.0,,,,
KRDR,07-02-2007,16:00,METAR,,340,7,,,9999,,26.0,20.0,29.98,1016.2,,,,,,,,,,,,,,,7/8 Mostly Cloudy,25000.0,,SCT,2500.0,BKN,25000.0,,,,
KRDR,07-02-2007,15:00,METAR,,310,9,,,9999,,25.0,19.0,29.98,1016.0,,,,,,,,,,,,,,,8/8 Overcast,7000.0,,BKN,6900.0,OVC,25000.0,,,,
KRDR,07-02-2007,14:00,METAR,,240,6,,,9999,,24.0,18.0,29.97,1015.7,,,,,,,,,,,,,,,7/8 Mostly Cloudy,25000.0,,FEW,7400.0,BKN,25000.0,,,,
KRDR,07-02-2007,13:00,METAR,,230,4,,,9999,,21.0,19.0,29.97,1015.9,,,,,,,,,,,,,,,7/8 Mostly Cloudy,25000.0,,SCT,7400.0,BKN,25000.0,,,,
KRDR,07-02-2007,12:00,METAR,,190,8,,,9999,,20.0,18.0,29.97,1015.9,,,,,,,,,,,,,,,7/8 Mostly Cloudy,25000.0,,FEW,5900.0,BKN,25000.0,,,,
KRDR,07-02-2007,11:00,METAR,,180,5,,,9999,,18.0,16.0,29.98,1016.1,,,,,,,,,,,,,,,7/8 Mostly Cloudy,25000.0,,FEW,5900.0,SCT,12000.0,BKN,25000.0,,
KRDR,07-02-2007,10:00,METAR,,170,6,,,9999,,18.0,16.0,29.96,1015.5,,,,,,,,,,,,,,,Clear,72000.0,,,73000.0,,,,,,
KRDR,07-02-2007,09:00,METAR,,,0,,,9999,,19.0,17.0,29.96,1015.3,,,,,,,,,,,,,,,Clear,72000.0,,,73000.0,,,,,,
KRDR,07-02-2007,08:00,METAR,,130,5,,,9999,,20.0,17.0,29.96,1015.5,,,,,,,,,,,,,,,Clear,72000.0,,,73000.0,,,,,,
KRDR,07-02-2007,07:00,METAR,,190,7,,,9999,,22.0,17.0,29.97,1015.6,,,,,,,,,,,,,,,Clear,72000.0,,,73000.0,,,,,,
KRDR,07-02-2007,06:00,METAR,,190,6,,,9999,,22.0,16.0,29.98,1015.9,,,,,,,,,,,,,TRACE,,7/8 Mostly Cloudy,7500.0,,BKN,7400.0,,,,,,
KRDR,07-02-2007,05:00,METAR,,190,10,,,9999,,24.0,15.0,29.99,1016.5,,,,,,,,,,,TRACE,,,,7/8 Mostly Cloudy,6500.0,,BKN,6400.0,,,,,,
KRDR,07-02-2007,04:21,SPECI,,140,7,,,9999,,24.0,15.0,29.98,1016.2,,,,,,,,,,,,,,,2/8 Mostly Clear,72000.0,,FEW,5900.0,,,,,,
KRDR,07-02-2007,04:12,SPECI,,140,7,14.0,,9999,,24.0,15.0,29.98,1015.9,,,,,,,,,,,,,,,2/8 Mostly Clear,72000.0,,FEW,5000.0,,,,,,
KRDR,07-02-2007,04:00,METAR,,150,9,,,9999,,24.0,15.0,29.97,1015.6,,,,,,,,,,,,,,,2/8 Mostly Clear,72000.0,,FEW,5000.0,,,,,,
KRDR,07-02-2007,03:00,METAR,,150,8,,,9999,,24.0,15.0,29.96,1015.5,,,,,,,,,,,,,,,8/8 Overcast,4900.0,,OVC,6400.0,,,,,,
KRDR,07-02-2007,02:00,METAR,,160,11,,,9999,,25.0,15.0,29.97,1015.6,,,,,,,,,,,,,,,8/8 Overcast,6000.0,,OVC,5900.0,,,,,,
KRDR,07-02-2007,01:00,METAR,,180,10,,,9999,,26.0,15.0,29.97,1015.9,,,,,,,,,,,,,,,8/8 Overcast,6000.0,,OVC,5900.0,,,,,,
KRDR,07-02-2007,00:00,METAR,,180,10,,,9999,,27.0,15.0,29.98,1016.0,,,,,,,,,,,,,,,Clear,72000.0,,,73000.0,,,,,,
KRDR,07-01-2007,23:00,METAR,,170,15,20.0,,9999,,28.0,15.0,29.99,1016.4,,,,,,,,,,,,,,,Clear,72000.0,,,73000.0,,,,,,
KRDR,07-01-2007,22:00,METAR,,190,15,,,9999,,28.0,15.0,29.99,1016.6,,,,,,,,,,,,,,,Clear,72000.0,,,73000.0,,,,,,
KRDR,07-01-2007,21:00,METAR,,170,15,,,9999,,28.0,14.0,30.01,1017.1,,,,,,,,,,,,,,,Clear,72000.0,,,73000.0,,,,,,
KRDR,07-01-2007,20:00,METAR,,170,17,22.0,150/28KTS,9999,,27.0,15.0,30.00,1016.7,,,,,,,,,,,,,,,Clear,72000.0,,,73000.0,,,,,,
KRDR,07-01-2007,19:00,METAR,,180,17,26.0,140/26KTS,9999,,27.0,16.0,30.02,1017.3,,,,,,,,,,,,,,,2/8 Mostly Clear,72000.0,,FEW,4700.0,,,,,,
KRDR,07-01-2007,18:00,METAR,,150,16,26.0,150/26KTS,9999,,27.0,17.0,30.02,1017.4,,,,,,,,,,,,,,,Clear,72000.0,,,73000.0,,,,,,
KRDR,07-01-2007,17:00,METAR,,150,17,22.0,,9999,,26.0,17.0,30.04,1018.1,,,,,,,,,,,,,,,Clear,72000.0,,,73000.0,,,,,,
KRDR,07-01-2007,16:00,METAR,,170,17,21.0,,9999,,24.0,16.0,30.06,1018.6,,,,,,,,,,,,,,,Clear,72000.0,,,73000.0,,,,,,
KRDR,07-01-2007,15:00,METAR,,150,15,20.0,,9999,,22.0,15.0,30.07,1019.0,,,,,,,,,,,,,,,Clear,72000.0,,,73000.0,,,,,,
KRDR,07-01-2007,14:00,METAR,,160,15,19.0,,9999,,20.0,14.0,30.08,1019.5,,,,,,,,,,,,,,,Clear,72000.0,,,73000.0,,,,,,
KRDR,07-01-2007,13:00,METAR,,150,14,19.0,,9999,,19.0,14.0,30.08,1019.4,,,,,,,,,,,,,,,Clear,72000.0,,,73000.0,,,,,,
KRDR,07-01-2007,12:00,METAR,,140,12,,,9999,,19.0,14.0,30.08,1019.4,,,,,,,,,,,,,,,Clear,72000.0,,,73000.0,,,,,,
KRDR,07-01-2007,11:00,METAR,,140,12,,,9999,,19.0,15.0,30.08,1019.3,,,,,,,,,,,,,,,Clear,72000.0,,,73000.0,,,,,,
KRDR,07-01-2007,10:00,METAR,,140,11,,,9999,,19.0,15.0,30.08,1019.4,,,,,,,,,,,,,,,Clear,72000.0,,,73000.0,,,,,,
KRDR,07-01-2007,09:00,METAR,,130,8,,,9999,,19.0,15.0,30.08,1019.3,,,,,,,,,,,,,,,Clear,72000.0,,,73000.0,,,,,,
KRDR,07-01-2007,08:00,METAR,,120,6,,,9999,,19.0,15.0,30.08,1019.4,,,,,,,,,,,,,,,4/8 Partly Cloudy,72000.0,,SCT,5000.0,,,,,,
KRDR,07-01-2007,07:00,METAR,,120,6,,,9999,,20.0,15.0,30.08,1019.2,,,,,,,,,,,,,,,7/8 Mostly Cloudy,5500.0,,BKN,5400.0,,,,,,
KRDR,07-01-2007,06:00,METAR,,100,5,,,9999,,22.0,15.0,30.07,1019.1,,,,,,,,,,,,,,,7/8 Mostly Cloudy,4900.0,,BKN,5900.0,,,,,,
KRDR,07-01-2007,05:00,METAR,,130,9,,,9999,,23.0,15.0,30.05,1018.4,,,,,,,,,,,,,,,Clear,72000.0,,,73000.0,,,,,,
KRDR,07-01-2007,04:00,METAR,,130,12,,,9999,,23.0,16.0,30.05,1018.5,,,,,,,,,,,,,,,Clear,72000.0,,,73000.0,,,,,,
KRDR,07-01-2007,03:00,METAR,,110,8,,,9999,,23.0,15.0,30.05,1018.4,,,,,,,,,,,,,,,Clear,72000.0,,,73000.0,,,,,,
KRDR,07-01-2007,02:00,METAR,,90,7,,,9999,,24.0,15.0,30.04,1018.0,,,,,,,,,,,,,,,Clear,72000.0,,,73000.0,,,,,,
KRDR,07-01-2007,01:00,METAR,,110,7,,,9999,,26.0,16.0,30.03,1017.7,,,,,,,,,,,,,,,Clear,72000.0,,,73000.0,,,,,,
KRDR,07-01-2007,00:00,METAR,,150,14,,,9999,,26.0,16.0,30.01,1017.0,,,,,,,,,,,,,,,Clear,72000.0,,,73000.0,,,,,,
KRDR,06-30-2007,23:00,METAR,,130,11,,,9999,,27.0,15.0,30.05,1018.4,,,,,,,,,,,,,,,Clear,72000.0,,,73000.0,,,,,,
KRDR,06-30-2007,22:00,METAR,,160,10,,,9999,,28.0,15.0,30.07,1019.1,,,,,,,,,,,,,,,Clear,72000.0,,,73000.0,,,,,,
KRDR,06-30-2007,21:00,METAR,,150,14,,,9999,,28.0,14.0,30.08,1019.5,,,,,,,,,,,,,,,Clear,72000.0,,,73000.0,,,,,,
KRDR,06-30-2007,20:00,METAR,,150,11,,,9999,,27.0,15.0,30.09,1019.7,,,,,,,,,,,,,,,Clear,72000.0,,,73000.0,,,,,,
KRDR,06-30-2007,19:00,METAR,,130,11,,,9999,,26.0,15.0,30.10,1019.9,,,,,,,,,,,,,,,Clear,72000.0,,,73000.0,,,,,,
KRDR,06-30-2007,18:00,METAR,,110,9,,,9999,,26.0,15.0,30.11,1020.4,,,,,,,,,,,,,,,Clear,72000.0,,,73000.0,,,,,,
KRDR,06-30-2007,17:00,METAR,,160,9,,,9999,,25.0,15.0,30.12,1020.7,,,,,,,,,,,,,,,7/8 Mostly Cloudy,25000.0,,BKN,25000.0,,,,,,
KRDR,06-30-2007,16:00,METAR,,130,8,,,9999,,24.0,15.0,30.12,1020.6,,,,,,,,,,,,,,,7/8 Mostly Cloudy,25000.0,,BKN,25000.0,,,,,,
KRDR,06-30-2007,15:00,METAR,,120,9,,,9999,,23.0,15.0,30.12,1020.8,,,,,,,,,,,,,,,Clear,72000.0,,,73000.0,,,,,,
KRDR,06-30-2007,14:00,METAR,,140,7,,,9999,,20.0,15.0,30.12,1020.6,,,,,,,,,,,,,,,Clear,72000.0,,,73000.0,,,,,,
KRDR,06-30-2007,13:00,METAR,,120,6,,,9999,,18.0,14.0,30.12,1020.5,,,,,,,,,,,,,,,Clear,72000.0,,,73000.0,,,,,,
KRDR,06-30-2007,12:00,METAR,,150,3,,,9999,,16.0,12.0,30.12,1020.5,,,,,,,,,,,,,,,Clear,72000.0,,,73000.0,,,,,,
KRDR,06-30-2007,11:00,METAR,,,0,,,9999,,15.0,12.0,30.12,1020.7,,,,,,,,,,,,,,,Clear,72000.0,,,73000.0,,,,,,
KRDR,06-30-2007,10:00,METAR,,,0,,,9999,,15.0,11.0,30.12,1020.6,,,,,,,,,,,,,,,Clear,72000.0,,,73000.0,,,,,,
KRDR,06-30-2007,09:00,METAR,,,0,,,9999,,15.0,11.0,30.12,1020.7,,,,,,,,,,,,,,,Clear,72000.0,,,73000.0,,,,,,
KRDR,06-30-2007,08:00,METAR,,,0,,,9999,,15.0,11.0,30.12,1020.7,,,,,,,,,,,,,,,Clear,72000.0,,,73000.0,,,,,,
KRDR,06-30-2007,07:00,METAR,,,0,,,9999,,15.0,11.0,30.12,1020.8,,,,,,,,,,,,,,,Clear,72000.0,,,73000.0,,,,,,
KRDR,06-30-2007,06:00,METAR,,100,4,,,9999,,15.0,12.0,30.12,1020.8,,,,,,,,,,,,,,,Clear,72000.0,,,73000.0,,,,,,
KRDR,06-30-2007,05:00,METAR,,90,5,,,9999,,17.0,13.0,30.13,1020.9,,,,,,,,,,,,,,,4/8 Partly Cloudy,72000.0,,SCT,12000.0,,,,,,
KRDR,06-30-2007,04:00,METAR,,80,5,,,9999,,17.0,14.0,30.12,1020.8,,,,,,,,,,,,,,,Clear,72000.0,,,73000.0,,,,,,
KRDR,06-30-2007,03:00,METAR,,70,6,,,9999,,18.0,15.0,30.12,1020.6,,,,,,,,,,,,,,,4/8 Partly Cloudy,72000.0,,FEW,12000.0,SCT,25000.0,,,,
KRDR,06-30-2007,02:00,METAR,,60,6,,,9999,,21.0,13.0,30.11,1020.3,,,,,,,,,,,,,,,7/8 Mostly Cloudy,25000.0,,FEW,5900.0,SCT,12000.0,BKN,25000.0,,
KRDR,06-30-2007,01:00,METAR,,120,9,,,9999,,22.0,12.0,30.09,1019.8,,,,,,,,,,,,,,,7/8 Mostly Cloudy,25000.0,,FEW,5900.0,SCT,12000.0,BKN,25000.0,,
KRDR,06-30-2007,00:00,METAR,,80,10,,,9999,,23.0,13.0,30.13,1021.1,,,,,,,,,,,,,,,7/8 Mostly Cloudy,6000.0,,BKN,5900.0,BKN,25000.0,,,,
KRDR,06-29-2007,23:00,METAR,,70,4,,,9999,,24.0,12.0,30.14,1021.5,,,,,,,,,,,,,,,8/8 Overcast,6000.0,,BKN,5900.0,OVC,20000.0,,,,
KRDR,06-29-2007,22:00,METAR,,110,5,,,9999,,24.0,12.0,30.13,1021.2,,,,,,,,,,,,,,,7/8 Mostly Cloudy,20000.0,,FEW,8900.0,BKN,20000.0,,,,
KRDR,06-29-2007,21:00,METAR,,70,5,,,9999,,23.0,12.0,30.16,1021.9,,,,,,,,,,,,,,,8/8 Overcast,20000.0,,SCT,8900.0,OVC,20000.0,,,,
KRDR,06-29-2007,20:00,METAR,,140,7,,,9999,,22.0,12.0,30.18,1022.5,,,,,,,,,,,,,,,8/8 Overcast,20000.0,,SCT,7400.0,OVC,20000.0,,,,
KRDR,06-29-2007,19:00,METAR,,110,8,,,9999,,22.0,12.0,30.19,1022.9,,,,,,,,,,,,,,,8/8 Overcast,20000.0,,FEW,5000.0,SCT,8400.0,OVC,20000.0,,
KRDR,06-29-2007,18:00,METAR,,190,4,,,9999,,22.0,11.0,30.20,1023.4,,,,,,,,,,,,,,,7/8 Mostly Cloudy,20000.0,,SCT,5000.0,BKN,20000.0,,,,
KRDR,06-29-2007,17:00,METAR,,100,8,,,9999,,21.0,11.0,30.21,1023.6,,,,,,,,,,,,,,,7/8 Mostly Cloudy,25000.0,,SCT,4300.0,SCT,15000.0,BKN,25000.0,,
KRDR,06-29-2007,16:00,METAR,,130,10,,,9999,,20.0,11.0,30.21,1023.6,,,,,,,,,,,,,,,4/8 Partly Cloudy,72000.0,,FEW,3800.0,SCT,25000.0,,,,
KRDR,06-29-2007,15:00,METAR,,130,8,,,9999,,19.0,11.0,30.22,1024.1,,,,,,,,,,,,,,,4/8 Partly Cloudy,72000.0,,SCT,15000.0,,,,,,
KRDR,06-29-2007,14:00,METAR,,110,5,,,9999,,17.0,12.0,30.23,1024.2,,,,,,,,,,,,,,,7/8 Mostly Cloudy,15000.0,,BKN,15000.0,,,,,,
KRDR,06-29-2007,13:00,METAR,,130,5,,,9999,,14.0,11.0,30.23,1024.2,,,,,,,,,,,,,,,4/8 Partly Cloudy,72000.0,,FEW,7900.0,SCT,15000.0,,,,
KRDR,06-29-2007,12:00,METAR,,,0,,,9999,,10.0,10.0,30.22,1024.0,,,,,,,,,,,,,,,2/8 Mostly Clear,72000.0,,FEW,3500.0,,,,,,
KRDR,06-29-2007,11:00,METAR,,,0,,,9999,,8.0,7.0,30.21,1023.7,,,,,,,,,,,,,,,2/8 Mostly Clear,72000.0,,FEW,3500.0,,,,,,
KRDR,06-29-2007,10:00,METAR,,,0,,,9999,,8.0,8.0,30.21,1023.7,,,,,,,,,,,,,,,2/8 Mostly Clear,72000.0,,FEW,3500.0,,,,,,
KRDR,06-29-2007,09:00,METAR,,,0,,,9999,,9.0,8.0,30.22,1023.9,,,,,,,,,,,,,,,Clear,72000.0,,,73000.0,,,,,,
KRDR,06-29-2007,08:00,METAR,,,0,,,9999,,10.0,9.0,30.22,1024.0,,,,,,,,,,,,,,,7/8 Mostly Cloudy,4100.0,,BKN,4200.0,,,,,,
KRDR,06-29-2007,07:00,METAR,,,0,,,9999,,9.0,8.0,30.23,1024.2,,,,,,,,,,,,,,,4/8 Partly Cloudy,72000.0,,SCT,4100.0,,,,,,
KRDR,06-29-2007,06:00,METAR,,10,3,,,9999,,11.0,9.0,30.22,1024.1,,,,,,,,,,,,,,,Clear,72000.0,,,73000.0,,,,,,
KRDR,06-29-2007,05:00,METAR,,30,4,,,9999,,11.0,9.0,30.23,1024.2,,,,,,,,,,,,,,,Clear,72000.0,,,73000.0,,,,,,
KRDR,06-29-2007,04:00,METAR,,30,4,,,9999,,12.0,10.0,30.23,1024.2,,,,,,,,,,,,,,,4/8 Partly Cloudy,72000.0,,SCT,3500.0,,,,,,
KRDR,06-29-2007,03:00,METAR,,40,3,,,9999,,15.0,10.0,30.22,1024.0,,,,,,,,,,,,,,,4/8 Partly Cloudy,72000.0,,SCT,3500.0,,,,,,
KRDR,06-29-2007,02:00,METAR,,50,4,,,9999,,18.0,10.0,30.22,1023.9,,,,,,,,,,,,,,,7/8 Mostly Cloudy,3700.0,,BKN,3800.0,,,,,,
KRDR,06-29-2007,01:00,METAR,,350,4,,,9999,,19.0,10.0,30.22,1024.1,,,,,,,,,,,,,,,7/8 Mostly Cloudy,3300.0,,BKN,3400.0,,,,,,
KRDR,06-29-2007,00:00,METAR,,,0,,,9999,,18.0,10.0,30.23,1024.1,,,,,,,,,,,,,,,7/8 Mostly Cloudy,3900.0,,BKN,4000.0,,,,,,
KRDR,06-28-2007,23:00,METAR,,,0,,,9999,,18.0,10.0,30.24,1024.7,,,,,,,,,,,,,,,8/8 Overcast,3500.0,,OVC,3600.0,,,,,,
KRDR,06-28-2007,22:00,METAR,,,0,,,9999,,18.0,10.0,30.24,1024.8,,,,,,,,,,,,,,,7/8 Mostly Cloudy,3600.0,,BKN,3700.0,,,,,,
KRDR,06-28-2007,21:00,METAR,,360,5,,,9999,,18.0,11.0,30.27,1025.5,,,,,,,,,,,,,,,8/8 Overcast,3700.0,,BKN,3800.0,OVC,4500.0,,,,
KRDR,06-28-2007,20:00,METAR,,90,4,,,9999,,17.0,10.0,30.27,1025.8,,,,,,,,,,,,,,,8/8 Overcast,3100.0,,BKN,3100.0,OVC,4400.0,,,,
KRDR,06-28-2007,19:00,METAR,,,2,,,9999,,16.0,10.0,30.29,1026.3,,,,,,,,,,,,,,,8/8 Overcast,3400.0,,SCT,2500.0,OVC,3500.0,,,,
KRDR,06-28-2007,18:00,METAR,,,4,,,9999,,16.0,10.0,30.31,1026.8,,,,,,,,,,,,,,,8/8 Overcast,3000.0,,OVC,3000.0,,,,,,
KRDR,06-28-2007,17:00,METAR,,,3,,,9999,,16.0,10.0,30.31,1027.1,,,,,,,,,,,,,,,8/8 Overcast,3500.0,,SCT,2500.0,OVC,3600.0,,,,
KRDR,06-28-2007,16:00,METAR,,,4,,,9999,,16.0,10.0,30.32,1027.2,,,,,,,,,,,,,,,8/8 Overcast,3500.0,,SCT,1800.0,OVC,3600.0,,,,
KRDR,06-28-2007,15:00,METAR,,,6,,,9999,,15.0,11.0,30.33,1027.5,,,,,,,,,,,,,,,8/8 Overcast,3900.0,,FEW,1500.0,OVC,4000.0,,,,
KRDR,06-28-2007,14:00,METAR,,20,5,,,9999,,14.0,11.0,30.33,1027.7,,,,,,,,,,,,,,,8/8 Overcast,3800.0,,OVC,3900.0,,,,,,
KRDR,06-28-2007,13:00,METAR,,10,6,,,9999,,13.0,11.0,30.33,1027.5,,,,,,,,,,,,,,,8/8 Overcast,3800.0,,OVC,3900.0,,,,,,
KRDR,06-28-2007,12:00,METAR,,360,5,,,9999,,12.0,10.0,30.31,1027.1,,,,,,,,,,,,,,,8/8 Overcast,3400.0,,OVC,3500.0,,,,,,
KRDR,06-28-2007,11:00,METAR,,360,4,,,9999,,12.0,10.0,30.30,1026.7,,,,,,,,,,,,,,,8/8 Overcast,3200.0,,OVC,3300.0,,,,,,
KRDR,06-28-2007,10:00,METAR,,10,6,,,9999,,12.0,10.0,30.29,1026.4,,,,,,,,,,,,,,,8/8 Overcast,3200.0,,OVC,3300.0,,,,,,
KRDR,06-28-2007,09:00,METAR,,360,5,,,9999,,12.0,10.0,30.30,1026.7,,,,,,,,,,,,,,,8/8 Overcast,3500.0,,OVC,3600.0,,,,,,
KRDR,06-28-2007,08:00,METAR,,350,4,,,9999,,13.0,10.0,30.30,1026.7,,,,,,,,,,,,,,,8/8 Overcast,3500.0,,OVC,3600.0,,,,,,
KRDR,06-28-2007,07:00,METAR,,,6,,,9999,,13.0,10.0,30.30,1026.7,,,,,,,,,,,,,,,8/8 Overcast,3600.0,,OVC,3700.0,,,,,,
KRDR,06-28-2007,06:00,METAR,,360,6,,,9999,,12.0,10.0,30.30,1026.8,,,,,,,,,,,,,TRACE,,7/8 Mostly Cloudy,3400.0,,BKN,3500.0,,,,,,
KRDR,06-28-2007,05:00,METAR,,360,7,,,9999,,12.0,10.0,30.29,1026.4,,,,,,,,,,,,,,,8/8 Overcast,3500.0,,OVC,3600.0,,,,,,
KRDR,06-28-2007,04:00,METAR,,10,7,,,9999,,13.0,10.0,30.29,1026.2,,,,,,,,,,,,,,,8/8 Overcast,3700.0,,FEW,2000.0,SCT,2700.0,OVC,3800.0,,
KRDR,06-28-2007,03:00,METAR,,360,7,,,9999,,13.0,11.0,30.28,1025.8,,,,,,,,,,,TRACE,TRACE,,,7/8 Mostly Cloudy,3800.0,,FEW,2300.0,BKN,3900.0,,,,
KRDR,06-28-2007,02:32,SPECI,,10,6,,,9999,,13.0,11.0,30.27,1025.6,,,,,,,,,,,,,,,8/8 Overcast,3100.0,,FEW,1500.0,BKN,3100.0,OVC,3900.0,,
KRDR,06-28-2007,02:09,SPECI,,20,13,,,9999,,14.0,10.0,30.26,1025.2,,,,,,,,,,,,,,,7/8 Mostly Cloudy,3300.0,,SCT,2500.0,BKN,3400.0,,,,
KRDR,06-28-2007,02:00,METAR,,350,8,,,9999,,14.0,10.0,30.26,1025.2,,,,,,,,,,,,,,,7/8 Mostly Cloudy,3400.0,,SCT,2700.0,BKN,3500.0,,,,
KRDR,06-28-2007,01:00,METAR,,340,6,,,9999,,14.0,9.0,30.26,1025.1,,,,,,,,,,,,,,,8/8 Overcast,4000.0,,OVC,4100.0,,,,,,
KRDR,06-28-2007,00:00,METAR,,330,8,,,9999,,15.0,8.0,30.26,1025.3,,,,,,,,,,,,,,,8/8 Overcast,3200.0,,OVC,3300.0,,,,,,
KRDR,06-27-2007,23:00,METAR,,340,10,,,9999,,15.0,8.0,30.26,1025.2,,,,,,,,,,,,,,,8/8 Overcast,3600.0,,OVC,3700.0,,,,,,
KRDR,06-27-2007,22:00,METAR,,350,9,,,9999,,15.0,8.0,30.27,1025.5,,,,,,,,,,,,,,,8/8 Overcast,3800.0,,OVC,3900.0,,,,,,
KRDR,06-27-2007,21:00,METAR,,360,9,,,9999,,15.0,7.0,30.26,1025.4,,,,,,,,,,,,,,,8/8 Overcast,3800.0,,OVC,3900.0,,,,,,
KRDR,06-27-2007,20:00,METAR,,340,8,,,9999,,15.0,7.0,30.26,1025.4,,,,,,,,,,,,,,,8/8 Overcast,3700.0,,OVC,3800.0,,,,,,
KRDR,06-27-2007,19:00,METAR,,350,11,16.0,,9999,,16.0,7.0,30.25,1024.9,,,,,,,,,,,,,,,8/8 Overcast,3500.0,,OVC,3600.0,,,,,,
KRDR,06-27-2007,18:00,METAR,,350,11,17.0,,9999,,16.0,7.0,30.24,1024.5,,,,,,,,,,,,,,,7/8 Mostly Cloudy,3600.0,,BKN,3700.0,,,,,,
KRDR,06-27-2007,17:00,METAR,,350,12,,,9999,,15.0,8.0,30.23,1024.4,,,,,,,,,,,,,,,8/8 Overcast,3000.0,,BKN,3000.0,OVC,5000.0,,,,
KRDR,06-27-2007,16:00,METAR,,20,13,,,9999,,13.0,8.0,30.23,1024.2,,,,,,,,,,,,,,,8/8 Overcast,3000.0,,SCT,2000.0,BKN,3000.0,OVC,5000.0,,
KRDR,06-27-2007,15:43,SPECI,,10,13,,,9999,,13.0,8.0,30.23,1024.2,,,,,,,,,,,,,,,8/8 Overcast,3100.0,,SCT,2000.0,BKN,3200.0,OVC,5000.0,,
KRDR,06-27-2007,15:00,METAR,,30,9,,,9999,,13.0,9.0,30.21,1023.6,,,,,,,,,,,,,,,8/8 Overcast,2600.0,,FEW,1200.0,OVC,2600.0,,,,
KRDR,06-27-2007,14:27,SPECI,,20,12,,,9999,,14.0,9.0,30.19,,,,,,,,,,,,,,,,8/8 Overcast,2500.0,,OVC,2500.0,,,,,,
KRDR,06-27-2007,14:00,METAR,,350,11,,,9999,,15.0,9.0,30.19,1022.9,,,,,,,,,,,,,,,7/8 Mostly Cloudy,3000.0,,BKN,3000.0,,,,,,
KRDR,06-27-2007,13:00,METAR,,330,8,,,9999,,14.0,9.0,30.16,1022.1,,,,,,,,,,,,,,,7/8 Mostly Cloudy,3600.0,,BKN,3700.0,,,,,,
KRDR,06-27-2007,12:00,METAR,,320,7,,,9999,,13.0,10.0,30.15,1021.6,,,,,,,,,,,,,,,2/8 Mostly Clear,72000.0,,FEW,2500.0,,,,,,
KRDR,06-27-2007,11:00,METAR,,300,7,,,9999,,12.0,10.0,30.13,1020.9,,,,,,,,,,,,,,,4/8 Partly Cloudy,72000.0,,SCT,2500.0,,,,,,
KRDR,06-27-2007,10:00,METAR,,290,7,,,9999,,12.0,10.0,30.12,1020.5,,,,,,,,,,,,,,,2/8 Mostly Clear,72000.0,,FEW,2500.0,,,,,,
KRDR,06-27-2007,09:00,METAR,,310,9,,,9999,,14.0,10.0,30.11,1020.4,,,,,,,,,,,,,,,Clear,72000.0,,,73000.0,,,,,,
KRDR,06-27-2007,08:00,METAR,,300,8,,,9999,,14.0,10.0,30.11,1020.2,,,,,,,,,,,,,,,Clear,72000.0,,,73000.0,,,,,,
KRDR,06-27-2007,07:00,METAR,,310,10,,,9999,,15.0,10.0,30.10,1020.1,,,,,,,,,,,,,,,Clear,72000.0,,,73000.0,,,,,,
KRDR,06-27-2007,06:00,METAR,,310,9,,,9999,,16.0,10.0,30.09,1019.8,,,,,,,,,,,,,,,Clear,72000.0,,,73000.0,,,,,,
KRDR,06-27-2007,05:00,METAR,,310,10,18.0,,9999,,17.0,9.0,30.09,1019.7,,,,,,,,,,,,,,,Clear,72000.0,,,73000.0,,,,,,
KRDR,06-27-2007,04:00,METAR,,310,8,16.0,,9999,,18.0,10.0,30.08,1019.3,,,,,,,,,,,,,,,Clear,72000.0,,,73000.0,,,,,,
KRDR,06-27-2007,03:00,METAR,,320,14,21.0,,9999,,20.0,11.0,30.06,1018.7,,,,,,,,,,,,,,,2/8 Mostly Clear,72000.0,,FEW,6400.0,,,,,,
KRDR,06-27-2007,02:00,METAR,,280,8,,,9999,,22.0,10.0,30.04,1018.0,,,,,,,,,,,,,,,2/8 Mostly Clear,72000.0,,FEW,5000.0,,,,,,
KRDR,06-27-2007,01:00,METAR,,300,12,21.0,,9999,,24.0,10.0,30.04,1018.1,,,,,,,,,,,,,,,2/8 Mostly Clear,72000.0,,FEW,5000.0,,,,,,
KRDR,06-27-2007,00:00,METAR,,290,16,25.0,280/26KTS,9999,,24.0,10.0,30.03,1017.9,,,,,,,,,,,,,,,2/8 Mostly Clear,72000.0,,FEW,5000.0,,,,,,
KRDR,06-26-2007,23:00,METAR,,290,18,26.0,290/26KTS,9999,,25.0,10.0,30.04,1018.1,,,,,,,,,,,,,,,2/8 Mostly Clear,72000.0,,FEW,5400.0,,,,,,
KRDR,06-26-2007,22:00,METAR,,280,15,22.0,,9999,,25.0,10.0,30.04,1018.1,,,,,,,,,,,,,,,2/8 Mostly Clear,72000.0,,FEW,5000.0,,,,,,
KRDR,06-26-2007,21:00,METAR,,280,15,22.0,,9999,,24.0,10.0,30.05,1018.3,,,,,,,,,,,,,,,2/8 Mostly Clear,72000.0,,FEW,4500.0,,,,,,
KRDR,06-26-2007,20:00,METAR,,270,17,22.0,,9999,,24.0,10.0,30.05,1018.4,,,,,,,,,,,,,,,2/8 Mostly Clear,72000.0,,FEW,4000.0,,,,,,
KRDR,06-26-2007,19:00,METAR,,280,9,,,9999,,23.0,11.0,30.05,1018.4,,,,,,,,,,,,,,,2/8 Mostly Clear,72000.0,,FEW,3500.0,,,,,,
KRDR,06-26-2007,18:00,METAR,,300,11,,,9999,,22.0,9.0,30.05,1018.4,,,,,,,,,,,,,,,Clear,72000.0,,,73000.0,,,,,,
KRDR,06-26-2007,17:00,METAR,,300,13,20.0,,9999,,21.0,10.0,30.04,1018.0,,,,,,,,,,,,,,,2/8 Mostly Clear,72000.0,,FEW,25000.0,,,,,,
KRDR,06-26-2007,16:00,METAR,,300,13,19.0,,9999,,21.0,9.0,30.03,1017.7,,,,,,,,,,,,,,,2/8 Mostly Clear,72000.0,,FEW,25000.0,,,,,,
KRDR,06-26-2007,15:00,METAR,,320,14,21.0,,9999,,21.0,8.0,30.01,1017.1,,,,,,,,,,,,,,,2/8 Mostly Clear,72000.0,,FEW,25000.0,,,,,,
KRDR,06-26-2007,14:00,METAR,,320,15,22.0,,9999,,20.0,9.0,29.99,1016.3,,,,,,,,,,,,,,,2/8 Mostly Clear,72000.0,,FEW,4000.0,,,,,,
KRDR,06-26-2007,13:00,METAR,,300,8,,,9999,,19.0,12.0,29.96,1015.3,,,,,,,,,,,,,,,4/8 Partly Cloudy,72000.0,,SCT,4000.0,,,,,,
KRDR,06-26-2007,12:00,METAR,,330,17,21.0,320/34KTS,9999,,18.0,12.0,29.93,1014.4,,,,,,,,,,,,,TRACE,.1 IN,7/8 Mostly Cloudy,3500.0,,BKN,3600.0,,,,,,
KRDR,06-26-2007,11:00,METAR,,320,17,33.0,300/34KTS,9999,,20.0,16.0,29.85,1011.9,,,,,,,,,,,TRACE,,,,7/8 Mostly Cloudy,7000.0,,SCT,1600.0,BKN,6900.0,BKN,25000.0,,
KRDR,06-26-2007,10:00,METAR,,290,7,,,9999,,24.0,21.0,29.79,1009.8,,,,,,,,,,,,,,,8/8 Overcast,3400.0,,FEW,2400.0,BKN,3500.0,OVC,6900.0,,
KRDR,06-26-2007,09:00,METAR,,200,14,19.0,,9999,,25.0,21.0,29.72,1007.4,,,,,,,,,,,TRACE,TRACE,,,7/8 Mostly Cloudy,25000.0,,FEW,7400.0,SCT,12000.0,BKN,25000.0,,
KRDR,06-26-2007,08:04,SPECI,,190,17,24.0,,9999,,24.0,21.0,29.70,,,,,,,,,,,,,,,,7/8 Mostly Cloudy,25000.0,,FEW,5000.0,SCT,9900.0,BKN,25000.0,,
KRDR,06-26-2007,08:00,METAR,,190,23,31.0,190/31KTS,9999,Thunderstorm with Rain or Snow/Light Rain Showers,25.0,21.0,29.70,1006.7,,,,95,80,,,,,,,,,,7/8 Mostly Cloudy,8500.0,,SCT,5000.0,BKN,8400.0,BKN,25000.0,,
KRDR,06-26-2007,07:00,METAR,,170,6,,,9999,,25.0,21.0,29.74,1008.0,,,,,,,,,,,,,,,7/8 Mostly Cloudy,25000.0,,FEW,7400.0,SCT,12000.0,BKN,25000.0,,
KRDR,06-26-2007,06:00,METAR,,,0,,,9999,,25.0,21.0,29.78,1009.3,,,,,,,,,,,,,TRACE,,7/8 Mostly Cloudy,11000.0,,SCT,7900.0,BKN,11000.0,BKN,25000.0,,
KRDR,06-26-2007,05:00,METAR,,160,8,,,9999,,26.0,20.0,29.78,1009.3,,,,,,,,,,,,,,,7/8 Mostly Cloudy,25000.0,,FEW,7400.0,SCT,12000.0,BKN,25000.0,,
KRDR,06-26-2007,04:00,METAR,,130,7,,,9999,,27.0,22.0,29.78,1009.5,,,,,,,,,,,,,,,8/8 Overcast,8000.0,,OVC,7900.0,,,,,,
KRDR,06-26-2007,03:00,METAR,,140,3,,,9999,,28.0,21.0,29.78,1009.4,,,,,,,,,,,,,,,7/8 Mostly Cloudy,7500.0,,BKN,7400.0,BKN,25000.0,,,,
KRDR,06-26-2007,02:00,METAR,,180,3,,,9999,,29.0,21.0,29.77,1009.0,,,,,,,,,,,,,,,7/8 Mostly Cloudy,7500.0,,BKN,7400.0,BKN,25000.0,,,,
KRDR,06-26-2007,01:00,METAR,,350,2,,,9999,,30.0,21.0,29.75,1008.6,,,,,,,,,,,,,,,7/8 Mostly Cloudy,25000.0,,FEW,7400.0,SCT,12000.0,BKN,25000.0,,
KRDR,06-26-2007,00:00,METAR,,200,8,,,9999,,31.0,22.0,29.75,1008.4,,,,,,,,,,,,,,,7/8 Mostly Cloudy,25000.0,,SCT,6900.0,BKN,25000.0,,,,
KRDR,06-25-2007,23:00,METAR,,180,16,24.0,,9999,,32.0,21.0,29.75,1008.5,,,,,,,,,,,,,,,7/8 Mostly Cloudy,6000.0,,BKN,5900.0,BKN,25000.0,,,,
KRDR,06-25-2007,22:00,METAR,,200,13,,,9999,,32.0,22.0,29.75,1008.6,,,,,,,,,,,,,,,4/8 Partly Cloudy,72000.0,,SCT,5900.0,,,,,,
KRDR,06-25-2007,21:00,METAR,,190,11,21.0,,9999,,32.0,23.0,29.76,1008.7,,,,,,,,,,,,,,,7/8 Mostly Cloudy,25000.0,,SCT,3600.0,BKN,25000.0,,,,
KRDR,06-25-2007,20:00,METAR,,170,15,,170/26KTS,9999,,31.0,22.0,29.76,1008.8,,,,,,,,,,,,,,,7/8 Mostly Cloudy,25000.0,,SCT,3600.0,BKN,25000.0,,,,
KRDR,06-25-2007,19:00,METAR,,170,18,23.0,,9999,,29.0,22.0,29.76,1008.8,,,,,,,,,,,,,,,4/8 Partly Cloudy,72000.0,,SCT,3300.0,,,,,,
KRDR,06-25-2007,18:00,METAR,,140,16,21.0,,9999,,27.0,21.0,29.78,1009.3,,,,,,,,,,,,,.1 IN,,4/8 Partly Cloudy,72000.0,,SCT,2500.0,,,,,,
KRDR,06-25-2007,17:00,METAR,,150,13,24.0,,9999,,26.0,21.0,29.78,1009.4,,,,,,,,,,,,,,,7/8 Mostly Cloudy,25000.0,,SCT,3000.0,SCT,12000.0,BKN,25000.0,,
KRDR,06-25-2007,16:33,SPECI,,150,15,23.0,,9999,,25.0,20.0,29.78,,,,,,,,,,,,,,,,7/8 Mostly Cloudy,25000.0,,FEW,3000.0,SCT,12000.0,BKN,25000.0,,
KRDR,06-25-2007,16:00,METAR,,130,13,,,9999,,22.0,20.0,29.79,1009.9,,,,,,,,,,,,,,,7/8 Mostly Cloudy,2900.0,,BKN,2900.0,BKN,12000.0,BKN,25000.0,,
KRDR,06-25-2007,15:00,METAR,,150,6,,,9999,,21.0,19.0,29.84,1011.3,,,,,,,,,,,,.1 IN,,,8/8 Overcast,1800.0,,BKN,1800.0,OVC,4500.0,,,,
KRDR,06-25-2007,14:21,SPECI,,40,7,,,9999,,21.0,19.0,29.82,,,,,,,,,,,,,,,,8/8 Overcast,1900.0,,BKN,1900.0,OVC,12000.0,,,,
KRDR,06-25-2007,14:00,METAR,,90,5,21.0,,9999,,20.0,19.0,29.81,1010.5,,,,,,,,,,,TRACE,,,,8/8 Overcast,12000.0,,SCT,3700.0,BKN,12000.0,OVC,25000.0,,
KRDR,06-25-2007,13:10,SPECI,,100,7,,,9999,,21.0,19.0,29.84,,,,,,,,,,,,,,,,8/8 Overcast,3800.0,,BKN,3900.0,BKN,12000.0,OVC,25000.0,,
KRDR,06-25-2007,13:00,METAR,,180,6,,,9999,Thunderstorm with Rain or Snow/Light Rain Showers,21.0,19.0,29.83,1010.9,,,,95,80,,,,,,.1 IN,,,,8/8 Overcast,8500.0,,SCT,2800.0,OVC,8400.0,,,,
KRDR,06-25-2007,12:30,METAR,,280,12,,,4000,Thunderstorm with Rain or Snow/Rain Showers,21.0,19.0,29.84,1011.5,,,,95,81,,,,,,,,,,8/8 Overcast,6000.0,,FEW,1700.0,SCT,5400.0,OVC,8400.0,,
KRDR,06-25-2007,12:23,SPECI,,220,11,,,9999,Thunderstorm with Rain or Snow/Light Rain Showers,22.0,19.0,29.80,1010.2,,,,95,80,,,,,,,,,,7/8 Mostly Cloudy,8500.0,,FEW,5400.0,BKN,8400.0,,,,
KRDR,06-25-2007,12:00,METAR,,140,14,,,9999,,21.0,19.0,29.75,1008.5,,,,,,,,,,,,,,,8/8 Overcast,12000.0,,SCT,7900.0,BKN,12000.0,OVC,25000.0,,
KRDR,06-25-2007,11:00,METAR,,130,10,,,9999,,21.0,18.0,29.80,1010.0,,,,,,,,,,,,,,,2/8 Mostly Clear,72000.0,,FEW,6900.0,,,,,,
KRDR,06-25-2007,10:00,METAR,,120,5,,,9999,,21.0,19.0,29.81,1010.6,,,,,,,,,,,,,,,Clear,72000.0,,,73000.0,,,,,,
KRDR,06-25-2007,09:00,METAR,,120,9,,,9999,,22.0,19.0,29.78,1009.4,,,,,,,,,,,,,,,Clear,72000.0,,,73000.0,,,,,,
KRDR,06-25-2007,08:00,METAR,,130,9,,,9999,,22.0,19.0,29.77,1009.1,,,,,,,,,,,,,,,Clear,72000.0,,,73000.0,,,,,,
KRDR,06-25-2007,07:00,METAR,,120,6,,,9999,,22.0,18.0,29.81,1010.5,,,,,,,,,,,,,,,Clear,72000.0,,,73000.0,,,,,,
KRDR,06-25-2007,06:00,METAR,,150,8,,,9999,,24.0,18.0,29.79,1009.8,,,,,,,,,,,,,,,Clear,72000.0,,,73000.0,,,,,,
KRDR,06-25-2007,05:00,METAR,,150,8,,,9999,,25.0,19.0,29.82,1010.6,,,,,,,,,,,,,,,Clear,72000.0,,,73000.0,,,,,,
KRDR,06-25-2007,04:00,METAR,,160,8,,,9999,,25.0,19.0,29.80,1010.3,,,,,,,,,,,,,,,Clear,72000.0,,,73000.0,,,,,,
KRDR,06-25-2007,03:00,METAR,,180,7,,,9999,,25.0,21.0,29.79,1009.7,,,,,,,,,,,,,,,Clear,72000.0,,,73000.0,,,,,,
KRDR,06-25-2007,02:00,METAR,,160,9,,,9999,,28.0,22.0,29.76,1008.9,,,,,,,,,,,,,,,Clear,72000.0,,,73000.0,,,,,,
KRDR,06-25-2007,01:00,METAR,,170,6,,,9999,,29.0,23.0,29.76,1008.8,,,,,,,,,,,,,,,2/8 Mostly Clear,72000.0,,FEW,5900.0,,,,,,
KRDR,06-25-2007,00:00,METAR,,,3,,,9999,,31.0,23.0,29.76,1008.7,,,,,,,,,,,,,,,4/8 Partly Cloudy,72000.0,,SCT,5400.0,,,,,,
KRDR,06-24-2007,23:00,METAR,,280,7,,,9999,,31.0,23.0,29.76,1008.9,,,,,,,,,,,,,,,4/8 Partly Cloudy,72000.0,,SCT,5400.0,,,,,,
KRDR,06-24-2007,22:00,METAR,,280,3,,,9999,,31.0,23.0,29.76,1008.9,,,,,,,,,,,,,,,2/8 Mostly Clear,72000.0,,FEW,5400.0,,,,,,
KRDR,06-24-2007,21:00,METAR,,200,5,,,9999,,31.0,22.0,29.77,1009.1,,,,,,,,,,,,,,,4/8 Partly Cloudy,72000.0,,SCT,4700.0,,,,,,
KRDR,06-24-2007,20:00,METAR,,140,8,,,9999,,29.0,22.0,29.75,1008.5,,,,,,,,,,,,,,,Clear,72000.0,,,73000.0,,,,,,
KRDR,06-24-2007,19:00,METAR,,150,8,20.0,,9999,,27.0,21.0,29.73,1007.9,,,,,,,,,,,,,,,Clear,72000.0,,,73000.0,,,,,,
KRDR,06-24-2007,18:00,METAR,,140,10,,,9999,,24.0,20.0,29.75,1008.5,,,,,,,,,,,TRACE,,TRACE,,Clear,72000.0,,,73000.0,,,,,,
KRDR,06-24-2007,17:53,SPECI,,140,12,,,9999,,24.0,20.0,29.74,1008.2,,,,,,,,,,,,,,,Clear,72000.0,,,73000.0,,,,,,
KRDR,06-24-2007,17:43,SPECI,,140,12,,,9999,,24.0,20.0,29.77,1009.1,,,,,,,,,,,,,,,Clear,72000.0,,,73000.0,,,,,,
KRDR,06-24-2007,17:35,SPECI,,150,8,,,9999,,24.0,20.0,29.78,,,,,,,,,,,,,,,,8/8 Overcast,20000.0,,SCT,5000.0,SCT,12000.0,OVC,20000.0,,
KRDR,06-24-2007,17:30,METAR,,220,3,,,9999,Thunderstorm,24.0,20.0,29.82,,,,,17,,,,,,,,,,,8/8 Overcast,12000.0,,SCT,5000.0,BKN,12000.0,OVC,20000.0,,
KRDR,06-24-2007,17:08,SPECI,,260,7,,,9999,Thunderstorm with Rain or Snow/Light Rain Showers,23.0,20.0,29.82,,,,,95,80,,,,,,,,,,8/8 Overcast,12000.0,,SCT,5000.0,OVC,12000.0,,,,
KRDR,06-24-2007,17:01,SPECI,,190,11,,,9999,,23.0,20.0,29.83,1011.0,,,,,,,,,,,,,,,Clear,11000.0,,,73000.0,,,,,,
KRDR,06-24-2007,17:00,METAR,,180,11,,,9999,,23.0,20.0,29.82,1010.8,,,,,,,,,,,,,,,Clear,12000.0,,,73000.0,,,,,,
KRDR,06-24-2007,16:33,SPECI,,170,7,,,9999,,23.0,20.0,29.83,1011.2,,,,,,,,,,,,,,,4/8 Partly Cloudy,72000.0,,SCT,2800.0,,,,,,
KRDR,06-24-2007,16:00,METAR,,320,10,,140/30KTS,9999,,23.0,20.0,29.82,1010.8,,,,,,,,,,,TRACE,,,,7/8 Mostly Cloudy,1800.0,,BKN,1800.0,,,,,,
KRDR,06-24-2007,15:36,SPECI,,340,8,,140/30KTS,9999,,23.0,20.0,29.78,1009.4,,,,,,,,,,,,,,,7/8 Mostly Cloudy,1600.0,,BKN,1600.0,,,,,,
KRDR,06-24-2007,15:05,SPECI,,160,18,25.0,140/30KTS,9999,,22.0,20.0,29.68,1006.3,,,,,,,,,,,,,,,Clear,72000.0,,,73000.0,,,,,,
KRDR,06-24-2007,15:03,SPECI,,160,20,30.0,140/30KTS,9999,,22.0,20.0,29.68,1006.1,,,,,,,,,,,,,,,Clear,72000.0,,,73000.0,,,,,,
KRDR,06-24-2007,15:00,METAR,,160,20,24.0,,9999,Light Rain,22.0,19.0,29.72,1007.5,61,,,,,,,,,,TRACE,TRACE,,,2/8 Mostly Clear,72000.0,,FEW,11000.0,,,,,,
KRDR,06-24-2007,14:35,SPECI,,190,19,24.0,,9999,Unknown Precipitation,22.0,19.0,29.75,1008.6,40,,,,,,,,,,,,,,4/8 Partly Cloudy,72000.0,,SCT,12000.0,,,,,,
KRDR,06-24-2007,14:19,SPECI,,200,16,21.0,,9999,,22.0,19.0,29.75,1008.5,,,,,,,,,,,,,,,4/8 Partly Cloudy,72000.0,,SCT,12000.0,,,,,,
KRDR,06-24-2007,14:00,METAR,,190,12,,,9999,,21.0,19.0,29.74,1008.1,,,,,,,,,,,,,,,Clear,72000.0,,,73000.0,,,,,,
KRDR,06-24-2007,13:00,METAR,,190,16,21.0,180/26KTS,9999,,21.0,19.0,29.76,1008.8,,,,,,,,,,,,,,,Clear,72000.0,,,73000.0,,,,,,
KRDR,06-24-2007,12:00,METAR,,180,20,27.0,160/29KTS,9999,,21.0,18.0,29.71,1007.3,,,,,,,,,,,TRACE,,TRACE,,Clear,72000.0,,,73000.0,,,,,,
KRDR,06-24-2007,11:15,SPECI,,170,20,26.0,160/29KTS,9999,,20.0,19.0,29.71,1007.3,,,,,,,,,,,,,,,Clear,72000.0,,,73000.0,,,,,,
KRDR,06-24-2007,11:00,METAR,,170,19,24.0,,9999,,21.0,19.0,29.75,1008.5,,,,,,,,,,,TRACE,,,,Clear,72000.0,,,73000.0,,,,,,
KRDR,06-24-2007,10:45,METAR,,170,18,21.0,,9999,,21.0,19.0,29.75,1008.6,,,,,,,,,,,,,,,Clear,72000.0,,,73000.0,,,,,,
KRDR,06-24-2007,10:38,SPECI,,160,13,,,9999,,21.0,19.0,29.76,1008.8,,,,,,,,,,,,,,,Clear,72000.0,,,73000.0,,,,,,
KRDR,06-24-2007,10:23,SPECI,,170,11,,,9999,,21.0,19.0,29.79,1009.8,,,,,,,,,,,,,,,2/8 Mostly Clear,72000.0,,FEW,7900.0,,,,,,
KRDR,06-24-2007,10:09,SPECI,,200,5,,,9999,,21.0,19.0,29.79,1009.9,,,,,,,,,,,,,,,7/8 Mostly Cloudy,10000.0,,BKN,9900.0,,,,,,
KRDR,06-24-2007,10:06,SPECI,,200,6,,,9999,,21.0,19.0,29.80,1010.2,,,,,,,,,,,,,,,7/8 Mostly Cloudy,10000.0,,BKN,9900.0,,,,,,
KRDR,06-24-2007,10:00,METAR,,150,6,,,9999,,21.0,18.0,29.75,1008.5,,,,,,,,,,,,,,,4/8 Partly Cloudy,72000.0,,SCT,12000.0,,,,,,
KRDR,06-24-2007,09:53,METAR,,160,5,,,9999,,21.0,18.0,29.76,1009.2,,,,,,,,,,,,,,,4/8 Partly Cloudy,72000.0,,SCT,12000.0,,,,,,
KRDR,06-24-2007,09:00,METAR,,170,3,,,9999,,21.0,18.0,29.76,1008.9,,,,,,,,,,,,,,,7/8 Mostly Cloudy,12000.0,,BKN,12000.0,,,,,,
KRDR,06-24-2007,08:00,METAR,,100,4,,,9999,,21.0,19.0,29.74,1008.2,,,,,,,,,,,,,,,Clear,72000.0,,,73000.0,,,,,,
KRDR,06-24-2007,07:00,METAR,,150,9,,,9999,,22.0,19.0,29.74,1008.0,,,,,,,,,,,,,,,2/8 Mostly Clear,72000.0,,FEW,12000.0,,,,,,
KRDR,06-24-2007,06:00,METAR,,130,6,,,9999,,23.0,19.0,29.74,1008.1,,,,,,,,,,,,,,,Clear,72000.0,,,73000.0,,,,,,
KRDR,06-24-2007,05:00,METAR,,140,6,,,9999,,24.0,19.0,29.73,1007.9,,,,,,,,,,,,,,,Clear,72000.0,,,73000.0,,,,,,
KRDR,06-24-2007,04:00,METAR,,170,9,,,9999,,25.0,19.0,29.70,1006.8,,,,,,,,,,,,,,,Clear,72000.0,,,73000.0,,,,,,
KRDR,06-24-2007,03:00,METAR,,170,10,,,9999,,26.0,19.0,29.69,1006.4,,,,,,,,,,,,,,,Clear,72000.0,,,73000.0,,,,,,
KRDR,06-24-2007,02:00,METAR,,180,12,,,9999,,28.0,19.0,29.68,1006.2,,,,,,,,,,,,,,,Clear,72000.0,,,73000.0,,,,,,
KRDR,06-24-2007,01:00,METAR,,180,10,,,9999,,30.0,20.0,29.70,1006.8,,,,,,,,,,,,,,,Clear,72000.0,,,73000.0,,,,,,
KRDR,06-24-2007,00:00,METAR,,170,14,19.0,,9999,,31.0,20.0,29.72,1007.5,,,,,,,,,,,,,,,Clear,72000.0,,,73000.0,,,,,,
KRDR,06-23-2007,23:00,METAR,,170,12,,,9999,,31.0,19.0,29.74,1008.1,,,,,,,,,,,,,,,Clear,72000.0,,,73000.0,,,,,,
KRDR,06-23-2007,22:00,METAR,,200,11,,,9999,,32.0,20.0,29.75,1008.5,,,,,,,,,,,,,,,7/8 Mostly Cloudy,25000.0,,SCT,5900.0,BKN,25000.0,,,,
KRDR,06-23-2007,21:00,METAR,,190,13,,,9999,,33.0,18.0,29.76,1008.8,,,,,,,,,,,,,,,4/8 Partly Cloudy,72000.0,,SCT,25000.0,,,,,,
KRDR,06-23-2007,20:00,METAR,,190,10,,,9999,,32.0,19.0,29.78,1009.4,,,,,,,,,,,,,,,Clear,72000.0,,,73000.0,,,,,,
KRDR,06-23-2007,19:00,METAR,,220,9,,,9999,,32.0,20.0,29.79,1009.7,,,,,,,,,,,,,,,Clear,72000.0,,,73000.0,,,,,,
KRDR,06-23-2007,18:00,METAR,,220,7,,,9999,,31.0,19.0,29.80,1010.0,,,,,,,,,,,,,,,Clear,72000.0,,,73000.0,,,,,,
KRDR,06-23-2007,17:00,METAR,,210,9,,,9999,,31.0,19.0,29.80,1010.1,,,,,,,,,,,,,,,4/8 Partly Cloudy,72000.0,,SCT,25000.0,,,,,,
KRDR,06-23-2007,16:00,METAR,,210,8,,,9999,,29.0,21.0,29.81,1010.4,,,,,,,,,,,,,,,4/8 Partly Cloudy,72000.0,,SCT,25000.0,,,,,,
KRDR,06-23-2007,15:00,METAR,,200,9,,,9999,,26.0,21.0,29.82,1010.7,,,,,,,,,,,,,,,Clear,72000.0,,,73000.0,,,,,,
KRDR,06-23-2007,14:00,METAR,,200,7,,,9999,,25.0,20.0,29.83,1011.0,,,,,,,,,,,,,,,Clear,72000.0,,,73000.0,,,,,,
KRDR,06-23-2007,13:00,METAR,,190,10,,,9999,,23.0,20.0,29.83,1011.0,,,,,,,,,,,,,,,2/8 Mostly Clear,72000.0,,FEW,8400.0,,,,,,
KRDR,06-23-2007,12:00,METAR,,180,9,,,9999,,21.0,20.0,29.83,1011.2,,,,,,,,,,,,,,.04 IN,4/8 Partly Cloudy,72000.0,,SCT,9400.0,,,,,,
KRDR,06-23-2007,11:00,METAR,,190,7,,,9999,,20.0,19.0,29.84,1011.5,,,,,,,,,,,,,,,2/8 Mostly Clear,72000.0,,FEW,9400.0,,,,,,
KRDR,06-23-2007,10:00,METAR,,180,8,,,9999,,20.0,19.0,29.84,1011.6,,,,,,,,,,,,,,,4/8 Partly Cloudy,72000.0,,SCT,9900.0,,,,,,
KRDR,06-23-2007,09:00,METAR,,150,12,,,9999,,20.0,17.0,29.84,1011.3,,,,,,,,,,,,,,,4/8 Partly Cloudy,72000.0,,SCT,9900.0,,,,,,
KRDR,06-23-2007,08:00,METAR,,130,10,,,9999,,20.0,17.0,29.83,1011.3,,,,,,,,,,,,,,,Clear,72000.0,,,73000.0,,,,,,
KRDR,06-23-2007,07:00,METAR,,140,9,,,9999,,22.0,19.0,29.84,1011.5,,,,,,,,,,,,,,,Clear,72000.0,,,73000.0,,,,,,
KRDR,06-23-2007,06:00,METAR,,150,6,,,9999,,22.0,20.0,29.84,1011.5,,,,,,,,,,,,,.04 IN,,Clear,72000.0,,,73000.0,,,,,,
KRDR,06-23-2007,05:00,METAR,,140,6,,,9999,,23.0,21.0,29.83,1011.2,,,,,,,,,,,.01 IN,,,,Clear,72000.0,,,73000.0,,,,,,
KRDR,06-23-2007,04:10,SPECI,,150,7,,,9999,,23.0,21.0,29.83,,,,,,,,,,,,,,,,7/8 Mostly Cloudy,20000.0,,SCT,5900.0,SCT,12000.0,BKN,20000.0,,
KRDR,06-23-2007,04:00,METAR,,150,8,,,9999,Rain/Thunderstorm,23.0,20.0,29.85,1011.9,,,,17,61,,,,,,.03 IN,,,,8/8 Overcast,9000.0,,FEW,2200.0,SCT,5900.0,BKN,8900.0,OVC,20000.0
KRDR,06-23-2007,03:21,SPECI,,300,16,21.0,,9999,Thunderstorm with Rain or Snow/Light Rain Showers,24.0,20.0,29.88,1012.6,,,,95,80,,,,,,,,,,8/8 Overcast,4900.0,,BKN,5000.0,OVC,8900.0,,,,
KRDR,06-23-2007,03:15,SPECI,,320,13,,,9999,Thunderstorm,25.0,19.0,29.85,,,,,17,,,,,,,,,,,8/8 Overcast,9000.0,,SCT,5400.0,OVC,8900.0,,,,
KRDR,06-23-2007,03:00,METAR,,200,8,,,9999,,24.0,19.0,29.83,1011.2,,,,,,,,,,,,,,,8/8 Overcast,20000.0,,SCT,5900.0,SCT,12000.0,OVC,20000.0,,
KRDR,06-23-2007,02:00,METAR,,190,5,,,9999,,25.0,19.0,29.82,1010.9,,,,,,,,,,,,,,,8/8 Overcast,20000.0,,OVC,20000.0,,,,,,
KRDR,06-23-2007,01:00,METAR,,200,11,,,9999,,27.0,18.0,29.81,1010.5,,,,,,,,,,,,,,,7/8 Mostly Cloudy,25000.0,,BKN,25000.0,,,,,,
KRDR,06-23-2007,00:00,METAR,,180,14,,,9999,,29.0,19.0,29.82,1010.9,,,,,,,,,,,,,,,2/8 Mostly Clear,72000.0,,FEW,25000.0,,,,,,
KRDR,06-22-2007,23:00,METAR,,190,10,,,9999,,30.0,18.0,29.85,1011.9,,,,,,,,,,,,,,,2/8 Mostly Clear,72000.0,,FEW,25000.0,,,,,,
KRDR,06-22-2007,22:00,METAR,,210,10,,,9999,,30.0,17.0,29.88,1012.8,,,,,,,,,,,,,,,2/8 Mostly Clear,72000.0,,FEW,5000.0,,,,,,
KRDR,06-22-2007,21:00,METAR,,170,10,,,9999,,29.0,18.0,29.89,1013.1,,,,,,,,,,,,,,,Clear,72000.0,,,73000.0,,,,,,
KRDR,06-22-2007,20:00,METAR,,190,11,,,9999,,29.0,18.0,29.90,1013.6,,,,,,,,,,,,,,,2/8 Mostly Clear,72000.0,,FEW,9900.0,,,,,,
KRDR,06-22-2007,19:00,METAR,,170,11,17.0,,9999,,28.0,19.0,29.93,1014.3,,,,,,,,,,,,,,,2/8 Mostly Clear,72000.0,,FEW,9900.0,,,,,,
KRDR,06-22-2007,18:00,METAR,,190,11,,,9999,,27.0,18.0,29.94,1014.9,,,,,,,,,,,,,,,Clear,72000.0,,,73000.0,,,,,,
KRDR,06-22-2007,17:00,METAR,,200,9,,,9999,,26.0,18.0,29.96,1015.5,,,,,,,,,,,,,,,Clear,72000.0,,,73000.0,,,,,,
KRDR,06-22-2007,16:00,METAR,,210,9,,,9999,,25.0,18.0,29.97,1015.8,,,,,,,,,,,,,,,Clear,72000.0,,,73000.0,,,,,,
KRDR,06-22-2007,15:00,METAR,,190,11,,,9999,,24.0,17.0,29.98,1016.1,,,,,,,,,,,,,,,Clear,72000.0,,,73000.0,,,,,,
KRDR,06-22-2007,14:00,METAR,,190,12,,,9999,,22.0,16.0,29.99,1016.3,,,,,,,,,,,,,,,2/8 Mostly Clear,72000.0,,FEW,25000.0,,,,,,
KRDR,06-22-2007,13:00,METAR,,170,8,,,9999,,20.0,15.0,29.99,1016.5,,,,,,,,,,,,,,,2/8 Mostly Clear,72000.0,,FEW,25000.0,,,,,,
KRDR,06-22-2007,12:00,METAR,,160,6,,,9999,,17.0,14.0,30.00,1016.6,,,,,,,,,,,,,,,2/8 Mostly Clear,72000.0,,FEW,25000.0,,,,,,
KRDR,06-22-2007,11:00,METAR,,170,4,,,9999,,16.0,12.0,29.99,1016.3,,,,,,,,,,,,,,,Clear,72000.0,,,73000.0,,,,,,
KRDR,06-22-2007,10:00,METAR,,200,5,,,9999,,16.0,13.0,29.99,1016.5,,,,,,,,,,,,,,,Clear,72000.0,,,73000.0,,,,,,
KRDR,06-22-2007,09:00,METAR,,190,7,,,9999,,17.0,13.0,30.02,1017.3,,,,,,,,,,,,,,,Clear,72000.0,,,73000.0,,,,,,
KRDR,06-22-2007,08:00,METAR,,,0,,,9999,,17.0,14.0,30.03,1017.6,,,,,,,,,,,,,,,Clear,72000.0,,,73000.0,,,,,,
KRDR,06-22-2007,07:00,METAR,,210,5,,,9999,,16.0,15.0,30.02,1017.5,,,,,,,,,,,,,,,Clear,72000.0,,,73000.0,,,,,,
KRDR,06-22-2007,06:00,METAR,,210,3,,,9999,,17.0,15.0,30.00,1016.8,,,,,,,,,,,,,,,Clear,72000.0,,,73000.0,,,,,,
KRDR,06-22-2007,05:00,METAR,,210,4,,,9999,,18.0,16.0,30.03,1017.6,,,,,,,,,,,,,,,Clear,72000.0,,,73000.0,,,,,,
KRDR,06-22-2007,04:00,METAR,,210,4,,,9999,,19.0,17.0,30.02,1017.3,,,,,,,,,,,,,,,Clear,72000.0,,,73000.0,,,,,,
KRDR,06-22-2007,03:00,METAR,,130,4,,,9999,,23.0,16.0,30.02,1017.3,,,,,,,,,,,,,,,2/8 Mostly Clear,72000.0,,FEW,5900.0,,,,,,
KRDR,06-22-2007,02:00,METAR,,150,5,,,9999,,25.0,16.0,30.01,1016.9,,,,,,,,,,,,,,,2/8 Mostly Clear,72000.0,,FEW,5900.0,FEW,12000.0,,,,
KRDR,06-22-2007,01:00,METAR,,140,6,,,9999,,27.0,16.0,30.01,1017.1,,,,,,,,,,,,,,,4/8 Partly Cloudy,72000.0,,FEW,5900.0,FEW,12000.0,SCT,25000.0,,
KRDR,06-22-2007,00:00,METAR,,170,7,,,9999,,28.0,15.0,30.01,1017.1,,,,,,,,,,,,,,,7/8 Mostly Cloudy,25000.0,,FEW,5900.0,SCT,12000.0,BKN,25000.0,,
KRDR,06-21-2007,23:00,METAR,,140,5,,,9999,,28.0,14.0,30.02,1017.3,,,,,,,,,,,,,,,7/8 Mostly Cloudy,25000.0,,FEW,5900.0,SCT,12000.0,BKN,25000.0,,
KRDR,06-21-2007,22:00,METAR,,130,4,,,9999,,28.0,14.0,30.02,1017.4,,,,,,,,,,,,,,,7/8 Mostly Cloudy,25000.0,,SCT,5000.0,BKN,25000.0,,,,
KRDR,06-21-2007,21:00,METAR,,150,5,,,9999,,28.0,14.0,30.02,1017.3,,,,,,,,,,,,,,,7/8 Mostly Cloudy,25000.0,,FEW,5000.0,BKN,25000.0,,,,
KRDR,06-21-2007,20:00,METAR,,150,5,,,9999,,27.0,14.0,30.02,1017.4,,,,,,,,,,,,,,,7/8 Mostly Cloudy,25000.0,,FEW,7900.0,BKN,25000.0,,,,
KRDR,06-21-2007,19:00,METAR,,140,5,,,9999,,27.0,13.0,30.03,1017.6,,,,,,,,,,,,,,,7/8 Mostly Cloudy,25000.0,,BKN,25000.0,,,,,,
KRDR,06-21-2007,18:00,METAR,,,5,,,9999,,27.0,13.0,30.03,1017.8,,,,,,,,,,,,,,,7/8 Mostly Cloudy,25000.0,,BKN,25000.0,,,,,,
KRDR,06-21-2007,17:00,METAR,,160,5,,,9999,,26.0,12.0,30.05,,,,,,,,,,,,,,,,4/8 Partly Cloudy,72000.0,,FEW,7900.0,SCT,25000.0,,,,
KRDR,06-21-2007,16:00,METAR,,160,6,,,9999,,,,30.06,,,,,,,,,,,,,,,,4/8 Partly Cloudy,72000.0,,FEW,7900.0,SCT,12000.0,,,,
KRDR,06-21-2007,15:00,METAR,,200,6,,,9999,,23.0,12.0,30.06,,,,,,,,,,,,,,,,2/8 Mostly Clear,72000.0,,FEW,7900.0,FEW,25000.0,,,,
KRDR,06-21-2007,14:00,METAR,,160,7,,,9999,,22.0,11.0,30.05,1018.5,,,,,,,,,,,,,,,4/8 Partly Cloudy,72000.0,,FEW,7900.0,SCT,25000.0,,,,
KRDR,06-21-2007,13:00,METAR,,190,3,,,9999,,20.0,12.0,30.06,1018.6,,,,,,,,,,,,,,,4/8 Partly Cloudy,72000.0,,FEW,7900.0,SCT,25000.0,,,,
KRDR,06-21-2007,12:00,METAR,,210,7,,,9999,,16.0,11.0,30.03,1017.6,,,,,,,,,,,,,,,4/8 Partly Cloudy,72000.0,,FEW,7900.0,SCT,25000.0,,,,
KRDR,06-21-2007,11:00,METAR,,190,5,,,9999,,14.0,11.0,30.03,1017.7,,,,,,,,,,,,,,,4/8 Partly Cloudy,72000.0,,FEW,9900.0,SCT,25000.0,,,,
KRDR,06-21-2007,10:00,METAR,,190,3,,,9999,,14.0,11.0,30.01,1017.1,,,,,,,,,,,,,,,Clear,72000.0,,,73000.0,,,,,,
KRDR,06-21-2007,09:00,METAR,,200,5,,,9999,,14.0,11.0,30.03,1017.6,,,,,,,,,,,,,,,Clear,72000.0,,,73000.0,,,,,,
KRDR,06-21-2007,08:00,METAR,,170,4,,,9999,,15.0,11.0,30.03,1017.8,,,,,,,,,,,,,,,Clear,72000.0,,,73000.0,,,,,,
KRDR,06-21-2007,07:00,METAR,,150,3,,,9999,,15.0,11.0,30.05,1018.5,,,,,,,,,,,,,,,Clear,72000.0,,,73000.0,,,,,,
KRDR,06-21-2007,06:00,METAR,,170,4,,,9999,,16.0,12.0,30.05,1018.4,,,,,,,,,,,,,,,Clear,72000.0,,,73000.0,,,,,,
KRDR,06-21-2007,05:00,METAR,,160,4,,,9999,,16.0,12.0,30.04,1018.2,,,,,,,,,,,,,,,Clear,72000.0,,,73000.0,,,,,,
KRDR,06-21-2007,04:00,METAR,,140,5,,,9999,,17.0,11.0,30.04,1018.1,,,,,,,,,,,,,,,Clear,72000.0,,,73000.0,,,,,,
KRDR,06-21-2007,03:00,METAR,,130,5,,,9999,,19.0,12.0,30.03,1017.7,,,,,,,,,,,,,,,2/8 Mostly Clear,72000.0,,FEW,9900.0,FEW,25000.0,,,,
KRDR,06-21-2007,02:00,METAR,,100,7,,,9999,,21.0,11.0,30.02,1017.5,,,,,,,,,,,,,,,2/8 Mostly Clear,72000.0,,FEW,25000.0,,,,,,
KRDR,06-21-2007,01:00,METAR,,90,8,,,9999,,23.0,12.0,30.02,1017.3,,,,,,,,,,,,,,,2/8 Mostly Clear,72000.0,,FEW,25000.0,,,,,,
KRDR,06-21-2007,00:00,METAR,,80,8,,,9999,,24.0,12.0,30.02,1017.5,,,,,,,,,,,,,,,4/8 Partly Cloudy,72000.0,,SCT,25000.0,,,,,,
KRDR,06-20-2007,23:00,METAR,,60,7,,,9999,,25.0,12.0,30.03,1017.6,,,,,,,,,,,,,,,4/8 Partly Cloudy,72000.0,,SCT,25000.0,,,,,,
KRDR,06-20-2007,22:00,METAR,,50,8,,,9999,,25.0,10.0,30.03,1017.7,,,,,,,,,,,,,,,4/8 Partly Cloudy,72000.0,,SCT,25000.0,,,,,,
KRDR,06-20-2007,21:00,METAR,,10,7,,,9999,,25.0,10.0,30.04,1018.0,,,,,,,,,,,,,,,7/8 Mostly Cloudy,25000.0,,BKN,25000.0,,,,,,
KRDR,06-20-2007,20:00,METAR,,340,8,,,9999,,25.0,11.0,30.04,1018.2,,,,,,,,,,,,,,,4/8 Partly Cloudy,72000.0,,SCT,25000.0,,,,,,
KRDR,06-20-2007,19:00,METAR,,340,9,,,9999,,25.0,11.0,30.05,1018.3,,,,,,,,,,,,,,,2/8 Mostly Clear,72000.0,,FEW,25000.0,,,,,,
KRDR,06-20-2007,18:00,METAR,,350,10,,,9999,,24.0,13.0,30.05,1018.5,,,,,,,,,,,,,,,2/8 Mostly Clear,72000.0,,FEW,20000.0,,,,,,
KRDR,06-20-2007,17:00,METAR,,340,7,,,9999,,24.0,11.0,30.05,1018.2,,,,,,,,,,,,,,,2/8 Mostly Clear,72000.0,,FEW,20000.0,,,,,,
KRDR,06-20-2007,16:00,METAR,,310,5,,,9999,,24.0,10.0,30.04,1017.9,,,,,,,,,,,,,,,2/8 Mostly Clear,72000.0,,FEW,20000.0,,,,,,
KRDR,06-20-2007,15:00,METAR,,310,4,,,9999,,22.0,12.0,30.03,1017.6,,,,,,,,,,,,,,,4/8 Partly Cloudy,72000.0,,SCT,20000.0,,,,,,
KRDR,06-20-2007,14:00,METAR,,240,4,,,9999,,21.0,14.0,30.01,1017.1,,,,,,,,,,,,,,,2/8 Mostly Clear,72000.0,,FEW,20000.0,,,,,,
KRDR,06-20-2007,13:00,METAR,,280,4,,,9999,,18.0,14.0,30.00,1016.8,,,,,,,,,,,,,,,2/8 Mostly Clear,72000.0,,FEW,5000.0,,,,,,
KRDR,06-20-2007,12:00,METAR,,300,5,,,9999,,15.0,13.0,29.98,1016.2,,,,,,,,,,,,,,,2/8 Mostly Clear,72000.0,,FEW,5000.0,,,,,,
KRDR,06-20-2007,11:00,METAR,,270,5,,,9999,,13.0,12.0,29.97,1015.8,,,,,,,,,,,,,,,2/8 Mostly Clear,72000.0,,FEW,9900.0,FEW,25000.0,,,,
KRDR,06-20-2007,10:00,METAR,,270,6,,,9999,,14.0,12.0,29.96,1015.4,,,,,,,,,,,,,,,Clear,72000.0,,,73000.0,,,,,,
KRDR,06-20-2007,09:00,METAR,,280,4,,,9999,,16.0,12.0,29.95,1015.1,,,,,,,,,,,,,,,Clear,72000.0,,,73000.0,,,,,,
KRDR,06-20-2007,08:00,METAR,,240,10,,,9999,,17.0,12.0,29.92,1014.2,,,,,,,,,,,,,,,Clear,72000.0,,,73000.0,,,,,,
KRDR,06-20-2007,07:00,METAR,,240,9,,,9999,,17.0,13.0,29.92,1014.1,,,,,,,,,,,,,,,4/8 Partly Cloudy,72000.0,,SCT,8900.0,,,,,,
KRDR,06-20-2007,06:00,METAR,,230,10,,,9999,,17.0,13.0,29.92,1014.1,,,,,,,,,,,,,,,4/8 Partly Cloudy,72000.0,,SCT,9900.0,,,,,,
KRDR,06-20-2007,05:00,METAR,,200,7,,,9999,,17.0,13.0,29.92,1014.1,,,,,,,,,,,,,,,4/8 Partly Cloudy,72000.0,,SCT,9400.0,,,,,,
KRDR,06-20-2007,04:00,METAR,,190,6,,,9999,,17.0,12.0,29.92,1014.1,,,,,,,,,,,,,,,4/8 Partly Cloudy,72000.0,,SCT,25000.0,,,,,,
KRDR,06-20-2007,03:00,METAR,,180,7,,,9999,,17.0,12.0,29.92,1014.0,,,,,,,,,,,,,,,4/8 Partly Cloudy,72000.0,,SCT,25000.0,,,,,,
KRDR,06-20-2007,02:00,METAR,,180,5,,,9999,,20.0,13.0,29.93,1014.4,,,,,,,,,,,,,,,7/8 Mostly Cloudy,25000.0,,BKN,25000.0,,,,,,
KRDR,06-20-2007,01:00,METAR,,250,3,,,9999,,22.0,10.0,29.94,1014.9,,,,,,,,,,,,,,,7/8 Mostly Cloudy,25000.0,,BKN,25000.0,,,,,,
KRDR,06-20-2007,00:00,METAR,,290,9,,,9999,,23.0,8.0,29.96,1015.4,,,,,,,,,,,,,,,Clear,72000.0,,,73000.0,,,,,,
KRDR,06-19-2007,23:00,METAR,,290,8,,,9999,,23.0,8.0,29.97,1015.8,,,,,,,,,,,,,,,2/8 Mostly Clear,72000.0,,FEW,6400.0,,,,,,
KRDR,06-19-2007,22:00,METAR,,280,13,19.0,,9999,,23.0,9.0,29.98,1016.2,,,,,,,,,,,,,,,2/8 Mostly Clear,72000.0,,FEW,6400.0,,,,,,
KRDR,06-19-2007,21:00,METAR,,290,10,,,9999,,23.0,8.0,29.98,1016.1,,,,,,,,,,,,,,,2/8 Mostly Clear,72000.0,,FEW,5400.0,,,,,,
KRDR,06-19-2007,20:00,METAR,,310,17,22.0,290/25KTS,9999,,22.0,8.0,29.99,1016.3,,,,,,,,,,,,,,,2/8 Mostly Clear,72000.0,,FEW,5400.0,,,,,,
KRDR,06-19-2007,19:00,METAR,,320,14,20.0,,9999,,21.0,8.0,29.98,1016.2,,,,,,,,,,,,,,,2/8 Mostly Clear,72000.0,,FEW,5000.0,,,,,,
KRDR,06-19-2007,18:00,METAR,,320,13,20.0,,9999,,20.0,9.0,29.98,1016.1,,,,,,,,,,,,,,,2/8 Mostly Clear,72000.0,,FEW,5400.0,,,,,,
KRDR,06-19-2007,17:00,METAR,,330,13,20.0,,9999,,19.0,9.0,29.97,1015.8,,,,,,,,,,,,,,,2/8 Mostly Clear,72000.0,,FEW,4500.0,,,,,,
KRDR,06-19-2007,16:00,METAR,,310,11,19.0,,9999,,18.0,7.0,29.95,1015.1,,,,,,,,,,,,,,,2/8 Mostly Clear,72000.0,,FEW,3000.0,,,,,,
KRDR,06-19-2007,15:00,METAR,,320,13,18.0,,9999,,17.0,7.0,29.94,1014.8,,,,,,,,,,,,,,,2/8 Mostly Clear,72000.0,,FEW,3000.0,FEW,25000.0,,,,
KRDR,06-19-2007,14:00,METAR,,310,14,21.0,,9999,,16.0,8.0,29.91,1013.9,,,,,,,,,,,,,,,2/8 Mostly Clear,72000.0,,FEW,25000.0,,,,,,
KRDR,06-19-2007,13:00,METAR,,300,15,18.0,290/26KTS,9999,,15.0,8.0,29.88,1012.6,,,,,,,,,,,,,,,2/8 Mostly Clear,72000.0,,FEW,25000.0,,,,,,
KRDR,06-19-2007,12:00,METAR,,300,15,22.0,,9999,,13.0,8.0,29.84,1011.3,,,,,,,,,,,,,,.03 IN,2/8 Mostly Clear,72000.0,,FEW,3000.0,FEW,25000.0,,,,
KRDR,06-19-2007,11:00,METAR,,290,14,22.0,,9999,,12.0,8.0,29.80,1010.2,,,,,,,,,,,,,,,Clear,72000.0,,,73000.0,,,,,,
KRDR,06-19-2007,10:00,METAR,,310,14,22.0,,9999,,13.0,8.0,29.76,1008.8,,,,,,,,,,,,,,,Clear,72000.0,,,73000.0,,,,,,
KRDR,06-19-2007,09:00,METAR,,290,13,,,9999,,12.0,9.0,29.73,1007.7,,,,,,,,,,,,,,,Clear,72000.0,,,73000.0,,,,,,
KRDR,06-19-2007,08:00,METAR,,290,13,,290/26KTS,9999,,12.0,8.0,29.70,1006.7,,,,,,,,,,,,,,,Clear,72000.0,,,73000.0,,,,,,
KRDR,06-19-2007,07:00,METAR,,290,18,23.0,290/27KTS,9999,,13.0,8.0,29.68,1006.2,,,,,,,,,,,,,,,Clear,72000.0,,,73000.0,,,,,,
KRDR,06-19-2007,06:00,METAR,,300,17,25.0,300/29KTS,9999,,13.0,7.0,29.66,1005.4,,,,,,,,,,,,,.01 IN,,7/8 Mostly Cloudy,4900.0,,BKN,5000.0,,,,,,
KRDR,06-19-2007,05:00,METAR,,300,17,23.0,310/28KTS,9999,,13.0,8.0,29.64,1004.8,,,,,,,,,,,,,,,8/8 Overcast,4400.0,,OVC,4500.0,,,,,,
KRDR,06-19-2007,04:00,METAR,,300,19,25.0,310/27KTS,9999,,14.0,8.0,29.60,1003.4,,,,,,,,,,,,,,,8/8 Overcast,3200.0,,BKN,3300.0,OVC,5000.0,,,,
KRDR,06-19-2007,03:00,METAR,,310,19,28.0,300/30KTS,9999,,15.0,8.0,29.56,1002.3,,,,,,,,,,,,.01 IN,,,7/8 Mostly Cloudy,4400.0,,SCT,3200.0,BKN,4500.0,BKN,12000.0,,
KRDR,06-19-2007,02:00,METAR,,290,19,29.0,270/33KTS,9999,,16.0,10.0,29.51,1000.7,,,,,,,,,,,.01 IN,,,,7/8 Mostly Cloudy,6500.0,,BKN,6400.0,BKN,12000.0,,,,
KRDR,06-19-2007,01:00,METAR,,270,15,24.0,,9999,Precipitation in the Vicinity,17.0,12.0,29.48,999.6,,,,16,,,,,,,TRACE,,,,7/8 Mostly Cloudy,7000.0,,SCT,4000.0,BKN,6900.0,BKN,15000.0,,
KRDR,06-19-2007,00:02,SPECI,,260,16,23.0,,9999,Precipitation in the Vicinity,15.0,12.0,29.47,,,,,16,,,,,,,,,,,7/8 Mostly Cloudy,15000.0,,FEW,3600.0,SCT,5400.0,BKN,15000.0,,
KRDR,06-19-2007,00:00,METAR,,280,18,29.0,270/29KTS,4800,Light Rain Showers,16.0,13.0,29.48,999.4,,,,80,,,,,,,.02 IN,,.02 IN,,7/8 Mostly Cloudy,4900.0,,SCT,3600.0,BKN,5000.0,BKN,15000.0,,
KRDR,06-18-2007,23:45,METAR,,280,17,25.0,,9999,Light Rain Showers,18.0,11.0,29.47,,,,,80,,,,,,,,,,,7/8 Mostly Cloudy,5500.0,,FEW,3600.0,BKN,5400.0,BKN,15000.0,,
KRDR,06-18-2007,23:00,METAR,,260,17,27.0,260/30KTS,9999,Precipitation in the Vicinity,20.0,11.0,29.45,998.5,,,,16,,,,,,,,,,,7/8 Mostly Cloudy,5500.0,,SCT,4200.0,BKN,5400.0,,,,
KRDR,06-18-2007,22:00,METAR,,260,20,31.0,250/36KTS,9999,,19.0,10.0,29.45,998.5,,,,,,,,,,,,,,,7/8 Mostly Cloudy,5500.0,,BKN,5400.0,,,,,,
KRDR,06-18-2007,21:00,METAR,,260,23,34.0,240/35KTS,9999,,19.0,10.0,29.45,998.4,,,,,,,,,,,,,,,7/8 Mostly Cloudy,5500.0,,SCT,4100.0,BKN,5400.0,,,,
KRDR,06-18-2007,20:00,METAR,,260,22,30.0,270/33KTS,9999,,17.0,10.0,29.46,998.8,,,,,,,,,,,,,,,7/8 Mostly Cloudy,4100.0,,BKN,4200.0,,,,,,
KRDR,06-18-2007,19:00,METAR,,250,12,23.0,270/29KTS,9999,,17.0,9.0,29.46,998.9,,,,,,,,,,,,,,,8/8 Overcast,4700.0,,OVC,4800.0,,,,,,
KRDR,06-18-2007,18:00,METAR,,250,20,28.0,250/31KTS,9999,,18.0,9.0,29.47,999.1,,,,,,,,,,,,,,,8/8 Overcast,4700.0,,OVC,4800.0,,,,,,
KRDR,06-18-2007,17:00,METAR,,260,19,31.0,260/31KTS,9999,,20.0,10.0,29.46,999.1,,,,,,,,,,,,,,,7/8 Mostly Cloudy,25000.0,,SCT,4500.0,BKN,25000.0,,,,
KRDR,06-18-2007,16:00,METAR,,230,12,23.0,,9999,,20.0,12.0,29.47,999.3,,,,,,,,,,,,,,,4/8 Partly Cloudy,72000.0,,FEW,3300.0,SCT,25000.0,,,,
KRDR,06-18-2007,15:00,METAR,,230,12,,,9999,,19.0,12.0,29.48,999.7,,,,,,,,,,,,,,,7/8 Mostly Cloudy,20000.0,,FEW,12000.0,BKN,20000.0,,,,
KRDR,06-18-2007,14:00,METAR,,240,11,,,9999,,19.0,12.0,29.49,1000.1,,,,,,,,,,,,,,,7/8 Mostly Cloudy,25000.0,,FEW,5400.0,SCT,12000.0,BKN,25000.0,,
KRDR,06-18-2007,13:00,METAR,,260,12,,,9999,,17.0,13.0,29.50,1000.4,,,,,,,,,,,,,,,7/8 Mostly Cloudy,20000.0,,FEW,5400.0,SCT,12000.0,BKN,20000.0,,
KRDR,06-18-2007,12:00,METAR,,240,7,,,9999,,18.0,14.0,29.51,1000.6,,,,,,,,,,,,,.03 IN,.65 IN,7/8 Mostly Cloudy,25000.0,,SCT,12000.0,BKN,25000.0,,,,
KRDR,06-18-2007,11:00,METAR,,280,8,,,9999,,17.0,14.0,29.49,999.9,,,,,,,,,,,,,,,7/8 Mostly Cloudy,12000.0,,BKN,12000.0,BKN,25000.0,,,,
KRDR,06-18-2007,10:00,METAR,,290,8,,,9999,,17.0,14.0,29.47,999.2,,,,,,,,,,,,,,,Clear,72000.0,,,73000.0,,,,,,
KRDR,06-18-2007,09:00,METAR,,290,13,,,9999,,18.0,16.0,29.45,998.6,,,,,,,,,,,,.03 IN,,,Clear,72000.0,,,73000.0,,,,,,
KRDR,06-18-2007,08:00,METAR,,220,6,,,9999,,19.0,18.0,29.42,997.7,,,,,,,,,,,,,,,Clear,72000.0,,,73000.0,,,,,,
KRDR,06-18-2007,07:00,METAR,,240,11,16.0,,9999,,19.0,18.0,29.47,999.1,,,,,,,,,,,.03 IN,,,,7/8 Mostly Cloudy,1200.0,,BKN,1300.0,,,,,,
KRDR,06-18-2007,06:54,SPECI,,250,8,16.0,,9999,,19.0,18.0,29.46,999.0,,,,,,,,,,,,,,,7/8 Mostly Cloudy,1200.0,,BKN,1500.0,,,,,,
KRDR,06-18-2007,06:46,SPECI,,240,12,16.0,,9999,,19.0,17.0,29.46,999.0,,,,,,,,,,,,,,,7/8 Mostly Cloudy,1200.0,,BKN,1200.0,,,,,,
KRDR,06-18-2007,06:28,SPECI,,220,8,,,9999,,18.0,17.0,29.39,996.8,,,,,,,,,,,,,,,4/8 Partly Cloudy,72000.0,,SCT,3100.0,,,,,,
KRDR,06-18-2007,06:24,SPECI,,210,8,,,9999,Light Rain,18.0,17.0,29.39,996.6,61,,,,,,,,,,,,,,4/8 Partly Cloudy,72000.0,,SCT,2900.0,,,,,,
KRDR,06-18-2007,06:12,SPECI,,180,8,,,9999,Light Rain,19.0,17.0,29.39,996.6,61,,,,,,,,,,,,,,8/8 Overcast,2900.0,,OVC,2900.0,,,,,,
KRDR,06-18-2007,06:00,METAR,,220,10,,,9999,Light Rain,19.0,18.0,29.44,998.3,61,,,,,,,,,,.11 IN,,.62 IN,,8/8 Overcast,4300.0,,OVC,4400.0,,,,,,
KRDR,06-18-2007,05:46,SPECI,,230,9,,,9999,Light Rain,19.0,18.0,29.43,998.0,61,,,,,,,,,,,,,,8/8 Overcast,4600.0,,OVC,4700.0,,,,,,
KRDR,06-18-2007,05:34,SPECI,,250,5,,,9999,Light Rain,19.0,19.0,29.45,998.6,61,,,,,,,,,,,,,,2/8 Mostly Clear,72000.0,,FEW,5900.0,,,,,,
KRDR,06-18-2007,05:04,SPECI,,250,7,,,6400,Mist,19.0,19.0,29.43,998.0,,10,,,,,,,,,,,,,Clear,72000.0,,,73000.0,,,,,,
KRDR,06-18-2007,05:00,METAR,,260,8,18.0,,4000,Heavy Rain/Mist,19.0,19.0,29.43,998.0,63,10,,,,,,,,,.47 IN,,,,2/8 Mostly Clear,72000.0,,FEW,800.0,,,,,,
KRDR,06-18-2007,04:54,SPECI,,,3,18.0,,2800,Heavy Rain/Mist,19.0,19.0,29.41,997.2,63,10,,,,,,,,,,,,,2/8 Mostly Clear,72000.0,,FEW,800.0,,,,,,
KRDR,06-18-2007,04:51,SPECI,,270,12,18.0,,4000,Heavy Rain/Mist,19.0,19.0,29.45,998.7,63,10,,,,,,,,,,,,,2/8 Mostly Clear,72000.0,,FEW,800.0,,,,,,
KRDR,06-18-2007,04:46,SPECI,,250,13,,,9999,Light Rain,19.0,19.0,29.48,999.5,61,,,,,,,,,,,,,,2/8 Mostly Clear,72000.0,,FEW,900.0,,,,,,
KRDR,06-18-2007,04:42,SPECI,,250,11,,,9999,Light Rain,19.0,19.0,29.48,999.5,61,,,,,,,,,,,,,,2/8 Mostly Clear,72000.0,,FEW,1300.0,,,,,,
KRDR,06-18-2007,04:35,SPECI,,,0,,,9999,Dry Thunderstorm/Light Rain,19.0,19.0,29.42,997.7,91,61,,,,,,,,,,,,,8/8 Overcast,2400.0,,OVC,4000.0,,,,,,
KRDR,06-18-2007,04:16,SPECI,,70,8,,,4800,Dry Thunderstorm/Light Rain/Mist,19.0,19.0,29.40,996.8,91,61,10,,,,,,,,,,,,2/8 Mostly Clear,72000.0,,FEW,1200.0,,,,,,
KRDR,06-18-2007,04:14,SPECI,,90,6,,,3200,Dry Thunderstorm/Light Rain/Mist,19.0,19.0,29.41,997.2,91,61,10,,,,,,,,,,,,2/8 Mostly Clear,72000.0,,FEW,2100.0,,,,,,
KRDR,06-18-2007,04:12,SPECI,,120,4,,,2000,Dry Thunderstorm/Light Rain/Mist,19.0,19.0,29.42,997.6,91,61,10,,,,,,,,,,,,2/8 Mostly Clear,72000.0,,FEW,2100.0,,,,,,
KRDR,06-18-2007,04:05,SPECI,,270,7,,,1600,Dry Thunderstorm/Heavy Rain/Mist,19.0,18.0,29.43,998.1,91,63,10,,,,,,,,,,,,7/8 Mostly Cloudy,1000.0,,FEW,500.0,BKN,4500.0,,,,
KRDR,06-18-2007,04:04,SPECI,,260,7,,,1600,Dry Thunderstorm/Heavy Rain/Mist,19.0,18.0,29.44,998.3,91,63,10,,,,,,,,,,,,7/8 Mostly Cloudy,1000.0,,FEW,200.0,SCT,2100.0,BKN,4500.0,,
KRDR,06-18-2007,04:01,SPECI,,260,10,,,2800,Dry Thunderstorm/Heavy Rain/Mist,19.0,18.0,29.44,998.3,91,63,10,,,,,,,,,,,,7/8 Mostly Cloudy,4400.0,,FEW,200.0,SCT,1900.0,BKN,4500.0,,
KRDR,06-18-2007,04:00,METAR,,320,13,18.0,,9999,Dry Thunderstorm/Light Rain,19.0,19.0,29.40,997.0,91,61,,,,,,,,,.04 IN,,,,7/8 Mostly Cloudy,4400.0,,FEW,200.0,BKN,4500.0,,,,
KRDR,06-18-2007,03:48,SPECI,,310,12,,,9999,Dry Thunderstorm/Light Rain,19.0,19.0,29.41,997.3,91,61,,,,,,,,,,,,,7/8 Mostly Cloudy,4400.0,,FEW,200.0,BKN,4500.0,,,,
KRDR,06-18-2007,03:35,SPECI,,320,14,22.0,,9999,Dry Thunderstorm/Light Rain,20.0,19.0,29.42,997.5,91,61,,,,,,,,,,,,,7/8 Mostly Cloudy,4800.0,,FEW,100.0,BKN,4900.0,,,,
KRDR,06-18-2007,03:24,SPECI,,320,3,,,9999,Dry Thunderstorm/Unknown Precipitation,20.0,19.0,29.41,997.2,91,40,,,,,,,,,,,,,7/8 Mostly Cloudy,4600.0,,BKN,4700.0,,,,,,
KRDR,06-18-2007,03:17,SPECI,,310,4,,,9999,Dry Thunderstorm,20.0,19.0,29.41,997.3,91,,,,,,,,,,,,,,8/8 Overcast,4600.0,,BKN,4700.0,OVC,6400.0,,,,
KRDR,06-18-2007,03:06,SPECI,,350,5,,,9999,,20.0,19.0,29.40,996.8,,,,,,,,,,,,,,,7/8 Mostly Cloudy,5500.0,,BKN,5400.0,,,,,,
KRDR,06-18-2007,03:00,METAR,,330,6,,,9999,,20.0,20.0,29.41,997.3,,,,,,,,,,,,,,,7/8 Mostly Cloudy,8000.0,,FEW,4800.0,BKN,7900.0,,,,
KRDR,06-18-2007,02:00,METAR,,340,7,,,9999,,22.0,20.0,29.44,998.4,,,,,,,,,,,,,,,7/8 Mostly Cloudy,4900.0,,BKN,5000.0,,,,,,
KRDR,06-18-2007,01:00,METAR,,360,9,,,9999,,22.0,20.0,29.46,998.9,,,,,,,,,,,,,,,7/8 Mostly Cloudy,5500.0,,BKN,5400.0,,,,,,
KRDR,06-18-2007,00:00,METAR,,140,3,,,9999,,27.0,23.0,29.47,999.4,,,,,,,,,,,,,,,7/8 Mostly Cloudy,4800.0,,BKN,4900.0,,,,,,
KRDR,06-17-2007,23:00,METAR,,,2,,,9999,,27.0,23.0,29.48,999.6,,,,,,,,,,,,,,,2/8 Mostly Clear,72000.0,,FEW,4000.0,,,,,,
KRDR,06-17-2007,22:00,METAR,,100,13,,,9999,,26.0,22.0,29.48,999.7,,,,,,,,,,,,,,,Clear,72000.0,,,73000.0,,,,,,
KRDR,06-17-2007,21:00,METAR,,50,15,,,9999,,23.0,20.0,29.51,1000.5,,,,,,,,,,,,,,,2/8 Mostly Clear,72000.0,,FEW,9900.0,,,,,,
KRDR,06-17-2007,20:18,SPECI,,350,6,,,9999,,24.0,21.0,29.58,1003.0,,,,,,,,,,,,,,,7/8 Mostly Cloudy,2500.0,,SCT,1800.0,SCT,2400.0,BKN,3000.0,,
KRDR,06-17-2007,20:00,METAR,,350,4,,,9999,,24.0,21.0,29.58,1003.0,,,,,,,,,,,,,,,8/8 Overcast,2200.0,,OVC,2200.0,,,,,,
KRDR,06-17-2007,19:01,SPECI,,100,5,,,9999,,24.0,20.0,29.59,1003.2,,,,,,,,,,,,,,,7/8 Mostly Cloudy,1000.0,,BKN,1500.0,,,,,,
KRDR,06-17-2007,19:00,METAR,,90,7,,,9999,,24.0,20.0,29.59,1003.2,,,,,,,,,,,,,,,7/8 Mostly Cloudy,1200.0,,BKN,1200.0,,,,,,
KRDR,06-17-2007,18:27,SPECI,,110,7,,,9999,,23.0,20.0,29.60,1003.4,,,,,,,,,,,,,,,7/8 Mostly Cloudy,1100.0,,BKN,1100.0,,,,,,
KRDR,06-17-2007,18:00,METAR,,120,7,,,9999,,22.0,19.0,29.62,1004.1,,,,,,,,,,,,,TRACE,,8/8 Overcast,800.0,,OVC,800.0,,,,,,
KRDR,06-17-2007,17:54,SPECI,,100,8,,,9999,,22.0,19.0,29.61,1004.0,,,,,,,,,,,,,,,8/8 Overcast,900.0,,OVC,900.0,,,,,,
KRDR,06-17-2007,17:46,SPECI,,110,9,,,9999,,21.0,18.0,29.61,1003.9,,,,,,,,,,,,,,,8/8 Overcast,800.0,,OVC,800.0,,,,,,
KRDR,06-17-2007,17:28,SPECI,,130,7,,,9999,,21.0,18.0,29.63,1004.6,,,,,,,,,,,,,,,8/8 Overcast,900.0,,OVC,900.0,,,,,,
KRDR,06-17-2007,17:08,SPECI,,110,9,,,9999,,20.0,18.0,29.64,1004.7,,,,,,,,,,,,,,,8/8 Overcast,1300.0,,FEW,800.0,OVC,1300.0,,,,
KRDR,06-17-2007,17:00,METAR,,110,13,,,9999,,20.0,18.0,29.64,1004.7,,,,,,,,,,,TRACE,,,,7/8 Mostly Cloudy,1300.0,,BKN,1300.0,,,,,,
KRDR,06-17-2007,16:48,SPECI,,100,13,,,9999,,19.0,17.0,29.62,1004.3,,,,,,,,,,,,,,,7/8 Mostly Cloudy,1200.0,,BKN,1200.0,,,,,,
KRDR,06-17-2007,16:28,SPECI,,80,10,,,9999,Light Drizzle,19.0,17.0,29.66,1005.6,51,,,,,,,,,,,,,,8/8 Overcast,1000.0,,OVC,1000.0,,,,,,
KRDR,06-17-2007,16:05,SPECI,,40,7,,,9999,,19.0,17.0,29.71,1007.2,,,,,,,,,,,,,,,8/8 Overcast,800.0,,OVC,800.0,,,,,,
KRDR,06-17-2007,16:00,METAR,,60,9,,,9999,,19.0,17.0,29.70,1006.8,,,,,,,,,,,,,,,8/8 Overcast,900.0,,OVC,900.0,,,,,,
KRDR,06-17-2007,15:43,SPECI,,60,7,,,9999,,19.0,17.0,29.71,1007.1,,,,,,,,,,,,,,,8/8 Overcast,900.0,,OVC,900.0,,,,,,
KRDR,06-17-2007,15:00,METAR,,80,13,,,9999,,19.0,16.0,29.70,1006.9,,,,,,,,,,,,TRACE,,,8/8 Overcast,1000.0,,OVC,1000.0,,,,,,
KRDR,06-17-2007,14:38,SPECI,,90,11,,,9999,,19.0,16.0,29.71,1007.1,,,,,,,,,,,,,,,8/8 Overcast,900.0,,OVC,1400.0,,,,,,
KRDR,06-17-2007,14:25,METAR,,90,12,,,9999,,19.0,16.0,29.73,1008.0,,,,,,,,,,,,,,,8/8 Overcast,1900.0,,OVC,2800.0,,,,,,
KRDR,06-17-2007,14:00,METAR,,90,10,,,9999,,18.0,16.0,29.75,1008.6,,,,,,,,,,,TRACE,,,,Clear,72000.0,,,73000.0,,,,,,
KRDR,06-17-2007,13:01,SPECI,,110,9,,,9999,,18.0,16.0,29.77,1009.1,,,,,,,,,,,,,,,Clear,72000.0,,,73000.0,,,,,,
KRDR,06-17-2007,13:00,METAR,,110,8,,,9999,,18.0,16.0,29.77,1009.1,,,,,,,,,,,TRACE,,,,Clear,72000.0,,,73000.0,,,,,,
KRDR,06-17-2007,12:49,SPECI,,100,8,,,9999,,18.0,16.0,29.77,1009.1,,,,,,,,,,,,,,,Clear,72000.0,,,73000.0,,,,,,
KRDR,06-17-2007,12:00,METAR,,110,11,,,9999,,17.0,16.0,29.76,1008.8,,,,,,,,,,,,,.31 IN,.31 IN,2/8 Mostly Clear,72000.0,,FEW,9900.0,,,,,,
KRDR,06-17-2007,11:00,METAR,,80,6,,,9999,,17.0,16.0,29.83,1011.0,,,,,,,,,,,.18 IN,,,,2/8 Mostly Clear,72000.0,,FEW,11000.0,,,,,,
KRDR,06-17-2007,10:29,SPECI,,70,6,,,6400,Rain/Mist,17.0,16.0,29.83,1011.1,62,10,,,,,,,,,,,,,8/8 Overcast,4900.0,,OVC,5000.0,,,,,,
KRDR,06-17-2007,10:17,SPECI,,90,7,,,6400,Rain/Mist,17.0,16.0,29.87,1012.4,62,10,,,,,,,,,,,,,8/8 Overcast,4900.0,,OVC,5000.0,,,,,,
KRDR,06-17-2007,10:00,METAR,,140,4,,,9999,Rain/Mist,18.0,16.0,29.89,1013.1,62,10,,,,,,,,,.13 IN,,,,8/8 Overcast,4300.0,,OVC,4400.0,,,,,,
KRDR,06-17-2007,09:41,SPECI,,130,5,,,9999,Light Rain,18.0,16.0,29.88,1012.9,61,,,,,,,,,,,,,,8/8 Overcast,3700.0,,OVC,3800.0,,,,,,
KRDR,06-17-2007,09:31,SPECI,,140,6,,,9999,Dry Thunderstorm/Light Rain,18.0,16.0,29.88,1012.7,91,61,,,,,,,,,,,,,8/8 Overcast,3700.0,,OVC,3800.0,,,,,,
KRDR,06-17-2007,09:20,METAR,,130,6,,,9999,Dry Thunderstorm/Light Rain,18.0,15.0,29.86,1012.1,91,61,,,,,,,,,,,,,7/8 Mostly Cloudy,3700.0,,BKN,3800.0,,,,,,
KRDR,06-17-2007,09:06,SPECI,,30,4,,,9999,Dry Thunderstorm/Light Rain,18.0,16.0,29.85,1011.7,91,61,,,,,,,,,,,,,4/8 Partly Cloudy,72000.0,,SCT,3200.0,,,,,,
KRDR,06-17-2007,09:00,METAR,,130,8,,,9999,,19.0,15.0,29.84,1011.6,,,,,,,,,,,TRACE,TRACE,,,Clear,72000.0,,,73000.0,,,,,,
KRDR,06-17-2007,08:47,SPECI,,110,11,,,9999,,19.0,15.0,29.84,1011.5,,,,,,,,,,,,,,,Clear,72000.0,,,73000.0,,,,,,
KRDR,06-17-2007,08:00,METAR,,100,6,,,9999,,19.0,15.0,29.87,1012.4,,,,,,,,,,,,,,,7/8 Mostly Cloudy,10000.0,,BKN,9900.0,,,,,,
KRDR,06-17-2007,07:00,METAR,,110,8,,,9999,,19.0,15.0,29.90,1013.5,,,,,,,,,,,,,,,4/8 Partly Cloudy,72000.0,,SCT,9900.0,,,,,,
KRDR,06-17-2007,06:00,METAR,,130,6,,,9999,,19.0,16.0,29.94,1014.6,,,,,,,,,,,TRACE,,TRACE,,2/8 Mostly Clear,72000.0,,FEW,2900.0,,,,,,
KRDR,06-17-2007,05:41,SPECI,,140,5,,,9999,,19.0,16.0,29.95,1015.1,,,,,,,,,,,,,,,Clear,72000.0,,,73000.0,,,,,,
KRDR,06-17-2007,05:07,SPECI,,150,4,,,9999,,20.0,16.0,29.97,1015.8,,,,,,,,,,,,,,,4/8 Partly Cloudy,72000.0,,SCT,11000.0,,,,,,
KRDR,06-17-2007,05:00,METAR,,140,4,,,9999,,20.0,15.0,29.98,1015.9,,,,,,,,,,,,,,,7/8 Mostly Cloudy,11000.0,,BKN,11000.0,,,,,,
KRDR,06-17-2007,04:00,METAR,,130,5,,,9999,,20.0,15.0,29.97,1015.8,,,,,,,,,,,,,,,Clear,72000.0,,,73000.0,,,,,,
KRDR,06-17-2007,03:00,METAR,,100,6,,,9999,,22.0,15.0,29.96,1015.5,,,,,,,,,,,,,,,7/8 Mostly Cloudy,12000.0,,BKN,12000.0,,,,,,
KRDR,06-17-2007,02:00,METAR,,100,5,,,9999,,23.0,14.0,29.96,1015.6,,,,,,,,,,,,,,,Clear,72000.0,,,73000.0,,,,,,
KRDR,06-17-2007,01:00,METAR,,,5,,,9999,,24.0,14.0,29.97,1015.8,,,,,,,,,,,,,,,Clear,72000.0,,,73000.0,,,,,,
KRDR,06-17-2007,00:00,METAR,,,5,,,9999,,25.0,14.0,29.98,1015.9,,,,,,,,,,,,,,,2/8 Mostly Clear,72000.0,,FEW,5000.0,,,,,,
KRDR,06-16-2007,23:00,METAR,,170,2,,,9999,,25.0,14.0,30.00,1016.6,,,,,,,,,,,,,,,2/8 Mostly Clear,72000.0,,FEW,6900.0,,,,,,
KRDR,06-16-2007,22:00,METAR,,,0,,,9999,,25.0,14.0,30.02,1017.4,,,,,,,,,,,,,,,4/8 Partly Cloudy,72000.0,,SCT,6400.0,,,,,,
KRDR,06-16-2007,21:00,METAR,,,3,,,9999,,24.0,14.0,30.03,1017.8,,,,,,,,,,,,,,,7/8 Mostly Cloudy,25000.0,,SCT,5400.0,BKN,25000.0,,,,
KRDR,06-16-2007,20:00,METAR,,350,5,,,9999,,25.0,14.0,30.05,1018.3,,,,,,,,,,,,,,,7/8 Mostly Cloudy,25000.0,,SCT,5000.0,BKN,25000.0,,,,
KRDR,06-16-2007,19:00,METAR,,,5,,,9999,,24.0,14.0,30.05,1018.5,,,,,,,,,,,,,,,4/8 Partly Cloudy,72000.0,,SCT,4000.0,SCT,18000.0,,,,
KRDR,06-16-2007,18:00,METAR,,,2,,,9999,,23.0,16.0,30.06,1018.6,,,,,,,,,,,,,,,4/8 Partly Cloudy,72000.0,,SCT,3000.0,SCT,18000.0,,,,
KRDR,06-16-2007,17:00,METAR,,280,4,,,9999,,22.0,16.0,30.06,1018.7,,,,,,,,,,,,,,,4/8 Partly Cloudy,72000.0,,SCT,2500.0,SCT,25000.0,,,,
KRDR,06-16-2007,16:00,METAR,,,3,,,9999,,21.0,15.0,30.05,1018.5,,,,,,,,,,,,,,,4/8 Partly Cloudy,72000.0,,FEW,2500.0,SCT,25000.0,,,,
KRDR,06-16-2007,15:00,METAR,,350,5,,,9999,,20.0,15.0,30.05,1018.3,,,,,,,,,,,,,,,2/8 Mostly Clear,72000.0,,FEW,2000.0,,,,,,
KRDR,06-16-2007,14:00,METAR,,340,5,,,9999,,18.0,15.0,30.04,1018.2,,,,,,,,,,,,,,,2/8 Mostly Clear,72000.0,,FEW,1500.0,,,,,,
KRDR,06-16-2007,13:00,METAR,,300,4,,,9999,,17.0,15.0,30.04,1018.1,,,,,,,,,,,,,,,Clear,72000.0,,,73000.0,,,,,,
KRDR,06-16-2007,12:00,METAR,,230,3,,,9999,,14.0,14.0,30.02,1017.5,,,,,,,,,,,,,,.01 IN,Clear,72000.0,,,73000.0,,,,,,
KRDR,06-16-2007,11:00,METAR,,250,3,,,2000,Mist,12.0,11.0,30.02,1017.3,10,,,,,,,,,,,,,,Clear,72000.0,,,73000.0,,,,,,
KRDR,06-16-2007,10:55,METAR,,260,3,,,3200,Mist,11.0,11.0,30.02,1017.3,10,,,,,,,,,,,,,,Clear,72000.0,,,73000.0,,,,,,
KRDR,06-16-2007,10:53,SPECI,,260,3,,,2400,Mist,12.0,11.0,30.02,1017.3,10,,,,,,,,,,,,,,Clear,72000.0,,,73000.0,,,,,,
KRDR,06-16-2007,10:45,METAR,,260,2,,,1200,Mist,12.0,11.0,30.01,1017.2,10,,,,,,,,,,,,,,Clear,72000.0,,,73000.0,,,,,,
KRDR,06-16-2007,10:43,SPECI,,270,2,,,1600,Mist,12.0,12.0,30.01,1017.2,10,,,,,,,,,,,,,,Clear,72000.0,,,73000.0,,,,,,
KRDR,06-16-2007,10:41,SPECI,,,0,,,2800,Mist,12.0,12.0,30.01,1017.2,10,,,,,,,,,,,,,,Clear,72000.0,,,73000.0,,,,,,
KRDR,06-16-2007,10:00,METAR,,270,3,,,9999,,12.0,12.0,30.00,1016.9,,,,,,,,,,,,,,,Clear,72000.0,,,73000.0,,,,,,
KRDR,06-16-2007,09:37,SPECI,,280,2,,,9999,,12.0,12.0,30.01,1017.0,,,,,,,,,,,,,,,Clear,72000.0,,,73000.0,,,,,,
KRDR,06-16-2007,09:15,SPECI,,270,4,,,9999,,12.0,12.0,30.01,1017.0,,,,,,,,,,,,,,,Clear,72000.0,,,73000.0,,,,,,
KRDR,06-16-2007,09:00,METAR,,,0,,,9999,,13.0,12.0,30.01,1017.0,,,,,,,,,,,,,,,Clear,72000.0,,,73000.0,,,,,,
KRDR,06-16-2007,08:00,METAR,,290,3,,,9999,,14.0,13.0,30.00,1016.6,,,,,,,,,,,,,,,Clear,72000.0,,,73000.0,,,,,,
KRDR,06-16-2007,07:00,METAR,,270,5,,,9999,,14.0,13.0,29.99,1016.5,,,,,,,,,,,,,,,Clear,72000.0,,,73000.0,,,,,,
KRDR,06-16-2007,06:00,METAR,,300,6,,,9999,,15.0,14.0,30.00,1016.7,,,,,,,,,,,,,,,Clear,72000.0,,,73000.0,,,,,,
KRDR,06-16-2007,05:00,METAR,,280,5,,,9999,,16.0,15.0,29.99,1016.3,,,,,,,,,,,,,,,Clear,72000.0,,,73000.0,,,,,,
KRDR,06-16-2007,04:00,METAR,,250,6,,,9999,,16.0,15.0,29.97,1015.9,,,,,,,,,,,,,,,4/8 Partly Cloudy,72000.0,,FEW,12000.0,SCT,25000.0,,,,
KRDR,06-16-2007,03:00,METAR,,250,7,,,9999,,18.0,15.0,29.96,1015.4,,,,,,,,,,,,,,,7/8 Mostly Cloudy,12000.0,,BKN,12000.0,BKN,25000.0,,,,
KRDR,06-16-2007,02:00,METAR,,260,9,,,9999,,20.0,17.0,29.96,1015.3,,,,,,,,,,,,,,,7/8 Mostly Cloudy,12000.0,,FEW,4000.0,BKN,12000.0,BKN,25000.0,,
KRDR,06-16-2007,01:00,METAR,,240,9,,,9999,,20.0,18.0,29.96,1015.3,,,,,,,,,,,,,,,8/8 Overcast,12000.0,,FEW,3000.0,BKN,12000.0,OVC,25000.0,,
KRDR,06-16-2007,00:00,METAR,,240,6,,,9999,,21.0,16.0,29.95,1015.1,,,,,,,,,,,,,.01 IN,,8/8 Overcast,11000.0,,FEW,3000.0,BKN,11000.0,OVC,25000.0,,
KRDR,06-15-2007,23:00,METAR,,260,6,,,9999,,22.0,15.0,29.94,1014.7,,,,,,,,,,,,,,,7/8 Mostly Cloudy,25000.0,,FEW,3000.0,SCT,12000.0,BKN,25000.0,,
KRDR,06-15-2007,22:00,METAR,,290,5,,,9999,,22.0,14.0,29.93,1014.5,,,,,,,,,,,,,,,7/8 Mostly Cloudy,25000.0,,FEW,3000.0,SCT,11000.0,BKN,25000.0,,
KRDR,06-15-2007,21:00,METAR,,290,7,,,9999,,23.0,15.0,29.94,1014.8,,,,,,,,,,,,.01 IN,,,7/8 Mostly Cloudy,12000.0,,FEW,3000.0,SCT,8900.0,BKN,12000.0,BKN,25000.0
KRDR,06-15-2007,20:00,METAR,,270,6,,,9999,,22.0,16.0,29.94,1014.8,,,,,,,,,,,,,,,7/8 Mostly Cloudy,25000.0,,FEW,8900.0,SCT,12000.0,BKN,25000.0,,
KRDR,06-15-2007,19:00,METAR,,250,6,,,9999,,21.0,16.0,29.94,1014.8,,,,,,,,,,,.01 IN,,,,7/8 Mostly Cloudy,25000.0,,SCT,12000.0,BKN,25000.0,,,,
KRDR,06-15-2007,18:00,METAR,,230,5,,,9999,,19.0,16.0,29.94,1014.8,,,,,,,,,,,TRACE,,TRACE,,7/8 Mostly Cloudy,25000.0,,FEW,8900.0,SCT,12000.0,BKN,25000.0,,
KRDR,06-15-2007,17:27,SPECI,,290,4,,,9999,,19.0,15.0,29.94,,,,,,,,,,,,,,,,7/8 Mostly Cloudy,15000.0,,SCT,11000.0,BKN,15000.0,BKN,25000.0,,
KRDR,06-15-2007,17:05,SPECI,,290,3,,,9999,Rain,19.0,14.0,29.93,,,,,61,,,,,,,,,,,7/8 Mostly Cloudy,12000.0,,SCT,9400.0,BKN,12000.0,BKN,25000.0,,
KRDR,06-15-2007,17:00,METAR,,280,5,,,9999,,19.0,14.0,29.94,1014.6,,,,,,,,,,,TRACE,,,,7/8 Mostly Cloudy,12000.0,,SCT,8900.0,BKN,12000.0,BKN,25000.0,,
KRDR,06-15-2007,16:20,METAR,,290,5,,,9999,,19.0,15.0,29.93,,,,,,,,,,,,,,,,7/8 Mostly Cloudy,25000.0,,FEW,8900.0,SCT,12000.0,BKN,25000.0,,
KRDR,06-15-2007,16:02,SPECI,,280,5,,,9999,,19.0,15.0,29.92,,,,,,,,,,,,,,,,7/8 Mostly Cloudy,12000.0,,SCT,9400.0,BKN,12000.0,,,,
KRDR,06-15-2007,16:00,METAR,,280,6,,,9999,,19.0,15.0,29.92,1014.1,,,,,,,,,,,,,,,8/8 Overcast,12000.0,,SCT,9400.0,OVC,12000.0,,,,
KRDR,06-15-2007,15:00,METAR,,250,7,,,9999,,19.0,15.0,29.92,1014.1,,,,,,,,,,,,TRACE,,,8/8 Overcast,9500.0,,BKN,9400.0,OVC,12000.0,,,,
KRDR,06-15-2007,14:00,METAR,,280,8,,,9999,,18.0,15.0,29.90,1013.6,,,,,,,,,,,TRACE,,,,8/8 Overcast,9000.0,,BKN,8900.0,BKN,13000.0,OVC,25000.0,,
KRDR,06-15-2007,13:34,SPECI,,290,7,,,9999,Rain,19.0,15.0,29.90,,,,,61,,,,,,,,,,,7/8 Mostly Cloudy,13000.0,,SCT,9400.0,BKN,13000.0,BKN,25000.0,,
KRDR,06-15-2007,13:00,METAR,,290,8,,,9999,,19.0,16.0,29.89,1012.9,,,,,,,,,,,,,,,7/8 Mostly Cloudy,13000.0,,FEW,7900.0,BKN,13000.0,BKN,25000.0,,
KRDR,06-15-2007,12:00,METAR,,260,9,,,9999,,19.0,17.0,29.88,1012.6,,,,,,,,,,,,,TRACE,,7/8 Mostly Cloudy,15000.0,,FEW,1200.0,BKN,15000.0,BKN,25000.0,,
KRDR,06-15-2007,11:00,METAR,,230,5,,,9999,,19.0,18.0,29.84,1011.5,,,,,,,,,,,,,,,7/8 Mostly Cloudy,12000.0,,FEW,1100.0,BKN,12000.0,BKN,25000.0,,
KRDR,06-15-2007,10:00,METAR,,200,5,,,9999,,19.0,19.0,29.83,1011.0,,,,,,,,,,,TRACE,,,,Clear,72000.0,,,73000.0,,,,,,
KRDR,06-15-2007,09:11,SPECI,,190,7,,,9999,,19.0,19.0,29.83,1011.0,,,,,,,,,,,,,,,Clear,72000.0,,,73000.0,,,,,,
KRDR,06-15-2007,09:09,SPECI,,190,6,,,9999,,19.0,19.0,29.83,1011.1,,,,,,,,,,,,,,,Clear,72000.0,,,73000.0,,,,,,
KRDR,06-15-2007,09:00,METAR,,220,5,,,9999,,19.0,19.0,29.83,1011.1,,,,,,,,,,,,,,,Clear,72000.0,,,73000.0,,,,,,
KRDR,06-15-2007,08:00,METAR,,180,6,,,9999,,19.0,19.0,29.82,1010.9,,,,,,,,,,,,,,,Clear,4900.0,,,73000.0,,,,,,
KRDR,06-15-2007,07:00,METAR,,190,5,,,9999,,19.0,19.0,29.81,1010.5,,,,,,,,,,,,,,,2/8 Mostly Clear,72000.0,,FEW,4400.0,FEW,25000.0,,,,
KRDR,06-15-2007,06:00,METAR,,190,6,,,9999,,19.0,19.0,29.81,1010.4,,,,,,,,,,,,,,,2/8 Mostly Clear,72000.0,,FEW,25000.0,,,,,,
KRDR,06-15-2007,05:00,METAR,,180,6,,,9999,,19.0,19.0,29.83,1011.1,,,,,,,,,,,,,,,4/8 Partly Cloudy,72000.0,,FEW,4500.0,SCT,25000.0,,,,
KRDR,06-15-2007,04:00,METAR,,160,8,,,9999,,20.0,19.0,29.83,1011.0,,,,,,,,,,,,,,,7/8 Mostly Cloudy,25000.0,,SCT,4500.0,SCT,12000.0,BKN,25000.0,,
KRDR,06-15-2007,03:00,METAR,,140,7,,,9999,,21.0,20.0,29.84,1011.4,,,,,,,,,,,,,,,7/8 Mostly Cloudy,25000.0,,FEW,1500.0,SCT,4500.0,BKN,25000.0,,
KRDR,06-15-2007,02:00,METAR,,150,8,,,9999,,22.0,20.0,29.84,1011.4,,,,,,,,,,,,,,,7/8 Mostly Cloudy,25000.0,,FEW,1500.0,SCT,4500.0,BKN,25000.0,,
KRDR,06-15-2007,01:00,METAR,,160,9,,,9999,,23.0,20.0,29.84,1011.6,,,,,,,,,,,,,,,7/8 Mostly Cloudy,4400.0,,FEW,1600.0,BKN,4500.0,BKN,25000.0,,
KRDR,06-15-2007,00:00,METAR,,160,12,,,9999,,23.0,19.0,29.85,1011.6,,,,,,,,,,,,,,,7/8 Mostly Cloudy,3900.0,,SCT,1700.0,BKN,4000.0,BKN,25000.0,,
KRDR,06-14-2007,23:00,METAR,,130,12,,,9999,,23.0,20.0,29.85,1011.9,,,,,,,,,,,,,,,7/8 Mostly Cloudy,25000.0,,SCT,1500.0,SCT,4000.0,BKN,25000.0,,
KRDR,06-14-2007,22:05,SPECI,,120,12,,,9999,,24.0,20.0,29.86,,,,,,,,,,,,,,,,7/8 Mostly Cloudy,25000.0,,SCT,2400.0,SCT,4000.0,BKN,25000.0,,
KRDR,06-14-2007,22:00,METAR,,130,11,,,9999,,24.0,20.0,29.87,1012.3,,,,,,,,,,,,,,,7/8 Mostly Cloudy,2400.0,,SCT,1500.0,BKN,2400.0,BKN,3500.0,,
KRDR,06-14-2007,21:24,SPECI,,130,9,,,9999,,23.0,20.0,29.87,,,,,,,,,,,,,,,,7/8 Mostly Cloudy,2600.0,,BKN,2600.0,BKN,4000.0,,,,
KRDR,06-14-2007,21:08,SPECI,,120,10,,,9999,,23.0,20.0,29.88,,,,,,,,,,,,,,,,7/8 Mostly Cloudy,4100.0,,FEW,1300.0,SCT,2000.0,BKN,4200.0,,
KRDR,06-14-2007,21:00,METAR,,120,10,,,9999,,23.0,19.0,29.88,1012.7,,,,,,,,,,,,,,,8/8 Overcast,1900.0,,SCT,1200.0,BKN,1900.0,OVC,3000.0,,
KRDR,06-14-2007,20:39,SPECI,,120,9,,,9999,,22.0,19.0,29.89,,,,,,,,,,,,,,,,8/8 Overcast,1700.0,,SCT,1200.0,BKN,1700.0,OVC,3000.0,,
KRDR,06-14-2007,20:19,SPECI,,130,8,,,9999,,22.0,19.0,29.89,,,,,,,,,,,,,,,,8/8 Overcast,2900.0,,OVC,2900.0,,,,,,
KRDR,06-14-2007,20:00,METAR,,110,9,,,9999,,21.0,19.0,29.89,1013.2,,,,,,,,,,,,,,,8/8 Overcast,2100.0,,FEW,1600.0,BKN,2100.0,OVC,3500.0,,
KRDR,06-14-2007,19:00,METAR,,100,10,,,9999,,21.0,19.0,29.91,1013.7,,,,,,,,,,,,,,,8/8 Overcast,1400.0,,FEW,800.0,BKN,1400.0,OVC,3000.0,,
KRDR,06-14-2007,18:00,METAR,,140,11,17.0,,9999,,22.0,19.0,29.92,1013.9,,,,,,,,,,,,,TRACE,,8/8 Overcast,1400.0,,FEW,700.0,OVC,1400.0,,,,
KRDR,06-14-2007,17:34,SPECI,,120,11,,,9999,,22.0,20.0,29.92,,,,,,,,,,,,,,,,8/8 Overcast,1300.0,,SCT,700.0,OVC,1300.0,,,,
KRDR,06-14-2007,17:00,METAR,,110,8,,,9999,,21.0,19.0,29.92,1014.2,,,,,,,,,,,TRACE,,,,8/8 Overcast,800.0,,SCT,500.0,BKN,800.0,OVC,2400.0,,
KRDR,06-14-2007,16:43,SPECI,,110,9,,,9999,Rain,21.0,19.0,29.92,,,,,61,,,,,,,,,,,8/8 Overcast,800.0,,BKN,800.0,OVC,3000.0,,,,
KRDR,06-14-2007,16:39,SPECI,,120,11,,,9999,Rain,21.0,20.0,29.92,,,,,61,,,,,,,,,,,8/8 Overcast,800.0,,BKN,800.0,OVC,3000.0,,,,
KRDR,06-14-2007,16:34,SPECI,,110,9,,,9999,,21.0,20.0,29.93,,,,,,,,,,,,,,,,8/8 Overcast,800.0,,SCT,400.0,BKN,800.0,OVC,3000.0,,
KRDR,06-14-2007,16:30,METAR,,100,9,,,9999,Drizzle,21.0,20.0,29.93,,,,,51,,,,,,,,,,,8/8 Overcast,900.0,,SCT,500.0,BKN,900.0,OVC,3300.0,,
KRDR,06-14-2007,16:21,SPECI,,110,8,,,9999,Drizzle,21.0,19.0,29.93,,,,,51,,,,,,,,,,,8/8 Overcast,600.0,,BKN,600.0,OVC,2500.0,,,,
KRDR,06-14-2007,16:00,METAR,,100,7,,,9999,,20.0,19.0,29.94,1014.6,,,,,,,,,,,,,,,8/8 Overcast,800.0,,OVC,800.0,,,,,,
KRDR,06-14-2007,15:00,METAR,,80,7,,,9999,,20.0,20.0,29.94,1014.7,,,,,,,,,,,,TRACE,,,8/8 Overcast,700.0,,BKN,700.0,OVC,1200.0,,,,
KRDR,06-14-2007,14:00,METAR,,80,4,,,9999,,19.0,19.0,29.96,1015.3,,,,,,,,,,,,,,,8/8 Overcast,600.0,,BKN,600.0,BKN,1200.0,OVC,15000.0,,
KRDR,06-14-2007,13:48,SPECI,,90,4,,,9999,,19.0,19.0,29.96,,,,,,,,,,,,,,,,8/8 Overcast,600.0,,BKN,600.0,BKN,1200.0,OVC,15000.0,,
KRDR,06-14-2007,13:39,SPECI,,40,4,,,9999,,19.0,19.0,29.97,,,,,,,,,,,,,,,,8/8 Overcast,1200.0,,FEW,100.0,BKN,1200.0,OVC,15000.0,,
KRDR,06-14-2007,13:32,SPECI,,30,5,,,9999,Mist,19.0,19.0,29.96,,,,,10,,,,,,,,,,,8/8 Overcast,2000.0,,SCT,100.0,BKN,2000.0,OVC,15000.0,,
KRDR,06-14-2007,13:23,SPECI,,20,5,,,8000,Mist,18.0,18.0,29.96,,,,,10,,,,,,,,,,,8/8 Overcast,100.0,,BKN,100.0,OVC,1600.0,,,,
KRDR,06-14-2007,13:09,SPECI,,360,6,,,1200,Mist,18.0,18.0,29.97,,,,,10,,,,,,,,,,,8/8 Overcast,200.0,,BKN,200.0,OVC,1200.0,,,,
KRDR,06-14-2007,13:00,METAR,,20,4,,,4000,Mist,18.0,18.0,29.97,1015.7,,,,10,,,,,,,TRACE,,,,8/8 Overcast,100.0,,BKN,100.0,OVC,1300.0,,,,
KRDR,06-14-2007,12:49,SPECI,,50,4,,,2400,Mist,18.0,18.0,29.97,,,,,10,,,,,,,,,,,8/8 Overcast,1200.0,,SCT,100.0,OVC,1200.0,,,,
KRDR,06-14-2007,12:46,SPECI,,30,4,,,1200,Drizzle/Mist,18.0,18.0,29.97,,,,,51,10,,,,,,,,,,8/8 Overcast,1200.0,,SCT,100.0,OVC,1200.0,,,,
KRDR,06-14-2007,12:36,SPECI,,350,5,,,1200,Drizzle/Mist,18.0,18.0,29.97,,,,,51,10,,,,,,,,,,8/8 Overcast,100.0,,BKN,100.0,OVC,1200.0,,,,
KRDR,06-14-2007,12:27,SPECI,,10,4,,,2800,Mist,18.0,18.0,29.96,,,,,10,,,,,,,,,,,8/8 Overcast,100.0,,BKN,100.0,OVC,1200.0,,,,
KRDR,06-14-2007,12:18,SPECI,,50,2,,,2800,Mist,18.0,18.0,29.97,,,,,10,,,,,,,,,,,8/8 Overcast,200.0,,BKN,200.0,OVC,1200.0,,,,
KRDR,06-14-2007,12:16,SPECI,,80,3,,,1600,Mist,18.0,18.0,29.97,,,,,10,,,,,,,,,,,8/8 Overcast,200.0,,OVC,200.0,,,,,,
KRDR,06-14-2007,12:00,METAR,,50,3,,,800,Fog or Ice Fog,18.0,18.0,29.96,1015.6,,,,45,,,,,,,,,,.22 IN,Sky Obscured (Unable to Estimate),100.0,100.0,,100.0,,,,,,
KRDR,06-14-2007,11:22,SPECI,,30,4,,,200,Fog or Ice Fog,17.0,17.0,29.97,,,,,45,,,,,,,,,,,Sky Obscured (Unable to Estimate),100.0,100.0,,100.0,,,,,,
KRDR,06-14-2007,11:10,SPECI,,20,3,,,400,Fog or Ice Fog,17.0,17.0,29.97,,,,,45,,,,,,,,,,,Sky Obscured (Unable to Estimate),100.0,100.0,,100.0,,,,,,
KRDR,06-14-2007,11:03,SPECI,,10,4,,,800,Fog or Ice Fog,17.0,17.0,29.97,,,,,44,,,,,,,,,,,8/8 Overcast,200.0,,FEW,100.0,OVC,200.0,,,,
KRDR,06-14-2007,11:00,METAR,,350,5,,,1200,Mist,17.0,17.0,29.97,1015.8,,,,10,,,,,,,TRACE,,,,8/8 Overcast,200.0,,FEW,100.0,OVC,200.0,,,,
KRDR,06-14-2007,10:38,SPECI,,330,3,,,9999,,17.0,17.0,29.98,1016.0,,,,,,,,,,,,,,,4/8 Partly Cloudy,72000.0,,SCT,100.0,,,,,,
KRDR,06-14-2007,10:32,SPECI,,350,3,,,9999,,17.0,17.0,29.98,1015.9,,,,,,,,,,,,,,,7/8 Mostly Cloudy,200.0,,BKN,200.0,,,,,,
KRDR,06-14-2007,10:25,METAR,,20,3,,,9999,Light Drizzle,17.0,16.0,29.97,1015.8,51,,,,,,,,,,,,,,8/8 Overcast,200.0,,OVC,200.0,,,,,,
KRDR,06-14-2007,10:22,SPECI,,10,3,,,9999,Light Drizzle,17.0,16.0,29.97,1015.7,51,,,,,,,,,,,,,,8/8 Overcast,200.0,,OVC,200.0,,,,,,
KRDR,06-14-2007,10:19,SPECI,,20,2,,,9999,,16.0,16.0,29.97,1015.7,,,,,,,,,,,,,,,7/8 Mostly Cloudy,200.0,,BKN,200.0,,,,,,
KRDR,06-14-2007,10:14,SPECI,,,0,,,9999,Light Drizzle,16.0,16.0,29.97,1015.7,51,,,,,,,,,,,,,,7/8 Mostly Cloudy,200.0,,BKN,200.0,,,,,,
KRDR,06-14-2007,10:07,SPECI,,40,2,,,9999,,16.0,16.0,29.97,1015.7,,,,,,,,,,,,,,,7/8 Mostly Cloudy,300.0,,BKN,300.0,,,,,,
KRDR,06-14-2007,10:04,SPECI,,,0,,,9999,,16.0,16.0,29.97,1015.8,,,,,,,,,,,,,,,4/8 Partly Cloudy,72000.0,,SCT,300.0,,,,,,
KRDR,06-14-2007,10:00,METAR,,340,3,,,2400,Mist,16.0,15.0,29.97,1015.8,10,,,,,,,,,,TRACE,,,,Clear,72000.0,,,73000.0,,,,,,
KRDR,06-14-2007,09:56,SPECI,,350,3,,,3200,Mist,16.0,16.0,29.97,1015.8,10,,,,,,,,,,,,,,Clear,72000.0,,,73000.0,,,,,,
KRDR,06-14-2007,09:48,SPECI,,330,4,,,2800,Mist,16.0,15.0,29.97,1015.8,10,,,,,,,,,,,,,,Clear,72000.0,,,73000.0,,,,,,
KRDR,06-14-2007,09:44,SPECI,,340,3,,,3200,Mist,15.0,15.0,29.97,1015.9,10,,,,,,,,,,,,,,Clear,72000.0,,,73000.0,,,,,,
KRDR,06-14-2007,09:43,SPECI,,340,3,,,2800,Mist,15.0,15.0,29.98,1015.9,10,,,,,,,,,,,,,,Clear,72000.0,,,73000.0,,,,,,
KRDR,06-14-2007,09:39,SPECI,,340,2,,,2000,Mist,15.0,15.0,29.98,1015.9,10,,,,,,,,,,,,,,Clear,72000.0,,,73000.0,,,,,,
KRDR,06-14-2007,09:38,SPECI,,,0,,,1600,Mist,15.0,15.0,29.98,1015.9,10,,,,,,,,,,,,,,Clear,72000.0,,,73000.0,,,,,,
KRDR,06-14-2007,09:35,SPECI,,330,3,,,2000,Mist,15.0,15.0,29.98,1015.9,10,,,,,,,,,,,,,,Clear,72000.0,,,73000.0,,,,,,
KRDR,06-14-2007,09:33,SPECI,,320,4,,,2800,Mist,15.0,15.0,29.98,1016.0,10,,,,,,,,,,,,,,Clear,72000.0,,,73000.0,,,,,,
KRDR,06-14-2007,09:27,SPECI,,50,2,,,3200,Mist,16.0,16.0,29.98,1016.0,10,,,,,,,,,,,,,,Clear,72000.0,,,73000.0,,,,,,
KRDR,06-14-2007,09:25,METAR,,70,2,,,2800,Mist,15.0,15.0,29.98,1016.0,10,,,,,,,,,,,,,,Clear,72000.0,,,73000.0,,,,,,
KRDR,06-14-2007,09:23,SPECI,,70,3,,,2400,Mist,15.0,15.0,29.98,1016.0,10,,,,,,,,,,,,,,Clear,72000.0,,,73000.0,,,,,,
KRDR,06-14-2007,09:20,METAR,,,0,,,2000,Mist,16.0,15.0,29.98,1016.0,,10,,,,,,,,,,,,,Clear,72000.0,,,73000.0,,,,,,
KRDR,06-14-2007,09:15,SPECI,,,0,,,1600,Mist,16.0,16.0,29.98,1016.0,,10,,,,,,,,,,,,,Clear,72000.0,,,73000.0,,,,,,
KRDR,06-14-2007,09:11,SPECI,,,0,,,1200,Mist,16.0,15.0,29.98,1016.0,,10,,,,,,,,,,,,,Clear,72000.0,,,73000.0,,,,,,
KRDR,06-14-2007,09:00,METAR,,,0,,,2000,Mist,16.0,15.0,29.98,1016.1,10,,,,,,,,,,TRACE,TRACE,,,Clear,72000.0,,,73000.0,,,,,,
KRDR,06-14-2007,08:53,SPECI,,,0,,,1600,Mist,15.0,15.0,29.98,1016.1,10,,,,,,,,,,,,,,Clear,72000.0,,,73000.0,,,,,,
KRDR,06-14-2007,08:50,METAR,,,0,,,2800,Mist,16.0,16.0,29.98,1016.1,10,,,,,,,,,,,,,,Clear,72000.0,,,73000.0,,,,,,
KRDR,06-14-2007,08:31,SPECI,,,0,,,4800,Mist,16.0,16.0,29.98,1016.2,10,,,,,,,,,,,,,,Clear,72000.0,,,73000.0,,,,,,
KRDR,06-14-2007,08:29,SPECI,,,0,,,3200,Mist,16.0,16.0,29.98,1016.1,10,,,,,,,,,,,,,,Clear,72000.0,,,73000.0,,,,,,
KRDR,06-14-2007,08:26,SPECI,,,0,,,2000,Mist,16.0,16.0,29.98,1016.1,10,,,,,,,,,,,,,,Clear,72000.0,,,73000.0,,,,,,
KRDR,06-14-2007,08:25,METAR,,,0,,,1600,Mist,16.0,16.0,29.98,1016.1,10,,,,,,,,,,,,,,Clear,72000.0,,,73000.0,,,,,,
KRDR,06-14-2007,08:12,SPECI,,,0,,,1200,Mist,16.0,16.0,29.98,1016.2,,10,,,,,,,,,,,,,Clear,72000.0,,,73000.0,,,,,,
KRDR,06-14-2007,08:09,SPECI,,,0,,,1600,Mist,16.0,16.0,29.98,1016.2,10,,,,,,,,,,,,,,Clear,72000.0,,,73000.0,,,,,,
KRDR,06-14-2007,08:05,SPECI,,340,3,,,2800,Mist,16.0,16.0,29.98,1016.1,10,,,,,,,,,,,,,,Clear,72000.0,,,73000.0,,,,,,
KRDR,06-14-2007,08:03,SPECI,,340,3,,,3200,Mist,16.0,16.0,29.98,1016.1,10,,,,,,,,,,,,,,Clear,72000.0,,,73000.0,,,,,,
KRDR,06-14-2007,08:00,METAR,,350,4,,,2400,Mist,16.0,16.0,29.98,1016.1,10,,,,,,,,,,,,,,Clear,72000.0,,,73000.0,,,,,,
KRDR,06-14-2007,07:51,SPECI,,350,4,,,2400,Mist,16.0,16.0,29.98,1016.1,10,,,,,,,,,,,,,,Clear,72000.0,,,73000.0,,,,,,
KRDR,06-14-2007,07:48,SPECI,,350,4,,,4000,Mist,16.0,16.0,29.98,1016.0,10,,,,,,,,,,,,,,Clear,72000.0,,,73000.0,,,,,,
KRDR,06-14-2007,07:35,SPECI,,350,3,,,9999,Mist,16.0,16.0,29.98,1016.0,10,,,,,,,,,,,,,,Clear,72000.0,,,73000.0,,,,,,
KRDR,06-14-2007,07:12,SPECI,,340,4,,,9999,Mist,16.0,16.0,29.98,1016.1,10,,,,,,,,,,,,,,Clear,72000.0,,,73000.0,,,,,,
KRDR,06-14-2007,07:10,SPECI,,340,4,,,4800,Mist,16.0,16.0,29.98,1016.1,10,,,,,,,,,,,,,,Clear,72000.0,,,73000.0,,,,,,
KRDR,06-14-2007,07:06,SPECI,,330,3,,,3200,Mist,16.0,16.0,29.98,1016.1,10,,,,,,,,,,,,,,Clear,72000.0,,,73000.0,,,,,,
KRDR,06-14-2007,07:01,SPECI,,340,4,,,4000,Mist,16.0,16.0,29.98,1016.2,10,,,,,,,,,,,,,,Clear,72000.0,,,73000.0,,,,,,
KRDR,06-14-2007,07:00,METAR,,350,3,,,9999,,17.0,16.0,29.99,1016.3,,,,,,,,,,,,,,,Clear,72000.0,,,73000.0,,,,,,
KRDR,06-14-2007,06:33,SPECI,,340,3,,,4800,Mist,16.0,16.0,29.99,1016.4,10,,,,,,,,,,,,,,Clear,72000.0,,,73000.0,,,,,,
KRDR,06-14-2007,06:31,SPECI,,340,3,,,4800,Mist,16.0,16.0,29.99,1016.4,10,,,,,,,,,,,,,,Clear,72000.0,,,73000.0,,,,,,
KRDR,06-14-2007,06:25,METAR,,340,4,,,3200,Mist,17.0,17.0,29.99,1016.3,10,,,,,,,,,,,,,,Clear,72000.0,,,73000.0,,,,,,
KRDR,06-14-2007,06:23,SPECI,,350,4,,,2400,Mist,17.0,17.0,29.99,1016.3,10,,,,,,,,,,,,,,Clear,72000.0,,,73000.0,,,,,,
KRDR,06-14-2007,06:22,SPECI,,350,4,,,2000,Mist,17.0,17.0,29.99,1016.3,10,,,,,,,,,,,,,,Clear,72000.0,,,73000.0,,,,,,
KRDR,06-14-2007,06:19,SPECI,,340,4,,,2000,Mist,17.0,17.0,29.99,1016.3,10,,,,,,,,,,,,,,Clear,72000.0,,,73000.0,,,,,,
KRDR,06-14-2007,06:16,SPECI,,340,3,,,2800,Mist,17.0,17.0,29.99,1016.3,10,,,,,,,,,,,,,,Clear,72000.0,,,73000.0,,,,,,
KRDR,06-14-2007,06:14,SPECI,,340,3,,,4000,Mist,17.0,17.0,29.99,1016.3,10,,,,,,,,,,,,,,Clear,72000.0,,,73000.0,,,,,,
KRDR,06-14-2007,06:00,METAR,,330,5,,,9999,Patchy Fog or Ice Fog,17.0,17.0,29.99,1016.4,,,,41,,,,,,,,,,,7/8 Mostly Cloudy,25000.0,,FEW,3000.0,SCT,8900.0,BKN,25000.0,,
KRDR,06-14-2007,05:00,METAR,,,0,,,9999,,17.0,16.0,30.00,1016.7,,,,,,,,,,,,,,,8/8 Overcast,25000.0,,FEW,3000.0,SCT,8900.0,OVC,25000.0,,
KRDR,06-14-2007,04:00,METAR,,110,2,,,9999,,19.0,18.0,30.00,1016.7,,,,,,,,,,,,,,,8/8 Overcast,9000.0,,FEW,1500.0,BKN,8900.0,OVC,25000.0,,
KRDR,06-14-2007,03:00,METAR,,350,4,,,9999,,19.0,18.0,30.00,1016.9,,,,,,,,,,,,,,,8/8 Overcast,9000.0,,FEW,1500.0,SCT,3500.0,OVC,8900.0,,
KRDR,06-14-2007,02:00,METAR,,360,4,,,9999,,20.0,19.0,30.01,1016.9,,,,,,,,,,,,,,,8/8 Overcast,7000.0,,FEW,1500.0,SCT,4500.0,OVC,6900.0,,
KRDR,06-14-2007,01:00,METAR,,340,6,,,9999,,21.0,19.0,30.00,1016.9,,,,,,,,,,,,,,,8/8 Overcast,6000.0,,FEW,1500.0,SCT,4500.0,OVC,5900.0,,
KRDR,06-14-2007,00:00,METAR,,10,4,,,9999,,21.0,19.0,30.00,1016.7,,,,,,,,,,,,,TRACE,,8/8 Overcast,4400.0,,SCT,1500.0,BKN,4500.0,OVC,15000.0,,
KRDR,06-13-2007,23:00,METAR,,20,4,,,9999,,21.0,19.0,30.00,1016.7,,,,,,,,,,,,,,,8/8 Overcast,15000.0,,SCT,1500.0,SCT,4500.0,OVC,15000.0,,
KRDR,06-13-2007,22:00,METAR,,30,6,,,9999,,21.0,19.0,30.00,1016.6,,,,,,,,,,,,,,,8/8 Overcast,15000.0,,FEW,800.0,SCT,4200.0,OVC,15000.0,,
KRDR,06-13-2007,21:18,SPECI,,350,8,,,9999,,21.0,19.0,30.01,,,,,,,,,,,,,,,,7/8 Mostly Cloudy,4100.0,,FEW,800.0,SCT,1700.0,BKN,4200.0,,
KRDR,06-13-2007,21:00,METAR,,340,8,,,9999,,21.0,19.0,30.01,1017.0,,,,,,,,,,,,TRACE,,,8/8 Overcast,1700.0,,FEW,700.0,OVC,1700.0,,,,
KRDR,06-13-2007,20:14,SPECI,,350,9,,,9999,,21.0,19.0,30.01,1017.1,,,,,,,,,,,,,,,8/8 Overcast,1700.0,,SCT,500.0,OVC,1700.0,,,,
KRDR,06-13-2007,20:00,METAR,,360,8,,,9999,,21.0,19.0,30.01,1017.1,,,,,,,,,,,,,,,8/8 Overcast,1200.0,,SCT,500.0,OVC,1200.0,,,,
KRDR,06-13-2007,19:00,METAR,,350,9,,,9999,,21.0,19.0,30.02,1017.3,,,,,,,,,,,TRACE,,,,8/8 Overcast,1100.0,,FEW,800.0,BKN,1100.0,OVC,5900.0,,
KRDR,06-13-2007,18:50,METAR,,350,6,,,9999,,21.0,19.0,30.01,,,,,,,,,,,,,,,,8/8 Overcast,1400.0,,FEW,800.0,BKN,1400.0,OVC,6400.0,,
KRDR,06-13-2007,18:06,SPECI,,20,5,,,9999,,20.0,19.0,30.01,,,,,,,,,,,,,,,,8/8 Overcast,2400.0,,FEW,1300.0,BKN,2400.0,OVC,6400.0,,
KRDR,06-13-2007,18:00,METAR,,,4,,,9999,Rain,20.0,19.0,30.01,1017.2,,,,61,,,,,,,.01 IN,,.22 IN,,8/8 Overcast,2400.0,,FEW,900.0,BKN,2400.0,OVC,5900.0,,
KRDR,06-13-2007,17:26,SPECI,,310,5,,,9999,Drizzle,21.0,19.0,30.01,,,,,51,,,,,,,,,,,8/8 Overcast,1500.0,,SCT,500.0,BKN,1500.0,OVC,5900.0,,
KRDR,06-13-2007,17:00,METAR,,240,3,,,9999,Drizzle,21.0,19.0,30.00,1016.8,,,,51,,,,,,,.02 IN,,,,8/8 Overcast,6000.0,,FEW,800.0,SCT,1200.0,OVC,5900.0,,
KRDR,06-13-2007,16:40,SPECI,,270,3,,,9999,Rain,21.0,19.0,30.00,,,,,61,,,,,,,,,,,8/8 Overcast,6000.0,,FEW,600.0,SCT,1600.0,OVC,5900.0,,
KRDR,06-13-2007,16:00,METAR,,220,4,,,8000,Rain/Mist,20.0,19.0,30.00,1016.7,,,,61,10,,,,,,.05 IN,,,,8/8 Overcast,900.0,,FEW,300.0,BKN,900.0,OVC,1200.0,,
KRDR,06-13-2007,15:37,SPECI,,230,5,,,9999,Rain,20.0,19.0,30.00,,,,,61,,,,,,,,,,,8/8 Overcast,900.0,,SCT,300.0,BKN,900.0,OVC,1800.0,,
KRDR,06-13-2007,15:06,SPECI,,210,9,,,9999,Rain,20.0,19.0,30.00,,,,,61,,,,,,,,,,,8/8 Overcast,700.0,,FEW,200.0,BKN,700.0,OVC,2300.0,,
KRDR,06-13-2007,15:00,METAR,,180,4,,,9999,Rain,20.0,19.0,30.00,1016.8,,,,61,,,,,,,.08 IN,.14 IN,,,8/8 Overcast,700.0,,SCT,200.0,BKN,700.0,OVC,1200.0,,
KRDR,06-13-2007,14:36,SPECI,,170,5,,,9999,Rain/Mist,20.0,19.0,30.00,,,,,61,10,,,,,,,,,,8/8 Overcast,400.0,,BKN,400.0,OVC,1300.0,,,,
KRDR,06-13-2007,14:15,SPECI,,160,4,,,6400,Rain/Mist,19.0,19.0,30.00,,,,,61,10,,,,,,,,,,8/8 Overcast,800.0,,BKN,800.0,OVC,1300.0,,,,
KRDR,06-13-2007,14:00,METAR,,160,4,,,9999,Rain,19.0,19.0,30.00,1016.9,,,,61,,,,,,,,,,,8/8 Overcast,500.0,,BKN,500.0,BKN,1300.0,OVC,5900.0,,
KRDR,06-13-2007,13:44,SPECI,,130,2,,,9999,Rain,19.0,19.0,30.00,,,,,61,,,,,,,,,,,8/8 Overcast,700.0,,BKN,700.0,OVC,5900.0,,,,
KRDR,06-13-2007,13:00,METAR,,140,2,,,9999,Rain,19.0,18.0,30.00,1016.7,,,,61,,,,,,,.03 IN,,,,8/8 Overcast,600.0,,BKN,600.0,OVC,1800.0,,,,
KRDR,06-13-2007,12:32,SPECI,,,0,,,9999,Rain,19.0,18.0,30.00,,,,,61,,,,,,,,,,,8/8 Overcast,2000.0,,SCT,200.0,OVC,2000.0,,,,
KRDR,06-13-2007,12:00,METAR,,170,3,,,9999,Rain,19.0,18.0,29.99,1016.5,,,,61,,,,,,,.04 IN,,.15 IN,.22 IN,8/8 Overcast,4900.0,,SCT,2400.0,OVC,5000.0,,,,
KRDR,06-13-2007,11:00,METAR,,150,6,,,9999,Rain,19.0,19.0,29.98,1016.0,,,,61,,,,,,,.04 IN,,,,8/8 Overcast,9000.0,,SCT,1900.0,BKN,8900.0,OVC,25000.0,,
KRDR,06-13-2007,10:28,SPECI,,90,5,,,9999,,19.0,19.0,29.97,1015.7,,,,,,,,,,,,,,,Clear,72000.0,,,73000.0,,,,,,
KRDR,06-13-2007,10:20,METAR,,80,5,,,9999,,19.0,19.0,29.97,1015.6,,,,,,,,,,,,,,,Clear,72000.0,,,73000.0,,,,,,
KRDR,06-13-2007,10:00,METAR,,50,4,,,9999,Light Rain,19.0,19.0,29.96,1015.3,61,,,,,,,,,,.05 IN,,,,2/8 Mostly Clear,72000.0,,FEW,1100.0,,,,,,
KRDR,06-13-2007,09:35,SPECI,,10,6,,,9999,Light Rain/Mist,19.0,19.0,29.96,1015.3,61,10,,,,,,,,,,,,,2/8 Mostly Clear,72000.0,,FEW,1100.0,,,,,,
KRDR,06-13-2007,09:26,SPECI,,320,5,,,8000,Rain/Mist,19.0,19.0,29.96,1015.5,62,10,,,,,,,,,,,,,2/8 Mostly Clear,72000.0,,FEW,1100.0,,,,,,
KRDR,06-13-2007,09:00,METAR,,300,3,,,9999,,20.0,19.0,29.97,1015.7,,,,,,,,,,,.01 IN,.02 IN,,,Clear,72000.0,,,73000.0,,,,,,
KRDR,06-13-2007,08:31,SPECI,,300,3,,,9999,Light Rain/Mist,20.0,19.0,29.97,1015.8,61,10,,,,,,,,,,,,,7/8 Mostly Cloudy,4300.0,,BKN,4400.0,,,,,,
KRDR,06-13-2007,08:28,SPECI,,300,4,,,8000,Light Rain/Mist,20.0,19.0,29.97,1015.8,61,10,,,,,,,,,,,,,7/8 Mostly Cloudy,4200.0,,BKN,4300.0,,,,,,
KRDR,06-13-2007,08:14,SPECI,,250,5,,,9999,Light Drizzle,20.0,19.0,29.98,1016.1,51,,,,,,,,,,,,,,8/8 Overcast,4200.0,,OVC,4300.0,,,,,,
KRDR,06-13-2007,08:05,SPECI,,10,3,,,9999,,20.0,19.0,29.97,1015.6,,,,,,,,,,,,,,,8/8 Overcast,4000.0,,OVC,4100.0,,,,,,
KRDR,06-13-2007,08:00,METAR,,50,4,,,9999,Light Drizzle,20.0,19.0,29.96,1015.5,51,,,,,,,,,,,,,,8/8 Overcast,4000.0,,OVC,4100.0,,,,,,
KRDR,06-13-2007,07:00,METAR,,320,7,,,9999,,20.0,19.0,29.96,1015.5,,,,,,,,,,,.01 IN,,,,2/8 Mostly Clear,72000.0,,FEW,5400.0,,,,,,
KRDR,06-13-2007,06:35,SPECI,,300,4,,,9999,,21.0,19.0,29.96,1015.4,,,,,,,,,,,,,,,2/8 Mostly Clear,72000.0,,FEW,4300.0,,,,,,
KRDR,06-13-2007,06:24,SPECI,,,0,,,9999,Light Rain,21.0,19.0,29.96,1015.3,61,,,,,,,,,,,,,,4/8 Partly Cloudy,72000.0,,SCT,5000.0,,,,,,
KRDR,06-13-2007,06:17,SPECI,,,0,,,9999,Light Rain,21.0,19.0,29.97,1015.7,61,,,,,,,,,,,,,,4/8 Partly Cloudy,72000.0,,SCT,5400.0,,,,,,
KRDR,06-13-2007,06:00,METAR,,60,4,,,9999,,22.0,19.0,29.96,1015.5,,,,,,,,,,,TRACE,,TRACE,,7/8 Mostly Cloudy,7000.0,,BKN,6900.0,,,,,,
KRDR,06-13-2007,05:38,SPECI,,30,3,,,9999,,22.0,19.0,29.96,1015.4,,,,,,,,,,,,,,,7/8 Mostly Cloudy,6000.0,,BKN,5900.0,BKN,9900.0,,,,
KRDR,06-13-2007,05:28,SPECI,,40,4,,,9999,Light Drizzle,21.0,19.0,29.96,1015.5,51,,,,,,,,,,,,,,7/8 Mostly Cloudy,7000.0,,SCT,5900.0,BKN,9900.0,,,,
KRDR,06-13-2007,05:00,METAR,,330,3,,,9999,,21.0,19.0,29.97,1015.6,,,,,,,,,,,,,,,4/8 Partly Cloudy,72000.0,,SCT,5900.0,,,,,,
KRDR,06-13-2007,04:00,METAR,,280,10,,,9999,,23.0,19.0,29.97,1015.8,,,,,,,,,,,,,,,8/8 Overcast,6000.0,,BKN,5900.0,OVC,25000.0,,,,
KRDR,06-13-2007,03:00,METAR,,160,10,,,9999,,25.0,17.0,29.95,1015.1,,,,,,,,,,,,,,,8/8 Overcast,6000.0,,BKN,5900.0,OVC,25000.0,,,,
KRDR,06-13-2007,02:00,METAR,,140,10,,,9999,,26.0,18.0,29.93,1014.3,,,,,,,,,,,,,,,8/8 Overcast,6000.0,,BKN,5900.0,OVC,25000.0,,,,
KRDR,06-13-2007,01:00,METAR,,150,6,,,9999,,27.0,19.0,29.95,1015.2,,,,,,,,,,,,,,,8/8 Overcast,25000.0,,SCT,5900.0,OVC,25000.0,,,,
KRDR,06-13-2007,00:00,METAR,,170,8,,,9999,,27.0,19.0,29.94,1014.9,,,,,,,,,,,,,,,8/8 Overcast,25000.0,,SCT,5900.0,OVC,25000.0,,,,
KRDR,06-12-2007,23:00,METAR,,180,15,27.0,,9999,,29.0,17.0,29.93,1014.6,,,,,,,,,,,,,,,8/8 Overcast,25000.0,,SCT,5900.0,OVC,25000.0,,,,
KRDR,06-12-2007,22:00,METAR,,170,17,28.0,180/30KTS,9999,,30.0,17.0,29.94,1014.8,,,,,,,,,,,,,,,8/8 Overcast,25000.0,,SCT,5900.0,OVC,25000.0,,,,
KRDR,06-12-2007,21:00,METAR,,180,24,30.0,,9999,,31.0,17.0,29.92,1014.0,,,,,,,,,,,,,,,8/8 Overcast,25000.0,,OVC,25000.0,,,,,,
KRDR,06-12-2007,20:00,METAR,,180,20,27.0,160/27KTS,9999,,30.0,19.0,29.94,1014.8,,,,,,,,,,,,,,,8/8 Overcast,25000.0,,FEW,4000.0,OVC,25000.0,,,,
KRDR,06-12-2007,19:00,METAR,,180,16,21.0,,9999,,29.0,20.0,29.95,1014.9,,,,,,,,,,,,,,,7/8 Mostly Cloudy,25000.0,,FEW,4000.0,BKN,25000.0,,,,
KRDR,06-12-2007,18:00,METAR,,160,17,21.0,,9999,,30.0,20.0,29.94,1014.7,,,,,,,,,,,,,,,,,,SCT,25000.0,,,,,,
KRDR,06-12-2007,17:00,METAR,,170,15,21.0,,9999,,29.0,21.0,29.96,1015.4,,,,,,,,,,,,,,,4/8 Partly Cloudy,72000.0,,FEW,3500.0,SCT,25000.0,,,,
KRDR,06-12-2007,16:00,METAR,,180,14,,,9999,,27.0,21.0,29.97,1015.6,,,,,,,,,,,,,,,2/8 Mostly Clear,72000.0,,FEW,3500.0,FEW,25000.0,,,,
KRDR,06-12-2007,15:00,METAR,,190,17,23.0,170/26KTS,9999,,26.0,20.0,29.96,1015.5,,,,,,,,,,,,,,,2/8 Mostly Clear,72000.0,,FEW,25000.0,,,,,,
KRDR,06-12-2007,14:00,METAR,,170,18,23.0,,9999,,25.0,20.0,29.96,1015.3,,,,,,,,,,,,,,,4/8 Partly Cloudy,72000.0,,FEW,12000.0,SCT,25000.0,,,,
KRDR,06-12-2007,13:00,METAR,,180,11,,,9999,,24.0,19.0,29.97,1015.9,,,,,,,,,,,,,,,7/8 Mostly Cloudy,25000.0,,FEW,12000.0,BKN,25000.0,,,,
KRDR,06-12-2007,12:00,METAR,,180,12,,,9999,,23.0,19.0,29.95,1015.2,,,,,,,,,,,,,,,7/8 Mostly Cloudy,25000.0,,FEW,12000.0,BKN,25000.0,,,,
KRDR,06-12-2007,11:00,METAR,,170,13,,,9999,,23.0,18.0,29.91,1013.7,,,,,,,,,,,,,,,7/8 Mostly Cloudy,25000.0,,FEW,7900.0,SCT,12000.0,BKN,25000.0,,
KRDR,06-12-2007,10:00,METAR,,170,12,,,9999,,23.0,18.0,29.90,1013.3,,,,,,,,,,,,,,,Clear,72000.0,,,73000.0,,,,,,
KRDR,06-12-2007,09:00,METAR,,180,12,,,9999,,24.0,18.0,29.89,1013.2,,,,,,,,,,,,,,,Clear,72000.0,,,73000.0,,,,,,
KRDR,06-12-2007,08:00,METAR,,170,10,,,9999,,24.0,18.0,29.87,1012.6,,,,,,,,,,,,,,,Clear,72000.0,,,73000.0,,,,,,
KRDR,06-12-2007,07:00,METAR,,160,17,,,9999,,24.0,19.0,29.85,1011.8,,,,,,,,,,,,,,,Clear,72000.0,,,73000.0,,,,,,
KRDR,06-12-2007,06:00,METAR,,160,15,,,9999,,26.0,19.0,29.86,1012.0,,,,,,,,,,,,,,,4/8 Partly Cloudy,72000.0,,SCT,25000.0,,,,,,
KRDR,06-12-2007,05:00,METAR,,150,12,,,9999,,26.0,20.0,29.86,1012.0,,,,,,,,,,,,,,,4/8 Partly Cloudy,72000.0,,SCT,25000.0,,,,,,
KRDR,06-12-2007,04:00,METAR,,160,10,,,9999,,26.0,20.0,29.86,1012.2,,,,,,,,,,,,,,,4/8 Partly Cloudy,72000.0,,FEW,12000.0,SCT,25000.0,,,,
KRDR,06-12-2007,03:00,METAR,,170,10,,,9999,,28.0,20.0,29.84,1011.6,,,,,,,,,,,,,,,4/8 Partly Cloudy,72000.0,,FEW,12000.0,SCT,25000.0,,,,
KRDR,06-12-2007,02:00,METAR,,170,9,,,9999,,29.0,21.0,29.81,1010.6,,,,,,,,,,,,,,,4/8 Partly Cloudy,72000.0,,FEW,12000.0,SCT,25000.0,,,,
KRDR,06-12-2007,01:00,METAR,,170,8,,,9999,,30.0,20.0,29.79,1010.0,,,,,,,,,,,,,,,4/8 Partly Cloudy,72000.0,,FEW,12000.0,SCT,25000.0,,,,
KRDR,06-12-2007,00:00,METAR,,190,11,,,9999,,32.0,20.0,29.80,1010.0,,,,,,,,,,,,,,,4/8 Partly Cloudy,72000.0,,FEW,5000.0,SCT,25000.0,,,,
KRDR,06-11-2007,23:00,METAR,,180,13,,,9999,,31.0,22.0,29.79,1010.0,,,,,,,,,,,,,,,4/8 Partly Cloudy,72000.0,,FEW,5000.0,SCT,25000.0,,,,
KRDR,06-11-2007,22:00,METAR,,180,12,,,9999,,31.0,21.0,29.80,1010.2,,,,,,,,,,,,,,,4/8 Partly Cloudy,72000.0,,FEW,5000.0,SCT,25000.0,,,,
KRDR,06-11-2007,21:00,METAR,,170,14,,,9999,,30.0,21.0,29.80,1010.3,,,,,,,,,,,,,,,7/8 Mostly Cloudy,25000.0,,FEW,5000.0,BKN,25000.0,,,,
KRDR,06-11-2007,20:00,METAR,,140,16,20.0,,9999,,29.0,21.0,29.81,1010.5,,,,,,,,,,,,,,,7/8 Mostly Cloudy,25000.0,,FEW,5000.0,BKN,25000.0,,,,
KRDR,06-11-2007,19:00,METAR,,140,14,19.0,,9999,,28.0,21.0,29.81,1010.5,,,,,,,,,,,,,,,7/8 Mostly Cloudy,25000.0,,FEW,6900.0,BKN,25000.0,,,,
KRDR,06-11-2007,18:00,METAR,,160,16,,,9999,,27.0,20.0,29.81,1010.5,,,,,,,,,,,,,,,7/8 Mostly Cloudy,25000.0,,BKN,25000.0,,,,,,
KRDR,06-11-2007,17:00,METAR,,170,12,17.0,,9999,,26.0,19.0,29.81,1010.5,,,,,,,,,,,,,,,7/8 Mostly Cloudy,25000.0,,BKN,25000.0,,,,,,
KRDR,06-11-2007,16:00,METAR,,170,13,,,9999,,25.0,18.0,29.81,1010.5,,,,,,,,,,,,,,,7/8 Mostly Cloudy,25000.0,,FEW,8900.0,BKN,25000.0,,,,
KRDR,06-11-2007,15:00,METAR,,180,14,,,9999,,24.0,18.0,29.82,1010.8,,,,,,,,,,,,,,,7/8 Mostly Cloudy,25000.0,,FEW,8900.0,BKN,25000.0,,,,
KRDR,06-11-2007,14:00,METAR,,170,13,20.0,,9999,,22.0,17.0,29.81,1010.5,,,,,,,,,,,,,,,4/8 Partly Cloudy,72000.0,,FEW,8900.0,SCT,25000.0,,,,
KRDR,06-11-2007,13:00,METAR,,160,15,22.0,,9999,,22.0,16.0,29.81,1010.3,,,,,,,,,,,,,,,8/8 Overcast,25000.0,,SCT,8900.0,OVC,25000.0,,,,
KRDR,06-11-2007,12:00,METAR,,160,11,,,9999,,20.0,15.0,29.81,1010.4,,,,,,,,,,,,,,,8/8 Overcast,25000.0,,FEW,5000.0,SCT,7900.0,OVC,25000.0,,
KRDR,06-11-2007,11:00,METAR,,160,14,22.0,,9999,,19.0,15.0,29.80,1010.0,,,,,,,,,,,,,,,7/8 Mostly Cloudy,25000.0,,FEW,5000.0,SCT,7900.0,BKN,25000.0,,
KRDR,06-11-2007,10:00,METAR,,150,8,,,9999,,19.0,15.0,29.79,1009.8,,,,,,,,,,,,,,,Clear,72000.0,,,73000.0,,,,,,
KRDR,06-11-2007,09:00,METAR,,140,6,,,9999,,19.0,16.0,29.79,1009.8,,,,,,,,,,,,,,,Clear,72000.0,,,73000.0,,,,,,
KRDR,06-11-2007,08:00,METAR,,160,4,,,9999,,19.0,16.0,29.78,1009.6,,,,,,,,,,,,,,,Clear,72000.0,,,73000.0,,,,,,
KRDR,06-11-2007,07:00,METAR,,160,7,,,9999,,19.0,16.0,29.77,1009.3,,,,,,,,,,,,,,,Clear,72000.0,,,73000.0,,,,,,
KRDR,06-11-2007,06:00,METAR,,150,9,,,9999,,20.0,16.0,29.77,1009.1,,,,,,,,,,,,,,,Clear,72000.0,,,73000.0,,,,,,
KRDR,06-11-2007,05:00,METAR,,140,10,,,9999,,21.0,15.0,29.77,1009.1,,,,,,,,,,,,,,,Clear,72000.0,,,73000.0,,,,,,
KRDR,06-11-2007,04:00,METAR,,130,7,,,9999,,21.0,16.0,29.77,1009.1,,,,,,,,,,,,,,,Clear,72000.0,,,73000.0,,,,,,
KRDR,06-11-2007,03:00,METAR,,150,8,,,9999,,22.0,16.0,29.77,1009.3,,,,,,,,,,,,,,,Clear,72000.0,,,73000.0,,,,,,
KRDR,06-11-2007,02:00,METAR,,130,7,,,9999,,25.0,17.0,29.78,1009.3,,,,,,,,,,,,,,,Clear,72000.0,,,73000.0,,,,,,
KRDR,06-11-2007,01:00,METAR,,140,6,,,9999,,26.0,18.0,29.77,1009.2,,,,,,,,,,,,,,,Clear,72000.0,,,73000.0,,,,,,
KRDR,06-11-2007,00:00,METAR,,140,9,,,9999,,28.0,17.0,29.76,1009.0,,,,,,,,,,,,,TRACE,,Clear,72000.0,,,73000.0,,,,,,
KRDR,06-10-2007,23:00,METAR,,170,11,,,9999,,29.0,16.0,29.76,1008.8,,,,,,,,,,,TRACE,,,,Clear,72000.0,,,73000.0,,,,,,
KRDR,06-10-2007,22:09,SPECI,,190,13,,,9999,,30.0,14.0,29.77,1009.0,,,,,,,,,,,,,,,Clear,72000.0,,,73000.0,,,,,,
KRDR,06-10-2007,22:06,SPECI,,180,11,,,9999,,30.0,14.0,29.77,1009.0,,,,,,,,,,,,,,,Clear,72000.0,,,73000.0,,,,,,
KRDR,06-10-2007,22:00,METAR,,180,12,,,9999,,30.0,14.0,29.77,1009.0,,,,,,,,,,,,,,,Clear,72000.0,,,73000.0,,,,,,
KRDR,06-10-2007,21:00,METAR,,180,12,19.0,,9999,,30.0,14.0,29.78,1009.4,,,,,,,,,,,,,,,Clear,72000.0,,,73000.0,,,,,,
KRDR,06-10-2007,20:00,METAR,,180,9,,,9999,,29.0,16.0,29.78,1009.6,,,,,,,,,,,,,,,Clear,72000.0,,,73000.0,,,,,,
KRDR,06-10-2007,19:00,METAR,,200,9,,,9999,,28.0,16.0,29.79,1009.9,,,,,,,,,,,,,,,Clear,72000.0,,,73000.0,,,,,,
KRDR,06-10-2007,18:00,METAR,,200,6,,,9999,,28.0,17.0,29.80,1010.3,,,,,,,,,,,TRACE,,TRACE,,Clear,72000.0,,,73000.0,,,,,,
KRDR,06-10-2007,17:25,METAR,,230,8,,,9999,,27.0,17.0,29.81,1010.5,,,,,,,,,,,,,,,Clear,72000.0,,,73000.0,,,,,,
KRDR,06-10-2007,17:16,SPECI,,160,7,,,9999,,26.0,17.0,29.81,1010.4,,,,,,,,,,,,,,,Clear,72000.0,,,73000.0,,,,,,
KRDR,06-10-2007,17:00,METAR,,200,7,,,9999,,25.0,18.0,29.81,1010.6,,,,,,,,,,,TRACE,,,,Clear,72000.0,,,73000.0,,,,,,
KRDR,06-10-2007,16:35,SPECI,,190,9,,,9999,,25.0,17.0,29.81,1010.6,,,,,,,,,,,,,,,Clear,72000.0,,,73000.0,,,,,,
KRDR,06-10-2007,16:32,SPECI,,190,9,,,9999,,25.0,17.0,29.81,1010.6,,,,,,,,,,,,,,,Clear,72000.0,,,73000.0,,,,,,
KRDR,06-10-2007,16:28,SPECI,,200,8,,,9999,,25.0,17.0,29.82,1010.6,,,,,,,,,,,,,,,Clear,72000.0,,,73000.0,,,,,,
KRDR,06-10-2007,16:25,METAR,,190,8,,,9999,,24.0,17.0,29.82,1010.7,,,,,,,,,,,,,,,Clear,72000.0,,,73000.0,,,,,,
KRDR,06-10-2007,16:20,METAR,,170,8,,,9999,,24.0,17.0,29.82,1010.7,,,,,,,,,,,,,,,Clear,72000.0,,,73000.0,,,,,,
KRDR,06-10-2007,16:09,SPECI,,190,9,,,9999,,24.0,17.0,29.82,1010.6,,,,,,,,,,,,,,,Clear,72000.0,,,73000.0,,,,,,
KRDR,06-10-2007,16:00,METAR,,190,10,,,9999,,23.0,17.0,29.82,1010.7,,,,,,,,,,,TRACE,,,,Clear,72000.0,,,73000.0,,,,,,
KRDR,06-10-2007,15:46,SPECI,,190,9,,,9999,,23.0,16.0,29.82,1010.7,,,,,,,,,,,,,,,Clear,72000.0,,,73000.0,,,,,,
KRDR,06-10-2007,15:28,SPECI,,180,7,,,9999,,22.0,17.0,29.82,1010.8,,,,,,,,,,,,,,,Clear,72000.0,,,73000.0,,,,,,
KRDR,06-10-2007,15:00,METAR,,190,9,,,9999,,21.0,16.0,29.83,1011.0,,,,,,,,,,,TRACE,TRACE,,,Clear,72000.0,,,73000.0,,,,,,
KRDR,06-10-2007,14:00,METAR,,170,10,,,9999,,20.0,15.0,29.83,1011.2,,,,,,,,,,,TRACE,,,,Clear,72000.0,,,73000.0,,,,,,
KRDR,06-10-2007,13:50,METAR,,170,10,,,9999,,20.0,15.0,29.83,1011.3,,,,,,,,,,,,,,,Clear,72000.0,,,73000.0,,,,,,
KRDR,06-10-2007,13:00,METAR,,170,7,,,9999,,18.0,14.0,29.85,1011.7,,,,,,,,,,,,,,,Clear,72000.0,,,73000.0,,,,,,
KRDR,06-10-2007,12:00,METAR,,170,8,,,9999,,16.0,14.0,29.84,1011.6,,,,,,,,,,,,,.07 IN,.09 IN,Clear,72000.0,,,73000.0,,,,,,
KRDR,06-10-2007,11:00,METAR,,170,6,,,9999,,15.0,13.0,29.83,1011.0,,,,,,,,,,,,,,,Clear,72000.0,,,73000.0,,,,,,
KRDR,06-10-2007,10:00,METAR,,170,7,,,9999,,15.0,14.0,29.81,1010.5,,,,,,,,,,,,,,,Clear,72000.0,,,73000.0,,,,,,
KRDR,06-10-2007,09:00,METAR,,90,6,,,9999,,16.0,14.0,29.82,1010.7,,,,,,,,,,,.01 IN,.07 IN,,,8/8 Overcast,8500.0,,FEW,6400.0,OVC,8400.0,,,,
KRDR,06-10-2007,08:21,SPECI,,120,6,,,9999,,16.0,14.0,29.82,1010.9,,,,,,,,,,,,,,,4/8 Partly Cloudy,72000.0,,SCT,7900.0,,,,,,
KRDR,06-10-2007,08:08,SPECI,,110,9,,,9999,Dry Thunderstorm,16.0,14.0,29.83,1011.2,91,,,,,,,,,,,,,,4/8 Partly Cloudy,72000.0,,SCT,6900.0,,,,,,
KRDR,06-10-2007,08:04,SPECI,,110,6,,,9999,Dry Thunderstorm/Light Rain,16.0,14.0,29.83,1011.3,91,61,,,,,,,,,,,,,4/8 Partly Cloudy,72000.0,,SCT,6900.0,,,,,,
KRDR,06-10-2007,08:01,SPECI,,120,6,,,9999,Dry Thunderstorm/Light Rain,16.0,14.0,29.84,1011.3,91,61,,,,,,,,,,,,,4/8 Partly Cloudy,72000.0,,SCT,6900.0,,,,,,
KRDR,06-10-2007,08:00,METAR,,50,3,,310/29KTS,9999,,16.0,14.0,29.85,1011.7,,,,,,,,,,,.06 IN,,,,7/8 Mostly Cloudy,7500.0,,BKN,7400.0,,,,,,
KRDR,06-10-2007,07:54,SPECI,,90,5,,,9999,Dry Thunderstorm/Light Rain,16.0,14.0,29.85,1011.7,91,61,,,,,,,,,,,,,7/8 Mostly Cloudy,7500.0,,BKN,7400.0,,,,,,
KRDR,06-10-2007,07:50,METAR,,20,4,,310/29KTS,9999,,16.0,14.0,29.85,1011.7,,,,,,,,,,,,,,,7/8 Mostly Cloudy,7500.0,,FEW,700.0,BKN,7400.0,,,,
KRDR,06-10-2007,07:44,SPECI,,60,4,,310/29KTS,9999,,16.0,14.0,29.84,1011.5,,,,,,,,,,,,,,,4/8 Partly Cloudy,72000.0,,SCT,7400.0,,,,,,
KRDR,06-10-2007,07:41,SPECI,,60,5,,310/29KTS,9999,,16.0,14.0,29.84,1011.5,,,,,,,,,,,,,,,7/8 Mostly Cloudy,7500.0,,FEW,3900.0,BKN,7400.0,,,,
KRDR,06-10-2007,07:30,METAR,,20,8,,310/29KTS,4800,Light Rain,16.0,14.0,29.84,1011.6,61,,,,,,,,,,,,,,7/8 Mostly Cloudy,7500.0,,FEW,3900.0,BKN,7400.0,,,,
KRDR,06-10-2007,07:24,SPECI,,40,11,,310/29KTS,4000,Heavy Rain,17.0,14.0,29.84,1011.5,63,,,,,,,,,,,,,,7/8 Mostly Cloudy,7500.0,,FEW,3900.0,BKN,7400.0,,,,
KRDR,06-10-2007,07:21,SPECI,,30,7,,310/29KTS,8000,Light Rain,17.0,13.0,29.85,1011.9,61,,,,,,,,,,,,,,7/8 Mostly Cloudy,7000.0,,SCT,3900.0,BKN,6900.0,,,,
KRDR,06-10-2007,07:08,SPECI,,330,10,,310/29KTS,9999,,17.0,14.0,29.88,1012.6,,,,,,,,,,,,,,,7/8 Mostly Cloudy,8000.0,,FEW,3600.0,SCT,7400.0,BKN,9900.0,,
KRDR,06-10-2007,07:00,METAR,,320,20,29.0,310/29KTS,9999,,16.0,14.0,29.86,1012.2,,,,,,,,,,,,,,,4/8 Partly Cloudy,72000.0,,SCT,7400.0,,,,,,
KRDR,06-10-2007,06:00,METAR,,50,3,,,9999,,16.0,14.0,29.84,1011.5,,,,,,,,,,,,,.02 IN,,Clear,72000.0,,,73000.0,,,,,,
KRDR,06-10-2007,04:00,METAR,,170,6,,,9999,,17.0,14.0,29.83,1011.2,,,,,,,,,,,,,,,7/8 Mostly Cloudy,10000.0,,BKN,9900.0,,,,,,
KRDR,06-10-2007,03:00,METAR,,150,7,,,9999,,17.0,15.0,29.83,1011.1,,,,,,,,,,,,.02 IN,,,2/8 Mostly Clear,72000.0,,FEW,12000.0,,,,,,
KRDR,06-10-2007,02:00,METAR,,130,5,,,9999,,20.0,14.0,29.83,1011.0,,,,,,,,,,,,,,,Clear,72000.0,,,73000.0,,,,,,
KRDR,06-10-2007,01:00,METAR,,60,5,,,9999,,21.0,14.0,29.83,1011.0,,,,,,,,,,,.02 IN,,,,2/8 Mostly Clear,72000.0,,FEW,5900.0,,,,,,
KRDR,06-10-2007,00:50,METAR,,50,5,,,9999,,21.0,14.0,29.83,1011.0,,,,,,,,,,,,,,,2/8 Mostly Clear,72000.0,,FEW,5900.0,,,,,,
KRDR,06-10-2007,00:43,SPECI,,,0,,,9999,Dry Thunderstorm,20.0,14.0,29.83,1011.1,91,,,,,,,,,,,,,,2/8 Mostly Clear,72000.0,,FEW,5900.0,,,,,,
KRDR,06-10-2007,00:30,METAR,,300,7,,,6400,Dry Thunderstorm/Light Rain,19.0,13.0,29.84,1011.6,91,61,,,,,,,,,,,,,4/8 Partly Cloudy,72000.0,,SCT,6400.0,,,,,,
KRDR,06-10-2007,00:28,SPECI,,290,9,19.0,,3200,Dry Thunderstorm/Light Rain,19.0,14.0,29.84,1011.6,91,61,,,,,,,,,,,,,4/8 Partly Cloudy,72000.0,,SCT,6400.0,,,,,,
KRDR,06-10-2007,00:20,METAR,,250,11,19.0,,2000,Dry Thunderstorm/Light Rain,20.0,14.0,29.84,1011.5,91,61,,,,,,,,,,,,,4/8 Partly Cloudy,72000.0,,FEW,300.0,SCT,6900.0,,,,
KRDR,06-10-2007,00:18,SPECI,,240,13,19.0,,3200,Dry Thunderstorm/Rain,20.0,14.0,29.84,1011.6,91,62,,,,,,,,,,,,,7/8 Mostly Cloudy,7000.0,,FEW,300.0,BKN,6900.0,,,,
KRDR,06-10-2007,00:14,SPECI,,240,13,,,9999,Light Rain,21.0,13.0,29.84,1011.5,61,,,,,,,,,,,,,,7/8 Mostly Cloudy,7000.0,,BKN,6900.0,,,,,,
KRDR,06-10-2007,00:00,METAR,,60,5,,,9999,,23.0,13.0,29.82,1010.9,,,,,,,,,,,,,,,4/8 Partly Cloudy,72000.0,,SCT,7400.0,,,,,,
KRDR,06-09-2007,23:00,METAR,,330,8,,,9999,,25.0,12.0,29.81,1010.6,,,,,,,,,,,,,,,Clear,72000.0,,,73000.0,,,,,,
KRDR,06-09-2007,22:00,METAR,,270,8,,,9999,,26.0,13.0,29.82,1010.7,,,,,,,,,,,,,,,Clear,72000.0,,,73000.0,,,,,,
KRDR,06-09-2007,21:00,METAR,,270,7,,,9999,,26.0,12.0,29.82,1010.7,,,,,,,,,,,,,,,2/8 Mostly Clear,72000.0,,FEW,6900.0,,,,,,
KRDR,06-09-2007,20:00,METAR,,280,9,,,9999,,25.0,13.0,29.82,1010.6,,,,,,,,,,,,,,,Clear,72000.0,,,73000.0,,,,,,
KRDR,06-09-2007,19:00,METAR,,280,10,,,9999,,25.0,13.0,29.82,1010.8,,,,,,,,,,,,,,,Clear,72000.0,,,73000.0,,,,,,
KRDR,06-09-2007,18:00,METAR,,270,10,,,9999,,25.0,14.0,29.82,1010.8,,,,,,,,,,,,,TRACE,,Clear,72000.0,,,73000.0,,,,,,
KRDR,06-09-2007,17:00,METAR,,260,7,,,9999,,24.0,14.0,29.82,1010.9,,,,,,,,,,,,,,,Clear,72000.0,,,73000.0,,,,,,
KRDR,06-09-2007,16:00,METAR,,240,9,,,9999,,21.0,14.0,29.82,1010.7,,,,,,,,,,,,,,,Clear,72000.0,,,73000.0,,,,,,
KRDR,06-09-2007,15:00,METAR,,230,7,,,9999,,19.0,13.0,29.82,1010.7,,,,,,,,,,,,TRACE,,,2/8 Mostly Clear,72000.0,,FEW,9900.0,,,,,,
KRDR,06-09-2007,14:00,METAR,,220,9,,,9999,,16.0,11.0,29.82,1010.8,,,,,,,,,,,TRACE,,,,4/8 Partly Cloudy,72000.0,,SCT,8400.0,,,,,,
KRDR,06-09-2007,13:27,SPECI,,210,8,,,9999,,16.0,11.0,29.82,1010.7,,,,,,,,,,,,,,,2/8 Mostly Clear,72000.0,,FEW,9900.0,,,,,,
KRDR,06-09-2007,13:13,SPECI,,220,9,,,9999,Unknown Precipitation,16.0,11.0,29.81,1010.6,40,,,,,,,,,,,,,,2/8 Mostly Clear,72000.0,,FEW,9900.0,,,,,,
KRDR,06-09-2007,13:00,METAR,,220,10,,,9999,,15.0,11.0,29.82,1010.6,,,,,,,,,,,,,,,2/8 Mostly Clear,72000.0,,FEW,11000.0,,,,,,
KRDR,06-09-2007,12:00,METAR,,240,9,,,9999,,16.0,10.0,29.80,1010.1,,,,,,,,,,,,,,,Clear,72000.0,,,73000.0,,,,,,
KRDR,06-09-2007,11:00,METAR,,240,8,,,9999,,14.0,9.0,29.79,1009.8,,,,,,,,,,,,,,,Clear,72000.0,,,73000.0,,,,,,
KRDR,06-09-2007,10:00,METAR,,240,13,,,9999,,15.0,9.0,29.78,1009.6,,,,,,,,,,,,,,,Clear,72000.0,,,73000.0,,,,,,
KRDR,06-09-2007,09:00,METAR,,230,12,,,9999,,15.0,10.0,29.78,1009.4,,,,,,,,,,,,,,,Clear,72000.0,,,73000.0,,,,,,
KRDR,06-09-2007,08:00,METAR,,230,14,,,9999,,15.0,10.0,29.77,1009.3,,,,,,,,,,,,,,,Clear,72000.0,,,73000.0,,,,,,
KRDR,06-09-2007,07:00,METAR,,230,12,,,9999,,15.0,11.0,29.77,1009.3,,,,,,,,,,,,,,,Clear,72000.0,,,73000.0,,,,,,
KRDR,06-09-2007,06:00,METAR,,230,12,,,9999,,16.0,11.0,29.77,1009.2,,,,,,,,,,,,,,,Clear,72000.0,,,73000.0,,,,,,
KRDR,06-09-2007,05:00,METAR,,230,11,,,9999,,17.0,11.0,29.77,1009.1,,,,,,,,,,,,,,,Clear,72000.0,,,73000.0,,,,,,
KRDR,06-09-2007,04:00,METAR,,230,10,,,9999,,18.0,12.0,29.77,1009.1,,,,,,,,,,,,,,,2/8 Mostly Clear,72000.0,,FEW,9900.0,FEW,25000.0,,,,
KRDR,06-09-2007,03:00,METAR,,220,10,,,9999,,18.0,12.0,29.76,1008.7,,,,,,,,,,,,,,,2/8 Mostly Clear,72000.0,,FEW,9900.0,FEW,25000.0,,,,
KRDR,06-09-2007,02:00,METAR,,210,7,,,9999,,19.0,12.0,29.75,1008.5,,,,,,,,,,,,,,,2/8 Mostly Clear,72000.0,,FEW,9900.0,FEW,25000.0,,,,
KRDR,06-09-2007,01:00,METAR,,210,10,,,9999,,21.0,11.0,29.75,1008.6,,,,,,,,,,,,,,,2/8 Mostly Clear,72000.0,,FEW,9900.0,FEW,25000.0,,,,
KRDR,06-09-2007,00:00,METAR,,230,13,19.0,,9999,,23.0,12.0,29.76,1008.8,,,,,,,,,,,,,,,4/8 Partly Cloudy,72000.0,,FEW,9400.0,SCT,25000.0,,,,
KRDR,06-08-2007,23:00,METAR,,240,14,20.0,,9999,,23.0,11.0,29.78,1009.4,,,,,,,,,,,,,,,4/8 Partly Cloudy,72000.0,,SCT,7900.0,,,,,,
KRDR,06-08-2007,22:00,METAR,,230,13,18.0,,9999,,22.0,8.0,29.80,1010.1,,,,,,,,,,,,,,,7/8 Mostly Cloudy,8000.0,,BKN,7900.0,,,,,,
KRDR,06-08-2007,21:00,METAR,,250,10,,230/28KTS,9999,,22.0,7.0,29.80,1010.2,,,,,,,,,,,,,,,4/8 Partly Cloudy,72000.0,,SCT,6900.0,,,,,,
KRDR,06-08-2007,20:00,METAR,,250,10,17.0,,9999,,21.0,7.0,29.81,1010.5,,,,,,,,,,,,,,,2/8 Mostly Clear,72000.0,,FEW,5000.0,FEW,25000.0,,,,
KRDR,06-08-2007,19:00,METAR,,260,9,,,9999,,20.0,6.0,29.82,1010.8,,,,,,,,,,,,,,,2/8 Mostly Clear,72000.0,,FEW,5000.0,,,,,,
KRDR,06-08-2007,18:00,METAR,,270,11,20.0,,9999,,20.0,7.0,29.82,1010.8,,,,,,,,,,,,,,,Clear,72000.0,,,73000.0,,,,,,
KRDR,06-08-2007,17:00,METAR,,270,7,,,9999,,18.0,7.0,29.83,1011.1,,,,,,,,,,,,,,,2/8 Mostly Clear,72000.0,,FEW,25000.0,,,,,,
KRDR,06-08-2007,16:00,METAR,,250,9,,,9999,,17.0,8.0,29.82,1010.9,,,,,,,,,,,,,,,2/8 Mostly Clear,72000.0,,FEW,25000.0,,,,,,
KRDR,06-08-2007,15:00,METAR,,260,8,,,9999,,15.0,7.0,29.82,1010.7,,,,,,,,,,,,,,,2/8 Mostly Clear,72000.0,,FEW,25000.0,,,,,,
KRDR,06-08-2007,14:00,METAR,,260,7,,,9999,,13.0,6.0,29.81,1010.3,,,,,,,,,,,,,,,Clear,72000.0,,,73000.0,,,,,,
KRDR,06-08-2007,13:00,METAR,,250,9,,,9999,,11.0,5.0,29.80,1010.2,,,,,,,,,,,,,,,Clear,72000.0,,,73000.0,,,,,,
KRDR,06-08-2007,12:00,METAR,,260,9,,,9999,,9.0,5.0,29.79,1009.8,,,,,,,,,,,,,,1.77 IN,2/8 Mostly Clear,72000.0,,FEW,25000.0,,,,,,
KRDR,06-08-2007,11:00,METAR,,260,7,,,9999,,7.0,4.0,29.77,1009.2,,,,,,,,,,,,,,,Clear,72000.0,,,73000.0,,,,,,
KRDR,06-08-2007,10:00,METAR,,280,7,,,9999,,8.0,3.0,29.75,1008.4,,,,,,,,,,,,,,,Clear,72000.0,,,73000.0,,,,,,
KRDR,06-08-2007,09:00,METAR,,290,8,,,9999,,7.0,4.0,29.72,1007.6,,,,,,,,,,,,,,,Clear,72000.0,,,73000.0,,,,,,
KRDR,06-08-2007,08:00,METAR,,300,8,,,9999,,8.0,4.0,29.70,1006.8,,,,,,,,,,,,,,,Clear,72000.0,,,73000.0,,,,,,
KRDR,06-08-2007,07:00,METAR,,300,12,,,9999,,9.0,4.0,29.68,1006.0,,,,,,,,,,,,,,,Clear,72000.0,,,73000.0,,,,,,
KRDR,06-08-2007,06:00,METAR,,320,10,,,9999,,10.0,4.0,29.66,1005.4,,,,,,,,,,,,,TRACE,,Clear,72000.0,,,73000.0,,,,,,
KRDR,06-08-2007,05:00,METAR,,300,10,,,9999,,10.0,5.0,29.63,1004.7,,,,,,,,,,,,,,,4/8 Partly Cloudy,72000.0,,SCT,5900.0,,,,,,
KRDR,06-08-2007,04:00,METAR,,310,9,,,9999,,10.0,5.0,29.63,1003.8,,,,,,,,,,,,,,,4/8 Partly Cloudy,72000.0,,SCT,5400.0,,,,,,
KRDR,06-08-2007,03:00,METAR,,330,12,,,9999,,11.0,4.0,29.58,1002.7,,,,,,,,,,,,,,,7/8 Mostly Cloudy,6000.0,,BKN,5900.0,,,,,,
KRDR,06-08-2007,02:00,METAR,,330,15,19.0,350/27KTS,9999,,12.0,5.0,29.53,1001.2,,,,,,,,,,,,,,,7/8 Mostly Cloudy,4900.0,,BKN,5000.0,,,,,,
KRDR,06-08-2007,01:00,METAR,,340,15,19.0,360/27KTS,9999,,12.0,7.0,29.48,999.5,,,,,,,,,,,,,,,7/8 Mostly Cloudy,4700.0,,BKN,4800.0,BKN,25000.0,,,,
KRDR,06-08-2007,00:00,METAR,,350,16,23.0,350/28KTS,9999,,11.0,8.0,29.42,997.8,,,,,,,,,,,.01 IN,,.49 IN,,8/8 Overcast,4600.0,,FEW,2500.0,BKN,4700.0,OVC,9900.0,,
KRDR,06-07-2007,23:32,SPECI,,350,15,,,9999,Rain,11.0,8.0,29.42,,,,,61,,,,,,,,,,,8/8 Overcast,6000.0,,SCT,2000.0,OVC,5900.0,,,,
KRDR,06-07-2007,23:00,METAR,,360,24,31.0,350/38KTS,9999,Rain,11.0,8.0,29.38,996.2,,,,61,,,,,,,.01 IN,,,,8/8 Overcast,2000.0,,BKN,2000.0,OVC,5000.0,,,,
KRDR,06-07-2007,22:00,METAR,,350,26,39.0,340/43KTS,9999,Rain,10.0,8.0,29.31,993.9,,,,61,,,,,,,.01 IN,,,,8/8 Overcast,1800.0,,BKN,1800.0,OVC,4500.0,,,,
KRDR,06-07-2007,21:28,SPECI,,360,32,,,9999,Rain/Mist,10.0,8.0,29.27,,,,,61,10,,,,,,,,,,8/8 Overcast,1600.0,,BKN,1600.0,OVC,4000.0,,,,
KRDR,06-07-2007,21:00,METAR,,350,29,41.0,010/46KTS,8000,Rain/Mist,10.0,8.0,29.24,991.5,,,,61,10,,,,,,.06 IN,.46 IN,,,8/8 Overcast,800.0,,BKN,800.0,OVC,2200.0,,,,
KRDR,06-07-2007,20:00,METAR,,360,28,35.0,360/48KTS,4800,Rain/Mist,10.0,9.0,29.19,990.0,,,,63,10,,,,,,.12 IN,,,,8/8 Overcast,700.0,,OVC,700.0,,,,,,
KRDR,06-07-2007,19:01,SPECI,,360,31,42.0,000/42KTS,4800,Heavy Rain/Mist,11.0,10.0,29.15,,,,,65,10,,,,,,,,,,8/8 Overcast,600.0,,BKN,600.0,OVC,1300.0,,,,
KRDR,06-07-2007,19:00,METAR,,350,26,40.0,000/40KTS,3200,Heavy Rain/Mist,11.0,10.0,29.14,988.4,,,,65,10,,,,,,.28 IN,,,,7/8 Mostly Cloudy,600.0,,BKN,600.0,,,,,,
KRDR,06-07-2007,18:31,SPECI,,350,27,39.0,,4000,Heavy Rain/Mist,11.0,11.0,29.12,,,,,65,10,,,,,,,,,,8/8 Overcast,300.0,,BKN,300.0,OVC,800.0,,,,
KRDR,06-07-2007,18:08,SPECI,,360,28,,,2400,Heavy Rain/Mist,12.0,11.0,29.10,,,,,65,10,,,,,,,,,,8/8 Overcast,600.0,,BKN,600.0,OVC,1200.0,,,,
KRDR,06-07-2007,18:00,METAR,,10,24,31.0,020/36KTS,4800,Rain/Mist,12.0,11.0,29.12,987.6,,,,63,10,,,,,,.59 IN,,1.28 IN,,8/8 Overcast,500.0,,BKN,500.0,OVC,1200.0,,,,
KRDR,06-07-2007,17:31,SPECI,,10,23,,,4000,,12.0,11.0,29.12,,,,,,,,,,,,,,,,8/8 Overcast,500.0,,OVC,500.0,,,,,,
KRDR,06-07-2007,17:18,SPECI,,10,22,36.0,,1600,Thunderstorm with Rain or Snow/Rain Showers/Mist,12.0,11.0,29.11,,,,,95,81,10,,,,,,,,,Sky Obscured (Unable to Estimate),600.0,100.0,,600.0,,,,,,
KRDR,06-07-2007,17:00,METAR,,20,23,31.0,350/33KTS,1200,Heavy Thunderstorm with Rain or Snow/Heavy Rain Showers/Mist,12.0,11.0,29.10,987.0,,,,97,82,10,,,,,.69 IN,,,,Sky Obscured (Unable to Estimate),500.0,100.0,,500.0,,,,,,
KRDR,06-07-2007,16:43,SPECI,,10,25,30.0,,1200,Thunderstorm with Rain or Snow/Rain Showers/Mist,12.0,12.0,29.10,,,,,95,81,10,,,,,,,,,Sky Obscured (Unable to Estimate),400.0,100.0,,400.0,,,,,,
KRDR,06-07-2007,16:29,SPECI,,10,21,33.0,350/33KTS,3200,Heavy Rain/Thunderstorm/Mist,12.0,12.0,29.10,986.9,,,,17,65,10,,,,,,,,,Sky Obscured (Unable to Estimate),500.0,100.0,,500.0,,,,,,
KRDR,06-07-2007,16:08,SPECI,,360,22,,,2400,Heavy Rain,12.0,12.0,29.08,,,,,65,,,,,,,,,,,8/8 Overcast,500.0,,OVC,500.0,,,,,,
KRDR,06-07-2007,15:53,METAR,,360,22,,010/29KTS,6400,Light Rain Showers,13.0,12.0,29.08,986.5,,,,80,,,,,,,TRACE,,,,8/8 Overcast,400.0,,OVC,400.0,,,,,,
KRDR,06-07-2007,15:00,METAR,,10,18,24.0,020/28KTS,6400,,13.0,13.0,29.10,987.1,,,,,,,,,,,,,,,8/8 Overcast,500.0,,OVC,500.0,,,,,,
KRDR,06-07-2007,14:19,SPECI,,20,18,,,9999,Rain,13.0,13.0,29.08,,,,,61,,,,,,,,,,,8/8 Overcast,600.0,,OVC,600.0,,,,,,
KRDR,06-07-2007,14:00,METAR,,20,18,27.0,010/27KTS,9999,Precipitation in the Vicinity,13.0,13.0,29.09,986.6,,,,16,,,,,,,,,,,8/8 Overcast,600.0,,OVC,600.0,,,,,,
KRDR,06-07-2007,13:00,METAR,,20,20,24.0,,9999,,13.0,13.0,29.08,986.4,,,,,,,,,,,,,,,8/8 Overcast,500.0,,OVC,500.0,,,,,,
KRDR,06-07-2007,12:00,METAR,,30,12,19.0,,9999,,13.0,13.0,29.08,986.4,,,,,,,,,,,.01 IN,,1.53 IN,2.25 IN,8/8 Overcast,500.0,,BKN,500.0,OVC,1100.0,,,,
KRDR,06-07-2007,11:18,SPECI,,20,12,19.0,,9999,,13.0,13.0,29.09,,,,,,,,,,,,,,,,8/8 Overcast,500.0,,BKN,500.0,OVC,1100.0,,,,
KRDR,06-07-2007,11:00,METAR,,20,19,27.0,020/30KTS,9999,Light Rain Showers/Mist,13.0,13.0,29.05,985.5,,,,80,10,,,,,,.17 IN,,,,8/8 Overcast,500.0,,BKN,500.0,OVC,1200.0,,,,
KRDR,06-07-2007,10:38,SPECI,,30,23,32.0,020/32KTS,4000,Heavy Rain/Mist,13.0,13.0,29.02,984.5,63,10,,,,,,,,,,,,,2/8 Mostly Clear,72000.0,,FEW,400.0,,,,,,
KRDR,06-07-2007,10:36,SPECI,,30,27,32.0,020/32KTS,4800,Heavy Rain/Mist,13.0,13.0,29.02,984.3,63,10,,,,,,,,,,,,,2/8 Mostly Clear,72000.0,,FEW,400.0,,,,,,
KRDR,06-07-2007,10:33,SPECI,,20,25,32.0,020/32KTS,6400,Heavy Rain/Mist,13.0,13.0,29.00,983.7,63,10,,,,,,,,,,,,,2/8 Mostly Clear,72000.0,,FEW,400.0,,,,,,
KRDR,06-07-2007,10:26,SPECI,,20,18,23.0,,9999,Rain,13.0,13.0,29.05,985.4,62,,,,,,,,,,,,,,4/8 Partly Cloudy,72000.0,,SCT,400.0,,,,,,
KRDR,06-07-2007,10:17,SPECI,,360,18,25.0,,9999,Light Rain,13.0,13.0,29.07,986.2,61,,,,,,,,,,,,,,7/8 Mostly Cloudy,400.0,,BKN,400.0,,,,,,
KRDR,06-07-2007,10:15,SPECI,,360,19,25.0,,9999,Light Rain,13.0,13.0,29.07,986.1,61,,,,,,,,,,,,,,7/8 Mostly Cloudy,100.0,,BKN,500.0,,,,,,
KRDR,06-07-2007,10:08,SPECI,,20,19,24.0,,8000,Light Rain/Mist,13.0,13.0,29.06,985.7,61,10,,,,,,,,,,,,,7/8 Mostly Cloudy,100.0,,BKN,500.0,,,,,,
KRDR,06-07-2007,10:00,METAR,,20,11,19.0,,9999,Light Rain,13.0,13.0,29.10,987.0,61,,,,,,,,,,.05 IN,,,,8/8 Overcast,500.0,,OVC,500.0,,,,,,
KRDR,06-07-2007,09:42,SPECI,,30,12,,,9999,Light Rain,13.0,13.0,29.11,987.4,61,,,,,,,,,,,,,,8/8 Overcast,100.0,,OVC,500.0,,,,,,
KRDR,06-07-2007,09:33,SPECI,,30,10,,,9999,Light Rain,13.0,13.0,29.13,987.9,61,,,,,,,,,,,,,,8/8 Overcast,100.0,,OVC,500.0,,,,,,
KRDR,06-07-2007,09:00,METAR,,10,17,21.0,,9999,Light Rain,13.0,13.0,29.09,986.8,61,,,,,,,,,,.07 IN,1.3 IN,,,8/8 Overcast,400.0,,OVC,400.0,,,,,,
KRDR,06-07-2007,08:45,METAR,,10,16,21.0,,9999,Unknown Precipitation,14.0,13.0,29.10,987.2,40,,,,,,,,,,,,,,8/8 Overcast,400.0,,OVC,400.0,,,,,,
KRDR,06-07-2007,08:29,SPECI,,10,13,19.0,,9999,,14.0,13.0,29.12,987.8,,,,,,,,,,,,,,,8/8 Overcast,400.0,,OVC,400.0,,,,,,
KRDR,06-07-2007,08:22,SPECI,,360,12,19.0,,9999,,14.0,13.0,29.13,987.9,,,,,,,,,,,,,,,8/8 Overcast,400.0,,OVC,400.0,,,,,,
KRDR,06-07-2007,08:16,SPECI,,10,12,22.0,,9999,Light Rain,14.0,13.0,29.12,987.7,61,,,,,,,,,,,,,,8/8 Overcast,300.0,,OVC,300.0,,,,,,
KRDR,06-07-2007,08:12,SPECI,,360,17,22.0,,9999,Light Rain,14.0,13.0,29.11,987.4,61,,,,,,,,,,,,,,8/8 Overcast,400.0,,OVC,400.0,,,,,,
KRDR,06-07-2007,08:02,SPECI,,30,14,,,4800,Rain/Mist,14.0,14.0,29.09,986.7,62,10,,,,,,,,,,,,,8/8 Overcast,300.0,,OVC,400.0,,,,,,
KRDR,06-07-2007,08:00,METAR,,20,16,20.0,,4800,Dry Thunderstorm/Light Rain/Mist,14.0,14.0,29.12,987.7,91,61,10,,,,,,,,.23 IN,,,,8/8 Overcast,400.0,,OVC,400.0,,,,,,
KRDR,06-07-2007,07:46,SPECI,,350,10,19.0,,4000,Dry Thunderstorm/Rain/Mist,14.0,13.0,29.14,988.3,91,62,10,,,,,,,,,,,,8/8 Overcast,500.0,,OVC,500.0,,,,,,
KRDR,06-07-2007,07:30,METAR,,360,13,,,9999,Dry Thunderstorm/Light Rain,14.0,14.0,29.12,987.8,91,61,,,,,,,,,,,,,8/8 Overcast,300.0,,OVC,300.0,,,,,,
KRDR,06-07-2007,07:25,METAR,,10,14,,,9999,Light Rain,14.0,14.0,29.10,987.2,61,,,,,,,,,,,,,,8/8 Overcast,300.0,,OVC,300.0,,,,,,
KRDR,06-07-2007,07:19,SPECI,,30,10,,,6400,Light Rain/Mist,14.0,14.0,29.11,987.2,61,10,,,,,,,,,,,,,8/8 Overcast,300.0,,OVC,300.0,,,,,,
KRDR,06-07-2007,07:04,SPECI,,30,13,,,6400,Rain/Mist,14.0,14.0,29.11,987.5,62,10,,,,,,,,,,,,,7/8 Mostly Cloudy,300.0,,BKN,300.0,,,,,,
KRDR,06-07-2007,07:00,METAR,,30,10,,,4800,Light Rain Showers/Mist,14.0,14.0,29.13,988.0,,,,80,10,,,,,,1 IN,,,,8/8 Overcast,1200.0,,SCT,400.0,BKN,1200.0,OVC,2800.0,,
KRDR,06-07-2007,06:54,SPECI,,20,9,,,4800,Rain/Mist,14.0,14.0,29.13,987.9,,,,63,10,,,,,,,,,,7/8 Mostly Cloudy,300.0,,BKN,400.0,,,,,,
KRDR,06-07-2007,06:22,SPECI,,60,15,19.0,,3200,Thunderstorm with Rain or Snow/Rain Showers,14.0,14.0,29.12,,,,,95,81,,,,,,,,,,8/8 Overcast,1000.0,,SCT,500.0,BKN,1000.0,OVC,3200.0,,
KRDR,06-07-2007,06:00,METAR,,60,12,22.0,,2000,Heavy Thunderstorm with Rain or Snow/Heavy Rain Showers,14.0,14.0,29.14,,,,,97,82,,,,,,,,.37 IN,,8/8 Overcast,2400.0,,SCT,1100.0,OVC,2400.0,,,,
KRDR,06-07-2007,05:46,SPECI,,50,18,22.0,,2400,Heavy Rain/Thunderstorm/Mist,14.0,14.0,29.13,987.9,,,,17,65,10,,,,,,,,,2/8 Mostly Clear,72000.0,,FEW,1200.0,,,,,,
KRDR,06-07-2007,05:39,SPECI,,50,13,,,3200,Thunderstorm with Rain or Snow/Rain Showers,15.0,14.0,29.12,,,,,95,81,,,,,,,,,,8/8 Overcast,3000.0,,FEW,800.0,SCT,2200.0,OVC,3000.0,,
KRDR,06-07-2007,05:35,SPECI,,60,10,,,4800,Rain/Mist,15.0,14.0,29.13,988.1,62,10,,,,,,,,,,,,,4/8 Partly Cloudy,72000.0,,FEW,800.0,SCT,2200.0,,,,
KRDR,06-07-2007,05:14,SPECI,,40,15,,,9999,Light Rain,15.0,14.0,29.14,988.2,61,,,,,,,,,,,,,,4/8 Partly Cloudy,72000.0,,SCT,2500.0,,,,,,
KRDR,06-07-2007,05:10,SPECI,,50,14,20.0,,9999,Light Rain,16.0,13.0,29.14,988.4,61,,,,,,,,,,,,,,7/8 Mostly Cloudy,2100.0,,BKN,2600.0,,,,,,
KRDR,06-07-2007,05:08,SPECI,,50,14,20.0,,9999,Light Rain,16.0,13.0,29.14,988.5,61,,,,,,,,,,,,,,7/8 Mostly Cloudy,2200.0,,FEW,1300.0,SCT,2400.0,BKN,3900.0,,
KRDR,06-07-2007,05:01,SPECI,,50,12,,,9999,Unknown Precipitation,16.0,13.0,29.15,988.6,40,,,,,,,,,,,,,,7/8 Mostly Cloudy,2300.0,,BKN,2800.0,,,,,,
KRDR,06-07-2007,05:00,METAR,,40,13,,,9999,,16.0,13.0,29.15,988.9,,,,,,,,,,,,,,,8/8 Overcast,2400.0,,OVC,3200.0,,,,,,
KRDR,06-07-2007,04:44,SPECI,,50,15,18.0,,9999,,16.0,13.0,29.16,988.9,,,,,,,,,,,,,,,8/8 Overcast,2200.0,,OVC,3100.0,,,,,,
KRDR,06-07-2007,04:37,SPECI,,50,13,18.0,,9999,,16.0,13.0,29.16,989.1,,,,,,,,,,,,,,,8/8 Overcast,1400.0,,OVC,2900.0,,,,,,
KRDR,06-07-2007,04:00,METAR,,50,11,,,9999,,17.0,13.0,29.18,989.8,,,,,,,,,,,,,,,8/8 Overcast,4200.0,,OVC,4300.0,OVC,9900.0,,,,
KRDR,06-07-2007,03:00,METAR,,70,10,,,9999,,17.0,14.0,29.20,990.4,,,,,,,,,,,,,,,7/8 Mostly Cloudy,5500.0,,BKN,5400.0,BKN,9900.0,BKN,25000.0,,
KRDR,06-07-2007,02:00,METAR,,60,8,,,9999,,18.0,15.0,29.21,990.8,,,,,,,,,,,,,,,8/8 Overcast,4600.0,,OVC,4700.0,,,,,,
KRDR,06-07-2007,01:00,METAR,,80,14,17.0,,9999,,19.0,15.0,29.21,990.7,,,,,,,,,,,,,,,8/8 Overcast,10000.0,,SCT,5000.0,BKN,9900.0,OVC,25000.0,,
KRDR,06-07-2007,00:00,METAR,,80,12,18.0,,9999,,20.0,15.0,29.22,990.9,,,,,,,,,,,,,TRACE,,8/8 Overcast,4200.0,,OVC,4300.0,,,,,,
KRDR,06-06-2007,23:00,METAR,,100,9,,,9999,,20.0,15.0,29.24,991.6,,,,,,,,,,,,,,,8/8 Overcast,3700.0,,OVC,3800.0,,,,,,
KRDR,06-06-2007,22:00,METAR,,110,11,,,9999,,21.0,15.0,29.23,991.5,,,,,,,,,,,,,,,8/8 Overcast,3900.0,,OVC,4000.0,,,,,,
KRDR,06-06-2007,21:00,METAR,,140,11,17.0,,9999,,21.0,15.0,29.26,992.4,,,,,,,,,,,TRACE,TRACE,,,7/8 Mostly Cloudy,12000.0,,FEW,3500.0,SCT,6900.0,BKN,12000.0,BKN,25000.0
KRDR,06-06-2007,20:25,METAR,,140,7,,,9999,,20.0,16.0,29.25,,,,,,,,,,,,,,,,7/8 Mostly Cloudy,12000.0,,FEW,3000.0,SCT,6900.0,BKN,12000.0,BKN,25000.0
KRDR,06-06-2007,20:00,METAR,,140,14,21.0,,9999,Light Rain Showers,20.0,15.0,29.26,992.3,,,,80,,,,,,,TRACE,,,,8/8 Overcast,12000.0,,FEW,2000.0,SCT,5900.0,BKN,12000.0,OVC,25000.0
KRDR,06-06-2007,19:00,METAR,,150,16,20.0,160/28KTS,9999,,21.0,15.0,29.29,993.2,,,,,,,,,,,,,,,8/8 Overcast,12000.0,,FEW,2500.0,SCT,5900.0,BKN,12000.0,OVC,25000.0
KRDR,06-06-2007,18:00,METAR,,140,20,29.0,140/29KTS,9999,,19.0,14.0,29.30,993.7,,,,,,,,,,,.01 IN,,.35 IN,,7/8 Mostly Cloudy,25000.0,,FEW,6400.0,SCT,12000.0,BKN,25000.0,,
KRDR,06-06-2007,17:00,METAR,,130,17,25.0,,9999,,16.0,13.0,29.33,994.6,,,,,,,,,,,.02 IN,,,,7/8 Mostly Cloudy,6500.0,,BKN,6400.0,,,,,,
KRDR,06-06-2007,16:14,SPECI,,140,18,22.0,,9999,,13.0,12.0,29.36,995.6,,,,,,,,,,,,,,,7/8 Mostly Cloudy,6500.0,,BKN,6400.0,,,,,,
KRDR,06-06-2007,16:00,METAR,,140,17,24.0,180/28KTS,8000,Rain/Mist,13.0,12.0,29.37,996.1,,,,61,10,,,,,,.12 IN,,,,8/8 Overcast,4300.0,,FEW,1800.0,BKN,4400.0,BKN,7900.0,OVC,12000.0
KRDR,06-06-2007,15:45,METAR,,150,19,26.0,,9999,Rain,13.0,12.0,29.38,,,,,61,,,,,,,,,,,8/8 Overcast,8000.0,,FEW,1800.0,SCT,4700.0,BKN,7900.0,OVC,12000.0
KRDR,06-06-2007,15:19,SPECI,,170,20,28.0,180/28KTS,4800,Rain/Thunderstorm/Mist,14.0,12.0,29.38,,,,,17,63,10,,,,,,,,,8/8 Overcast,8500.0,,FEW,3900.0,OVC,8400.0,,,,
KRDR,06-06-2007,15:00,METAR,,160,18,29.0,170/29KTS,9999,Light Rain Showers,15.0,12.0,29.37,996.1,,,,80,,,,,,,.02 IN,.2 IN,,,8/8 Overcast,8500.0,,SCT,4000.0,OVC,8400.0,,,,
KRDR,06-06-2007,14:05,SPECI,,150,12,,,9999,,13.0,12.0,29.41,,,,,,,,,,,,,,,,8/8 Overcast,9000.0,,FEW,1500.0,OVC,8900.0,,,,
KRDR,06-06-2007,14:00,METAR,,150,12,,,9999,Rain,13.0,12.0,29.42,997.6,,,,61,,,,,,,.15 IN,,,,8/8 Overcast,9000.0,,FEW,1500.0,OVC,8900.0,,,,
KRDR,06-06-2007,13:13,SPECI,,160,21,24.0,,6400,Rain/Thunderstorm/Mist,13.0,12.0,29.43,,,,,17,61,10,,,,,,,,,8/8 Overcast,4100.0,,BKN,4200.0,OVC,6400.0,,,,
KRDR,06-06-2007,13:00,METAR,,150,16,21.0,,8000,Rain/Thunderstorm/Mist,13.0,12.0,29.43,997.8,,,,17,61,10,,,,,.03 IN,,,,8/8 Overcast,5500.0,,SCT,4000.0,BKN,5400.0,OVC,8900.0,,
KRDR,06-06-2007,12:20,METAR,,170,15,20.0,,9999,Light Rain Showers,15.0,12.0,29.45,,,,,80,,,,,,,,,,,8/8 Overcast,8500.0,,FEW,5000.0,BKN,8400.0,OVC,25000.0,,
KRDR,06-06-2007,12:00,METAR,,160,12,,,9999,,16.0,9.0,29.45,998.7,,,,,,,,,,,,,,,8/8 Overcast,9500.0,,FEW,5000.0,BKN,9400.0,OVC,25000.0,,
KRDR,06-06-2007,11:00,METAR,,170,12,,,9999,,15.0,8.0,29.47,999.3,,,,,,,,,,,,,,,7/8 Mostly Cloudy,8500.0,,BKN,8400.0,BKN,25000.0,,,,
KRDR,06-06-2007,10:00,METAR,,170,14,,,9999,,15.0,8.0,29.49,1000.0,,,,,,,,,,,,,,,7/8 Mostly Cloudy,9500.0,,BKN,9400.0,,,,,,
KRDR,06-06-2007,09:00,METAR,,170,10,,,9999,,13.0,9.0,29.50,1000.3,,,,,,,,,,,,,,,Clear,72000.0,,,73000.0,,,,,,
KRDR,06-06-2007,08:00,METAR,,160,9,,,9999,,14.0,9.0,29.54,1001.5,,,,,,,,,,,,,,,Clear,72000.0,,,73000.0,,,,,,
KRDR,06-06-2007,07:00,METAR,,160,9,,,9999,,15.0,9.0,29.56,1002.3,,,,,,,,,,,,,,,Clear,72000.0,,,73000.0,,,,,,
KRDR,06-06-2007,06:00,METAR,,180,11,,,9999,,16.0,9.0,29.60,1003.5,,,,,,,,,,,,,,,Clear,72000.0,,,73000.0,,,,,,
KRDR,06-06-2007,05:00,METAR,,180,9,,,9999,,15.0,9.0,29.62,1004.1,,,,,,,,,,,,,,,Clear,72000.0,,,73000.0,,,,,,
KRDR,06-06-2007,04:00,METAR,,160,7,,,9999,,15.0,10.0,29.63,1004.6,,,,,,,,,,,,,,,2/8 Mostly Clear,72000.0,,FEW,25000.0,,,,,,
KRDR,06-06-2007,03:00,METAR,,150,6,,,9999,,16.0,10.0,29.64,1004.8,,,,,,,,,,,,,,,2/8 Mostly Clear,72000.0,,FEW,25000.0,,,,,,
KRDR,06-06-2007,02:00,METAR,,180,5,,,9999,,18.0,10.0,29.64,1005.0,,,,,,,,,,,,,,,2/8 Mostly Clear,72000.0,,FEW,25000.0,,,,,,
KRDR,06-06-2007,01:00,METAR,,220,8,,,9999,,20.0,8.0,29.67,1005.8,,,,,,,,,,,,,,,2/8 Mostly Clear,72000.0,,FEW,5900.0,FEW,25000.0,,,,
KRDR,06-06-2007,00:00,METAR,,190,6,,,9999,,21.0,6.0,29.69,1006.4,,,,,,,,,,,,,,,4/8 Partly Cloudy,72000.0,,FEW,5900.0,SCT,25000.0,,,,
KRDR,06-05-2007,23:00,METAR,,,6,,,9999,,21.0,5.0,29.70,1007.0,,,,,,,,,,,,,,,4/8 Partly Cloudy,72000.0,,FEW,5900.0,SCT,25000.0,,,,
KRDR,06-05-2007,22:00,METAR,,,3,,,9999,,20.0,4.0,29.73,1007.8,,,,,,,,,,,,,,,2/8 Mostly Clear,72000.0,,FEW,5900.0,FEW,25000.0,,,,
KRDR,06-05-2007,21:00,METAR,,240,6,,,9999,,20.0,5.0,29.77,1009.1,,,,,,,,,,,,,,,2/8 Mostly Clear,72000.0,,FEW,5900.0,FEW,25000.0,,,,
KRDR,06-05-2007,20:00,METAR,,,5,,,9999,,18.0,5.0,29.80,1010.0,,,,,,,,,,,,,,,4/8 Partly Cloudy,72000.0,,FEW,5400.0,SCT,25000.0,,,,
KRDR,06-05-2007,19:00,METAR,,260,4,,,9999,,17.0,4.0,29.82,1010.7,,,,,,,,,,,,,,,4/8 Partly Cloudy,72000.0,,FEW,5400.0,SCT,25000.0,,,,
KRDR,06-05-2007,18:00,METAR,,,0,,,9999,,16.0,3.0,29.84,1011.4,,,,,,,,,,,,,,,4/8 Partly Cloudy,72000.0,,SCT,25000.0,,,,,,
KRDR,06-05-2007,17:00,METAR,,,0,,,9999,,15.0,4.0,29.87,1012.4,,,,,,,,,,,,,,,4/8 Partly Cloudy,72000.0,,SCT,25000.0,,,,,,
KRDR,06-05-2007,16:00,METAR,,,5,,,9999,,14.0,4.0,29.89,1013.0,,,,,,,,,,,,,,,4/8 Partly Cloudy,72000.0,,SCT,25000.0,,,,,,
KRDR,06-05-2007,15:00,METAR,,,0,,,9999,,12.0,4.0,29.91,1013.9,,,,,,,,,,,,,,,4/8 Partly Cloudy,72000.0,,SCT,25000.0,,,,,,
KRDR,06-05-2007,14:00,METAR,,,4,,,9999,,10.0,4.0,29.93,1014.5,,,,,,,,,,,,,,,4/8 Partly Cloudy,72000.0,,SCT,25000.0,,,,,,
KRDR,06-05-2007,13:00,METAR,,330,5,,,9999,,8.0,3.0,29.94,1014.9,,,,,,,,,,,,,,,2/8 Mostly Clear,72000.0,,FEW,25000.0,,,,,,
KRDR,06-05-2007,12:00,METAR,,330,5,,,9999,,6.0,2.0,29.95,1015.2,,,,,,,,,,,,,,,2/8 Mostly Clear,72000.0,,FEW,25000.0,,,,,,
KRDR,06-05-2007,11:00,METAR,,310,6,,,9999,,4.0,2.0,29.95,1015.1,,,,,,,,,,,,,,,2/8 Mostly Clear,72000.0,,FEW,25000.0,,,,,,
KRDR,06-05-2007,10:00,METAR,,330,6,,,9999,,5.0,2.0,29.95,1015.2,,,,,,,,,,,,,,,Clear,72000.0,,,73000.0,,,,,,
KRDR,06-05-2007,09:00,METAR,,320,6,,,9999,,6.0,2.0,29.96,1015.5,,,,,,,,,,,,,,,Clear,72000.0,,,73000.0,,,,,,
KRDR,06-05-2007,08:00,METAR,,310,6,,,9999,,6.0,2.0,29.97,1015.6,,,,,,,,,,,,,,,Clear,72000.0,,,73000.0,,,,,,
KRDR,06-05-2007,07:00,METAR,,320,6,,,9999,,6.0,2.0,29.96,1015.5,,,,,,,,,,,,,,,Clear,72000.0,,,73000.0,,,,,,
KRDR,06-05-2007,06:00,METAR,,340,5,,,9999,,7.0,2.0,29.96,1015.3,,,,,,,,,,,,,,,Clear,72000.0,,,73000.0,,,,,,
KRDR,06-05-2007,05:00,METAR,,350,7,,,9999,,7.0,2.0,29.96,1015.6,,,,,,,,,,,,,,,Clear,72000.0,,,73000.0,,,,,,
KRDR,06-05-2007,04:00,METAR,,20,9,,,9999,,10.0,2.0,29.96,1015.5,,,,,,,,,,,,,,,Clear,72000.0,,,73000.0,,,,,,
KRDR,06-05-2007,03:00,METAR,,10,11,,,9999,,12.0,1.0,29.95,1015.2,,,,,,,,,,,,,,,Clear,72000.0,,,73000.0,,,,,,
KRDR,06-05-2007,02:00,METAR,,10,14,22.0,,9999,,15.0,3.0,29.93,1014.5,,,,,,,,,,,,,,,2/8 Mostly Clear,72000.0,,FEW,6900.0,,,,,,
KRDR,06-05-2007,01:00,METAR,,20,18,23.0,,9999,,17.0,7.0,29.92,1014.0,,,,,,,,,,,,,,,4/8 Partly Cloudy,72000.0,,SCT,7400.0,,,,,,
KRDR,06-05-2007,00:00,METAR,,10,15,25.0,020/26KTS,9999,,18.0,7.0,29.91,1013.7,,,,,,,,,,,,,,,4/8 Partly Cloudy,72000.0,,SCT,7400.0,SCT,9900.0,,,,
KRDR,06-04-2007,23:00,METAR,,360,15,26.0,340/31KTS,9999,,20.0,1.0,29.90,1013.5,,,,,,,,,,,,,,,2/8 Mostly Clear,72000.0,,FEW,7900.0,,,,,,
KRDR,06-04-2007,22:00,METAR,,360,20,27.0,360/29KTS,9999,,20.0,5.0,29.90,1013.5,,,,,,,,,,,,,,,4/8 Partly Cloudy,72000.0,,SCT,7900.0,,,,,,
KRDR,06-04-2007,21:00,METAR,,20,18,28.0,030/29KTS,9999,,19.0,7.0,29.92,1014.0,,,,,,,,,,,,,,,7/8 Mostly Cloudy,7000.0,,BKN,6900.0,,,,,,
KRDR,06-04-2007,20:00,METAR,,10,13,21.0,010/29KTS,9999,,20.0,7.0,29.91,1013.8,,,,,,,,,,,,,,,7/8 Mostly Cloudy,7000.0,,BKN,6900.0,,,,,,
KRDR,06-04-2007,19:00,METAR,,20,19,29.0,020/30KTS,9999,,20.0,7.0,29.92,1014.1,,,,,,,,,,,,,,,4/8 Partly Cloudy,72000.0,,SCT,6400.0,,,,,,
KRDR,06-04-2007,18:00,METAR,,10,22,27.0,030/35KTS,9999,,20.0,6.0,29.92,1014.2,,,,,,,,,,,,,,,2/8 Mostly Clear,72000.0,,FEW,5400.0,,,,,,
KRDR,06-04-2007,17:00,METAR,,20,17,29.0,020/30KTS,9999,,19.0,6.0,29.92,1014.1,,,,,,,,,,,,,,,2/8 Mostly Clear,72000.0,,FEW,5000.0,,,,,,
KRDR,06-04-2007,16:00,METAR,,30,20,29.0,030/29KTS,9999,,19.0,7.0,29.91,1013.8,,,,,,,,,,,,,,,2/8 Mostly Clear,72000.0,,FEW,3000.0,,,,,,
KRDR,06-04-2007,15:00,METAR,,360,17,26.0,010/26KTS,9999,,18.0,9.0,29.91,1013.7,,,,,,,,,,,,,,,2/8 Mostly Clear,72000.0,,FEW,12000.0,,,,,,
KRDR,06-04-2007,14:00,METAR,,360,12,22.0,,9999,,17.0,11.0,29.91,1013.6,,,,,,,,,,,,,,,4/8 Partly Cloudy,72000.0,,FEW,2500.0,SCT,12000.0,,,,
KRDR,06-04-2007,13:00,METAR,,350,13,23.0,,9999,,16.0,11.0,29.89,1013.2,,,,,,,,,,,,,,,7/8 Mostly Cloudy,12000.0,,FEW,7900.0,BKN,12000.0,,,,
KRDR,06-04-2007,12:00,METAR,,350,13,,,9999,,15.0,9.0,29.88,1012.7,,,,,,,,,,,,,TRACE,,7/8 Mostly Cloudy,25000.0,,SCT,8900.0,SCT,12000.0,BKN,25000.0,,
KRDR,06-04-2007,11:00,METAR,,360,11,,,9999,,15.0,8.0,29.87,1012.4,,,,,,,,,,,,,,,8/8 Overcast,9000.0,,OVC,8900.0,,,,,,
KRDR,06-04-2007,10:00,METAR,,350,9,,,9999,,16.0,11.0,29.86,1012.1,,,,,,,,,,,TRACE,,,,8/8 Overcast,9500.0,,OVC,9400.0,,,,,,
KRDR,06-04-2007,09:31,SPECI,,330,6,,,9999,,16.0,12.0,29.86,1012.3,,,,,,,,,,,,,,,8/8 Overcast,8000.0,,OVC,7900.0,,,,,,
KRDR,06-04-2007,09:16,SPECI,,340,8,,,9999,,16.0,11.0,29.86,1012.2,,,,,,,,,,,,,,,8/8 Overcast,8000.0,,OVC,7900.0,,,,,,
KRDR,06-04-2007,09:00,METAR,,350,10,,,9999,,16.0,11.0,29.85,1011.9,,,,,,,,,,,TRACE,TRACE,,,4/8 Partly Cloudy,72000.0,,SCT,8900.0,,,,,,
KRDR,06-04-2007,08:49,SPECI,,350,10,,,9999,,16.0,11.0,29.85,1011.8,,,,,,,,,,,,,,,4/8 Partly Cloudy,72000.0,,SCT,8900.0,,,,,,
KRDR,06-04-2007,08:00,METAR,,10,9,,,9999,,16.0,12.0,29.84,1011.3,,,,,,,,,,,,,,,Clear,72000.0,,,73000.0,,,,,,
KRDR,06-04-2007,07:00,METAR,,360,6,,,9999,,15.0,13.0,29.82,1010.9,,,,,,,,,,,,,,,Clear,72000.0,,,73000.0,,,,,,
KRDR,06-04-2007,06:00,METAR,,360,7,,,9999,,15.0,12.0,29.82,1010.7,,,,,,,,,,,,,TRACE,,Clear,72000.0,,,73000.0,,,,,,
KRDR,06-04-2007,05:00,METAR,,70,9,,,9999,,17.0,12.0,29.82,1010.8,,,,,,,,,,,,,,,Clear,72000.0,,,73000.0,,,,,,
KRDR,06-04-2007,04:00,METAR,,310,6,,,9999,,17.0,12.0,29.81,1010.5,,,,,,,,,,,,,,,Clear,72000.0,,,73000.0,,,,,,
KRDR,06-04-2007,03:00,METAR,,10,7,,,9999,,17.0,12.0,29.81,1010.4,,,,,,,,,,,,TRACE,,,Clear,72000.0,,,73000.0,,,,,,
KRDR,06-04-2007,02:00,METAR,,350,6,,,9999,,20.0,14.0,29.80,1010.2,,,,,,,,,,,,,,,2/8 Mostly Clear,72000.0,,FEW,12000.0,,,,,,
KRDR,06-04-2007,01:00,METAR,,10,9,,020/30KTS,9999,,24.0,12.0,29.79,1009.9,,,,,,,,,,,TRACE,,,,2/8 Mostly Clear,72000.0,,FEW,7400.0,,,,,,
KRDR,06-04-2007,00:43,SPECI,,20,12,,020/30KTS,9999,,24.0,11.0,29.79,1009.9,,,,,,,,,,,,,,,4/8 Partly Cloudy,72000.0,,FEW,7400.0,SCT,12000.0,,,,
KRDR,06-04-2007,00:32,SPECI,,20,21,30.0,020/30KTS,9999,Unknown Precipitation,24.0,12.0,29.79,1009.9,40,,,,,,,,,,,,,,4/8 Partly Cloudy,72000.0,,FEW,7400.0,SCT,9900.0,,,,
KRDR,06-04-2007,00:00,METAR,,20,12,,,9999,,26.0,13.0,29.78,1009.6,,,,,,,,,,,,,,,Clear,72000.0,,,73000.0,,,,,,
KRDR,06-03-2007,23:00,METAR,,30,10,,,9999,,26.0,14.0,29.79,1009.7,,,,,,,,,,,,,,,7/8 Mostly Cloudy,25000.0,,FEW,6400.0,SCT,12000.0,BKN,25000.0,,
KRDR,06-03-2007,22:00,METAR,,20,14,20.0,,9999,,26.0,13.0,29.79,1009.9,,,,,,,,,,,,,,,4/8 Partly Cloudy,72000.0,,SCT,6400.0,,,,,,
KRDR,06-03-2007,21:00,METAR,,30,14,19.0,,9999,,26.0,13.0,29.80,1010.1,,,,,,,,,,,,,,,4/8 Partly Cloudy,72000.0,,SCT,5900.0,,,,,,
KRDR,06-03-2007,20:00,METAR,,10,14,20.0,,9999,,26.0,14.0,29.81,1010.5,,,,,,,,,,,,,,,2/8 Mostly Clear,72000.0,,FEW,5400.0,,,,,,
KRDR,06-03-2007,19:00,METAR,,20,14,19.0,,9999,,25.0,14.0,29.82,1010.8,,,,,,,,,,,,,,,2/8 Mostly Clear,72000.0,,FEW,4000.0,,,,,,
KRDR,06-03-2007,18:00,METAR,,20,13,19.0,,9999,,25.0,14.0,29.83,1011.3,,,,,,,,,,,,,,,2/8 Mostly Clear,72000.0,,FEW,4000.0,,,,,,
KRDR,06-03-2007,17:00,METAR,,10,13,,,9999,,24.0,15.0,29.84,1011.5,,,,,,,,,,,,,,,2/8 Mostly Clear,72000.0,,FEW,4000.0,,,,,,
KRDR,06-03-2007,16:00,METAR,,10,13,,,9999,,22.0,15.0,29.84,1011.5,,,,,,,,,,,,,,,2/8 Mostly Clear,72000.0,,FEW,4000.0,,,,,,
KRDR,06-03-2007,15:00,METAR,,350,12,,,9999,,21.0,15.0,29.85,1011.9,,,,,,,,,,,,,,,2/8 Mostly Clear,72000.0,,FEW,4000.0,,,,,,
KRDR,06-03-2007,14:00,METAR,,360,13,,,9999,,20.0,15.0,29.86,1012.0,,,,,,,,,,,,,,,Clear,72000.0,,,73000.0,,,,,,
KRDR,06-03-2007,13:00,METAR,,350,8,,,9999,,17.0,15.0,29.85,1011.7,,,,,,,,,,,,,,,Clear,72000.0,,,73000.0,,,,,,
KRDR,06-03-2007,12:00,METAR,,330,6,,,9999,,15.0,13.0,29.84,1011.6,,,,,,,,,,,,,,.24 IN,Clear,72000.0,,,73000.0,,,,,,
KRDR,06-03-2007,11:00,METAR,,340,6,,,9999,,15.0,13.0,29.84,1011.3,,,,,,,,,,,,,,,Clear,72000.0,,,73000.0,,,,,,
KRDR,06-03-2007,10:00,METAR,,340,8,,,9999,,15.0,13.0,29.83,1011.0,,,,,,,,,,,,,,,4/8 Partly Cloudy,72000.0,,SCT,2700.0,,,,,,
KRDR,06-03-2007,09:14,SPECI,,350,7,,,9999,,15.0,14.0,29.82,1010.8,,,,,,,,,,,,,,,7/8 Mostly Cloudy,2700.0,,BKN,2700.0,,,,,,
KRDR,06-03-2007,09:00,METAR,,350,8,,,9999,,15.0,14.0,29.82,1010.7,,,,,,,,,,,,,,,Clear,72000.0,,,73000.0,,,,,,
KRDR,06-03-2007,08:31,SPECI,,350,9,,,9999,,16.0,14.0,29.81,1010.5,,,,,,,,,,,,,,,4/8 Partly Cloudy,72000.0,,SCT,2700.0,,,,,,
KRDR,06-03-2007,08:00,METAR,,350,9,,,9999,,16.0,14.0,29.81,1010.4,,,,,,,,,,,,,,,7/8 Mostly Cloudy,2200.0,,BKN,2200.0,,,,,,
KRDR,06-03-2007,07:00,METAR,,360,8,,,9999,,17.0,15.0,29.81,1010.4,,,,,,,,,,,,,,,7/8 Mostly Cloudy,4200.0,,FEW,2600.0,BKN,4300.0,BKN,8400.0,,
KRDR,06-03-2007,06:33,SPECI,,10,9,,,9999,,18.0,15.0,29.81,1010.3,,,,,,,,,,,,,,,8/8 Overcast,3000.0,,OVC,3000.0,,,,,,
KRDR,06-03-2007,06:00,METAR,,350,8,,,9999,Light Drizzle,18.0,16.0,29.81,1010.4,51,,,,,,,,,,TRACE,,.12 IN,,8/8 Overcast,2500.0,,SCT,1800.0,BKN,2500.0,OVC,5000.0,,
KRDR,06-03-2007,05:54,SPECI,,350,10,,,9999,,18.0,16.0,29.81,1010.4,,,,,,,,,,,,,,,8/8 Overcast,3000.0,,OVC,3000.0,,,,,,
KRDR,06-03-2007,05:50,METAR,,350,8,,,9999,Light Rain,18.0,16.0,29.81,1010.4,61,,,,,,,,,,,,,,8/8 Overcast,2500.0,,FEW,1800.0,BKN,2500.0,OVC,5400.0,,
KRDR,06-03-2007,05:42,SPECI,,360,7,,,9999,Light Rain,18.0,16.0,29.81,1010.4,61,,,,,,,,,,,,,,7/8 Mostly Cloudy,3900.0,,FEW,2400.0,BKN,5000.0,,,,
KRDR,06-03-2007,05:00,METAR,,320,5,,,9999,,17.0,17.0,29.81,1010.4,,,,,,,,,,,,,,,8/8 Overcast,4700.0,,FEW,2900.0,BKN,4800.0,OVC,9900.0,,
KRDR,06-03-2007,04:00,METAR,,290,5,,,9999,,17.0,17.0,29.80,1010.2,,,,,,,,,,,,,,,8/8 Overcast,8500.0,,OVC,8400.0,,,,,,
KRDR,06-03-2007,03:00,METAR,,280,5,,,9999,,17.0,16.0,29.80,1010.1,,,,,,,,,,,.01 IN,.12 IN,,,7/8 Mostly Cloudy,10000.0,,BKN,9900.0,,,,,,
KRDR,06-03-2007,02:33,SPECI,,270,5,,,9999,,18.0,17.0,29.80,1010.1,,,,,,,,,,,,,,,4/8 Partly Cloudy,72000.0,,SCT,11000.0,,,,,,
KRDR,06-03-2007,02:12,SPECI,,,0,,,9999,,18.0,17.0,29.79,1009.9,,,,,,,,,,,,,,,4/8 Partly Cloudy,72000.0,,SCT,8400.0,,,,,,
KRDR,06-03-2007,02:00,METAR,,280,4,,,9999,,18.0,17.0,29.79,1009.9,,,,,,,,,,,TRACE,,,,7/8 Mostly Cloudy,7500.0,,BKN,7400.0,,,,,,
KRDR,06-03-2007,01:00,METAR,,230,5,,,9999,Light Rain,19.0,17.0,29.78,1009.6,61,,,,,,,,,,.11 IN,,,,8/8 Overcast,6500.0,,OVC,6400.0,,,,,,
KRDR,06-03-2007,00:24,SPECI,,240,7,,,4800,Light Rain/Mist,19.0,17.0,29.78,1009.4,61,10,,,,,,,,,,,,,4/8 Partly Cloudy,72000.0,,FEW,4400.0,SCT,8900.0,,,,
KRDR,06-03-2007,00:22,SPECI,,230,8,,,3200,Light Rain/Mist,19.0,17.0,29.77,1009.3,61,10,,,,,,,,,,,,,2/8 Mostly Clear,72000.0,,FEW,5400.0,,,,,,
KRDR,06-03-2007,00:15,SPECI,,260,6,,,2000,Heavy Rain,19.0,16.0,29.78,1009.4,63,,,,,,,,,,,,,,4/8 Partly Cloudy,72000.0,,FEW,300.0,SCT,6900.0,,,,
KRDR,06-03-2007,00:12,SPECI,,,0,,,2800,Heavy Rain,19.0,16.0,29.78,1009.6,63,,,,,,,,,,,,,,4/8 Partly Cloudy,72000.0,,FEW,300.0,SCT,6900.0,,,,
KRDR,06-03-2007,00:07,SPECI,,320,2,,,9999,Light Rain,19.0,16.0,29.79,1009.7,61,,,,,,,,,,,,,,4/8 Partly Cloudy,72000.0,,FEW,400.0,SCT,5400.0,SCT,6900.0,,
KRDR,06-03-2007,00:00,METAR,,120,7,,,4800,Light Rain,19.0,17.0,29.77,1009.2,61,,,,,,,,,,.12 IN,,.12 IN,,7/8 Mostly Cloudy,4500.0,,FEW,400.0,BKN,4600.0,BKN,6400.0,,
KRDR,06-02-2007,23:50,METAR,,140,6,,,2800,Light Rain,19.0,17.0,29.77,1009.2,61,,,,,,,,,,,,,,7/8 Mostly Cloudy,6000.0,,FEW,500.0,SCT,4600.0,BKN,5900.0,,
KRDR,06-02-2007,23:46,SPECI,,200,7,,,1600,Heavy Rain,20.0,16.0,29.76,1008.9,63,,,,,,,,,,,,,,7/8 Mostly Cloudy,4900.0,,FEW,500.0,SCT,4000.0,BKN,5000.0,,
KRDR,06-02-2007,23:44,SPECI,,190,5,,,2000,Heavy Rain,20.0,16.0,29.77,1009.1,63,,,,,,,,,,,,,,7/8 Mostly Cloudy,4900.0,,FEW,600.0,SCT,3800.0,BKN,5000.0,,
KRDR,06-02-2007,23:42,SPECI,,180,4,,,2000,Light Rain,20.0,16.0,29.77,1009.2,61,,,,,,,,,,,,,,7/8 Mostly Cloudy,4900.0,,FEW,1800.0,SCT,3900.0,BKN,5000.0,,
KRDR,06-02-2007,23:41,SPECI,,160,3,,,2400,Light Rain,20.0,16.0,29.78,1009.3,61,,,,,,,,,,,,,,7/8 Mostly Cloudy,4900.0,,FEW,1800.0,SCT,3900.0,BKN,5000.0,,
KRDR,06-02-2007,23:25,METAR,,210,5,,,9999,,22.0,16.0,29.77,1009.2,,,,,,,,,,,,,,,7/8 Mostly Cloudy,6500.0,,FEW,2000.0,BKN,6400.0,,,,
KRDR,06-02-2007,23:00,METAR,,,0,,,9999,,22.0,15.0,29.76,1008.9,,,,,,,,,,,,,,,2/8 Mostly Clear,72000.0,,FEW,11000.0,,,,,,
KRDR,06-02-2007,22:00,METAR,,130,6,,,9999,,20.0,16.0,29.78,1009.4,,,,,,,,,,,,,,,7/8 Mostly Cloudy,6500.0,,SCT,5400.0,BKN,6400.0,BKN,9900.0,,
KRDR,06-02-2007,21:00,METAR,,130,6,,,9999,,21.0,16.0,29.77,1009.1,,,,,,,,,,,TRACE,TRACE,,,7/8 Mostly Cloudy,7000.0,,BKN,6900.0,,,,,,
KRDR,06-02-2007,20:16,SPECI,,20,10,,,9999,,23.0,15.0,29.76,1008.7,,,,,,,,,,,,,,,7/8 Mostly Cloudy,9000.0,,FEW,5900.0,BKN,8900.0,,,,
KRDR,06-02-2007,20:04,SPECI,,10,11,15.0,,9999,Light Rain,25.0,15.0,29.76,1008.8,61,,,,,,,,,,,,,,4/8 Partly Cloudy,72000.0,,FEW,2000.0,SCT,8400.0,SCT,9900.0,,
KRDR,06-02-2007,20:00,METAR,,10,6,,,9999,Unknown Precipitation,23.0,17.0,29.76,1008.8,40,,,,,,,,,,TRACE,,,,7/8 Mostly Cloudy,9500.0,,FEW,2500.0,BKN,9400.0,,,,
KRDR,06-02-2007,19:53,SPECI,,10,7,,,9999,,24.0,16.0,29.76,1008.8,,,,,,,,,,,,,,,7/8 Mostly Cloudy,9500.0,,FEW,2500.0,BKN,9400.0,,,,
KRDR,06-02-2007,19:33,SPECI,,360,10,,,9999,,24.0,15.0,29.78,1009.4,,,,,,,,,,,,,,,7/8 Mostly Cloudy,9500.0,,FEW,5000.0,BKN,9400.0,,,,
KRDR,06-02-2007,19:00,METAR,,10,12,,,9999,,25.0,15.0,29.78,1009.4,,,,,,,,,,,,,,,7/8 Mostly Cloudy,10000.0,,SCT,5400.0,BKN,9900.0,BKN,25000.0,,
KRDR,06-02-2007,18:00,METAR,,20,11,,,9999,,23.0,15.0,29.80,1010.0,,,,,,,,,,,,,,,7/8 Mostly Cloudy,9500.0,,FEW,4000.0,BKN,9400.0,BKN,25000.0,,
KRDR,06-02-2007,17:00,METAR,,10,11,,,9999,,22.0,16.0,29.80,1010.2,,,,,,,,,,,,,,,7/8 Mostly Cloudy,9000.0,,BKN,8900.0,BKN,25000.0,,,,
KRDR,06-02-2007,16:00,METAR,,360,10,,,9999,,20.0,15.0,29.81,1010.4,,,,,,,,,,,,,,,7/8 Mostly Cloudy,25000.0,,FEW,6900.0,SCT,12000.0,BKN,25000.0,,
KRDR,06-02-2007,15:00,METAR,,340,13,,,9999,,18.0,15.0,29.80,1010.3,,,,,,,,,,,,,,,7/8 Mostly Cloudy,25000.0,,SCT,5900.0,SCT,12000.0,BKN,25000.0,,
KRDR,06-02-2007,13:00,METAR,,350,8,,,9999,,16.0,14.0,29.81,1010.6,,,,,,,,,,,,,,,7/8 Mostly Cloudy,9500.0,,BKN,9400.0,,,,,,
KRDR,06-02-2007,12:00,METAR,,350,6,,,9999,,15.0,14.0,29.82,1010.8,,,,,,,,,,,,,TRACE,.06 IN,8/8 Overcast,7500.0,,OVC,7400.0,,,,,,
KRDR,06-02-2007,11:00,METAR,,350,8,,,9999,,15.0,14.0,29.80,1010.1,,,,,,,,,,,,,,,Clear,72000.0,,,73000.0,,,,,,
KRDR,06-02-2007,10:00,METAR,,340,10,,,9999,,15.0,14.0,29.80,1010.1,,,,,,,,,,,,,,,Clear,72000.0,,,73000.0,,,,,,
KRDR,06-02-2007,09:00,METAR,,340,9,,,9999,,16.0,14.0,29.81,1010.3,,,,,,,,,,,,TRACE,,,7/8 Mostly Cloudy,11000.0,,BKN,11000.0,,,,,,
KRDR,06-02-2007,08:00,METAR,,330,8,,,9999,,16.0,14.0,29.81,1010.5,,,,,,,,,,,TRACE,,,,7/8 Mostly Cloudy,10000.0,,SCT,6900.0,BKN,9900.0,,,,
KRDR,06-02-2007,07:00,METAR,,20,2,,,9999,,16.0,14.0,29.84,1011.3,,,,,,,,,,,,,,,8/8 Overcast,8000.0,,OVC,7900.0,,,,,,
KRDR,06-02-2007,06:55,METAR,,10,4,,,9999,Light Drizzle,16.0,14.0,29.84,1011.4,51,,,,,,,,,,TRACE,,,,8/8 Overcast,8500.0,,OVC,8400.0,,,,,,
KRDR,06-02-2007,06:27,SPECI,,360,2,,,9999,Unknown Precipitation,16.0,14.0,29.83,1011.2,40,,,,,,,,,,,,,,8/8 Overcast,9000.0,,OVC,8900.0,,,,,,
KRDR,06-02-2007,06:00,METAR,,320,4,,,9999,Light Drizzle,16.0,14.0,29.83,1011.3,51,,,,,,,,,,TRACE,,TRACE,,8/8 Overcast,9000.0,,OVC,8900.0,,,,,,
KRDR,06-02-2007,05:53,SPECI,,320,4,,,9999,,16.0,14.0,29.83,1011.3,,,,,,,,,,,,,,,8/8 Overcast,9000.0,,OVC,8900.0,,,,,,
KRDR,06-02-2007,05:42,SPECI,,340,5,,,9999,Unknown Precipitation,16.0,15.0,29.84,1011.4,40,,,,,,,,,,,,,,8/8 Overcast,8500.0,,OVC,8400.0,,,,,,
KRDR,06-02-2007,05:00,METAR,,10,4,,,9999,,16.0,15.0,29.84,1011.6,,,,,,,,,,,,,,,7/8 Mostly Cloudy,7500.0,,BKN,7400.0,,,,,,
KRDR,06-02-2007,04:00,METAR,,10,8,,,9999,,17.0,15.0,29.84,1011.5,,,,,,,,,,,,,,,7/8 Mostly Cloudy,7500.0,,BKN,7400.0,BKN,9900.0,,,,
KRDR,06-02-2007,03:00,METAR,,20,7,,,9999,,18.0,15.0,29.84,1011.5,,,,,,,,,,,TRACE,TRACE,,,7/8 Mostly Cloudy,11000.0,,FEW,6900.0,BKN,11000.0,,,,
KRDR,06-02-2007,02:33,SPECI,,10,8,,,9999,,18.0,16.0,29.84,,,,,,,,,,,,,,,,7/8 Mostly Cloudy,8000.0,,FEW,2900.0,BKN,7900.0,BKN,11000.0,,
KRDR,06-02-2007,02:12,SPECI,,10,8,,,9999,Light Rain Showers,19.0,16.0,29.84,,,,,80,,,,,,,,,,,7/8 Mostly Cloudy,7500.0,,FEW,2800.0,BKN,7400.0,BKN,8900.0,,
KRDR,06-02-2007,02:05,SPECI,,10,7,,,9999,Light Rain Showers,19.0,15.0,29.84,,,,,80,,,,,,,,,,,7/8 Mostly Cloudy,7000.0,,FEW,2800.0,BKN,6900.0,BKN,12000.0,,
KRDR,06-02-2007,02:00,METAR,,10,9,,,9999,,19.0,15.0,29.84,1011.3,,,,,,,,,,,,,,,7/8 Mostly Cloudy,7500.0,,BKN,7400.0,BKN,12000.0,,,,
KRDR,06-02-2007,01:00,METAR,,360,8,,,9999,,19.0,13.0,29.84,1011.4,,,,,,,,,,,,,,,7/8 Mostly Cloudy,8000.0,,BKN,7900.0,BKN,12000.0,,,,
KRDR,06-02-2007,00:00,METAR,,30,7,,,9999,,20.0,15.0,29.84,1011.4,,,,,,,,,,,,,TRACE,,7/8 Mostly Cloudy,11000.0,,SCT,6400.0,BKN,11000.0,,,,
KRDR,06-01-2007,23:00,METAR,,180,6,,,9999,,23.0,14.0,29.84,1011.3,,,,,,,,,,,,,,,7/8 Mostly Cloudy,25000.0,,SCT,6400.0,SCT,9900.0,BKN,25000.0,,
KRDR,06-01-2007,22:00,METAR,,,0,,,9999,,22.0,14.0,29.85,1011.8,,,,,,,,,,,,,,,7/8 Mostly Cloudy,25000.0,,SCT,6400.0,SCT,15000.0,BKN,25000.0,,
KRDR,06-01-2007,21:00,METAR,,190,5,,,9999,,22.0,14.0,29.86,1012.0,,,,,,,,,,,,,,,7/8 Mostly Cloudy,15000.0,,SCT,6400.0,BKN,15000.0,BKN,25000.0,,
KRDR,06-01-2007,20:00,METAR,,160,6,,,9999,,21.0,15.0,29.87,1012.3,,,,,,,,,,,,,,,7/8 Mostly Cloudy,15000.0,,SCT,6400.0,BKN,15000.0,BKN,25000.0,,
KRDR,06-01-2007,19:00,METAR,,170,10,,,9999,,21.0,14.0,29.88,1012.7,,,,,,,,,,,,,,,7/8 Mostly Cloudy,25000.0,,SCT,6400.0,SCT,15000.0,BKN,25000.0,,
KRDR,06-01-2007,18:00,METAR,,130,9,,,9999,,22.0,15.0,29.87,1012.6,,,,,,,,,,,,,,,7/8 Mostly Cloudy,25000.0,,SCT,5000.0,SCT,12000.0,BKN,25000.0,,
KRDR,06-01-2007,17:00,METAR,,140,5,,,9999,,22.0,15.0,29.88,1012.7,,,,,,,,,,,,,,,7/8 Mostly Cloudy,15000.0,,FEW,5000.0,SCT,9900.0,BKN,15000.0,BKN,25000.0
KRDR,06-01-2007,16:00,METAR,,140,7,,,9999,,21.0,15.0,29.89,1013.0,,,,,,,,,,,,,,,7/8 Mostly Cloudy,15000.0,,SCT,11000.0,BKN,15000.0,BKN,25000.0,,
KRDR,06-01-2007,15:00,METAR,,120,3,,,9999,,20.0,14.0,29.88,1012.9,,,,,,,,,,,,,,,7/8 Mostly Cloudy,25000.0,,SCT,9400.0,BKN,25000.0,,,,
KRDR,06-01-2007,14:00,METAR,,,0,,,9999,,16.0,14.0,29.89,1013.1,,,,,,,,,,,,,,,7/8 Mostly Cloudy,25000.0,,SCT,9400.0,BKN,25000.0,,,,
KRDR,06-01-2007,13:00,METAR,,,0,,,9999,,14.0,13.0,29.89,1013.2,,,,,,,,,,,,,,,7/8 Mostly Cloudy,25000.0,,SCT,9400.0,BKN,25000.0,,,,
KRDR,06-01-2007,12:00,METAR,,10,3,,,9999,,13.0,12.0,29.88,1012.7,,,,,,,,,,,,,,.01 IN,7/8 Mostly Cloudy,25000.0,,SCT,9400.0,BKN,25000.0,,,,
KRDR,06-01-2007,11:00,METAR,,20,3,,,9999,,11.0,11.0,29.88,1012.7,,,,,,,,,,,,,,,7/8 Mostly Cloudy,25000.0,,SCT,12000.0,BKN,25000.0,,,,
KRDR,06-01-2007,10:00,METAR,,340,5,,,9999,,12.0,12.0,29.87,1012.3,,,,,,,,,,,,,,,2/8 Mostly Clear,72000.0,,FEW,9900.0,,,,,,
KRDR,06-01-2007,09:00,METAR,,10,4,,,9999,,12.0,11.0,29.86,1012.1,,,,,,,,,,,TRACE,TRACE,,,Clear,72000.0,,,73000.0,,,,,,
KRDR,06-01-2007,08:14,SPECI,,,0,,,9999,,13.0,12.0,29.87,1012.5,,,,,,,,,,,,,,,8/8 Overcast,9000.0,,OVC,8900.0,,,,,,
KRDR,06-01-2007,08:03,SPECI,,330,2,,,9999,Light Drizzle,13.0,12.0,29.87,1012.4,51,,,,,,,,,,,,,,8/8 Overcast,9500.0,,OVC,9400.0,,,,,,
KRDR,06-01-2007,08:00,METAR,,,0,,,9999,,13.0,12.0,29.87,1012.5,,,,,,,,,,,,,,,8/8 Overcast,9500.0,,OVC,9400.0,,,,,,
KRDR,06-01-2007,07:00,METAR,,150,2,,,9999,,12.0,11.0,29.88,1012.7,,,,,,,,,,,,,,,Clear,72000.0,,,73000.0,,,,,,
KRDR,06-01-2007,06:00,METAR,,40,2,,,9999,,13.0,12.0,29.88,1012.6,,,,,,,,,,,,,.01 IN,,Clear,72000.0,,,73000.0,,,,,,
KRDR,06-01-2007,05:00,METAR,,70,3,,,9999,,15.0,13.0,29.88,1012.9,,,,,,,,,,,,,,,Clear,72000.0,,,73000.0,,,,,,
KRDR,06-01-2007,04:00,METAR,,100,5,,,9999,,17.0,13.0,29.88,1012.7,,,,,,,,,,,TRACE,,,,4/8 Partly Cloudy,72000.0,,SCT,5900.0,,,,,,
KRDR,06-01-2007,03:00,METAR,,90,4,,,9999,,18.0,14.0,29.88,1012.7,,,,,,,,,,,.01 IN,.01 IN,,,7/8 Mostly Cloudy,8500.0,,FEW,5900.0,BKN,8400.0,,,,
KRDR,06-01-2007,02:37,SPECI,,80,6,,,9999,Light Rain Showers,19.0,13.0,29.87,,,,,80,,,,,,,,,,,4/8 Partly Cloudy,72000.0,,SCT,5900.0,SCT,9900.0,,,,
KRDR,06-01-2007,02:00,METAR,,90,6,,,9999,,20.0,13.0,29.86,1012.2,,,,,,,,,,,,,,,4/8 Partly Cloudy,72000.0,,SCT,7900.0,SCT,12000.0,,,,
KRDR,06-01-2007,01:00,METAR,,120,9,,,9999,,22.0,13.0,29.86,1012.0,,,,,,,,,,,,,,,4/8 Partly Cloudy,72000.0,,SCT,5900.0,SCT,25000.0,,,,
KRDR,06-01-2007,00:00,METAR,,100,9,,,9999,,22.0,12.0,29.85,1011.7,,,,,,,,,,,,,TRACE,,4/8 Partly Cloudy,72000.0,,SCT,5000.0,,,,,,
KRDR,05-31-2007,23:00,METAR,,120,10,18.0,,9999,,22.0,12.0,29.85,1011.7,,,,,,,,,,,,,,,7/8 Mostly Cloudy,25000.0,,SCT,5400.0,BKN,25000.0,,,,
KRDR,05-31-2007,22:00,METAR,,160,10,,,9999,,22.0,13.0,29.85,1011.6,,,,,,,,,,,,,,,7/8 Mostly Cloudy,25000.0,,SCT,4800.0,BKN,25000.0,,,,
KRDR,05-31-2007,21:00,METAR,,170,10,,,9999,,21.0,13.0,29.86,1012.1,,,,,,,,,,,,,,,7/8 Mostly Cloudy,25000.0,,SCT,4500.0,BKN,25000.0,,,,
KRDR,05-31-2007,20:00,METAR,,180,10,18.0,,9999,,21.0,13.0,29.87,1012.3,,,,,,,,,,,,,,,7/8 Mostly Cloudy,25000.0,,SCT,3700.0,BKN,25000.0,,,,
KRDR,05-31-2007,19:00,METAR,,140,12,,,9999,,20.0,13.0,29.87,1012.4,,,,,,,,,,,,,,,7/8 Mostly Cloudy,25000.0,,SCT,3800.0,BKN,25000.0,,,,
KRDR,05-31-2007,18:00,METAR,,170,11,19.0,,9999,,19.0,13.0,29.88,1012.7,,,,,,,,,,,,,,,7/8 Mostly Cloudy,15000.0,,SCT,3200.0,BKN,15000.0,BKN,25000.0,,
KRDR,05-31-2007,17:00,METAR,,180,13,,,9999,,18.0,12.0,29.88,1012.6,,,,,,,,,,,,,,,7/8 Mostly Cloudy,15000.0,,SCT,2500.0,BKN,15000.0,BKN,25000.0,,
KRDR,05-31-2007,16:00,METAR,,170,11,,,9999,,17.0,12.0,29.87,1012.4,,,,,,,,,,,,,,,7/8 Mostly Cloudy,15000.0,,SCT,2300.0,BKN,15000.0,,,,
KRDR,05-31-2007,15:00,METAR,,160,10,,,9999,,15.0,11.0,29.86,1012.2,,,,,,,,,,,,,,,4/8 Partly Cloudy,72000.0,,SCT,1700.0,,,,,,
KRDR,05-31-2007,14:03,SPECI,,160,12,,,9999,,14.0,11.0,29.85,,,,,,,,,,,,,,,,7/8 Mostly Cloudy,25000.0,,SCT,1300.0,BKN,25000.0,,,,
KRDR,05-31-2007,14:00,METAR,,160,11,,,9999,,14.0,12.0,29.85,1011.7,,,,,,,,,,,,,,,7/8 Mostly Cloudy,25000.0,,SCT,1400.0,BKN,25000.0,,,,
KRDR,05-31-2007,13:00,METAR,,150,9,,,9999,,13.0,10.0,29.83,1011.2,,,,,,,,,,,,,,,7/8 Mostly Cloudy,25000.0,,SCT,1600.0,BKN,25000.0,,,,
KRDR,05-31-2007,12:47,SPECI,,160,9,,,9999,,13.0,10.0,29.83,,,,,,,,,,,,,,,,7/8 Mostly Cloudy,25000.0,,SCT,1600.0,BKN,25000.0,,,,
KRDR,05-31-2007,12:00,METAR,,160,6,,,9999,,12.0,10.0,29.82,1010.7,,,,,,,,,,,,,TRACE,.4 IN,7/8 Mostly Cloudy,1600.0,,BKN,1600.0,BKN,25000.0,,,,
KRDR,05-31-2007,11:00,METAR,,190,9,,,9999,,12.0,10.0,29.80,1010.0,,,,,,,,,,,TRACE,,,,8/8 Overcast,1200.0,,OVC,1200.0,,,,,,
KRDR,05-31-2007,10:20,METAR,,180,9,,,9999,,12.0,10.0,29.79,1009.9,,,,,,,,,,,,,,,8/8 Overcast,1000.0,,FEW,500.0,OVC,1000.0,,,,
KRDR,05-31-2007,10:12,SPECI,,180,7,,,9999,,12.0,11.0,29.79,1009.9,,,,,,,,,,,,,,,8/8 Overcast,1100.0,,FEW,200.0,OVC,1100.0,,,,
KRDR,05-31-2007,10:05,SPECI,,190,10,,,9999,,12.0,11.0,29.79,1009.7,,,,,,,,,,,,,,,8/8 Overcast,100.0,,OVC,900.0,,,,,,
KRDR,05-31-2007,10:01,SPECI,,180,9,,,9999,,12.0,11.0,29.79,1009.7,,,,,,,,,,,,,,,8/8 Overcast,100.0,,OVC,700.0,,,,,,
KRDR,05-31-2007,10:00,METAR,,170,10,,,8000,Drizzle/Mist,11.0,11.0,29.79,1009.7,,,,51,10,,,,,,TRACE,,,,7/8 Mostly Cloudy,100.0,,BKN,600.0,,,,,,
KRDR,05-31-2007,09:54,SPECI,,170,9,,,9999,Mist,11.0,11.0,29.78,1009.6,,,,10,,,,,,,,,,,7/8 Mostly Cloudy,100.0,,BKN,600.0,,,,,,
KRDR,05-31-2007,09:49,SPECI,,170,10,,,8000,Drizzle/Mist,12.0,11.0,29.79,1009.6,,,,51,10,,,,,,,,,,7/8 Mostly Cloudy,100.0,,BKN,600.0,,,,,,
KRDR,05-31-2007,09:46,SPECI,,170,10,,,8000,Drizzle/Mist,12.0,11.0,29.78,1009.6,,,,51,10,,,,,,,,,,7/8 Mostly Cloudy,100.0,,BKN,400.0,,,,,,
KRDR,05-31-2007,09:44,SPECI,,170,10,,,9999,Drizzle/Mist,12.0,11.0,29.78,1009.6,,,,51,10,,,,,,,,,,7/8 Mostly Cloudy,100.0,,BKN,400.0,,,,,,
KRDR,05-31-2007,09:42,SPECI,,170,9,,,9999,,12.0,11.0,29.78,1009.6,,,,,,,,,,,,,,,7/8 Mostly Cloudy,100.0,,BKN,400.0,,,,,,
KRDR,05-31-2007,09:37,SPECI,,170,11,,,9999,,12.0,11.0,29.78,1009.6,,,,,,,,,,,,,,,7/8 Mostly Cloudy,200.0,,BKN,500.0,,,,,,
KRDR,05-31-2007,09:32,SPECI,,170,11,,,8000,Mist,12.0,11.0,29.78,1009.5,,,,10,,,,,,,,,,,7/8 Mostly Cloudy,100.0,,BKN,400.0,,,,,,
KRDR,05-31-2007,09:29,SPECI,,170,13,,,6400,Drizzle/Mist,12.0,11.0,29.78,1009.5,,,,51,10,,,,,,,,,,7/8 Mostly Cloudy,100.0,,BKN,400.0,,,,,,
KRDR,05-31-2007,09:27,SPECI,,180,12,,,6400,Drizzle/Mist,12.0,11.0,29.78,1009.5,,,,51,10,,,,,,,,,,7/8 Mostly Cloudy,100.0,,BKN,500.0,,,,,,
KRDR,05-31-2007,09:22,SPECI,,170,12,,,9999,Drizzle/Mist,12.0,11.0,29.78,1009.5,,,,51,10,,,,,,,,,,8/8 Overcast,100.0,,OVC,400.0,,,,,,
KRDR,05-31-2007,09:12,SPECI,,170,13,,,9999,,12.0,11.0,29.78,1009.3,,,,,,,,,,,,,,,8/8 Overcast,100.0,,OVC,400.0,,,,,,
KRDR,05-31-2007,09:08,SPECI,,160,14,,,9999,Drizzle,12.0,11.0,29.77,1009.3,,,,51,,,,,,,,,,,8/8 Overcast,100.0,,OVC,400.0,,,,,,
KRDR,05-31-2007,09:06,SPECI,,160,12,,,9999,Drizzle/Mist,12.0,11.0,29.77,1009.3,,,,51,10,,,,,,,,,,8/8 Overcast,100.0,,OVC,500.0,,,,,,
KRDR,05-31-2007,09:02,SPECI,,160,12,17.0,,8000,Mist,12.0,11.0,29.77,1009.3,,,,,10,,,,,,,,,,8/8 Overcast,800.0,,SCT,200.0,OVC,800.0,,,,
KRDR,05-31-2007,09:00,METAR,,170,10,,,9999,,12.0,11.0,29.78,1009.3,,,,,,,,,,,,TRACE,,,8/8 Overcast,500.0,,SCT,200.0,OVC,900.0,,,,
KRDR,05-31-2007,08:57,SPECI,,160,10,17.0,,9999,Mist,12.0,11.0,29.77,1009.3,,,,10,,,,,,,,,,,8/8 Overcast,100.0,,OVC,600.0,,,,,,
KRDR,05-31-2007,08:47,SPECI,,170,9,17.0,,9999,,12.0,11.0,29.77,1009.3,,,,,,,,,,,,,,,8/8 Overcast,800.0,,SCT,200.0,OVC,800.0,,,,
KRDR,05-31-2007,08:39,SPECI,,180,11,,,9999,,13.0,11.0,29.77,1009.1,,,,,,,,,,,,,,,8/8 Overcast,700.0,,FEW,200.0,OVC,900.0,,,,
KRDR,05-31-2007,08:26,SPECI,,180,12,,,9999,,13.0,11.0,29.77,1009.1,,,,,,,,,,,,,,,8/8 Overcast,600.0,,OVC,900.0,,,,,,
KRDR,05-31-2007,08:20,METAR,,170,13,,,9999,,13.0,11.0,29.77,1009.0,,,,,,,,,,,,,,,8/8 Overcast,600.0,,OVC,800.0,,,,,,
KRDR,05-31-2007,08:18,SPECI,,170,11,,,9999,,13.0,11.0,29.77,1009.1,,,,,,,,,,,,,,,8/8 Overcast,600.0,,OVC,900.0,,,,,,
KRDR,05-31-2007,08:14,SPECI,,180,14,,,9999,,13.0,11.0,29.77,1009.0,,,,,,,,,,,,,,,8/8 Overcast,500.0,,OVC,1000.0,,,,,,
KRDR,05-31-2007,08:09,SPECI,,180,12,,,9999,,13.0,12.0,29.76,1008.9,,,,,,,,,,,,,,,8/8 Overcast,500.0,,OVC,800.0,,,,,,
KRDR,05-31-2007,08:00,METAR,,170,6,,,9999,,14.0,12.0,29.76,1008.8,,,,,,,,,,,TRACE,,,,7/8 Mostly Cloudy,600.0,,BKN,600.0,,,,,,
KRDR,05-31-2007,07:48,SPECI,,160,5,,,9999,,14.0,12.0,29.76,1008.8,,,,,,,,,,,,,,,7/8 Mostly Cloudy,600.0,,BKN,600.0,,,,,,
KRDR,05-31-2007,07:46,SPECI,,160,5,,,9999,,14.0,12.0,29.76,1008.8,,,,,,,,,,,,,,,7/8 Mostly Cloudy,700.0,,BKN,700.0,,,,,,
KRDR,05-31-2007,07:45,METAR,,160,6,,,9999,,14.0,12.0,29.76,1008.8,,,,,,,,,,,,,,,7/8 Mostly Cloudy,600.0,,BKN,900.0,,,,,,
KRDR,05-31-2007,07:38,SPECI,,160,7,,,9999,,14.0,12.0,29.76,1008.7,,,,,,,,,,,,,,,7/8 Mostly Cloudy,700.0,,BKN,2700.0,,,,,,
KRDR,05-31-2007,07:33,SPECI,,150,8,,,9999,,14.0,12.0,29.75,1008.6,,,,,,,,,,,,,,,4/8 Partly Cloudy,72000.0,,FEW,800.0,SCT,6900.0,,,,
KRDR,05-31-2007,07:07,SPECI,,150,8,,,9999,,14.0,12.0,29.75,1008.6,,,,,,,,,,,,,,,8/8 Overcast,6000.0,,FEW,3300.0,OVC,5900.0,,,,
KRDR,05-31-2007,07:00,METAR,,160,13,,,9999,Drizzle,14.0,12.0,29.75,1008.5,,,,51,,,,,,,,,,,7/8 Mostly Cloudy,6000.0,,FEW,2800.0,SCT,3400.0,BKN,5900.0,,
KRDR,05-31-2007,06:38,SPECI,,150,9,,,9999,,15.0,13.0,29.75,1008.4,,,,,,,,,,,,,,,7/8 Mostly Cloudy,3100.0,,BKN,3100.0,,,,,,
KRDR,05-31-2007,06:00,METAR,,160,12,,,9999,,16.0,14.0,29.74,1008.3,,,,,,,,,,,,,.23 IN,,8/8 Overcast,2100.0,,OVC,2100.0,,,,,,
KRDR,05-31-2007,05:41,SPECI,,160,13,,,9999,,16.0,14.0,29.75,1008.4,,,,,,,,,,,,,,,8/8 Overcast,1900.0,,FEW,800.0,OVC,1900.0,,,,
KRDR,05-31-2007,05:35,SPECI,,160,16,,,9999,,17.0,14.0,29.75,1008.3,,,,,,,,,,,,,,,8/8 Overcast,900.0,,OVC,1600.0,,,,,,
KRDR,05-31-2007,05:00,METAR,,130,11,,,9999,,19.0,17.0,29.72,1007.7,,,,,,,,,,,,,,,8/8 Overcast,1800.0,,BKN,1800.0,OVC,3700.0,,,,
KRDR,05-31-2007,04:00,METAR,,100,5,,,9999,,19.0,18.0,29.73,1007.8,,,,,,,,,,,,,,,8/8 Overcast,4900.0,,OVC,5000.0,,,,,,
KRDR,05-31-2007,03:00,METAR,,90,5,,,9999,,19.0,18.0,29.73,1007.7,,,,,,,,,,,.03 IN,.23 IN,,,8/8 Overcast,3900.0,,FEW,2600.0,BKN,4000.0,OVC,6400.0,,
KRDR,05-31-2007,02:12,SPECI,,,5,,,9999,,19.0,18.0,29.72,,,,,,,,,,,,,,,,8/8 Overcast,7000.0,,FEW,1300.0,SCT,2600.0,BKN,6900.0,OVC,12000.0
KRDR,05-31-2007,02:00,METAR,,40,9,,,9999,Rain,18.0,18.0,29.71,,,,,61,,,,,,,,,,,8/8 Overcast,3400.0,,FEW,300.0,SCT,2600.0,BKN,3500.0,OVC,7900.0
KRDR,05-31-2007,01:18,SPECI,,30,13,,,8000,Thunderstorm with Rain or Snow/Light Rain Showers,18.0,17.0,29.72,,,,,95,80,,,,,,,,,,8/8 Overcast,2600.0,,FEW,400.0,BKN,2600.0,BKN,3400.0,OVC,7900.0
KRDR,05-31-2007,01:07,SPECI,,30,15,22.0,,6400,Rain/Mist,18.0,17.0,29.72,,,,,63,10,,,,,,,,,,8/8 Overcast,2700.0,,BKN,2700.0,BKN,3500.0,OVC,4900.0,,
KRDR,05-31-2007,01:00,METAR,,20,17,,,9999,,18.0,17.0,29.72,1007.4,,,,,,,,,,,,,,,7/8 Mostly Cloudy,2900.0,,FEW,1500.0,BKN,2900.0,BKN,5000.0,,
KRDR,05-31-2007,00:00,METAR,,30,7,19.0,,9999,,18.0,16.0,29.76,1008.7,,,,,,,,,,,.17 IN,,.17 IN,,7/8 Mostly Cloudy,2300.0,,FEW,800.0,SCT,1500.0,BKN,2300.0,,
